[{"Diff_star": -1.0, "addr": "701 MONROE STREET NW", "SR_14": 4.0, "Q_14": 5.0, "name": "BURNS NURSING HOME, INC.", "SF_14": 4.0, "SF_15": 4.0, "cnty": "Franklin", "st": "AL", "Zip": 35653.0, "O_14": 5.0, "Q_15": 4.0, "O_15": 4.0, "city": "RUSSELLVILLE", "beds": 57.0, "SR_15": 4.0}, {"Diff_star": -1.0, "addr": "315 WEST HICKORY STREET", "SR_14": 2.0, "Q_14": 5.0, "name": "COOSA VALLEY NURSING FACILITY", "SF_14": 5.0, "SF_15": 5.0, "cnty": "Talladega", "st": "AL", "Zip": 35150.0, "O_14": 4.0, "Q_15": 3.0, "O_15": 3.0, "city": "SYLACAUGA", "beds": 85.0, "SR_15": 2.0}, {"Diff_star": 0.0, "addr": "380 WOODS COVE ROAD", "SR_14": 3.0, "Q_14": 2.0, "name": "HIGHLANDS HEALTH AND REHAB", "SF_14": 4.0, "SF_15": 4.0, "cnty": "Jackson", "st": "AL", "Zip": 35768.0, "O_14": 4.0, "Q_15": 2.0, "O_15": 4.0, "city": "SCOTTSBORO", "beds": 50.0, "SR_15": 3.0}, {"Diff_star": 0.0, "addr": "7755 FOURTH AVENUE SOUTH", "SR_14": 4.0, "Q_14": 5.0, "name": "EASTVIEW REHABILITATION & HEALTHCARE CENTER", "SF_14": 5.0, "SF_15": 5.0, "cnty": "Jefferson", "st": "AL", "Zip": 35206.0, "O_14": 5.0, "Q_15": 4.0, "O_15": 5.0, "city": "BIRMINGHAM", "beds": 92.0, "SR_15": 4.0}, {"Diff_star": -1.0, "addr": "6450 OLD TUSCALOOSA HIGHWAY   P O BOX 97", "SR_14": 3.0, "Q_14": 5.0, "name": "PLANTATION MANOR NURSING HOME", "SF_14": 3.0, "SF_15": 3.0, "cnty": "Jefferson", "st": "AL", "Zip": 35111.0, "O_14": 4.0, "Q_15": 3.0, "O_15": 3.0, "city": "MC CALLA", "beds": 103.0, "SR_15": 3.0}, {"Diff_star": 0.0, "addr": "611 WEST MARKET STREET", "SR_14": 3.0, "Q_14": 5.0, "name": "ATHENS REHABILITATION CENTER & SENIOR CARE", "SF_14": 3.0, "SF_15": 3.0, "cnty": "Limestone", "st": "AL", "Zip": 35611.0, "O_14": 4.0, "Q_15": 5.0, "O_15": 4.0, "city": "ATHENS", "beds": 149.0, "SR_15": 3.0}, {"Diff_star": -1.0, "addr": "P O BOX 130", "SR_14": 2.0, "Q_14": 4.0, "name": "MERRY WOOD LODGE CARE AND REHABILITATION CENTER", "SF_14": 2.0, "SF_15": 2.0, "cnty": "Elmore", "st": "AL", "Zip": 36025.0, "O_14": 2.0, "Q_15": 1.0, "O_15": 1.0, "city": "ELMORE", "beds": 124.0, "SR_15": 2.0}, {"Diff_star": 0.0, "addr": "300 MEDICAL CENTER DRIVE", "SR_14": 3.0, "Q_14": 4.0, "name": "HATLEY HEALTH CARE INC", "SF_14": 4.0, "SF_15": 4.0, "cnty": "Chilton", "st": "AL", "Zip": 35045.0, "O_14": 4.0, "Q_15": 3.0, "O_15": 4.0, "city": "CLANTON", "beds": 201.0, "SR_15": 3.0}, {"Diff_star": -2.0, "addr": "1600 WEST HOBBS STREET", "SR_14": 3.0, "Q_14": 5.0, "name": "LIMESTONE HEALTH FACILITY", "SF_14": 4.0, "SF_15": 3.0, "cnty": "Limestone", "st": "AL", "Zip": 35611.0, "O_14": 5.0, "Q_15": 4.0, "O_15": 3.0, "city": "ATHENS", "beds": 170.0, "SR_15": 3.0}, {"Diff_star": -1.0, "addr": "1825 HOLTVILLE ROAD", "SR_14": 2.0, "Q_14": 5.0, "name": "WETUMPKA HEALTH AND REHABILITATION, LLC", "SF_14": 2.0, "SF_15": 2.0, "cnty": "Elmore", "st": "AL", "Zip": 36092.0, "O_14": 3.0, "Q_15": 5.0, "O_15": 2.0, "city": "WETUMPKA", "beds": 121.0, "SR_15": 1.0}, {"Diff_star": -1.0, "addr": "813 KELLER LANE", "SR_14": 4.0, "Q_14": 5.0, "name": "KELLER LANDING", "SF_14": 4.0, "SF_15": 4.0, "cnty": "Colbert", "st": "AL", "Zip": 35674.0, "O_14": 5.0, "Q_15": 4.0, "O_15": 4.0, "city": "TUSCUMBIA", "beds": 109.0, "SR_15": 4.0}, {"Diff_star": -1.0, "addr": "805 FLAGG CIRCLE", "SR_14": 4.0, "Q_14": 5.0, "name": "MITCHELL-HOLLINGSWORTH NURSING & REHABILITATION", "SF_14": 4.0, "SF_15": 3.0, "cnty": "Lauderdale", "st": "AL", "Zip": 35631.0, "O_14": 5.0, "Q_15": 4.0, "O_15": 4.0, "city": "FLORENCE", "beds": 222.0, "SR_15": 4.0}, {"Diff_star": -1.0, "addr": "1701 NORTH ALSTON STREET", "SR_14": 4.0, "Q_14": 3.0, "name": "GOLDEN LIVING CENTER - FOLEY", "SF_14": 4.0, "SF_15": 3.0, "cnty": "Baldwin", "st": "AL", "Zip": 36535.0, "O_14": 4.0, "Q_15": 1.0, "O_15": 3.0, "city": "FOLEY", "beds": 154.0, "SR_15": 4.0}, {"Diff_star": 0.0, "addr": "600 34TH ST", "SR_14": 2.0, "Q_14": 4.0, "name": "HUNTER CREEK HEALTH AND REHABILITATION, LLC", "SF_14": 2.0, "SF_15": 2.0, "cnty": "Tuscaloosa", "st": "AL", "Zip": 35473.0, "O_14": 2.0, "Q_15": 2.0, "O_15": 2.0, "city": "NORTHPORT", "beds": 78.0, "SR_15": 2.0}, {"Diff_star": 0.0, "addr": "100 PINEVIEW AND THIRD P.O. BOX 49", "SR_14": 5.0, "Q_14": 4.0, "name": "WEST GATE VILLAGE", "SF_14": 4.0, "SF_15": 4.0, "cnty": "Escambia", "st": "AL", "Zip": 36427.0, "O_14": 5.0, "Q_15": 3.0, "O_15": 5.0, "city": "BREWTON", "beds": 129.0, "SR_15": 5.0}, {"Diff_star": -1.0, "addr": "3312 WOODLEY ROAD", "SR_14": 2.0, "Q_14": 5.0, "name": "WOODLEY MANOR HEALTH & REHABILITATION", "SF_14": 3.0, "SF_15": 3.0, "cnty": "Montgomery", "st": "AL", "Zip": 36116.0, "O_14": 3.0, "Q_15": 4.0, "O_15": 2.0, "city": "MONTGOMERY", "beds": 105.0, "SR_15": 2.0}, {"Diff_star": -1.0, "addr": "2020 NORTH COUNTRY CLUB DRIVE", "SR_14": 3.0, "Q_14": 5.0, "name": "GOLDEN LIVING CENTER - MONTGOMERY", "SF_14": 4.0, "SF_15": 3.0, "cnty": "Montgomery", "st": "AL", "Zip": 36106.0, "O_14": 5.0, "Q_15": 5.0, "O_15": 4.0, "city": "MONTGOMERY", "beds": 138.0, "SR_15": 3.0}, {"Diff_star": -1.0, "addr": "1505 EAST 4TH AVENUE", "SR_14": 4.0, "Q_14": 5.0, "name": "SUMTER HEALTH AND REHABILITATION, L L C", "SF_14": 4.0, "SF_15": 3.0, "cnty": "Sumter", "st": "AL", "Zip": 36925.0, "O_14": 5.0, "Q_15": 4.0, "O_15": 4.0, "city": "YORK", "beds": 125.0, "SR_15": 4.0}, {"Diff_star": 0.0, "addr": "1300 EAST SOUTH BOULEVARD", "SR_14": 4.0, "Q_14": 5.0, "name": "SOUTH HAVEN HEALTH AND REHABILITATION CENTER", "SF_14": 2.0, "SF_15": 2.0, "cnty": "Montgomery", "st": "AL", "Zip": 36116.0, "O_14": 5.0, "Q_15": 5.0, "O_15": 5.0, "city": "MONTGOMERY", "beds": 102.0, "SR_15": 4.0}, {"Diff_star": 0.0, "addr": "700 FIRST AVENUE", "SR_14": 2.0, "Q_14": 4.0, "name": "CAREGIVERS OF PLEASANT GROVE, INC", "SF_14": 4.0, "SF_15": 4.0, "cnty": "Jefferson", "st": "AL", "Zip": 35127.0, "O_14": 3.0, "Q_15": 2.0, "O_15": 3.0, "city": "PLEASANT GROVE", "beds": 64.0, "SR_15": 2.0}, {"Diff_star": -1.0, "addr": "4800 48TH STREET", "SR_14": 2.0, "Q_14": 5.0, "name": "EAMC LANIER NURSING HOME", "SF_14": 4.0, "SF_15": 4.0, "cnty": "Chambers", "st": "AL", "Zip": 36854.0, "O_14": 4.0, "Q_15": 4.0, "O_15": 3.0, "city": "VALLEY", "beds": 103.0, "SR_15": 2.0}, {"Diff_star": -1.0, "addr": "1424 NORTH 25TH STREET", "SR_14": 4.0, "Q_14": 5.0, "name": "NORTHWAY HEALTH AND REHABILITATION, LLC", "SF_14": 4.0, "SF_15": 3.0, "cnty": "Jefferson", "st": "AL", "Zip": 35234.0, "O_14": 5.0, "Q_15": 3.0, "O_15": 4.0, "city": "BIRMINGHAM", "beds": 113.0, "SR_15": 4.0}, {"Diff_star": -3.0, "addr": "1607 MAIN AVE NE", "SR_14": 4.0, "Q_14": 5.0, "name": "CULLMAN HEALTH CARE CENTER", "SF_14": 4.0, "SF_15": 4.0, "cnty": "Cullman", "st": "AL", "Zip": 35055.0, "O_14": 5.0, "Q_15": 4.0, "O_15": 2.0, "city": "CULLMAN", "beds": 95.0, "SR_15": 1.0}, {"Diff_star": -1.0, "addr": "101 VILLA DRIVE P O BOX 1090", "SR_14": 4.0, "Q_14": 2.0, "name": "EASTERN SHORE REHABILITATION AND HEALTH CENTER", "SF_14": 4.0, "SF_15": 4.0, "cnty": "Baldwin", "st": "AL", "Zip": 36526.0, "O_14": 4.0, "Q_15": 1.0, "O_15": 3.0, "city": "DAPHNE", "beds": 106.0, "SR_15": 4.0}, {"Diff_star": 0.0, "addr": "325 SELMA ROAD", "SR_14": 1.0, "Q_14": 5.0, "name": "OAK TRACE CARE & REHABILITATION CENTER", "SF_14": 3.0, "SF_15": 3.0, "cnty": "Jefferson", "st": "AL", "Zip": 35020.0, "O_14": 2.0, "Q_15": 5.0, "O_15": 2.0, "city": "BESSEMER", "beds": 79.0, "SR_15": 1.0}, {"Diff_star": 0.0, "addr": "122 BROCKFORD ROAD", "SR_14": 1.0, "Q_14": 4.0, "name": "CLEBURNE COUNTY NURSING HOME", "SF_14": 4.0, "SF_15": 4.0, "cnty": "Cleburne", "st": "AL", "Zip": 36264.0, "O_14": 2.0, "Q_15": 3.0, "O_15": 2.0, "city": "HEFLIN", "beds": 82.0, "SR_15": 1.0}, {"Diff_star": 1.0, "addr": "4201 BESSEMER SUPER HIGHWAY", "SR_14": 3.0, "Q_14": 5.0, "name": "TERRACE OAKS CARE & REHABILITATION CENTER", "SF_14": 3.0, "SF_15": 4.0, "cnty": "Jefferson", "st": "AL", "Zip": 35020.0, "O_14": 4.0, "Q_15": 5.0, "O_15": 5.0, "city": "BESSEMER", "beds": 69.0, "SR_15": 3.0}, {"Diff_star": 0.0, "addr": "600 CORLEY AVENUE", "SR_14": 3.0, "Q_14": 5.0, "name": "GOLDEN LIVING CENTER - BOAZ", "SF_14": 3.0, "SF_15": 3.0, "cnty": "Marshall", "st": "AL", "Zip": 35957.0, "O_14": 4.0, "Q_15": 5.0, "O_15": 4.0, "city": "BOAZ", "beds": 100.0, "SR_15": 3.0}, {"Diff_star": 0.0, "addr": "601 JASMINE TRAIL", "SR_14": 1.0, "Q_14": 5.0, "name": "PRATTVILLE HEALTH AND REHABILITATION, LLC", "SF_14": 4.0, "SF_15": 4.0, "cnty": "Autauga", "st": "AL", "Zip": 36066.0, "O_14": 2.0, "Q_15": 5.0, "O_15": 2.0, "city": "PRATTVILLE", "beds": 162.0, "SR_15": 1.0}, {"Diff_star": 0.0, "addr": "390 UNDERWOOD ROAD", "SR_14": 2.0, "Q_14": 4.0, "name": "TERRACE MANOR NURSING & REHABILITATION CENTER, INC", "SF_14": 5.0, "SF_15": 5.0, "cnty": "Franklin", "st": "AL", "Zip": 35653.0, "O_14": 3.0, "Q_15": 4.0, "O_15": 3.0, "city": "RUSSELLVILLE", "beds": 63.0, "SR_15": 2.0}, {"Diff_star": 0.0, "addr": "500 JOHN ALDRIDGE DRIVE", "SR_14": 5.0, "Q_14": 5.0, "name": "COTTAGE OF THE SHOALS", "SF_14": 4.0, "SF_15": 3.0, "cnty": "Colbert", "st": "AL", "Zip": 35674.0, "O_14": 5.0, "Q_15": 5.0, "O_15": 5.0, "city": "TUSCUMBIA", "beds": 103.0, "SR_15": 5.0}, {"Diff_star": 0.0, "addr": "705 NORTHEAST GANDY STREET", "SR_14": 5.0, "Q_14": 4.0, "name": "RUSSELLVILLE HEALTH CARE INC", "SF_14": 4.0, "SF_15": 4.0, "cnty": "Franklin", "st": "AL", "Zip": 35653.0, "O_14": 5.0, "Q_15": 2.0, "O_15": 5.0, "city": "RUSSELLVILLE", "beds": 50.0, "SR_15": 5.0}, {"Diff_star": 0.0, "addr": "420 MAIN STREET NE", "SR_14": 4.0, "Q_14": 5.0, "name": "HANCEVILLE NURSING & REHAB CENTER, INC", "SF_14": 4.0, "SF_15": 4.0, "cnty": "Cullman", "st": "AL", "Zip": 35077.0, "O_14": 5.0, "Q_15": 5.0, "O_15": 5.0, "city": "HANCEVILLE", "beds": 208.0, "SR_15": 4.0}, {"Diff_star": 0.0, "addr": "4087 HIGHWAY 31 SOUTHWEST", "SR_14": 2.0, "Q_14": 4.0, "name": "SUMMERFORD NURSING HOME INC", "SF_14": 3.0, "SF_15": 3.0, "cnty": "Morgan", "st": "AL", "Zip": 35622.0, "O_14": 2.0, "Q_15": 2.0, "O_15": 2.0, "city": "FALKVILLE", "beds": 216.0, "SR_15": 2.0}, {"Diff_star": 0.0, "addr": "1424 MONTCLAIR ROAD", "SR_14": 1.0, "Q_14": 5.0, "name": "FAIR HAVEN RETIREMENT CENTER", "SF_14": 2.0, "SF_15": 3.0, "cnty": "Jefferson", "st": "AL", "Zip": 35210.0, "O_14": 2.0, "Q_15": 5.0, "O_15": 2.0, "city": "BIRMINGHAM", "beds": 197.0, "SR_15": 1.0}, {"Diff_star": -1.0, "addr": "987 DRAYTON STREET", "SR_14": 2.0, "Q_14": 5.0, "name": "ELBA NURSING AND REHABILITATION CENTER, LLC", "SF_14": 3.0, "SF_15": 3.0, "cnty": "Coffee", "st": "AL", "Zip": 36323.0, "O_14": 3.0, "Q_15": 4.0, "O_15": 2.0, "city": "ELBA", "beds": 111.0, "SR_15": 2.0}, {"Diff_star": 0.0, "addr": "100 PARK PLACE", "SR_14": 5.0, "Q_14": 4.0, "name": "PARK PLACE NURSING AND REHABILITATION CENTER, LLC", "SF_14": 4.0, "SF_15": 4.0, "cnty": "Dallas", "st": "AL", "Zip": 36701.0, "O_14": 5.0, "Q_15": 3.0, "O_15": 5.0, "city": "SELMA", "beds": 103.0, "SR_15": 5.0}, {"Diff_star": -1.0, "addr": "100 SANDERS DRIVE", "SR_14": 4.0, "Q_14": 5.0, "name": "EVERGREEN NURSING HOME", "SF_14": 4.0, "SF_15": 3.0, "cnty": "Conecuh", "st": "AL", "Zip": 36401.0, "O_14": 5.0, "Q_15": 4.0, "O_15": 4.0, "city": "EVERGREEN", "beds": 61.0, "SR_15": 4.0}, {"Diff_star": 0.0, "addr": "200 NORTH PINE HILL ROAD", "SR_14": 1.0, "Q_14": 5.0, "name": "NORTH HILL NURSING AND REHABILITATION CTR, LLC", "SF_14": 4.0, "SF_15": 5.0, "cnty": "Jefferson", "st": "AL", "Zip": 35217.0, "O_14": 2.0, "Q_15": 4.0, "O_15": 2.0, "city": "BIRMINGHAM", "beds": 190.0, "SR_15": 1.0}, {"Diff_star": 0.0, "addr": "1220 SOUTH 17TH STREET", "SR_14": 2.0, "Q_14": 5.0, "name": "SOUTH HEALTH AND REHABILITATION, LLC", "SF_14": 3.0, "SF_15": 3.0, "cnty": "Jefferson", "st": "AL", "Zip": 35205.0, "O_14": 3.0, "Q_15": 5.0, "O_15": 3.0, "city": "BIRMINGHAM", "beds": 83.0, "SR_15": 2.0}, {"Diff_star": -1.0, "addr": "735 SOUTH WASHINGTON AVENUE", "SR_14": 3.0, "Q_14": 5.0, "name": "ALLEN MEMORIAL HOME", "SF_14": 4.0, "SF_15": 4.0, "cnty": "Mobile", "st": "AL", "Zip": 36603.0, "O_14": 5.0, "Q_15": 3.0, "O_15": 4.0, "city": "MOBILE", "beds": 119.0, "SR_15": 3.0}, {"Diff_star": -1.0, "addr": "954 NAVCO ROAD", "SR_14": 1.0, "Q_14": 3.0, "name": "CROWNE HEALTH CARE OF MOBILE", "SF_14": 4.0, "SF_15": 4.0, "cnty": "Mobile", "st": "AL", "Zip": 36605.0, "O_14": 2.0, "Q_15": 1.0, "O_15": 1.0, "city": "MOBILE", "beds": 174.0, "SR_15": 1.0}, {"Diff_star": 0.0, "addr": "6532 WALNUT GROVE ROAD", "SR_14": 1.0, "Q_14": 5.0, "name": "ALTOONA  HEALTH & REHAB", "SF_14": 4.0, "SF_15": 4.0, "cnty": "Etowah", "st": "AL", "Zip": 35952.0, "O_14": 2.0, "Q_15": 5.0, "O_15": 2.0, "city": "ALTOONA", "beds": 50.0, "SR_15": 1.0}, {"Diff_star": 0.0, "addr": "148 TUSCALOOSA ST", "SR_14": 1.0, "Q_14": 4.0, "name": "ASHLAND PLACE HEALTH AND REHABILITATION, LLC", "SF_14": 3.0, "SF_15": 3.0, "cnty": "Mobile", "st": "AL", "Zip": 36607.0, "O_14": 1.0, "Q_15": 2.0, "O_15": 1.0, "city": "MOBILE", "beds": 164.0, "SR_15": 1.0}, {"Diff_star": -1.0, "addr": "500 SHIVERS TERRACE", "SR_14": 4.0, "Q_14": 4.0, "name": "SOUTHLAND NURSING HOME", "SF_14": 1.0, "SF_15": 1.0, "cnty": "Perry", "st": "AL", "Zip": 36756.0, "O_14": 3.0, "Q_15": 1.0, "O_15": 2.0, "city": "MARION", "beds": 91.0, "SR_15": 4.0}, {"Diff_star": 0.0, "addr": "1201 22ND STREET NORTH", "SR_14": 1.0, "Q_14": 4.0, "name": "CIVIC CENTER HEALTH AND REHABILITATION, LLC", "SF_14": 2.0, "SF_15": 2.0, "cnty": "Jefferson", "st": "AL", "Zip": 35234.0, "O_14": 1.0, "Q_15": 2.0, "O_15": 1.0, "city": "BIRMINGHAM", "beds": 95.0, "SR_15": 1.0}, {"Diff_star": -1.0, "addr": "500 ST. CLAIR AVENUE SOUTHWEST", "SR_14": 1.0, "Q_14": 5.0, "name": "DIVERSICARE OF BIG SPRINGS", "SF_14": 3.0, "SF_15": 3.0, "cnty": "Madison", "st": "AL", "Zip": 35801.0, "O_14": 2.0, "Q_15": 3.0, "O_15": 1.0, "city": "HUNTSVILLE", "beds": 145.0, "SR_15": 1.0}, {"Diff_star": 0.0, "addr": "603 WRIGHT STREET", "SR_14": 4.0, "Q_14": 5.0, "name": "MAGNOLIA HAVEN HEALTH AND REHABILITATION CENTER", "SF_14": 3.0, "SF_15": 3.0, "cnty": "Macon", "st": "AL", "Zip": 36083.0, "O_14": 5.0, "Q_15": 5.0, "O_15": 5.0, "city": "TUSKEGEE", "beds": 77.0, "SR_15": 4.0}, {"Diff_star": 0.0, "addr": "1350 FOURTEENTH AVENUE SOUTHEAST", "SR_14": 2.0, "Q_14": 4.0, "name": "RIVER CITY CENTER", "SF_14": 3.0, "SF_15": 3.0, "cnty": "Morgan", "st": "AL", "Zip": 35601.0, "O_14": 2.0, "Q_15": 4.0, "O_15": 2.0, "city": "DECATUR", "beds": 183.0, "SR_15": 2.0}, {"Diff_star": 0.0, "addr": "331 WEST 25TH STREET", "SR_14": 2.0, "Q_14": 4.0, "name": "SHADESCREST HEALTH CARE CENTER", "SF_14": 5.0, "SF_15": 5.0, "cnty": "Walker", "st": "AL", "Zip": 35502.0, "O_14": 3.0, "Q_15": 2.0, "O_15": 3.0, "city": "JASPER", "beds": 107.0, "SR_15": 2.0}, {"Diff_star": 0.0, "addr": "70 HIGHLAND STREET WEST", "SR_14": 3.0, "Q_14": 4.0, "name": "CORDOVA HEALTH AND REHABILITATION, LLC", "SF_14": 3.0, "SF_15": 3.0, "cnty": "Walker", "st": "AL", "Zip": 35550.0, "O_14": 3.0, "Q_15": 4.0, "O_15": 3.0, "city": "CORDOVA", "beds": 114.0, "SR_15": 3.0}, {"Diff_star": -1.0, "addr": "105 TEAKWOOD DRIVE SW", "SR_14": 3.0, "Q_14": 5.0, "name": "SIGNATURE HEALTHCARE OF WHITESBURG GARDENS", "SF_14": 5.0, "SF_15": 5.0, "cnty": "Madison", "st": "AL", "Zip": 35801.0, "O_14": 5.0, "Q_15": 4.0, "O_15": 4.0, "city": "HUNTSVILLE", "beds": 159.0, "SR_15": 3.0}, {"Diff_star": 0.0, "addr": "824 SIXTH AVENUE WEST", "SR_14": 2.0, "Q_14": 5.0, "name": "OAK KNOLL HEALTH AND REHABILITATION, LLC", "SF_14": 3.0, "SF_15": 3.0, "cnty": "Jefferson", "st": "AL", "Zip": 35204.0, "O_14": 3.0, "Q_15": 5.0, "O_15": 3.0, "city": "BIRMINGHAM", "beds": 100.0, "SR_15": 2.0}, {"Diff_star": -1.0, "addr": "11 BELL ROAD", "SR_14": 1.0, "Q_14": 5.0, "name": "WARREN MANOR HEALTH AND REHABILITATION CENTER", "SF_14": 4.0, "SF_15": 3.0, "cnty": "Dallas", "st": "AL", "Zip": 36701.0, "O_14": 2.0, "Q_15": 4.0, "O_15": 1.0, "city": "SELMA", "beds": 172.0, "SR_15": 1.0}, {"Diff_star": 0.0, "addr": "2300 COLEMAN RD", "SR_14": 3.0, "Q_14": 4.0, "name": "NHC HEALTHCARE, ANNISTON", "SF_14": 3.0, "SF_15": 3.0, "cnty": "Calhoun", "st": "AL", "Zip": 36207.0, "O_14": 3.0, "Q_15": 2.0, "O_15": 3.0, "city": "ANNISTON", "beds": 151.0, "SR_15": 3.0}, {"Diff_star": 0.0, "addr": "19225 NORTH 4TH STREET", "SR_14": 4.0, "Q_14": 3.0, "name": "CITRONELLE HEALTH AND REHABILITATION CENTER", "SF_14": 2.0, "SF_15": 3.0, "cnty": "Mobile", "st": "AL", "Zip": 36522.0, "O_14": 4.0, "Q_15": 1.0, "O_15": 4.0, "city": "CITRONELLE", "beds": 69.0, "SR_15": 5.0}, {"Diff_star": 0.0, "addr": "14600 ST STEPHENS AVENUE", "SR_14": 4.0, "Q_14": 4.0, "name": "WASHINGTON COUNTY NURSING HOME", "SF_14": 4.0, "SF_15": 4.0, "cnty": "Washington", "st": "AL", "Zip": 36518.0, "O_14": 4.0, "Q_15": 2.0, "O_15": 4.0, "city": "CHATOM", "beds": 88.0, "SR_15": 4.0}, {"Diff_star": 0.0, "addr": "83825 HIGHWAY 9   P O BOX 1270", "SR_14": 5.0, "Q_14": 3.0, "name": "CLAY COUNTY NURSING HOME", "SF_14": 5.0, "SF_15": 5.0, "cnty": "Clay", "st": "AL", "Zip": 36251.0, "O_14": 5.0, "Q_15": 3.0, "O_15": 5.0, "city": "ASHLAND", "beds": 83.0, "SR_15": 5.0}, {"Diff_star": -1.0, "addr": "1235 YANCEY STREET  P O BOX 467", "SR_14": 3.0, "Q_14": 5.0, "name": "TRAYLOR RETIREMENT COMMUNITY", "SF_14": 5.0, "SF_15": 5.0, "cnty": "Randolph", "st": "AL", "Zip": 36274.0, "O_14": 5.0, "Q_15": 4.0, "O_15": 4.0, "city": "ROANOKE", "beds": 123.0, "SR_15": 3.0}, {"Diff_star": 0.0, "addr": "4320 JUDITH LANE", "SR_14": 3.0, "Q_14": 5.0, "name": "BROOKSHIRE HEALTHCARE CENTER", "SF_14": 3.0, "SF_15": 3.0, "cnty": "Madison", "st": "AL", "Zip": 35805.0, "O_14": 4.0, "Q_15": 5.0, "O_15": 4.0, "city": "HUNTSVILLE", "beds": 129.0, "SR_15": 3.0}, {"Diff_star": -1.0, "addr": "300 HOSPITAL STREET", "SR_14": 1.0, "Q_14": 5.0, "name": "NHC HEALTHCARE, MOULTON", "SF_14": 3.0, "SF_15": 3.0, "cnty": "Lawrence", "st": "AL", "Zip": 35650.0, "O_14": 2.0, "Q_15": 4.0, "O_15": 1.0, "city": "MOULTON", "beds": 136.0, "SR_15": 1.0}, {"Diff_star": -1.0, "addr": "715 EAST LAUREL STREET", "SR_14": 2.0, "Q_14": 5.0, "name": "ATMORE NURSING CENTER", "SF_14": 2.0, "SF_15": 2.0, "cnty": "Escambia", "st": "AL", "Zip": 36502.0, "O_14": 3.0, "Q_15": 4.0, "O_15": 2.0, "city": "ATMORE", "beds": 100.0, "SR_15": 2.0}, {"Diff_star": -2.0, "addr": "119 WATTERSON PARKWAY", "SR_14": 3.0, "Q_14": 3.0, "name": "GOLDEN LIVING CENTER - TRUSSVILLE", "SF_14": 2.0, "SF_15": 2.0, "cnty": "Jefferson", "st": "AL", "Zip": 35173.0, "O_14": 3.0, "Q_15": 1.0, "O_15": 1.0, "city": "TRUSSVILLE", "beds": 125.0, "SR_15": 2.0}, {"Diff_star": -1.0, "addr": "P O BOX 3408, 1130 SOUTH HALE STREET", "SR_14": 1.0, "Q_14": 5.0, "name": "GOLDEN LIVING CENTER - OXFORD", "SF_14": 3.0, "SF_15": 3.0, "cnty": "Calhoun", "st": "AL", "Zip": 36203.0, "O_14": 2.0, "Q_15": 3.0, "O_15": 1.0, "city": "OXFORD", "beds": 173.0, "SR_15": 1.0}, {"Diff_star": 0.0, "addr": "420 DEAN LANE", "SR_14": 2.0, "Q_14": 5.0, "name": "MAGNOLIA RIDGE CARE AND REHABILITATION CENTER", "SF_14": 3.0, "SF_15": 4.0, "cnty": "Jefferson", "st": "AL", "Zip": 35071.0, "O_14": 3.0, "Q_15": 4.0, "O_15": 3.0, "city": "GARDENDALE", "beds": 148.0, "SR_15": 2.0}, {"Diff_star": 0.0, "addr": "733 MARY VANN LANE", "SR_14": 1.0, "Q_14": 5.0, "name": "BIRMINGHAM NURSING AND REHABILITATION CENTER EAST", "SF_14": 4.0, "SF_15": 3.0, "cnty": "Jefferson", "st": "AL", "Zip": 35215.0, "O_14": 2.0, "Q_15": 5.0, "O_15": 2.0, "city": "BIRMINGHAM", "beds": 132.0, "SR_15": 1.0}, {"Diff_star": 0.0, "addr": "4401 NARROW LANE ROAD", "SR_14": 4.0, "Q_14": 5.0, "name": "JOHN KNOX MANOR INC  I I", "SF_14": 4.0, "SF_15": 4.0, "cnty": "Montgomery", "st": "AL", "Zip": 36116.0, "O_14": 5.0, "Q_15": 5.0, "O_15": 5.0, "city": "MONTGOMERY", "beds": 98.0, "SR_15": 4.0}, {"Diff_star": 0.0, "addr": "10 WEST 3RD STREET  PO BOX 409", "SR_14": 4.0, "Q_14": 5.0, "name": "FALKVILLE HEALTH CARE CENTER", "SF_14": 4.0, "SF_15": 4.0, "cnty": "Morgan", "st": "AL", "Zip": 35622.0, "O_14": 5.0, "Q_15": 5.0, "O_15": 5.0, "city": "FALKVILLE", "beds": 116.0, "SR_15": 4.0}, {"Diff_star": 0.0, "addr": "703 17TH STREET NORTHWEST", "SR_14": 5.0, "Q_14": 3.0, "name": "ALICEVILLE MANOR NURSING HOME", "SF_14": 4.0, "SF_15": 4.0, "cnty": "Pickens", "st": "AL", "Zip": 35442.0, "O_14": 5.0, "Q_15": 2.0, "O_15": 5.0, "city": "ALICEVILLE", "beds": 100.0, "SR_15": 5.0}, {"Diff_star": -1.0, "addr": "1000 HIGHWAY 33", "SR_14": 3.0, "Q_14": 5.0, "name": "HENDRIX HEALTH AND REHABILITATION", "SF_14": 3.0, "SF_15": 3.0, "cnty": "Winston", "st": "AL", "Zip": 35553.0, "O_14": 4.0, "Q_15": 4.0, "O_15": 3.0, "city": "DOUBLE SPRINGS", "beds": 110.0, "SR_15": 3.0}, {"Diff_star": 0.0, "addr": "2639 GILMER AVENUE  P O BOX 780277", "SR_14": 3.0, "Q_14": 5.0, "name": "TALLASSEE HEALTH AND REHABILITATION, LLC", "SF_14": 4.0, "SF_15": 4.0, "cnty": "Elmore", "st": "AL", "Zip": 36078.0, "O_14": 5.0, "Q_15": 5.0, "O_15": 5.0, "city": "TALLASSEE", "beds": 111.0, "SR_15": 3.0}, {"Diff_star": 0.0, "addr": "515 2ND AVENUE NORTHWEST", "SR_14": 3.0, "Q_14": 4.0, "name": "ARBOR WOODS HEALTH AND REHAB", "SF_14": 4.0, "SF_15": 4.0, "cnty": "Pickens", "st": "AL", "Zip": 35481.0, "O_14": 4.0, "Q_15": 4.0, "O_15": 4.0, "city": "REFORM", "beds": 85.0, "SR_15": 3.0}, {"Diff_star": 0.0, "addr": "88073 HIGHWAY 9", "SR_14": 4.0, "Q_14": 4.0, "name": "LINEVILLE HEALTH AND REHABILITATION, LLC", "SF_14": 4.0, "SF_15": 4.0, "cnty": "Clay", "st": "AL", "Zip": 36266.0, "O_14": 4.0, "Q_15": 2.0, "O_15": 4.0, "city": "LINEVILLE", "beds": 101.0, "SR_15": 4.0}, {"Diff_star": -1.0, "addr": "2215 32ND STREET", "SR_14": 1.0, "Q_14": 3.0, "name": "FOREST MANOR INC", "SF_14": 5.0, "SF_15": 5.0, "cnty": "Tuscaloosa", "st": "AL", "Zip": 35476.0, "O_14": 2.0, "Q_15": 1.0, "O_15": 1.0, "city": "NORTHPORT", "beds": 182.0, "SR_15": 1.0}, {"Diff_star": 0.0, "addr": "850 NORTHWEST NINTH STREET", "SR_14": 1.0, "Q_14": 5.0, "name": "CHANDLER HEALTH & REHAB CENTER, LLC", "SF_14": 5.0, "SF_15": 5.0, "cnty": "Shelby", "st": "AL", "Zip": 35007.0, "O_14": 2.0, "Q_15": 3.0, "O_15": 2.0, "city": "ALABASTER", "beds": 198.0, "SR_15": 1.0}, {"Diff_star": 0.0, "addr": "2500 RIVERHAVEN DRIVE", "SR_14": 2.0, "Q_14": 4.0, "name": "GOLDEN LIVING CENTER - RIVERCHASE", "SF_14": 3.0, "SF_15": 3.0, "cnty": "Jefferson", "st": "AL", "Zip": 35244.0, "O_14": 2.0, "Q_15": 3.0, "O_15": 2.0, "city": "BIRMINGHAM", "beds": 132.0, "SR_15": 2.0}, {"Diff_star": 0.0, "addr": "211 ANA DRIVE", "SR_14": 3.0, "Q_14": 5.0, "name": "GLENWOOD CENTER", "SF_14": 4.0, "SF_15": 4.0, "cnty": "Lauderdale", "st": "AL", "Zip": 35630.0, "O_14": 5.0, "Q_15": 5.0, "O_15": 5.0, "city": "FLORENCE", "beds": 125.0, "SR_15": 3.0}, {"Diff_star": 0.0, "addr": "235 THIRD STREET SE", "SR_14": 3.0, "Q_14": 4.0, "name": "GOLDEN LIVING CENTER - ARAB", "SF_14": 4.0, "SF_15": 4.0, "cnty": "Marshall", "st": "AL", "Zip": 35016.0, "O_14": 4.0, "Q_15": 2.0, "O_15": 4.0, "city": "ARAB", "beds": 87.0, "SR_15": 4.0}, {"Diff_star": 0.0, "addr": "251 SUNSET PLACE", "SR_14": 3.0, "Q_14": 5.0, "name": "SOUTHERN CARE, LLC", "SF_14": 4.0, "SF_15": 4.0, "cnty": "Marion", "st": "AL", "Zip": 35563.0, "O_14": 5.0, "Q_15": 5.0, "O_15": 5.0, "city": "GUIN", "beds": 71.0, "SR_15": 3.0}, {"Diff_star": -2.0, "addr": "1200 MAPLE AVENUE WEST", "SR_14": 4.0, "Q_14": 5.0, "name": "WIREGRASS REHABILITATION CENTER & NURSING HOME", "SF_14": 4.0, "SF_15": 3.0, "cnty": "Geneva", "st": "AL", "Zip": 36340.0, "O_14": 5.0, "Q_15": 5.0, "O_15": 3.0, "city": "GENEVA", "beds": 96.0, "SR_15": 2.0}, {"Diff_star": -2.0, "addr": "1758 SPRINGHILL AVE", "SR_14": 2.0, "Q_14": 3.0, "name": "AZALEA GARDENS OF MOBILE", "SF_14": 4.0, "SF_15": 3.0, "cnty": "Mobile", "st": "AL", "Zip": 36607.0, "O_14": 3.0, "Q_15": 1.0, "O_15": 1.0, "city": "MOBILE", "beds": 170.0, "SR_15": 2.0}, {"Diff_star": 0.0, "addr": "950 SOUTH ST. ANDREWS STREET", "SR_14": 3.0, "Q_14": 5.0, "name": "EXTENDICARE HEALTH CENTER", "SF_14": 4.0, "SF_15": 4.0, "cnty": "Houston", "st": "AL", "Zip": 36302.0, "O_14": 5.0, "Q_15": 5.0, "O_15": 5.0, "city": "DOTHAN", "beds": 170.0, "SR_15": 3.0}, {"Diff_star": -1.0, "addr": "1020 TUSCALOOSA AVENUE, SW", "SR_14": 2.0, "Q_14": 5.0, "name": "ARLINGTON REHABILITATION & HEALTHCARE CENTER", "SF_14": 4.0, "SF_15": 4.0, "cnty": "Jefferson", "st": "AL", "Zip": 35211.0, "O_14": 4.0, "Q_15": 4.0, "O_15": 3.0, "city": "BIRMINGHAM", "beds": 117.0, "SR_15": 2.0}, {"Diff_star": -1.0, "addr": "1653 TEMPLE AVENUE NORTH", "SR_14": 4.0, "Q_14": 3.0, "name": "FAYETTE MEDICAL CENTER LONG TERM CARE UNIT", "SF_14": 2.0, "SF_15": 2.0, "cnty": "Fayette", "st": "AL", "Zip": 35555.0, "O_14": 4.0, "Q_15": 1.0, "O_15": 3.0, "city": "FAYETTE", "beds": 122.0, "SR_15": 4.0}, {"Diff_star": 0.0, "addr": "907 11TH STREET, NE", "SR_14": 5.0, "Q_14": 5.0, "name": "RIDGEVIEW HEALTH SERVICES, INC", "SF_14": 4.0, "SF_15": 4.0, "cnty": "Walker", "st": "AL", "Zip": 35504.0, "O_14": 5.0, "Q_15": 3.0, "O_15": 5.0, "city": "JASPER", "beds": 148.0, "SR_15": 5.0}, {"Diff_star": -1.0, "addr": "403 13TH STREET NORTHWEST", "SR_14": 3.0, "Q_14": 5.0, "name": "CROWNE HEALTH CARE OF FT PAYNE", "SF_14": 4.0, "SF_15": 4.0, "cnty": "De Kalb", "st": "AL", "Zip": 35967.0, "O_14": 5.0, "Q_15": 4.0, "O_15": 4.0, "city": "FORT PAYNE", "beds": 123.0, "SR_15": 3.0}, {"Diff_star": 0.0, "addr": "2201 11TH AVENUE", "SR_14": 5.0, "Q_14": 4.0, "name": "HALEYVILLE HEALTH CARE CENTER", "SF_14": 3.0, "SF_15": 3.0, "cnty": "Winston", "st": "AL", "Zip": 35565.0, "O_14": 5.0, "Q_15": 3.0, "O_15": 5.0, "city": "HALEYVILLE", "beds": 97.0, "SR_15": 5.0}, {"Diff_star": 0.0, "addr": "505 EAST LAFAYETTE STREET", "SR_14": 1.0, "Q_14": 4.0, "name": "PERRY COUNTY NURSING HOME", "SF_14": 4.0, "SF_15": 4.0, "cnty": "Perry", "st": "AL", "Zip": 36756.0, "O_14": 2.0, "Q_15": 3.0, "O_15": 2.0, "city": "MARION", "beds": 71.0, "SR_15": 1.0}, {"Diff_star": 0.0, "addr": "215 VALLEY ROAD", "SR_14": 3.0, "Q_14": 5.0, "name": "GOLDEN LIVING CENTER - ONEONTA", "SF_14": 2.0, "SF_15": 2.0, "cnty": "Blount", "st": "AL", "Zip": 35121.0, "O_14": 4.0, "Q_15": 5.0, "O_15": 4.0, "city": "ONEONTA", "beds": 120.0, "SR_15": 3.0}, {"Diff_star": 0.0, "addr": "1007 W FORT WILLIAMS ST", "SR_14": 2.0, "Q_14": 4.0, "name": "SYLACAUGA HEALTH AND REHAB SERVICES", "SF_14": 5.0, "SF_15": 5.0, "cnty": "Talladega", "st": "AL", "Zip": 35150.0, "O_14": 3.0, "Q_15": 3.0, "O_15": 3.0, "city": "SYLACAUGA", "beds": 149.0, "SR_15": 2.0}, {"Diff_star": -1.0, "addr": "616 CHAFFEE STREET", "SR_14": 2.0, "Q_14": 5.0, "name": "TALLADEGA HEALTHCARE CENTER, INC", "SF_14": 4.0, "SF_15": 4.0, "cnty": "Talladega", "st": "AL", "Zip": 35160.0, "O_14": 4.0, "Q_15": 3.0, "O_15": 3.0, "city": "TALLADEGA", "beds": 234.0, "SR_15": 2.0}, {"Diff_star": 0.0, "addr": "750 ALABAMA HIGHWAY 75 NORTH", "SR_14": 4.0, "Q_14": 5.0, "name": "ALBERTVILLE NURSING HOME", "SF_14": 5.0, "SF_15": 5.0, "cnty": "Marshall", "st": "AL", "Zip": 35950.0, "O_14": 5.0, "Q_15": 4.0, "O_15": 5.0, "city": "ALBERTVILLE", "beds": 159.0, "SR_15": 4.0}, {"Diff_star": 0.0, "addr": "1406 EAST PUSHMATAHA STREET", "SR_14": 4.0, "Q_14": 4.0, "name": "WILLOW TRACE HEALTH AND REHABILITATION CENTER", "SF_14": 4.0, "SF_15": 4.0, "cnty": "Choctaw", "st": "AL", "Zip": 36904.0, "O_14": 4.0, "Q_15": 4.0, "O_15": 4.0, "city": "BUTLER", "beds": 120.0, "SR_15": 4.0}, {"Diff_star": 0.0, "addr": "351 NORTH EAST STREET", "SR_14": 2.0, "Q_14": 5.0, "name": "DADEVILLE HEALTHCARE CENTER", "SF_14": 4.0, "SF_15": 4.0, "cnty": "Tallapoosa", "st": "AL", "Zip": 36853.0, "O_14": 4.0, "Q_15": 5.0, "O_15": 4.0, "city": "DADEVILLE", "beds": 144.0, "SR_15": 2.0}, {"Diff_star": 0.0, "addr": "184 SASSER DRIVE", "SR_14": 1.0, "Q_14": 5.0, "name": "MARION REGIONAL NURSING HOME", "SF_14": 4.0, "SF_15": 4.0, "cnty": "Marion", "st": "AL", "Zip": 35570.0, "O_14": 2.0, "Q_15": 4.0, "O_15": 2.0, "city": "HAMILTON", "beds": 76.0, "SR_15": 1.0}, {"Diff_star": 0.0, "addr": "1655 MCGILL AVENUE", "SR_14": 4.0, "Q_14": 4.0, "name": "LITTLE SISTERS OF THE POOR SACRED HEART RESIDENCE", "SF_14": 4.0, "SF_15": 4.0, "cnty": "Mobile", "st": "AL", "Zip": 36604.0, "O_14": 4.0, "Q_15": 4.0, "O_15": 4.0, "city": "MOBILE", "beds": 75.0, "SR_15": 4.0}, {"Diff_star": -1.0, "addr": "2107 CLOYD BLVD", "SR_14": 3.0, "Q_14": 5.0, "name": "FLORENCE NURSING AND REHABILITATION CTR,  LLC", "SF_14": 3.0, "SF_15": 3.0, "cnty": "Lauderdale", "st": "AL", "Zip": 35630.0, "O_14": 4.0, "Q_15": 4.0, "O_15": 3.0, "city": "FLORENCE", "beds": 147.0, "SR_15": 3.0}, {"Diff_star": -1.0, "addr": "745 SOUTHERN SPRINGS ROAD", "SR_14": 2.0, "Q_14": 5.0, "name": "SOUTHERN SPRINGS HEALTHCARE FACILITY", "SF_14": 2.0, "SF_15": 2.0, "cnty": "Bullock", "st": "AL", "Zip": 36089.0, "O_14": 3.0, "Q_15": 4.0, "O_15": 2.0, "city": "UNION SPRINGS", "beds": 123.0, "SR_15": 2.0}, {"Diff_star": 0.0, "addr": "513 PINEVIEW AVENUE", "SR_14": 3.0, "Q_14": 5.0, "name": "COOSA VALLEY HEALTH CARE", "SF_14": 3.0, "SF_15": 3.0, "cnty": "Etowah", "st": "AL", "Zip": 35905.0, "O_14": 4.0, "Q_15": 5.0, "O_15": 4.0, "city": "GLENCOE", "beds": 124.0, "SR_15": 3.0}, {"Diff_star": 0.0, "addr": "718 HONEYSUCKLE ROAD", "SR_14": 2.0, "Q_14": 4.0, "name": "WESLEY MANOR RETIREMENT CENTER", "SF_14": 4.0, "SF_15": 4.0, "cnty": "Houston", "st": "AL", "Zip": 36305.0, "O_14": 3.0, "Q_15": 3.0, "O_15": 3.0, "city": "DOTHAN", "beds": 166.0, "SR_15": 2.0}, {"Diff_star": 0.0, "addr": "8922 HIGHWAY 227      PO BOX 97", "SR_14": 5.0, "Q_14": 5.0, "name": "CROSSVILLE HEALTH AND REHABILITATION, LLC", "SF_14": 4.0, "SF_15": 3.0, "cnty": "De Kalb", "st": "AL", "Zip": 35962.0, "O_14": 5.0, "Q_15": 4.0, "O_15": 5.0, "city": "CROSSVILLE", "beds": 143.0, "SR_15": 5.0}, {"Diff_star": 0.0, "addr": "105 WEST WINDSOR ST", "SR_14": 4.0, "Q_14": 5.0, "name": "WOODHAVEN MANOR NURSING HOME", "SF_14": 4.0, "SF_15": 4.0, "cnty": "Marengo", "st": "AL", "Zip": 36732.0, "O_14": 5.0, "Q_15": 5.0, "O_15": 5.0, "city": "DEMOPOLIS", "beds": 75.0, "SR_15": 4.0}, {"Diff_star": 0.0, "addr": "509 WILSON AVE", "SR_14": 1.0, "Q_14": 5.0, "name": "GREENE COUNTY NURSING HOME", "SF_14": 4.0, "SF_15": 4.0, "cnty": "Greene", "st": "AL", "Zip": 35462.0, "O_14": 2.0, "Q_15": 4.0, "O_15": 2.0, "city": "EUTAW", "beds": 72.0, "SR_15": 1.0}, {"Diff_star": 0.0, "addr": "3301 STADIUM DRIVE", "SR_14": 5.0, "Q_14": 4.0, "name": "PARKWOOD HEALTH CARE FACILITY", "SF_14": 3.0, "SF_15": 3.0, "cnty": "Russell", "st": "AL", "Zip": 36867.0, "O_14": 5.0, "Q_15": 3.0, "O_15": 5.0, "city": "PHENIX CITY", "beds": 74.0, "SR_15": 5.0}, {"Diff_star": -1.0, "addr": "1945 DAVIS DRIVE", "SR_14": 4.0, "Q_14": 5.0, "name": "GADSDEN HEALTH AND REHAB CENTER", "SF_14": 4.0, "SF_15": 4.0, "cnty": "Etowah", "st": "AL", "Zip": 35904.0, "O_14": 5.0, "Q_15": 4.0, "O_15": 4.0, "city": "GADSDEN", "beds": 168.0, "SR_15": 4.0}, {"Diff_star": -1.0, "addr": "206 PALMER AVENUE", "SR_14": 4.0, "Q_14": 5.0, "name": "GEORGIANA HEALTH AND REHABILITATION, LLC", "SF_14": 4.0, "SF_15": 4.0, "cnty": "Butler", "st": "AL", "Zip": 36033.0, "O_14": 5.0, "Q_15": 4.0, "O_15": 4.0, "city": "GEORGIANA", "beds": 91.0, "SR_15": 4.0}, {"Diff_star": -1.0, "addr": "4525 ST STEPHENS ROAD", "SR_14": 2.0, "Q_14": 4.0, "name": "NORTH MOBILE NURSING AND REHABILITATION CTR", "SF_14": 3.0, "SF_15": 3.0, "cnty": "Mobile", "st": "AL", "Zip": 36613.0, "O_14": 2.0, "Q_15": 1.0, "O_15": 1.0, "city": "EIGHT MILE", "beds": 172.0, "SR_15": 2.0}, {"Diff_star": 0.0, "addr": "412 CLOVERDALE ROAD", "SR_14": 5.0, "Q_14": 5.0, "name": "CLOVERDALE MANOR", "SF_14": 4.0, "SF_15": 4.0, "cnty": "Jackson", "st": "AL", "Zip": 35768.0, "O_14": 5.0, "Q_15": 5.0, "O_15": 5.0, "city": "SCOTTSBORO", "beds": 141.0, "SR_15": 5.0}, {"Diff_star": 0.0, "addr": "2201 32ND STREET", "SR_14": 1.0, "Q_14": 5.0, "name": "GLEN HAVEN HEALTH AND REHABILITATION, LLC", "SF_14": 4.0, "SF_15": 4.0, "cnty": "Tuscaloosa", "st": "AL", "Zip": 35476.0, "O_14": 2.0, "Q_15": 3.0, "O_15": 2.0, "city": "NORTHPORT", "beds": 200.0, "SR_15": 1.0}, {"Diff_star": 0.0, "addr": "THIRD AVENUE    P O BOX 607", "SR_14": 5.0, "Q_14": 5.0, "name": "MOUNDVILLE HEALTH AND REHABILITATION, LLC", "SF_14": 4.0, "SF_15": 3.0, "cnty": "Hale", "st": "AL", "Zip": 35474.0, "O_14": 5.0, "Q_15": 5.0, "O_15": 5.0, "city": "MOUNDVILLE", "beds": 68.0, "SR_15": 5.0}, {"Diff_star": 0.0, "addr": "2616 NORTH COLLEGE AVENUE", "SR_14": 4.0, "Q_14": 5.0, "name": "JACKSON HEALTH CARE FACILITY", "SF_14": 4.0, "SF_15": 4.0, "cnty": "Clarke", "st": "AL", "Zip": 36545.0, "O_14": 5.0, "Q_15": 5.0, "O_15": 5.0, "city": "JACKSON", "beds": 91.0, "SR_15": 4.0}, {"Diff_star": 0.0, "addr": "510 WOLF CREEK ROAD, NORTH", "SR_14": 1.0, "Q_14": 4.0, "name": "GOLDEN LIVING CENTER - PELL CITY", "SF_14": 4.0, "SF_15": 4.0, "cnty": "St. Clair", "st": "AL", "Zip": 35125.0, "O_14": 2.0, "Q_15": 2.0, "O_15": 2.0, "city": "PELL CITY", "beds": 94.0, "SR_15": 1.0}, {"Diff_star": -2.0, "addr": "2334 WASHINGTON STREET", "SR_14": 2.0, "Q_14": 5.0, "name": "BROWN NURSING HOME", "SF_14": 4.0, "SF_15": 3.0, "cnty": "Tallapoosa", "st": "AL", "Zip": 35010.0, "O_14": 4.0, "Q_15": 4.0, "O_15": 2.0, "city": "ALEXANDER CITY", "beds": 68.0, "SR_15": 2.0}, {"Diff_star": 0.0, "addr": "1910 PEPPERELL PKWY", "SR_14": 2.0, "Q_14": 5.0, "name": "ARBOR SPRINGS HEALTH AND REHAB CENTER, LTD", "SF_14": 4.0, "SF_15": 4.0, "cnty": "Lee", "st": "AL", "Zip": 36801.0, "O_14": 4.0, "Q_15": 5.0, "O_15": 4.0, "city": "OPELIKA", "beds": 225.0, "SR_15": 2.0}, {"Diff_star": 0.0, "addr": "408 COUNTRY CLUB DRIVE", "SR_14": 2.0, "Q_14": 4.0, "name": "CROWNE HEALTH CARE OF GREENVILLE", "SF_14": 4.0, "SF_15": 4.0, "cnty": "Butler", "st": "AL", "Zip": 36037.0, "O_14": 3.0, "Q_15": 2.0, "O_15": 3.0, "city": "GREENVILLE", "beds": 118.0, "SR_15": 2.0}, {"Diff_star": 0.0, "addr": "30 ROUNDTREE DRIVE", "SR_14": 4.0, "Q_14": 5.0, "name": "PIEDMONT HEALTH CARE CENTER", "SF_14": 4.0, "SF_15": 3.0, "cnty": "Calhoun", "st": "AL", "Zip": 36272.0, "O_14": 5.0, "Q_15": 5.0, "O_15": 5.0, "city": "PIEDMONT", "beds": 91.0, "SR_15": 4.0}, {"Diff_star": 0.0, "addr": "415 COOK SPRINGS", "SR_14": 4.0, "Q_14": 4.0, "name": "VILLAGE AT COOK SPRINGS SKILLED NURSING FACILITY", "SF_14": 3.0, "SF_15": 3.0, "cnty": "St. Clair", "st": "AL", "Zip": 35125.0, "O_14": 4.0, "Q_15": 2.0, "O_15": 4.0, "city": "PELL CITY", "beds": 168.0, "SR_15": 4.0}, {"Diff_star": 0.0, "addr": "702 SOUTH 13TH STREET", "SR_14": 2.0, "Q_14": 4.0, "name": "GOLDEN LIVING CENTER - LANETT", "SF_14": 3.0, "SF_15": 3.0, "cnty": "Chambers", "st": "AL", "Zip": 36863.0, "O_14": 2.0, "Q_15": 2.0, "O_15": 2.0, "city": "LANETT", "beds": 85.0, "SR_15": 2.0}, {"Diff_star": 0.0, "addr": "805 HOSPITAL STREET SOUTHWEST", "SR_14": 3.0, "Q_14": 5.0, "name": "LAFAYETTE EXTENDED CARE", "SF_14": 4.0, "SF_15": 4.0, "cnty": "Chambers", "st": "AL", "Zip": 36862.0, "O_14": 5.0, "Q_15": 5.0, "O_15": 5.0, "city": "LAFAYETTE", "beds": 69.0, "SR_15": 3.0}, {"Diff_star": 0.0, "addr": "430 RIVERS AVENUE", "SR_14": 1.0, "Q_14": 4.0, "name": "CROWNE HEALTH CARE OF EUFAULA", "SF_14": 4.0, "SF_15": 4.0, "cnty": "Barbour", "st": "AL", "Zip": 36027.0, "O_14": 2.0, "Q_15": 2.0, "O_15": 2.0, "city": "EUFAULA", "beds": 180.0, "SR_15": 1.0}, {"Diff_star": 0.0, "addr": "877 CEDAR BLUFF ROAD", "SR_14": 3.0, "Q_14": 4.0, "name": "CHEROKEE COUNTY HEALTH AND REHABILITATION CENTER", "SF_14": 4.0, "SF_15": 4.0, "cnty": "Cherokee", "st": "AL", "Zip": 35960.0, "O_14": 4.0, "Q_15": 2.0, "O_15": 4.0, "city": "CENTRE", "beds": 185.0, "SR_15": 3.0}, {"Diff_star": 0.0, "addr": "106 TENTH AVENUE NORTHWEST", "SR_14": 2.0, "Q_14": 4.0, "name": "GENERATIONS OF RED BAY, LLC", "SF_14": 2.0, "SF_15": 2.0, "cnty": "Franklin", "st": "AL", "Zip": 35582.0, "O_14": 2.0, "Q_15": 3.0, "O_15": 2.0, "city": "RED BAY", "beds": 90.0, "SR_15": 2.0}, {"Diff_star": 0.0, "addr": "2301 RAINBOW DRIVE", "SR_14": 3.0, "Q_14": 5.0, "name": "MCGUFFEY HEALTH & REHABILITATION CENTER", "SF_14": 4.0, "SF_15": 4.0, "cnty": "Etowah", "st": "AL", "Zip": 35999.0, "O_14": 5.0, "Q_15": 5.0, "O_15": 5.0, "city": "GADSDEN", "beds": 209.0, "SR_15": 3.0}, {"Diff_star": -1.0, "addr": "915 STEWART AVENUE SOUTHEAST", "SR_14": 1.0, "Q_14": 3.0, "name": "ATTALLA HEALTH CARE", "SF_14": 4.0, "SF_15": 4.0, "cnty": "Etowah", "st": "AL", "Zip": 35954.0, "O_14": 2.0, "Q_15": 1.0, "O_15": 1.0, "city": "ATTALLA", "beds": 182.0, "SR_15": 1.0}, {"Diff_star": 0.0, "addr": "16 JONES HILL ROAD", "SR_14": 4.0, "Q_14": 5.0, "name": "GOODWATER HEALTHCARE CENTER", "SF_14": 4.0, "SF_15": 4.0, "cnty": "Coosa", "st": "AL", "Zip": 35072.0, "O_14": 5.0, "Q_15": 5.0, "O_15": 5.0, "city": "GOODWATER", "beds": 72.0, "SR_15": 4.0}, {"Diff_star": 0.0, "addr": "2326 MORGAN AVENUE SOUTHWEST", "SR_14": 2.0, "Q_14": 4.0, "name": "DECATUR HEALTH & REHAB CENTER", "SF_14": 4.0, "SF_15": 4.0, "cnty": "Morgan", "st": "AL", "Zip": 35603.0, "O_14": 3.0, "Q_15": 4.0, "O_15": 3.0, "city": "DECATUR", "beds": 119.0, "SR_15": 2.0}, {"Diff_star": -1.0, "addr": "685 NORTH VALLEY AVE", "SR_14": 5.0, "Q_14": 2.0, "name": "COLLINSVILLE HEALTHCARE & REHAB", "SF_14": 4.0, "SF_15": 4.0, "cnty": "De Kalb", "st": "AL", "Zip": 35961.0, "O_14": 5.0, "Q_15": 1.0, "O_15": 4.0, "city": "COLLINSVILLE", "beds": 200.0, "SR_15": 5.0}, {"Diff_star": -1.0, "addr": "312 BRYAN DRIVE", "SR_14": 3.0, "Q_14": 5.0, "name": "OZARK HEALTH AND REHABILITATION, LLC", "SF_14": 4.0, "SF_15": 3.0, "cnty": "Dale", "st": "AL", "Zip": 36360.0, "O_14": 5.0, "Q_15": 5.0, "O_15": 4.0, "city": "OZARK", "beds": 149.0, "SR_15": 3.0}, {"Diff_star": 0.0, "addr": "820 GOLF COURSE ROAD", "SR_14": 2.0, "Q_14": 5.0, "name": "GOLDEN LIVING CENTER - MEADOWOOD", "SF_14": 3.0, "SF_15": 3.0, "cnty": "Jefferson", "st": "AL", "Zip": 35020.0, "O_14": 3.0, "Q_15": 5.0, "O_15": 3.0, "city": "BESSEMER", "beds": 180.0, "SR_15": 2.0}, {"Diff_star": -1.0, "addr": "115 PAULK AVENUE  P O BOX 730", "SR_14": 3.0, "Q_14": 5.0, "name": "OPP HEALTH AND REHABILITATION, LLC", "SF_14": 4.0, "SF_15": 3.0, "cnty": "Covington", "st": "AL", "Zip": 36467.0, "O_14": 5.0, "Q_15": 5.0, "O_15": 4.0, "city": "OPP", "beds": 197.0, "SR_15": 3.0}, {"Diff_star": 0.0, "addr": "857 CRAWFORD LANE", "SR_14": 3.0, "Q_14": 5.0, "name": "TWIN OAKS REHABILITATION AND HEALTHCARE CENTER", "SF_14": 4.0, "SF_15": 4.0, "cnty": "Mobile", "st": "AL", "Zip": 36617.0, "O_14": 5.0, "Q_15": 5.0, "O_15": 5.0, "city": "MOBILE", "beds": 131.0, "SR_15": 3.0}, {"Diff_star": 0.0, "addr": "131 EAST CREST ROAD", "SR_14": 3.0, "Q_14": 4.0, "name": "SELF HEALTH CARE & REHAB CENTER INC", "SF_14": 4.0, "SF_15": 4.0, "cnty": "Jefferson", "st": "AL", "Zip": 35023.0, "O_14": 4.0, "Q_15": 3.0, "O_15": 4.0, "city": "HUEYTOWN", "beds": 131.0, "SR_15": 3.0}, {"Diff_star": -1.0, "addr": "515 ELBA HIGHWAY", "SR_14": 1.0, "Q_14": 4.0, "name": "TROY HEALTH & REHABILITATION CENTER", "SF_14": 4.0, "SF_15": 3.0, "cnty": "Pike", "st": "AL", "Zip": 36079.0, "O_14": 2.0, "Q_15": 3.0, "O_15": 1.0, "city": "TROY", "beds": 234.0, "SR_15": 1.0}, {"Diff_star": 0.0, "addr": "3891 SULLIVAN ST", "SR_14": 4.0, "Q_14": 5.0, "name": "MADISON MANOR NURSING HOME", "SF_14": 4.0, "SF_15": 4.0, "cnty": "Madison", "st": "AL", "Zip": 35758.0, "O_14": 5.0, "Q_15": 5.0, "O_15": 5.0, "city": "MADISON", "beds": 80.0, "SR_15": 4.0}, {"Diff_star": 0.0, "addr": "208 PIERSON AVE", "SR_14": 2.0, "Q_14": 4.0, "name": "BIBB MED CENTER NURSING HOME", "SF_14": 3.0, "SF_15": 3.0, "cnty": "Bibb", "st": "AL", "Zip": 35042.0, "O_14": 2.0, "Q_15": 3.0, "O_15": 2.0, "city": "CENTREVILLE", "beds": 131.0, "SR_15": 2.0}, {"Diff_star": 0.0, "addr": "929 MIXON SCHOOL ROAD", "SR_14": 2.0, "Q_14": 5.0, "name": "OAKVIEW MANOR HEALTH CARE CENTER", "SF_14": 3.0, "SF_15": 3.0, "cnty": "Dale", "st": "AL", "Zip": 36360.0, "O_14": 3.0, "Q_15": 2.0, "O_15": 3.0, "city": "OZARK", "beds": 138.0, "SR_15": 3.0}, {"Diff_star": 0.0, "addr": "1000 DUGAN AVENUE", "SR_14": 3.0, "Q_14": 5.0, "name": "BIRMINGHAM NURSING AND REHABILITATION CTR", "SF_14": 4.0, "SF_15": 3.0, "cnty": "Jefferson", "st": "AL", "Zip": 35214.0, "O_14": 5.0, "Q_15": 5.0, "O_15": 5.0, "city": "BIRMINGHAM", "beds": 132.0, "SR_15": 4.0}, {"Diff_star": 0.0, "addr": "1425 MOSLEY DRIVE", "SR_14": 4.0, "Q_14": 4.0, "name": "THOMASVILLE HEALTHCARE AND REHABILITATION CENTER", "SF_14": 4.0, "SF_15": 4.0, "cnty": "Clarke", "st": "AL", "Zip": 36784.0, "O_14": 4.0, "Q_15": 3.0, "O_15": 4.0, "city": "THOMASVILLE", "beds": 80.0, "SR_15": 4.0}, {"Diff_star": 0.0, "addr": "3701 DADEVILLE ROAD", "SR_14": 1.0, "Q_14": 5.0, "name": "CHAPMAN HEALTHCARE CENTER, INC", "SF_14": 4.0, "SF_15": 4.0, "cnty": "Tallapoosa", "st": "AL", "Zip": 35010.0, "O_14": 2.0, "Q_15": 5.0, "O_15": 2.0, "city": "ALEXANDER CITY", "beds": 188.0, "SR_15": 1.0}, {"Diff_star": 0.0, "addr": "108 SOUTH CHURCH STREET", "SR_14": 2.0, "Q_14": 4.0, "name": "FAIRHOPE HEALTH & REHAB", "SF_14": 4.0, "SF_15": 4.0, "cnty": "Baldwin", "st": "AL", "Zip": 36532.0, "O_14": 3.0, "Q_15": 3.0, "O_15": 3.0, "city": "FAIRHOPE", "beds": 131.0, "SR_15": 2.0}, {"Diff_star": -1.0, "addr": "700 HUTCHINS AVENUE", "SR_14": 3.0, "Q_14": 5.0, "name": "NORTHSIDE HEALTH CARE", "SF_14": 4.0, "SF_15": 3.0, "cnty": "Etowah", "st": "AL", "Zip": 35901.0, "O_14": 5.0, "Q_15": 5.0, "O_15": 4.0, "city": "GADSDEN", "beds": 115.0, "SR_15": 3.0}, {"Diff_star": -1.0, "addr": "22444 HIGHWAY 431", "SR_14": 4.0, "Q_14": 2.0, "name": "BARFIELD HEALTH CARE INC", "SF_14": 4.0, "SF_15": 4.0, "cnty": "Marshall", "st": "AL", "Zip": 35976.0, "O_14": 4.0, "Q_15": 1.0, "O_15": 3.0, "city": "GUNTERSVILLE", "beds": 113.0, "SR_15": 4.0}, {"Diff_star": -1.0, "addr": "1050 CONVALESCENT ROAD", "SR_14": 4.0, "Q_14": 3.0, "name": "GENERATIONS OF VERNON, LLC", "SF_14": 4.0, "SF_15": 4.0, "cnty": "Lamar", "st": "AL", "Zip": 35592.0, "O_14": 4.0, "Q_15": 1.0, "O_15": 3.0, "city": "VERNON", "beds": 158.0, "SR_15": 4.0}, {"Diff_star": 1.0, "addr": "4490 VIRGINIA LOOP ROAD", "SR_14": 3.0, "Q_14": 5.0, "name": "CEDAR CREST", "SF_14": 3.0, "SF_15": 4.0, "cnty": "Montgomery", "st": "AL", "Zip": 36116.0, "O_14": 4.0, "Q_15": 5.0, "O_15": 5.0, "city": "MONTGOMERY", "beds": 121.0, "SR_15": 3.0}, {"Diff_star": 0.0, "addr": "1028 BESSEMER RD", "SR_14": 1.0, "Q_14": 4.0, "name": "FAIRVIEW HEALTH AND REHABILITATION CENTER", "SF_14": 3.0, "SF_15": 3.0, "cnty": "Jefferson", "st": "AL", "Zip": 35228.0, "O_14": 1.0, "Q_15": 2.0, "O_15": 1.0, "city": "BIRMINGHAM", "beds": 163.0, "SR_15": 1.0}, {"Diff_star": 1.0, "addr": "201 OAKHILL ROAD", "SR_14": 4.0, "Q_14": 4.0, "name": "RIDGEWOOD HEALTH SERVICES, INC.", "SF_14": 4.0, "SF_15": 5.0, "cnty": "Walker", "st": "AL", "Zip": 35504.0, "O_14": 4.0, "Q_15": 2.0, "O_15": 5.0, "city": "JASPER", "beds": 98.0, "SR_15": 4.0}, {"Diff_star": 0.0, "addr": "300 PLAZA DRIVE P O BOX 311227", "SR_14": 3.0, "Q_14": 4.0, "name": "ENTERPRISE HEALTH & REHABILITATION CENTER", "SF_14": 4.0, "SF_15": 4.0, "cnty": "Coffee", "st": "AL", "Zip": 36331.0, "O_14": 4.0, "Q_15": 3.0, "O_15": 4.0, "city": "ENTERPRISE", "beds": 257.0, "SR_15": 3.0}, {"Diff_star": -2.0, "addr": "3141 OLD COLUMBIANA ROAD", "SR_14": 2.0, "Q_14": 5.0, "name": "SOUTH HAVEN HEALTH AND REHABILITATION, LLC", "SF_14": 4.0, "SF_15": 3.0, "cnty": "Jefferson", "st": "AL", "Zip": 35226.0, "O_14": 4.0, "Q_15": 3.0, "O_15": 2.0, "city": "BIRMINGHAM", "beds": 101.0, "SR_15": 2.0}, {"Diff_star": -1.0, "addr": "2046 SOUTH ALABAMA AVE", "SR_14": 4.0, "Q_14": 5.0, "name": "ENGLEWOOD HEALTH CARE CENTER", "SF_14": 4.0, "SF_15": 4.0, "cnty": "Monroe", "st": "AL", "Zip": 36460.0, "O_14": 5.0, "Q_15": 4.0, "O_15": 4.0, "city": "MONROEVILLE", "beds": 87.0, "SR_15": 4.0}, {"Diff_star": -2.0, "addr": "2201 MCFARLAND BOULEVARD", "SR_14": 3.0, "Q_14": 5.0, "name": "PARK MANOR HEALTH AND REHABILITATION, LLC", "SF_14": 4.0, "SF_15": 3.0, "cnty": "Tuscaloosa", "st": "AL", "Zip": 35476.0, "O_14": 5.0, "Q_15": 3.0, "O_15": 3.0, "city": "NORTHPORT", "beds": 152.0, "SR_15": 3.0}, {"Diff_star": 0.0, "addr": "608 NORTH MAIN STREET", "SR_14": 4.0, "Q_14": 4.0, "name": "MARENGO NURSING HOME", "SF_14": 4.0, "SF_15": 4.0, "cnty": "Marengo", "st": "AL", "Zip": 36748.0, "O_14": 4.0, "Q_15": 3.0, "O_15": 4.0, "city": "LINDEN", "beds": 78.0, "SR_15": 4.0}, {"Diff_star": 0.0, "addr": "3900 LAKEWOOD DRIVE", "SR_14": 3.0, "Q_14": 4.0, "name": "PHENIX CITY HEALTH CARE, INC", "SF_14": 3.0, "SF_15": 3.0, "cnty": "Russell", "st": "AL", "Zip": 36867.0, "O_14": 3.0, "Q_15": 3.0, "O_15": 3.0, "city": "PHENIX CITY", "beds": 86.0, "SR_15": 3.0}, {"Diff_star": -1.0, "addr": "142 WEST THIRD STREET", "SR_14": 4.0, "Q_14": 5.0, "name": "LUVERNE HEALTH AND REHABILITATION, LLC", "SF_14": 4.0, "SF_15": 3.0, "cnty": "Crenshaw", "st": "AL", "Zip": 36049.0, "O_14": 5.0, "Q_15": 5.0, "O_15": 4.0, "city": "LUVERNE", "beds": 151.0, "SR_15": 3.0}, {"Diff_star": 0.0, "addr": "2019 COUNTY ROAD 394", "SR_14": 5.0, "Q_14": 5.0, "name": "LAUDERDALE CHRISTIAN NURSING HOME", "SF_14": 4.0, "SF_15": 4.0, "cnty": "Lauderdale", "st": "AL", "Zip": 35645.0, "O_14": 5.0, "Q_15": 5.0, "O_15": 5.0, "city": "KILLEN", "beds": 58.0, "SR_15": 5.0}, {"Diff_star": 0.0, "addr": "2625 LAUREL OAK DRIVE", "SR_14": 1.0, "Q_14": 5.0, "name": "OAKS ON PARKWOOD SKILLED NURSING FACILITY", "SF_14": 4.0, "SF_15": 3.0, "cnty": "Jefferson", "st": "AL", "Zip": 35022.0, "O_14": 2.0, "Q_15": 5.0, "O_15": 2.0, "city": "BESSEMER", "beds": 130.0, "SR_15": 1.0}, {"Diff_star": -1.0, "addr": "1101 SNOWS MILL AVENUE", "SR_14": 2.0, "Q_14": 4.0, "name": "HERITAGE HEALTH CARE & REHAB INC", "SF_14": 4.0, "SF_15": 4.0, "cnty": "Tuscaloosa", "st": "AL", "Zip": 35406.0, "O_14": 3.0, "Q_15": 1.0, "O_15": 2.0, "city": "TUSCALOOSA", "beds": 216.0, "SR_15": 2.0}, {"Diff_star": -2.0, "addr": "2004 MAX LUTHER DRIVE", "SR_14": 3.0, "Q_14": 5.0, "name": "REGENCY HEALTH CARE AND REHABILITATION CENTER", "SF_14": 4.0, "SF_15": 3.0, "cnty": "Madison", "st": "AL", "Zip": 35810.0, "O_14": 5.0, "Q_15": 3.0, "O_15": 3.0, "city": "HUNTSVILLE", "beds": 60.0, "SR_15": 3.0}, {"Diff_star": 0.0, "addr": "212 DOTHAN ROAD", "SR_14": 1.0, "Q_14": 5.0, "name": "HENRY COUNTY HEALTH AND REHABILITATION FACILITY", "SF_14": 4.0, "SF_15": 4.0, "cnty": "Henry", "st": "AL", "Zip": 36310.0, "O_14": 2.0, "Q_15": 4.0, "O_15": 2.0, "city": "ABBEVILLE", "beds": 142.0, "SR_15": 1.0}, {"Diff_star": 0.0, "addr": "210 PONDEROSA DRIVE", "SR_14": 2.0, "Q_14": 4.0, "name": "CAMDEN NURSING FACILITY INC.", "SF_14": 4.0, "SF_15": 4.0, "cnty": "Wilcox", "st": "AL", "Zip": 36726.0, "O_14": 3.0, "Q_15": 2.0, "O_15": 3.0, "city": "CAMDEN", "beds": 95.0, "SR_15": 2.0}, {"Diff_star": 0.0, "addr": "P.O. BOX 1825", "SR_14": 1.0, "Q_14": 5.0, "name": "BECKWOOD MANOR, INC", "SF_14": 3.0, "SF_15": 3.0, "cnty": "Calhoun", "st": "AL", "Zip": 36207.0, "O_14": 2.0, "Q_15": 5.0, "O_15": 2.0, "city": "ANNISTON", "beds": 85.0, "SR_15": 1.0}, {"Diff_star": 0.0, "addr": "144 COUNTY HWY 14", "SR_14": 2.0, "Q_14": 4.0, "name": "GOLDEN LIVING CENTER - WINFIELD", "SF_14": 3.0, "SF_15": 3.0, "cnty": "Marion", "st": "AL", "Zip": 35594.0, "O_14": 2.0, "Q_15": 2.0, "O_15": 2.0, "city": "WINFIELD", "beds": 123.0, "SR_15": 2.0}, {"Diff_star": 0.0, "addr": "3120 NORTH STREET", "SR_14": 5.0, "Q_14": 5.0, "name": "MARSHALL MANOR NURSING HOME", "SF_14": 4.0, "SF_15": 4.0, "cnty": "Marshall", "st": "AL", "Zip": 35976.0, "O_14": 5.0, "Q_15": 5.0, "O_15": 5.0, "city": "GUNTERSVILLE", "beds": 91.0, "SR_15": 5.0}, {"Diff_star": 0.0, "addr": "7020 BRUNS DRIVE", "SR_14": 4.0, "Q_14": 4.0, "name": "MOBILE NURSING AND REHABILITATION CENTER", "SF_14": 4.0, "SF_15": 4.0, "cnty": "Mobile", "st": "AL", "Zip": 36695.0, "O_14": 4.0, "Q_15": 2.0, "O_15": 4.0, "city": "MOBILE", "beds": 120.0, "SR_15": 4.0}, {"Diff_star": 0.0, "addr": "500 SPANISH FORT BLVD", "SR_14": 3.0, "Q_14": 4.0, "name": "WESTMINSTER VILLAGE", "SF_14": 5.0, "SF_15": 5.0, "cnty": "Baldwin", "st": "AL", "Zip": 36527.0, "O_14": 4.0, "Q_15": 3.0, "O_15": 4.0, "city": "SPANISH FORT", "beds": 60.0, "SR_15": 3.0}, {"Diff_star": 0.0, "addr": "1720 KNOWLES ROAD", "SR_14": 1.0, "Q_14": 5.0, "name": "CANTERBURY HEALTH CARE FACILITY", "SF_14": 4.0, "SF_15": 3.0, "cnty": "Russell", "st": "AL", "Zip": 36869.0, "O_14": 2.0, "Q_15": 5.0, "O_15": 2.0, "city": "PHENIX CITY", "beds": 137.0, "SR_15": 1.0}, {"Diff_star": -1.0, "addr": "1900 OLIVE STREET", "SR_14": 4.0, "Q_14": 5.0, "name": "WOODLAND VILLAGE REHABILITATION AND HEALTHCARE CEN", "SF_14": 2.0, "SF_15": 2.0, "cnty": "Cullman", "st": "AL", "Zip": 35055.0, "O_14": 5.0, "Q_15": 2.0, "O_15": 4.0, "city": "CULLMAN", "beds": 149.0, "SR_15": 4.0}, {"Diff_star": 0.0, "addr": "1555 HILLABEE STREET", "SR_14": 4.0, "Q_14": 4.0, "name": "ADAMS NURSING HOME", "SF_14": 4.0, "SF_15": 3.0, "cnty": "Tallapoosa", "st": "AL", "Zip": 35010.0, "O_14": 4.0, "Q_15": 2.0, "O_15": 4.0, "city": "ALEXANDER CITY", "beds": 88.0, "SR_15": 4.0}, {"Diff_star": -1.0, "addr": "53 MEDICAL PARK DRIVE EAST", "SR_14": 2.0, "Q_14": 5.0, "name": "EAST GLEN", "SF_14": 4.0, "SF_15": 3.0, "cnty": "Jefferson", "st": "AL", "Zip": 35235.0, "O_14": 4.0, "Q_15": 5.0, "O_15": 3.0, "city": "BIRMINGHAM", "beds": 108.0, "SR_15": 2.0}, {"Diff_star": -1.0, "addr": "520 SOUTH HULL STREET", "SR_14": 4.0, "Q_14": 5.0, "name": "CAPITOL HILL HEALTHCARE CENTER", "SF_14": 4.0, "SF_15": 4.0, "cnty": "Montgomery", "st": "AL", "Zip": 36104.0, "O_14": 5.0, "Q_15": 4.0, "O_15": 4.0, "city": "MONTGOMERY", "beds": 284.0, "SR_15": 4.0}, {"Diff_star": 0.0, "addr": "410 WILSON DRIVE SOUTHWEST", "SR_14": 2.0, "Q_14": 5.0, "name": "JACKSONVILLE HEALTH AND REHABILITATION, LLC", "SF_14": 4.0, "SF_15": 4.0, "cnty": "Calhoun", "st": "AL", "Zip": 36265.0, "O_14": 4.0, "Q_15": 5.0, "O_15": 4.0, "city": "JACKSONVILLE", "beds": 167.0, "SR_15": 2.0}, {"Diff_star": -1.0, "addr": "200 ALABAMA AVENUE", "SR_14": 5.0, "Q_14": 3.0, "name": "CYPRESS COVE CARE CENTER", "SF_14": 4.0, "SF_15": 4.0, "cnty": "Colbert", "st": "AL", "Zip": 35661.0, "O_14": 5.0, "Q_15": 1.0, "O_15": 4.0, "city": "MUSCLE SHOALS", "beds": 90.0, "SR_15": 5.0}, {"Diff_star": -1.0, "addr": "1837 UPPER WETUMPKA ROAD", "SR_14": 2.0, "Q_14": 5.0, "name": "CROWNE HEALTH CARE OF MONTGOMERY", "SF_14": 4.0, "SF_15": 4.0, "cnty": "Montgomery", "st": "AL", "Zip": 36107.0, "O_14": 4.0, "Q_15": 4.0, "O_15": 3.0, "city": "MONTGOMERY", "beds": 185.0, "SR_15": 2.0}, {"Diff_star": -1.0, "addr": "616 ARMORY STREET", "SR_14": 3.0, "Q_14": 4.0, "name": "COLONIAL HAVEN CARE & REHABILITATION CENTER", "SF_14": 4.0, "SF_15": 3.0, "cnty": "Hale", "st": "AL", "Zip": 36744.0, "O_14": 4.0, "Q_15": 2.0, "O_15": 3.0, "city": "GREENSBORO", "beds": 97.0, "SR_15": 3.0}, {"Diff_star": 0.0, "addr": "4411 MCALLISTER DRIVE", "SR_14": 3.0, "Q_14": 5.0, "name": "WINDSOR HOUSE", "SF_14": 3.0, "SF_15": 3.0, "cnty": "Madison", "st": "AL", "Zip": 35805.0, "O_14": 4.0, "Q_15": 5.0, "O_15": 4.0, "city": "HUNTSVILLE", "beds": 117.0, "SR_15": 3.0}, {"Diff_star": 0.0, "addr": "236 WEST CLAIBORNE STREET", "SR_14": 1.0, "Q_14": 5.0, "name": "MONROE MANOR HEALTH & REHABILITATION CENTER", "SF_14": 4.0, "SF_15": 4.0, "cnty": "Monroe", "st": "AL", "Zip": 36460.0, "O_14": 2.0, "Q_15": 3.0, "O_15": 2.0, "city": "MONROEVILLE", "beds": 84.0, "SR_15": 1.0}, {"Diff_star": 0.0, "addr": "7300 OLD HIGHWAY 78 EAST", "SR_14": 4.0, "Q_14": 5.0, "name": "MEADOWVIEW NURSING CENTER", "SF_14": 4.0, "SF_15": 4.0, "cnty": "St. Clair", "st": "AL", "Zip": 35128.0, "O_14": 5.0, "Q_15": 5.0, "O_15": 5.0, "city": "PELL CITY", "beds": 59.0, "SR_15": 4.0}, {"Diff_star": 0.0, "addr": "260 MILNER CHAPEL ROAD", "SR_14": 5.0, "Q_14": 5.0, "name": "EL REPOSO NURSING FACILITY", "SF_14": 2.0, "SF_15": 2.0, "cnty": "Lauderdale", "st": "AL", "Zip": 35634.0, "O_14": 5.0, "Q_15": 4.0, "O_15": 5.0, "city": "FLORENCE", "beds": 60.0, "SR_15": 5.0}, {"Diff_star": -4.0, "addr": "3104 DAUPHIN SQUARE CONNECTOR", "SR_14": 3.0, "Q_14": 5.0, "name": "PALM GARDENS HEALTH AND REHABILITATION, LLC", "SF_14": 4.0, "SF_15": 3.0, "cnty": "Mobile", "st": "AL", "Zip": 36607.0, "O_14": 5.0, "Q_15": 4.0, "O_15": 1.0, "city": "MOBILE", "beds": 100.0, "SR_15": 1.0}, {"Diff_star": 0.0, "addr": "190 BROOKLANE DRIVE", "SR_14": 3.0, "Q_14": 4.0, "name": "GOLDEN LIVING CENTER - HUEYTOWN", "SF_14": 3.0, "SF_15": 3.0, "cnty": "Jefferson", "st": "AL", "Zip": 35023.0, "O_14": 3.0, "Q_15": 4.0, "O_15": 3.0, "city": "HUEYTOWN", "beds": 50.0, "SR_15": 3.0}, {"Diff_star": -2.0, "addr": "13750 HIGHWAY 90 WEST P.O. BOX 328", "SR_14": 2.0, "Q_14": 3.0, "name": "GRAND BAY CONVALESCENT HOME, INC.", "SF_14": 4.0, "SF_15": 3.0, "cnty": "Mobile", "st": "AL", "Zip": 36541.0, "O_14": 3.0, "Q_15": 1.0, "O_15": 1.0, "city": "GRAND BAY", "beds": 92.0, "SR_15": 2.0}, {"Diff_star": 0.0, "addr": "P O BOX 130", "SR_14": 2.0, "Q_14": 5.0, "name": "HEALTH CARE INC", "SF_14": 5.0, "SF_15": 5.0, "cnty": "St. Clair", "st": "AL", "Zip": 35953.0, "O_14": 4.0, "Q_15": 5.0, "O_15": 4.0, "city": "ASHVILLE", "beds": 53.0, "SR_15": 2.0}, {"Diff_star": -1.0, "addr": "350 NORTHEAST 4TH STREET     P O BOX 30", "SR_14": 2.0, "Q_14": 3.0, "name": "WALKER REHABILITATION CENTER, INC", "SF_14": 4.0, "SF_15": 4.0, "cnty": "Walker", "st": "AL", "Zip": 35549.0, "O_14": 3.0, "Q_15": 1.0, "O_15": 2.0, "city": "CARBON HILL", "beds": 59.0, "SR_15": 2.0}, {"Diff_star": 0.0, "addr": "2000 PEPPERELL PARKWAY", "SR_14": 4.0, "Q_14": 2.0, "name": "EAST ALABAMA MEDICAL CENTER SKILLED NURSING FACILI", "SF_14": "", "SF_15": "", "cnty": "Lee", "st": "AL", "Zip": 36802.0, "O_14": 4.0, "Q_15": 2.0, "O_15": 4.0, "city": "OPELIKA", "beds": 26.0, "SR_15": 4.0}, {"Diff_star": -1.0, "addr": "881 3RD STREET NORTHEAST", "SR_14": 4.0, "Q_14": 5.0, "name": "SHELBY RIDGE NURSING HOME", "SF_14": 4.0, "SF_15": 4.0, "cnty": "Shelby", "st": "AL", "Zip": 35007.0, "O_14": 5.0, "Q_15": 4.0, "O_15": 4.0, "city": "ALABASTER", "beds": 131.0, "SR_15": 4.0}, {"Diff_star": -1.0, "addr": "2911 EARL GOODWIN PARKWAY", "SR_14": 4.0, "Q_14": 5.0, "name": "LIGHTHOUSE REHABILITATION & HEALTHCARE CENTER", "SF_14": 4.0, "SF_15": 4.0, "cnty": "Dallas", "st": "AL", "Zip": 36703.0, "O_14": 5.0, "Q_15": 3.0, "O_15": 4.0, "city": "SELMA", "beds": 68.0, "SR_15": 4.0}, {"Diff_star": -1.0, "addr": "555 B STREET SW", "SR_14": 3.0, "Q_14": 5.0, "name": "LAFAYETTE NURSING HOME", "SF_14": 4.0, "SF_15": 3.0, "cnty": "Chambers", "st": "AL", "Zip": 36862.0, "O_14": 5.0, "Q_15": 5.0, "O_15": 4.0, "city": "LAFAYETTE", "beds": 63.0, "SR_15": 3.0}, {"Diff_star": 0.0, "addr": "3900 OLD SHELL ROAD", "SR_14": 1.0, "Q_14": "", "name": "SPRINGHILL MANOR NURSING HOME", "SF_14": 4.0, "SF_15": 4.0, "cnty": "Mobile", "st": "AL", "Zip": 36608.0, "O_14": 2.0, "Q_15": "", "O_15": 2.0, "city": "MOBILE", "beds": 34.0, "SR_15": 1.0}, {"Diff_star": 0.0, "addr": "670 MOORE RD", "SR_14": 2.0, "Q_14": 5.0, "name": "ANDALUSIA MANOR", "SF_14": 4.0, "SF_15": 4.0, "cnty": "Covington", "st": "AL", "Zip": 36420.0, "O_14": 4.0, "Q_15": 5.0, "O_15": 4.0, "city": "ANDALUSIA", "beds": 154.0, "SR_15": 2.0}, {"Diff_star": -1.0, "addr": "2010 MEDICAL CENTER DRIVE", "SR_14": 2.0, "Q_14": 5.0, "name": "OAKWOOD-NORTH BALDWIN'S CENTER FOR LIVING", "SF_14": 4.0, "SF_15": 3.0, "cnty": "Baldwin", "st": "AL", "Zip": 36507.0, "O_14": 4.0, "Q_15": 5.0, "O_15": 3.0, "city": "BAY MINETTE", "beds": 75.0, "SR_15": 2.0}, {"Diff_star": 0.0, "addr": "217 TORO ROAD", "SR_14": 5.0, "Q_14": 5.0, "name": "HARTFORD HEALTH CARE", "SF_14": 4.0, "SF_15": 4.0, "cnty": "Geneva", "st": "AL", "Zip": 36344.0, "O_14": 5.0, "Q_15": 5.0, "O_15": 5.0, "city": "HARTFORD", "beds": 86.0, "SR_15": 5.0}, {"Diff_star": -1.0, "addr": "47065 AL HIGHWAY 277", "SR_14": 3.0, "Q_14": 4.0, "name": "CUMBERLAND HEALTH AND REHAB", "SF_14": 4.0, "SF_15": 3.0, "cnty": "Jackson", "st": "AL", "Zip": 35740.0, "O_14": 4.0, "Q_15": 3.0, "O_15": 3.0, "city": "BRIDGEPORT", "beds": 100.0, "SR_15": 3.0}, {"Diff_star": 0.0, "addr": "212 ELLEN STREET", "SR_14": 3.0, "Q_14": 5.0, "name": "TLC NURSING CENTER", "SF_14": 5.0, "SF_15": 5.0, "cnty": "Blount", "st": "AL", "Zip": 35121.0, "O_14": 5.0, "Q_15": 5.0, "O_15": 5.0, "city": "ONEONTA", "beds": 103.0, "SR_15": 3.0}, {"Diff_star": 0.0, "addr": "501 UNIVERSITY PARK DRIVE", "SR_14": 4.0, "Q_14": 4.0, "name": "BROOKDALE PLACE UNIVERSITY PARK HEALTHCARE CENTER", "SF_14": 5.0, "SF_15": 5.0, "cnty": "Jefferson", "st": "AL", "Zip": 35209.0, "O_14": 5.0, "Q_15": 4.0, "O_15": 5.0, "city": "BIRMINGHAM", "beds": 66.0, "SR_15": 4.0}, {"Diff_star": -2.0, "addr": "680 SEYMOUR DRIVE", "SR_14": 2.0, "Q_14": 3.0, "name": "ROANOKE REHABILITATION & HEALTHCARE CENTER", "SF_14": 4.0, "SF_15": 3.0, "cnty": "Randolph", "st": "AL", "Zip": 36274.0, "O_14": 3.0, "Q_15": 1.0, "O_15": 1.0, "city": "ROANOKE", "beds": 65.0, "SR_15": 2.0}, {"Diff_star": 0.0, "addr": "501 NORTH WOODBURN DRIVE", "SR_14": 5.0, "Q_14": 5.0, "name": "WESTSIDE TERRACE HEALTH & REHABILITATION CENTER", "SF_14": 4.0, "SF_15": 4.0, "cnty": "Houston", "st": "AL", "Zip": 36303.0, "O_14": 5.0, "Q_15": 5.0, "O_15": 5.0, "city": "DOTHAN", "beds": 165.0, "SR_15": 5.0}, {"Diff_star": 0.0, "addr": "3712 DAUPHIN ST", "SR_14": 4.0, "Q_14": 5.0, "name": "CROWNE HEALTH CARE OF SPRINGHILL", "SF_14": 5.0, "SF_15": 5.0, "cnty": "Mobile", "st": "AL", "Zip": 36608.0, "O_14": 5.0, "Q_15": 5.0, "O_15": 5.0, "city": "MOBILE", "beds": 20.0, "SR_15": 4.0}, {"Diff_star": 0.0, "addr": "550 CONGRESS STREET", "SR_14": 1.0, "Q_14": 4.0, "name": "SEA BREEZE HEALTHCARE CENTER", "SF_14": 2.0, "SF_15": 2.0, "cnty": "Mobile", "st": "AL", "Zip": 36603.0, "O_14": 1.0, "Q_15": 2.0, "O_15": 1.0, "city": "MOBILE", "beds": 120.0, "SR_15": 1.0}, {"Diff_star": 0.0, "addr": "5968 WALL TRIANA HIGHWAY", "SR_14": 4.0, "Q_14": 5.0, "name": "VALLEY VIEW HEALTH AND REHABILITATION, LLC", "SF_14": 3.0, "SF_15": 3.0, "cnty": "Madison", "st": "AL", "Zip": 35757.0, "O_14": 5.0, "Q_15": 5.0, "O_15": 5.0, "city": "MADISON", "beds": 155.0, "SR_15": 4.0}, {"Diff_star": 0.0, "addr": "4941 MONTEVALLO ROAD", "SR_14": 2.0, "Q_14": 3.0, "name": "ST MARTIN'S IN THE PINES", "SF_14": 4.0, "SF_15": 4.0, "cnty": "Jefferson", "st": "AL", "Zip": 35210.0, "O_14": 3.0, "Q_15": 2.0, "O_15": 3.0, "city": "BIRMINGHAM", "beds": 138.0, "SR_15": 2.0}, {"Diff_star": 0.0, "addr": "4164 HALLS MILL ROAD", "SR_14": 1.0, "Q_14": 5.0, "name": "LYNWOOD NURSING HOME", "SF_14": 4.0, "SF_15": 3.0, "cnty": "Mobile", "st": "AL", "Zip": 36693.0, "O_14": 2.0, "Q_15": 5.0, "O_15": 2.0, "city": "MOBILE", "beds": 127.0, "SR_15": 1.0}, {"Diff_star": 0.0, "addr": "3717 DAUPHIN STREET", "SR_14": 1.0, "Q_14": 3.0, "name": "SPRINGHILL SENIOR RESIDENCE", "SF_14": 2.0, "SF_15": 2.0, "cnty": "Mobile", "st": "AL", "Zip": 36608.0, "O_14": 1.0, "Q_15": 2.0, "O_15": 1.0, "city": "MOBILE", "beds": 151.0, "SR_15": 1.0}, {"Diff_star": -1.0, "addr": "100 PERRY HILL RD", "SR_14": 3.0, "Q_14": 3.0, "name": "HILLVIEW TERRACE", "SF_14": 4.0, "SF_15": 4.0, "cnty": "Montgomery", "st": "AL", "Zip": 36109.0, "O_14": 4.0, "Q_15": 1.0, "O_15": 3.0, "city": "MONTGOMERY", "beds": 143.0, "SR_15": 3.0}, {"Diff_star": 0.0, "addr": "401 ARNOLD STREET N.E.", "SR_14": 3.0, "Q_14": 4.0, "name": "FOLSOM CENTER FOR REHABILITATION AND HEALTHCARE, T", "SF_14": 4.0, "SF_15": 4.0, "cnty": "Cullman", "st": "AL", "Zip": 35055.0, "O_14": 4.0, "Q_15": 2.0, "O_15": 4.0, "city": "CULLMAN", "beds": 102.0, "SR_15": 3.0}, {"Diff_star": 0.0, "addr": "4010 CHRIS DRIVE", "SR_14": 2.0, "Q_14": 5.0, "name": "HUNTSVILLE HEALTH & REHABILITATION, LLC", "SF_14": 3.0, "SF_15": 3.0, "cnty": "Madison", "st": "AL", "Zip": 35802.0, "O_14": 3.0, "Q_15": 5.0, "O_15": 3.0, "city": "HUNTSVILLE", "beds": 105.0, "SR_15": 2.0}, {"Diff_star": -1.0, "addr": "629 STATE HIGHWAY 21 SOUTH", "SR_14": 3.0, "Q_14": 4.0, "name": "ORCHARD REHABILITATION & HEALTHCARE CENTER", "SF_14": 4.0, "SF_15": 4.0, "cnty": "Lowndes", "st": "AL", "Zip": 36040.0, "O_14": 4.0, "Q_15": 4.0, "O_15": 3.0, "city": "HAYNEVILLE", "beds": 72.0, "SR_15": 2.0}, {"Diff_star": -2.0, "addr": "18700 U S HIGHWAY 90", "SR_14": 2.0, "Q_14": 5.0, "name": "ROBERTSDALE REHABILITATION & HEALTHCARE CTR", "SF_14": 4.0, "SF_15": 4.0, "cnty": "Baldwin", "st": "AL", "Zip": 36567.0, "O_14": 4.0, "Q_15": 3.0, "O_15": 2.0, "city": "ROBERTSDALE", "beds": 152.0, "SR_15": 1.0}, {"Diff_star": 0.0, "addr": "1250 JEFF GERMANY PARKWAY", "SR_14": 3.0, "Q_14": 4.0, "name": "CHERRY HILL REHABILITATION & HEALTHCARE CENTER", "SF_14": 4.0, "SF_15": 4.0, "cnty": "Jefferson", "st": "AL", "Zip": 35214.0, "O_14": 4.0, "Q_15": 2.0, "O_15": 4.0, "city": "BIRMINGHAM", "beds": 115.0, "SR_15": 3.0}, {"Diff_star": 0.0, "addr": "2831 HIGHLAND AVENUE SOUTH", "SR_14": 3.0, "Q_14": 4.0, "name": "GREENBRIAR AT THE ALTAMONT SKILLED NURSING FACILIT", "SF_14": 4.0, "SF_15": 4.0, "cnty": "Jefferson", "st": "AL", "Zip": 35205.0, "O_14": 4.0, "Q_15": 3.0, "O_15": 4.0, "city": "BIRMINGHAM", "beds": 95.0, "SR_15": 3.0}, {"Diff_star": -1.0, "addr": "HIGHWAY 98     P O BOX 256", "SR_14": 1.0, "Q_14": 5.0, "name": "MONTROSE BAY HEALTH AND REHABILITATION CENTER", "SF_14": 4.0, "SF_15": 3.0, "cnty": "Baldwin", "st": "AL", "Zip": 36559.0, "O_14": 2.0, "Q_15": 4.0, "O_15": 1.0, "city": "MONTROSE", "beds": 83.0, "SR_15": 1.0}, {"Diff_star": 0.0, "addr": "213 WILSON MANN ROAD", "SR_14": 4.0, "Q_14": 3.0, "name": "SOUTH HAMPTON NURSING & REHABILITATION CENTER", "SF_14": 4.0, "SF_15": 4.0, "cnty": "Madison", "st": "AL", "Zip": 35763.0, "O_14": 4.0, "Q_15": 2.0, "O_15": 4.0, "city": "OWENS CROSS ROADS", "beds": 81.0, "SR_15": 4.0}, {"Diff_star": -1.0, "addr": "ONE CROWN CIRCLE", "SR_14": 4.0, "Q_14": 5.0, "name": "WILLOWBROOKE COURT AT MAGNOLIA TRACE", "SF_14": 4.0, "SF_15": 3.0, "cnty": "Madison", "st": "AL", "Zip": 35802.0, "O_14": 5.0, "Q_15": 3.0, "O_15": 4.0, "city": "HUNTSVILLE", "beds": 59.0, "SR_15": 4.0}, {"Diff_star": 0.0, "addr": "23621 GOLDENROD AVENUE", "SR_14": 5.0, "Q_14": 5.0, "name": "FLORALA HEALTH AND REHABILITATION LLC", "SF_14": 4.0, "SF_15": 4.0, "cnty": "Covington", "st": "AL", "Zip": 36442.0, "O_14": 5.0, "Q_15": 5.0, "O_15": 5.0, "city": "FLORALA", "beds": 85.0, "SR_15": 5.0}, {"Diff_star": -1.0, "addr": "1365 GATEWOOD DRIVE", "SR_14": 2.0, "Q_14": 5.0, "name": "OAK PARK", "SF_14": 4.0, "SF_15": 3.0, "cnty": "Lee", "st": "AL", "Zip": 36830.0, "O_14": 4.0, "Q_15": 5.0, "O_15": 3.0, "city": "AUBURN", "beds": 87.0, "SR_15": 2.0}, {"Diff_star": 0.0, "addr": "22969 HIGHWAY 25", "SR_14": 5.0, "Q_14": 5.0, "name": "COLUMBIANA HEALTH AND REHABILITATION, LLC", "SF_14": 2.0, "SF_15": 2.0, "cnty": "Shelby", "st": "AL", "Zip": 35051.0, "O_14": 5.0, "Q_15": 4.0, "O_15": 5.0, "city": "COLUMBIANA", "beds": 63.0, "SR_15": 5.0}, {"Diff_star": 0.0, "addr": "12000 TURNMEYER DRIVE", "SR_14": 4.0, "Q_14": 5.0, "name": "FAIRVIEW AT REDSTONE VILLAGE", "SF_14": 4.0, "SF_15": 4.0, "cnty": "Madison", "st": "AL", "Zip": 35803.0, "O_14": 5.0, "Q_15": 5.0, "O_15": 5.0, "city": "HUNTSVILLE", "beds": 56.0, "SR_15": 4.0}, {"Diff_star": -2.0, "addr": "300 ROYAL TOWER DRIVE", "SR_14": 2.0, "Q_14": 5.0, "name": "MOUNT ROYAL TOWERS", "SF_14": 4.0, "SF_15": 3.0, "cnty": "Jefferson", "st": "AL", "Zip": 35209.0, "O_14": 4.0, "Q_15": 4.0, "O_15": 2.0, "city": "BIRMINGHAM", "beds": 143.0, "SR_15": 2.0}, {"Diff_star": 1.0, "addr": "8002 GRELOT ROAD", "SR_14": 2.0, "Q_14": 4.0, "name": "GULF COAST HEALTH AND REHABILITATION, LLC", "SF_14": 1.0, "SF_15": 1.0, "cnty": "Mobile", "st": "AL", "Zip": 36695.0, "O_14": 1.0, "Q_15": 2.0, "O_15": 2.0, "city": "MOBILE", "beds": 100.0, "SR_15": 3.0}, {"Diff_star": 0.0, "addr": "3605 RATLIFF ROAD", "SR_14": 1.0, "Q_14": 4.0, "name": "KIRKWOOD BY THE RIVER", "SF_14": 4.0, "SF_15": 4.0, "cnty": "Jefferson", "st": "AL", "Zip": 35210.0, "O_14": 2.0, "Q_15": 3.0, "O_15": 2.0, "city": "BIRMINGHAM", "beds": 61.0, "SR_15": 1.0}, {"Diff_star": 0.0, "addr": "5275 MILLENNIUM DRIVE", "SR_14": 3.0, "Q_14": 3.0, "name": "MILLENNIUM NURSING & REHAB CENTER, INC", "SF_14": 4.0, "SF_15": 4.0, "cnty": "Madison", "st": "AL", "Zip": 35806.0, "O_14": 4.0, "Q_15": 2.0, "O_15": 4.0, "city": "HUNTSVILLE", "beds": 91.0, "SR_15": 3.0}, {"Diff_star": 0.0, "addr": "3850 GALLERIA WOODS DRIVE", "SR_14": 4.0, "Q_14": 5.0, "name": "GALLERIA WOODS SKILLED NURSING FACILITY", "SF_14": 4.0, "SF_15": 4.0, "cnty": "Jefferson", "st": "AL", "Zip": 35244.0, "O_14": 5.0, "Q_15": 5.0, "O_15": 5.0, "city": "BIRMINGHAM", "beds": 30.0, "SR_15": 4.0}, {"Diff_star": 0.0, "addr": "65 CHARLTON PLACE", "SR_14": 1.0, "Q_14": 4.0, "name": "CHARLTON PLACE REHAB AND HEALTHCARE CENTER", "SF_14": 3.0, "SF_15": 3.0, "cnty": "Elmore", "st": "AL", "Zip": 36022.0, "O_14": 1.0, "Q_15": 3.0, "O_15": 1.0, "city": "DEATSVILLE", "beds": 65.0, "SR_15": 1.0}, {"Diff_star": 0.0, "addr": "30 7TH STREET", "SR_14": 3.0, "Q_14": 4.0, "name": "LEGACY HEALTH AND REHABILITATION OF PLEASANT GROVE", "SF_14": 3.0, "SF_15": 3.0, "cnty": "Jefferson", "st": "AL", "Zip": 35127.0, "O_14": 3.0, "Q_15": 2.0, "O_15": 3.0, "city": "PLEASANT GROVE", "beds": 198.0, "SR_15": 3.0}, {"Diff_star": 0.0, "addr": "3151-A KNOLLWOOD DRIVE", "SR_14": 1.0, "Q_14": 5.0, "name": "GORDON OAKS HEALTH & REHAB", "SF_14": 5.0, "SF_15": 5.0, "cnty": "Mobile", "st": "AL", "Zip": 36693.0, "O_14": 2.0, "Q_15": 4.0, "O_15": 2.0, "city": "MOBILE", "beds": 71.0, "SR_15": 1.0}, {"Diff_star": 0.0, "addr": "700 CORPORATE RIDGE", "SR_14": 1.0, "Q_14": 3.0, "name": "MEADOWBROOK EXTENDED CARE", "SF_14": 4.0, "SF_15": 4.0, "cnty": "Shelby", "st": "AL", "Zip": 35242.0, "O_14": 2.0, "Q_15": 2.0, "O_15": 2.0, "city": "BIRMINGHAM", "beds": 32.0, "SR_15": 1.0}, {"Diff_star": 0.0, "addr": "2048 W FAIRVIEW AVE", "SR_14": 1.0, "Q_14": 5.0, "name": "FATHER PURCELL MEMORIAL EXCEPTIONAL CHILDREN'S CTR", "SF_14": 4.0, "SF_15": 4.0, "cnty": "Montgomery", "st": "AL", "Zip": 36108.0, "O_14": 2.0, "Q_15": 5.0, "O_15": 2.0, "city": "MONTGOMERY", "beds": 58.0, "SR_15": 1.0}, {"Diff_star": 0.0, "addr": "2853 FORBES DRIVE", "SR_14": 2.0, "Q_14": 5.0, "name": "MONTGOMERY CHILDREN'S SPECIALTY CENTER", "SF_14": 2.0, "SF_15": 2.0, "cnty": "Montgomery", "st": "AL", "Zip": 36110.0, "O_14": 3.0, "Q_15": 5.0, "O_15": 3.0, "city": "MONTGOMERY", "beds": 54.0, "SR_15": 2.0}]