[{"Diff_star": -1.0, "addr": "10201 EAST THIRD AVENUE", "SR_14": 1.0, "Q_14": 4.0, "name": "KINDRED NURSING AND REHABILITATION-AURORA", "SF_14": 4.0, "SF_15": 3.0, "cnty": "Adams", "st": "CO", "Zip": 80010.0, "O_14": 2.0, "Q_15": 4.0, "O_15": 1.0, "city": "AURORA", "beds": 108.0, "SR_15": 1.0}, {"Diff_star": -1.0, "addr": "1667 ST PAUL STREET", "SR_14": 3.0, "Q_14": 5.0, "name": "ST PAUL HEALTH CENTER", "SF_14": 4.0, "SF_15": 4.0, "cnty": "Denver", "st": "CO", "Zip": 80206.0, "O_14": 5.0, "Q_15": 4.0, "O_15": 4.0, "city": "DENVER", "beds": 155.0, "SR_15": 3.0}, {"Diff_star": 0.0, "addr": "4800 TABOR STREET", "SR_14": 2.0, "Q_14": 4.0, "name": "MOUNTAIN VISTA HEALTH CENTER", "SF_14": 5.0, "SF_15": 4.0, "cnty": "Jefferson", "st": "CO", "Zip": 80033.0, "O_14": 3.0, "Q_15": 3.0, "O_15": 3.0, "city": "WHEAT RIDGE", "beds": 168.0, "SR_15": 2.0}, {"Diff_star": 0.0, "addr": "4686 EAST ASBURY CIRCLE", "SR_14": 3.0, "Q_14": 5.0, "name": "AMBERWOOD COURT REHABILITATION AND CARE COMMUNITY", "SF_14": 4.0, "SF_15": 4.0, "cnty": "Denver", "st": "CO", "Zip": 80222.0, "O_14": 5.0, "Q_15": 5.0, "O_15": 5.0, "city": "DENVER", "beds": 75.0, "SR_15": 3.0}, {"Diff_star": -1.0, "addr": "2121 MESA DRIVE", "SR_14": 2.0, "Q_14": 5.0, "name": "MESA VISTA OF BOULDER", "SF_14": 4.0, "SF_15": 4.0, "cnty": "Boulder", "st": "CO", "Zip": 80304.0, "O_14": 4.0, "Q_15": 4.0, "O_15": 3.0, "city": "BOULDER", "beds": 162.0, "SR_15": 2.0}, {"Diff_star": -2.0, "addr": "3575 SOUTH WASHINGTON STREET", "SR_14": 2.0, "Q_14": 5.0, "name": "ENGLEWOOD POST ACUTE AND REHABILITATION", "SF_14": 4.0, "SF_15": 4.0, "cnty": "Arapahoe", "st": "CO", "Zip": 80110.0, "O_14": 4.0, "Q_15": 4.0, "O_15": 2.0, "city": "ENGLEWOOD", "beds": 86.0, "SR_15": 1.0}, {"Diff_star": 0.0, "addr": "101 SOUTH UNION BOULEVARD", "SR_14": 2.0, "Q_14": 4.0, "name": "UNION PRINTERS HOME-LTC", "SF_14": 4.0, "SF_15": 4.0, "cnty": "El Paso", "st": "CO", "Zip": 80910.0, "O_14": 3.0, "Q_15": 3.0, "O_15": 3.0, "city": "COLORADO SPRINGS", "beds": 100.0, "SR_15": 2.0}, {"Diff_star": 0.0, "addr": "7950 WEST MISSISSIPPI AVENUE", "SR_14": 3.0, "Q_14": 4.0, "name": "VILLA MANOR CARE CENTER", "SF_14": 4.0, "SF_15": 4.0, "cnty": "Jefferson", "st": "CO", "Zip": 80226.0, "O_14": 4.0, "Q_15": 3.0, "O_15": 4.0, "city": "LAKEWOOD", "beds": 240.0, "SR_15": 3.0}, {"Diff_star": 0.0, "addr": "708 22ND STREET", "SR_14": 2.0, "Q_14": 4.0, "name": "GOOD SAMARITAN SOCIETY - BONELL COMMUNITY", "SF_14": 4.0, "SF_15": 4.0, "cnty": "Weld", "st": "CO", "Zip": 80631.0, "O_14": 3.0, "Q_15": 3.0, "O_15": 3.0, "city": "GREELEY", "beds": 210.0, "SR_15": 2.0}, {"Diff_star": 0.0, "addr": "115 INGALLS STREET", "SR_14": 4.0, "Q_14": 4.0, "name": "MAPLETON CARE CENTER", "SF_14": 5.0, "SF_15": 5.0, "cnty": "Jefferson", "st": "CO", "Zip": 80226.0, "O_14": 5.0, "Q_15": 3.0, "O_15": 5.0, "city": "LAKEWOOD", "beds": 90.0, "SR_15": 4.0}, {"Diff_star": 0.0, "addr": "2515 PITMAN PLACE", "SR_14": 3.0, "Q_14": 1.0, "name": "ROCK CANYON RESPIRATORY AND REHABILITATION CENTER", "SF_14": 5.0, "SF_15": 5.0, "cnty": "Pueblo", "st": "CO", "Zip": 81004.0, "O_14": 3.0, "Q_15": 1.0, "O_15": 3.0, "city": "PUEBLO", "beds": 81.0, "SR_15": 3.0}, {"Diff_star": 0.0, "addr": "2501 E 104TH AVE", "SR_14": 2.0, "Q_14": 4.0, "name": "VILLAS AT SUNNY ACRES, THE", "SF_14": 5.0, "SF_15": 5.0, "cnty": "Adams", "st": "CO", "Zip": 80233.0, "O_14": 3.0, "Q_15": 2.0, "O_15": 3.0, "city": "THORNTON", "beds": 160.0, "SR_15": 2.0}, {"Diff_star": 0.0, "addr": "2901 NORTH 12TH STREET", "SR_14": 2.0, "Q_14": 5.0, "name": "MESA MANOR CENTER", "SF_14": 3.0, "SF_15": 3.0, "cnty": "Mesa", "st": "CO", "Zip": 81506.0, "O_14": 3.0, "Q_15": 5.0, "O_15": 3.0, "city": "GRAND JUNCTION", "beds": 89.0, "SR_15": 2.0}, {"Diff_star": 0.0, "addr": "1719 E BIJOU STREET", "SR_14": 2.0, "Q_14": 4.0, "name": "CENTURA HEALTH-MEDALION HEALTH CENTER", "SF_14": 4.0, "SF_15": 4.0, "cnty": "El Paso", "st": "CO", "Zip": 80909.0, "O_14": 3.0, "Q_15": 3.0, "O_15": 3.0, "city": "COLORADO SPRINGS", "beds": 60.0, "SR_15": 2.0}, {"Diff_star": -3.0, "addr": "1401 SOUTH CASCADE", "SR_14": 3.0, "Q_14": 5.0, "name": "VALLEY MANOR CARE CENTER", "SF_14": 5.0, "SF_15": 5.0, "cnty": "Montrose", "st": "CO", "Zip": 81401.0, "O_14": 5.0, "Q_15": 5.0, "O_15": 2.0, "city": "MONTROSE", "beds": 101.0, "SR_15": 1.0}, {"Diff_star": 0.0, "addr": "7481 KNOX PLACE", "SR_14": 5.0, "Q_14": 4.0, "name": "CLEAR CREEK CARE CENTER", "SF_14": 4.0, "SF_15": 4.0, "cnty": "Adams", "st": "CO", "Zip": 80030.0, "O_14": 5.0, "Q_15": 3.0, "O_15": 5.0, "city": "WESTMINSTER", "beds": 113.0, "SR_15": 5.0}, {"Diff_star": 0.0, "addr": "855 HUNTER DRIVE", "SR_14": 1.0, "Q_14": 4.0, "name": "PAVILION AT VILLA PUEBLO, THE", "SF_14": 5.0, "SF_15": 5.0, "cnty": "Pueblo", "st": "CO", "Zip": 81001.0, "O_14": 2.0, "Q_15": 3.0, "O_15": 2.0, "city": "PUEBLO", "beds": 90.0, "SR_15": 1.0}, {"Diff_star": 0.0, "addr": "6000 EAST ILIFF AVENUE", "SR_14": 4.0, "Q_14": 5.0, "name": "HOLLY HEIGHTS CARE CENTER", "SF_14": 4.0, "SF_15": 3.0, "cnty": "Denver", "st": "CO", "Zip": 80222.0, "O_14": 5.0, "Q_15": 5.0, "O_15": 5.0, "city": "DENVER", "beds": 133.0, "SR_15": 4.0}, {"Diff_star": 0.0, "addr": "1365 WEST 29TH STREET", "SR_14": 3.0, "Q_14": 5.0, "name": "NORTH SHORE HEALTH AND REHAB FACILITY", "SF_14": 5.0, "SF_15": 5.0, "cnty": "Larimer", "st": "CO", "Zip": 80538.0, "O_14": 5.0, "Q_15": 5.0, "O_15": 5.0, "city": "LOVELAND", "beds": 136.0, "SR_15": 3.0}, {"Diff_star": 0.0, "addr": "2101 SOUTH GARFIELD AVENUE", "SR_14": 2.0, "Q_14": 4.0, "name": "GOOD SAMARITAN SOCIETY - LOVELAND VILLAGE", "SF_14": 4.0, "SF_15": 4.0, "cnty": "Larimer", "st": "CO", "Zip": 80537.0, "O_14": 3.0, "Q_15": 3.0, "O_15": 3.0, "city": "LOVELAND", "beds": 104.0, "SR_15": 2.0}, {"Diff_star": 0.0, "addr": "4824 SOUTH LEMAY AVENUE", "SR_14": 5.0, "Q_14": 5.0, "name": "LEMAY AVENUE HEALTH AND REHABILITATION FACILITY", "SF_14": 5.0, "SF_15": 5.0, "cnty": "Larimer", "st": "CO", "Zip": 80525.0, "O_14": 5.0, "Q_15": 5.0, "O_15": 5.0, "city": "FORT COLLINS", "beds": 130.0, "SR_15": 5.0}, {"Diff_star": 0.0, "addr": "1500 W TOMICHI AVE", "SR_14": 3.0, "Q_14": 5.0, "name": "GUNNISON VALLEY HEALTH SENIOR CARE CENTER", "SF_14": 5.0, "SF_15": 5.0, "cnty": "Gunnison", "st": "CO", "Zip": 81230.0, "O_14": 5.0, "Q_15": 5.0, "O_15": 5.0, "city": "GUNNISON", "beds": 59.0, "SR_15": 3.0}, {"Diff_star": 0.0, "addr": "14699 EAST HAMPDEN AVENUE", "SR_14": 1.0, "Q_14": 4.0, "name": "CHERRY CREEK NURSING CENTER", "SF_14": 3.0, "SF_15": 3.0, "cnty": "Arapahoe", "st": "CO", "Zip": 80014.0, "O_14": 1.0, "Q_15": 2.0, "O_15": 1.0, "city": "AURORA", "beds": 218.0, "SR_15": 1.0}, {"Diff_star": 0.0, "addr": "835 TENDERFOOT HILL ROAD", "SR_14": 1.0, "Q_14": 3.0, "name": "CHEYENNE MOUNTAIN CENTER", "SF_14": 3.0, "SF_15": 3.0, "cnty": "El Paso", "st": "CO", "Zip": 80906.0, "O_14": 1.0, "Q_15": 3.0, "O_15": 1.0, "city": "COLORADO SPRINGS", "beds": 159.0, "SR_15": 1.0}, {"Diff_star": 0.0, "addr": "1330 NORTH SIDNEY AVENUE", "SR_14": 1.0, "Q_14": 3.0, "name": "DEVONSHIRE ACRES", "SF_14": 4.0, "SF_15": 4.0, "cnty": "Logan", "st": "CO", "Zip": 80751.0, "O_14": 2.0, "Q_15": 1.0, "O_15": 2.0, "city": "STERLING", "beds": 84.0, "SR_15": 2.0}, {"Diff_star": 0.0, "addr": "2612 WEST CUCHARRAS STREET", "SR_14": 3.0, "Q_14": 4.0, "name": "SUNDANCE SKILLED NURSING AND REHABILITATION", "SF_14": 4.0, "SF_15": 4.0, "cnty": "El Paso", "st": "CO", "Zip": 80904.0, "O_14": 4.0, "Q_15": 3.0, "O_15": 4.0, "city": "COLORADO SPRINGS", "beds": 68.0, "SR_15": 3.0}, {"Diff_star": 0.0, "addr": "680 E HOSPITAL DRIVE", "SR_14": 1.0, "Q_14": 3.0, "name": "VISTA GRANDE INN", "SF_14": 1.0, "SF_15": 1.0, "cnty": "Montezuma", "st": "CO", "Zip": 81321.0, "O_14": 1.0, "Q_15": 2.0, "O_15": 1.0, "city": "CORTEZ", "beds": 101.0, "SR_15": 1.0}, {"Diff_star": 0.0, "addr": "122 HOSPITAL ROAD", "SR_14": 4.0, "Q_14": 4.0, "name": "EBEN EZER LUTHERAN CARE CENTER", "SF_14": 3.0, "SF_15": 3.0, "cnty": "Morgan", "st": "CO", "Zip": 80723.0, "O_14": 4.0, "Q_15": 3.0, "O_15": 4.0, "city": "BRUSH", "beds": 132.0, "SR_15": 4.0}, {"Diff_star": 0.0, "addr": "821 DUFFIELD COURT", "SR_14": 1.0, "Q_14": 5.0, "name": "SIERRA VISTA HEALTH CARE CENTER", "SF_14": 3.0, "SF_15": 3.0, "cnty": "Larimer", "st": "CO", "Zip": 80537.0, "O_14": 2.0, "Q_15": 5.0, "O_15": 2.0, "city": "LOVELAND", "beds": 114.0, "SR_15": 1.0}, {"Diff_star": 0.0, "addr": "1000 SOUTH LEMAY AVENUE", "SR_14": 3.0, "Q_14": 4.0, "name": "FORT COLLINS HEALTH CARE CENTER", "SF_14": 2.0, "SF_15": 2.0, "cnty": "Larimer", "st": "CO", "Zip": 80524.0, "O_14": 3.0, "Q_15": 3.0, "O_15": 3.0, "city": "FORT COLLINS", "beds": 83.0, "SR_15": 3.0}, {"Diff_star": 0.0, "addr": "1795 MONTEREY ROAD", "SR_14": 1.0, "Q_14": 5.0, "name": "ASPEN LIVING CENTER", "SF_14": 3.0, "SF_15": 3.0, "cnty": "El Paso", "st": "CO", "Zip": 80910.0, "O_14": 2.0, "Q_15": 5.0, "O_15": 2.0, "city": "COLORADO SPRINGS", "beds": 112.0, "SR_15": 1.0}, {"Diff_star": -1.0, "addr": "1601 CONSTITUTION ROAD", "SR_14": 1.0, "Q_14": 5.0, "name": "BELMONT LODGE HEALTH CARE CENTER", "SF_14": 3.0, "SF_15": 3.0, "cnty": "Pueblo", "st": "CO", "Zip": 81001.0, "O_14": 2.0, "Q_15": 3.0, "O_15": 1.0, "city": "PUEBLO", "beds": 120.0, "SR_15": 1.0}, {"Diff_star": 0.0, "addr": "2200 EDISON STREET", "SR_14": 2.0, "Q_14": 5.0, "name": "SUNSET MANOR", "SF_14": 3.0, "SF_15": 3.0, "cnty": "Morgan", "st": "CO", "Zip": 80723.0, "O_14": 3.0, "Q_15": 5.0, "O_15": 3.0, "city": "BRUSH", "beds": 85.0, "SR_15": 2.0}, {"Diff_star": 0.0, "addr": "1655 EATON STREET", "SR_14": 2.0, "Q_14": 5.0, "name": "WESTLAKE CARE COMMUNITY", "SF_14": 4.0, "SF_15": 4.0, "cnty": "Jefferson", "st": "CO", "Zip": 80214.0, "O_14": 4.0, "Q_15": 5.0, "O_15": 4.0, "city": "LAKEWOOD", "beds": 70.0, "SR_15": 2.0}, {"Diff_star": -1.0, "addr": "2438 FOUNTAIN BOULEVARD", "SR_14": 1.0, "Q_14": 5.0, "name": "TERRACE GARDENS HEALTH CARE CENTER", "SF_14": 3.0, "SF_15": 3.0, "cnty": "El Paso", "st": "CO", "Zip": 80910.0, "O_14": 2.0, "Q_15": 4.0, "O_15": 1.0, "city": "COLORADO SPRINGS", "beds": 108.0, "SR_15": 1.0}, {"Diff_star": -1.0, "addr": "1420 SOUTH 3RD AVENUE", "SR_14": 2.0, "Q_14": 5.0, "name": "STERLING LIVING CENTER", "SF_14": 4.0, "SF_15": 4.0, "cnty": "Logan", "st": "CO", "Zip": 80751.0, "O_14": 4.0, "Q_15": 3.0, "O_15": 3.0, "city": "STERLING", "beds": 103.0, "SR_15": 2.0}, {"Diff_star": 0.0, "addr": "924 WEST KIOWA", "SR_14": 2.0, "Q_14": 4.0, "name": "CEDARWOOD HEALTH CARE CENTER", "SF_14": 3.0, "SF_15": 3.0, "cnty": "El Paso", "st": "CO", "Zip": 80905.0, "O_14": 2.0, "Q_15": 2.0, "O_15": 2.0, "city": "COLORADO SPRINGS", "beds": 83.0, "SR_15": 2.0}, {"Diff_star": 0.0, "addr": "500 GENEVA STREET", "SR_14": 1.0, "Q_14": 5.0, "name": "SUMMIT REHABILITATION AND CARE COMMUNITY", "SF_14": 4.0, "SF_15": 3.0, "cnty": "Arapahoe", "st": "CO", "Zip": 80010.0, "O_14": 2.0, "Q_15": 5.0, "O_15": 2.0, "city": "AURORA", "beds": 110.0, "SR_15": 1.0}, {"Diff_star": 0.0, "addr": "1401 PHAY AVENUE", "SR_14": 1.0, "Q_14": 4.0, "name": "HILDEBRAND CARE CENTER", "SF_14": 4.0, "SF_15": 4.0, "cnty": "Fremont", "st": "CO", "Zip": 81212.0, "O_14": 2.0, "Q_15": 3.0, "O_15": 2.0, "city": "CANON CITY", "beds": 90.0, "SR_15": 1.0}, {"Diff_star": 0.0, "addr": "815 FREMONT AVE", "SR_14": 2.0, "Q_14": 4.0, "name": "VALLEY VIEW VILLA", "SF_14": 4.0, "SF_15": 3.0, "cnty": "Morgan", "st": "CO", "Zip": 80701.0, "O_14": 3.0, "Q_15": 4.0, "O_15": 3.0, "city": "FORT MORGAN", "beds": 120.0, "SR_15": 3.0}, {"Diff_star": 0.0, "addr": "1338 PHAY AVENUE", "SR_14": 4.0, "Q_14": 3.0, "name": "CENTURA HEALTH PROGRESSIVE CARE CENTER", "SF_14": 4.0, "SF_15": 4.0, "cnty": "Fremont", "st": "CO", "Zip": 81212.0, "O_14": 4.0, "Q_15": 2.0, "O_15": 4.0, "city": "CANON CITY", "beds": 116.0, "SR_15": 4.0}, {"Diff_star": 0.0, "addr": "555 PROSPECT AVE", "SR_14": 4.0, "Q_14": 5.0, "name": "PROSPECT PARK LIVING CENTER", "SF_14": 5.0, "SF_15": 5.0, "cnty": "Larimer", "st": "CO", "Zip": 80517.0, "O_14": 5.0, "Q_15": 5.0, "O_15": 5.0, "city": "ESTES PARK", "beds": 60.0, "SR_15": 4.0}, {"Diff_star": 0.0, "addr": "111 6TH STREET", "SR_14": 2.0, "Q_14": 1.0, "name": "LINCOLN COMMUNITY HOSPITAL NURSING HOME", "SF_14": 5.0, "SF_15": 5.0, "cnty": "Lincoln", "st": "CO", "Zip": 80821.0, "O_14": 2.0, "Q_15": 1.0, "O_15": 2.0, "city": "HUGO", "beds": 35.0, "SR_15": 2.0}, {"Diff_star": 0.0, "addr": "150 SPRING STREET", "SR_14": 1.0, "Q_14": 4.0, "name": "BEAR CREEK CENTER", "SF_14": 3.0, "SF_15": 3.0, "cnty": "Jefferson", "st": "CO", "Zip": 80465.0, "O_14": 1.0, "Q_15": 2.0, "O_15": 1.0, "city": "MORRISON", "beds": 180.0, "SR_15": 1.0}, {"Diff_star": 0.0, "addr": "1440 COFFMAN STREET", "SR_14": 1.0, "Q_14": 4.0, "name": "PEAKS CARE CENTER THE", "SF_14": 4.0, "SF_15": 4.0, "cnty": "Boulder", "st": "CO", "Zip": 80501.0, "O_14": 2.0, "Q_15": 3.0, "O_15": 2.0, "city": "LONGMONT", "beds": 105.0, "SR_15": 1.0}, {"Diff_star": -1.0, "addr": "3131 SOUTH FEDERAL BOULEVARD", "SR_14": 2.0, "Q_14": 2.0, "name": "AUTUMN HEIGHTS HEALTH CARE CENTER", "SF_14": 4.0, "SF_15": 4.0, "cnty": "Denver", "st": "CO", "Zip": 80236.0, "O_14": 3.0, "Q_15": 1.0, "O_15": 2.0, "city": "DENVER", "beds": 125.0, "SR_15": 2.0}, {"Diff_star": 0.0, "addr": "1020 PATTON STREET", "SR_14": 1.0, "Q_14": 4.0, "name": "REHABILITATION AND NURSING CENTER OF THE ROCKIES", "SF_14": 4.0, "SF_15": 4.0, "cnty": "Larimer", "st": "CO", "Zip": 80524.0, "O_14": 2.0, "Q_15": 2.0, "O_15": 2.0, "city": "FORT COLLINS", "beds": 96.0, "SR_15": 1.0}, {"Diff_star": 0.0, "addr": "501 EAST THORNTON PARKWAY", "SR_14": 2.0, "Q_14": 5.0, "name": "ALPINE LIVING CENTER", "SF_14": 4.0, "SF_15": 4.0, "cnty": "Adams", "st": "CO", "Zip": 80229.0, "O_14": 4.0, "Q_15": 5.0, "O_15": 4.0, "city": "THORNTON", "beds": 126.0, "SR_15": 2.0}, {"Diff_star": 0.0, "addr": "1043 RIDGE STREET", "SR_14": 3.0, "Q_14": 5.0, "name": "SAN JUAN LIVING CENTER", "SF_14": 3.0, "SF_15": 3.0, "cnty": "Montrose", "st": "CO", "Zip": 81401.0, "O_14": 4.0, "Q_15": 5.0, "O_15": 4.0, "city": "MONTROSE", "beds": 104.0, "SR_15": 3.0}, {"Diff_star": -1.0, "addr": "401 MALLEY DRIVE", "SR_14": 2.0, "Q_14": 3.0, "name": "AVAMERE TRANSITIONAL CARE AND REHAB-MALLEY", "SF_14": 3.0, "SF_15": 3.0, "cnty": "Adams", "st": "CO", "Zip": 80233.0, "O_14": 2.0, "Q_15": 1.0, "O_15": 1.0, "city": "NORTHGLENN", "beds": 162.0, "SR_15": 2.0}, {"Diff_star": -1.0, "addr": "104 LOIS LANE", "SR_14": 4.0, "Q_14": 5.0, "name": "GARDENS, THE", "SF_14": 4.0, "SF_15": 4.0, "cnty": "El Paso", "st": "CO", "Zip": 80904.0, "O_14": 5.0, "Q_15": 3.0, "O_15": 4.0, "city": "COLORADO SPRINGS", "beds": 45.0, "SR_15": 4.0}, {"Diff_star": -1.0, "addr": "1599 INGALLS ST", "SR_14": 2.0, "Q_14": 3.0, "name": "CEDARS HEALTHCARE CENTER", "SF_14": 4.0, "SF_15": 4.0, "cnty": "Jefferson", "st": "CO", "Zip": 80214.0, "O_14": 3.0, "Q_15": 1.0, "O_15": 2.0, "city": "LAKEWOOD", "beds": 130.0, "SR_15": 2.0}, {"Diff_star": -1.0, "addr": "5555 SOUTH ELATI STREET", "SR_14": 2.0, "Q_14": 5.0, "name": "CHERRELYN HEALTHCARE CENTER", "SF_14": 5.0, "SF_15": 5.0, "cnty": "Arapahoe", "st": "CO", "Zip": 80120.0, "O_14": 4.0, "Q_15": 4.0, "O_15": 3.0, "city": "LITTLETON", "beds": 190.0, "SR_15": 2.0}, {"Diff_star": -1.0, "addr": "4601 EAST ASBURY CIRCLE", "SR_14": 4.0, "Q_14": 5.0, "name": "ROWAN COMMUNITY, INC", "SF_14": 4.0, "SF_15": 4.0, "cnty": "Denver", "st": "CO", "Zip": 80222.0, "O_14": 5.0, "Q_15": 4.0, "O_15": 4.0, "city": "DENVER", "beds": 70.0, "SR_15": 4.0}, {"Diff_star": 0.0, "addr": "3636 SOUTH PEARL STREET", "SR_14": 3.0, "Q_14": 5.0, "name": "PEARL STREET HEALTH AND REHABILITATION CENTER", "SF_14": 4.0, "SF_15": 4.0, "cnty": "Arapahoe", "st": "CO", "Zip": 80110.0, "O_14": 5.0, "Q_15": 5.0, "O_15": 5.0, "city": "ENGLEWOOD", "beds": 81.0, "SR_15": 3.0}, {"Diff_star": 0.0, "addr": "1625 CARR STREET", "SR_14": 3.0, "Q_14": 5.0, "name": "WESTERN HILLS HEALTH CARE CENTER", "SF_14": 4.0, "SF_15": 4.0, "cnty": "Jefferson", "st": "CO", "Zip": 80214.0, "O_14": 5.0, "Q_15": 5.0, "O_15": 5.0, "city": "LAKEWOOD", "beds": 140.0, "SR_15": 3.0}, {"Diff_star": -1.0, "addr": "1700 18TH AVENUE", "SR_14": 4.0, "Q_14": 5.0, "name": "FAIRACRES MANOR, INC.", "SF_14": 4.0, "SF_15": 4.0, "cnty": "Weld", "st": "CO", "Zip": 80631.0, "O_14": 5.0, "Q_15": 4.0, "O_15": 4.0, "city": "GREELEY", "beds": 116.0, "SR_15": 4.0}, {"Diff_star": 0.0, "addr": "1637 29TH AVENUE PLACE", "SR_14": 4.0, "Q_14": 5.0, "name": "CENTENNIAL HEALTH CARE CENTER", "SF_14": 2.0, "SF_15": 2.0, "cnty": "Weld", "st": "CO", "Zip": 80634.0, "O_14": 5.0, "Q_15": 5.0, "O_15": 5.0, "city": "GREELEY", "beds": 118.0, "SR_15": 4.0}, {"Diff_star": 0.0, "addr": "1535 PARK AVENUE", "SR_14": 3.0, "Q_14": 4.0, "name": "HEALTH CENTER AT FRANKLIN PARK", "SF_14": 4.0, "SF_15": 4.0, "cnty": "Denver", "st": "CO", "Zip": 80218.0, "O_14": 4.0, "Q_15": 4.0, "O_15": 4.0, "city": "DENVER", "beds": 86.0, "SR_15": 4.0}, {"Diff_star": 0.0, "addr": "1100 CARSON AVE", "SR_14": 1.0, "Q_14": 4.0, "name": "ARKANSAS VALLEY REGIONAL MED CTR LONG TERM CARE", "SF_14": 5.0, "SF_15": 5.0, "cnty": "Otero", "st": "CO", "Zip": 81050.0, "O_14": 2.0, "Q_15": 2.0, "O_15": 2.0, "city": "LA JUNTA", "beds": 110.0, "SR_15": 1.0}, {"Diff_star": 0.0, "addr": "905 HARDING AVENUE", "SR_14": 1.0, "Q_14": 4.0, "name": "CANON LODGE CARE CENTER", "SF_14": 4.0, "SF_15": 4.0, "cnty": "Fremont", "st": "CO", "Zip": 81212.0, "O_14": 2.0, "Q_15": 5.0, "O_15": 2.0, "city": "CANON CITY", "beds": 60.0, "SR_15": 1.0}, {"Diff_star": -1.0, "addr": "850 27TH AVENUE", "SR_14": 2.0, "Q_14": 5.0, "name": "KENTON MANOR", "SF_14": 2.0, "SF_15": 2.0, "cnty": "Weld", "st": "CO", "Zip": 80634.0, "O_14": 3.0, "Q_15": 4.0, "O_15": 2.0, "city": "GREELEY", "beds": 114.0, "SR_15": 2.0}, {"Diff_star": 0.0, "addr": "530 WEST 16TH STREET", "SR_14": 3.0, "Q_14": 4.0, "name": "COLUMBINE MANOR CARE CENTER", "SF_14": 4.0, "SF_15": 4.0, "cnty": "Chaffee", "st": "CO", "Zip": 81201.0, "O_14": 4.0, "Q_15": 3.0, "O_15": 4.0, "city": "SALIDA", "beds": 112.0, "SR_15": 3.0}, {"Diff_star": -1.0, "addr": "1000 EAST STUART STREET", "SR_14": 2.0, "Q_14": 5.0, "name": "SPRING CREEK HEALTH CARE CENTER", "SF_14": 2.0, "SF_15": 2.0, "cnty": "Larimer", "st": "CO", "Zip": 80525.0, "O_14": 3.0, "Q_15": 4.0, "O_15": 2.0, "city": "FORT COLLINS", "beds": 138.0, "SR_15": 2.0}, {"Diff_star": -1.0, "addr": "4685 EAST BASELINE ROAD", "SR_14": 1.0, "Q_14": 5.0, "name": "BOULDER MANOR", "SF_14": 3.0, "SF_15": 3.0, "cnty": "Boulder", "st": "CO", "Zip": 80303.0, "O_14": 2.0, "Q_15": 4.0, "O_15": 1.0, "city": "BOULDER", "beds": 165.0, "SR_15": 1.0}, {"Diff_star": -1.0, "addr": "735 SOUTH LOCUST STREET", "SR_14": 3.0, "Q_14": 4.0, "name": "BERKLEY MANOR CARE CENTER", "SF_14": 4.0, "SF_15": 3.0, "cnty": "Arapahoe", "st": "CO", "Zip": 80224.0, "O_14": 4.0, "Q_15": 3.0, "O_15": 3.0, "city": "DENVER", "beds": 118.0, "SR_15": 3.0}, {"Diff_star": 0.0, "addr": "1340 EAST FILLMORE STREET", "SR_14": 1.0, "Q_14": 5.0, "name": "COLONIAL COLUMNS NURSING CENTER", "SF_14": 4.0, "SF_15": 3.0, "cnty": "El Paso", "st": "CO", "Zip": 80907.0, "O_14": 2.0, "Q_15": 5.0, "O_15": 2.0, "city": "COLORADO SPRINGS", "beds": 80.0, "SR_15": 1.0}, {"Diff_star": 0.0, "addr": "1800 STROH PLACE", "SR_14": 2.0, "Q_14": 4.0, "name": "APPLEWOOD LIVING CENTER", "SF_14": 3.0, "SF_15": 3.0, "cnty": "Boulder", "st": "CO", "Zip": 80501.0, "O_14": 2.0, "Q_15": 2.0, "O_15": 2.0, "city": "LONGMONT", "beds": 120.0, "SR_15": 2.0}, {"Diff_star": -1.0, "addr": "508 WEST TRILBY ROAD", "SR_14": 4.0, "Q_14": 2.0, "name": "GOOD SAMARITAN SOCIETY - FORT COLLINS VILLAGE", "SF_14": 4.0, "SF_15": 4.0, "cnty": "Larimer", "st": "CO", "Zip": 80525.0, "O_14": 4.0, "Q_15": 1.0, "O_15": 3.0, "city": "FORT COLLINS", "beds": 64.0, "SR_15": 4.0}, {"Diff_star": 0.0, "addr": "151 EAST 3RD STREET", "SR_14": 1.0, "Q_14": 5.0, "name": "PALISADE LIVING CENTER", "SF_14": 3.0, "SF_15": 3.0, "cnty": "Mesa", "st": "CO", "Zip": 81526.0, "O_14": 2.0, "Q_15": 5.0, "O_15": 2.0, "city": "PALISADE", "beds": 91.0, "SR_15": 1.0}, {"Diff_star": 0.0, "addr": "2701 CALIFORNIA ST", "SR_14": 2.0, "Q_14": 4.0, "name": "MINNEQUA MEDICENTER", "SF_14": 1.0, "SF_15": 1.0, "cnty": "Pueblo", "st": "CO", "Zip": 81004.0, "O_14": 1.0, "Q_15": 3.0, "O_15": 1.0, "city": "PUEBLO", "beds": 115.0, "SR_15": 2.0}, {"Diff_star": 0.0, "addr": "4450 EAST JEWELL AVENUE", "SR_14": 4.0, "Q_14": 5.0, "name": "JEWELL CARE CENTER OF DENVER", "SF_14": 2.0, "SF_15": 2.0, "cnty": "Denver", "st": "CO", "Zip": 80222.0, "O_14": 5.0, "Q_15": 5.0, "O_15": 5.0, "city": "DENVER", "beds": 106.0, "SR_15": 4.0}, {"Diff_star": 1.0, "addr": "945 DESERT FLOWER BOULEVARD", "SR_14": 1.0, "Q_14": 5.0, "name": "UNIVERSITY PARK CARE CENTER", "SF_14": 3.0, "SF_15": 4.0, "cnty": "Pueblo", "st": "CO", "Zip": 81001.0, "O_14": 2.0, "Q_15": 3.0, "O_15": 3.0, "city": "PUEBLO", "beds": 180.0, "SR_15": 2.0}, {"Diff_star": -1.0, "addr": "2611 JONES AVENUE", "SR_14": 2.0, "Q_14": 5.0, "name": "PUEBLO CENTER", "SF_14": 2.0, "SF_15": 3.0, "cnty": "Pueblo", "st": "CO", "Zip": 81004.0, "O_14": 3.0, "Q_15": 3.0, "O_15": 2.0, "city": "PUEBLO", "beds": 146.0, "SR_15": 2.0}, {"Diff_star": 0.0, "addr": "3701 WEST RADCLIFFE AVENUE", "SR_14": 3.0, "Q_14": 5.0, "name": "HALLMARK NURSING CENTER", "SF_14": 4.0, "SF_15": 4.0, "cnty": "Denver", "st": "CO", "Zip": 80236.0, "O_14": 5.0, "Q_15": 5.0, "O_15": 5.0, "city": "DENVER", "beds": 143.0, "SR_15": 3.0}, {"Diff_star": -1.0, "addr": "1991 CARROLL AVE", "SR_14": 4.0, "Q_14": 5.0, "name": "EVERGREEN NURSING HOME", "SF_14": 4.0, "SF_15": 4.0, "cnty": "Alamosa", "st": "CO", "Zip": 81101.0, "O_14": 5.0, "Q_15": 4.0, "O_15": 4.0, "city": "ALAMOSA", "beds": 60.0, "SR_15": 4.0}, {"Diff_star": 0.0, "addr": "900 SOUTH 12TH STREET", "SR_14": 2.0, "Q_14": 4.0, "name": "PIONEER HEALTH CARE CENTER", "SF_14": 4.0, "SF_15": 4.0, "cnty": "Otero", "st": "CO", "Zip": 81067.0, "O_14": 3.0, "Q_15": 2.0, "O_15": 3.0, "city": "ROCKY FORD", "beds": 91.0, "SR_15": 2.0}, {"Diff_star": -1.0, "addr": "1610 SCRANTON AVENUE", "SR_14": 2.0, "Q_14": 5.0, "name": "RIVERWALK POST ACUTE AND REHABILITATION", "SF_14": 5.0, "SF_15": 5.0, "cnty": "Pueblo", "st": "CO", "Zip": 81004.0, "O_14": 4.0, "Q_15": 4.0, "O_15": 3.0, "city": "PUEBLO", "beds": 60.0, "SR_15": 2.0}, {"Diff_star": 0.0, "addr": "1200 VILLAGE ROAD", "SR_14": 3.0, "Q_14": 5.0, "name": "HERITAGE PARK CARE CENTER", "SF_14": 4.0, "SF_15": 4.0, "cnty": "Garfield", "st": "CO", "Zip": 81623.0, "O_14": 5.0, "Q_15": 5.0, "O_15": 5.0, "city": "CARBONDALE", "beds": 90.0, "SR_15": 3.0}, {"Diff_star": 0.0, "addr": "12080 BELLAIRE WAY", "SR_14": 1.0, "Q_14": 3.0, "name": "ELMS HAVEN CENTER", "SF_14": 3.0, "SF_15": 3.0, "cnty": "Adams", "st": "CO", "Zip": 80241.0, "O_14": 1.0, "Q_15": 1.0, "O_15": 1.0, "city": "THORNTON", "beds": 242.0, "SR_15": 1.0}, {"Diff_star": 1.0, "addr": "240 CRAFT DRIVE", "SR_14": 3.0, "Q_14": 4.0, "name": "SAN LUIS CARE CENTER", "SF_14": 3.0, "SF_15": 3.0, "cnty": "Alamosa", "st": "CO", "Zip": 81101.0, "O_14": 3.0, "Q_15": 5.0, "O_15": 4.0, "city": "ALAMOSA", "beds": 70.0, "SR_15": 3.0}, {"Diff_star": 0.0, "addr": "2025 EAST EGBERT STREET", "SR_14": 4.0, "Q_14": 4.0, "name": "AVAMERE TRANSITIONAL CARE AND REHABILITATION", "SF_14": 3.0, "SF_15": 3.0, "cnty": "Adams", "st": "CO", "Zip": 80601.0, "O_14": 4.0, "Q_15": 3.0, "O_15": 4.0, "city": "BRIGHTON", "beds": 108.0, "SR_15": 4.0}, {"Diff_star": 0.0, "addr": "290 SOUTH MONACO PARKWAY", "SR_14": 4.0, "Q_14": 3.0, "name": "MANORCARE HEALTH SERVICES - DENVER", "SF_14": 2.0, "SF_15": 2.0, "cnty": "Denver", "st": "CO", "Zip": 80224.0, "O_14": 4.0, "Q_15": 2.0, "O_15": 4.0, "city": "DENVER", "beds": 160.0, "SR_15": 4.0}, {"Diff_star": 0.0, "addr": "4660 EAST ASBURY CIRCLE", "SR_14": 5.0, "Q_14": 5.0, "name": "BROOKSHIRE HOUSE REHABILITATION AND CARE COMMUNITY", "SF_14": 4.0, "SF_15": 3.0, "cnty": "Denver", "st": "CO", "Zip": 80222.0, "O_14": 5.0, "Q_15": 5.0, "O_15": 5.0, "city": "DENVER", "beds": 60.0, "SR_15": 4.0}, {"Diff_star": 0.0, "addr": "2911 JUNCTION STREET", "SR_14": 1.0, "Q_14": 5.0, "name": "FOUR CORNERS HEALTH CARE CENTER", "SF_14": 3.0, "SF_15": 3.0, "cnty": "La Plata", "st": "CO", "Zip": 81301.0, "O_14": 2.0, "Q_15": 5.0, "O_15": 2.0, "city": "DURANGO", "beds": 158.0, "SR_15": 1.0}, {"Diff_star": -1.0, "addr": "2305 BLAKE AVENUE", "SR_14": 1.0, "Q_14": 5.0, "name": "GRACE HEALTHCARE AND REHABILITATION CENTER OF GLEN", "SF_14": 3.0, "SF_15": 3.0, "cnty": "Garfield", "st": "CO", "Zip": 81601.0, "O_14": 2.0, "Q_15": 4.0, "O_15": 1.0, "city": "GLENWOOD SPRINGS", "beds": 54.0, "SR_15": 1.0}, {"Diff_star": 0.0, "addr": "940 WORTHINGTON CIRCLE", "SR_14": 3.0, "Q_14": 5.0, "name": "COLUMBINE WEST HEALTH AND REHAB FACILITY", "SF_14": 5.0, "SF_15": 5.0, "cnty": "Larimer", "st": "CO", "Zip": 80526.0, "O_14": 5.0, "Q_15": 5.0, "O_15": 5.0, "city": "FORT COLLINS", "beds": 102.0, "SR_15": 3.0}, {"Diff_star": 0.0, "addr": "920 SOUTH CHELTON ROAD", "SR_14": 4.0, "Q_14": 4.0, "name": "LAUREL MANOR CARE CENTER", "SF_14": 4.0, "SF_15": 4.0, "cnty": "El Paso", "st": "CO", "Zip": 80910.0, "O_14": 4.0, "Q_15": 2.0, "O_15": 4.0, "city": "COLORADO SPRINGS", "beds": 81.0, "SR_15": 4.0}, {"Diff_star": 0.0, "addr": "110 WEST VAN BUREN STREET", "SR_14": 1.0, "Q_14": 4.0, "name": "SPRINGS VILLAGE CARE CENTER", "SF_14": 5.0, "SF_15": 5.0, "cnty": "El Paso", "st": "CO", "Zip": 80907.0, "O_14": 2.0, "Q_15": 4.0, "O_15": 2.0, "city": "COLORADO SPRINGS", "beds": 91.0, "SR_15": 1.0}, {"Diff_star": -2.0, "addr": "5301 WEST FIRST AVENUE", "SR_14": 3.0, "Q_14": 5.0, "name": "BETHANY REHABILITATION CENTER", "SF_14": 4.0, "SF_15": 3.0, "cnty": "Jefferson", "st": "CO", "Zip": 80226.0, "O_14": 5.0, "Q_15": 4.0, "O_15": 3.0, "city": "LAKEWOOD", "beds": 170.0, "SR_15": 3.0}, {"Diff_star": 0.0, "addr": "2050 SOUTH MAIN STREET", "SR_14": 2.0, "Q_14": 5.0, "name": "WILLOW TREE CARE CENTER", "SF_14": 4.0, "SF_15": 4.0, "cnty": "Delta", "st": "CO", "Zip": 81416.0, "O_14": 4.0, "Q_15": 5.0, "O_15": 4.0, "city": "DELTA", "beds": 80.0, "SR_15": 2.0}, {"Diff_star": 0.0, "addr": "515 FAIRVIEW STREET", "SR_14": 2.0, "Q_14": 5.0, "name": "SKYLINE RIDGE NURSING AND REHABILITATION CENTER", "SF_14": 4.0, "SF_15": 4.0, "cnty": "Fremont", "st": "CO", "Zip": 81212.0, "O_14": 4.0, "Q_15": 5.0, "O_15": 4.0, "city": "CANON CITY", "beds": 85.0, "SR_15": 2.0}, {"Diff_star": 0.0, "addr": "1625 MEADOWBROOK BOULEVARD", "SR_14": 4.0, "Q_14": 4.0, "name": "PAONIA CARE AND REHABILITATION CENTER", "SF_14": 5.0, "SF_15": 5.0, "cnty": "Delta", "st": "CO", "Zip": 81428.0, "O_14": 5.0, "Q_15": 4.0, "O_15": 5.0, "city": "PAONIA", "beds": 60.0, "SR_15": 4.0}, {"Diff_star": -1.0, "addr": "3625 PARKMOOR VILLAGE DRIVE", "SR_14": 1.0, "Q_14": 3.0, "name": "PARKMOOR VILLAGE HEALTHCARE CENTER", "SF_14": 4.0, "SF_15": 4.0, "cnty": "El Paso", "st": "CO", "Zip": 80917.0, "O_14": 2.0, "Q_15": 1.0, "O_15": 1.0, "city": "COLORADO SPRINGS", "beds": 147.0, "SR_15": 1.0}, {"Diff_star": 0.0, "addr": "2501 LITTLE BOOKCLIFF DRIVE", "SR_14": 1.0, "Q_14": 4.0, "name": "LA VILLA GRANDE CARE CENTER", "SF_14": 4.0, "SF_15": 4.0, "cnty": "Mesa", "st": "CO", "Zip": 81501.0, "O_14": 2.0, "Q_15": 3.0, "O_15": 2.0, "city": "GRAND JUNCTION", "beds": 96.0, "SR_15": 1.0}, {"Diff_star": 0.0, "addr": "2445 EAST CACHE LA POUDRE", "SR_14": 4.0, "Q_14": 3.0, "name": "SUNNY VISTA LIVING CENTER", "SF_14": 4.0, "SF_15": 4.0, "cnty": "El Paso", "st": "CO", "Zip": 80909.0, "O_14": 4.0, "Q_15": 2.0, "O_15": 4.0, "city": "COLORADO SPRINGS", "beds": 116.0, "SR_15": 4.0}, {"Diff_star": 0.0, "addr": "1440 VINE STREET", "SR_14": 4.0, "Q_14": 5.0, "name": "BRIARWOOD HEALTH CARE CENTER", "SF_14": 4.0, "SF_15": 4.0, "cnty": "Denver", "st": "CO", "Zip": 80206.0, "O_14": 5.0, "Q_15": 5.0, "O_15": 5.0, "city": "DENVER", "beds": 201.0, "SR_15": 4.0}, {"Diff_star": 0.0, "addr": "6060 EAST ILIFF AVENUE", "SR_14": 2.0, "Q_14": 4.0, "name": "HIGHLINE REHABILITATION AND CARE COMMUNITY", "SF_14": 4.0, "SF_15": 4.0, "cnty": "Denver", "st": "CO", "Zip": 80222.0, "O_14": 3.0, "Q_15": 3.0, "O_15": 3.0, "city": "DENVER", "beds": 120.0, "SR_15": 2.0}, {"Diff_star": 0.0, "addr": "1005 EAST ELIZABETH STREET", "SR_14": 2.0, "Q_14": 4.0, "name": "GOLDEN PEAKS CENTER", "SF_14": 4.0, "SF_15": 4.0, "cnty": "Larimer", "st": "CO", "Zip": 80524.0, "O_14": 3.0, "Q_15": 2.0, "O_15": 3.0, "city": "FORT COLLINS", "beds": 60.0, "SR_15": 2.0}, {"Diff_star": 0.0, "addr": "11411 HIGHWAY 65", "SR_14": 2.0, "Q_14": 5.0, "name": "HORIZONS CARE CENTER", "SF_14": 4.0, "SF_15": 4.0, "cnty": "Delta", "st": "CO", "Zip": 81418.0, "O_14": 4.0, "Q_15": 5.0, "O_15": 4.0, "city": "ECKERT", "beds": 79.0, "SR_15": 2.0}, {"Diff_star": 0.0, "addr": "6005 SOUTH HOLLY STREET", "SR_14": 4.0, "Q_14": 5.0, "name": "ORCHARD PARK HEALTH CARE CENTER", "SF_14": 4.0, "SF_15": 4.0, "cnty": "Arapahoe", "st": "CO", "Zip": 80121.0, "O_14": 5.0, "Q_15": 5.0, "O_15": 5.0, "city": "LITTLETON", "beds": 133.0, "SR_15": 4.0}, {"Diff_star": 0.0, "addr": "323 WEST 9TH AVENUE", "SR_14": 2.0, "Q_14": 4.0, "name": "YUMA LIFE CARE CENTER", "SF_14": 2.0, "SF_15": 2.0, "cnty": "Yuma", "st": "CO", "Zip": 80759.0, "O_14": 2.0, "Q_15": 4.0, "O_15": 2.0, "city": "YUMA", "beds": 58.0, "SR_15": 2.0}, {"Diff_star": 0.0, "addr": "345 CLEVELAND STREET", "SR_14": 4.0, "Q_14": 3.0, "name": "WALBRIDGE MEMORIAL CONVALESCENT WING", "SF_14": 5.0, "SF_15": 5.0, "cnty": "Rio Blanco", "st": "CO", "Zip": 81641.0, "O_14": 5.0, "Q_15": 2.0, "O_15": 5.0, "city": "MEEKER", "beds": 33.0, "SR_15": 4.0}, {"Diff_star": 0.0, "addr": "855 FRANKLIN AVENUE", "SR_14": 1.0, "Q_14": 5.0, "name": "BERTHOUD LIVING CENTER", "SF_14": 3.0, "SF_15": 3.0, "cnty": "Larimer", "st": "CO", "Zip": 80513.0, "O_14": 2.0, "Q_15": 5.0, "O_15": 2.0, "city": "BERTHOUD", "beds": 76.0, "SR_15": 1.0}, {"Diff_star": -1.0, "addr": "1600 SOUTH POTOMAC STREET", "SR_14": 4.0, "Q_14": 5.0, "name": "GARDEN TERRACE ALZHEIMER'S CENTER OF EXCELLENCE", "SF_14": 3.0, "SF_15": 3.0, "cnty": "Arapahoe", "st": "CO", "Zip": 80012.0, "O_14": 5.0, "Q_15": 4.0, "O_15": 4.0, "city": "AURORA", "beds": 120.0, "SR_15": 4.0}, {"Diff_star": 0.0, "addr": "2800 PALO PARKWAY", "SR_14": 3.0, "Q_14": 5.0, "name": "MANORCARE HEALTH SERVICES - BOULDER", "SF_14": 4.0, "SF_15": 4.0, "cnty": "Boulder", "st": "CO", "Zip": 80301.0, "O_14": 5.0, "Q_15": 5.0, "O_15": 5.0, "city": "BOULDER", "beds": 150.0, "SR_15": 3.0}, {"Diff_star": -1.0, "addr": "2118 CHATALET LANE", "SR_14": 2.0, "Q_14": 5.0, "name": "LIFE CARE CENTER OF PUEBLO", "SF_14": 3.0, "SF_15": 3.0, "cnty": "Pueblo", "st": "CO", "Zip": 81005.0, "O_14": 3.0, "Q_15": 4.0, "O_15": 2.0, "city": "PUEBLO", "beds": 187.0, "SR_15": 2.0}, {"Diff_star": 0.0, "addr": "400 W 16TH STREET 3RD FLOOR", "SR_14": 4.0, "Q_14": 2.0, "name": "PARKVIEW MEDICAL CTR SKILLED NURSING FACILITY ECF", "SF_14": 5.0, "SF_15": 5.0, "cnty": "Pueblo", "st": "CO", "Zip": 81003.0, "O_14": 5.0, "Q_15": 2.0, "O_15": 5.0, "city": "PUEBLO", "beds": 20.0, "SR_15": 4.0}, {"Diff_star": 0.0, "addr": "1432 DEPEW STREET", "SR_14": 4.0, "Q_14": 5.0, "name": "SIERRA REHABILITATION AND CARE COMMUNITY", "SF_14": 3.0, "SF_15": 3.0, "cnty": "Jefferson", "st": "CO", "Zip": 80214.0, "O_14": 5.0, "Q_15": 5.0, "O_15": 5.0, "city": "LAKEWOOD", "beds": 103.0, "SR_15": 4.0}, {"Diff_star": 0.0, "addr": "6270 WEST 38TH AVENUE", "SR_14": 4.0, "Q_14": 3.0, "name": "CHRISTOPHER HOUSE REHABILITATION AND CARE COMMUNIT", "SF_14": 4.0, "SF_15": 3.0, "cnty": "Jefferson", "st": "CO", "Zip": 80033.0, "O_14": 4.0, "Q_15": 3.0, "O_15": 4.0, "city": "WHEAT RIDGE", "beds": 72.0, "SR_15": 4.0}, {"Diff_star": 0.0, "addr": "3185 WEST ARKANSAS AVENUE", "SR_14": 4.0, "Q_14": 3.0, "name": "NORTH STAR REHABILITATION AND CARE COMMUNITY", "SF_14": 4.0, "SF_15": 3.0, "cnty": "Denver", "st": "CO", "Zip": 80219.0, "O_14": 4.0, "Q_15": 2.0, "O_15": 4.0, "city": "DENVER", "beds": 85.0, "SR_15": 4.0}, {"Diff_star": 0.0, "addr": "2987 BERGEN PEAK DRIVE", "SR_14": 3.0, "Q_14": 4.0, "name": "LIFE CARE CENTER OF EVERGREEN", "SF_14": 3.0, "SF_15": 3.0, "cnty": "Jefferson", "st": "CO", "Zip": 80439.0, "O_14": 3.0, "Q_15": 4.0, "O_15": 3.0, "city": "EVERGREEN", "beds": 120.0, "SR_15": 3.0}, {"Diff_star": -2.0, "addr": "710 3RD STREET", "SR_14": 2.0, "Q_14": 5.0, "name": "WINDSOR HEALTH CARE CENTER", "SF_14": 4.0, "SF_15": 3.0, "cnty": "Weld", "st": "CO", "Zip": 80550.0, "O_14": 4.0, "Q_15": 4.0, "O_15": 2.0, "city": "WINDSOR", "beds": 112.0, "SR_15": 2.0}, {"Diff_star": -1.0, "addr": "2451 PRATT STREET", "SR_14": 4.0, "Q_14": 5.0, "name": "LIFE CARE CENTER OF LONGMONT", "SF_14": 4.0, "SF_15": 4.0, "cnty": "Boulder", "st": "CO", "Zip": 80501.0, "O_14": 5.0, "Q_15": 4.0, "O_15": 4.0, "city": "LONGMONT", "beds": 187.0, "SR_15": 4.0}, {"Diff_star": -1.0, "addr": "5230 EAST 66TH WAY", "SR_14": 1.0, "Q_14": 3.0, "name": "WOODRIDGE TERRACE NURSING AND REHABILITATION", "SF_14": 4.0, "SF_15": 4.0, "cnty": "Adams", "st": "CO", "Zip": 80022.0, "O_14": 2.0, "Q_15": 1.0, "O_15": 1.0, "city": "COMMERCE CITY", "beds": 105.0, "SR_15": 1.0}, {"Diff_star": 0.0, "addr": "465 FIFTH STREET", "SR_14": 2.0, "Q_14": 5.0, "name": "GRACE MANOR CARE CENTER", "SF_14": 4.0, "SF_15": 3.0, "cnty": "Kit Carson", "st": "CO", "Zip": 80807.0, "O_14": 4.0, "Q_15": 5.0, "O_15": 4.0, "city": "BURLINGTON", "beds": 37.0, "SR_15": 3.0}, {"Diff_star": -1.0, "addr": "4001 HOME STREET", "SR_14": 2.0, "Q_14": 3.0, "name": "CASTLE ROCK CARE CENTER", "SF_14": 2.0, "SF_15": 2.0, "cnty": "Douglas", "st": "CO", "Zip": 80108.0, "O_14": 2.0, "Q_15": 2.0, "O_15": 1.0, "city": "CASTLE ROCK", "beds": 91.0, "SR_15": 1.0}, {"Diff_star": 0.0, "addr": "2425 TELLER AVENUE", "SR_14": 3.0, "Q_14": 4.0, "name": "EAGLE RIDGE AT GRAND VALLEY", "SF_14": 4.0, "SF_15": 4.0, "cnty": "Mesa", "st": "CO", "Zip": 81501.0, "O_14": 4.0, "Q_15": 4.0, "O_15": 4.0, "city": "GRAND JUNCTION", "beds": 70.0, "SR_15": 3.0}, {"Diff_star": 0.0, "addr": "895 SOUTH MONACO PARKWAY", "SR_14": 1.0, "Q_14": 5.0, "name": "MONACO PARKWAY HEALTH AND REHABILITATION CENTER", "SF_14": 2.0, "SF_15": 2.0, "cnty": "Denver", "st": "CO", "Zip": 80224.0, "O_14": 2.0, "Q_15": 5.0, "O_15": 2.0, "city": "DENVER", "beds": 117.0, "SR_15": 1.0}, {"Diff_star": 0.0, "addr": "2277 EAST DRIVE", "SR_14": 3.0, "Q_14": 3.0, "name": "MONTE VISTA ESTATES LLC", "SF_14": 4.0, "SF_15": 4.0, "cnty": "Rio Grande", "st": "CO", "Zip": 81144.0, "O_14": 4.0, "Q_15": 3.0, "O_15": 4.0, "city": "MONTE VISTA", "beds": 60.0, "SR_15": 3.0}, {"Diff_star": 0.0, "addr": "3835 HARLAN STREET", "SR_14": 3.0, "Q_14": 5.0, "name": "REHABILITATION CENTER AT SANDALWOOD,THE", "SF_14": "", "SF_15": "", "cnty": "Jefferson", "st": "CO", "Zip": 80033.0, "O_14": 4.0, "Q_15": 5.0, "O_15": 4.0, "city": "WHEAT RIDGE", "beds": 100.0, "SR_15": 3.0}, {"Diff_star": 0.0, "addr": "205 SOUTH 10TH ST", "SR_14": 4.0, "Q_14": 4.0, "name": "LAMAR ESTATES LLC", "SF_14": 3.0, "SF_15": 3.0, "cnty": "Prowers", "st": "CO", "Zip": 81052.0, "O_14": 4.0, "Q_15": 3.0, "O_15": 4.0, "city": "LAMAR", "beds": 60.0, "SR_15": 4.0}, {"Diff_star": -1.0, "addr": "1685 EATON STREET", "SR_14": 2.0, "Q_14": 5.0, "name": "CAMBRIDGE CARE CENTER", "SF_14": 5.0, "SF_15": 5.0, "cnty": "Jefferson", "st": "CO", "Zip": 80214.0, "O_14": 4.0, "Q_15": 4.0, "O_15": 3.0, "city": "LAKEWOOD", "beds": 100.0, "SR_15": 2.0}, {"Diff_star": 0.0, "addr": "1660 ALLISON STREET", "SR_14": 4.0, "Q_14": 4.0, "name": "ALLISON CARE CENTER", "SF_14": 4.0, "SF_15": 4.0, "cnty": "Jefferson", "st": "CO", "Zip": 80214.0, "O_14": 4.0, "Q_15": 4.0, "O_15": 4.0, "city": "LAKEWOOD", "beds": 93.0, "SR_15": 4.0}, {"Diff_star": 0.0, "addr": "1655 YARROW STREET", "SR_14": 3.0, "Q_14": 4.0, "name": "HARMONY POINTE NURSING CENTER", "SF_14": 4.0, "SF_15": 4.0, "cnty": "Jefferson", "st": "CO", "Zip": 80214.0, "O_14": 4.0, "Q_15": 3.0, "O_15": 4.0, "city": "LAKEWOOD", "beds": 110.0, "SR_15": 3.0}, {"Diff_star": 0.0, "addr": "3105 WEST ARKANSAS AVENUE", "SR_14": 4.0, "Q_14": 5.0, "name": "PARKVIEW CARE CENTER", "SF_14": 4.0, "SF_15": 3.0, "cnty": "Denver", "st": "CO", "Zip": 80219.0, "O_14": 5.0, "Q_15": 5.0, "O_15": 5.0, "city": "DENVER", "beds": 81.0, "SR_15": 4.0}, {"Diff_star": 0.0, "addr": "816 SOUTH INTEROCEAN AVENUE", "SR_14": 4.0, "Q_14": 5.0, "name": "REGENT PARK NURSING AND REHABILITATION", "SF_14": 5.0, "SF_15": 4.0, "cnty": "Phillips", "st": "CO", "Zip": 80734.0, "O_14": 5.0, "Q_15": 5.0, "O_15": 5.0, "city": "HOLYOKE", "beds": 51.0, "SR_15": 3.0}, {"Diff_star": 0.0, "addr": "14800 EAST BELLEVIEW DRIVE", "SR_14": 4.0, "Q_14": 4.0, "name": "BETH ISRAEL AT SHALOM PARK", "SF_14": 4.0, "SF_15": 4.0, "cnty": "Arapahoe", "st": "CO", "Zip": 80015.0, "O_14": 4.0, "Q_15": 3.0, "O_15": 4.0, "city": "AURORA", "beds": 135.0, "SR_15": 4.0}, {"Diff_star": 0.0, "addr": "12205 GUNSTOCK DRIVE", "SR_14": 3.0, "Q_14": 4.0, "name": "LIBERTY HEIGHTS", "SF_14": 4.0, "SF_15": 4.0, "cnty": "El Paso", "st": "CO", "Zip": 80921.0, "O_14": 4.0, "Q_15": 4.0, "O_15": 4.0, "city": "COLORADO SPRINGS", "beds": 42.0, "SR_15": 3.0}, {"Diff_star": -1.0, "addr": "211 3RD AVENUE", "SR_14": 3.0, "Q_14": 3.0, "name": "VALLEY INN, THE", "SF_14": 4.0, "SF_15": 3.0, "cnty": "Montezuma", "st": "CO", "Zip": 81328.0, "O_14": 4.0, "Q_15": 2.0, "O_15": 3.0, "city": "MANCOS", "beds": 110.0, "SR_15": 3.0}, {"Diff_star": 0.0, "addr": "2825 PATTERSON ROAD", "SR_14": 4.0, "Q_14": 4.0, "name": "MANTEY HEIGHTS REHABILITATION AND CARE CENTER", "SF_14": 4.0, "SF_15": 4.0, "cnty": "Mesa", "st": "CO", "Zip": 81506.0, "O_14": 4.0, "Q_15": 3.0, "O_15": 4.0, "city": "GRAND JUNCTION", "beds": 88.0, "SR_15": 4.0}, {"Diff_star": 0.0, "addr": "2920 FENTON STREET", "SR_14": 5.0, "Q_14": 5.0, "name": "WHEATRIDGE MANOR CARE CENTER", "SF_14": 5.0, "SF_15": 5.0, "cnty": "Jefferson", "st": "CO", "Zip": 80214.0, "O_14": 5.0, "Q_15": 5.0, "O_15": 5.0, "city": "WHEAT RIDGE", "beds": 78.0, "SR_15": 5.0}, {"Diff_star": 0.0, "addr": "465 MAIN AVENUE", "SR_14": 4.0, "Q_14": 4.0, "name": "WASHINGTON COUNTY NURSING HOME", "SF_14": 4.0, "SF_15": 4.0, "cnty": "Washington", "st": "CO", "Zip": 80720.0, "O_14": 4.0, "Q_15": 3.0, "O_15": 4.0, "city": "AKRON", "beds": 34.0, "SR_15": 4.0}, {"Diff_star": 0.0, "addr": "745 EAST 18TH AVENUE", "SR_14": 3.0, "Q_14": 5.0, "name": "UPTOWN HEALTH CARE CENTER", "SF_14": 5.0, "SF_15": 5.0, "cnty": "Denver", "st": "CO", "Zip": 80203.0, "O_14": 5.0, "Q_15": 5.0, "O_15": 5.0, "city": "DENVER", "beds": 79.0, "SR_15": 3.0}, {"Diff_star": -1.0, "addr": "401 IDAHO AVENUE", "SR_14": 2.0, "Q_14": 4.0, "name": "CROWLEY COUNTY NURSING CENTER", "SF_14": 4.0, "SF_15": 3.0, "cnty": "Crowley", "st": "CO", "Zip": 81063.0, "O_14": 3.0, "Q_15": 2.0, "O_15": 2.0, "city": "ORDWAY", "beds": 37.0, "SR_15": 2.0}, {"Diff_star": 0.0, "addr": "360 CANYON RIDGE DRIVE", "SR_14": 4.0, "Q_14": 3.0, "name": "HILLCREST CARE CENTER", "SF_14": 5.0, "SF_15": 5.0, "cnty": "Yuma", "st": "CO", "Zip": 80758.0, "O_14": 5.0, "Q_15": 2.0, "O_15": 5.0, "city": "WRAY", "beds": 58.0, "SR_15": 4.0}, {"Diff_star": 0.0, "addr": "7150 POPLAR STREET", "SR_14": 1.0, "Q_14": 4.0, "name": "MISSION SAN MIGUEL NURSING AND REHAB CENTER", "SF_14": 4.0, "SF_15": 4.0, "cnty": "Adams", "st": "CO", "Zip": 80022.0, "O_14": 2.0, "Q_15": 2.0, "O_15": 2.0, "city": "COMMERCE CITY", "beds": 95.0, "SR_15": 1.0}, {"Diff_star": 0.0, "addr": "5822 SOUTH LOWELL WAY", "SR_14": 5.0, "Q_14": 5.0, "name": "LITTLETON CARE AND REHABILITATION CENTER", "SF_14": 4.0, "SF_15": 4.0, "cnty": "Arapahoe", "st": "CO", "Zip": 80123.0, "O_14": 5.0, "Q_15": 5.0, "O_15": 5.0, "city": "LITTLETON", "beds": 35.0, "SR_15": 5.0}, {"Diff_star": 0.0, "addr": "6121 WEST 60TH AVENUE", "SR_14": 4.0, "Q_14": 5.0, "name": "ARVADA CARE AND REHABILITATION CENTER", "SF_14": 4.0, "SF_15": 4.0, "cnty": "Jefferson", "st": "CO", "Zip": 80003.0, "O_14": 5.0, "Q_15": 5.0, "O_15": 5.0, "city": "ARVADA", "beds": 54.0, "SR_15": 4.0}, {"Diff_star": -1.0, "addr": "3401 SOUTH LAFAYETTE STREET", "SR_14": 1.0, "Q_14": 5.0, "name": "JULIA TEMPLE HEALTHCARE CENTER", "SF_14": 4.0, "SF_15": 3.0, "cnty": "Arapahoe", "st": "CO", "Zip": 80113.0, "O_14": 2.0, "Q_15": 4.0, "O_15": 1.0, "city": "ENGLEWOOD", "beds": 128.0, "SR_15": 1.0}, {"Diff_star": 0.0, "addr": "2201 DOWNING STREET", "SR_14": 5.0, "Q_14": 5.0, "name": "DENVER NORTH CARE CENTER", "SF_14": 4.0, "SF_15": 4.0, "cnty": "Denver", "st": "CO", "Zip": 80205.0, "O_14": 5.0, "Q_15": 4.0, "O_15": 5.0, "city": "DENVER", "beds": 80.0, "SR_15": 5.0}, {"Diff_star": 0.0, "addr": "4950 THUNDERBIRD DRIVE", "SR_14": 5.0, "Q_14": 5.0, "name": "FRASIER MEADOWS HEALTH CARE CENTER", "SF_14": 5.0, "SF_15": 5.0, "cnty": "Boulder", "st": "CO", "Zip": 80303.0, "O_14": 5.0, "Q_15": 5.0, "O_15": 5.0, "city": "BOULDER", "beds": 108.0, "SR_15": 5.0}, {"Diff_star": 0.0, "addr": "7550 ASSISI HEIGHTS", "SR_14": 5.0, "Q_14": 5.0, "name": "MOUNT ST FRANCIS NURSING CENTER", "SF_14": 4.0, "SF_15": 4.0, "cnty": "El Paso", "st": "CO", "Zip": 80919.0, "O_14": 5.0, "Q_15": 5.0, "O_15": 5.0, "city": "COLORADO SPRINGS", "beds": 108.0, "SR_15": 5.0}, {"Diff_star": 0.0, "addr": "2205 WEST 29TH AVENUE", "SR_14": 1.0, "Q_14": 5.0, "name": "JUNIPER VILLAGE - THE SPEARLY CENTER", "SF_14": 3.0, "SF_15": 3.0, "cnty": "Denver", "st": "CO", "Zip": 80211.0, "O_14": 2.0, "Q_15": 5.0, "O_15": 2.0, "city": "DENVER", "beds": 135.0, "SR_15": 1.0}, {"Diff_star": -1.0, "addr": "1950 MOUNTAIN VIEW AVENUE", "SR_14": 5.0, "Q_14": 2.0, "name": "LONGMONT UNITED HOSPITAL T C U", "SF_14": 5.0, "SF_15": 5.0, "cnty": "Boulder", "st": "CO", "Zip": 80501.0, "O_14": 5.0, "Q_15": 1.0, "O_15": 4.0, "city": "LONGMONT", "beds": 15.0, "SR_15": 5.0}, {"Diff_star": 0.0, "addr": "7991 WEST 71ST AVENUE", "SR_14": 5.0, "Q_14": 4.0, "name": "EXEMPLA COLORADO LUTHERAN HOME", "SF_14": 4.0, "SF_15": 4.0, "cnty": "Jefferson", "st": "CO", "Zip": 80004.0, "O_14": 5.0, "Q_15": 2.0, "O_15": 5.0, "city": "ARVADA", "beds": 120.0, "SR_15": 5.0}, {"Diff_star": -1.0, "addr": "2845 NORTH 15TH STREET", "SR_14": 3.0, "Q_14": 5.0, "name": "LARCHWOOD INNS", "SF_14": 5.0, "SF_15": 5.0, "cnty": "Mesa", "st": "CO", "Zip": 81506.0, "O_14": 5.0, "Q_15": 4.0, "O_15": 4.0, "city": "GRAND JUNCTION", "beds": 130.0, "SR_15": 3.0}, {"Diff_star": -1.0, "addr": "14101 EAST EVANS AVENUE", "SR_14": 2.0, "Q_14": 3.0, "name": "LIFE CARE CENTER OF AURORA", "SF_14": 4.0, "SF_15": 3.0, "cnty": "Arapahoe", "st": "CO", "Zip": 80014.0, "O_14": 3.0, "Q_15": 3.0, "O_15": 2.0, "city": "AURORA", "beds": 166.0, "SR_15": 2.0}, {"Diff_star": -1.0, "addr": "700 NORTH A STREET", "SR_14": 3.0, "Q_14": 5.0, "name": "CRIPPLE CREEK CARE CENTER", "SF_14": 4.0, "SF_15": 3.0, "cnty": "Teller", "st": "CO", "Zip": 80813.0, "O_14": 5.0, "Q_15": 5.0, "O_15": 4.0, "city": "CRIPPLE CREEK", "beds": 59.0, "SR_15": 3.0}, {"Diff_star": 0.0, "addr": "656 DILLON WAY", "SR_14": 1.0, "Q_14": 4.0, "name": "ASPEN CENTER", "SF_14": 4.0, "SF_15": 4.0, "cnty": "Adams", "st": "CO", "Zip": 80011.0, "O_14": 2.0, "Q_15": 2.0, "O_15": 2.0, "city": "AURORA", "beds": 120.0, "SR_15": 1.0}, {"Diff_star": 0.0, "addr": "2855 OWL HOOT TRAIL", "SR_14": 4.0, "Q_14": 3.0, "name": "CASEY'S POND SENIOR LIVING LTC", "SF_14": 4.0, "SF_15": 4.0, "cnty": "Routt", "st": "CO", "Zip": 80487.0, "O_14": 4.0, "Q_15": 3.0, "O_15": 4.0, "city": "STEAMBOAT SPRINGS", "beds": 59.0, "SR_15": 4.0}, {"Diff_star": 0.0, "addr": "2480 SOUTH CLERMONT STREET", "SR_14": 5.0, "Q_14": 5.0, "name": "SUITES AT CLERMONT PARK CARE CENTER", "SF_14": 4.0, "SF_15": 4.0, "cnty": "Denver", "st": "CO", "Zip": 80222.0, "O_14": 5.0, "Q_15": 4.0, "O_15": 5.0, "city": "DENVER", "beds": 63.0, "SR_15": 5.0}, {"Diff_star": 0.0, "addr": "5000 EAST ARAPAHOE ROAD", "SR_14": 4.0, "Q_14": 4.0, "name": "CHRISTIAN LVG COMMUNITIES SUITES AT SOMEREN GLEN", "SF_14": 4.0, "SF_15": 4.0, "cnty": "Arapahoe", "st": "CO", "Zip": 80122.0, "O_14": 4.0, "Q_15": 3.0, "O_15": 4.0, "city": "CENTENNIAL", "beds": 93.0, "SR_15": 4.0}, {"Diff_star": 0.0, "addr": "2120 NORTH 10TH STREET", "SR_14": 2.0, "Q_14": 4.0, "name": "VALLEY VIEW HEALTH CARE CENTER INC", "SF_14": 1.0, "SF_15": 1.0, "cnty": "Fremont", "st": "CO", "Zip": 81212.0, "O_14": 1.0, "Q_15": 2.0, "O_15": 1.0, "city": "CANON CITY", "beds": 60.0, "SR_15": 2.0}, {"Diff_star": 0.0, "addr": "320 NORTH 8TH STREET", "SR_14": 5.0, "Q_14": 4.0, "name": "HOLLY NURSING CARE CENTER", "SF_14": 4.0, "SF_15": 4.0, "cnty": "Prowers", "st": "CO", "Zip": 81047.0, "O_14": 5.0, "Q_15": 2.0, "O_15": 5.0, "city": "HOLLY", "beds": 49.0, "SR_15": 5.0}, {"Diff_star": 0.0, "addr": "750 8TH STREET", "SR_14": 1.0, "Q_14": 4.0, "name": "COLOROW CARE CENTER", "SF_14": 4.0, "SF_15": 4.0, "cnty": "Montrose", "st": "CO", "Zip": 81425.0, "O_14": 2.0, "Q_15": 4.0, "O_15": 2.0, "city": "OLATHE", "beds": 62.0, "SR_15": 1.0}, {"Diff_star": -1.0, "addr": "1201 WEST ABRIENDO AVENUE", "SR_14": 4.0, "Q_14": 5.0, "name": "SHARMAR VILLAGE CARE CENTER", "SF_14": 4.0, "SF_15": 4.0, "cnty": "Pueblo", "st": "CO", "Zip": 81004.0, "O_14": 5.0, "Q_15": 4.0, "O_15": 4.0, "city": "PUEBLO", "beds": 64.0, "SR_15": 4.0}, {"Diff_star": -1.0, "addr": "2490 INTERNATIONAL CIRCLE", "SR_14": 2.0, "Q_14": 5.0, "name": "LIFE CARE CENTER OF COLORADO SPRINGS", "SF_14": 4.0, "SF_15": 4.0, "cnty": "El Paso", "st": "CO", "Zip": 80910.0, "O_14": 4.0, "Q_15": 4.0, "O_15": 3.0, "city": "COLORADO SPRINGS", "beds": 121.0, "SR_15": 2.0}, {"Diff_star": 0.0, "addr": "7751 ZENOBIA COURT", "SR_14": 3.0, "Q_14": 4.0, "name": "LIFE CARE CENTER OF WESTMINSTER", "SF_14": 4.0, "SF_15": 4.0, "cnty": "Adams", "st": "CO", "Zip": 80030.0, "O_14": 4.0, "Q_15": 3.0, "O_15": 4.0, "city": "WESTMINSTER", "beds": 120.0, "SR_15": 3.0}, {"Diff_star": 0.0, "addr": "810 THIRD STREET", "SR_14": 3.0, "Q_14": 3.0, "name": "BENT COUNTY HEALTHCARE CENTER", "SF_14": 4.0, "SF_15": 4.0, "cnty": "Bent", "st": "CO", "Zip": 81054.0, "O_14": 4.0, "Q_15": 2.0, "O_15": 4.0, "city": "LAS ANIMAS", "beds": 56.0, "SR_15": 3.0}, {"Diff_star": 0.0, "addr": "221 2ND STREET", "SR_14": 3.0, "Q_14": 5.0, "name": "FOWLER HEALTH CARE", "SF_14": 5.0, "SF_15": 5.0, "cnty": "Otero", "st": "CO", "Zip": 81039.0, "O_14": 5.0, "Q_15": 5.0, "O_15": 5.0, "city": "FOWLER", "beds": 45.0, "SR_15": 3.0}, {"Diff_star": 0.0, "addr": "1297 SOUTH PERRY STREET", "SR_14": 5.0, "Q_14": 4.0, "name": "BROOKSIDE INN", "SF_14": 5.0, "SF_15": 5.0, "cnty": "Douglas", "st": "CO", "Zip": 80104.0, "O_14": 5.0, "Q_15": 3.0, "O_15": 5.0, "city": "CASTLE ROCK", "beds": 120.0, "SR_15": 5.0}, {"Diff_star": 0.0, "addr": "2500 SOUTH ROSLYN STREET", "SR_14": 4.0, "Q_14": 4.0, "name": "BROOKDALE ROSLYN", "SF_14": 5.0, "SF_15": 5.0, "cnty": "Arapahoe", "st": "CO", "Zip": 80231.0, "O_14": 5.0, "Q_15": 2.0, "O_15": 5.0, "city": "DENVER", "beds": 45.0, "SR_15": 4.0}, {"Diff_star": 0.0, "addr": "119 BASTILLE DRIVE", "SR_14": 3.0, "Q_14": 4.0, "name": "PINE RIDGE EXTENDED CARE CENTER", "SF_14": 4.0, "SF_15": 4.0, "cnty": "Archuleta", "st": "CO", "Zip": 81147.0, "O_14": 4.0, "Q_15": 2.0, "O_15": 4.0, "city": "PAGOSA SPRINGS", "beds": 60.0, "SR_15": 3.0}, {"Diff_star": 0.0, "addr": "9221 WADSWORTH PARKWAY", "SR_14": 2.0, "Q_14": 5.0, "name": "VILLAGE CARE AND REHABILITATION CENTER, THE", "SF_14": 3.0, "SF_15": 4.0, "cnty": "Jefferson", "st": "CO", "Zip": 80021.0, "O_14": 3.0, "Q_15": 4.0, "O_15": 3.0, "city": "WESTMINSTER", "beds": 60.0, "SR_15": 2.0}, {"Diff_star": 0.0, "addr": "4800 25TH STREET", "SR_14": 4.0, "Q_14": 5.0, "name": "LIFE CARE CENTER OF GREELEY", "SF_14": 4.0, "SF_15": 4.0, "cnty": "Weld", "st": "CO", "Zip": 80634.0, "O_14": 5.0, "Q_15": 5.0, "O_15": 5.0, "city": "GREELEY", "beds": 124.0, "SR_15": 4.0}, {"Diff_star": 0.0, "addr": "1500 WEST MINERAL AVENUE", "SR_14": 4.0, "Q_14": 5.0, "name": "LIFE CARE CENTER OF LITTLETON", "SF_14": 4.0, "SF_15": 4.0, "cnty": "Arapahoe", "st": "CO", "Zip": 80120.0, "O_14": 5.0, "Q_15": 5.0, "O_15": 5.0, "city": "LITTLETON", "beds": 120.0, "SR_15": 4.0}, {"Diff_star": 0.0, "addr": "1685 SOUTH 21ST STREET", "SR_14": 1.0, "Q_14": 4.0, "name": "BROOKDALE BEAR CREEK", "SF_14": 4.0, "SF_15": 4.0, "cnty": "El Paso", "st": "CO", "Zip": 80904.0, "O_14": 2.0, "Q_15": 2.0, "O_15": 2.0, "city": "COLORADO SPRINGS", "beds": 45.0, "SR_15": 1.0}, {"Diff_star": 0.0, "addr": "12791 W ALAMEDA PARKWAY", "SR_14": 4.0, "Q_14": 5.0, "name": "BROOKDALE GREEN MOUNTAIN", "SF_14": 4.0, "SF_15": 4.0, "cnty": "Jefferson", "st": "CO", "Zip": 80228.0, "O_14": 5.0, "Q_15": 5.0, "O_15": 5.0, "city": "LAKEWOOD", "beds": 45.0, "SR_15": 4.0}, {"Diff_star": 0.0, "addr": "6450 SOUTH BOSTON STREET", "SR_14": 3.0, "Q_14": 5.0, "name": "BROOKDALE GREENWOOD VILLAGE-LTC", "SF_14": 5.0, "SF_15": 5.0, "cnty": "Arapahoe", "st": "CO", "Zip": 80111.0, "O_14": 5.0, "Q_15": 5.0, "O_15": 5.0, "city": "GREENWOOD VILLAGE", "beds": 90.0, "SR_15": 3.0}, {"Diff_star": -1.0, "addr": "815 CENTRE AVENUE", "SR_14": 4.0, "Q_14": 5.0, "name": "CENTRE AVENUE HEALTH AND REHABILITATION FACILITY", "SF_14": 4.0, "SF_15": 4.0, "cnty": "Larimer", "st": "CO", "Zip": 80526.0, "O_14": 5.0, "Q_15": 4.0, "O_15": 4.0, "city": "FORT COLLINS", "beds": 90.0, "SR_15": 4.0}, {"Diff_star": 0.0, "addr": "2311 EAST BRIDGE STREET", "SR_14": 2.0, "Q_14": 4.0, "name": "COTTONWOOD CARE CENTER", "SF_14": 4.0, "SF_15": 4.0, "cnty": "Adams", "st": "CO", "Zip": 80601.0, "O_14": 3.0, "Q_15": 2.0, "O_15": 3.0, "city": "BRIGHTON", "beds": 117.0, "SR_15": 2.0}, {"Diff_star": 0.0, "addr": "12975 SHERIDAN BOULEVARD", "SR_14": 1.0, "Q_14": 3.0, "name": "BROOMFIELD SKILLED NURSING AND REHABILITATION CTR", "SF_14": 4.0, "SF_15": 4.0, "cnty": "Broomfield", "st": "CO", "Zip": 80020.0, "O_14": 2.0, "Q_15": 2.0, "O_15": 2.0, "city": "BROOMFIELD", "beds": 210.0, "SR_15": 1.0}, {"Diff_star": -1.0, "addr": "1919 QUENTIN STREET", "SR_14": 1.0, "Q_14": 2.0, "name": "COLORADO STATE VETERANS HOME AT FITZSIMONS", "SF_14": 4.0, "SF_15": 4.0, "cnty": "Adams", "st": "CO", "Zip": 80045.0, "O_14": 2.0, "Q_15": 1.0, "O_15": 1.0, "city": "AURORA", "beds": 180.0, "SR_15": 1.0}, {"Diff_star": 0.0, "addr": "701 EAST 5TH STREET", "SR_14": 5.0, "Q_14": 4.0, "name": "E DENE MOORE CARE CENTER", "SF_14": 5.0, "SF_15": 5.0, "cnty": "Garfield", "st": "CO", "Zip": 81650.0, "O_14": 5.0, "Q_15": 5.0, "O_15": 5.0, "city": "RIFLE", "beds": 57.0, "SR_15": 5.0}, {"Diff_star": 0.0, "addr": "2365 PATRIOT HEIGHTS", "SR_14": 4.0, "Q_14": 5.0, "name": "BROOKDALE SKYLINE", "SF_14": 5.0, "SF_15": 5.0, "cnty": "El Paso", "st": "CO", "Zip": 80904.0, "O_14": 5.0, "Q_15": 5.0, "O_15": 5.0, "city": "COLORADO SPRINGS", "beds": 57.0, "SR_15": 4.0}, {"Diff_star": 0.0, "addr": "8451 PEARL STREET", "SR_14": 2.0, "Q_14": 4.0, "name": "VISTA VIEW CARE CENTER", "SF_14": 5.0, "SF_15": 5.0, "cnty": "Adams", "st": "CO", "Zip": 80229.0, "O_14": 3.0, "Q_15": 3.0, "O_15": 3.0, "city": "THORNTON", "beds": 25.0, "SR_15": 2.0}, {"Diff_star": -2.0, "addr": "943 WEST 8TH DRIVE", "SR_14": 2.0, "Q_14": 4.0, "name": "SANDROCK RIDGE CARE AND REHAB", "SF_14": 4.0, "SF_15": 3.0, "cnty": "Moffat", "st": "CO", "Zip": 81625.0, "O_14": 3.0, "Q_15": 1.0, "O_15": 1.0, "city": "CRAIG", "beds": 58.0, "SR_15": 2.0}, {"Diff_star": 0.0, "addr": "851 EAST 5TH STREET", "SR_14": 2.0, "Q_14": 4.0, "name": "COLORADO STATE VETERANS NURSING HOME-RIFLE", "SF_14": 5.0, "SF_15": 5.0, "cnty": "Garfield", "st": "CO", "Zip": 81650.0, "O_14": 3.0, "Q_15": 3.0, "O_15": 3.0, "city": "RIFLE", "beds": 89.0, "SR_15": 2.0}, {"Diff_star": 0.0, "addr": "3345 FOREST STREET", "SR_14": 4.0, "Q_14": 5.0, "name": "FOREST STREET COMPASSIONATE CARE CENTER", "SF_14": 5.0, "SF_15": 5.0, "cnty": "Denver", "st": "CO", "Zip": 80207.0, "O_14": 5.0, "Q_15": 5.0, "O_15": 5.0, "city": "DENVER", "beds": 60.0, "SR_15": 4.0}, {"Diff_star": 0.0, "addr": "2670 SOUTH ABILENE STREET WEST", "SR_14": 3.0, "Q_14": 4.0, "name": "ST ANDREWS VILLAGE-LTC", "SF_14": 5.0, "SF_15": 5.0, "cnty": "Arapahoe", "st": "CO", "Zip": 80014.0, "O_14": 4.0, "Q_15": 3.0, "O_15": 4.0, "city": "AURORA", "beds": 58.0, "SR_15": 3.0}, {"Diff_star": 0.0, "addr": "3490 CENTENNIAL BOULEVARD", "SR_14": 3.0, "Q_14": 3.0, "name": "CENTER AT CENTENNIAL, THE", "SF_14": 5.0, "SF_15": 5.0, "cnty": "El Paso", "st": "CO", "Zip": 80907.0, "O_14": 4.0, "Q_15": 3.0, "O_15": 4.0, "city": "COLORADO SPRINGS", "beds": 80.0, "SR_15": 3.0}, {"Diff_star": 1.0, "addr": "3749 SHERMAN AVENUE", "SR_14": 3.0, "Q_14": 4.0, "name": "COLORADO STATE VETERANS CENTER-HOMELAKE", "SF_14": 4.0, "SF_15": 4.0, "cnty": "Rio Grande", "st": "CO", "Zip": 81144.0, "O_14": 4.0, "Q_15": 5.0, "O_15": 5.0, "city": "MONTE VISTA", "beds": 60.0, "SR_15": 3.0}, {"Diff_star": 0.0, "addr": "8101 E MISSISSIPPI AVENUE", "SR_14": 5.0, "Q_14": 4.0, "name": "BROOKDALE MOUNTAIN VIEW - LTC", "SF_14": 5.0, "SF_15": 5.0, "cnty": "Arapahoe", "st": "CO", "Zip": 80247.0, "O_14": 5.0, "Q_15": 3.0, "O_15": 5.0, "city": "DENVER", "beds": 56.0, "SR_15": 5.0}, {"Diff_star": 0.0, "addr": "1800 SOUTH POTOMAC STREET", "SR_14": 5.0, "Q_14": 3.0, "name": "ADVANCED HEALTH CARE OF AURORA", "SF_14": 5.0, "SF_15": 5.0, "cnty": "Arapahoe", "st": "CO", "Zip": 80012.0, "O_14": 5.0, "Q_15": 2.0, "O_15": 5.0, "city": "AURORA", "beds": 54.0, "SR_15": 5.0}, {"Diff_star": 0.0, "addr": "0903 MOORE DRIVE", "SR_14": 3.0, "Q_14": 5.0, "name": "BRUCE MCCANDLESS CO STATE VETERANS NURSING HOME", "SF_14": 5.0, "SF_15": 5.0, "cnty": "Fremont", "st": "CO", "Zip": 81226.0, "O_14": 5.0, "Q_15": 5.0, "O_15": 5.0, "city": "FLORENCE", "beds": 105.0, "SR_15": 3.0}, {"Diff_star": 0.0, "addr": "5590 E PEAKVIEW AVENUE", "SR_14": 4.0, "Q_14": 5.0, "name": "SUITES AT HOLLY CREEK CARE CENTER, THE", "SF_14": 5.0, "SF_15": 5.0, "cnty": "Arapahoe", "st": "CO", "Zip": 80121.0, "O_14": 5.0, "Q_15": 5.0, "O_15": 5.0, "city": "CENTENNIAL", "beds": 24.0, "SR_15": 4.0}, {"Diff_star": -1.0, "addr": "409 BENEDICTA AVENUE", "SR_14": 2.0, "Q_14": 4.0, "name": "TRINIDAD INN NURSING HOME", "SF_14": 3.0, "SF_15": 3.0, "cnty": "Las Animas", "st": "CO", "Zip": 81082.0, "O_14": 2.0, "Q_15": 3.0, "O_15": 1.0, "city": "TRINIDAD", "beds": 119.0, "SR_15": 1.0}, {"Diff_star": 0.0, "addr": "1919 68TH AVENUE", "SR_14": 4.0, "Q_14": 5.0, "name": "GRACE POINTE CONTINUING CARE SR CAMPUS SKILLED NUR", "SF_14": 4.0, "SF_15": 4.0, "cnty": "Weld", "st": "CO", "Zip": 80634.0, "O_14": 5.0, "Q_15": 5.0, "O_15": 5.0, "city": "GREELEY", "beds": 53.0, "SR_15": 4.0}, {"Diff_star": 1.0, "addr": "9085 RANCH RIVER CIRCLE", "SR_14": 4.0, "Q_14": 4.0, "name": "VI AT HIGHLANDS RANCH SKILLED NURSING", "SF_14": "", "SF_15": "", "cnty": "Douglas", "st": "CO", "Zip": 80126.0, "O_14": 4.0, "Q_15": 5.0, "O_15": 5.0, "city": "HIGHLANDS RANCH", "beds": 24.0, "SR_15": 4.0}, {"Diff_star": -1.0, "addr": "39 CALLE MILLER", "SR_14": 2.0, "Q_14": 3.0, "name": "RIO GRANDE INN", "SF_14": 4.0, "SF_15": 3.0, "cnty": "Conejos", "st": "CO", "Zip": 81140.0, "O_14": 3.0, "Q_15": 2.0, "O_15": 2.0, "city": "LA JARA", "beds": 60.0, "SR_15": 2.0}, {"Diff_star": 0.0, "addr": "7395 WEST EASTMAN PLACE", "SR_14": 3.0, "Q_14": 5.0, "name": "POWERBACK REHABILITATION LAKEWOOD", "SF_14": 3.0, "SF_15": 3.0, "cnty": "Denver", "st": "CO", "Zip": 80227.0, "O_14": 4.0, "Q_15": 5.0, "O_15": 4.0, "city": "LAKEWOOD", "beds": 108.0, "SR_15": 3.0}, {"Diff_star": 0.0, "addr": "15720 GARDEN PLAZA DRIVE", "SR_14": 4.0, "Q_14": 5.0, "name": "LIFE CARE CENTER OF STONEGATE", "SF_14": 5.0, "SF_15": 5.0, "cnty": "Douglas", "st": "CO", "Zip": 80134.0, "O_14": 5.0, "Q_15": 5.0, "O_15": 5.0, "city": "PARKER", "beds": 120.0, "SR_15": 4.0}, {"Diff_star": 0.0, "addr": "5945 SOUTH WRIGHT STREET", "SR_14": 5.0, "Q_14": 4.0, "name": "CAREMERIDIAN LLC", "SF_14": "", "SF_15": "", "cnty": "Arapahoe", "st": "CO", "Zip": 80127.0, "O_14": 5.0, "Q_15": 3.0, "O_15": 5.0, "city": "LITTLETON", "beds": 36.0, "SR_15": 5.0}, {"Diff_star": 0.0, "addr": "12230 LIONESS WAY", "SR_14": 5.0, "Q_14": 4.0, "name": "CENTER AT LINCOLN LLC", "SF_14": 4.0, "SF_15": 4.0, "cnty": "Douglas", "st": "CO", "Zip": 80134.0, "O_14": 5.0, "Q_15": 2.0, "O_15": 5.0, "city": "PARKER", "beds": 96.0, "SR_15": 5.0}, {"Diff_star": 0.0, "addr": "1601 NORTH LOWELL BOULEVARD", "SR_14": 5.0, "Q_14": 4.0, "name": "SLOAN'S LAKE REHABILITATION CENTER", "SF_14": 5.0, "SF_15": 5.0, "cnty": "Denver", "st": "CO", "Zip": 80204.0, "O_14": 5.0, "Q_15": 3.0, "O_15": 5.0, "city": "DENVER", "beds": 42.0, "SR_15": 5.0}, {"Diff_star": 0.0, "addr": "9398 CROWN CREST BOULEVARD", "SR_14": 1.0, "Q_14": 2.0, "name": "CROWN CREST OF PARKER", "SF_14": 3.0, "SF_15": 3.0, "cnty": "Douglas", "st": "CO", "Zip": 80138.0, "O_14": 1.0, "Q_15": 1.0, "O_15": 1.0, "city": "PARKER", "beds": 154.0, "SR_15": 1.0}, {"Diff_star": 0.0, "addr": "6447 QUAIL STREET", "SR_14": 4.0, "Q_14": 3.0, "name": "GARDENS ON QUAIL", "SF_14": 4.0, "SF_15": 4.0, "cnty": "Jefferson", "st": "CO", "Zip": 80004.0, "O_14": 4.0, "Q_15": 3.0, "O_15": 4.0, "city": "ARVADA", "beds": 60.0, "SR_15": 4.0}, {"Diff_star": 0.0, "addr": "55 SOUTH PARKSIDE DRIVE", "SR_14": 5.0, "Q_14": 4.0, "name": "ADVANCED HEALTH CARE OF COLORADO SPRINGS", "SF_14": 5.0, "SF_15": 5.0, "cnty": "El Paso", "st": "CO", "Zip": 80910.0, "O_14": 5.0, "Q_15": 5.0, "O_15": 5.0, "city": "COLORADO SPRINGS", "beds": 34.0, "SR_15": 5.0}, {"Diff_star": 0.0, "addr": "1625 SIMMS STREET", "SR_14": 2.0, "Q_14": 4.0, "name": "LAKEWOOD VILLA", "SF_14": 4.0, "SF_15": 4.0, "cnty": "Jefferson", "st": "CO", "Zip": 80215.0, "O_14": 3.0, "Q_15": 2.0, "O_15": 3.0, "city": "LAKEWOOD", "beds": 57.0, "SR_15": 2.0}, {"Diff_star": -1.0, "addr": "3420 MILL VISTA RD", "SR_14": 4.0, "Q_14": 4.0, "name": "CONTINUING CARE AT WIND CREST", "SF_14": 5.0, "SF_15": 5.0, "cnty": "Adams", "st": "CO", "Zip": 80129.0, "O_14": 5.0, "Q_15": 1.0, "O_15": 4.0, "city": "HIGHLANDS RANCH", "beds": 44.0, "SR_15": 4.0}, {"Diff_star": 0.0, "addr": "1475 MAIN ST", "SR_14": "", "Q_14": "", "name": "COLUMBINE COMMONS HEALTH AND REHAB LLC", "SF_14": "", "SF_15": "", "cnty": "Weld", "st": "CO", "Zip": 80550.0, "O_14": "", "Q_15": "", "O_15": "", "city": "WINDSOR", "beds": 30.0, "SR_15": ""}, {"Diff_star": 0.0, "addr": "450 PROSPECTOR AVE", "SR_14": "", "Q_14": "", "name": "COTTONWOOD INN REHAB AND EXTENDED CARE CENTER", "SF_14": "", "SF_15": "", "cnty": "La Plata", "st": "CO", "Zip": 81301.0, "O_14": "", "Q_15": "", "O_15": "", "city": "DURANGO", "beds": 40.0, "SR_15": ""}, {"Diff_star": -1.0, "addr": "228 NORTH CHERRY STREET", "SR_14": 1.0, "Q_14": 3.0, "name": "COURTYARD CARE CENTER", "SF_14": 4.0, "SF_15": 4.0, "cnty": "Mesa", "st": "CO", "Zip": 81521.0, "O_14": 2.0, "Q_15": 1.0, "O_15": 1.0, "city": "FRUITA", "beds": 120.0, "SR_15": 1.0}, {"Diff_star": 0.0, "addr": "3629 WEST 29TH AVENUE", "SR_14": 4.0, "Q_14": 2.0, "name": "LITTLE SISTERS OF THE POOR MULLEN HOME", "SF_14": 5.0, "SF_15": 5.0, "cnty": "Denver", "st": "CO", "Zip": 80211.0, "O_14": 5.0, "Q_15": 2.0, "O_15": 5.0, "city": "DENVER", "beds": 44.0, "SR_15": 4.0}, {"Diff_star": 0.0, "addr": "320 PUEBLO AVENUE", "SR_14": 4.0, "Q_14": 4.0, "name": "GOOD SAMARITAN SOCIETY SIMLA", "SF_14": 4.0, "SF_15": 4.0, "cnty": "Elbert", "st": "CO", "Zip": 80835.0, "O_14": 4.0, "Q_15": 3.0, "O_15": 4.0, "city": "SIMLA", "beds": 30.0, "SR_15": 4.0}, {"Diff_star": 0.0, "addr": "7045 STUART STREET", "SR_14": 3.0, "Q_14": 5.0, "name": "PARK FOREST CARE CENTER, INC.", "SF_14": 4.0, "SF_15": 4.0, "cnty": "Adams", "st": "CO", "Zip": 80030.0, "O_14": 5.0, "Q_15": 5.0, "O_15": 5.0, "city": "WESTMINSTER", "beds": 103.0, "SR_15": 3.0}, {"Diff_star": -1.0, "addr": "901 CEDAR STREET", "SR_14": 3.0, "Q_14": 4.0, "name": "SEDGWICK COUNTY MEMORIAL NURSING HOME", "SF_14": 4.0, "SF_15": 3.0, "cnty": "Sedgwick", "st": "CO", "Zip": 80737.0, "O_14": 4.0, "Q_15": 4.0, "O_15": 3.0, "city": "JULESBURG", "beds": 32.0, "SR_15": 3.0}, {"Diff_star": -1.0, "addr": "150 NORTH NEVADA", "SR_14": 3.0, "Q_14": 5.0, "name": "WALSH HEALTHCARE CENTER", "SF_14": 4.0, "SF_15": 3.0, "cnty": "Baca", "st": "CO", "Zip": 81090.0, "O_14": 5.0, "Q_15": 5.0, "O_15": 4.0, "city": "WALSH", "beds": 30.0, "SR_15": 3.0}, {"Diff_star": 0.0, "addr": "373 E 10TH AVENUE", "SR_14": 2.0, "Q_14": 3.0, "name": "SOUTHEAST COLORADO HOSPITAL LTC CENTER", "SF_14": 5.0, "SF_15": 5.0, "cnty": "Baca", "st": "CO", "Zip": 81073.0, "O_14": 3.0, "Q_15": 2.0, "O_15": 3.0, "city": "SPRINGFIELD", "beds": 56.0, "SR_15": 2.0}, {"Diff_star": 0.0, "addr": "23500 U S HIGHWAY 160", "SR_14": 3.0, "Q_14": 4.0, "name": "SPANISH PEAKS VETERANS COMMUNITY LIVING CENTER", "SF_14": 5.0, "SF_15": 5.0, "cnty": "Huerfano", "st": "CO", "Zip": 81089.0, "O_14": 4.0, "Q_15": 4.0, "O_15": 4.0, "city": "WALSENBURG", "beds": 120.0, "SR_15": 3.0}, {"Diff_star": 0.0, "addr": "561 WEST 1ST NORTH", "SR_14": 5.0, "Q_14": 4.0, "name": "CHEYENNE MANOR", "SF_14": 5.0, "SF_15": 5.0, "cnty": "Cheyenne", "st": "CO", "Zip": 80810.0, "O_14": 5.0, "Q_15": 4.0, "O_15": 5.0, "city": "CHEYENNE WELLS", "beds": 38.0, "SR_15": 5.0}, {"Diff_star": 0.0, "addr": "2 PENROSE BOULEVARD", "SR_14": 4.0, "Q_14": 5.0, "name": "CENTURA HEALTH-NAMASTE ALZHEIMER CENTER", "SF_14": 5.0, "SF_15": 5.0, "cnty": "El Paso", "st": "CO", "Zip": 80906.0, "O_14": 5.0, "Q_15": 5.0, "O_15": 5.0, "city": "COLORADO SPRINGS", "beds": 64.0, "SR_15": 4.0}, {"Diff_star": 0.0, "addr": "2719 NORTH UNION BLVD", "SR_14": 4.0, "Q_14": 5.0, "name": "PIKES PEAK CENTER", "SF_14": 5.0, "SF_15": 5.0, "cnty": "El Paso", "st": "CO", "Zip": 80909.0, "O_14": 5.0, "Q_15": 4.0, "O_15": 5.0, "city": "COLORADO SPRINGS", "beds": 113.0, "SR_15": 4.0}]