[{"Diff_star": -1.0, "addr": "6448 MAIN STREET", "SR_14": 1.0, "Q_14": 5.0, "name": "ST JOSEPH'S CENTER", "SF_14": 4.0, "SF_15": 3.0, "cnty": "Fairfield", "st": "CT", "Zip": 6611.0, "O_14": 2.0, "Q_15": 3.0, "O_15": 1.0, "city": "TRUMBULL", "beds": 274.0, "SR_15": 1.0}, {"Diff_star": 0.0, "addr": "581 POQUONOCK AVE", "SR_14": 1.0, "Q_14": 5.0, "name": "KINDRED TRANSITIONAL CARE & REHAB-WINDSOR", "SF_14": 4.0, "SF_15": 4.0, "cnty": "Hartford", "st": "CT", "Zip": 6095.0, "O_14": 2.0, "Q_15": 5.0, "O_15": 2.0, "city": "WINDSOR", "beds": 108.0, "SR_15": 1.0}, {"Diff_star": -1.0, "addr": "565 VERNON ST", "SR_14": 4.0, "Q_14": 5.0, "name": "CRESTFIELD REHABILITATION CENTER & FENWOOD MANOR", "SF_14": 3.0, "SF_15": 3.0, "cnty": "Hartford", "st": "CT", "Zip": 6040.0, "O_14": 5.0, "Q_15": 3.0, "O_15": 4.0, "city": "MANCHESTER", "beds": 155.0, "SR_15": 4.0}, {"Diff_star": 0.0, "addr": "163 QUINNIPIAC AVE", "SR_14": 2.0, "Q_14": 3.0, "name": "MONTOWESE HEALTH & REHAB CTR,", "SF_14": 3.0, "SF_15": 3.0, "cnty": "New Haven", "st": "CT", "Zip": 6473.0, "O_14": 2.0, "Q_15": 3.0, "O_15": 2.0, "city": "NORTH HAVEN", "beds": 120.0, "SR_15": 2.0}, {"Diff_star": 0.0, "addr": "132 MAIN ST", "SR_14": 1.0, "Q_14": 5.0, "name": "CHESTERFIELDS HEALTH CARE CENTER", "SF_14": 4.0, "SF_15": 3.0, "cnty": "Middlesex", "st": "CT", "Zip": 6412.0, "O_14": 2.0, "Q_15": 5.0, "O_15": 2.0, "city": "CHESTER", "beds": 60.0, "SR_15": 1.0}, {"Diff_star": 0.0, "addr": "1 GLEN HILL RD", "SR_14": 5.0, "Q_14": 4.0, "name": "GLEN HILL REHABILITATION & NURSING CENTER", "SF_14": 4.0, "SF_15": 4.0, "cnty": "Fairfield", "st": "CT", "Zip": 6810.0, "O_14": 5.0, "Q_15": 3.0, "O_15": 5.0, "city": "DANBURY", "beds": 100.0, "SR_15": 5.0}, {"Diff_star": 0.0, "addr": "400 MILL PLAIN RD", "SR_14": 3.0, "Q_14": 5.0, "name": "CAROLTON CHRONIC & CONV HOSP,", "SF_14": 4.0, "SF_15": 4.0, "cnty": "Fairfield", "st": "CT", "Zip": 6430.0, "O_14": 5.0, "Q_15": 5.0, "O_15": 5.0, "city": "FAIRFIELD", "beds": 229.0, "SR_15": 3.0}, {"Diff_star": -2.0, "addr": "269 FARMINGTON AVE", "SR_14": 2.0, "Q_14": 4.0, "name": "APPLE REHAB FARMINGTON VALLEY", "SF_14": 4.0, "SF_15": 3.0, "cnty": "Hartford", "st": "CT", "Zip": 6062.0, "O_14": 3.0, "Q_15": 1.0, "O_15": 1.0, "city": "PLAINVILLE", "beds": 173.0, "SR_15": 2.0}, {"Diff_star": -1.0, "addr": "45 MALTBY STREET", "SR_14": 3.0, "Q_14": 3.0, "name": "HEWITT HEALTH & REHABILITATION CENTER, INC", "SF_14": 4.0, "SF_15": 3.0, "cnty": "Fairfield", "st": "CT", "Zip": 6484.0, "O_14": 4.0, "Q_15": 2.0, "O_15": 3.0, "city": "SHELTON", "beds": 206.0, "SR_15": 3.0}, {"Diff_star": 0.0, "addr": "612 HAZARD AVE", "SR_14": 4.0, "Q_14": 5.0, "name": "BLAIR MANOR", "SF_14": 3.0, "SF_15": 3.0, "cnty": "Hartford", "st": "CT", "Zip": 6082.0, "O_14": 5.0, "Q_15": 5.0, "O_15": 5.0, "city": "ENFIELD", "beds": 98.0, "SR_15": 4.0}, {"Diff_star": 0.0, "addr": "35 MARC DR", "SR_14": 2.0, "Q_14": 4.0, "name": "SKYVIEW CENTER", "SF_14": 2.0, "SF_15": 2.0, "cnty": "New Haven", "st": "CT", "Zip": 6492.0, "O_14": 2.0, "Q_15": 4.0, "O_15": 2.0, "city": "WALLINGFORD", "beds": 97.0, "SR_15": 2.0}, {"Diff_star": 0.0, "addr": "210 CHATFIELD ST", "SR_14": 2.0, "Q_14": 5.0, "name": "BIRMINGHAM HEALTH CENTER", "SF_14": 3.0, "SF_15": 3.0, "cnty": "New Haven", "st": "CT", "Zip": 6418.0, "O_14": 3.0, "Q_15": 5.0, "O_15": 3.0, "city": "DERBY", "beds": 120.0, "SR_15": 2.0}, {"Diff_star": 0.0, "addr": "72 SALMON BROOK DR", "SR_14": 2.0, "Q_14": 4.0, "name": "SALMON BROOK CENTER", "SF_14": 4.0, "SF_15": 4.0, "cnty": "Hartford", "st": "CT", "Zip": 6033.0, "O_14": 3.0, "Q_15": 4.0, "O_15": 3.0, "city": "GLASTONBURY", "beds": 130.0, "SR_15": 2.0}, {"Diff_star": -1.0, "addr": "53 COURTLAND AVE", "SR_14": 3.0, "Q_14": 5.0, "name": "REGENCY HEIGHTS OF STAMFORD, LLC", "SF_14": 4.0, "SF_15": 3.0, "cnty": "Fairfield", "st": "CT", "Zip": 6902.0, "O_14": 5.0, "Q_15": 5.0, "O_15": 4.0, "city": "STAMFORD", "beds": 156.0, "SR_15": 3.0}, {"Diff_star": -1.0, "addr": "705 NEW BRITAIN AVE", "SR_14": 4.0, "Q_14": 5.0, "name": "AVERY NURSING HOME", "SF_14": 4.0, "SF_15": 4.0, "cnty": "Hartford", "st": "CT", "Zip": 6106.0, "O_14": 5.0, "Q_15": 4.0, "O_15": 4.0, "city": "HARTFORD", "beds": 199.0, "SR_15": 4.0}, {"Diff_star": 0.0, "addr": "195 PLATT ST", "SR_14": 4.0, "Q_14": 5.0, "name": "MILFORD HEALTH CARE CENTER INC", "SF_14": 4.0, "SF_15": 3.0, "cnty": "New Haven", "st": "CT", "Zip": 6460.0, "O_14": 5.0, "Q_15": 5.0, "O_15": 5.0, "city": "MILFORD", "beds": 120.0, "SR_15": 4.0}, {"Diff_star": 0.0, "addr": "1188 KING STREET", "SR_14": 1.0, "Q_14": 5.0, "name": "FAIRVIEW HEALTHCARE CENTER OF GREENWICH", "SF_14": 4.0, "SF_15": 4.0, "cnty": "Fairfield", "st": "CT", "Zip": 6831.0, "O_14": 2.0, "Q_15": 5.0, "O_15": 2.0, "city": "GREENWICH", "beds": 75.0, "SR_15": 1.0}, {"Diff_star": 0.0, "addr": "1775 BOSTON POST RD", "SR_14": 2.0, "Q_14": 5.0, "name": "APPLE REHAB SAYBROOK", "SF_14": 3.0, "SF_15": 3.0, "cnty": "Middlesex", "st": "CT", "Zip": 6475.0, "O_14": 3.0, "Q_15": 5.0, "O_15": 3.0, "city": "OLD SAYBROOK", "beds": 120.0, "SR_15": 2.0}, {"Diff_star": 0.0, "addr": "13 HAKIM ST", "SR_14": 5.0, "Q_14": 5.0, "name": "FILOSA, FOR NURSING & REHABILITATION", "SF_14": 5.0, "SF_15": 5.0, "cnty": "Fairfield", "st": "CT", "Zip": 6810.0, "O_14": 5.0, "Q_15": 4.0, "O_15": 5.0, "city": "DANBURY", "beds": 64.0, "SR_15": 5.0}, {"Diff_star": 0.0, "addr": "150 WARE RD", "SR_14": 4.0, "Q_14": 5.0, "name": "WESTVIEW NURSING CARE & REHAB", "SF_14": 5.0, "SF_15": 5.0, "cnty": "Windham", "st": "CT", "Zip": 6241.0, "O_14": 5.0, "Q_15": 5.0, "O_15": 5.0, "city": "DAYVILLE", "beds": 103.0, "SR_15": 4.0}, {"Diff_star": -1.0, "addr": "93 WEST TOWN STREET", "SR_14": 4.0, "Q_14": 5.0, "name": "NORWICHTOWN REHABILITATION & C", "SF_14": 4.0, "SF_15": 4.0, "cnty": "New London", "st": "CT", "Zip": 6360.0, "O_14": 5.0, "Q_15": 4.0, "O_15": 4.0, "city": "NORWICH", "beds": 120.0, "SR_15": 4.0}, {"Diff_star": 0.0, "addr": "29 HIGHLAND ST", "SR_14": 5.0, "Q_14": 5.0, "name": "HUGHES HEALTH AND REHABILITATION", "SF_14": 5.0, "SF_15": 5.0, "cnty": "Hartford", "st": "CT", "Zip": 6119.0, "O_14": 5.0, "Q_15": 5.0, "O_15": 5.0, "city": "WEST HARTFORD", "beds": 170.0, "SR_15": 5.0}, {"Diff_star": 0.0, "addr": "20 BABCOCK AVE", "SR_14": 5.0, "Q_14": 5.0, "name": "VILLA MARIA NURSING & REHAB COMMUNITY, INC", "SF_14": 4.0, "SF_15": 4.0, "cnty": "Windham", "st": "CT", "Zip": 6374.0, "O_14": 5.0, "Q_15": 3.0, "O_15": 5.0, "city": "PLAINFIELD", "beds": 62.0, "SR_15": 5.0}, {"Diff_star": 0.0, "addr": "2021 ALBANY AVE", "SR_14": 2.0, "Q_14": 5.0, "name": "ST MARY HOME", "SF_14": 4.0, "SF_15": 4.0, "cnty": "Hartford", "st": "CT", "Zip": 6117.0, "O_14": 4.0, "Q_15": 5.0, "O_15": 4.0, "city": "WEST HARTFORD", "beds": 256.0, "SR_15": 2.0}, {"Diff_star": -1.0, "addr": "600 HIGHLAND AVE", "SR_14": 3.0, "Q_14": 4.0, "name": "APPLE REHAB MIDDLETOWN", "SF_14": 4.0, "SF_15": 3.0, "cnty": "Middlesex", "st": "CT", "Zip": 6457.0, "O_14": 4.0, "Q_15": 2.0, "O_15": 3.0, "city": "MIDDLETOWN", "beds": 95.0, "SR_15": 3.0}, {"Diff_star": 0.0, "addr": "145 GROVE ST", "SR_14": 4.0, "Q_14": 5.0, "name": "GROVE MANOR NURSING HOME, INC", "SF_14": 5.0, "SF_15": 5.0, "cnty": "New Haven", "st": "CT", "Zip": 6710.0, "O_14": 5.0, "Q_15": 4.0, "O_15": 5.0, "city": "WATERBURY", "beds": 60.0, "SR_15": 4.0}, {"Diff_star": 0.0, "addr": "1132 MERIDEN RD", "SR_14": 2.0, "Q_14": 4.0, "name": "MERIDIAN MANOR", "SF_14": 4.0, "SF_15": 4.0, "cnty": "New Haven", "st": "CT", "Zip": 6705.0, "O_14": 3.0, "Q_15": 2.0, "O_15": 3.0, "city": "WATERBURY", "beds": 94.0, "SR_15": 2.0}, {"Diff_star": -2.0, "addr": "725 PARK AVE", "SR_14": 3.0, "Q_14": 5.0, "name": "ASTORIA PARK", "SF_14": 4.0, "SF_15": 3.0, "cnty": "Fairfield", "st": "CT", "Zip": 6604.0, "O_14": 5.0, "Q_15": 3.0, "O_15": 3.0, "city": "BRIDGEPORT", "beds": 135.0, "SR_15": 3.0}, {"Diff_star": 0.0, "addr": "80 FERN DR", "SR_14": 2.0, "Q_14": 4.0, "name": "PARADIGM HEALTHCARE CENTER OF TORRINGTON, LLC", "SF_14": 1.0, "SF_15": 1.0, "cnty": "Litchfield", "st": "CT", "Zip": 6790.0, "O_14": 1.0, "Q_15": 3.0, "O_15": 1.0, "city": "TORRINGTON", "beds": 86.0, "SR_15": 2.0}, {"Diff_star": -2.0, "addr": "100 RANDOLPH RD", "SR_14": 3.0, "Q_14": 5.0, "name": "MIDDLESEX HEALTH CARE CENTER", "SF_14": 4.0, "SF_15": 3.0, "cnty": "Middlesex", "st": "CT", "Zip": 6457.0, "O_14": 5.0, "Q_15": 4.0, "O_15": 3.0, "city": "MIDDLETOWN", "beds": 150.0, "SR_15": 3.0}, {"Diff_star": -1.0, "addr": "1 ABRAHMS BLVD", "SR_14": 2.0, "Q_14": 5.0, "name": "HEBREW HOME AND HOSPITAL INC", "SF_14": 4.0, "SF_15": 4.0, "cnty": "Hartford", "st": "CT", "Zip": 6117.0, "O_14": 4.0, "Q_15": 4.0, "O_15": 3.0, "city": "WEST HARTFORD", "beds": 277.0, "SR_15": 2.0}, {"Diff_star": 0.0, "addr": "215 FOREST ST", "SR_14": 2.0, "Q_14": 5.0, "name": "WOLCOTT HALL NURSING CTR", "SF_14": 4.0, "SF_15": 4.0, "cnty": "Litchfield", "st": "CT", "Zip": 6790.0, "O_14": 4.0, "Q_15": 5.0, "O_15": 4.0, "city": "TORRINGTON", "beds": 87.0, "SR_15": 2.0}, {"Diff_star": 0.0, "addr": "4 GREENTREE DR", "SR_14": 1.0, "Q_14": 5.0, "name": "GREENTREE MANOR NURSING & REHA", "SF_14": 5.0, "SF_15": 5.0, "cnty": "New London", "st": "CT", "Zip": 6385.0, "O_14": 2.0, "Q_15": 5.0, "O_15": 2.0, "city": "WATERFORD", "beds": 90.0, "SR_15": 1.0}, {"Diff_star": 0.0, "addr": "70 PARSONAGE RD", "SR_14": 4.0, "Q_14": 5.0, "name": "WITHERELL, NATHANIEL", "SF_14": 5.0, "SF_15": 5.0, "cnty": "Fairfield", "st": "CT", "Zip": 6830.0, "O_14": 5.0, "Q_15": 5.0, "O_15": 5.0, "city": "GREENWICH", "beds": 202.0, "SR_15": 4.0}, {"Diff_star": 0.0, "addr": "22 MASONIC AVE PO BOX 70", "SR_14": 3.0, "Q_14": 4.0, "name": "MASONICARE HEALTH CENTER", "SF_14": 5.0, "SF_15": 5.0, "cnty": "New Haven", "st": "CT", "Zip": 6492.0, "O_14": 4.0, "Q_15": 4.0, "O_15": 4.0, "city": "WALLINGFORD", "beds": 375.0, "SR_15": 3.0}, {"Diff_star": -1.0, "addr": "355 PARK AVENUE", "SR_14": 2.0, "Q_14": 5.0, "name": "BLOOMFIELD HEALTH CARE CENTER", "SF_14": 4.0, "SF_15": 3.0, "cnty": "Hartford", "st": "CT", "Zip": 6002.0, "O_14": 4.0, "Q_15": 5.0, "O_15": 3.0, "city": "BLOOMFIELD", "beds": 120.0, "SR_15": 2.0}, {"Diff_star": -1.0, "addr": "10 BOSTON POST RD", "SR_14": 3.0, "Q_14": 5.0, "name": "APPLE REHAB GUILFORD", "SF_14": 4.0, "SF_15": 4.0, "cnty": "New Haven", "st": "CT", "Zip": 6437.0, "O_14": 5.0, "Q_15": 4.0, "O_15": 4.0, "city": "GUILFORD", "beds": 90.0, "SR_15": 3.0}, {"Diff_star": 0.0, "addr": "778 MIDDLEBURY RD", "SR_14": 4.0, "Q_14": 4.0, "name": "MIDDLEBURY CONVALESCENT HOME", "SF_14": 4.0, "SF_15": 4.0, "cnty": "New Haven", "st": "CT", "Zip": 6762.0, "O_14": 4.0, "Q_15": 2.0, "O_15": 4.0, "city": "MIDDLEBURY", "beds": 58.0, "SR_15": 4.0}, {"Diff_star": -1.0, "addr": "88 ROCKRIMMON RD", "SR_14": 2.0, "Q_14": 5.0, "name": "SMITH HOUSE SNF", "SF_14": 5.0, "SF_15": 5.0, "cnty": "Fairfield", "st": "CT", "Zip": 6903.0, "O_14": 4.0, "Q_15": 4.0, "O_15": 3.0, "city": "STAMFORD", "beds": 128.0, "SR_15": 2.0}, {"Diff_star": -1.0, "addr": "88 CLARK LANE", "SR_14": 2.0, "Q_14": 4.0, "name": "NEW LONDON REHAB & CARE OF WATERFORD", "SF_14": 5.0, "SF_15": 5.0, "cnty": "New London", "st": "CT", "Zip": 6385.0, "O_14": 3.0, "Q_15": 1.0, "O_15": 2.0, "city": "WATERFORD", "beds": 120.0, "SR_15": 2.0}, {"Diff_star": -1.0, "addr": "23 PROSPECT AVENUE", "SR_14": 1.0, "Q_14": 4.0, "name": "CASSENA CARE AT NORWALK", "SF_14": 4.0, "SF_15": 3.0, "cnty": "Fairfield", "st": "CT", "Zip": 6850.0, "O_14": 2.0, "Q_15": 2.0, "O_15": 1.0, "city": "NORWALK", "beds": 150.0, "SR_15": 1.0}, {"Diff_star": 0.0, "addr": "584 LONG HILL AVE", "SR_14": 4.0, "Q_14": 5.0, "name": "BISHOP WICKE HEALTH & REHAB CT", "SF_14": 5.0, "SF_15": 5.0, "cnty": "Fairfield", "st": "CT", "Zip": 6484.0, "O_14": 5.0, "Q_15": 5.0, "O_15": 5.0, "city": "SHELTON", "beds": 120.0, "SR_15": 4.0}, {"Diff_star": 0.0, "addr": "35 BUNKER HILL RD", "SR_14": 4.0, "Q_14": 4.0, "name": "APPLE REHAB WATERTOWN", "SF_14": 3.0, "SF_15": 3.0, "cnty": "Litchfield", "st": "CT", "Zip": 6795.0, "O_14": 4.0, "Q_15": 3.0, "O_15": 4.0, "city": "WATERTOWN", "beds": 110.0, "SR_15": 4.0}, {"Diff_star": 0.0, "addr": "55 GRAND ST", "SR_14": 1.0, "Q_14": 5.0, "name": "WALNUT HILL CARE CENTER", "SF_14": 1.0, "SF_15": 1.0, "cnty": "Hartford", "st": "CT", "Zip": 6052.0, "O_14": 2.0, "Q_15": 5.0, "O_15": 2.0, "city": "NEW BRITAIN", "beds": 180.0, "SR_15": 1.0}, {"Diff_star": 0.0, "addr": "1253 HARTFORD TNPK", "SR_14": 1.0, "Q_14": 4.0, "name": "FOX HILL CENTER", "SF_14": 4.0, "SF_15": 4.0, "cnty": "Tolland", "st": "CT", "Zip": 6066.0, "O_14": 2.0, "Q_15": 3.0, "O_15": 2.0, "city": "ROCKVILLE", "beds": 150.0, "SR_15": 1.0}, {"Diff_star": 0.0, "addr": "66 CLINIC DR", "SR_14": 2.0, "Q_14": 5.0, "name": "ANDREW HOUSE", "SF_14": 3.0, "SF_15": 3.0, "cnty": "Hartford", "st": "CT", "Zip": 6051.0, "O_14": 3.0, "Q_15": 5.0, "O_15": 3.0, "city": "NEW BRITAIN", "beds": 90.0, "SR_15": 2.0}, {"Diff_star": -1.0, "addr": "845 PADDOCK AVE", "SR_14": 3.0, "Q_14": 4.0, "name": "MERIDEN CENTER", "SF_14": 4.0, "SF_15": 4.0, "cnty": "New Haven", "st": "CT", "Zip": 6450.0, "O_14": 4.0, "Q_15": 1.0, "O_15": 3.0, "city": "MERIDEN", "beds": 130.0, "SR_15": 3.0}, {"Diff_star": 0.0, "addr": "1157 ENFIELD ST", "SR_14": 4.0, "Q_14": 4.0, "name": "PARKWAY PAVILION HEALTH AND REHABILITATION CENTER", "SF_14": 3.0, "SF_15": 3.0, "cnty": "Hartford", "st": "CT", "Zip": 6082.0, "O_14": 4.0, "Q_15": 2.0, "O_15": 4.0, "city": "ENFIELD", "beds": 130.0, "SR_15": 4.0}, {"Diff_star": 0.0, "addr": "78 VIETS ST EXTENSION", "SR_14": 3.0, "Q_14": 4.0, "name": "CROSSINGS EAST HEALTH AND REHABILITATION CENTER", "SF_14": 3.0, "SF_15": 3.0, "cnty": "New London", "st": "CT", "Zip": 6320.0, "O_14": 3.0, "Q_15": 2.0, "O_15": 3.0, "city": "NEW LONDON", "beds": 128.0, "SR_15": 3.0}, {"Diff_star": -1.0, "addr": "23 FAIR STREET", "SR_14": 3.0, "Q_14": 3.0, "name": "VILLAGE GREEN OF BRISTOL REHAB & HEALTH CENTER", "SF_14": 4.0, "SF_15": 3.0, "cnty": "Hartford", "st": "CT", "Zip": 6010.0, "O_14": 4.0, "Q_15": 2.0, "O_15": 3.0, "city": "FORESTVILLE", "beds": 120.0, "SR_15": 3.0}, {"Diff_star": -1.0, "addr": "930 MILL HILL TERR", "SR_14": 3.0, "Q_14": 5.0, "name": "FAIRVIEW HEALTHCARE CENTER OF FAIRFIELD", "SF_14": 4.0, "SF_15": 4.0, "cnty": "Fairfield", "st": "CT", "Zip": 6890.0, "O_14": 5.0, "Q_15": 4.0, "O_15": 4.0, "city": "SOUTHPORT", "beds": 120.0, "SR_15": 3.0}, {"Diff_star": 0.0, "addr": "310 TERRACE AVE", "SR_14": 3.0, "Q_14": 4.0, "name": "PARADIGM HEALTHCARE CENTER OF WEST HAVEN, LLC", "SF_14": 2.0, "SF_15": 2.0, "cnty": "New Haven", "st": "CT", "Zip": 6516.0, "O_14": 3.0, "Q_15": 4.0, "O_15": 3.0, "city": "WEST HAVEN", "beds": 98.0, "SR_15": 3.0}, {"Diff_star": 0.0, "addr": "99 SOUTH CANAAN RD", "SR_14": 3.0, "Q_14": 4.0, "name": "GEER NURSING AND REHABILITATIO", "SF_14": 4.0, "SF_15": 4.0, "cnty": "Litchfield", "st": "CT", "Zip": 6018.0, "O_14": 4.0, "Q_15": 4.0, "O_15": 4.0, "city": "CANAAN", "beds": 120.0, "SR_15": 3.0}, {"Diff_star": 0.0, "addr": "225 WYOMING AVE", "SR_14": 4.0, "Q_14": 4.0, "name": "TORRINGTON HEALTH & REHABILITATION CENTER", "SF_14": 3.0, "SF_15": 3.0, "cnty": "Litchfield", "st": "CT", "Zip": 6790.0, "O_14": 4.0, "Q_15": 3.0, "O_15": 4.0, "city": "TORRINGTON", "beds": 126.0, "SR_15": 4.0}, {"Diff_star": 0.0, "addr": "65 WESTFIELD RD", "SR_14": 3.0, "Q_14": 4.0, "name": "WESTFIELD CARE & REHAB CENTER", "SF_14": 3.0, "SF_15": 3.0, "cnty": "New Haven", "st": "CT", "Zip": 6450.0, "O_14": 3.0, "Q_15": 2.0, "O_15": 3.0, "city": "MERIDEN", "beds": 120.0, "SR_15": 3.0}, {"Diff_star": 0.0, "addr": "51 APPLEGATE LANE", "SR_14": 1.0, "Q_14": 4.0, "name": "GREENSPRINGS HEALTHCARE AND REHABILITATION", "SF_14": 5.0, "SF_15": 5.0, "cnty": "Hartford", "st": "CT", "Zip": 6118.0, "O_14": 2.0, "Q_15": 3.0, "O_15": 2.0, "city": "EAST HARTFORD", "beds": 150.0, "SR_15": 1.0}, {"Diff_star": 0.0, "addr": "25 ROYAL CREST DRIVE", "SR_14": 4.0, "Q_14": 5.0, "name": "PARADIGM HEALTHCARE CENTER OF PROSPECT, LLC", "SF_14": 3.0, "SF_15": 3.0, "cnty": "New Haven", "st": "CT", "Zip": 6712.0, "O_14": 5.0, "Q_15": 5.0, "O_15": 5.0, "city": "PROSPECT", "beds": 120.0, "SR_15": 4.0}, {"Diff_star": 0.0, "addr": "19 POPLAR STREET", "SR_14": 1.0, "Q_14": 5.0, "name": "VILLAGE CREST CENTER FOR HEALTH & REHABILITATION", "SF_14": 4.0, "SF_15": 4.0, "cnty": "Litchfield", "st": "CT", "Zip": 6776.0, "O_14": 2.0, "Q_15": 5.0, "O_15": 2.0, "city": "NEW MILFORD", "beds": 95.0, "SR_15": 1.0}, {"Diff_star": -1.0, "addr": "128 CEDAR AVENUE", "SR_14": 1.0, "Q_14": 4.0, "name": "VILLAGE GREEN OF WATERBURY REHAB & HEALTH CENTER", "SF_14": 4.0, "SF_15": 3.0, "cnty": "New Haven", "st": "CT", "Zip": 6705.0, "O_14": 2.0, "Q_15": 3.0, "O_15": 1.0, "city": "WATERBURY", "beds": 180.0, "SR_15": 1.0}, {"Diff_star": -1.0, "addr": "45 ELM STREET", "SR_14": 1.0, "Q_14": 4.0, "name": "APPLE REHAB ROCKY HILL", "SF_14": 4.0, "SF_15": 3.0, "cnty": "Hartford", "st": "CT", "Zip": 6067.0, "O_14": 2.0, "Q_15": 2.0, "O_15": 1.0, "city": "ROCKY HILL", "beds": 120.0, "SR_15": 1.0}, {"Diff_star": 0.0, "addr": "2028 BRIDGEPORT AVE", "SR_14": 3.0, "Q_14": 5.0, "name": "GOLDEN HILL HEALTH CARE CTR", "SF_14": 1.0, "SF_15": 1.0, "cnty": "New Haven", "st": "CT", "Zip": 6460.0, "O_14": 3.0, "Q_15": 5.0, "O_15": 3.0, "city": "MILFORD", "beds": 120.0, "SR_15": 3.0}, {"Diff_star": 0.0, "addr": "333 MAIN ST", "SR_14": 3.0, "Q_14": 4.0, "name": "PORTLAND CARE & REHAB CENTER,", "SF_14": 5.0, "SF_15": 5.0, "cnty": "Middlesex", "st": "CT", "Zip": 6480.0, "O_14": 4.0, "Q_15": 3.0, "O_15": 4.0, "city": "PORTLAND", "beds": 65.0, "SR_15": 3.0}, {"Diff_star": 0.0, "addr": "75 GREAT POND RD", "SR_14": 4.0, "Q_14": 4.0, "name": "MCLEAN HEALTH CENTER", "SF_14": 4.0, "SF_15": 4.0, "cnty": "Hartford", "st": "CT", "Zip": 6070.0, "O_14": 4.0, "Q_15": 4.0, "O_15": 4.0, "city": "SIMSBURY", "beds": 154.0, "SR_15": 4.0}, {"Diff_star": -1.0, "addr": "177 WHITEWOOD RD", "SR_14": 2.0, "Q_14": 3.0, "name": "PARADIGM HEALTHCARE CENTER OF WATERBURY, LLC", "SF_14": 3.0, "SF_15": 3.0, "cnty": "New Haven", "st": "CT", "Zip": 6708.0, "O_14": 2.0, "Q_15": 1.0, "O_15": 1.0, "city": "WATERBURY", "beds": 120.0, "SR_15": 2.0}, {"Diff_star": 0.0, "addr": "61 BELLEVUE AVENUE", "SR_14": 4.0, "Q_14": 5.0, "name": "PINES AT BRISTOL FOR NURSING & REHABILITATION, THE", "SF_14": 3.0, "SF_15": 3.0, "cnty": "Hartford", "st": "CT", "Zip": 6010.0, "O_14": 5.0, "Q_15": 5.0, "O_15": 5.0, "city": "BRISTOL", "beds": 132.0, "SR_15": 4.0}, {"Diff_star": -1.0, "addr": "745 HIGHLAND AVE", "SR_14": 1.0, "Q_14": 4.0, "name": "HIGHLANDS HEALTH CARE CENTER, THE", "SF_14": 4.0, "SF_15": 3.0, "cnty": "New Haven", "st": "CT", "Zip": 6410.0, "O_14": 2.0, "Q_15": 2.0, "O_15": 1.0, "city": "CHESHIRE", "beds": 120.0, "SR_15": 1.0}, {"Diff_star": 0.0, "addr": "850 MIX AVE", "SR_14": 1.0, "Q_14": 4.0, "name": "ARDEN HOUSE REHABILITATION & NURSING CENTER", "SF_14": 2.0, "SF_15": 2.0, "cnty": "New Haven", "st": "CT", "Zip": 6514.0, "O_14": 1.0, "Q_15": 2.0, "O_15": 1.0, "city": "HAMDEN", "beds": 360.0, "SR_15": 1.0}, {"Diff_star": -1.0, "addr": "154 KENSINGTON RD", "SR_14": 4.0, "Q_14": 5.0, "name": "LEDGECREST HEALTH CARE", "SF_14": 4.0, "SF_15": 4.0, "cnty": "Hartford", "st": "CT", "Zip": 6037.0, "O_14": 5.0, "Q_15": 4.0, "O_15": 4.0, "city": "KENSINGTON", "beds": 60.0, "SR_15": 4.0}, {"Diff_star": 0.0, "addr": "36 BROADWAY", "SR_14": 5.0, "Q_14": 4.0, "name": "APPLE REHAB COLCHESTER", "SF_14": 4.0, "SF_15": 3.0, "cnty": "New London", "st": "CT", "Zip": 6415.0, "O_14": 5.0, "Q_15": 2.0, "O_15": 5.0, "city": "COLCHESTER", "beds": 60.0, "SR_15": 5.0}, {"Diff_star": -2.0, "addr": "29 MIDDLE HADDAM RD", "SR_14": 3.0, "Q_14": 3.0, "name": "COBALT LODGE HEALTH CARE & REH", "SF_14": 4.0, "SF_15": 3.0, "cnty": "Middlesex", "st": "CT", "Zip": 6414.0, "O_14": 4.0, "Q_15": 1.0, "O_15": 2.0, "city": "COBALT", "beds": 60.0, "SR_15": 3.0}, {"Diff_star": -2.0, "addr": "55 KONDRACKI LANE", "SR_14": 2.0, "Q_14": 5.0, "name": "VILLAGE GREEN OF WALLINGFORD REHAB & HEALTH CENTER", "SF_14": 4.0, "SF_15": 3.0, "cnty": "New Haven", "st": "CT", "Zip": 6492.0, "O_14": 4.0, "Q_15": 4.0, "O_15": 2.0, "city": "WALLINGFORD", "beds": 180.0, "SR_15": 2.0}, {"Diff_star": 0.0, "addr": "109 WEST LAKE AVENUE", "SR_14": 4.0, "Q_14": 4.0, "name": "GUILFORD HOUSE, THE", "SF_14": 4.0, "SF_15": 4.0, "cnty": "New Haven", "st": "CT", "Zip": 6437.0, "O_14": 4.0, "Q_15": 4.0, "O_15": 4.0, "city": "GUILFORD", "beds": 73.0, "SR_15": 4.0}, {"Diff_star": 0.0, "addr": "17 COBBLE RD", "SR_14": 4.0, "Q_14": 5.0, "name": "NOBLE HORIZONS", "SF_14": 5.0, "SF_15": 5.0, "cnty": "Litchfield", "st": "CT", "Zip": 6068.0, "O_14": 5.0, "Q_15": 5.0, "O_15": 5.0, "city": "SALISBURY", "beds": 110.0, "SR_15": 4.0}, {"Diff_star": 0.0, "addr": "1 EMERSON DRIVE", "SR_14": 3.0, "Q_14": 4.0, "name": "KIMBERLY HALL-SOUTH CENTER", "SF_14": 3.0, "SF_15": 3.0, "cnty": "Hartford", "st": "CT", "Zip": 6095.0, "O_14": 3.0, "Q_15": 2.0, "O_15": 3.0, "city": "WINDSOR", "beds": 180.0, "SR_15": 3.0}, {"Diff_star": 0.0, "addr": "856 MAPLE ST", "SR_14": 4.0, "Q_14": 5.0, "name": "MAPLE VIEW MANOR", "SF_14": 3.0, "SF_15": 3.0, "cnty": "Hartford", "st": "CT", "Zip": 6067.0, "O_14": 5.0, "Q_15": 5.0, "O_15": 5.0, "city": "ROCKY HILL", "beds": 120.0, "SR_15": 4.0}, {"Diff_star": 0.0, "addr": "210 GEORGE ST", "SR_14": 4.0, "Q_14": 5.0, "name": "ELLIS MANOR", "SF_14": 3.0, "SF_15": 3.0, "cnty": "Hartford", "st": "CT", "Zip": 6114.0, "O_14": 5.0, "Q_15": 5.0, "O_15": 5.0, "city": "HARTFORD", "beds": 105.0, "SR_15": 4.0}, {"Diff_star": 0.0, "addr": "4 HAZEL AVE", "SR_14": 3.0, "Q_14": 3.0, "name": "GLENDALE CENTER", "SF_14": 3.0, "SF_15": 3.0, "cnty": "New Haven", "st": "CT", "Zip": 6770.0, "O_14": 3.0, "Q_15": 2.0, "O_15": 3.0, "city": "NAUGATUCK", "beds": 120.0, "SR_15": 3.0}, {"Diff_star": 0.0, "addr": "162 SOUTH BRITAIN RD", "SR_14": 4.0, "Q_14": 5.0, "name": "RIVER GLEN HEALTH CARE CTR", "SF_14": 4.0, "SF_15": 4.0, "cnty": "New Haven", "st": "CT", "Zip": 6488.0, "O_14": 5.0, "Q_15": 5.0, "O_15": 5.0, "city": "SOUTHBURY", "beds": 120.0, "SR_15": 4.0}, {"Diff_star": 0.0, "addr": "44 CANTERBURY ROAD", "SR_14": 5.0, "Q_14": 4.0, "name": "PIERCE MEM BAPTIST HOME", "SF_14": 5.0, "SF_15": 5.0, "cnty": "Windham", "st": "CT", "Zip": 6234.0, "O_14": 5.0, "Q_15": 4.0, "O_15": 5.0, "city": "BROOKLYN", "beds": 72.0, "SR_15": 5.0}, {"Diff_star": -1.0, "addr": "652 WEST AVON RD", "SR_14": 4.0, "Q_14": 5.0, "name": "AVON HEALTH CENTER", "SF_14": 4.0, "SF_15": 4.0, "cnty": "Hartford", "st": "CT", "Zip": 6001.0, "O_14": 5.0, "Q_15": 4.0, "O_15": 4.0, "city": "AVON", "beds": 120.0, "SR_15": 4.0}, {"Diff_star": -1.0, "addr": "2798 WHITNEY AVE", "SR_14": 2.0, "Q_14": 5.0, "name": "WHITNEY MANOR CONV CTR", "SF_14": 4.0, "SF_15": 4.0, "cnty": "New Haven", "st": "CT", "Zip": 6518.0, "O_14": 4.0, "Q_15": 4.0, "O_15": 3.0, "city": "HAMDEN", "beds": 150.0, "SR_15": 2.0}, {"Diff_star": -2.0, "addr": "5 GREENWOOD ST", "SR_14": 4.0, "Q_14": 5.0, "name": "PARK PLACE HEALTH CENTER", "SF_14": 2.0, "SF_15": 2.0, "cnty": "Hartford", "st": "CT", "Zip": 6106.0, "O_14": 5.0, "Q_15": 4.0, "O_15": 3.0, "city": "HARTFORD", "beds": 150.0, "SR_15": 3.0}, {"Diff_star": -1.0, "addr": "SCOTT SWAMP RD", "SR_14": 2.0, "Q_14": 5.0, "name": "TOUCHPOINTS AT FARMINGTON", "SF_14": 4.0, "SF_15": 4.0, "cnty": "Hartford", "st": "CT", "Zip": 6032.0, "O_14": 4.0, "Q_15": 3.0, "O_15": 3.0, "city": "FARMINGTON", "beds": 120.0, "SR_15": 2.0}, {"Diff_star": 0.0, "addr": "349 BIDWELL STREET", "SR_14": 3.0, "Q_14": 4.0, "name": "WESTSIDE CARE CENTER", "SF_14": 3.0, "SF_15": 3.0, "cnty": "Hartford", "st": "CT", "Zip": 6040.0, "O_14": 3.0, "Q_15": 2.0, "O_15": 3.0, "city": "MANCHESTER", "beds": 180.0, "SR_15": 3.0}, {"Diff_star": 0.0, "addr": "59 HARRINGTON CT", "SR_14": 3.0, "Q_14": 4.0, "name": "HARRINGTON COURT", "SF_14": 4.0, "SF_15": 4.0, "cnty": "New London", "st": "CT", "Zip": 6415.0, "O_14": 4.0, "Q_15": 3.0, "O_15": 4.0, "city": "COLCHESTER", "beds": 130.0, "SR_15": 3.0}, {"Diff_star": 0.0, "addr": "745 MAIN ST", "SR_14": 1.0, "Q_14": 5.0, "name": "RIVERSIDE HEALTH & REHABILITAT", "SF_14": 4.0, "SF_15": 4.0, "cnty": "Hartford", "st": "CT", "Zip": 6108.0, "O_14": 2.0, "Q_15": 4.0, "O_15": 2.0, "city": "EAST HARTFORD", "beds": 345.0, "SR_15": 1.0}, {"Diff_star": 0.0, "addr": "103 NORTH RD", "SR_14": 4.0, "Q_14": 5.0, "name": "DOUGLAS MANOR", "SF_14": 4.0, "SF_15": 4.0, "cnty": "Windham", "st": "CT", "Zip": 6280.0, "O_14": 5.0, "Q_15": 5.0, "O_15": 5.0, "city": "WINDHAM", "beds": 90.0, "SR_15": 4.0}, {"Diff_star": -1.0, "addr": "181 E MAIN ST", "SR_14": 3.0, "Q_14": 4.0, "name": "REGENCY HOUSE OF WALLINGFORD I", "SF_14": 4.0, "SF_15": 3.0, "cnty": "New Haven", "st": "CT", "Zip": 6492.0, "O_14": 4.0, "Q_15": 3.0, "O_15": 3.0, "city": "WALLINGFORD", "beds": 130.0, "SR_15": 3.0}, {"Diff_star": -1.0, "addr": "385 MAIN STREET", "SR_14": 1.0, "Q_14": 4.0, "name": "AUTUMN HEALTHCARE AT CROMWELL", "SF_14": 4.0, "SF_15": 3.0, "cnty": "Middlesex", "st": "CT", "Zip": 6416.0, "O_14": 2.0, "Q_15": 3.0, "O_15": 1.0, "city": "CROMWELL", "beds": 172.0, "SR_15": 1.0}, {"Diff_star": -1.0, "addr": "140 PARK AVE", "SR_14": 1.0, "Q_14": 5.0, "name": "TOUCHPOINTS AT BLOOMFIELD", "SF_14": 3.0, "SF_15": 3.0, "cnty": "Hartford", "st": "CT", "Zip": 6002.0, "O_14": 2.0, "Q_15": 3.0, "O_15": 1.0, "city": "BLOOMFIELD", "beds": 150.0, "SR_15": 1.0}, {"Diff_star": -1.0, "addr": "140 COOK HILL RD", "SR_14": 3.0, "Q_14": 5.0, "name": "ELIM PARK BAPTIST HOME, INC", "SF_14": 5.0, "SF_15": 5.0, "cnty": "New Haven", "st": "CT", "Zip": 6410.0, "O_14": 5.0, "Q_15": 4.0, "O_15": 4.0, "city": "CHESHIRE", "beds": 90.0, "SR_15": 3.0}, {"Diff_star": -1.0, "addr": "89 VIETS ST EXT", "SR_14": 3.0, "Q_14": 3.0, "name": "CROSSINGS WEST HEALTH AND REHABILITATION CENTER", "SF_14": 4.0, "SF_15": 4.0, "cnty": "New London", "st": "CT", "Zip": 6320.0, "O_14": 4.0, "Q_15": 1.0, "O_15": 3.0, "city": "NEW LONDON", "beds": 66.0, "SR_15": 3.0}, {"Diff_star": 0.0, "addr": "151 HILLSIDE AVE", "SR_14": 2.0, "Q_14": 5.0, "name": "TRINITY HILL CARE CENTER", "SF_14": 4.0, "SF_15": 4.0, "cnty": "Hartford", "st": "CT", "Zip": 6106.0, "O_14": 4.0, "Q_15": 5.0, "O_15": 4.0, "city": "HARTFORD", "beds": 144.0, "SR_15": 2.0}, {"Diff_star": 0.0, "addr": "1145 POQUONNOCK RD", "SR_14": 3.0, "Q_14": 4.0, "name": "GROTON REGENCY CENTER", "SF_14": 3.0, "SF_15": 3.0, "cnty": "New London", "st": "CT", "Zip": 6340.0, "O_14": 3.0, "Q_15": 2.0, "O_15": 3.0, "city": "GROTON", "beds": 162.0, "SR_15": 3.0}, {"Diff_star": -1.0, "addr": "475 HIGH ST", "SR_14": 4.0, "Q_14": 3.0, "name": "MYSTIC HEALTHCARE & REHABILITATION CENTER, LLC", "SF_14": 4.0, "SF_15": 4.0, "cnty": "New London", "st": "CT", "Zip": 6355.0, "O_14": 4.0, "Q_15": 1.0, "O_15": 3.0, "city": "MYSTIC", "beds": 100.0, "SR_15": 4.0}, {"Diff_star": 0.0, "addr": "1365 ENFIELD ST", "SR_14": 4.0, "Q_14": 4.0, "name": "ST JOSEPH'S RESIDENCE", "SF_14": 5.0, "SF_15": 5.0, "cnty": "Hartford", "st": "CT", "Zip": 6082.0, "O_14": 5.0, "Q_15": 4.0, "O_15": 5.0, "city": "ENFIELD", "beds": 25.0, "SR_15": 4.0}, {"Diff_star": -1.0, "addr": "107 OSBORNE ST", "SR_14": 1.0, "Q_14": 4.0, "name": "DANBURY HEALTH CARE CTR", "SF_14": 4.0, "SF_15": 4.0, "cnty": "Fairfield", "st": "CT", "Zip": 6810.0, "O_14": 2.0, "Q_15": 1.0, "O_15": 1.0, "city": "DANBURY", "beds": 180.0, "SR_15": 1.0}, {"Diff_star": -1.0, "addr": "1354 CHAPEL ST", "SR_14": 2.0, "Q_14": 5.0, "name": "GRIMES CENTER", "SF_14": 4.0, "SF_15": 4.0, "cnty": "New Haven", "st": "CT", "Zip": 6511.0, "O_14": 4.0, "Q_15": 3.0, "O_15": 3.0, "city": "NEW HAVEN", "beds": 122.0, "SR_15": 2.0}, {"Diff_star": -1.0, "addr": "130 LOOMIS DR", "SR_14": 3.0, "Q_14": 5.0, "name": "WEST HARTFORD HEALTH & REHABILITATION CENTER", "SF_14": 4.0, "SF_15": 3.0, "cnty": "Hartford", "st": "CT", "Zip": 6107.0, "O_14": 5.0, "Q_15": 5.0, "O_15": 4.0, "city": "WEST HARTFORD", "beds": 160.0, "SR_15": 3.0}, {"Diff_star": 0.0, "addr": "1 EMERSON DR", "SR_14": 3.0, "Q_14": 5.0, "name": "KIMBERLY HALL NORTH", "SF_14": 3.0, "SF_15": 3.0, "cnty": "Hartford", "st": "CT", "Zip": 6095.0, "O_14": 4.0, "Q_15": 4.0, "O_15": 4.0, "city": "WINDSOR", "beds": 150.0, "SR_15": 4.0}, {"Diff_star": -1.0, "addr": "1 BURR RD", "SR_14": 1.0, "Q_14": 5.0, "name": "WESTPORT HEALTH CARE CTR", "SF_14": 4.0, "SF_15": 3.0, "cnty": "Fairfield", "st": "CT", "Zip": 6880.0, "O_14": 2.0, "Q_15": 4.0, "O_15": 1.0, "city": "WESTPORT", "beds": 120.0, "SR_15": 1.0}, {"Diff_star": -1.0, "addr": "50 BEACH RD", "SR_14": 2.0, "Q_14": 5.0, "name": "WOLCOTT VIEW MANOR", "SF_14": 4.0, "SF_15": 3.0, "cnty": "New Haven", "st": "CT", "Zip": 6716.0, "O_14": 4.0, "Q_15": 5.0, "O_15": 3.0, "city": "WOLCOTT", "beds": 129.0, "SR_15": 2.0}, {"Diff_star": 0.0, "addr": "240 CHURCH ST", "SR_14": 3.0, "Q_14": 4.0, "name": "NEWINGTON HEALTH CARE CTR", "SF_14": 2.0, "SF_15": 2.0, "cnty": "Hartford", "st": "CT", "Zip": 6111.0, "O_14": 3.0, "Q_15": 2.0, "O_15": 3.0, "city": "NEWINGTON", "beds": 180.0, "SR_15": 3.0}, {"Diff_star": 0.0, "addr": "235 LESTERTOWN RD", "SR_14": 4.0, "Q_14": 5.0, "name": "FAIRVIEW", "SF_14": 5.0, "SF_15": 5.0, "cnty": "New London", "st": "CT", "Zip": 6340.0, "O_14": 5.0, "Q_15": 5.0, "O_15": 5.0, "city": "GROTON", "beds": 120.0, "SR_15": 4.0}, {"Diff_star": 0.0, "addr": "200 LEEDER HILL DR", "SR_14": 4.0, "Q_14": 5.0, "name": "WHITNEY CENTER", "SF_14": 5.0, "SF_15": 5.0, "cnty": "New Haven", "st": "CT", "Zip": 6517.0, "O_14": 5.0, "Q_15": 5.0, "O_15": 5.0, "city": "HAMDEN", "beds": 59.0, "SR_15": 4.0}, {"Diff_star": 0.0, "addr": "55 TUNXIS AVE", "SR_14": 2.0, "Q_14": 4.0, "name": "ALEXANDRIA MANOR", "SF_14": 3.0, "SF_15": 3.0, "cnty": "Hartford", "st": "CT", "Zip": 6002.0, "O_14": 2.0, "Q_15": 2.0, "O_15": 2.0, "city": "BLOOMFIELD", "beds": 120.0, "SR_15": 2.0}, {"Diff_star": 0.0, "addr": "400 BRITTANY FARMS RD", "SR_14": 1.0, "Q_14": 5.0, "name": "AUTUMN HEALTHCARE AT NEW BRITAIN", "SF_14": 4.0, "SF_15": 4.0, "cnty": "Hartford", "st": "CT", "Zip": 6053.0, "O_14": 2.0, "Q_15": 2.0, "O_15": 2.0, "city": "NEW BRITAIN", "beds": 282.0, "SR_15": 1.0}, {"Diff_star": 0.0, "addr": "ONE JOHN STEWART DR", "SR_14": 4.0, "Q_14": 5.0, "name": "JEFFERSON HOUSE", "SF_14": 4.0, "SF_15": 4.0, "cnty": "Hartford", "st": "CT", "Zip": 6111.0, "O_14": 5.0, "Q_15": 5.0, "O_15": 5.0, "city": "NEWINGTON", "beds": 104.0, "SR_15": 4.0}, {"Diff_star": 0.0, "addr": "38 TALMADGE AVE", "SR_14": 2.0, "Q_14": 5.0, "name": "TALMADGE PARK HEALTHCARE", "SF_14": 3.0, "SF_15": 3.0, "cnty": "New Haven", "st": "CT", "Zip": 6512.0, "O_14": 3.0, "Q_15": 5.0, "O_15": 3.0, "city": "EAST HAVEN", "beds": 90.0, "SR_15": 2.0}, {"Diff_star": 0.0, "addr": "360 BROAD STREET", "SR_14": 3.0, "Q_14": 2.0, "name": "MILLER MEMORIAL COMMUNITY", "SF_14": 5.0, "SF_15": 5.0, "cnty": "New Haven", "st": "CT", "Zip": 6450.0, "O_14": 4.0, "Q_15": 2.0, "O_15": 4.0, "city": "MERIDEN", "beds": 93.0, "SR_15": 3.0}, {"Diff_star": -1.0, "addr": "189 ALPS RD", "SR_14": 3.0, "Q_14": 4.0, "name": "BRANFORD HILLS HEALTHCARE CTR", "SF_14": 4.0, "SF_15": 3.0, "cnty": "New Haven", "st": "CT", "Zip": 6405.0, "O_14": 4.0, "Q_15": 3.0, "O_15": 3.0, "city": "BRANFORD", "beds": 190.0, "SR_15": 3.0}, {"Diff_star": 0.0, "addr": "25 LORRAINE ST", "SR_14": 4.0, "Q_14": 5.0, "name": "CHELSEA PLACE CARE CENTER", "SF_14": 4.0, "SF_15": 4.0, "cnty": "Hartford", "st": "CT", "Zip": 6105.0, "O_14": 5.0, "Q_15": 5.0, "O_15": 5.0, "city": "HARTFORD", "beds": 234.0, "SR_15": 4.0}, {"Diff_star": -1.0, "addr": "5 LAKE ROAD", "SR_14": 1.0, "Q_14": 5.0, "name": "APPLE REHAB SHELTON LAKES", "SF_14": 4.0, "SF_15": 3.0, "cnty": "Fairfield", "st": "CT", "Zip": 6484.0, "O_14": 2.0, "Q_15": 4.0, "O_15": 1.0, "city": "SHELTON", "beds": 106.0, "SR_15": 1.0}, {"Diff_star": 0.0, "addr": "40 LOEFFLER RD", "SR_14": 4.0, "Q_14": 5.0, "name": "CALEB HITCHCOCK HEALTH CARE CE", "SF_14": 5.0, "SF_15": 5.0, "cnty": "Hartford", "st": "CT", "Zip": 6002.0, "O_14": 5.0, "Q_15": 5.0, "O_15": 5.0, "city": "BLOOMFIELD", "beds": 60.0, "SR_15": 4.0}, {"Diff_star": 0.0, "addr": "52 MISSIONARY RD PO BOX 180", "SR_14": 4.0, "Q_14": 5.0, "name": "PILGRIM MANOR", "SF_14": 4.0, "SF_15": 4.0, "cnty": "Middlesex", "st": "CT", "Zip": 6416.0, "O_14": 5.0, "Q_15": 5.0, "O_15": 5.0, "city": "CROMWELL", "beds": 60.0, "SR_15": 4.0}, {"Diff_star": 0.0, "addr": "534 TOWN ST", "SR_14": 5.0, "Q_14": 5.0, "name": "CHESTELM HEALTH CARE", "SF_14": 4.0, "SF_15": 5.0, "cnty": "Middlesex", "st": "CT", "Zip": 6469.0, "O_14": 5.0, "Q_15": 5.0, "O_15": 5.0, "city": "MOODUS", "beds": 76.0, "SR_15": 5.0}, {"Diff_star": -1.0, "addr": "1165 KING ST", "SR_14": 2.0, "Q_14": 5.0, "name": "GREENWICH WOODS HEALTH CARE CENTER", "SF_14": 5.0, "SF_15": 5.0, "cnty": "Fairfield", "st": "CT", "Zip": 6831.0, "O_14": 4.0, "Q_15": 4.0, "O_15": 3.0, "city": "GREENWICH", "beds": 217.0, "SR_15": 2.0}, {"Diff_star": -1.0, "addr": "16 WINDSOR AVE", "SR_14": 2.0, "Q_14": 3.0, "name": "COLONIAL HEALTH & REHAB CENTER OF PLAINFIELD LLC", "SF_14": 4.0, "SF_15": 4.0, "cnty": "Windham", "st": "CT", "Zip": 6374.0, "O_14": 3.0, "Q_15": 1.0, "O_15": 2.0, "city": "PLAINFIELD", "beds": 90.0, "SR_15": 2.0}, {"Diff_star": -1.0, "addr": "30 BOSTON RD", "SR_14": 3.0, "Q_14": 4.0, "name": "WADSWORTH GLEN HEALTH CARE CEN", "SF_14": 4.0, "SF_15": 3.0, "cnty": "Middlesex", "st": "CT", "Zip": 6457.0, "O_14": 4.0, "Q_15": 4.0, "O_15": 3.0, "city": "MIDDLETOWN", "beds": 102.0, "SR_15": 3.0}, {"Diff_star": -1.0, "addr": "60 BOSTON POST RD", "SR_14": 2.0, "Q_14": 5.0, "name": "GLADEVIEW HEALTH CARE CENTER", "SF_14": 4.0, "SF_15": 4.0, "cnty": "Middlesex", "st": "CT", "Zip": 6475.0, "O_14": 4.0, "Q_15": 3.0, "O_15": 3.0, "city": "OLD SAYBROOK", "beds": 132.0, "SR_15": 2.0}, {"Diff_star": 0.0, "addr": "333 BIDWELL ST BOX 1296", "SR_14": 2.0, "Q_14": 5.0, "name": "TOUCHPOINTS AT MANCHESTER", "SF_14": 2.0, "SF_15": 2.0, "cnty": "Hartford", "st": "CT", "Zip": 6040.0, "O_14": 3.0, "Q_15": 5.0, "O_15": 3.0, "city": "MANCHESTER", "beds": 131.0, "SR_15": 2.0}, {"Diff_star": -1.0, "addr": "1175 HEBRON AVE", "SR_14": 4.0, "Q_14": 5.0, "name": "GLASTONBURY HEALTH CARE CENTER", "SF_14": 4.0, "SF_15": 4.0, "cnty": "Hartford", "st": "CT", "Zip": 6033.0, "O_14": 5.0, "Q_15": 4.0, "O_15": 4.0, "city": "GLASTONBURY", "beds": 105.0, "SR_15": 4.0}, {"Diff_star": -1.0, "addr": "439 DANBURY RD RT 7", "SR_14": 2.0, "Q_14": 5.0, "name": "WILTON MEADOWS HEALTH CARE CEN", "SF_14": 4.0, "SF_15": 4.0, "cnty": "Fairfield", "st": "CT", "Zip": 6897.0, "O_14": 4.0, "Q_15": 4.0, "O_15": 3.0, "city": "WILTON", "beds": 148.0, "SR_15": 2.0}, {"Diff_star": 0.0, "addr": "80 HERITAGE RD", "SR_14": 4.0, "Q_14": 5.0, "name": "POMPERAUG WOODS HEALTH CENTER", "SF_14": 5.0, "SF_15": 5.0, "cnty": "New Haven", "st": "CT", "Zip": 6488.0, "O_14": 5.0, "Q_15": 5.0, "O_15": 5.0, "city": "SOUTHBURY", "beds": 18.0, "SR_15": 4.0}, {"Diff_star": 0.0, "addr": "255 ROBERTS ST", "SR_14": 3.0, "Q_14": 5.0, "name": "LITCHFIELD WOODS HEALTH CARE C", "SF_14": 3.0, "SF_15": 3.0, "cnty": "Litchfield", "st": "CT", "Zip": 6790.0, "O_14": 4.0, "Q_15": 5.0, "O_15": 4.0, "city": "TORRINGTON", "beds": 160.0, "SR_15": 3.0}, {"Diff_star": 0.0, "addr": "494 ELM ST", "SR_14": 2.0, "Q_14": 5.0, "name": "ST CAMILLUS REHABILITATION & NURSING CENTER", "SF_14": 4.0, "SF_15": 4.0, "cnty": "Fairfield", "st": "CT", "Zip": 6902.0, "O_14": 4.0, "Q_15": 5.0, "O_15": 4.0, "city": "STAMFORD", "beds": 124.0, "SR_15": 2.0}, {"Diff_star": -1.0, "addr": "14 CLUB RD", "SR_14": 2.0, "Q_14": 5.0, "name": "ST JOSEPHS LIVING CENTER", "SF_14": 5.0, "SF_15": 5.0, "cnty": "Windham", "st": "CT", "Zip": 6280.0, "O_14": 4.0, "Q_15": 4.0, "O_15": 3.0, "city": "WINDHAM", "beds": 120.0, "SR_15": 2.0}, {"Diff_star": 0.0, "addr": "30 BOKUM RD", "SR_14": 5.0, "Q_14": 5.0, "name": "ESSEX MEADOWS HEALTH CENTER", "SF_14": 5.0, "SF_15": 5.0, "cnty": "Middlesex", "st": "CT", "Zip": 6426.0, "O_14": 5.0, "Q_15": 5.0, "O_15": 5.0, "city": "ESSEX", "beds": 45.0, "SR_15": 5.0}, {"Diff_star": 0.0, "addr": "2428 EASTON TNPK", "SR_14": 3.0, "Q_14": 5.0, "name": "CAMBRIDGE HEALTH AND REHABILITATION CENTER", "SF_14": 4.0, "SF_15": 4.0, "cnty": "Fairfield", "st": "CT", "Zip": 6825.0, "O_14": 5.0, "Q_15": 5.0, "O_15": 5.0, "city": "FAIRFIELD", "beds": 160.0, "SR_15": 3.0}, {"Diff_star": 0.0, "addr": "301 ROPE FERRY RD", "SR_14": 4.0, "Q_14": 5.0, "name": "BAYVIEW HEALTH CARE", "SF_14": 4.0, "SF_15": 3.0, "cnty": "New London", "st": "CT", "Zip": 6385.0, "O_14": 5.0, "Q_15": 5.0, "O_15": 5.0, "city": "WATERFORD", "beds": 127.0, "SR_15": 4.0}, {"Diff_star": 0.0, "addr": "118 CLINTON AVE", "SR_14": 3.0, "Q_14": 5.0, "name": "MARY WADE HOME, INC", "SF_14": 4.0, "SF_15": 4.0, "cnty": "New Haven", "st": "CT", "Zip": 6513.0, "O_14": 5.0, "Q_15": 5.0, "O_15": 5.0, "city": "NEW HAVEN", "beds": 93.0, "SR_15": 3.0}, {"Diff_star": -1.0, "addr": "205 CHESTNUT HILL ROAD", "SR_14": 4.0, "Q_14": 5.0, "name": "EVERGREEN HEALTH CARE CENTER", "SF_14": 4.0, "SF_15": 4.0, "cnty": "Tolland", "st": "CT", "Zip": 6076.0, "O_14": 5.0, "Q_15": 4.0, "O_15": 4.0, "city": "STAFFORD SPRINGS", "beds": 180.0, "SR_15": 4.0}, {"Diff_star": 0.0, "addr": "28 BROADWAY", "SR_14": 3.0, "Q_14": 5.0, "name": "APPLE REHAB MYSTIC", "SF_14": 3.0, "SF_15": 3.0, "cnty": "New London", "st": "CT", "Zip": 6355.0, "O_14": 4.0, "Q_15": 5.0, "O_15": 4.0, "city": "MYSTIC", "beds": 60.0, "SR_15": 3.0}, {"Diff_star": 0.0, "addr": "9 NECK RD", "SR_14": 3.0, "Q_14": 4.0, "name": "WATROUS NURSING CENTER", "SF_14": 4.0, "SF_15": 4.0, "cnty": "New Haven", "st": "CT", "Zip": 6443.0, "O_14": 4.0, "Q_15": 4.0, "O_15": 4.0, "city": "MADISON", "beds": 45.0, "SR_15": 3.0}, {"Diff_star": 0.0, "addr": "400 N MAIN ST", "SR_14": 1.0, "Q_14": 5.0, "name": "INGRAHAM MANOR", "SF_14": 4.0, "SF_15": 4.0, "cnty": "Hartford", "st": "CT", "Zip": 6010.0, "O_14": 2.0, "Q_15": 4.0, "O_15": 2.0, "city": "BRISTOL", "beds": 128.0, "SR_15": 1.0}, {"Diff_star": -2.0, "addr": "118 JEFFERSON STREET", "SR_14": 2.0, "Q_14": 5.0, "name": "LUDLOWE CENTER FOR HEALTH & REHABILITATION, LLC", "SF_14": 4.0, "SF_15": 3.0, "cnty": "Fairfield", "st": "CT", "Zip": 6432.0, "O_14": 4.0, "Q_15": 4.0, "O_15": 2.0, "city": "FAIRFIELD", "beds": 144.0, "SR_15": 2.0}, {"Diff_star": 0.0, "addr": "225 AMITY RD", "SR_14": 4.0, "Q_14": 5.0, "name": "WILLOWS REHABILITATION & NURSING CENTER", "SF_14": 4.0, "SF_15": 3.0, "cnty": "New Haven", "st": "CT", "Zip": 6525.0, "O_14": 5.0, "Q_15": 5.0, "O_15": 5.0, "city": "WOODBRIDGE", "beds": 90.0, "SR_15": 4.0}, {"Diff_star": 0.0, "addr": "1360 TORRINGFORD ST", "SR_14": 3.0, "Q_14": 5.0, "name": "VALERIE MANOR", "SF_14": 4.0, "SF_15": 4.0, "cnty": "Litchfield", "st": "CT", "Zip": 6790.0, "O_14": 5.0, "Q_15": 5.0, "O_15": 5.0, "city": "TORRINGTON", "beds": 151.0, "SR_15": 3.0}, {"Diff_star": -1.0, "addr": "385 W CENTER ST", "SR_14": 4.0, "Q_14": 5.0, "name": "MANCHESTER MANOR", "SF_14": 4.0, "SF_15": 4.0, "cnty": "Hartford", "st": "CT", "Zip": 6040.0, "O_14": 5.0, "Q_15": 3.0, "O_15": 4.0, "city": "MANCHESTER", "beds": 126.0, "SR_15": 4.0}, {"Diff_star": -1.0, "addr": "180 REGAN ROAD", "SR_14": 3.0, "Q_14": 5.0, "name": "VERNON MANOR HEALTH CARE CENTER", "SF_14": 4.0, "SF_15": 4.0, "cnty": "Tolland", "st": "CT", "Zip": 6066.0, "O_14": 5.0, "Q_15": 4.0, "O_15": 4.0, "city": "VERNON", "beds": 120.0, "SR_15": 3.0}, {"Diff_star": 0.0, "addr": "31 VAUXHALL ST", "SR_14": 4.0, "Q_14": 5.0, "name": "BEECHWOOD", "SF_14": 5.0, "SF_15": 5.0, "cnty": "New London", "st": "CT", "Zip": 6320.0, "O_14": 5.0, "Q_15": 5.0, "O_15": 5.0, "city": "NEW LONDON", "beds": 60.0, "SR_15": 4.0}, {"Diff_star": 0.0, "addr": "45 MERIDEN AVE", "SR_14": 4.0, "Q_14": 5.0, "name": "SOUTHINGTON CARE CENTER", "SF_14": 5.0, "SF_15": 5.0, "cnty": "Hartford", "st": "CT", "Zip": 6489.0, "O_14": 5.0, "Q_15": 5.0, "O_15": 5.0, "city": "SOUTHINGTON", "beds": 130.0, "SR_15": 4.0}, {"Diff_star": -1.0, "addr": "33 ROY ST", "SR_14": 1.0, "Q_14": 4.0, "name": "SILVER SPRINGS CARE CENTER", "SF_14": 4.0, "SF_15": 3.0, "cnty": "New Haven", "st": "CT", "Zip": 6450.0, "O_14": 2.0, "Q_15": 2.0, "O_15": 1.0, "city": "MERIDEN", "beds": 159.0, "SR_15": 1.0}, {"Diff_star": 0.0, "addr": "36 FIRETOWN RD", "SR_14": 2.0, "Q_14": 4.0, "name": "GOVERNOR'S HOUSE REHABILITATION & NURSING CENTER", "SF_14": 3.0, "SF_15": 3.0, "cnty": "Hartford", "st": "CT", "Zip": 6070.0, "O_14": 2.0, "Q_15": 3.0, "O_15": 2.0, "city": "SIMSBURY", "beds": 73.0, "SR_15": 2.0}, {"Diff_star": 0.0, "addr": "7003 MAIN ST", "SR_14": 5.0, "Q_14": 5.0, "name": "LORD CHAMBERLAIN NSG & REHAB CENTER", "SF_14": 4.0, "SF_15": 4.0, "cnty": "Fairfield", "st": "CT", "Zip": 6497.0, "O_14": 5.0, "Q_15": 5.0, "O_15": 5.0, "city": "STRATFORD", "beds": 190.0, "SR_15": 4.0}, {"Diff_star": -1.0, "addr": "560 WOODBURY ROAD", "SR_14": 4.0, "Q_14": 2.0, "name": "WATERTOWN CONVALARIUM, INC", "SF_14": 5.0, "SF_15": 5.0, "cnty": "Litchfield", "st": "CT", "Zip": 6795.0, "O_14": 5.0, "Q_15": 1.0, "O_15": 4.0, "city": "WATERTOWN", "beds": 46.0, "SR_15": 4.0}, {"Diff_star": -1.0, "addr": "44 MARITIME DRIVE", "SR_14": 3.0, "Q_14": 3.0, "name": "PENDLETON HEALTH & REHABILITATION CENTER", "SF_14": 3.0, "SF_15": 3.0, "cnty": "New London", "st": "CT", "Zip": 6355.0, "O_14": 3.0, "Q_15": 1.0, "O_15": 2.0, "city": "MYSTIC", "beds": 120.0, "SR_15": 3.0}, {"Diff_star": 0.0, "addr": "975 CORBIN AVENUE", "SR_14": 5.0, "Q_14": 4.0, "name": "JEROME HOME", "SF_14": 5.0, "SF_15": 5.0, "cnty": "Hartford", "st": "CT", "Zip": 6052.0, "O_14": 5.0, "Q_15": 2.0, "O_15": 5.0, "city": "NEW BRITAIN", "beds": 94.0, "SR_15": 5.0}, {"Diff_star": 0.0, "addr": "33 CONE AVE", "SR_14": 1.0, "Q_14": 4.0, "name": "APPLE REHAB COCCOMO", "SF_14": 3.0, "SF_15": 3.0, "cnty": "New Haven", "st": "CT", "Zip": 6450.0, "O_14": 1.0, "Q_15": 3.0, "O_15": 1.0, "city": "MERIDEN", "beds": 100.0, "SR_15": 1.0}, {"Diff_star": 0.0, "addr": "33 NORTH ST", "SR_14": 4.0, "Q_14": 5.0, "name": "ROSE HAVEN, LTD", "SF_14": 5.0, "SF_15": 5.0, "cnty": "Litchfield", "st": "CT", "Zip": 6759.0, "O_14": 5.0, "Q_15": 5.0, "O_15": 5.0, "city": "LITCHFIELD", "beds": 25.0, "SR_15": 5.0}, {"Diff_star": -1.0, "addr": "1 CANAL RD", "SR_14": 3.0, "Q_14": 5.0, "name": "SUFFIELD HOUSE, THE", "SF_14": 4.0, "SF_15": 4.0, "cnty": "Hartford", "st": "CT", "Zip": 6078.0, "O_14": 5.0, "Q_15": 4.0, "O_15": 4.0, "city": "SUFFIELD", "beds": 128.0, "SR_15": 4.0}, {"Diff_star": 0.0, "addr": "169 DAVENPORT AVE", "SR_14": 1.0, "Q_14": 4.0, "name": "ADVANCED NURSING & REHAB CENTER OF NEW HAVEN", "SF_14": 4.0, "SF_15": 4.0, "cnty": "New Haven", "st": "CT", "Zip": 6519.0, "O_14": 2.0, "Q_15": 2.0, "O_15": 2.0, "city": "NEW HAVEN", "beds": 226.0, "SR_15": 1.0}, {"Diff_star": 0.0, "addr": "81 HILLSIDE AVENUE", "SR_14": 1.0, "Q_14": 5.0, "name": "COOK WILLOW CONVALESCENT HOSPI", "SF_14": 4.0, "SF_15": 4.0, "cnty": "Litchfield", "st": "CT", "Zip": 6782.0, "O_14": 2.0, "Q_15": 5.0, "O_15": 2.0, "city": "PLYMOUTH", "beds": 60.0, "SR_15": 1.0}, {"Diff_star": 0.0, "addr": "321 STONECREST DRIVE", "SR_14": 1.0, "Q_14": 5.0, "name": "SHERIDEN WOODS", "SF_14": 1.0, "SF_15": 1.0, "cnty": "Hartford", "st": "CT", "Zip": 6010.0, "O_14": 2.0, "Q_15": 5.0, "O_15": 2.0, "city": "BRISTOL", "beds": 146.0, "SR_15": 1.0}, {"Diff_star": 0.0, "addr": "44 ABBOTT TERR", "SR_14": 1.0, "Q_14": 4.0, "name": "ABBOTT TERR HEALTH CTR", "SF_14": 3.0, "SF_15": 3.0, "cnty": "New Haven", "st": "CT", "Zip": 6702.0, "O_14": 1.0, "Q_15": 1.0, "O_15": 1.0, "city": "WATERBURY", "beds": 205.0, "SR_15": 1.0}, {"Diff_star": 0.0, "addr": "292 THORPE AVENUE", "SR_14": 3.0, "Q_14": 5.0, "name": "CONNECTICUT BAPTIST HOMES, INC", "SF_14": 4.0, "SF_15": 4.0, "cnty": "New Haven", "st": "CT", "Zip": 6450.0, "O_14": 5.0, "Q_15": 5.0, "O_15": 5.0, "city": "MERIDEN", "beds": 60.0, "SR_15": 3.0}, {"Diff_star": 0.0, "addr": "175 JEFFERSON STREET", "SR_14": 3.0, "Q_14": 5.0, "name": "JEWISH HM FOR THE ELDERLY FAIR", "SF_14": 4.0, "SF_15": 4.0, "cnty": "Fairfield", "st": "CT", "Zip": 6432.0, "O_14": 5.0, "Q_15": 5.0, "O_15": 5.0, "city": "FAIRFIELD", "beds": 360.0, "SR_15": 3.0}, {"Diff_star": -1.0, "addr": "33 LINCOLN AVENUE", "SR_14": 3.0, "Q_14": 5.0, "name": "POPE JOHN PAUL I I CENTER", "SF_14": 4.0, "SF_15": 4.0, "cnty": "Fairfield", "st": "CT", "Zip": 6810.0, "O_14": 5.0, "Q_15": 2.0, "O_15": 4.0, "city": "DANBURY", "beds": 141.0, "SR_15": 3.0}, {"Diff_star": 0.0, "addr": "139 TODDY HILL ROAD", "SR_14": 2.0, "Q_14": 5.0, "name": "MASONICARE AT NEWTOWN, INC", "SF_14": 5.0, "SF_15": 5.0, "cnty": "Fairfield", "st": "CT", "Zip": 6470.0, "O_14": 4.0, "Q_15": 5.0, "O_15": 4.0, "city": "NEWTOWN", "beds": 154.0, "SR_15": 2.0}, {"Diff_star": -1.0, "addr": "76 WEST ROCKS ROAD", "SR_14": 4.0, "Q_14": 5.0, "name": "NOTRE DAME CONVALESCENT HOME I", "SF_14": 4.0, "SF_15": 4.0, "cnty": "Fairfield", "st": "CT", "Zip": 6851.0, "O_14": 5.0, "Q_15": 4.0, "O_15": 4.0, "city": "NORWALK", "beds": 60.0, "SR_15": 4.0}, {"Diff_star": 0.0, "addr": "14 MAIN STREET", "SR_14": 2.0, "Q_14": 1.0, "name": "BICKFORD HEALTH CARE CENTER", "SF_14": 4.0, "SF_15": 4.0, "cnty": "Hartford", "st": "CT", "Zip": 6096.0, "O_14": 2.0, "Q_15": 1.0, "O_15": 2.0, "city": "WINDSOR LOCKS", "beds": 48.0, "SR_15": 2.0}, {"Diff_star": -1.0, "addr": "96 PROSPECT HILL RD", "SR_14": 1.0, "Q_14": 5.0, "name": "FRESH RIVER HEALTHCARE", "SF_14": 4.0, "SF_15": 3.0, "cnty": "Hartford", "st": "CT", "Zip": 6088.0, "O_14": 2.0, "Q_15": 3.0, "O_15": 1.0, "city": "EAST WINDSOR", "beds": 166.0, "SR_15": 1.0}, {"Diff_star": 0.0, "addr": "3 FARM ROAD", "SR_14": 5.0, "Q_14": 5.0, "name": "WAVENY CARE CENTER", "SF_14": 5.0, "SF_15": 5.0, "cnty": "Fairfield", "st": "CT", "Zip": 6840.0, "O_14": 5.0, "Q_15": 5.0, "O_15": 5.0, "city": "NEW CANAAN", "beds": 76.0, "SR_15": 5.0}, {"Diff_star": 0.0, "addr": "88 NOTCH HILL ROAD", "SR_14": 4.0, "Q_14": 4.0, "name": "EVERGREEN WOODS", "SF_14": 4.0, "SF_15": 4.0, "cnty": "New Haven", "st": "CT", "Zip": 6471.0, "O_14": 4.0, "Q_15": 3.0, "O_15": 4.0, "city": "NORTH BRANFORD", "beds": 50.0, "SR_15": 4.0}, {"Diff_star": 0.0, "addr": "380 CROWN STREET", "SR_14": 4.0, "Q_14": 5.0, "name": "CURTIS HOME - ST ELIZABETH CEN", "SF_14": 5.0, "SF_15": 5.0, "cnty": "New Haven", "st": "CT", "Zip": 6450.0, "O_14": 5.0, "Q_15": 4.0, "O_15": 5.0, "city": "MERIDEN", "beds": 60.0, "SR_15": 4.0}, {"Diff_star": 0.0, "addr": "1270 SHERMAN LANE", "SR_14": 4.0, "Q_14": 5.0, "name": "HAMDEN HEALTH CARE CENTER", "SF_14": 5.0, "SF_15": 5.0, "cnty": "New Haven", "st": "CT", "Zip": 6514.0, "O_14": 5.0, "Q_15": 5.0, "O_15": 5.0, "city": "HAMDEN", "beds": 153.0, "SR_15": 4.0}, {"Diff_star": -1.0, "addr": "350 SALMON BROOK STREET", "SR_14": 4.0, "Q_14": 5.0, "name": "MEADOWBROOK OF GRANBY", "SF_14": 4.0, "SF_15": 4.0, "cnty": "Hartford", "st": "CT", "Zip": 6035.0, "O_14": 5.0, "Q_15": 4.0, "O_15": 4.0, "city": "GRANBY", "beds": 90.0, "SR_15": 4.0}, {"Diff_star": 0.0, "addr": "172 ROCKY REST ROAD", "SR_14": 3.0, "Q_14": 5.0, "name": "GARDNER HEIGHTS HEALTH CARE CENTER, INC", "SF_14": 3.0, "SF_15": 3.0, "cnty": "Fairfield", "st": "CT", "Zip": 6484.0, "O_14": 4.0, "Q_15": 5.0, "O_15": 4.0, "city": "SHELTON", "beds": 154.0, "SR_15": 3.0}, {"Diff_star": 0.0, "addr": "540 BOND STREET", "SR_14": 2.0, "Q_14": 4.0, "name": "BRIDGEPORT MANOR", "SF_14": 4.0, "SF_15": 4.0, "cnty": "Fairfield", "st": "CT", "Zip": 6610.0, "O_14": 3.0, "Q_15": 2.0, "O_15": 3.0, "city": "BRIDGEPORT", "beds": 240.0, "SR_15": 2.0}, {"Diff_star": 0.0, "addr": "600 BOND STREET", "SR_14": 2.0, "Q_14": 5.0, "name": "BRIDGEPORT HEALTH CARE CENTER", "SF_14": 4.0, "SF_15": 4.0, "cnty": "Fairfield", "st": "CT", "Zip": 6610.0, "O_14": 4.0, "Q_15": 5.0, "O_15": 4.0, "city": "BRIDGEPORT", "beds": 240.0, "SR_15": 2.0}, {"Diff_star": 0.0, "addr": "990 NORTH MAIN STREET", "SR_14": 1.0, "Q_14": 5.0, "name": "LUTHERAN HOME OF SOUTHBURY INC", "SF_14": 4.0, "SF_15": 4.0, "cnty": "New Haven", "st": "CT", "Zip": 6488.0, "O_14": 2.0, "Q_15": 5.0, "O_15": 2.0, "city": "SOUTHBURY", "beds": 120.0, "SR_15": 1.0}, {"Diff_star": -1.0, "addr": "3396 E MAIN STREET", "SR_14": 4.0, "Q_14": 5.0, "name": "CHESHIRE HOUSE HEALTH CARE FAC", "SF_14": 4.0, "SF_15": 4.0, "cnty": "New Haven", "st": "CT", "Zip": 6705.0, "O_14": 5.0, "Q_15": 4.0, "O_15": 4.0, "city": "WATERBURY", "beds": 72.0, "SR_15": 4.0}, {"Diff_star": 0.0, "addr": "50 PULASKI STREET", "SR_14": 5.0, "Q_14": 4.0, "name": "MONSIGNOR BOJNOWSKI MANOR", "SF_14": 4.0, "SF_15": 4.0, "cnty": "Hartford", "st": "CT", "Zip": 6053.0, "O_14": 5.0, "Q_15": 4.0, "O_15": 5.0, "city": "NEW BRITAIN", "beds": 60.0, "SR_15": 5.0}, {"Diff_star": 0.0, "addr": "23 LIBERTY WAY", "SR_14": 5.0, "Q_14": 5.0, "name": "BRIDE BROOK HEALTH & REHABILITATION CENTER", "SF_14": 3.0, "SF_15": 3.0, "cnty": "New London", "st": "CT", "Zip": 6357.0, "O_14": 5.0, "Q_15": 5.0, "O_15": 5.0, "city": "NIANTIC", "beds": 130.0, "SR_15": 5.0}, {"Diff_star": -1.0, "addr": "245 ORANGE AVENUE", "SR_14": 2.0, "Q_14": 5.0, "name": "WEST RIVER HEALTH CARE CENTER", "SF_14": 4.0, "SF_15": 4.0, "cnty": "New Haven", "st": "CT", "Zip": 6460.0, "O_14": 4.0, "Q_15": 4.0, "O_15": 3.0, "city": "MILFORD", "beds": 120.0, "SR_15": 2.0}, {"Diff_star": 0.0, "addr": "1261 SOUTH MAIN STREET", "SR_14": 5.0, "Q_14": 5.0, "name": "ALZHEIMERS RESOURCE CENTER OF CONNECTICUT", "SF_14": 5.0, "SF_15": 5.0, "cnty": "Hartford", "st": "CT", "Zip": 6479.0, "O_14": 5.0, "Q_15": 5.0, "O_15": 5.0, "city": "PLANTSVILLE", "beds": 120.0, "SR_15": 4.0}, {"Diff_star": 0.0, "addr": "27 HOSPITAL HILL ROAD", "SR_14": 2.0, "Q_14": 5.0, "name": "SHARON HEALTH CARE CENTER", "SF_14": 4.0, "SF_15": 4.0, "cnty": "Litchfield", "st": "CT", "Zip": 6069.0, "O_14": 4.0, "Q_15": 5.0, "O_15": 4.0, "city": "SHARON", "beds": 88.0, "SR_15": 2.0}, {"Diff_star": 0.0, "addr": "156 BERLIN ROAD", "SR_14": 2.0, "Q_14": 4.0, "name": "APPLE REHAB CROMWELL", "SF_14": 4.0, "SF_15": 4.0, "cnty": "Middlesex", "st": "CT", "Zip": 6416.0, "O_14": 3.0, "Q_15": 3.0, "O_15": 3.0, "city": "CROMWELL", "beds": 85.0, "SR_15": 2.0}, {"Diff_star": 0.0, "addr": "111 CHURCH STREET", "SR_14": 3.0, "Q_14": 4.0, "name": "WATER'S EDGE CENTER FOR HEALTH & REHAB", "SF_14": 3.0, "SF_15": 3.0, "cnty": "Middlesex", "st": "CT", "Zip": 6457.0, "O_14": 3.0, "Q_15": 3.0, "O_15": 3.0, "city": "MIDDLETOWN", "beds": 150.0, "SR_15": 3.0}, {"Diff_star": -1.0, "addr": "26 SHENIPSIT LAKE ROAD", "SR_14": 2.0, "Q_14": 3.0, "name": "WOODLAKE AT TOLLAND", "SF_14": 4.0, "SF_15": 4.0, "cnty": "Tolland", "st": "CT", "Zip": 6084.0, "O_14": 3.0, "Q_15": 1.0, "O_15": 2.0, "city": "TOLLAND", "beds": 130.0, "SR_15": 2.0}, {"Diff_star": 0.0, "addr": "200 SEABURY DRIVE", "SR_14": 5.0, "Q_14": 5.0, "name": "SEABURY RETIREMENT COMMUNITY", "SF_14": 4.0, "SF_15": 4.0, "cnty": "Hartford", "st": "CT", "Zip": 6002.0, "O_14": 5.0, "Q_15": 5.0, "O_15": 5.0, "city": "BLOOMFIELD", "beds": 96.0, "SR_15": 5.0}, {"Diff_star": -1.0, "addr": "85 STAGE HARBOR ROAD", "SR_14": 4.0, "Q_14": 5.0, "name": "MARLBOROUGH HEALTH CARE CENTER", "SF_14": 4.0, "SF_15": 4.0, "cnty": "Hartford", "st": "CT", "Zip": 6447.0, "O_14": 5.0, "Q_15": 4.0, "O_15": 4.0, "city": "MARLBOROUGH", "beds": 120.0, "SR_15": 4.0}, {"Diff_star": 0.0, "addr": "41 SKOKORAT STREET", "SR_14": 5.0, "Q_14": 5.0, "name": "SHADY KNOLL", "SF_14": 4.0, "SF_15": 4.0, "cnty": "New Haven", "st": "CT", "Zip": 6483.0, "O_14": 5.0, "Q_15": 3.0, "O_15": 5.0, "city": "SEYMOUR", "beds": 128.0, "SR_15": 5.0}, {"Diff_star": 0.0, "addr": "34 MIDROCKS DRIVE", "SR_14": 1.0, "Q_14": 5.0, "name": "AUTUMN HEALTHCARE AT NORWALK", "SF_14": 5.0, "SF_15": 5.0, "cnty": "Fairfield", "st": "CT", "Zip": 6851.0, "O_14": 2.0, "Q_15": 5.0, "O_15": 2.0, "city": "NORWALK", "beds": 150.0, "SR_15": 1.0}, {"Diff_star": -1.0, "addr": "220 SCOVILLE ROAD", "SR_14": 2.0, "Q_14": 5.0, "name": "APPLE REHAB AVON", "SF_14": 4.0, "SF_15": 4.0, "cnty": "Hartford", "st": "CT", "Zip": 6001.0, "O_14": 4.0, "Q_15": 4.0, "O_15": 3.0, "city": "AVON", "beds": 60.0, "SR_15": 2.0}, {"Diff_star": -1.0, "addr": "451 NORTH HIGH STREET", "SR_14": 1.0, "Q_14": 2.0, "name": "APPLE REHAB LAUREL WOODS", "SF_14": 4.0, "SF_15": 4.0, "cnty": "New Haven", "st": "CT", "Zip": 6512.0, "O_14": 2.0, "Q_15": 1.0, "O_15": 1.0, "city": "EAST HAVEN", "beds": 120.0, "SR_15": 1.0}, {"Diff_star": -1.0, "addr": "89 WIED DRIVE", "SR_14": 2.0, "Q_14": 5.0, "name": "BEACON BROOK HEALTH CENTER", "SF_14": 3.0, "SF_15": 3.0, "cnty": "New Haven", "st": "CT", "Zip": 6770.0, "O_14": 3.0, "Q_15": 4.0, "O_15": 2.0, "city": "NAUGATUCK", "beds": 126.0, "SR_15": 2.0}, {"Diff_star": -1.0, "addr": "46 MAPLE STREET", "SR_14": 1.0, "Q_14": 3.0, "name": "KENT, LTD, THE", "SF_14": 4.0, "SF_15": 4.0, "cnty": "Litchfield", "st": "CT", "Zip": 6757.0, "O_14": 2.0, "Q_15": 1.0, "O_15": 1.0, "city": "KENT", "beds": 90.0, "SR_15": 1.0}, {"Diff_star": 0.0, "addr": "256 NEW BRITAIN AVENUE", "SR_14": 2.0, "Q_14": 5.0, "name": "BEL AIR MANOR", "SF_14": 4.0, "SF_15": 4.0, "cnty": "Hartford", "st": "CT", "Zip": 6111.0, "O_14": 4.0, "Q_15": 5.0, "O_15": 4.0, "city": "NEWINGTON", "beds": 71.0, "SR_15": 2.0}, {"Diff_star": 0.0, "addr": "710 LONG RIDGE ROAD", "SR_14": 1.0, "Q_14": 5.0, "name": "LONG RIDGE OF STAMFORD", "SF_14": 5.0, "SF_15": 5.0, "cnty": "Fairfield", "st": "CT", "Zip": 6902.0, "O_14": 2.0, "Q_15": 5.0, "O_15": 2.0, "city": "STAMFORD", "beds": 120.0, "SR_15": 1.0}, {"Diff_star": -2.0, "addr": "642 DANBURY ROAD", "SR_14": 2.0, "Q_14": 5.0, "name": "LAUREL RIDGE HEALTH CARE CENTE", "SF_14": 4.0, "SF_15": 4.0, "cnty": "Fairfield", "st": "CT", "Zip": 6877.0, "O_14": 4.0, "Q_15": 4.0, "O_15": 2.0, "city": "RIDGEFIELD", "beds": 126.0, "SR_15": 1.0}, {"Diff_star": -1.0, "addr": "102 DYER AVENUE", "SR_14": 4.0, "Q_14": 5.0, "name": "CHERRY BROOK HEALTH CARE CENTE", "SF_14": 3.0, "SF_15": 3.0, "cnty": "Hartford", "st": "CT", "Zip": 6022.0, "O_14": 5.0, "Q_15": 4.0, "O_15": 4.0, "city": "COLLINSVILLE", "beds": 100.0, "SR_15": 4.0}, {"Diff_star": 0.0, "addr": "181 CLIFTON ST", "SR_14": 1.0, "Q_14": 4.0, "name": "PARADIGM HEALTHCARE CENTER OF NEW HAVEN, LLC", "SF_14": 2.0, "SF_15": 2.0, "cnty": "New Haven", "st": "CT", "Zip": 6513.0, "O_14": 1.0, "Q_15": 2.0, "O_15": 1.0, "city": "NEW HAVEN", "beds": 150.0, "SR_15": 1.0}, {"Diff_star": -1.0, "addr": "3584 EAST MAIN STREET", "SR_14": 1.0, "Q_14": 5.0, "name": "ROSEGARDEN HEALTH & REHAB CENTER, THE", "SF_14": 3.0, "SF_15": 3.0, "cnty": "New Haven", "st": "CT", "Zip": 6705.0, "O_14": 2.0, "Q_15": 4.0, "O_15": 1.0, "city": "WATERBURY", "beds": 82.0, "SR_15": 1.0}, {"Diff_star": 0.0, "addr": "13 PARKLAWN DRIVE", "SR_14": 2.0, "Q_14": 5.0, "name": "BETHEL HEALTH CARE CENTER", "SF_14": 5.0, "SF_15": 5.0, "cnty": "Fairfield", "st": "CT", "Zip": 6801.0, "O_14": 4.0, "Q_15": 5.0, "O_15": 4.0, "city": "BETHEL", "beds": 161.0, "SR_15": 2.0}, {"Diff_star": 0.0, "addr": "100 WARREN CIRCLE", "SR_14": 5.0, "Q_14": 5.0, "name": "MANSFIELD CENTER FOR NURSING AND REHABILITATION", "SF_14": 4.0, "SF_15": 4.0, "cnty": "Tolland", "st": "CT", "Zip": 6268.0, "O_14": 5.0, "Q_15": 4.0, "O_15": 5.0, "city": "MANSFIELD", "beds": 98.0, "SR_15": 5.0}, {"Diff_star": 0.0, "addr": "308 SAVIN AVENUE", "SR_14": 1.0, "Q_14": 4.0, "name": "APPLE REHAB WEST HAVEN", "SF_14": 4.0, "SF_15": 4.0, "cnty": "New Haven", "st": "CT", "Zip": 6516.0, "O_14": 2.0, "Q_15": 3.0, "O_15": 2.0, "city": "WEST HAVEN", "beds": 90.0, "SR_15": 1.0}, {"Diff_star": -2.0, "addr": "21 MAEFAIR COURT", "SR_14": 3.0, "Q_14": 5.0, "name": "MAEFAIR HEALTH CARE CENTER", "SF_14": 4.0, "SF_15": 3.0, "cnty": "Fairfield", "st": "CT", "Zip": 6611.0, "O_14": 5.0, "Q_15": 4.0, "O_15": 3.0, "city": "TRUMBULL", "beds": 134.0, "SR_15": 3.0}, {"Diff_star": -1.0, "addr": "34 WILDWOOD AVENUE", "SR_14": 3.0, "Q_14": 5.0, "name": "MADISON HOUSE REHABILITATION & NURSING CENTER", "SF_14": 4.0, "SF_15": 4.0, "cnty": "New Haven", "st": "CT", "Zip": 6443.0, "O_14": 5.0, "Q_15": 3.0, "O_15": 4.0, "city": "MADISON", "beds": 90.0, "SR_15": 3.0}, {"Diff_star": 0.0, "addr": "1 EMILY WAY", "SR_14": 4.0, "Q_14": 5.0, "name": "RESERVOIR CARE & REHABILITATION CENTER, THE", "SF_14": 4.0, "SF_15": 4.0, "cnty": "Hartford", "st": "CT", "Zip": 6107.0, "O_14": 5.0, "Q_15": 5.0, "O_15": 5.0, "city": "WEST HARTFORD", "beds": 75.0, "SR_15": 4.0}, {"Diff_star": 0.0, "addr": "40 ALBERT STREET", "SR_14": 1.0, "Q_14": 3.0, "name": "LEEWAY, INC", "SF_14": 4.0, "SF_15": 4.0, "cnty": "New Haven", "st": "CT", "Zip": 6511.0, "O_14": 2.0, "Q_15": 2.0, "O_15": 2.0, "city": "NEW HAVEN", "beds": 30.0, "SR_15": 1.0}, {"Diff_star": 0.0, "addr": "72 CHURCH STREET", "SR_14": 5.0, "Q_14": 5.0, "name": "HOLY SPIRIT HEALTH CARE INC", "SF_14": 5.0, "SF_15": 5.0, "cnty": "Windham", "st": "CT", "Zip": 6260.0, "O_14": 5.0, "Q_15": 5.0, "O_15": 5.0, "city": "PUTNAM", "beds": 22.0, "SR_15": 5.0}, {"Diff_star": 0.0, "addr": "3 SOUTH WIG HILL RD", "SR_14": 3.0, "Q_14": 5.0, "name": "AARON MANOR NURSING & REHABILITATION", "SF_14": 4.0, "SF_15": 4.0, "cnty": "Middlesex", "st": "CT", "Zip": 6412.0, "O_14": 5.0, "Q_15": 5.0, "O_15": 5.0, "city": "CHESTER", "beds": 60.0, "SR_15": 3.0}, {"Diff_star": -1.0, "addr": "10 THURBER RD", "SR_14": 3.0, "Q_14": 5.0, "name": "MATULAITIS NURSING HOME", "SF_14": 4.0, "SF_15": 3.0, "cnty": "Windham", "st": "CT", "Zip": 6260.0, "O_14": 5.0, "Q_15": 5.0, "O_15": 4.0, "city": "PUTNAM", "beds": 119.0, "SR_15": 3.0}, {"Diff_star": 0.0, "addr": "7003 MAIN ST", "SR_14": 5.0, "Q_14": 4.0, "name": "LORD CHAMBERLAIN MANOR", "SF_14": 4.0, "SF_15": 4.0, "cnty": "Fairfield", "st": "CT", "Zip": 6497.0, "O_14": 5.0, "Q_15": 3.0, "O_15": 5.0, "city": "STRATFORD", "beds": 60.0, "SR_15": 5.0}, {"Diff_star": -2.0, "addr": "2875 MAIN STREET", "SR_14": 2.0, "Q_14": 5.0, "name": "NORTHBRIDGE HEALTH CARE CENTER", "SF_14": 4.0, "SF_15": 3.0, "cnty": "Fairfield", "st": "CT", "Zip": 6606.0, "O_14": 4.0, "Q_15": 4.0, "O_15": 2.0, "city": "BRIDGEPORT", "beds": 145.0, "SR_15": 2.0}, {"Diff_star": 0.0, "addr": "31 STAPLES ST", "SR_14": 5.0, "Q_14": 5.0, "name": "HANCOCK HALL", "SF_14": 5.0, "SF_15": 5.0, "cnty": "Fairfield", "st": "CT", "Zip": 6810.0, "O_14": 5.0, "Q_15": 5.0, "O_15": 5.0, "city": "DANBURY", "beds": 96.0, "SR_15": 5.0}, {"Diff_star": 0.0, "addr": "1660 STAFFORD AVENUE", "SR_14": 4.0, "Q_14": 5.0, "name": "COUNTRYSIDE MANOR OF BRISTOL", "SF_14": 4.0, "SF_15": 4.0, "cnty": "Hartford", "st": "CT", "Zip": 6010.0, "O_14": 5.0, "Q_15": 5.0, "O_15": 5.0, "city": "BRISTOL", "beds": 90.0, "SR_15": 4.0}, {"Diff_star": 0.0, "addr": "30 PARK LN EAST", "SR_14": 4.0, "Q_14": 5.0, "name": "CANDLEWOOD VALLEY HEALTH AND R", "SF_14": 5.0, "SF_15": 5.0, "cnty": "Litchfield", "st": "CT", "Zip": 6776.0, "O_14": 5.0, "Q_15": 5.0, "O_15": 5.0, "city": "NEW MILFORD", "beds": 148.0, "SR_15": 4.0}, {"Diff_star": -1.0, "addr": "60 CROUCH AVE", "SR_14": 1.0, "Q_14": 4.0, "name": "REGENCY HEIGHTS OF NORWICH, LLC", "SF_14": 4.0, "SF_15": 3.0, "cnty": "New London", "st": "CT", "Zip": 6360.0, "O_14": 2.0, "Q_15": 2.0, "O_15": 1.0, "city": "NORWICH", "beds": 114.0, "SR_15": 1.0}, {"Diff_star": 0.0, "addr": "2817 NORTH MAIN STREET", "SR_14": 4.0, "Q_14": 5.0, "name": "AUTUMN HEALTHCARE AT BUCKS HILL", "SF_14": 3.0, "SF_15": 3.0, "cnty": "New Haven", "st": "CT", "Zip": 6704.0, "O_14": 5.0, "Q_15": 5.0, "O_15": 5.0, "city": "WATERBURY", "beds": 90.0, "SR_15": 4.0}, {"Diff_star": -1.0, "addr": "416 COLT HIGHWAY", "SR_14": 1.0, "Q_14": 5.0, "name": "AMBERWOODS OF FARMINGTON", "SF_14": 4.0, "SF_15": 3.0, "cnty": "Hartford", "st": "CT", "Zip": 6032.0, "O_14": 2.0, "Q_15": 3.0, "O_15": 1.0, "city": "FARMINGTON", "beds": 130.0, "SR_15": 1.0}, {"Diff_star": 0.0, "addr": "261 SUMMIT ST", "SR_14": 2.0, "Q_14": 4.0, "name": "SUMMIT AT PLANTSVILLE, THE", "SF_14": 4.0, "SF_15": 4.0, "cnty": "Hartford", "st": "CT", "Zip": 6479.0, "O_14": 3.0, "Q_15": 3.0, "O_15": 3.0, "city": "PLANTSVILLE", "beds": 150.0, "SR_15": 2.0}, {"Diff_star": 0.0, "addr": "122 PALMERS HILL RD", "SR_14": 4.0, "Q_14": 5.0, "name": "EDGEHILL HEALTH CENTER", "SF_14": 5.0, "SF_15": 5.0, "cnty": "Fairfield", "st": "CT", "Zip": 6902.0, "O_14": 5.0, "Q_15": 5.0, "O_15": 5.0, "city": "STAMFORD", "beds": 60.0, "SR_15": 4.0}, {"Diff_star": -1.0, "addr": "1060 MAIN ST", "SR_14": 2.0, "Q_14": 5.0, "name": "PARADIGM HEALTHCARE CENTER OF SOUTH WINDSOR", "SF_14": 4.0, "SF_15": 4.0, "cnty": "Hartford", "st": "CT", "Zip": 6074.0, "O_14": 4.0, "Q_15": 4.0, "O_15": 3.0, "city": "SOUTH WINDSOR", "beds": 120.0, "SR_15": 2.0}, {"Diff_star": 0.0, "addr": "111 WESTCOTT RD", "SR_14": 3.0, "Q_14": 4.0, "name": "REGENCY HEIGHTS OF DANIELSON, LLC", "SF_14": 4.0, "SF_15": 4.0, "cnty": "Windham", "st": "CT", "Zip": 6239.0, "O_14": 4.0, "Q_15": 2.0, "O_15": 4.0, "city": "DANIELSON", "beds": 190.0, "SR_15": 3.0}, {"Diff_star": -1.0, "addr": "595 VALLEY ST", "SR_14": 1.0, "Q_14": 4.0, "name": "REGENCY HEIGHTS OF WINDHAM, LLC", "SF_14": 4.0, "SF_15": 3.0, "cnty": "Windham", "st": "CT", "Zip": 6226.0, "O_14": 2.0, "Q_15": 2.0, "O_15": 1.0, "city": "WILLIMANTIC", "beds": 124.0, "SR_15": 1.0}, {"Diff_star": 0.0, "addr": "345 BELDEN HILL ROAD", "SR_14": 5.0, "Q_14": 3.0, "name": "LOURDES HEALTH CARE CENTER, IN", "SF_14": 5.0, "SF_15": 5.0, "cnty": "Fairfield", "st": "CT", "Zip": 6897.0, "O_14": 5.0, "Q_15": 3.0, "O_15": 5.0, "city": "WILTON", "beds": 40.0, "SR_15": 5.0}, {"Diff_star": 0.0, "addr": "100 REDDING ROAD", "SR_14": 4.0, "Q_14": 5.0, "name": "MEADOW RIDGE", "SF_14": 4.0, "SF_15": 4.0, "cnty": "Fairfield", "st": "CT", "Zip": 6896.0, "O_14": 5.0, "Q_15": 5.0, "O_15": 5.0, "city": "WEST REDDING", "beds": 59.0, "SR_15": 4.0}, {"Diff_star": 0.0, "addr": "101 MARSHALL LANE", "SR_14": 2.0, "Q_14": 5.0, "name": "MARSHALL LANE MANOR", "SF_14": 2.0, "SF_15": 2.0, "cnty": "New Haven", "st": "CT", "Zip": 6418.0, "O_14": 3.0, "Q_15": 5.0, "O_15": 3.0, "city": "DERBY", "beds": 120.0, "SR_15": 2.0}, {"Diff_star": -1.0, "addr": "809 R NEW HAVEN ROAD", "SR_14": 2.0, "Q_14": 5.0, "name": "TWIN MAPLES HEALTHCARE, INC", "SF_14": 4.0, "SF_15": 3.0, "cnty": "Middlesex", "st": "CT", "Zip": 6422.0, "O_14": 4.0, "Q_15": 5.0, "O_15": 3.0, "city": "DURHAM", "beds": 44.0, "SR_15": 2.0}, {"Diff_star": -1.0, "addr": "9 CLIFF ST", "SR_14": 1.0, "Q_14": 5.0, "name": "MATTATUCK HEALTH CARE FAC", "SF_14": 3.0, "SF_15": 3.0, "cnty": "New Haven", "st": "CT", "Zip": 6710.0, "O_14": 2.0, "Q_15": 4.0, "O_15": 1.0, "city": "WATERBURY", "beds": 43.0, "SR_15": 1.0}, {"Diff_star": -1.0, "addr": "225 BOSTON POST RD", "SR_14": 1.0, "Q_14": 3.0, "name": "ORANGE HEALTH CARE CENTER", "SF_14": 4.0, "SF_15": 4.0, "cnty": "New Haven", "st": "CT", "Zip": 6477.0, "O_14": 2.0, "Q_15": 1.0, "O_15": 1.0, "city": "ORANGE", "beds": 60.0, "SR_15": 1.0}, {"Diff_star": -1.0, "addr": "171 MAIN ST", "SR_14": 3.0, "Q_14": 5.0, "name": "TOUCHPOINTS AT CHESTNUT", "SF_14": 3.0, "SF_15": 3.0, "cnty": "Hartford", "st": "CT", "Zip": 6088.0, "O_14": 4.0, "Q_15": 4.0, "O_15": 3.0, "city": "EAST WINDSOR", "beds": 60.0, "SR_15": 3.0}, {"Diff_star": 0.0, "addr": "186 JERRY BROWNE ROAD", "SR_14": 4.0, "Q_14": 5.0, "name": "AVALON HEALTH CARE CENTER AT STONERIDGE", "SF_14": 5.0, "SF_15": 5.0, "cnty": "New London", "st": "CT", "Zip": 6355.0, "O_14": 5.0, "Q_15": 5.0, "O_15": 5.0, "city": "MYSTIC", "beds": 40.0, "SR_15": 4.0}, {"Diff_star": -1.0, "addr": "5 RICHARD BROWN DRIVE", "SR_14": 2.0, "Q_14": 4.0, "name": "ORCHARD GROVE SPECIALTY CARE CENTER, LLC", "SF_14": 4.0, "SF_15": 4.0, "cnty": "New London", "st": "CT", "Zip": 6382.0, "O_14": 3.0, "Q_15": 1.0, "O_15": 2.0, "city": "UNCASVILLE", "beds": 130.0, "SR_15": 2.0}, {"Diff_star": 0.0, "addr": "320 COLONY STREET", "SR_14": 4.0, "Q_14": 5.0, "name": "BRADLEY HOME & PAVILLION, THE", "SF_14": 5.0, "SF_15": 5.0, "cnty": "New Haven", "st": "CT", "Zip": 6450.0, "O_14": 5.0, "Q_15": 5.0, "O_15": 5.0, "city": "MERIDEN", "beds": 30.0, "SR_15": 4.0}, {"Diff_star": 0.0, "addr": "3030 PARK AVENUE", "SR_14": 4.0, "Q_14": 5.0, "name": "SPRINGS AT WATERMARK 3030 PARK, THE", "SF_14": 4.0, "SF_15": 4.0, "cnty": "Fairfield", "st": "CT", "Zip": 6604.0, "O_14": 5.0, "Q_15": 5.0, "O_15": 5.0, "city": "BRIDGEPORT", "beds": 22.0, "SR_15": 4.0}, {"Diff_star": 0.0, "addr": "611 EAST HILL ROAD", "SR_14": 3.0, "Q_14": 5.0, "name": "SPRINGS AT WATERMARK, EAST HILL, THE", "SF_14": 5.0, "SF_15": 5.0, "cnty": "New Haven", "st": "CT", "Zip": 6488.0, "O_14": 5.0, "Q_15": 5.0, "O_15": 5.0, "city": "SOUTHBURY", "beds": 35.0, "SR_15": 3.0}]