[{"Diff_star": 0.0, "addr": "3720 UPTON STREET NW", "SR_14": 2.0, "Q_14": 4.0, "name": "THE WASHINGTON HOME", "SF_14": 5.0, "SF_15": 5.0, "cnty": "The District", "st": "DC", "Zip": 20016.0, "O_14": 3.0, "Q_15": 3.0, "O_15": 3.0, "city": "WASHINGTON", "beds": 192.0, "SR_15": 2.0}, {"Diff_star": 0.0, "addr": "2601 18TH STREET NE", "SR_14": 2.0, "Q_14": 5.0, "name": "WASHINGTON CTR FOR AGING SVCS", "SF_14": 5.0, "SF_15": 5.0, "cnty": "The District", "st": "DC", "Zip": 20018.0, "O_14": 4.0, "Q_15": 5.0, "O_15": 4.0, "city": "WASHINGTON", "beds": 259.0, "SR_15": 2.0}, {"Diff_star": -1.0, "addr": "1380 SOUTHERN AVE SE", "SR_14": 2.0, "Q_14": 5.0, "name": "CAROLYN BOONE LEWIS HEALTH CARE CENTER", "SF_14": 4.0, "SF_15": 4.0, "cnty": "The District", "st": "DC", "Zip": 20032.0, "O_14": 4.0, "Q_15": 4.0, "O_15": 3.0, "city": "WASHINGTON", "beds": 183.0, "SR_15": 2.0}, {"Diff_star": -1.0, "addr": "5000 BURROUGHS AVE. NE", "SR_14": 1.0, "Q_14": 5.0, "name": "DEANWOOD REHABILITATION AND WELLNESS CENTER", "SF_14": 3.0, "SF_15": 3.0, "cnty": "The District", "st": "DC", "Zip": 20019.0, "O_14": 2.0, "Q_15": 3.0, "O_15": 1.0, "city": "WASHINGTON", "beds": 296.0, "SR_15": 1.0}, {"Diff_star": 0.0, "addr": "1818 NEWTON ST. NW", "SR_14": 4.0, "Q_14": 5.0, "name": "STODDARD BAPTIST NURSING HOME", "SF_14": 4.0, "SF_15": 4.0, "cnty": "The District", "st": "DC", "Zip": 20010.0, "O_14": 5.0, "Q_15": 5.0, "O_15": 5.0, "city": "WASHINGTON", "beds": 164.0, "SR_15": 4.0}, {"Diff_star": 0.0, "addr": "1330 MASSACHUSETTS AVENUE NW", "SR_14": 4.0, "Q_14": 4.0, "name": "HEALTH & REHABILITATION  CENTER AT THOMAS CIRCLE", "SF_14": 5.0, "SF_15": 5.0, "cnty": "The District", "st": "DC", "Zip": 20005.0, "O_14": 5.0, "Q_15": 5.0, "O_15": 5.0, "city": "WASHINGTON", "beds": 27.0, "SR_15": 4.0}, {"Diff_star": 0.0, "addr": "2425 25TH STREET SE", "SR_14": 2.0, "Q_14": 4.0, "name": "TRANSITIONS HEALTHCARE CAPITOL CITY", "SF_14": 4.0, "SF_15": 4.0, "cnty": "The District", "st": "DC", "Zip": 20020.0, "O_14": 3.0, "Q_15": 3.0, "O_15": 3.0, "city": "WASHINGTON", "beds": 360.0, "SR_15": 2.0}, {"Diff_star": 0.0, "addr": "4601 MARTIN LUTHER KING JR AVENUE SW", "SR_14": 2.0, "Q_14": 4.0, "name": "HADLEY  NURSING AND REHABILITATION CENTER", "SF_14": 4.0, "SF_15": 4.0, "cnty": "The District", "st": "DC", "Zip": 20032.0, "O_14": 3.0, "Q_15": 2.0, "O_15": 3.0, "city": "WASHINGTON", "beds": 62.0, "SR_15": 2.0}, {"Diff_star": 0.0, "addr": "5425 WESTERN AVE NW", "SR_14": 4.0, "Q_14": 5.0, "name": "LISNER LOUISE DICKSON HURTHOME", "SF_14": 5.0, "SF_15": 5.0, "cnty": "The District", "st": "DC", "Zip": 20015.0, "O_14": 5.0, "Q_15": 5.0, "O_15": 5.0, "city": "WASHINGTON", "beds": 60.0, "SR_15": 4.0}, {"Diff_star": 0.0, "addr": "6200 OREGON AVE NW", "SR_14": 4.0, "Q_14": 5.0, "name": "KNOLLWOOD HSC", "SF_14": 5.0, "SF_15": 5.0, "cnty": "The District", "st": "DC", "Zip": 20015.0, "O_14": 5.0, "Q_15": 4.0, "O_15": 5.0, "city": "WASHINGTON", "beds": 69.0, "SR_15": 4.0}, {"Diff_star": 0.0, "addr": "700 CONSTITUTION AVE. NE", "SR_14": 1.0, "Q_14": 5.0, "name": "CAPITOL HILL NURSING AND REHABILITATION CENTER", "SF_14": 5.0, "SF_15": 5.0, "cnty": "The District", "st": "DC", "Zip": 20002.0, "O_14": 2.0, "Q_15": 5.0, "O_15": 2.0, "city": "WASHINGTON", "beds": 117.0, "SR_15": 1.0}, {"Diff_star": 0.0, "addr": "3050 MILITARY ROAD NW", "SR_14": 3.0, "Q_14": 5.0, "name": "INGLESIDE AT ROCK CREEK", "SF_14": 4.0, "SF_15": 4.0, "cnty": "The District", "st": "DC", "Zip": 20015.0, "O_14": 5.0, "Q_15": 5.0, "O_15": 5.0, "city": "WASHINGTON", "beds": 60.0, "SR_15": 3.0}, {"Diff_star": 0.0, "addr": "5255 LOUGHBORO ROAD NW", "SR_14": 4.0, "Q_14": 3.0, "name": "SIBLEY MEM HOSP RENAISSANCE", "SF_14": 5.0, "SF_15": 5.0, "cnty": "The District", "st": "DC", "Zip": 20016.0, "O_14": 5.0, "Q_15": 3.0, "O_15": 5.0, "city": "WASHINGTON", "beds": 45.0, "SR_15": 4.0}, {"Diff_star": 0.0, "addr": "2131 O STREET NW", "SR_14": 3.0, "Q_14": 5.0, "name": "BRINTON WOODS HEALTH & REHAB CENTER AT DUPONT CIRC", "SF_14": 4.0, "SF_15": 4.0, "cnty": "The District", "st": "DC", "Zip": 20037.0, "O_14": 5.0, "Q_15": 5.0, "O_15": 5.0, "city": "WASHINGTON", "beds": 180.0, "SR_15": 3.0}, {"Diff_star": 0.0, "addr": "725 BUCHANAN ST., NE", "SR_14": 3.0, "Q_14": 5.0, "name": "CARROLL MANOR NURSING & REHAB", "SF_14": 5.0, "SF_15": 5.0, "cnty": "The District", "st": "DC", "Zip": 20017.0, "O_14": 5.0, "Q_15": 5.0, "O_15": 5.0, "city": "WASHINGTON", "beds": 252.0, "SR_15": 3.0}, {"Diff_star": 0.0, "addr": "901 FIRST STREET NW", "SR_14": 5.0, "Q_14": 5.0, "name": "UNIQUE RESIDENTIAL CARE CENTER", "SF_14": 4.0, "SF_15": 4.0, "cnty": "The District", "st": "DC", "Zip": 20001.0, "O_14": 5.0, "Q_15": 5.0, "O_15": 5.0, "city": "WASHINGTON", "beds": 230.0, "SR_15": 5.0}, {"Diff_star": 0.0, "addr": "4901 CONNECTICUT AVENUE, NW", "SR_14": 3.0, "Q_14": 4.0, "name": "FOREST HILLS OF DC", "SF_14": 5.0, "SF_15": 5.0, "cnty": "The District", "st": "DC", "Zip": 20008.0, "O_14": 4.0, "Q_15": 2.0, "O_15": 4.0, "city": "WASHINGTON", "beds": 50.0, "SR_15": 3.0}, {"Diff_star": 0.0, "addr": "1310 SOUTHERN AVENUE, SE, SUITE 200", "SR_14": 1.0, "Q_14": 5.0, "name": "UNITED MEDICAL NURSING HOME", "SF_14": 4.0, "SF_15": 4.0, "cnty": "The District", "st": "DC", "Zip": 20032.0, "O_14": 2.0, "Q_15": 5.0, "O_15": 2.0, "city": "WASHINGTON", "beds": 120.0, "SR_15": 1.0}, {"Diff_star": 0.0, "addr": "4200 HAREWOOD ROAD NE", "SR_14": 5.0, "Q_14": 5.0, "name": "JEANNE JUGAN RESIDENCE", "SF_14": "", "SF_15": "", "cnty": "The District", "st": "DC", "Zip": 20017.0, "O_14": 5.0, "Q_15": 4.0, "O_15": 5.0, "city": "WASHINGTON", "beds": 40.0, "SR_15": 5.0}]