[{"Diff_star": 0.0, "addr": "411 W WOODWARD AVE", "SR_14": 4.0, "Q_14": 5.0, "name": "LAKE EUSTIS HEALTH AND REHABILITATION CENTER", "SF_14": 4.0, "SF_15": 4.0, "cnty": "Lake", "st": "FL", "Zip": 32726.0, "O_14": 5.0, "Q_15": 5.0, "O_15": 5.0, "city": "EUSTIS", "beds": 90.0, "SR_15": 4.0}, {"Diff_star": -1.0, "addr": "1001 S BEACH STREET", "SR_14": 4.0, "Q_14": 4.0, "name": "SANDALWOOD NURSING CENTER", "SF_14": 4.0, "SF_15": 3.0, "cnty": "Volusia", "st": "FL", "Zip": 32114.0, "O_14": 4.0, "Q_15": 1.0, "O_15": 3.0, "city": "DAYTONA BEACH", "beds": 99.0, "SR_15": 4.0}, {"Diff_star": -1.0, "addr": "7060 SW 8TH STREET", "SR_14": 4.0, "Q_14": 5.0, "name": "CORAL GABLES NURSING AND REHABILITATION CENTER", "SF_14": 1.0, "SF_15": 1.0, "cnty": "Miami-Dade", "st": "FL", "Zip": 33144.0, "O_14": 4.0, "Q_15": 4.0, "O_15": 3.0, "city": "MIAMI", "beds": 87.0, "SR_15": 4.0}, {"Diff_star": 0.0, "addr": "12505 NE 16TH AVENUE", "SR_14": 3.0, "Q_14": 5.0, "name": "ARCH PLAZA NURSING & REHABILITATION CENTER", "SF_14": 4.0, "SF_15": 4.0, "cnty": "Miami-Dade", "st": "FL", "Zip": 33161.0, "O_14": 5.0, "Q_15": 5.0, "O_15": 5.0, "city": "NORTH MIAMI", "beds": 98.0, "SR_15": 3.0}, {"Diff_star": 0.0, "addr": "600 NORTH 17TH AVE", "SR_14": 2.0, "Q_14": 5.0, "name": "GOLFCREST HEALTHCARE CENTER", "SF_14": 3.0, "SF_15": 3.0, "cnty": "Broward", "st": "FL", "Zip": 33020.0, "O_14": 3.0, "Q_15": 5.0, "O_15": 3.0, "city": "HOLLYWOOD", "beds": 67.0, "SR_15": 2.0}, {"Diff_star": 0.0, "addr": "1820 SHORE DR S", "SR_14": 3.0, "Q_14": 5.0, "name": "HEALTH AND REHABILITATION CENTRE AT DOLPHINS VIEW", "SF_14": "", "SF_15": "", "cnty": "Pinellas", "st": "FL", "Zip": 33707.0, "O_14": 4.0, "Q_15": 5.0, "O_15": 4.0, "city": "SOUTH PASADENA", "beds": 58.0, "SR_15": 3.0}, {"Diff_star": 0.0, "addr": "11401 OLD SAINT AUGUSTINE RD", "SR_14": 5.0, "Q_14": 5.0, "name": "RIVER GARDEN HEBREW HOME FOR THE AGED", "SF_14": 4.0, "SF_15": 4.0, "cnty": "Duval", "st": "FL", "Zip": 32258.0, "O_14": 5.0, "Q_15": 4.0, "O_15": 5.0, "city": "JACKSONVILLE", "beds": 162.0, "SR_15": 5.0}, {"Diff_star": -2.0, "addr": "1200 N 35TH AVE", "SR_14": 3.0, "Q_14": 4.0, "name": "HOLLYWOOD HILLS REHABILITATION CENTER, LLC", "SF_14": 4.0, "SF_15": 3.0, "cnty": "Broward", "st": "FL", "Zip": 33021.0, "O_14": 4.0, "Q_15": 3.0, "O_15": 2.0, "city": "HOLLYWOOD", "beds": 152.0, "SR_15": 2.0}, {"Diff_star": 0.0, "addr": "2202 W OAK AVE", "SR_14": 1.0, "Q_14": 5.0, "name": "COMMUNITY CONVALESCENT CENTER", "SF_14": 4.0, "SF_15": 4.0, "cnty": "Hillsborough", "st": "FL", "Zip": 33563.0, "O_14": 2.0, "Q_15": 5.0, "O_15": 2.0, "city": "PLANT CITY", "beds": 120.0, "SR_15": 1.0}, {"Diff_star": -1.0, "addr": "5200 NE 2ND AVENUE", "SR_14": 1.0, "Q_14": 5.0, "name": "MIAMI JEWISH HEALTH SYSTEMS, INC", "SF_14": 4.0, "SF_15": 3.0, "cnty": "Miami-Dade", "st": "FL", "Zip": 33137.0, "O_14": 2.0, "Q_15": 3.0, "O_15": 1.0, "city": "MIAMI", "beds": 462.0, "SR_15": 1.0}, {"Diff_star": -1.0, "addr": "725 S PINE ST", "SR_14": 1.0, "Q_14": 2.0, "name": "PALMS OF SEBRING, THE", "SF_14": 4.0, "SF_15": 4.0, "cnty": "Highlands", "st": "FL", "Zip": 33870.0, "O_14": 2.0, "Q_15": 1.0, "O_15": 1.0, "city": "SEBRING", "beds": 120.0, "SR_15": 1.0}, {"Diff_star": 0.0, "addr": "2810 SOUTH ATLANTIC AVENUE", "SR_14": 3.0, "Q_14": 4.0, "name": "OCEAN VIEW NURSING & REHABILITATION CENTER, LLC", "SF_14": 4.0, "SF_15": 4.0, "cnty": "Volusia", "st": "FL", "Zip": 32169.0, "O_14": 4.0, "Q_15": 2.0, "O_15": 4.0, "city": "NEW SMYRNA BEACH", "beds": 219.0, "SR_15": 3.0}, {"Diff_star": 0.0, "addr": "301 NORTHPOINTE PARKWAY", "SR_14": 1.0, "Q_14": 5.0, "name": "REHABILITATION CENTER OF THE PALM BEACHES,THE", "SF_14": 4.0, "SF_15": 4.0, "cnty": "Palm Beach", "st": "FL", "Zip": 33407.0, "O_14": 2.0, "Q_15": 5.0, "O_15": 2.0, "city": "WEST PALM BEACH", "beds": 99.0, "SR_15": 1.0}, {"Diff_star": -1.0, "addr": "2010 MANATEE AVE E", "SR_14": 3.0, "Q_14": 4.0, "name": "BRADEN RIVER REHABILITATION CENTER LLC", "SF_14": 4.0, "SF_15": 4.0, "cnty": "Manatee", "st": "FL", "Zip": 34208.0, "O_14": 4.0, "Q_15": 1.0, "O_15": 3.0, "city": "BRADENTON", "beds": 208.0, "SR_15": 3.0}, {"Diff_star": 0.0, "addr": "1230 SOUTH OLD DIXIE HWY", "SR_14": 4.0, "Q_14": 5.0, "name": "JUPITER MEDICAL CENTER PAVILION INC", "SF_14": 4.0, "SF_15": 4.0, "cnty": "Palm Beach", "st": "FL", "Zip": 33458.0, "O_14": 5.0, "Q_15": 5.0, "O_15": 5.0, "city": "JUPITER", "beds": 120.0, "SR_15": 4.0}, {"Diff_star": -2.0, "addr": "4500 INDIANAPOLIS ST NE", "SR_14": 2.0, "Q_14": 3.0, "name": "SHORE ACRES REHABILITATION AND HEALTH CENTER", "SF_14": 4.0, "SF_15": 3.0, "cnty": "Pinellas", "st": "FL", "Zip": 33703.0, "O_14": 3.0, "Q_15": 1.0, "O_15": 1.0, "city": "SAINT PETERSBURG", "beds": 109.0, "SR_15": 2.0}, {"Diff_star": -1.0, "addr": "324 WILDER BLVD", "SR_14": 3.0, "Q_14": 2.0, "name": "SEASIDE HEALTH AND REHABILITATION CENTER", "SF_14": 4.0, "SF_15": 4.0, "cnty": "Volusia", "st": "FL", "Zip": 32114.0, "O_14": 4.0, "Q_15": 1.0, "O_15": 3.0, "city": "DAYTONA BEACH", "beds": 192.0, "SR_15": 3.0}, {"Diff_star": 0.0, "addr": "301 NE 141 STREET", "SR_14": 2.0, "Q_14": 4.0, "name": "PINES NURSING HOME", "SF_14": 4.0, "SF_15": 4.0, "cnty": "Miami-Dade", "st": "FL", "Zip": 33161.0, "O_14": 3.0, "Q_15": 2.0, "O_15": 3.0, "city": "MIAMI", "beds": 46.0, "SR_15": 2.0}, {"Diff_star": -1.0, "addr": "2839 S SEACREST BLVD", "SR_14": 2.0, "Q_14": 5.0, "name": "BOULEVARD REHABILITATION CENTER", "SF_14": 4.0, "SF_15": 3.0, "cnty": "Palm Beach", "st": "FL", "Zip": 33435.0, "O_14": 4.0, "Q_15": 5.0, "O_15": 3.0, "city": "BOYNTON BEACH", "beds": 167.0, "SR_15": 2.0}, {"Diff_star": 0.0, "addr": "811 JACKSON ST N", "SR_14": 5.0, "Q_14": 5.0, "name": "BAYSIDE REHABILITATION AND HEALTH CENTER", "SF_14": 3.0, "SF_15": 3.0, "cnty": "Pinellas", "st": "FL", "Zip": 33705.0, "O_14": 5.0, "Q_15": 5.0, "O_15": 5.0, "city": "SAINT PETERSBURG", "beds": 92.0, "SR_15": 5.0}, {"Diff_star": -1.0, "addr": "6300 46TH AVE N", "SR_14": 2.0, "Q_14": 4.0, "name": "LEXINGTON HEALTH AND REHABILITATION CENTER", "SF_14": 4.0, "SF_15": 3.0, "cnty": "Pinellas", "st": "FL", "Zip": 33709.0, "O_14": 3.0, "Q_15": 3.0, "O_15": 2.0, "city": "SAINT PETERSBURG", "beds": 159.0, "SR_15": 2.0}, {"Diff_star": 0.0, "addr": "1330 S ANDREWS AVE", "SR_14": 3.0, "Q_14": 5.0, "name": "BROWARD NURSING & REHABILITATION CENTER", "SF_14": 4.0, "SF_15": 4.0, "cnty": "Broward", "st": "FL", "Zip": 33316.0, "O_14": 5.0, "Q_15": 5.0, "O_15": 5.0, "city": "FORT LAUDERDALE", "beds": 194.0, "SR_15": 3.0}, {"Diff_star": 0.0, "addr": "1701 NE 26TH ST", "SR_14": 4.0, "Q_14": 4.0, "name": "MANOR PINES CONVALESCENT CENTER", "SF_14": 2.0, "SF_15": 2.0, "cnty": "Broward", "st": "FL", "Zip": 33305.0, "O_14": 4.0, "Q_15": 2.0, "O_15": 4.0, "city": "FORT LAUDERDALE", "beds": 206.0, "SR_15": 4.0}, {"Diff_star": 0.0, "addr": "3800 N FEDERAL HWY", "SR_14": 3.0, "Q_14": 5.0, "name": "FOUNTAINS NURSING HOME INC, THE", "SF_14": 4.0, "SF_15": 4.0, "cnty": "Palm Beach", "st": "FL", "Zip": 33431.0, "O_14": 5.0, "Q_15": 5.0, "O_15": 5.0, "city": "BOCA RATON", "beds": 46.0, "SR_15": 3.0}, {"Diff_star": -1.0, "addr": "718 LAKEVIEW AVE S", "SR_14": 4.0, "Q_14": 5.0, "name": "SOUTH HERITAGE HEALTH & REHABILITATION CENTER", "SF_14": 4.0, "SF_15": 4.0, "cnty": "Pinellas", "st": "FL", "Zip": 33705.0, "O_14": 5.0, "Q_15": 4.0, "O_15": 4.0, "city": "SAINT PETERSBURG", "beds": 69.0, "SR_15": 4.0}, {"Diff_star": 0.0, "addr": "2675 N ANDREWS AVE", "SR_14": 2.0, "Q_14": 4.0, "name": "WILTON MANORS HEALTH & REHABILITATION CENTER", "SF_14": 4.0, "SF_15": 4.0, "cnty": "Broward", "st": "FL", "Zip": 33311.0, "O_14": 3.0, "Q_15": 3.0, "O_15": 3.0, "city": "WILTON MANORS", "beds": 147.0, "SR_15": 2.0}, {"Diff_star": -1.0, "addr": "16650 W DIXIE HWY", "SR_14": 3.0, "Q_14": 5.0, "name": "WATERCREST CARE CENTER", "SF_14": 4.0, "SF_15": 4.0, "cnty": "Miami-Dade", "st": "FL", "Zip": 33160.0, "O_14": 5.0, "Q_15": 4.0, "O_15": 4.0, "city": "NORTH MIAMI BEACH", "beds": 150.0, "SR_15": 3.0}, {"Diff_star": 0.0, "addr": "1711 6TH AVENUE SOUTH", "SR_14": 1.0, "Q_14": 4.0, "name": "TERRACES OF LAKE WORTH REHABILITATION AND HEALTH C", "SF_14": 4.0, "SF_15": 4.0, "cnty": "Palm Beach", "st": "FL", "Zip": 33460.0, "O_14": 2.0, "Q_15": 3.0, "O_15": 2.0, "city": "LAKE WORTH", "beds": 99.0, "SR_15": 1.0}, {"Diff_star": 0.0, "addr": "400 CORBETT ST", "SR_14": 4.0, "Q_14": 5.0, "name": "MORTON PLANT REHABILITATION CENTER", "SF_14": 4.0, "SF_15": 4.0, "cnty": "Pinellas", "st": "FL", "Zip": 33756.0, "O_14": 5.0, "Q_15": 5.0, "O_15": 5.0, "city": "BELLEAIR", "beds": 120.0, "SR_15": 4.0}, {"Diff_star": 0.0, "addr": "1061 VIRGINIA ST", "SR_14": 1.0, "Q_14": 4.0, "name": "LAKESIDE OAKS CARE CENTER", "SF_14": 3.0, "SF_15": 3.0, "cnty": "Pinellas", "st": "FL", "Zip": 34698.0, "O_14": 1.0, "Q_15": 2.0, "O_15": 1.0, "city": "DUNEDIN", "beds": 93.0, "SR_15": 1.0}, {"Diff_star": -2.0, "addr": "2802 PARENTAL HOME ROAD", "SR_14": 3.0, "Q_14": 5.0, "name": "RIVERWOOD CENTER", "SF_14": 4.0, "SF_15": 3.0, "cnty": "Duval", "st": "FL", "Zip": 32216.0, "O_14": 5.0, "Q_15": 3.0, "O_15": 3.0, "city": "JACKSONVILLE", "beds": 240.0, "SR_15": 3.0}, {"Diff_star": 0.0, "addr": "5377 MONCRIEF ROAD", "SR_14": 3.0, "Q_14": 4.0, "name": "SUMMER BROOK HEALTH CARE CENTER", "SF_14": 4.0, "SF_15": 4.0, "cnty": "Duval", "st": "FL", "Zip": 32209.0, "O_14": 4.0, "Q_15": 2.0, "O_15": 4.0, "city": "JACKSONVILLE", "beds": 120.0, "SR_15": 3.0}, {"Diff_star": -2.0, "addr": "1818 E FLETCHER AVE", "SR_14": 2.0, "Q_14": 5.0, "name": "ACCENTIA HEALTH AND REHABILITATION CENTER OF TAMPA", "SF_14": 4.0, "SF_15": 3.0, "cnty": "Hillsborough", "st": "FL", "Zip": 33612.0, "O_14": 4.0, "Q_15": 2.0, "O_15": 2.0, "city": "TAMPA", "beds": 253.0, "SR_15": 2.0}, {"Diff_star": -1.0, "addr": "451 S AMELIA AVE", "SR_14": 4.0, "Q_14": 3.0, "name": "PARKSIDE HEALTH AND REHABILITATION CENTER", "SF_14": 4.0, "SF_15": 4.0, "cnty": "Volusia", "st": "FL", "Zip": 32720.0, "O_14": 4.0, "Q_15": 1.0, "O_15": 3.0, "city": "DELAND", "beds": 122.0, "SR_15": 4.0}, {"Diff_star": 0.0, "addr": "7900 VENTURE CENTER WAY", "SR_14": 4.0, "Q_14": 5.0, "name": "BOYNTON HEALTH CARE CENTER", "SF_14": 4.0, "SF_15": 4.0, "cnty": "Palm Beach", "st": "FL", "Zip": 33437.0, "O_14": 5.0, "Q_15": 5.0, "O_15": 5.0, "city": "BOYNTON BEACH", "beds": 81.0, "SR_15": 4.0}, {"Diff_star": 0.0, "addr": "1501 N ORANGE AVE", "SR_14": 4.0, "Q_14": 4.0, "name": "PINES OF SARASOTA", "SF_14": 4.0, "SF_15": 3.0, "cnty": "Sarasota", "st": "FL", "Zip": 34236.0, "O_14": 4.0, "Q_15": 2.0, "O_15": 4.0, "city": "SARASOTA", "beds": 204.0, "SR_15": 4.0}, {"Diff_star": 0.0, "addr": "626 NORTH TYNDALL PARKWAY", "SR_14": 4.0, "Q_14": 4.0, "name": "EMERALD SHORES HEALTH AND REHABILITATION", "SF_14": 4.0, "SF_15": 3.0, "cnty": "Bay", "st": "FL", "Zip": 32404.0, "O_14": 4.0, "Q_15": 3.0, "O_15": 4.0, "city": "CALLAWAY", "beds": 77.0, "SR_15": 4.0}, {"Diff_star": 0.0, "addr": "1301 16TH ST N", "SR_14": 4.0, "Q_14": 5.0, "name": "NORTH REHABILITATION CENTER", "SF_14": 4.0, "SF_15": 3.0, "cnty": "Pinellas", "st": "FL", "Zip": 33705.0, "O_14": 5.0, "Q_15": 5.0, "O_15": 5.0, "city": "SAINT PETERSBURG", "beds": 45.0, "SR_15": 4.0}, {"Diff_star": -1.0, "addr": "924 W 13TH ST", "SR_14": 4.0, "Q_14": 5.0, "name": "PANAMA CITY HEALTH AND REHABILITATION CENTER", "SF_14": 4.0, "SF_15": 4.0, "cnty": "Bay", "st": "FL", "Zip": 32401.0, "O_14": 5.0, "Q_15": 4.0, "O_15": 4.0, "city": "PANAMA CITY", "beds": 120.0, "SR_15": 4.0}, {"Diff_star": -1.0, "addr": "13650 NE 3RD COURT", "SR_14": 4.0, "Q_14": 5.0, "name": "PINECREST REHABILITATION CENTER", "SF_14": 4.0, "SF_15": 4.0, "cnty": "Miami-Dade", "st": "FL", "Zip": 33161.0, "O_14": 5.0, "Q_15": 3.0, "O_15": 4.0, "city": "NORTH MIAMI", "beds": 100.0, "SR_15": 3.0}, {"Diff_star": 0.0, "addr": "1524 EAST AVENUE SOUTH", "SR_14": 1.0, "Q_14": 5.0, "name": "SARASOTA HEALTH AND REHABILITATION CENTER", "SF_14": 4.0, "SF_15": 4.0, "cnty": "Sarasota", "st": "FL", "Zip": 34239.0, "O_14": 2.0, "Q_15": 4.0, "O_15": 2.0, "city": "SARASOTA", "beds": 144.0, "SR_15": 1.0}, {"Diff_star": 0.0, "addr": "1609 MEDICAL DR", "SR_14": 5.0, "Q_14": 3.0, "name": "TALLAHASSEE MEMORIAL HOSPITAL EXTENDED CARE", "SF_14": 5.0, "SF_15": 5.0, "cnty": "Leon", "st": "FL", "Zip": 32308.0, "O_14": 5.0, "Q_15": 4.0, "O_15": 5.0, "city": "TALLAHASSEE", "beds": 113.0, "SR_15": 5.0}, {"Diff_star": 0.0, "addr": "210 21ST AVE W", "SR_14": 4.0, "Q_14": 4.0, "name": "GREENBRIAR REHABILITATION AND NURSING CENTER", "SF_14": 5.0, "SF_15": 5.0, "cnty": "Manatee", "st": "FL", "Zip": 34205.0, "O_14": 5.0, "Q_15": 4.0, "O_15": 5.0, "city": "BRADENTON", "beds": 79.0, "SR_15": 4.0}, {"Diff_star": -1.0, "addr": "6020 INDIANA AVE", "SR_14": 4.0, "Q_14": 5.0, "name": "MADISON POINTE REHABILITATION AND HEALTH CENTER", "SF_14": 4.0, "SF_15": 3.0, "cnty": "Pasco", "st": "FL", "Zip": 34653.0, "O_14": 5.0, "Q_15": 4.0, "O_15": 4.0, "city": "NEW PORT RICHEY", "beds": 119.0, "SR_15": 4.0}, {"Diff_star": 0.0, "addr": "390 NE 135TH ST", "SR_14": 4.0, "Q_14": 5.0, "name": "FOUNTAIN MANOR HEALTH & REHABILITATION CENTER", "SF_14": 4.0, "SF_15": 3.0, "cnty": "Miami-Dade", "st": "FL", "Zip": 33161.0, "O_14": 5.0, "Q_15": 5.0, "O_15": 5.0, "city": "NORTH MIAMI", "beds": 146.0, "SR_15": 4.0}, {"Diff_star": -1.0, "addr": "4250 NW 5TH ST", "SR_14": 2.0, "Q_14": 5.0, "name": "PLANTATION NURSING & REHABILITATION CENTER", "SF_14": 4.0, "SF_15": 3.0, "cnty": "Broward", "st": "FL", "Zip": 33317.0, "O_14": 4.0, "Q_15": 5.0, "O_15": 3.0, "city": "PLANTATION", "beds": 152.0, "SR_15": 2.0}, {"Diff_star": 0.0, "addr": "202 AVE O NE", "SR_14": 1.0, "Q_14": 5.0, "name": "WINTER HAVEN HEALTH AND REHABILITATION CENTER", "SF_14": 4.0, "SF_15": 4.0, "cnty": "Polk", "st": "FL", "Zip": 33880.0, "O_14": 2.0, "Q_15": 5.0, "O_15": 2.0, "city": "WINTER HAVEN", "beds": 140.0, "SR_15": 1.0}, {"Diff_star": -1.0, "addr": "777 9TH ST N", "SR_14": 2.0, "Q_14": 5.0, "name": "HERITAGE HEALTHCARE & REHABILITATION CENTER", "SF_14": 4.0, "SF_15": 3.0, "cnty": "Collier", "st": "FL", "Zip": 33940.0, "O_14": 4.0, "Q_15": 5.0, "O_15": 3.0, "city": "NAPLES", "beds": 97.0, "SR_15": 2.0}, {"Diff_star": -1.0, "addr": "1849 FIRST AVENUE EAST", "SR_14": 2.0, "Q_14": 3.0, "name": "CRESTVIEW REHABILITATION CENTER, LLC", "SF_14": 4.0, "SF_15": 4.0, "cnty": "Okaloosa", "st": "FL", "Zip": 32539.0, "O_14": 3.0, "Q_15": 1.0, "O_15": 2.0, "city": "CRESTVIEW", "beds": 180.0, "SR_15": 2.0}, {"Diff_star": 0.0, "addr": "3250 SW 41ST PLACE", "SR_14": 1.0, "Q_14": 4.0, "name": "PARK MEADOWS HEALTH AND REHABILITATION CENTER", "SF_14": 4.0, "SF_15": 4.0, "cnty": "Alachua", "st": "FL", "Zip": 32608.0, "O_14": 2.0, "Q_15": 2.0, "O_15": 2.0, "city": "GAINESVILLE", "beds": 154.0, "SR_15": 1.0}, {"Diff_star": 0.0, "addr": "635 SE 17TH STREET", "SR_14": 4.0, "Q_14": 4.0, "name": "THE LODGE HEALTH AND REHABILITATION CENTER", "SF_14": 4.0, "SF_15": 3.0, "cnty": "Marion", "st": "FL", "Zip": 34471.0, "O_14": 4.0, "Q_15": 3.0, "O_15": 4.0, "city": "OCALA", "beds": 99.0, "SR_15": 4.0}, {"Diff_star": -1.0, "addr": "1000 24TH ST N", "SR_14": 2.0, "Q_14": 5.0, "name": "APOLLO HEALTH AND REHABILITATION CENTER", "SF_14": 4.0, "SF_15": 4.0, "cnty": "Pinellas", "st": "FL", "Zip": 33713.0, "O_14": 4.0, "Q_15": 4.0, "O_15": 3.0, "city": "SAINT PETERSBURG", "beds": 99.0, "SR_15": 2.0}, {"Diff_star": -1.0, "addr": "2121 E COMMERCIAL BLVD", "SR_14": 3.0, "Q_14": 5.0, "name": "MANOR OAKS NURSING & REHABILITATION CENTER", "SF_14": 4.0, "SF_15": 4.0, "cnty": "Broward", "st": "FL", "Zip": 33308.0, "O_14": 5.0, "Q_15": 2.0, "O_15": 4.0, "city": "FORT LAUDERDALE", "beds": 116.0, "SR_15": 3.0}, {"Diff_star": -1.0, "addr": "1415 S HICKORY ST", "SR_14": 1.0, "Q_14": 3.0, "name": "WAVE CREST HEALTH AND REHABILITATION CENTER", "SF_14": 4.0, "SF_15": 4.0, "cnty": "Brevard", "st": "FL", "Zip": 32901.0, "O_14": 2.0, "Q_15": 1.0, "O_15": 1.0, "city": "MELBOURNE", "beds": 138.0, "SR_15": 1.0}, {"Diff_star": -1.0, "addr": "210 N 2ND ST", "SR_14": 4.0, "Q_14": 2.0, "name": "W FRANK WELLS NURSING HOME", "SF_14": 4.0, "SF_15": 4.0, "cnty": "Baker", "st": "FL", "Zip": 32063.0, "O_14": 4.0, "Q_15": 1.0, "O_15": 3.0, "city": "MACCLENNY", "beds": 60.0, "SR_15": 4.0}, {"Diff_star": -1.0, "addr": "2201 NE 170TH STREET", "SR_14": 1.0, "Q_14": 4.0, "name": "NORTH BEACH REHABILITATION CENTER", "SF_14": 4.0, "SF_15": 3.0, "cnty": "Miami-Dade", "st": "FL", "Zip": 33160.0, "O_14": 2.0, "Q_15": 3.0, "O_15": 1.0, "city": "NORTH MIAMI BEACH", "beds": 99.0, "SR_15": 1.0}, {"Diff_star": 0.0, "addr": "755 MEADOWS ROAD", "SR_14": 2.0, "Q_14": 5.0, "name": "BOCA RATON REHABILITATION CENTER", "SF_14": 4.0, "SF_15": 4.0, "cnty": "Palm Beach", "st": "FL", "Zip": 33486.0, "O_14": 4.0, "Q_15": 5.0, "O_15": 4.0, "city": "BOCA RATON", "beds": 120.0, "SR_15": 2.0}, {"Diff_star": -1.0, "addr": "9820 N KENDALL DRIVE", "SR_14": 3.0, "Q_14": 5.0, "name": "HARMONY HEALTH CENTER", "SF_14": 2.0, "SF_15": 2.0, "cnty": "Miami-Dade", "st": "FL", "Zip": 33176.0, "O_14": 4.0, "Q_15": 2.0, "O_15": 3.0, "city": "MIAMI", "beds": 203.0, "SR_15": 3.0}, {"Diff_star": 0.0, "addr": "3127 57TH AVE N", "SR_14": 1.0, "Q_14": 1.0, "name": "LAURELLWOOD NURSING CENTER", "SF_14": 4.0, "SF_15": 4.0, "cnty": "Pinellas", "st": "FL", "Zip": 33714.0, "O_14": 1.0, "Q_15": 1.0, "O_15": 1.0, "city": "SAINT PETERSBURG", "beds": 60.0, "SR_15": 1.0}, {"Diff_star": 0.0, "addr": "42 COLLINS AVENUE", "SR_14": 5.0, "Q_14": 5.0, "name": "SOUTH POINTE PLAZA REHABILITATION AND NURSING CENT", "SF_14": 4.0, "SF_15": 4.0, "cnty": "Miami-Dade", "st": "FL", "Zip": 33139.0, "O_14": 5.0, "Q_15": 4.0, "O_15": 5.0, "city": "MIAMI BEACH", "beds": 230.0, "SR_15": 5.0}, {"Diff_star": 0.0, "addr": "1050 NE 125TH STREET", "SR_14": 2.0, "Q_14": 5.0, "name": "VILLA MARIA NURSING CENTER", "SF_14": 4.0, "SF_15": 3.0, "cnty": "Miami-Dade", "st": "FL", "Zip": 33161.0, "O_14": 4.0, "Q_15": 5.0, "O_15": 4.0, "city": "NORTH MIAMI", "beds": 212.0, "SR_15": 3.0}, {"Diff_star": -1.0, "addr": "4411 N HABANA AVE", "SR_14": 1.0, "Q_14": 5.0, "name": "REHABILITATION AND HEALTHCARE CENTER OF TAMPA", "SF_14": 3.0, "SF_15": 3.0, "cnty": "Hillsborough", "st": "FL", "Zip": 33614.0, "O_14": 2.0, "Q_15": 3.0, "O_15": 1.0, "city": "TAMPA", "beds": 174.0, "SR_15": 1.0}, {"Diff_star": 0.0, "addr": "7751 W BROWARD BLVD", "SR_14": 3.0, "Q_14": 5.0, "name": "WEST BROWARD REHABILITATION AND HEALTHCARE", "SF_14": 4.0, "SF_15": 4.0, "cnty": "Broward", "st": "FL", "Zip": 33324.0, "O_14": 5.0, "Q_15": 5.0, "O_15": 5.0, "city": "PLANTATION", "beds": 120.0, "SR_15": 3.0}, {"Diff_star": 0.0, "addr": "2826 CLEVELAND AVE", "SR_14": 1.0, "Q_14": 4.0, "name": "HERITAGE PARK REHABILITATION AND HEALTHCARE", "SF_14": 2.0, "SF_15": 2.0, "cnty": "Lee", "st": "FL", "Zip": 33901.0, "O_14": 1.0, "Q_15": 2.0, "O_15": 1.0, "city": "FORT MYERS", "beds": 120.0, "SR_15": 1.0}, {"Diff_star": -1.0, "addr": "3500 OAK MANOR LANE", "SR_14": 4.0, "Q_14": 5.0, "name": "OAK MANOR HEALTHCARE & REHABILITATION CENTER", "SF_14": 4.0, "SF_15": 4.0, "cnty": "Pinellas", "st": "FL", "Zip": 34641.0, "O_14": 5.0, "Q_15": 3.0, "O_15": 4.0, "city": "LARGO", "beds": 180.0, "SR_15": 4.0}, {"Diff_star": 0.0, "addr": "1775 HUNTINGTON LANE", "SR_14": 1.0, "Q_14": 4.0, "name": "HUNTINGTON PLACE", "SF_14": 4.0, "SF_15": 4.0, "cnty": "Brevard", "st": "FL", "Zip": 32955.0, "O_14": 2.0, "Q_15": 2.0, "O_15": 2.0, "city": "ROCKLEDGE", "beds": 100.0, "SR_15": 1.0}, {"Diff_star": -1.0, "addr": "587 BARTON BLVD", "SR_14": 2.0, "Q_14": 3.0, "name": "ROCKLEDGE HEALTH AND REHABILITATION CENTER", "SF_14": 4.0, "SF_15": 4.0, "cnty": "Brevard", "st": "FL", "Zip": 32955.0, "O_14": 3.0, "Q_15": 1.0, "O_15": 2.0, "city": "ROCKLEDGE", "beds": 107.0, "SR_15": 2.0}, {"Diff_star": 0.0, "addr": "19590 OLD CUTLER ROAD", "SR_14": 1.0, "Q_14": 4.0, "name": "JACKSON MEMORIAL PERDUE MEDICAL CENTER", "SF_14": 5.0, "SF_15": 5.0, "cnty": "Miami-Dade", "st": "FL", "Zip": 33157.0, "O_14": 2.0, "Q_15": 2.0, "O_15": 2.0, "city": "CUTLER BAY", "beds": 163.0, "SR_15": 1.0}, {"Diff_star": 0.0, "addr": "830 LAKESIDE CIRCLE", "SR_14": 3.0, "Q_14": 5.0, "name": "JOHN KNOX VILLAGE HEALTH CENTER-POMPANO BEACH", "SF_14": 4.0, "SF_15": 4.0, "cnty": "Broward", "st": "FL", "Zip": 33060.0, "O_14": 5.0, "Q_15": 5.0, "O_15": 5.0, "city": "POMPANO BEACH", "beds": 177.0, "SR_15": 3.0}, {"Diff_star": 0.0, "addr": "611 S 13TH STREET", "SR_14": 1.0, "Q_14": 4.0, "name": "FORT PIERCE HEALTH CARE", "SF_14": 3.0, "SF_15": 3.0, "cnty": "St. Lucie", "st": "FL", "Zip": 34950.0, "O_14": 1.0, "Q_15": 2.0, "O_15": 1.0, "city": "FORT PIERCE", "beds": 171.0, "SR_15": 1.0}, {"Diff_star": -1.0, "addr": "2401 NE 2ND STREET", "SR_14": 3.0, "Q_14": 5.0, "name": "SEAVIEW NURSING AND REHABILITATION CENTER", "SF_14": 2.0, "SF_15": 2.0, "cnty": "Broward", "st": "FL", "Zip": 33062.0, "O_14": 4.0, "Q_15": 3.0, "O_15": 3.0, "city": "POMPANO BEACH", "beds": 83.0, "SR_15": 3.0}, {"Diff_star": -2.0, "addr": "1710 LAKE WORTH ROAD", "SR_14": 3.0, "Q_14": 5.0, "name": "MEDICANA NURSING AND REHAB CENTER", "SF_14": 4.0, "SF_15": 3.0, "cnty": "Palm Beach", "st": "FL", "Zip": 33460.0, "O_14": 5.0, "Q_15": 4.0, "O_15": 3.0, "city": "LAKE WORTH", "beds": 116.0, "SR_15": 3.0}, {"Diff_star": -1.0, "addr": "545 WEST EUCLID AVENUE", "SR_14": 2.0, "Q_14": 5.0, "name": "UNIVERSITY CENTER WEST", "SF_14": 4.0, "SF_15": 4.0, "cnty": "Volusia", "st": "FL", "Zip": 32720.0, "O_14": 4.0, "Q_15": 2.0, "O_15": 3.0, "city": "DELAND", "beds": 55.0, "SR_15": 2.0}, {"Diff_star": 0.0, "addr": "991 E NEW YORK AVE", "SR_14": 4.0, "Q_14": 5.0, "name": "UNIVERSITY CENTER EAST", "SF_14": 5.0, "SF_15": 5.0, "cnty": "Volusia", "st": "FL", "Zip": 32724.0, "O_14": 5.0, "Q_15": 5.0, "O_15": 5.0, "city": "DELAND", "beds": 56.0, "SR_15": 4.0}, {"Diff_star": 0.0, "addr": "114 THIRD STREET SE", "SR_14": 3.0, "Q_14": 5.0, "name": "EMERALD COAST CENTER", "SF_14": 3.0, "SF_15": 3.0, "cnty": "Okaloosa", "st": "FL", "Zip": 32548.0, "O_14": 4.0, "Q_15": 5.0, "O_15": 4.0, "city": "FORT WALTON BEACH", "beds": 120.0, "SR_15": 3.0}, {"Diff_star": 0.0, "addr": "4343 LANGLEY AVENUE", "SR_14": 5.0, "Q_14": 4.0, "name": "BAYSIDE HEALTH AND REHABILITATION CENTER", "SF_14": 4.0, "SF_15": 4.0, "cnty": "Escambia", "st": "FL", "Zip": 32504.0, "O_14": 5.0, "Q_15": 2.0, "O_15": 5.0, "city": "PENSACOLA", "beds": 120.0, "SR_15": 5.0}, {"Diff_star": 0.0, "addr": "2501 N AUSTRALIAN AVENUE", "SR_14": 1.0, "Q_14": 5.0, "name": "LAKESIDE HEALTH CENTER", "SF_14": 4.0, "SF_15": 4.0, "cnty": "Palm Beach", "st": "FL", "Zip": 33407.0, "O_14": 2.0, "Q_15": 5.0, "O_15": 2.0, "city": "WEST PALM BEACH", "beds": 107.0, "SR_15": 1.0}, {"Diff_star": -1.0, "addr": "512 S 11TH ST", "SR_14": 3.0, "Q_14": 5.0, "name": "GROVES CENTER", "SF_14": 2.0, "SF_15": 2.0, "cnty": "Polk", "st": "FL", "Zip": 33853.0, "O_14": 4.0, "Q_15": 4.0, "O_15": 3.0, "city": "LAKE WALES", "beds": 120.0, "SR_15": 3.0}, {"Diff_star": -1.0, "addr": "1414 59TH ST S", "SR_14": 3.0, "Q_14": 4.0, "name": "BOCA CIEGA CENTER", "SF_14": 4.0, "SF_15": 3.0, "cnty": "Pinellas", "st": "FL", "Zip": 33707.0, "O_14": 4.0, "Q_15": 3.0, "O_15": 3.0, "city": "GULFPORT", "beds": 115.0, "SR_15": 3.0}, {"Diff_star": -2.0, "addr": "1270 TURNER ST", "SR_14": 3.0, "Q_14": 5.0, "name": "CLEARWATER CENTER", "SF_14": 4.0, "SF_15": 3.0, "cnty": "Pinellas", "st": "FL", "Zip": 33756.0, "O_14": 5.0, "Q_15": 4.0, "O_15": 3.0, "city": "CLEARWATER", "beds": 109.0, "SR_15": 3.0}, {"Diff_star": -1.0, "addr": "6140 CONGRESS ST", "SR_14": 4.0, "Q_14": 5.0, "name": "SOUTHERN PINES HEALTHCARE CENTER", "SF_14": 2.0, "SF_15": 2.0, "cnty": "Pasco", "st": "FL", "Zip": 34653.0, "O_14": 5.0, "Q_15": 4.0, "O_15": 4.0, "city": "NEW PORT RICHEY", "beds": 120.0, "SR_15": 4.0}, {"Diff_star": 1.0, "addr": "1500 SE PALM BEACH RD", "SR_14": 1.0, "Q_14": 4.0, "name": "STUART NURSING & RESTORATIVE CARE CENTER", "SF_14": 4.0, "SF_15": 4.0, "cnty": "Martin", "st": "FL", "Zip": 34994.0, "O_14": 2.0, "Q_15": 3.0, "O_15": 3.0, "city": "STUART", "beds": 120.0, "SR_15": 2.0}, {"Diff_star": -1.0, "addr": "515 CHESAPEAKE DR", "SR_14": 3.0, "Q_14": 5.0, "name": "TARPON BAYOU CENTER", "SF_14": 4.0, "SF_15": 3.0, "cnty": "Pinellas", "st": "FL", "Zip": 34689.0, "O_14": 5.0, "Q_15": 5.0, "O_15": 4.0, "city": "TARPON SPRINGS", "beds": 114.0, "SR_15": 3.0}, {"Diff_star": -1.0, "addr": "4679 CRAWFORDVILLE HWY", "SR_14": 1.0, "Q_14": 5.0, "name": "EDEN SPRINGS NURSING AND REHAB CENTER", "SF_14": 3.0, "SF_15": 3.0, "cnty": "Wakulla", "st": "FL", "Zip": 32326.0, "O_14": 2.0, "Q_15": 4.0, "O_15": 1.0, "city": "CRAWFORDVILLE", "beds": 120.0, "SR_15": 1.0}, {"Diff_star": -2.0, "addr": "610 E BELLA VISTA DR", "SR_14": 2.0, "Q_14": 5.0, "name": "LAKELAND HILLS CENTER", "SF_14": 4.0, "SF_15": 4.0, "cnty": "Polk", "st": "FL", "Zip": 33805.0, "O_14": 4.0, "Q_15": 5.0, "O_15": 2.0, "city": "LAKELAND", "beds": 120.0, "SR_15": 1.0}, {"Diff_star": 0.0, "addr": "1336 ST ANDREWS BLVD", "SR_14": 2.0, "Q_14": 4.0, "name": "BAY CENTER", "SF_14": 2.0, "SF_15": 2.0, "cnty": "Bay", "st": "FL", "Zip": 32405.0, "O_14": 2.0, "Q_15": 4.0, "O_15": 2.0, "city": "PANAMA CITY", "beds": 160.0, "SR_15": 2.0}, {"Diff_star": 0.0, "addr": "2055 E GEORGIA ST", "SR_14": 2.0, "Q_14": 5.0, "name": "BARTOW CENTER", "SF_14": 1.0, "SF_15": 1.0, "cnty": "Polk", "st": "FL", "Zip": 33830.0, "O_14": 2.0, "Q_15": 5.0, "O_15": 2.0, "city": "BARTOW", "beds": 120.0, "SR_15": 2.0}, {"Diff_star": -2.0, "addr": "2061 HYDE PARK RD", "SR_14": 2.0, "Q_14": 5.0, "name": "SIGNATURE HEALTHCARE OF JACKSONVILLE", "SF_14": 4.0, "SF_15": 3.0, "cnty": "Duval", "st": "FL", "Zip": 32210.0, "O_14": 4.0, "Q_15": 4.0, "O_15": 2.0, "city": "JACKSONVILLE", "beds": 180.0, "SR_15": 2.0}, {"Diff_star": 0.0, "addr": "450 SHREVE STREET", "SR_14": 1.0, "Q_14": 5.0, "name": "LIFE CARE CENTER OF PUNTA GORDA", "SF_14": 3.0, "SF_15": 3.0, "cnty": "Charlotte", "st": "FL", "Zip": 33950.0, "O_14": 2.0, "Q_15": 5.0, "O_15": 2.0, "city": "PUNTA GORDA", "beds": 180.0, "SR_15": 1.0}, {"Diff_star": -1.0, "addr": "606 E SHERIDAN RD", "SR_14": 4.0, "Q_14": 5.0, "name": "LIFE CARE CENTER OF MELBOURNE", "SF_14": 3.0, "SF_15": 3.0, "cnty": "Brevard", "st": "FL", "Zip": 32901.0, "O_14": 5.0, "Q_15": 4.0, "O_15": 4.0, "city": "MELBOURNE", "beds": 120.0, "SR_15": 4.0}, {"Diff_star": 0.0, "addr": "1100 66TH ST N", "SR_14": 2.0, "Q_14": 5.0, "name": "EAGLE LAKE REHAB & CARE CENTER", "SF_14": 2.0, "SF_15": 2.0, "cnty": "Pinellas", "st": "FL", "Zip": 33710.0, "O_14": 3.0, "Q_15": 5.0, "O_15": 3.0, "city": "SAINT PETERSBURG", "beds": 59.0, "SR_15": 2.0}, {"Diff_star": -2.0, "addr": "550 62ND ST S", "SR_14": 2.0, "Q_14": 5.0, "name": "EGRET COVE CENTER", "SF_14": 3.0, "SF_15": 3.0, "cnty": "Pinellas", "st": "FL", "Zip": 33707.0, "O_14": 3.0, "Q_15": 4.0, "O_15": 1.0, "city": "SAINT PETERSBURG", "beds": 120.0, "SR_15": 1.0}, {"Diff_star": -1.0, "addr": "1 LBJ SR DRIVE", "SR_14": 3.0, "Q_14": 4.0, "name": "FORT WALTON REHABILITATION CENTER, LLC", "SF_14": 4.0, "SF_15": 4.0, "cnty": "Okaloosa", "st": "FL", "Zip": 32547.0, "O_14": 4.0, "Q_15": 1.0, "O_15": 3.0, "city": "FORT WALTON BEACH", "beds": 120.0, "SR_15": 3.0}, {"Diff_star": 0.0, "addr": "440 PHIPPEN WAITERS ROAD", "SR_14": 4.0, "Q_14": 5.0, "name": "CROSS POINTE CARE CENTER", "SF_14": 5.0, "SF_15": 5.0, "cnty": "Broward", "st": "FL", "Zip": 33004.0, "O_14": 5.0, "Q_15": 3.0, "O_15": 5.0, "city": "DANIA BEACH", "beds": 88.0, "SR_15": 4.0}, {"Diff_star": -1.0, "addr": "1114 CHATMAN BLVD", "SR_14": 4.0, "Q_14": 5.0, "name": "BROOKSVILLE HEALTHCARE CENTER", "SF_14": 2.0, "SF_15": 2.0, "cnty": "Hernando", "st": "FL", "Zip": 34601.0, "O_14": 5.0, "Q_15": 4.0, "O_15": 4.0, "city": "BROOKSVILLE", "beds": 180.0, "SR_15": 4.0}, {"Diff_star": -1.0, "addr": "2000 EAST COMMERCIAL BLVD", "SR_14": 4.0, "Q_14": 5.0, "name": "FT LAUDERDALE HEALTH & REHABILITATION CENTER", "SF_14": 4.0, "SF_15": 4.0, "cnty": "Broward", "st": "FL", "Zip": 33308.0, "O_14": 5.0, "Q_15": 3.0, "O_15": 4.0, "city": "FORT LAUDERDALE", "beds": 155.0, "SR_15": 4.0}, {"Diff_star": 0.0, "addr": "1514 E CHELSEA ST", "SR_14": 2.0, "Q_14": 5.0, "name": "WHISPERING OAKS", "SF_14": 4.0, "SF_15": 3.0, "cnty": "Hillsborough", "st": "FL", "Zip": 33610.0, "O_14": 4.0, "Q_15": 5.0, "O_15": 4.0, "city": "TAMPA", "beds": 236.0, "SR_15": 3.0}, {"Diff_star": -1.0, "addr": "9555 SE FEDERAL HWY", "SR_14": 4.0, "Q_14": 4.0, "name": "EDGEWATER MANOR", "SF_14": 4.0, "SF_15": 3.0, "cnty": "Martin", "st": "FL", "Zip": 33455.0, "O_14": 4.0, "Q_15": 2.0, "O_15": 3.0, "city": "HOBE SOUND", "beds": 120.0, "SR_15": 3.0}, {"Diff_star": -1.0, "addr": "1350 SLEEPY HILL RD", "SR_14": 3.0, "Q_14": 4.0, "name": "VALENCIA HILLS HEALTH AND REHABILITATION CENTER", "SF_14": 4.0, "SF_15": 4.0, "cnty": "Polk", "st": "FL", "Zip": 33810.0, "O_14": 4.0, "Q_15": 1.0, "O_15": 3.0, "city": "LAKELAND", "beds": 300.0, "SR_15": 3.0}, {"Diff_star": 0.0, "addr": "919 OLD WINTER HAVEN RD", "SR_14": 1.0, "Q_14": 4.0, "name": "ORCHARD PARK HEALTH AND REHABILITATION", "SF_14": 3.0, "SF_15": 3.0, "cnty": "Polk", "st": "FL", "Zip": 33823.0, "O_14": 1.0, "Q_15": 2.0, "O_15": 1.0, "city": "AUBURNDALE", "beds": 120.0, "SR_15": 1.0}, {"Diff_star": -1.0, "addr": "2000 EDGEWOOD AVE", "SR_14": 3.0, "Q_14": 5.0, "name": "AVANTE AT LEESBURG, INC", "SF_14": 4.0, "SF_15": 3.0, "cnty": "Lake", "st": "FL", "Zip": 34748.0, "O_14": 5.0, "Q_15": 5.0, "O_15": 4.0, "city": "LEESBURG", "beds": 116.0, "SR_15": 3.0}, {"Diff_star": 0.0, "addr": "13806 N 46TH ST", "SR_14": 2.0, "Q_14": 4.0, "name": "FAIRWAY OAKS CENTER", "SF_14": 3.0, "SF_15": 3.0, "cnty": "Hillsborough", "st": "FL", "Zip": 33613.0, "O_14": 2.0, "Q_15": 3.0, "O_15": 2.0, "city": "TAMPA", "beds": 120.0, "SR_15": 2.0}, {"Diff_star": 0.0, "addr": "2075 LOCH LOMOND DRIVE", "SR_14": 3.0, "Q_14": 5.0, "name": "MANOR CARE NURSING & REHABILITATION CENTER", "SF_14": 3.0, "SF_15": 3.0, "cnty": "Orange", "st": "FL", "Zip": 32792.0, "O_14": 4.0, "Q_15": 5.0, "O_15": 4.0, "city": "WINTER PARK", "beds": 112.0, "SR_15": 3.0}, {"Diff_star": 0.0, "addr": "304 S CITRUS AVE", "SR_14": 5.0, "Q_14": 5.0, "name": "AVANTE AT INVERNESS INC", "SF_14": 2.0, "SF_15": 2.0, "cnty": "Citrus", "st": "FL", "Zip": 34452.0, "O_14": 5.0, "Q_15": 4.0, "O_15": 5.0, "city": "INVERNESS", "beds": 104.0, "SR_15": 5.0}, {"Diff_star": 0.0, "addr": "170 N KINGS ROAD", "SR_14": 1.0, "Q_14": 4.0, "name": "AVANTE AT ORMOND BEACH, INC", "SF_14": 1.0, "SF_15": 1.0, "cnty": "Volusia", "st": "FL", "Zip": 32174.0, "O_14": 1.0, "Q_15": 2.0, "O_15": 1.0, "city": "ORMOND BEACH", "beds": 133.0, "SR_15": 2.0}, {"Diff_star": -1.0, "addr": "1055 3RD STREET", "SR_14": 1.0, "Q_14": 5.0, "name": "DAYTONA BEACH HEALTH AND REHABILITATION CENTER", "SF_14": 4.0, "SF_15": 3.0, "cnty": "Volusia", "st": "FL", "Zip": 32117.0, "O_14": 2.0, "Q_15": 3.0, "O_15": 1.0, "city": "DAYTONA BEACH", "beds": 180.0, "SR_15": 1.0}, {"Diff_star": 0.0, "addr": "51 SUNRISE BLVD", "SR_14": 3.0, "Q_14": 4.0, "name": "ST AUGUSTINE HEALTH AND REHABILITATION CENTER", "SF_14": 2.0, "SF_15": 2.0, "cnty": "St. Johns", "st": "FL", "Zip": 32084.0, "O_14": 3.0, "Q_15": 2.0, "O_15": 3.0, "city": "SAINT AUGUSTINE", "beds": 120.0, "SR_15": 3.0}, {"Diff_star": -1.0, "addr": "136 NORTHEAST 12TH AVENUE", "SR_14": 3.0, "Q_14": 5.0, "name": "CRYSTAL RIVER HEALTH AND REHABILITATION CENTER", "SF_14": 3.0, "SF_15": 3.0, "cnty": "Citrus", "st": "FL", "Zip": 34429.0, "O_14": 4.0, "Q_15": 4.0, "O_15": 3.0, "city": "CRYSTAL RIVER", "beds": 150.0, "SR_15": 3.0}, {"Diff_star": 0.0, "addr": "105 TRINITY LAKES DR", "SR_14": 4.0, "Q_14": 5.0, "name": "SUN TERRACE HEALTH CARE CENTER", "SF_14": 5.0, "SF_15": 5.0, "cnty": "Hillsborough", "st": "FL", "Zip": 33573.0, "O_14": 5.0, "Q_15": 4.0, "O_15": 5.0, "city": "SUN CITY CENTER", "beds": 109.0, "SR_15": 4.0}, {"Diff_star": 0.0, "addr": "37135 COLEMAN AVE", "SR_14": 3.0, "Q_14": 3.0, "name": "HERITAGE PARK HEALTH AND REHABILITATION CENTER", "SF_14": 4.0, "SF_15": 4.0, "cnty": "Pasco", "st": "FL", "Zip": 33525.0, "O_14": 4.0, "Q_15": 2.0, "O_15": 4.0, "city": "DADE CITY", "beds": 120.0, "SR_15": 3.0}, {"Diff_star": -1.0, "addr": "1201 SE 24TH RD", "SR_14": 5.0, "Q_14": 5.0, "name": "OCALA HEALTH AND REHABILITATION CENTER", "SF_14": 1.0, "SF_15": 1.0, "cnty": "Marion", "st": "FL", "Zip": 34471.0, "O_14": 5.0, "Q_15": 3.0, "O_15": 4.0, "city": "OCALA", "beds": 180.0, "SR_15": 5.0}, {"Diff_star": 2.0, "addr": "420 BAY AVE", "SR_14": 1.0, "Q_14": 5.0, "name": "OAKS OF CLEARWATER, THE", "SF_14": 4.0, "SF_15": 4.0, "cnty": "Pinellas", "st": "FL", "Zip": 33756.0, "O_14": 2.0, "Q_15": 5.0, "O_15": 4.0, "city": "CLEARWATER", "beds": 60.0, "SR_15": 2.0}, {"Diff_star": -1.0, "addr": "301 S BAY ST", "SR_14": 3.0, "Q_14": 3.0, "name": "BAYVIEW CENTER", "SF_14": 3.0, "SF_15": 3.0, "cnty": "Lake", "st": "FL", "Zip": 32726.0, "O_14": 3.0, "Q_15": 1.0, "O_15": 2.0, "city": "EUSTIS", "beds": 120.0, "SR_15": 3.0}, {"Diff_star": -1.0, "addr": "125 ALMA BLVD", "SR_14": 1.0, "Q_14": 2.0, "name": "ISLAND HEALTH AND REHABILITATION CENTER", "SF_14": 4.0, "SF_15": 4.0, "cnty": "Brevard", "st": "FL", "Zip": 32953.0, "O_14": 2.0, "Q_15": 1.0, "O_15": 1.0, "city": "MERRITT ISLAND", "beds": 120.0, "SR_15": 1.0}, {"Diff_star": 0.0, "addr": "3501 BAYSHORE BLVD", "SR_14": 5.0, "Q_14": 4.0, "name": "CANTERBURY TOWERS INC", "SF_14": 4.0, "SF_15": 4.0, "cnty": "Hillsborough", "st": "FL", "Zip": 33629.0, "O_14": 5.0, "Q_15": 3.0, "O_15": 5.0, "city": "TAMPA", "beds": 60.0, "SR_15": 5.0}, {"Diff_star": 0.0, "addr": "1902 59TH ST W", "SR_14": 1.0, "Q_14": 5.0, "name": "CASA MORA REHABILITATION AND EXTENDED CARE", "SF_14": 4.0, "SF_15": 4.0, "cnty": "Manatee", "st": "FL", "Zip": 34209.0, "O_14": 2.0, "Q_15": 4.0, "O_15": 2.0, "city": "BRADENTON", "beds": 240.0, "SR_15": 1.0}, {"Diff_star": 0.0, "addr": "5386 BROAD ST", "SR_14": 4.0, "Q_14": 4.0, "name": "SANTA ROSA HEALTH & REHABILITATION CENTER", "SF_14": 4.0, "SF_15": 3.0, "cnty": "Santa Rosa", "st": "FL", "Zip": 32570.0, "O_14": 4.0, "Q_15": 2.0, "O_15": 4.0, "city": "MILTON", "beds": 110.0, "SR_15": 4.0}, {"Diff_star": 0.0, "addr": "550 9TH STREET", "SR_14": 2.0, "Q_14": 5.0, "name": "OCEANSIDE EXTENDED CARE CENTER", "SF_14": 3.0, "SF_15": "", "cnty": "Miami-Dade", "st": "FL", "Zip": 33139.0, "O_14": 3.0, "Q_15": 5.0, "O_15": 3.0, "city": "MIAMI BEACH", "beds": 196.0, "SR_15": 2.0}, {"Diff_star": -1.0, "addr": "1800 N E 168TH STREET", "SR_14": 2.0, "Q_14": 5.0, "name": "AVENTURA PLAZA REHABILITATION & NURSING CENTER", "SF_14": 5.0, "SF_15": 5.0, "cnty": "Miami-Dade", "st": "FL", "Zip": 33162.0, "O_14": 4.0, "Q_15": 3.0, "O_15": 3.0, "city": "NORTH MIAMI BEACH", "beds": 86.0, "SR_15": 2.0}, {"Diff_star": 0.0, "addr": "2970 SCARLETT RD", "SR_14": 4.0, "Q_14": 4.0, "name": "WINTER PARK CARE & REHABILITATION CENTER", "SF_14": 3.0, "SF_15": 3.0, "cnty": "Orange", "st": "FL", "Zip": 32792.0, "O_14": 4.0, "Q_15": 2.0, "O_15": 4.0, "city": "WINTER PARK", "beds": 103.0, "SR_15": 4.0}, {"Diff_star": 0.0, "addr": "3050 BROWN AVE", "SR_14": 2.0, "Q_14": 5.0, "name": "AVANTE AT MT DORA, INC", "SF_14": 3.0, "SF_15": 3.0, "cnty": "Lake", "st": "FL", "Zip": 32757.0, "O_14": 3.0, "Q_15": 5.0, "O_15": 3.0, "city": "MOUNT DORA", "beds": 116.0, "SR_15": 2.0}, {"Diff_star": 0.0, "addr": "2105 SW 11TH COURT", "SR_14": 3.0, "Q_14": 4.0, "name": "ABBEY DELRAY", "SF_14": 4.0, "SF_15": 4.0, "cnty": "Palm Beach", "st": "FL", "Zip": 33445.0, "O_14": 4.0, "Q_15": 3.0, "O_15": 4.0, "city": "DELRAY BEACH", "beds": 100.0, "SR_15": 3.0}, {"Diff_star": 0.0, "addr": "3370 NW 47TH TERRACE", "SR_14": 4.0, "Q_14": 5.0, "name": "PALMS REHABILITATION AND NURSING CENTER", "SF_14": 4.0, "SF_15": 3.0, "cnty": "Broward", "st": "FL", "Zip": 33319.0, "O_14": 5.0, "Q_15": 5.0, "O_15": 5.0, "city": "LAUDERDALE LAKES", "beds": 120.0, "SR_15": 5.0}, {"Diff_star": 0.0, "addr": "2629 DEL PRADO BLVD", "SR_14": 3.0, "Q_14": 4.0, "name": "REHAB & HEALTHCARE CENTER OF CAPE CORAL", "SF_14": 4.0, "SF_15": 4.0, "cnty": "Lee", "st": "FL", "Zip": 33904.0, "O_14": 4.0, "Q_15": 2.0, "O_15": 4.0, "city": "CAPE CORAL", "beds": 120.0, "SR_15": 3.0}, {"Diff_star": -1.0, "addr": "6630 KENTUCKY AVE", "SR_14": 3.0, "Q_14": 4.0, "name": "HEATHER HILL HEALTHCARE CENTER", "SF_14": 4.0, "SF_15": 3.0, "cnty": "Pasco", "st": "FL", "Zip": 34653.0, "O_14": 4.0, "Q_15": 2.0, "O_15": 3.0, "city": "NEW PORT RICHEY", "beds": 105.0, "SR_15": 3.0}, {"Diff_star": 0.0, "addr": "1270 SW MAIN BLVD", "SR_14": 1.0, "Q_14": 4.0, "name": "AVALON HEALTHCARE CENTER", "SF_14": 4.0, "SF_15": 4.0, "cnty": "Columbia", "st": "FL", "Zip": 32055.0, "O_14": 2.0, "Q_15": 2.0, "O_15": 2.0, "city": "LAKE CITY", "beds": 95.0, "SR_15": 1.0}, {"Diff_star": -1.0, "addr": "130 W ARMSTRONG AVENUE", "SR_14": 4.0, "Q_14": 3.0, "name": "CENTER FOR HEALTH CARE OF THE ALLIANCE COMMUNITY", "SF_14": 4.0, "SF_15": 3.0, "cnty": "Volusia", "st": "FL", "Zip": 32720.0, "O_14": 4.0, "Q_15": 1.0, "O_15": 3.0, "city": "DELAND", "beds": 130.0, "SR_15": 4.0}, {"Diff_star": -1.0, "addr": "1351 SAN CHRISTOPHER DR", "SR_14": 2.0, "Q_14": 3.0, "name": "CROSS TERRACE REHABILITATION CENTER", "SF_14": 5.0, "SF_15": 5.0, "cnty": "Pinellas", "st": "FL", "Zip": 34698.0, "O_14": 3.0, "Q_15": 1.0, "O_15": 2.0, "city": "DUNEDIN", "beds": 104.0, "SR_15": 2.0}, {"Diff_star": 0.0, "addr": "4100 E FLETCHER AVE", "SR_14": 2.0, "Q_14": 4.0, "name": "JOHN KNOX VILLAGE MED CENTER", "SF_14": 4.0, "SF_15": 4.0, "cnty": "Hillsborough", "st": "FL", "Zip": 33613.0, "O_14": 3.0, "Q_15": 2.0, "O_15": 3.0, "city": "TAMPA", "beds": 163.0, "SR_15": 2.0}, {"Diff_star": -1.0, "addr": "3011 KENILWORTH BLVD", "SR_14": 1.0, "Q_14": 5.0, "name": "KENILWORTH CARE & REHABILITATION CENTER", "SF_14": 3.0, "SF_15": 3.0, "cnty": "Highlands", "st": "FL", "Zip": 33870.0, "O_14": 2.0, "Q_15": 3.0, "O_15": 1.0, "city": "SEBRING", "beds": 104.0, "SR_15": 1.0}, {"Diff_star": 0.0, "addr": "3355 E SEMORAN BLVD", "SR_14": 2.0, "Q_14": 4.0, "name": "FLORIDA LIVING NURSING CENTER", "SF_14": 4.0, "SF_15": 4.0, "cnty": "Orange", "st": "FL", "Zip": 32703.0, "O_14": 3.0, "Q_15": 2.0, "O_15": 3.0, "city": "APOPKA", "beds": 202.0, "SR_15": 2.0}, {"Diff_star": -1.0, "addr": "1919 LAKELAND HILLS BLVD", "SR_14": 3.0, "Q_14": 5.0, "name": "PALM TERRACE OF LAKELAND", "SF_14": 5.0, "SF_15": 5.0, "cnty": "Polk", "st": "FL", "Zip": 33805.0, "O_14": 5.0, "Q_15": 4.0, "O_15": 4.0, "city": "LAKELAND", "beds": 185.0, "SR_15": 3.0}, {"Diff_star": -1.0, "addr": "6152 N VERDE TRAIL", "SR_14": 4.0, "Q_14": 5.0, "name": "WILLOWBROOKE COURT AT ST ANDREWS", "SF_14": 4.0, "SF_15": 3.0, "cnty": "Palm Beach", "st": "FL", "Zip": 33433.0, "O_14": 5.0, "Q_15": 4.0, "O_15": 4.0, "city": "BOCA RATON", "beds": 89.0, "SR_15": 4.0}, {"Diff_star": -1.0, "addr": "201 CURTISS PKWY", "SR_14": 2.0, "Q_14": 5.0, "name": "FAIR HAVENS CENTER", "SF_14": 3.0, "SF_15": 3.0, "cnty": "Miami-Dade", "st": "FL", "Zip": 33166.0, "O_14": 3.0, "Q_15": 3.0, "O_15": 2.0, "city": "MIAMI SPRINGS", "beds": 269.0, "SR_15": 2.0}, {"Diff_star": -1.0, "addr": "1750 STOCKTON ST", "SR_14": 3.0, "Q_14": 5.0, "name": "ST CATHERINE LABOURE MANOR, INC", "SF_14": 4.0, "SF_15": 4.0, "cnty": "Duval", "st": "FL", "Zip": 32204.0, "O_14": 5.0, "Q_15": 4.0, "O_15": 4.0, "city": "JACKSONVILLE", "beds": 240.0, "SR_15": 3.0}, {"Diff_star": 0.0, "addr": "7901 NW 88TH AVENUE", "SR_14": 3.0, "Q_14": 5.0, "name": "TAMARAC REHABILITATION AND HEALTH CENTER", "SF_14": 3.0, "SF_15": 3.0, "cnty": "Broward", "st": "FL", "Zip": 33321.0, "O_14": 4.0, "Q_15": 5.0, "O_15": 4.0, "city": "TAMARAC", "beds": 120.0, "SR_15": 3.0}, {"Diff_star": 0.0, "addr": "401 ORANGE PLACE", "SR_14": 5.0, "Q_14": 5.0, "name": "HARDEE MANOR HEALTHCARE CENTER", "SF_14": 4.0, "SF_15": 3.0, "cnty": "Hardee", "st": "FL", "Zip": 33873.0, "O_14": 5.0, "Q_15": 5.0, "O_15": 5.0, "city": "WAUCHULA", "beds": 79.0, "SR_15": 5.0}, {"Diff_star": -1.0, "addr": "4033 BEAVER LANE", "SR_14": 1.0, "Q_14": 5.0, "name": "SIGNATURE HEALTHCARE OF PORT CHARLOTTE", "SF_14": 3.0, "SF_15": 3.0, "cnty": "Charlotte", "st": "FL", "Zip": 33952.0, "O_14": 2.0, "Q_15": 4.0, "O_15": 1.0, "city": "PORT CHARLOTTE", "beds": 164.0, "SR_15": 1.0}, {"Diff_star": -1.0, "addr": "3333 CAPITAL MEDICAL BLVD", "SR_14": 3.0, "Q_14": 4.0, "name": "SEVEN HILLS HEALTH & REHABILITATION CENTER", "SF_14": 3.0, "SF_15": 3.0, "cnty": "Leon", "st": "FL", "Zip": 32308.0, "O_14": 3.0, "Q_15": 1.0, "O_15": 2.0, "city": "TALLAHASSEE", "beds": 156.0, "SR_15": 3.0}, {"Diff_star": 0.0, "addr": "989 ORIENTA AVE", "SR_14": 4.0, "Q_14": 5.0, "name": "LIFE CARE CENTER OF ALTAMONTE SPRINGS", "SF_14": 4.0, "SF_15": 4.0, "cnty": "Seminole", "st": "FL", "Zip": 32701.0, "O_14": 5.0, "Q_15": 5.0, "O_15": 5.0, "city": "ALTAMONTE SPRINGS", "beds": 240.0, "SR_15": 4.0}, {"Diff_star": -1.0, "addr": "3648 UNIVERSITY BLVD S", "SR_14": 2.0, "Q_14": 2.0, "name": "HEARTLAND HEALTH CARE CENTER OF SOUTH JACKSONVILLE", "SF_14": 4.0, "SF_15": 4.0, "cnty": "Duval", "st": "FL", "Zip": 32216.0, "O_14": 3.0, "Q_15": 1.0, "O_15": 2.0, "city": "JACKSONVILLE", "beds": 117.0, "SR_15": 2.0}, {"Diff_star": -1.0, "addr": "3075 NW 35TH AVE", "SR_14": 2.0, "Q_14": 5.0, "name": "ST JOHNS NURSING CENTER", "SF_14": 4.0, "SF_15": 3.0, "cnty": "Broward", "st": "FL", "Zip": 33311.0, "O_14": 4.0, "Q_15": 5.0, "O_15": 3.0, "city": "LAUDERDALE LAKES", "beds": 181.0, "SR_15": 2.0}, {"Diff_star": 0.0, "addr": "2501 N A ST", "SR_14": 1.0, "Q_14": 5.0, "name": "AVANTE AT LAKE WORTH, INC.", "SF_14": 3.0, "SF_15": 3.0, "cnty": "Palm Beach", "st": "FL", "Zip": 33460.0, "O_14": 2.0, "Q_15": 5.0, "O_15": 2.0, "city": "LAKE WORTH", "beds": 138.0, "SR_15": 1.0}, {"Diff_star": -1.0, "addr": "1980 SUNSET POINT RD", "SR_14": 3.0, "Q_14": 5.0, "name": "SUNSET POINT", "SF_14": 3.0, "SF_15": 3.0, "cnty": "Pinellas", "st": "FL", "Zip": 33765.0, "O_14": 4.0, "Q_15": 3.0, "O_15": 3.0, "city": "CLEARWATER", "beds": 120.0, "SR_15": 3.0}, {"Diff_star": 0.0, "addr": "901 VETERAN'S MEMORIAL PARKWAY", "SR_14": 3.0, "Q_14": 4.0, "name": "MAJESTIC OAKS", "SF_14": 3.0, "SF_15": 3.0, "cnty": "Volusia", "st": "FL", "Zip": 32763.0, "O_14": 3.0, "Q_15": 3.0, "O_15": 3.0, "city": "ORANGE CITY", "beds": 150.0, "SR_15": 3.0}, {"Diff_star": 0.0, "addr": "715 E DIXIE AVE", "SR_14": 1.0, "Q_14": 5.0, "name": "SOUTH CAMPUS REHABILITATION AND NURSING CENTER", "SF_14": 4.0, "SF_15": 4.0, "cnty": "Lake", "st": "FL", "Zip": 34748.0, "O_14": 2.0, "Q_15": 3.0, "O_15": 2.0, "city": "LEESBURG", "beds": 104.0, "SR_15": 1.0}, {"Diff_star": 0.0, "addr": "2125 WEST NEW HAVEN AVE", "SR_14": 1.0, "Q_14": 4.0, "name": "WEST MELBOURNE HEALTH & REHABILITATION CENTER", "SF_14": 3.0, "SF_15": 3.0, "cnty": "Brevard", "st": "FL", "Zip": 32904.0, "O_14": 1.0, "Q_15": 1.0, "O_15": 1.0, "city": "WEST MELBOURNE", "beds": 180.0, "SR_15": 1.0}, {"Diff_star": 0.0, "addr": "1520 S GRANT ST", "SR_14": 2.0, "Q_14": 4.0, "name": "LONGWOOD HEALTH AND REHABILITATION CENTER", "SF_14": 4.0, "SF_15": 4.0, "cnty": "Seminole", "st": "FL", "Zip": 32750.0, "O_14": 3.0, "Q_15": 2.0, "O_15": 3.0, "city": "LONGWOOD", "beds": 120.0, "SR_15": 2.0}, {"Diff_star": -1.0, "addr": "2655 NEBRASKA AVE", "SR_14": 3.0, "Q_14": 5.0, "name": "ST MARK VILLAGE", "SF_14": 4.0, "SF_15": 4.0, "cnty": "Pinellas", "st": "FL", "Zip": 34684.0, "O_14": 5.0, "Q_15": 4.0, "O_15": 4.0, "city": "PALM HARBOR", "beds": 80.0, "SR_15": 3.0}, {"Diff_star": 0.0, "addr": "320 N MITCHELL ST", "SR_14": 4.0, "Q_14": 4.0, "name": "OAKS OF KISSIMMEE HEALTH AND REHABILITATION CENTER", "SF_14": 4.0, "SF_15": 4.0, "cnty": "Osceola", "st": "FL", "Zip": 34741.0, "O_14": 4.0, "Q_15": 3.0, "O_15": 4.0, "city": "KISSIMMEE", "beds": 59.0, "SR_15": 4.0}, {"Diff_star": 0.0, "addr": "2029 PROFESSIONAL CENTER DR", "SR_14": 4.0, "Q_14": 5.0, "name": "SIGNATURE HEALTHCARE OF ORANGE PARK", "SF_14": 4.0, "SF_15": 4.0, "cnty": "Clay", "st": "FL", "Zip": 32073.0, "O_14": 5.0, "Q_15": 5.0, "O_15": 5.0, "city": "ORANGE PARK", "beds": 105.0, "SR_15": 4.0}, {"Diff_star": 0.0, "addr": "703 SOUTH 29TH STREET", "SR_14": 1.0, "Q_14": 5.0, "name": "LAUREL POINTE HEALTH AND REHABILITATION", "SF_14": 4.0, "SF_15": 4.0, "cnty": "St. Lucie", "st": "FL", "Zip": 34947.0, "O_14": 2.0, "Q_15": 5.0, "O_15": 2.0, "city": "FORT PIERCE", "beds": 107.0, "SR_15": 1.0}, {"Diff_star": 1.0, "addr": "2525 FIRST ST", "SR_14": 2.0, "Q_14": 5.0, "name": "CALUSA HARBOUR", "SF_14": 3.0, "SF_15": 4.0, "cnty": "Lee", "st": "FL", "Zip": 33901.0, "O_14": 3.0, "Q_15": 4.0, "O_15": 4.0, "city": "FORT MYERS", "beds": 60.0, "SR_15": 3.0}, {"Diff_star": -2.0, "addr": "37300 ROYAL OAK LANE", "SR_14": 3.0, "Q_14": 5.0, "name": "ROYAL OAK NURSING CENTER", "SF_14": 4.0, "SF_15": 3.0, "cnty": "Pasco", "st": "FL", "Zip": 33525.0, "O_14": 5.0, "Q_15": 4.0, "O_15": 3.0, "city": "DADE CITY", "beds": 120.0, "SR_15": 3.0}, {"Diff_star": -1.0, "addr": "13755 GOLF CLUB PKWY", "SR_14": 1.0, "Q_14": 4.0, "name": "SIGNATURE HEALTHCARE AT COLLEGE PARK", "SF_14": 4.0, "SF_15": 3.0, "cnty": "Lee", "st": "FL", "Zip": 33919.0, "O_14": 2.0, "Q_15": 2.0, "O_15": 1.0, "city": "FORT MYERS", "beds": 107.0, "SR_15": 1.0}, {"Diff_star": 0.0, "addr": "3250 12TH ST", "SR_14": 4.0, "Q_14": 5.0, "name": "HEARTLAND HEALTH CARE CENTER - NORTH SARASOTA", "SF_14": 3.0, "SF_15": 3.0, "cnty": "Sarasota", "st": "FL", "Zip": 34237.0, "O_14": 5.0, "Q_15": 5.0, "O_15": 5.0, "city": "SARASOTA", "beds": 87.0, "SR_15": 4.0}, {"Diff_star": 0.0, "addr": "4250 66TH ST N", "SR_14": 1.0, "Q_14": 4.0, "name": "JACARANDA MANOR", "SF_14": 2.0, "SF_15": 2.0, "cnty": "Pinellas", "st": "FL", "Zip": 33709.0, "O_14": 1.0, "Q_15": 2.0, "O_15": 1.0, "city": "SAINT PETERSBURG", "beds": 299.0, "SR_15": 1.0}, {"Diff_star": 0.0, "addr": "1937 JENKS AVE", "SR_14": 3.0, "Q_14": 4.0, "name": "SEA BREEZE HEALTH CARE", "SF_14": 3.0, "SF_15": 3.0, "cnty": "Bay", "st": "FL", "Zip": 32401.0, "O_14": 3.0, "Q_15": 2.0, "O_15": 3.0, "city": "PANAMA CITY", "beds": 120.0, "SR_15": 3.0}, {"Diff_star": 0.0, "addr": "2500 NW 22ND AVE", "SR_14": 2.0, "Q_14": 4.0, "name": "JACKSON MEMORIAL LONG TERM CARE CENTER", "SF_14": 4.0, "SF_15": 4.0, "cnty": "Miami-Dade", "st": "FL", "Zip": 33142.0, "O_14": 3.0, "Q_15": 2.0, "O_15": 3.0, "city": "MIAMI", "beds": 180.0, "SR_15": 2.0}, {"Diff_star": -1.0, "addr": "8041 STATE RD 52 E", "SR_14": 4.0, "Q_14": 5.0, "name": "BEAR CREEK NURSING CENTER", "SF_14": 2.0, "SF_15": 2.0, "cnty": "Pasco", "st": "FL", "Zip": 34667.0, "O_14": 5.0, "Q_15": 4.0, "O_15": 4.0, "city": "HUDSON", "beds": 120.0, "SR_15": 4.0}, {"Diff_star": -1.0, "addr": "2600 HIGHLANDS BLVD N", "SR_14": 2.0, "Q_14": 4.0, "name": "BAY TREE CENTER", "SF_14": 4.0, "SF_15": 3.0, "cnty": "Pinellas", "st": "FL", "Zip": 34684.0, "O_14": 3.0, "Q_15": 2.0, "O_15": 2.0, "city": "PALM HARBOR", "beds": 120.0, "SR_15": 2.0}, {"Diff_star": 0.0, "addr": "1001 MAR-WALT DRIVE", "SR_14": 2.0, "Q_14": 3.0, "name": "WESTWOOD NURSING & REHABILITATION CENTER", "SF_14": 4.0, "SF_15": 4.0, "cnty": "Okaloosa", "st": "FL", "Zip": 32547.0, "O_14": 3.0, "Q_15": 2.0, "O_15": 3.0, "city": "FORT WALTON BEACH", "beds": 60.0, "SR_15": 2.0}, {"Diff_star": 0.0, "addr": "130 MOORINGS PARK DRIVE", "SR_14": 5.0, "Q_14": 4.0, "name": "CHATEAU AT MOORINGS PARK, THE", "SF_14": 4.0, "SF_15": 4.0, "cnty": "Collier", "st": "FL", "Zip": 34105.0, "O_14": 5.0, "Q_15": 3.0, "O_15": 5.0, "city": "NAPLES", "beds": 106.0, "SR_15": 5.0}, {"Diff_star": 0.0, "addr": "7045 EVERGREEN WOODS TRL", "SR_14": 4.0, "Q_14": 4.0, "name": "EVERGREEN WOODS", "SF_14": 4.0, "SF_15": 4.0, "cnty": "Hernando", "st": "FL", "Zip": 34608.0, "O_14": 4.0, "Q_15": 2.0, "O_15": 4.0, "city": "SPRING HILL", "beds": 120.0, "SR_15": 4.0}, {"Diff_star": 0.0, "addr": "7380 ULMERTON RD", "SR_14": 5.0, "Q_14": 4.0, "name": "TIERRA PINES CENTER", "SF_14": 3.0, "SF_15": 3.0, "cnty": "Pinellas", "st": "FL", "Zip": 33771.0, "O_14": 5.0, "Q_15": 3.0, "O_15": 5.0, "city": "LARGO", "beds": 120.0, "SR_15": 5.0}, {"Diff_star": -1.0, "addr": "3663 15TH AVENUE", "SR_14": 2.0, "Q_14": 4.0, "name": "ATLANTIC HEALTHCARE CENTER", "SF_14": 4.0, "SF_15": 3.0, "cnty": "Indian River", "st": "FL", "Zip": 32960.0, "O_14": 3.0, "Q_15": 3.0, "O_15": 2.0, "city": "VERO BEACH", "beds": 110.0, "SR_15": 2.0}, {"Diff_star": 0.0, "addr": "606 NE 7TH ST", "SR_14": 4.0, "Q_14": 5.0, "name": "AYERS HEALTH AND REHABILITATION CENTER", "SF_14": 3.0, "SF_15": 3.0, "cnty": "Gilchrist", "st": "FL", "Zip": 32693.0, "O_14": 5.0, "Q_15": 5.0, "O_15": 5.0, "city": "TRENTON", "beds": 120.0, "SR_15": 4.0}, {"Diff_star": 0.0, "addr": "350 S RIDGEWOOD AVENUE", "SR_14": 5.0, "Q_14": 4.0, "name": "BRIDGEVIEW CENTER", "SF_14": 4.0, "SF_15": 3.0, "cnty": "Volusia", "st": "FL", "Zip": 32174.0, "O_14": 5.0, "Q_15": 4.0, "O_15": 5.0, "city": "ORMOND BEACH", "beds": 139.0, "SR_15": 5.0}, {"Diff_star": 0.0, "addr": "601 UNIVERSE BLVD", "SR_14": 3.0, "Q_14": 5.0, "name": "WATERFORD, THE", "SF_14": 4.0, "SF_15": 4.0, "cnty": "Palm Beach", "st": "FL", "Zip": 33408.0, "O_14": 5.0, "Q_15": 5.0, "O_15": 5.0, "city": "JUNO BEACH", "beds": 60.0, "SR_15": 3.0}, {"Diff_star": 0.0, "addr": "4602 NORTHGATE COURT", "SR_14": 1.0, "Q_14": 3.0, "name": "SPRINGWOOD CENTER", "SF_14": 4.0, "SF_15": 4.0, "cnty": "Sarasota", "st": "FL", "Zip": 34234.0, "O_14": 2.0, "Q_15": 1.0, "O_15": 2.0, "city": "SARASOTA", "beds": 120.0, "SR_15": 2.0}, {"Diff_star": -1.0, "addr": "1735 N TREASURE DRIVE", "SR_14": 3.0, "Q_14": 5.0, "name": "TREASURE ISLE CARE CENTER", "SF_14": 4.0, "SF_15": 4.0, "cnty": "Miami-Dade", "st": "FL", "Zip": 33141.0, "O_14": 5.0, "Q_15": 5.0, "O_15": 4.0, "city": "NORTH BAY VILLAGE", "beds": 176.0, "SR_15": 2.0}, {"Diff_star": 0.0, "addr": "3636 10TH AVE N", "SR_14": 4.0, "Q_14": 5.0, "name": "GOLFVIEW HEALTHCARE CENTER", "SF_14": 4.0, "SF_15": 4.0, "cnty": "Pinellas", "st": "FL", "Zip": 33713.0, "O_14": 5.0, "Q_15": 5.0, "O_15": 5.0, "city": "SAINT PETERSBURG", "beds": 56.0, "SR_15": 4.0}, {"Diff_star": 1.0, "addr": "7300 OLEANDER AVENUE", "SR_14": 2.0, "Q_14": 5.0, "name": "PORT ST LUCIE NURSING AND RESTORATIVE CARE CENTER", "SF_14": 4.0, "SF_15": 5.0, "cnty": "St. Lucie", "st": "FL", "Zip": 34952.0, "O_14": 4.0, "Q_15": 5.0, "O_15": 5.0, "city": "PORT SAINT LUCIE", "beds": 180.0, "SR_15": 3.0}, {"Diff_star": 0.0, "addr": "1717 HOMEWOOD BLVD", "SR_14": 5.0, "Q_14": 5.0, "name": "ABBEY DELRAY SOUTH", "SF_14": 4.0, "SF_15": 4.0, "cnty": "Palm Beach", "st": "FL", "Zip": 33445.0, "O_14": 5.0, "Q_15": 5.0, "O_15": 5.0, "city": "DELRAY BEACH", "beds": 90.0, "SR_15": 3.0}, {"Diff_star": 0.0, "addr": "10800 TEMPLE TERRACE", "SR_14": 3.0, "Q_14": 4.0, "name": "SEMINOLE PAVILION REHABILITATION & NURSING SERVICE", "SF_14": 4.0, "SF_15": 4.0, "cnty": "Pinellas", "st": "FL", "Zip": 33772.0, "O_14": 4.0, "Q_15": 3.0, "O_15": 4.0, "city": "SEMINOLE", "beds": 120.0, "SR_15": 3.0}, {"Diff_star": -1.0, "addr": "1445 HOWELL AVE", "SR_14": 2.0, "Q_14": 5.0, "name": "HERON POINTE HEALTH AND REHABILITATION", "SF_14": 3.0, "SF_15": 3.0, "cnty": "Hernando", "st": "FL", "Zip": 34601.0, "O_14": 3.0, "Q_15": 3.0, "O_15": 2.0, "city": "BROOKSVILLE", "beds": 120.0, "SR_15": 2.0}, {"Diff_star": -1.0, "addr": "741 SOUTH BENEVA ROAD", "SR_14": 2.0, "Q_14": 4.0, "name": "BENEVA LAKES HEALTHCARE AND REHABILITATION CENTER", "SF_14": 2.0, "SF_15": 2.0, "cnty": "Sarasota", "st": "FL", "Zip": 34232.0, "O_14": 2.0, "Q_15": 1.0, "O_15": 1.0, "city": "SARASOTA", "beds": 120.0, "SR_15": 2.0}, {"Diff_star": 0.0, "addr": "2916 HABANA WAY", "SR_14": 1.0, "Q_14": 5.0, "name": "HABANA HEALTH CARE CENTER", "SF_14": 4.0, "SF_15": 4.0, "cnty": "Hillsborough", "st": "FL", "Zip": 33614.0, "O_14": 2.0, "Q_15": 4.0, "O_15": 2.0, "city": "TAMPA", "beds": 150.0, "SR_15": 1.0}, {"Diff_star": 0.0, "addr": "3865 TAMPA RD", "SR_14": 4.0, "Q_14": 4.0, "name": "WEST BAY OF TAMPA", "SF_14": 4.0, "SF_15": 3.0, "cnty": "Pinellas", "st": "FL", "Zip": 34677.0, "O_14": 4.0, "Q_15": 3.0, "O_15": 4.0, "city": "OLDSMAR", "beds": 120.0, "SR_15": 4.0}, {"Diff_star": 0.0, "addr": "315 S FLAGLER DR", "SR_14": 2.0, "Q_14": 5.0, "name": "LOURDES-NOREEN MCKEEN RESIDENCE FOR GERIATRIC CARE", "SF_14": 4.0, "SF_15": 4.0, "cnty": "Palm Beach", "st": "FL", "Zip": 33401.0, "O_14": 4.0, "Q_15": 5.0, "O_15": 4.0, "city": "WEST PALM BEACH", "beds": 132.0, "SR_15": 2.0}, {"Diff_star": 0.0, "addr": "3601 LAKEWOOD BLVD", "SR_14": 1.0, "Q_14": 5.0, "name": "MANORCARE NURSING AND REHABILITATION CENTER", "SF_14": 4.0, "SF_15": 3.0, "cnty": "Collier", "st": "FL", "Zip": 34112.0, "O_14": 2.0, "Q_15": 5.0, "O_15": 2.0, "city": "NAPLES", "beds": 120.0, "SR_15": 1.0}, {"Diff_star": 0.0, "addr": "8701 49TH ST N", "SR_14": 2.0, "Q_14": 4.0, "name": "SIGNATURE HEALTHCARE OF PINELLAS PARK", "SF_14": 2.0, "SF_15": 2.0, "cnty": "Pinellas", "st": "FL", "Zip": 33782.0, "O_14": 2.0, "Q_15": 2.0, "O_15": 2.0, "city": "PINELLAS PARK", "beds": 120.0, "SR_15": 2.0}, {"Diff_star": 0.0, "addr": "10680 OLD ST AUGUSTINE RD", "SR_14": 4.0, "Q_14": 5.0, "name": "TERRACE OF JACKSONVILLE, THE", "SF_14": 4.0, "SF_15": 4.0, "cnty": "Duval", "st": "FL", "Zip": 32257.0, "O_14": 5.0, "Q_15": 5.0, "O_15": 5.0, "city": "JACKSONVILLE", "beds": 180.0, "SR_15": 4.0}, {"Diff_star": 0.0, "addr": "8720 JACKSON SPRINGS RD", "SR_14": 2.0, "Q_14": 3.0, "name": "WOODBRIDGE REHABILITATION AND HEALTH CENTER", "SF_14": 2.0, "SF_15": 2.0, "cnty": "Hillsborough", "st": "FL", "Zip": 33615.0, "O_14": 2.0, "Q_15": 2.0, "O_15": 2.0, "city": "TAMPA", "beds": 120.0, "SR_15": 2.0}, {"Diff_star": 0.0, "addr": "7173 CYPRESS DRIVE SW", "SR_14": 1.0, "Q_14": 4.0, "name": "CITRUS GARDENS OF FORT MYERS", "SF_14": 5.0, "SF_15": 4.0, "cnty": "Lee", "st": "FL", "Zip": 33907.0, "O_14": 2.0, "Q_15": 2.0, "O_15": 2.0, "city": "FORT MYERS", "beds": 120.0, "SR_15": 1.0}, {"Diff_star": -1.0, "addr": "1801 N LAKE MARIAM DR", "SR_14": 1.0, "Q_14": 5.0, "name": "BRANDYWYNE HEALTH CARE CENTER", "SF_14": 3.0, "SF_15": 3.0, "cnty": "Polk", "st": "FL", "Zip": 33884.0, "O_14": 2.0, "Q_15": 4.0, "O_15": 1.0, "city": "WINTER HAVEN", "beds": 117.0, "SR_15": 1.0}, {"Diff_star": 0.0, "addr": "7723 JASPER AVENUE", "SR_14": 5.0, "Q_14": 5.0, "name": "FIRST COAST HEALTH & REHABILITATION CENTER", "SF_14": 3.0, "SF_15": 3.0, "cnty": "Duval", "st": "FL", "Zip": 32211.0, "O_14": 5.0, "Q_15": 5.0, "O_15": 5.0, "city": "JACKSONVILLE", "beds": 100.0, "SR_15": 5.0}, {"Diff_star": -1.0, "addr": "1700 MONROE AVE", "SR_14": 2.0, "Q_14": 5.0, "name": "REHABILITATION CENTER OF WINTER PARK, THE", "SF_14": 4.0, "SF_15": 4.0, "cnty": "Orange", "st": "FL", "Zip": 32751.0, "O_14": 4.0, "Q_15": 2.0, "O_15": 3.0, "city": "MAITLAND", "beds": 180.0, "SR_15": 2.0}, {"Diff_star": -1.0, "addr": "1900 MERCY DRIVE", "SR_14": 1.0, "Q_14": 5.0, "name": "COURTYARDS OF ORLANDO REHABILITATION AND HEALTH CE", "SF_14": 3.0, "SF_15": 3.0, "cnty": "Orange", "st": "FL", "Zip": 32808.0, "O_14": 2.0, "Q_15": 3.0, "O_15": 1.0, "city": "ORLANDO", "beds": 120.0, "SR_15": 1.0}, {"Diff_star": 0.0, "addr": "899 NW 4TH STREET", "SR_14": 4.0, "Q_14": 5.0, "name": "RIVERSIDE CARE CENTER", "SF_14": 4.0, "SF_15": 4.0, "cnty": "Miami-Dade", "st": "FL", "Zip": 33128.0, "O_14": 5.0, "Q_15": 5.0, "O_15": 5.0, "city": "MIAMI", "beds": 120.0, "SR_15": 4.0}, {"Diff_star": 0.0, "addr": "3101 GINGER DRIVE", "SR_14": 1.0, "Q_14": 3.0, "name": "HERITAGE HEALTHCARE CENTER AT TALLAHASSEE", "SF_14": 3.0, "SF_15": 3.0, "cnty": "Leon", "st": "FL", "Zip": 32308.0, "O_14": 1.0, "Q_15": 1.0, "O_15": 1.0, "city": "TALLAHASSEE", "beds": 180.0, "SR_15": 1.0}, {"Diff_star": -1.0, "addr": "1311 SW 16TH STREET", "SR_14": 1.0, "Q_14": 2.0, "name": "GAINESVILLE HEALTH CARE CENTER", "SF_14": 4.0, "SF_15": 3.0, "cnty": "Alachua", "st": "FL", "Zip": 32608.0, "O_14": 2.0, "Q_15": 1.0, "O_15": 1.0, "city": "GAINESVILLE", "beds": 180.0, "SR_15": 1.0}, {"Diff_star": 0.0, "addr": "220 NINTH STREET", "SR_14": 4.0, "Q_14": 5.0, "name": "BRIDGE AT BAY ST JOE, THE", "SF_14": 4.0, "SF_15": 3.0, "cnty": "Gulf", "st": "FL", "Zip": 32456.0, "O_14": 5.0, "Q_15": 5.0, "O_15": 5.0, "city": "PORT SAINT JOE", "beds": 120.0, "SR_15": 4.0}, {"Diff_star": 0.0, "addr": "870 PATRICIA AVE", "SR_14": 3.0, "Q_14": 5.0, "name": "MANORCARE HEALTH SERVICES DUNEDIN", "SF_14": 3.0, "SF_15": 3.0, "cnty": "Pinellas", "st": "FL", "Zip": 34698.0, "O_14": 4.0, "Q_15": 5.0, "O_15": 4.0, "city": "DUNEDIN", "beds": 120.0, "SR_15": 3.0}, {"Diff_star": 0.0, "addr": "700 SE 8TH AVE", "SR_14": 5.0, "Q_14": 5.0, "name": "CYPRESS COVE CARE CENTER", "SF_14": 4.0, "SF_15": 3.0, "cnty": "Citrus", "st": "FL", "Zip": 34429.0, "O_14": 5.0, "Q_15": 5.0, "O_15": 5.0, "city": "CRYSTAL RIVER", "beds": 120.0, "SR_15": 5.0}, {"Diff_star": -1.0, "addr": "4927 VOORHEES RD", "SR_14": 3.0, "Q_14": 4.0, "name": "ORCHARD RIDGE", "SF_14": 4.0, "SF_15": 3.0, "cnty": "Pasco", "st": "FL", "Zip": 34653.0, "O_14": 4.0, "Q_15": 2.0, "O_15": 3.0, "city": "NEW PORT RICHEY", "beds": 120.0, "SR_15": 3.0}, {"Diff_star": 0.0, "addr": "2900 12TH STREET N", "SR_14": 3.0, "Q_14": 5.0, "name": "LAKESIDE PAVILION", "SF_14": 3.0, "SF_15": 3.0, "cnty": "Collier", "st": "FL", "Zip": 34103.0, "O_14": 4.0, "Q_15": 5.0, "O_15": 4.0, "city": "NAPLES", "beds": 120.0, "SR_15": 3.0}, {"Diff_star": -1.0, "addr": "15204 W COLONIAL DR", "SR_14": 2.0, "Q_14": 4.0, "name": "COLONIAL LAKES HEALTH CARE", "SF_14": 2.0, "SF_15": 2.0, "cnty": "Orange", "st": "FL", "Zip": 34787.0, "O_14": 2.0, "Q_15": 1.0, "O_15": 1.0, "city": "WINTER GARDEN", "beds": 180.0, "SR_15": 2.0}, {"Diff_star": -2.0, "addr": "4800 N NOB HILL RD", "SR_14": 3.0, "Q_14": 5.0, "name": "SUNRISE HEALTH & REHABILITATION CENTER", "SF_14": 4.0, "SF_15": 3.0, "cnty": "Broward", "st": "FL", "Zip": 33351.0, "O_14": 5.0, "Q_15": 3.0, "O_15": 3.0, "city": "SUNRISE", "beds": 283.0, "SR_15": 3.0}, {"Diff_star": -1.0, "addr": "409 S 10TH ST", "SR_14": 2.0, "Q_14": 4.0, "name": "HAINES CITY HEALTH CARE", "SF_14": 4.0, "SF_15": 3.0, "cnty": "Polk", "st": "FL", "Zip": 33844.0, "O_14": 3.0, "Q_15": 2.0, "O_15": 2.0, "city": "HAINES CITY", "beds": 120.0, "SR_15": 2.0}, {"Diff_star": -2.0, "addr": "1026 ALBEE FARM RD", "SR_14": 3.0, "Q_14": 4.0, "name": "BAY BREEZE HEALTH AND REHABILITATION CENTER", "SF_14": 4.0, "SF_15": 3.0, "cnty": "Sarasota", "st": "FL", "Zip": 34292.0, "O_14": 4.0, "Q_15": 2.0, "O_15": 2.0, "city": "VENICE", "beds": 120.0, "SR_15": 2.0}, {"Diff_star": 0.0, "addr": "10100 HILLVIEW DR", "SR_14": 3.0, "Q_14": 4.0, "name": "WILLOWBROOKE COURT AT AZALEA TRACE", "SF_14": 4.0, "SF_15": 4.0, "cnty": "Escambia", "st": "FL", "Zip": 32514.0, "O_14": 4.0, "Q_15": 4.0, "O_15": 4.0, "city": "PENSACOLA", "beds": 82.0, "SR_15": 3.0}, {"Diff_star": -1.0, "addr": "10040 HILLVIEW ROAD", "SR_14": 2.0, "Q_14": 3.0, "name": "UNIVERSITY HILLS HEALTH AND REHABILITATION", "SF_14": 3.0, "SF_15": 3.0, "cnty": "Escambia", "st": "FL", "Zip": 32514.0, "O_14": 2.0, "Q_15": 1.0, "O_15": 1.0, "city": "PENSACOLA", "beds": 120.0, "SR_15": 2.0}, {"Diff_star": -2.0, "addr": "1851 ELKCAM BLVD", "SR_14": 3.0, "Q_14": 3.0, "name": "DELTONA HEALTH CARE", "SF_14": 2.0, "SF_15": 2.0, "cnty": "Volusia", "st": "FL", "Zip": 32725.0, "O_14": 3.0, "Q_15": 1.0, "O_15": 1.0, "city": "DELTONA", "beds": 120.0, "SR_15": 2.0}, {"Diff_star": -2.0, "addr": "1705 JESS PARRISH CT", "SR_14": 3.0, "Q_14": 5.0, "name": "TITUSVILLE REHABILITATION & NURSING CENTER", "SF_14": 4.0, "SF_15": 4.0, "cnty": "Brevard", "st": "FL", "Zip": 32796.0, "O_14": 5.0, "Q_15": 4.0, "O_15": 3.0, "city": "TITUSVILLE", "beds": 157.0, "SR_15": 2.0}, {"Diff_star": 0.0, "addr": "9380 NW 7TH AVENUE", "SR_14": 5.0, "Q_14": 5.0, "name": "MIAMI SHORES NURSING AND REHAB CENTER", "SF_14": 4.0, "SF_15": 4.0, "cnty": "Miami-Dade", "st": "FL", "Zip": 33150.0, "O_14": 5.0, "Q_15": 5.0, "O_15": 5.0, "city": "MIAMI", "beds": 99.0, "SR_15": 5.0}, {"Diff_star": 0.0, "addr": "900 BECKETT WAY", "SR_14": 4.0, "Q_14": 5.0, "name": "PENINSULA CARE AND REHABILITATION CENTER", "SF_14": 4.0, "SF_15": 3.0, "cnty": "Pinellas", "st": "FL", "Zip": 34689.0, "O_14": 5.0, "Q_15": 5.0, "O_15": 5.0, "city": "TARPON SPRINGS", "beds": 120.0, "SR_15": 4.0}, {"Diff_star": -1.0, "addr": "1111 DRURY LANE", "SR_14": 4.0, "Q_14": 5.0, "name": "ENGLEWOOD HEALTHCARE AND REHAB", "SF_14": 3.0, "SF_15": 3.0, "cnty": "Sarasota", "st": "FL", "Zip": 34224.0, "O_14": 5.0, "Q_15": 4.0, "O_15": 4.0, "city": "ENGLEWOOD", "beds": 120.0, "SR_15": 4.0}, {"Diff_star": 0.0, "addr": "2055 PALMETTO ST", "SR_14": 1.0, "Q_14": 5.0, "name": "COMPREHENSIVE HEALTHCARE OF CLEARWATER", "SF_14": 4.0, "SF_15": 4.0, "cnty": "Pinellas", "st": "FL", "Zip": 33758.0, "O_14": 2.0, "Q_15": 4.0, "O_15": 2.0, "city": "CLEARWATER", "beds": 150.0, "SR_15": 1.0}, {"Diff_star": 0.0, "addr": "5511 SWIFT ROAD", "SR_14": 2.0, "Q_14": 5.0, "name": "MANORCARE HEALTH SERVICES SARASOTA", "SF_14": 3.0, "SF_15": 3.0, "cnty": "Sarasota", "st": "FL", "Zip": 34231.0, "O_14": 3.0, "Q_15": 5.0, "O_15": 3.0, "city": "SARASOTA", "beds": 178.0, "SR_15": 2.0}, {"Diff_star": -1.0, "addr": "125 TOMOKA BLVD S", "SR_14": 4.0, "Q_14": 5.0, "name": "LAKE PLACID HEALTH AND REHABILITATION CENTER", "SF_14": 4.0, "SF_15": 3.0, "cnty": "Highlands", "st": "FL", "Zip": 33852.0, "O_14": 5.0, "Q_15": 3.0, "O_15": 4.0, "city": "LAKE PLACID", "beds": 180.0, "SR_15": 4.0}, {"Diff_star": 0.0, "addr": "103 NORTH CLYDE MORRIS BLVD", "SR_14": 1.0, "Q_14": 5.0, "name": "SIGNATURE HEALTHCARE OF ORMOND", "SF_14": 4.0, "SF_15": 4.0, "cnty": "Volusia", "st": "FL", "Zip": 32174.0, "O_14": 2.0, "Q_15": 5.0, "O_15": 2.0, "city": "ORMOND BEACH", "beds": 60.0, "SR_15": 1.0}, {"Diff_star": -1.0, "addr": "8417 OLD COUNTY RD 54", "SR_14": 2.0, "Q_14": 3.0, "name": "CONSULATE HEALTH CARE OF NEW PORT RICHEY", "SF_14": 2.0, "SF_15": 2.0, "cnty": "Pasco", "st": "FL", "Zip": 34653.0, "O_14": 2.0, "Q_15": 1.0, "O_15": 1.0, "city": "NEW PORT RICHEY", "beds": 120.0, "SR_15": 2.0}, {"Diff_star": -1.0, "addr": "6700 NW 10TH PLACE", "SR_14": 1.0, "Q_14": 5.0, "name": "NORTH FLORIDA REHABILITATION AND SPECIALTY CARE", "SF_14": 3.0, "SF_15": 3.0, "cnty": "Alachua", "st": "FL", "Zip": 32605.0, "O_14": 2.0, "Q_15": 4.0, "O_15": 1.0, "city": "GAINESVILLE", "beds": 120.0, "SR_15": 1.0}, {"Diff_star": -1.0, "addr": "2333 N BRENTWOOD CIR", "SR_14": 1.0, "Q_14": 5.0, "name": "HEALTH CENTER AT BRENTWOOD", "SF_14": 4.0, "SF_15": 3.0, "cnty": "Citrus", "st": "FL", "Zip": 34461.0, "O_14": 2.0, "Q_15": 3.0, "O_15": 1.0, "city": "LECANTO", "beds": 120.0, "SR_15": 1.0}, {"Diff_star": 0.0, "addr": "301 SOUTH GLORIA STREET", "SR_14": 1.0, "Q_14": 5.0, "name": "PALM TERRACE OF CLEWISTON", "SF_14": 4.0, "SF_15": 4.0, "cnty": "Hendry", "st": "FL", "Zip": 33440.0, "O_14": 2.0, "Q_15": 3.0, "O_15": 2.0, "city": "CLEWISTON", "beds": 155.0, "SR_15": 1.0}, {"Diff_star": 0.0, "addr": "1100 SOUTH COURTENAY PARKWAY", "SR_14": 1.0, "Q_14": 4.0, "name": "COURTENAY SPRINGS VILLAGE", "SF_14": 5.0, "SF_15": 5.0, "cnty": "Brevard", "st": "FL", "Zip": 32952.0, "O_14": 2.0, "Q_15": 2.0, "O_15": 2.0, "city": "MERRITT ISLAND", "beds": 80.0, "SR_15": 1.0}, {"Diff_star": -2.0, "addr": "1515 PORT MALABAR BLVD NE", "SR_14": 3.0, "Q_14": 5.0, "name": "ANCHOR CARE AND REHABILITATION CENTER", "SF_14": 4.0, "SF_15": 3.0, "cnty": "Brevard", "st": "FL", "Zip": 32905.0, "O_14": 5.0, "Q_15": 4.0, "O_15": 3.0, "city": "PALM BAY", "beds": 120.0, "SR_15": 3.0}, {"Diff_star": 0.0, "addr": "1501 SE 24TH RD", "SR_14": 1.0, "Q_14": 3.0, "name": "OAKHURST CENTER", "SF_14": 3.0, "SF_15": 3.0, "cnty": "Marion", "st": "FL", "Zip": 34471.0, "O_14": 1.0, "Q_15": 1.0, "O_15": 1.0, "city": "OCALA", "beds": 180.0, "SR_15": 1.0}, {"Diff_star": -1.0, "addr": "4405 LAKEWOOD ROAD", "SR_14": 2.0, "Q_14": 5.0, "name": "SIGNATURE HEALTHCARE OF PALM BEACH", "SF_14": 3.0, "SF_15": 3.0, "cnty": "Palm Beach", "st": "FL", "Zip": 33461.0, "O_14": 3.0, "Q_15": 4.0, "O_15": 2.0, "city": "LAKE WORTH", "beds": 120.0, "SR_15": 2.0}, {"Diff_star": 0.0, "addr": "300 NW 1ST AVE", "SR_14": 2.0, "Q_14": 4.0, "name": "WILLISTON REHABILITATION AND NURSING CENTER", "SF_14": 2.0, "SF_15": 2.0, "cnty": "Levy", "st": "FL", "Zip": 32696.0, "O_14": 2.0, "Q_15": 3.0, "O_15": 2.0, "city": "WILLISTON", "beds": 120.0, "SR_15": 2.0}, {"Diff_star": -1.0, "addr": "1999 OLD MOULTRIE ROAD", "SR_14": 3.0, "Q_14": 3.0, "name": "PONCE THERAPY CARE CENTER, THE", "SF_14": 3.0, "SF_15": 3.0, "cnty": "St. Johns", "st": "FL", "Zip": 32086.0, "O_14": 3.0, "Q_15": 1.0, "O_15": 2.0, "city": "SAINT AUGUSTINE", "beds": 120.0, "SR_15": 3.0}, {"Diff_star": -1.0, "addr": "220 SIERRA DRIVE", "SR_14": 1.0, "Q_14": 5.0, "name": "GOLDEN GLADES NURSING AND REHABILITATION CENTER", "SF_14": 1.0, "SF_15": 1.0, "cnty": "Miami-Dade", "st": "FL", "Zip": 33179.0, "O_14": 2.0, "Q_15": 3.0, "O_15": 1.0, "city": "MIAMI", "beds": 180.0, "SR_15": 1.0}, {"Diff_star": 0.0, "addr": "1625 LIME STREET", "SR_14": 2.0, "Q_14": 4.0, "name": "QUALITY HEALTH OF FERNANDINA BEACH", "SF_14": 4.0, "SF_15": 4.0, "cnty": "Nassau", "st": "FL", "Zip": 32034.0, "O_14": 3.0, "Q_15": 2.0, "O_15": 3.0, "city": "FERNANDINA BEACH", "beds": 120.0, "SR_15": 2.0}, {"Diff_star": 0.0, "addr": "9311 S ORANGE BLOSSOM TRAIL", "SR_14": 1.0, "Q_14": 5.0, "name": "PARKS HEALTHCARE AND REHABILITATION CENTER", "SF_14": 4.0, "SF_15": 4.0, "cnty": "Orange", "st": "FL", "Zip": 32837.0, "O_14": 2.0, "Q_15": 3.0, "O_15": 2.0, "city": "ORLANDO", "beds": 120.0, "SR_15": 1.0}, {"Diff_star": 0.0, "addr": "910 TAMIAMI TRAIL SOUTH", "SR_14": 4.0, "Q_14": 5.0, "name": "VILLAGE ON THE ISLE", "SF_14": 4.0, "SF_15": 3.0, "cnty": "Sarasota", "st": "FL", "Zip": 34285.0, "O_14": 5.0, "Q_15": 5.0, "O_15": 5.0, "city": "VENICE", "beds": 60.0, "SR_15": 4.0}, {"Diff_star": -1.0, "addr": "17884 NE CROZIER ST", "SR_14": 2.0, "Q_14": 5.0, "name": "RIVER VALLEY REHABILITATION CENTER", "SF_14": 4.0, "SF_15": 4.0, "cnty": "Calhoun", "st": "FL", "Zip": 32424.0, "O_14": 4.0, "Q_15": 3.0, "O_15": 3.0, "city": "BLOUNTSTOWN", "beds": 150.0, "SR_15": 2.0}, {"Diff_star": 0.0, "addr": "1310 37TH ST", "SR_14": 1.0, "Q_14": 4.0, "name": "CONSULATE HEALTH CARE OF VERO BEACH", "SF_14": 3.0, "SF_15": 3.0, "cnty": "Indian River", "st": "FL", "Zip": 32960.0, "O_14": 1.0, "Q_15": 2.0, "O_15": 1.0, "city": "VERO BEACH", "beds": 159.0, "SR_15": 1.0}, {"Diff_star": 0.0, "addr": "5430 LINTON BLVD", "SR_14": 2.0, "Q_14": 4.0, "name": "LAKE VIEW CARE CENTER AT DELRAY", "SF_14": 4.0, "SF_15": 4.0, "cnty": "Palm Beach", "st": "FL", "Zip": 33484.0, "O_14": 3.0, "Q_15": 3.0, "O_15": 3.0, "city": "DELRAY BEACH", "beds": 120.0, "SR_15": 2.0}, {"Diff_star": 0.0, "addr": "6363 VERDE TRAIL", "SR_14": 2.0, "Q_14": 3.0, "name": "REGENTS PARK NURSING & REHABILITATION CENTER", "SF_14": 4.0, "SF_15": 4.0, "cnty": "Palm Beach", "st": "FL", "Zip": 33433.0, "O_14": 3.0, "Q_15": 2.0, "O_15": 3.0, "city": "BOCA RATON", "beds": 180.0, "SR_15": 2.0}, {"Diff_star": -1.0, "addr": "4201 31ST ST S", "SR_14": 2.0, "Q_14": 4.0, "name": "BAY POINTE NURSING PAVILION", "SF_14": 2.0, "SF_15": 2.0, "cnty": "Pinellas", "st": "FL", "Zip": 33712.0, "O_14": 2.0, "Q_15": 1.0, "O_15": 1.0, "city": "SAINT PETERSBURG", "beds": 120.0, "SR_15": 2.0}, {"Diff_star": 0.0, "addr": "401 FAIRWOOD AVE", "SR_14": 4.0, "Q_14": 4.0, "name": "ADVANCED REHABILITATION AND HEALTH CENTER", "SF_14": 4.0, "SF_15": 4.0, "cnty": "Pinellas", "st": "FL", "Zip": 33759.0, "O_14": 4.0, "Q_15": 2.0, "O_15": 4.0, "city": "CLEARWATER", "beds": 120.0, "SR_15": 4.0}, {"Diff_star": 0.0, "addr": "411 NORTH DILLARD STREET", "SR_14": 3.0, "Q_14": 4.0, "name": "HEALTH CENTRAL PARK", "SF_14": 4.0, "SF_15": 4.0, "cnty": "Orange", "st": "FL", "Zip": 34787.0, "O_14": 4.0, "Q_15": 4.0, "O_15": 4.0, "city": "WINTER GARDEN", "beds": 228.0, "SR_15": 3.0}, {"Diff_star": 0.0, "addr": "3920 ROSEWOOD WAY", "SR_14": 2.0, "Q_14": 4.0, "name": "ROSEWOOD HEALTH AND REHABILITATION CENTER", "SF_14": 3.0, "SF_15": 3.0, "cnty": "Orange", "st": "FL", "Zip": 32808.0, "O_14": 2.0, "Q_15": 3.0, "O_15": 2.0, "city": "ORLANDO", "beds": 120.0, "SR_15": 2.0}, {"Diff_star": -2.0, "addr": "375 NW 51ST STREET", "SR_14": 3.0, "Q_14": 5.0, "name": "MANORCARE HEALTH SERVICES", "SF_14": 4.0, "SF_15": 3.0, "cnty": "Palm Beach", "st": "FL", "Zip": 33431.0, "O_14": 5.0, "Q_15": 3.0, "O_15": 3.0, "city": "BOCA RATON", "beds": 180.0, "SR_15": 3.0}, {"Diff_star": -1.0, "addr": "5245 N SOCRUM LOOP RD", "SR_14": 1.0, "Q_14": 5.0, "name": "CONSULATE HEALTH CARE OF LAKELAND", "SF_14": 4.0, "SF_15": 3.0, "cnty": "Polk", "st": "FL", "Zip": 33809.0, "O_14": 2.0, "Q_15": 4.0, "O_15": 1.0, "city": "LAKELAND", "beds": 120.0, "SR_15": 1.0}, {"Diff_star": 0.0, "addr": "1646 HIGHWAY 441 N", "SR_14": 5.0, "Q_14": 4.0, "name": "OKEECHOBEE HEALTH CARE FACILITY", "SF_14": 4.0, "SF_15": 4.0, "cnty": "Okeechobee", "st": "FL", "Zip": 34972.0, "O_14": 5.0, "Q_15": 2.0, "O_15": 5.0, "city": "OKEECHOBEE", "beds": 180.0, "SR_15": 5.0}, {"Diff_star": 0.0, "addr": "2180 HYPOLUXO ROAD", "SR_14": 1.0, "Q_14": 5.0, "name": "HAMLIN PLACE", "SF_14": 2.0, "SF_15": 2.0, "cnty": "Palm Beach", "st": "FL", "Zip": 33462.0, "O_14": 2.0, "Q_15": 5.0, "O_15": 2.0, "city": "LANTANA", "beds": 120.0, "SR_15": 1.0}, {"Diff_star": -1.0, "addr": "8600 US HWY 19 N", "SR_14": 1.0, "Q_14": 3.0, "name": "GRACEWOOD REHABILITATION AND NURSING CARE", "SF_14": 4.0, "SF_15": 4.0, "cnty": "Pinellas", "st": "FL", "Zip": 33782.0, "O_14": 2.0, "Q_15": 1.0, "O_15": 1.0, "city": "PINELLAS PARK", "beds": 120.0, "SR_15": 1.0}, {"Diff_star": 0.0, "addr": "3387 GULF BREEZE PARKWAY", "SR_14": 4.0, "Q_14": 3.0, "name": "BAY BREEZE SENIOR LIVING AND REHABILITATION CENTER", "SF_14": 4.0, "SF_15": 4.0, "cnty": "Santa Rosa", "st": "FL", "Zip": 32561.0, "O_14": 4.0, "Q_15": 2.0, "O_15": 4.0, "city": "GULF BREEZE", "beds": 120.0, "SR_15": 4.0}, {"Diff_star": -1.0, "addr": "808 S COLLEY RD", "SR_14": 4.0, "Q_14": 3.0, "name": "RIVERWOOD HEALTH & REHABILITATION CENTER", "SF_14": 3.0, "SF_15": 3.0, "cnty": "Bradford", "st": "FL", "Zip": 32091.0, "O_14": 4.0, "Q_15": 1.0, "O_15": 3.0, "city": "STARKE", "beds": 120.0, "SR_15": 4.0}, {"Diff_star": 0.0, "addr": "23305 BLUE WATER CIRCLE", "SR_14": 4.0, "Q_14": 4.0, "name": "WILLOWBROOKE COURT AT EDGEWATER POINTE ESTATES", "SF_14": 4.0, "SF_15": 4.0, "cnty": "Palm Beach", "st": "FL", "Zip": 33433.0, "O_14": 4.0, "Q_15": 3.0, "O_15": 4.0, "city": "BOCA RATON", "beds": 101.0, "SR_15": 4.0}, {"Diff_star": -1.0, "addr": "4610 S MANHATTAN AVE", "SR_14": 2.0, "Q_14": 5.0, "name": "SOUTH TAMPA HEALTH AND REHABILITATION CENTER", "SF_14": 4.0, "SF_15": 4.0, "cnty": "Hillsborough", "st": "FL", "Zip": 33611.0, "O_14": 4.0, "Q_15": 4.0, "O_15": 3.0, "city": "TAMPA", "beds": 160.0, "SR_15": 2.0}, {"Diff_star": 0.0, "addr": "1626 DAVIS RD", "SR_14": 3.0, "Q_14": 5.0, "name": "CONSULATE HEALTH CARE OF WEST PALM BEACH", "SF_14": 4.0, "SF_15": 4.0, "cnty": "Palm Beach", "st": "FL", "Zip": 33406.0, "O_14": 5.0, "Q_15": 5.0, "O_15": 5.0, "city": "WEST PALM BEACH", "beds": 120.0, "SR_15": 3.0}, {"Diff_star": 0.0, "addr": "600 BUSINESS PARK WAY", "SR_14": 5.0, "Q_14": 5.0, "name": "ROYAL PALM BEACH HEALTH AND REHABILITATION CENTER", "SF_14": 4.0, "SF_15": 4.0, "cnty": "Palm Beach", "st": "FL", "Zip": 33411.0, "O_14": 5.0, "Q_15": 4.0, "O_15": 5.0, "city": "ROYAL PALM BEACH", "beds": 120.0, "SR_15": 5.0}, {"Diff_star": -1.0, "addr": "4200 WASHINGTON STREET", "SR_14": 1.0, "Q_14": 5.0, "name": "HILLCREST NURSING AND REHABILITATION CENTER", "SF_14": 3.0, "SF_15": 3.0, "cnty": "Broward", "st": "FL", "Zip": 33021.0, "O_14": 2.0, "Q_15": 3.0, "O_15": 1.0, "city": "HOLLYWOOD", "beds": 240.0, "SR_15": 1.0}, {"Diff_star": -1.0, "addr": "3001 SOUTH CONGRESS AVENUE", "SR_14": 3.0, "Q_14": 5.0, "name": "MANORCARE HEALTH SERVICES BOYNTON BEACH", "SF_14": 3.0, "SF_15": 3.0, "cnty": "Palm Beach", "st": "FL", "Zip": 33426.0, "O_14": 4.0, "Q_15": 4.0, "O_15": 3.0, "city": "BOYNTON BEACH", "beds": 180.0, "SR_15": 3.0}, {"Diff_star": -1.0, "addr": "1240 PINEBROOK ROAD", "SR_14": 2.0, "Q_14": 5.0, "name": "PINEBROOK CENTER", "SF_14": 4.0, "SF_15": 4.0, "cnty": "Sarasota", "st": "FL", "Zip": 34292.0, "O_14": 4.0, "Q_15": 4.0, "O_15": 3.0, "city": "VENICE", "beds": 120.0, "SR_15": 2.0}, {"Diff_star": 0.0, "addr": "5300 W 16TH AVENUE", "SR_14": 4.0, "Q_14": 5.0, "name": "SUSANNA WESLEY HEALTH CENTER", "SF_14": 4.0, "SF_15": 4.0, "cnty": "Miami-Dade", "st": "FL", "Zip": 33012.0, "O_14": 5.0, "Q_15": 5.0, "O_15": 5.0, "city": "HIALEAH", "beds": 120.0, "SR_15": 4.0}, {"Diff_star": 0.0, "addr": "6135 RATTLESNAKE HAMMOCK ROAD", "SR_14": 5.0, "Q_14": 4.0, "name": "MANORCARE AT LELY PALMS", "SF_14": 4.0, "SF_15": 3.0, "cnty": "Collier", "st": "FL", "Zip": 34113.0, "O_14": 5.0, "Q_15": 4.0, "O_15": 5.0, "city": "NAPLES", "beds": 117.0, "SR_15": 5.0}, {"Diff_star": -1.0, "addr": "17475 S DIXIE HWY", "SR_14": 1.0, "Q_14": 5.0, "name": "SOUTH DADE NURSING AND REHABILITATION CENTER", "SF_14": 2.0, "SF_15": 2.0, "cnty": "Miami-Dade", "st": "FL", "Zip": 33157.0, "O_14": 2.0, "Q_15": 3.0, "O_15": 1.0, "city": "MIAMI", "beds": 180.0, "SR_15": 1.0}, {"Diff_star": -3.0, "addr": "1255 NE 135TH STREET", "SR_14": 3.0, "Q_14": 5.0, "name": "NORTH DADE NURSING AND REHABILITATION CENTER", "SF_14": 4.0, "SF_15": 3.0, "cnty": "Miami-Dade", "st": "FL", "Zip": 33161.0, "O_14": 5.0, "Q_15": 3.0, "O_15": 2.0, "city": "NORTH MIAMI", "beds": 245.0, "SR_15": 2.0}, {"Diff_star": 0.0, "addr": "8500 ROYAL PALM BLVD", "SR_14": 2.0, "Q_14": 4.0, "name": "PARK SUMMIT AT CORAL SPRINGS", "SF_14": 4.0, "SF_15": 4.0, "cnty": "Broward", "st": "FL", "Zip": 33065.0, "O_14": 3.0, "Q_15": 3.0, "O_15": 3.0, "city": "CORAL SPRINGS", "beds": 35.0, "SR_15": 2.0}, {"Diff_star": -1.0, "addr": "255 59TH ST N", "SR_14": 5.0, "Q_14": 3.0, "name": "BERNARD L SAMSON NURSING CENTER", "SF_14": 4.0, "SF_15": 4.0, "cnty": "Pinellas", "st": "FL", "Zip": 33710.0, "O_14": 5.0, "Q_15": 1.0, "O_15": 4.0, "city": "SAINT PETERSBURG", "beds": 180.0, "SR_15": 5.0}, {"Diff_star": 0.0, "addr": "5951 COLONIAL DRIVE", "SR_14": 4.0, "Q_14": 4.0, "name": "MARGATE HEALTH CARE CENTER", "SF_14": 4.0, "SF_15": 4.0, "cnty": "Broward", "st": "FL", "Zip": 33063.0, "O_14": 4.0, "Q_15": 3.0, "O_15": 4.0, "city": "MARGATE", "beds": 170.0, "SR_15": 4.0}, {"Diff_star": 0.0, "addr": "7300 DEL PRADO CIRCLE SOUTH", "SR_14": 2.0, "Q_14": 4.0, "name": "WHITEHALL BOCA RATON", "SF_14": 5.0, "SF_15": 5.0, "cnty": "Palm Beach", "st": "FL", "Zip": 33433.0, "O_14": 3.0, "Q_15": 3.0, "O_15": 3.0, "city": "BOCA RATON", "beds": 154.0, "SR_15": 2.0}, {"Diff_star": 0.0, "addr": "991 PONDELLA RD", "SR_14": 1.0, "Q_14": 5.0, "name": "CONSULATE HEALTH CARE OF NORTH FORT MYERS", "SF_14": 1.0, "SF_15": 1.0, "cnty": "Lee", "st": "FL", "Zip": 33903.0, "O_14": 2.0, "Q_15": 5.0, "O_15": 2.0, "city": "FORT MYERS", "beds": 120.0, "SR_15": 1.0}, {"Diff_star": 0.0, "addr": "19301 SW 87TH AVENUE", "SR_14": 2.0, "Q_14": 4.0, "name": "EAST RIDGE RETIREMENT VILLAGE INC", "SF_14": 4.0, "SF_15": 4.0, "cnty": "Miami-Dade", "st": "FL", "Zip": 33157.0, "O_14": 3.0, "Q_15": 3.0, "O_15": 3.0, "city": "MIAMI", "beds": 60.0, "SR_15": 2.0}, {"Diff_star": -1.0, "addr": "4801 SE COVE RD", "SR_14": 4.0, "Q_14": 5.0, "name": "SALERNO BAY MANOR", "SF_14": 4.0, "SF_15": 4.0, "cnty": "Martin", "st": "FL", "Zip": 34997.0, "O_14": 5.0, "Q_15": 3.0, "O_15": 4.0, "city": "STUART", "beds": 120.0, "SR_15": 4.0}, {"Diff_star": -1.0, "addr": "1404 NW 22ND STREET", "SR_14": 2.0, "Q_14": 5.0, "name": "UNITY HEALTH AND REHABILITATION CENTER", "SF_14": 4.0, "SF_15": 4.0, "cnty": "Miami-Dade", "st": "FL", "Zip": 33142.0, "O_14": 4.0, "Q_15": 4.0, "O_15": 3.0, "city": "MIAMI", "beds": 294.0, "SR_15": 2.0}, {"Diff_star": 0.0, "addr": "8785 NW 32ND AVENUE", "SR_14": 5.0, "Q_14": 5.0, "name": "HIALEAH SHORES NURSING AND REHAB CENTER", "SF_14": 4.0, "SF_15": 4.0, "cnty": "Miami-Dade", "st": "FL", "Zip": 33147.0, "O_14": 5.0, "Q_15": 5.0, "O_15": 5.0, "city": "MIAMI", "beds": 106.0, "SR_15": 5.0}, {"Diff_star": -1.0, "addr": "151 E MINNEHAHA AVE", "SR_14": 2.0, "Q_14": 5.0, "name": "CLERMONT HEALTH AND REHABILITATION CENTER", "SF_14": 4.0, "SF_15": 4.0, "cnty": "Lake", "st": "FL", "Zip": 34711.0, "O_14": 4.0, "Q_15": 3.0, "O_15": 3.0, "city": "CLERMONT", "beds": 182.0, "SR_15": 2.0}, {"Diff_star": -1.0, "addr": "13900 NE 3RD COURT", "SR_14": 3.0, "Q_14": 5.0, "name": "CLARIDGE HOUSE NURSING & REHABILITATION CENTER", "SF_14": 2.0, "SF_15": 2.0, "cnty": "Miami-Dade", "st": "FL", "Zip": 33161.0, "O_14": 4.0, "Q_15": 3.0, "O_15": 3.0, "city": "NORTH MIAMI", "beds": 240.0, "SR_15": 3.0}, {"Diff_star": -1.0, "addr": "60 N HWY 17/92", "SR_14": 4.0, "Q_14": 5.0, "name": "DEBARY HEALTH AND REHABILITATION CENTER", "SF_14": 4.0, "SF_15": 3.0, "cnty": "Volusia", "st": "FL", "Zip": 32713.0, "O_14": 5.0, "Q_15": 3.0, "O_15": 4.0, "city": "DEBARY", "beds": 120.0, "SR_15": 4.0}, {"Diff_star": -1.0, "addr": "701 N WILDER RD", "SR_14": 3.0, "Q_14": 5.0, "name": "HEALTH CENTER OF PLANT CITY, THE", "SF_14": 4.0, "SF_15": 3.0, "cnty": "Hillsborough", "st": "FL", "Zip": 33566.0, "O_14": 5.0, "Q_15": 5.0, "O_15": 4.0, "city": "PLANT CITY", "beds": 180.0, "SR_15": 3.0}, {"Diff_star": 0.0, "addr": "2170 PALM BEACH LAKES BLVD", "SR_14": 1.0, "Q_14": 5.0, "name": "DARCY HALL OF LIFE CARE", "SF_14": 4.0, "SF_15": 4.0, "cnty": "Palm Beach", "st": "FL", "Zip": 33409.0, "O_14": 2.0, "Q_15": 3.0, "O_15": 2.0, "city": "WEST PALM BEACH", "beds": 220.0, "SR_15": 1.0}, {"Diff_star": 0.0, "addr": "12751 W COLONIAL DRIVE", "SR_14": 2.0, "Q_14": 4.0, "name": "QUALITY HEALTH OF ORANGE COUNTY", "SF_14": 4.0, "SF_15": 4.0, "cnty": "Orange", "st": "FL", "Zip": 34787.0, "O_14": 3.0, "Q_15": 2.0, "O_15": 3.0, "city": "WINTER GARDEN", "beds": 120.0, "SR_15": 2.0}, {"Diff_star": 0.0, "addr": "6931 W SUNRISE BLVD", "SR_14": 1.0, "Q_14": 5.0, "name": "MANORCARE HEALTH SERVICES", "SF_14": 2.0, "SF_15": 2.0, "cnty": "Broward", "st": "FL", "Zip": 33313.0, "O_14": 2.0, "Q_15": 5.0, "O_15": 2.0, "city": "PLANTATION", "beds": 120.0, "SR_15": 1.0}, {"Diff_star": 0.0, "addr": "701 VICTORIA ST", "SR_14": 1.0, "Q_14": 5.0, "name": "CONSULATE HEALTH CARE OF BRANDON", "SF_14": 4.0, "SF_15": 4.0, "cnty": "Hillsborough", "st": "FL", "Zip": 33510.0, "O_14": 2.0, "Q_15": 3.0, "O_15": 2.0, "city": "BRANDON", "beds": 120.0, "SR_15": 1.0}, {"Diff_star": 0.0, "addr": "1130 NW 15TH STREET", "SR_14": 1.0, "Q_14": 5.0, "name": "AVANTE AT BOCA RATON, INC.", "SF_14": 4.0, "SF_15": 4.0, "cnty": "Palm Beach", "st": "FL", "Zip": 33486.0, "O_14": 2.0, "Q_15": 5.0, "O_15": 2.0, "city": "BOCA RATON", "beds": 144.0, "SR_15": 1.0}, {"Diff_star": 0.0, "addr": "1550 LEE BLVD", "SR_14": 4.0, "Q_14": 4.0, "name": "LEHIGH ACRES HEALTH AND REHABILITATION CENTER", "SF_14": 4.0, "SF_15": 4.0, "cnty": "Lee", "st": "FL", "Zip": 33936.0, "O_14": 4.0, "Q_15": 3.0, "O_15": 4.0, "city": "LEHIGH ACRES", "beds": 110.0, "SR_15": 4.0}, {"Diff_star": 0.0, "addr": "6940 OUTREACH WAY", "SR_14": 5.0, "Q_14": 5.0, "name": "QUALITY HEALTH OF NORTH PORT", "SF_14": 4.0, "SF_15": 4.0, "cnty": "Sarasota", "st": "FL", "Zip": 34287.0, "O_14": 5.0, "Q_15": 4.0, "O_15": 5.0, "city": "NORTH PORT", "beds": 120.0, "SR_15": 5.0}, {"Diff_star": -1.0, "addr": "25325 RAMPART BLVD", "SR_14": 2.0, "Q_14": 5.0, "name": "PORT CHARLOTTE REHABILITATION CENTER", "SF_14": 4.0, "SF_15": 4.0, "cnty": "Charlotte", "st": "FL", "Zip": 33948.0, "O_14": 4.0, "Q_15": 4.0, "O_15": 3.0, "city": "PORT CHARLOTTE", "beds": 120.0, "SR_15": 2.0}, {"Diff_star": -1.0, "addr": "5627 9TH ST E", "SR_14": 1.0, "Q_14": 4.0, "name": "WOODS OF MANATEE SPRINGS, THE", "SF_14": 4.0, "SF_15": 4.0, "cnty": "Manatee", "st": "FL", "Zip": 34203.0, "O_14": 2.0, "Q_15": 1.0, "O_15": 1.0, "city": "BRADENTON", "beds": 120.0, "SR_15": 1.0}, {"Diff_star": 0.0, "addr": "900 LPGA BLVD", "SR_14": 5.0, "Q_14": 5.0, "name": "BISHOPS GLEN RETIREMENT CENTER", "SF_14": 4.0, "SF_15": 4.0, "cnty": "Volusia", "st": "FL", "Zip": 32117.0, "O_14": 5.0, "Q_15": 4.0, "O_15": 5.0, "city": "HOLLY HILL", "beds": 60.0, "SR_15": 5.0}, {"Diff_star": 0.0, "addr": "3855 OLD CANOE CREEK ROAD", "SR_14": 2.0, "Q_14": 4.0, "name": "TERRACE OF ST CLOUD, THE", "SF_14": 4.0, "SF_15": 4.0, "cnty": "Osceola", "st": "FL", "Zip": 34769.0, "O_14": 3.0, "Q_15": 3.0, "O_15": 3.0, "city": "SAINT CLOUD", "beds": 120.0, "SR_15": 2.0}, {"Diff_star": 0.0, "addr": "2302 59TH ST W", "SR_14": 1.0, "Q_14": 5.0, "name": "HERITAGE PARK CARE AND REHABILITATION CENTER", "SF_14": 4.0, "SF_15": 3.0, "cnty": "Manatee", "st": "FL", "Zip": 34209.0, "O_14": 2.0, "Q_15": 5.0, "O_15": 2.0, "city": "BRADENTON", "beds": 120.0, "SR_15": 1.0}, {"Diff_star": 0.0, "addr": "1550 JESS PARRISH CT", "SR_14": 5.0, "Q_14": 5.0, "name": "VISTA MANOR", "SF_14": 4.0, "SF_15": 3.0, "cnty": "Brevard", "st": "FL", "Zip": 32796.0, "O_14": 5.0, "Q_15": 3.0, "O_15": 5.0, "city": "TITUSVILLE", "beds": 120.0, "SR_15": 5.0}, {"Diff_star": -1.0, "addr": "9355 SAN JOSE BLVD", "SR_14": 3.0, "Q_14": 4.0, "name": "SAN JOSE HEALTH AND REHABILITATION CENTER", "SF_14": 3.0, "SF_15": 3.0, "cnty": "Duval", "st": "FL", "Zip": 32257.0, "O_14": 3.0, "Q_15": 1.0, "O_15": 2.0, "city": "JACKSONVILLE", "beds": 120.0, "SR_15": 3.0}, {"Diff_star": 0.0, "addr": "10095 HILLVIEW ROAD", "SR_14": 4.0, "Q_14": 4.0, "name": "ARCADIA HEALTH & REHABILITATION CENTER", "SF_14": 4.0, "SF_15": 4.0, "cnty": "Escambia", "st": "FL", "Zip": 32514.0, "O_14": 4.0, "Q_15": 3.0, "O_15": 4.0, "city": "PENSACOLA", "beds": 170.0, "SR_15": 4.0}, {"Diff_star": 0.0, "addr": "8700 A C SKINNER PARKWAY", "SR_14": 3.0, "Q_14": 5.0, "name": "REGENTS PARK OF JACKSONVILLE", "SF_14": 5.0, "SF_15": 5.0, "cnty": "Duval", "st": "FL", "Zip": 32256.0, "O_14": 5.0, "Q_15": 5.0, "O_15": 5.0, "city": "JACKSONVILLE", "beds": 120.0, "SR_15": 3.0}, {"Diff_star": -1.0, "addr": "1255 PASADENA AVE S, SUITE C", "SR_14": 4.0, "Q_14": 5.0, "name": "SPRINGS AT BOCA CIEGA BAY", "SF_14": 4.0, "SF_15": 4.0, "cnty": "Pinellas", "st": "FL", "Zip": 33707.0, "O_14": 5.0, "Q_15": 4.0, "O_15": 4.0, "city": "SOUTH PASADENA", "beds": 109.0, "SR_15": 4.0}, {"Diff_star": 0.0, "addr": "23013 WESTCHESTER BLVD", "SR_14": 3.0, "Q_14": 3.0, "name": "HARBOUR HEALTH CENTER", "SF_14": 3.0, "SF_15": 3.0, "cnty": "Charlotte", "st": "FL", "Zip": 33980.0, "O_14": 3.0, "Q_15": 2.0, "O_15": 3.0, "city": "PORT CHARLOTTE", "beds": 120.0, "SR_15": 3.0}, {"Diff_star": -1.0, "addr": "950 MELLONVILLE AVE", "SR_14": 2.0, "Q_14": 4.0, "name": "HEALTHCARE AND REHAB OF SANFORD", "SF_14": 3.0, "SF_15": 3.0, "cnty": "Seminole", "st": "FL", "Zip": 32771.0, "O_14": 2.0, "Q_15": 1.0, "O_15": 1.0, "city": "SANFORD", "beds": 114.0, "SR_15": 2.0}, {"Diff_star": -1.0, "addr": "1330 NW 1ST AVE", "SR_14": 4.0, "Q_14": 5.0, "name": "HOMESTEAD MANOR A PALACE COMMUNITY", "SF_14": 4.0, "SF_15": 4.0, "cnty": "Miami-Dade", "st": "FL", "Zip": 33030.0, "O_14": 5.0, "Q_15": 4.0, "O_15": 4.0, "city": "HOMESTEAD", "beds": 88.0, "SR_15": 4.0}, {"Diff_star": 0.0, "addr": "16002 LAKESHORE VILLA DR", "SR_14": 1.0, "Q_14": "", "name": "LAKESHORE VILLAS HEALTH CARE CENTER", "SF_14": 4.0, "SF_15": 4.0, "cnty": "Hillsborough", "st": "FL", "Zip": 33613.0, "O_14": 2.0, "Q_15": "", "O_15": 2.0, "city": "TAMPA", "beds": 179.0, "SR_15": 1.0}, {"Diff_star": 0.0, "addr": "2100 JENKS AVE", "SR_14": 1.0, "Q_14": 4.0, "name": "ST ANDREWS BAY SKILLED NURSING AND REHABILITATION", "SF_14": 3.0, "SF_15": 3.0, "cnty": "Bay", "st": "FL", "Zip": 32405.0, "O_14": 1.0, "Q_15": 3.0, "O_15": 1.0, "city": "PANAMA CITY", "beds": 120.0, "SR_15": 1.0}, {"Diff_star": 0.0, "addr": "7210 BEACON WOODS DR", "SR_14": 4.0, "Q_14": 4.0, "name": "BAYONET POINT HEALTH & REHABILITATION CENTER", "SF_14": 4.0, "SF_15": 3.0, "cnty": "Pasco", "st": "FL", "Zip": 34667.0, "O_14": 4.0, "Q_15": 2.0, "O_15": 4.0, "city": "HUDSON", "beds": 170.0, "SR_15": 4.0}, {"Diff_star": -2.0, "addr": "1730 LUCERNE TERRACE", "SR_14": 3.0, "Q_14": 5.0, "name": "TERRA VISTA REHAB AND HEALTH CENTER", "SF_14": 4.0, "SF_15": 3.0, "cnty": "Orange", "st": "FL", "Zip": 32806.0, "O_14": 5.0, "Q_15": 5.0, "O_15": 3.0, "city": "ORLANDO", "beds": 115.0, "SR_15": 2.0}, {"Diff_star": 0.0, "addr": "300 DR CARTER BOULEVARD", "SR_14": 4.0, "Q_14": 5.0, "name": "FLAGLER HEALTH AND REHABILITATION CENTER", "SF_14": 5.0, "SF_15": 5.0, "cnty": "Flagler", "st": "FL", "Zip": 32110.0, "O_14": 5.0, "Q_15": 5.0, "O_15": 5.0, "city": "BUNNELL", "beds": 120.0, "SR_15": 4.0}, {"Diff_star": 0.0, "addr": "200 MARINER HEALTH WAY", "SR_14": 4.0, "Q_14": 4.0, "name": "MOULTRIE CREEK NURSING AND REHAB CENTER", "SF_14": 4.0, "SF_15": 4.0, "cnty": "St. Johns", "st": "FL", "Zip": 32086.0, "O_14": 4.0, "Q_15": 2.0, "O_15": 4.0, "city": "SAINT AUGUSTINE", "beds": 120.0, "SR_15": 4.0}, {"Diff_star": -1.0, "addr": "1410 DR MARTIN LUTHER KING JR ST N", "SR_14": 4.0, "Q_14": 2.0, "name": "CONSULATE HEALTH CARE OF SAFETY HARBOR", "SF_14": 2.0, "SF_15": 2.0, "cnty": "Pinellas", "st": "FL", "Zip": 34695.0, "O_14": 4.0, "Q_15": 1.0, "O_15": 3.0, "city": "SAFETY HARBOR", "beds": 120.0, "SR_15": 4.0}, {"Diff_star": -2.0, "addr": "1990 S CANAL DRIVE", "SR_14": 2.0, "Q_14": 5.0, "name": "SIGNATURE HEALTHCARE OF BROOKWOOD GARDENS", "SF_14": 4.0, "SF_15": 3.0, "cnty": "Miami-Dade", "st": "FL", "Zip": 33035.0, "O_14": 4.0, "Q_15": 5.0, "O_15": 2.0, "city": "HOMESTEAD", "beds": 180.0, "SR_15": 1.0}, {"Diff_star": 0.0, "addr": "105 15TH ST E", "SR_14": 4.0, "Q_14": 5.0, "name": "RIVERFRONT NURSING AND REHABILITATION CENTER", "SF_14": 5.0, "SF_15": 5.0, "cnty": "Manatee", "st": "FL", "Zip": 34208.0, "O_14": 5.0, "Q_15": 5.0, "O_15": 5.0, "city": "BRADENTON", "beds": 110.0, "SR_15": 4.0}, {"Diff_star": -1.0, "addr": "5360 GLOVER LANE", "SR_14": 3.0, "Q_14": 2.0, "name": "SANDY RIDGE HEALTH AND REHABILITATION", "SF_14": 4.0, "SF_15": 4.0, "cnty": "Santa Rosa", "st": "FL", "Zip": 32570.0, "O_14": 4.0, "Q_15": 1.0, "O_15": 3.0, "city": "MILTON", "beds": 60.0, "SR_15": 3.0}, {"Diff_star": 0.0, "addr": "15002 HUTCHINSON RD", "SR_14": 3.0, "Q_14": 5.0, "name": "CARROLLWOOD CARE CENTER", "SF_14": 4.0, "SF_15": 4.0, "cnty": "Hillsborough", "st": "FL", "Zip": 33625.0, "O_14": 5.0, "Q_15": 5.0, "O_15": 5.0, "city": "TAMPA", "beds": 120.0, "SR_15": 3.0}, {"Diff_star": 0.0, "addr": "8333 W OKEECHOBEE ROAD", "SR_14": 3.0, "Q_14": 5.0, "name": "SIGNATURE HEALTHCARE CENTER OF WATERFORD", "SF_14": 3.0, "SF_15": 3.0, "cnty": "Miami-Dade", "st": "FL", "Zip": 33016.0, "O_14": 4.0, "Q_15": 5.0, "O_15": 4.0, "city": "HIALEAH GARDENS", "beds": 214.0, "SR_15": 3.0}, {"Diff_star": -1.0, "addr": "17781 THELMA AVENUE", "SR_14": 1.0, "Q_14": 5.0, "name": "COURTYARD GARDENS REHABILITATION CENTER LLC", "SF_14": 4.0, "SF_15": 3.0, "cnty": "Palm Beach", "st": "FL", "Zip": 33458.0, "O_14": 2.0, "Q_15": 4.0, "O_15": 1.0, "city": "JUPITER", "beds": 120.0, "SR_15": 1.0}, {"Diff_star": 0.0, "addr": "500 VILLAGE PLACE", "SR_14": 5.0, "Q_14": 4.0, "name": "VILLAGE ON THE GREEN", "SF_14": 5.0, "SF_15": 5.0, "cnty": "Seminole", "st": "FL", "Zip": 32779.0, "O_14": 5.0, "Q_15": 4.0, "O_15": 5.0, "city": "LONGWOOD", "beds": 30.0, "SR_15": 5.0}, {"Diff_star": 0.0, "addr": "5065 WALLIS ROAD", "SR_14": 1.0, "Q_14": 5.0, "name": "RENAISSANCE HEALTH AND REHABILITATION", "SF_14": 4.0, "SF_15": 4.0, "cnty": "Palm Beach", "st": "FL", "Zip": 33415.0, "O_14": 2.0, "Q_15": 3.0, "O_15": 2.0, "city": "WEST PALM BEACH", "beds": 120.0, "SR_15": 1.0}, {"Diff_star": 0.0, "addr": "1500 SOUTHGATE DRIVE", "SR_14": 1.0, "Q_14": 4.0, "name": "GOOD SAMARITAN SOCIETY-KISSIMMEE VILLAGE", "SF_14": 4.0, "SF_15": 4.0, "cnty": "Osceola", "st": "FL", "Zip": 34746.0, "O_14": 2.0, "Q_15": 2.0, "O_15": 2.0, "city": "KISSIMMEE", "beds": 161.0, "SR_15": 1.0}, {"Diff_star": 0.0, "addr": "11855 QUAIL ROOST DRIVE", "SR_14": 4.0, "Q_14": 5.0, "name": "ST ANNES NURSING CENTER, ST ANNES RESIDENCE INC", "SF_14": 4.0, "SF_15": 4.0, "cnty": "Miami-Dade", "st": "FL", "Zip": 33177.0, "O_14": 5.0, "Q_15": 5.0, "O_15": 5.0, "city": "MIAMI", "beds": 220.0, "SR_15": 3.0}, {"Diff_star": -1.0, "addr": "8475 UNIVERSITY PARKWAY", "SR_14": 3.0, "Q_14": 3.0, "name": "HEALTH CENTER OF PENSACOLA, THE", "SF_14": 4.0, "SF_15": 4.0, "cnty": "Escambia", "st": "FL", "Zip": 32514.0, "O_14": 4.0, "Q_15": 1.0, "O_15": 3.0, "city": "PENSACOLA", "beds": 180.0, "SR_15": 4.0}, {"Diff_star": 0.0, "addr": "2700 SW 34TH ST", "SR_14": 3.0, "Q_14": 4.0, "name": "PALM GARDEN OF OCALA", "SF_14": 3.0, "SF_15": 3.0, "cnty": "Marion", "st": "FL", "Zip": 34474.0, "O_14": 3.0, "Q_15": 2.0, "O_15": 3.0, "city": "OCALA", "beds": 180.0, "SR_15": 3.0}, {"Diff_star": 0.0, "addr": "2255 CENTERVILLE ROAD", "SR_14": 4.0, "Q_14": 4.0, "name": "CENTRE POINTE HEALTH AND REHAB CENTER", "SF_14": 4.0, "SF_15": 4.0, "cnty": "Leon", "st": "FL", "Zip": 32308.0, "O_14": 4.0, "Q_15": 3.0, "O_15": 4.0, "city": "TALLAHASSEE", "beds": 120.0, "SR_15": 4.0}, {"Diff_star": 0.0, "addr": "7950 LAKE UNDERHILL ROAD", "SR_14": 1.0, "Q_14": 4.0, "name": "RIO PINAR HEALTH CARE", "SF_14": 3.0, "SF_15": 3.0, "cnty": "Orange", "st": "FL", "Zip": 32822.0, "O_14": 1.0, "Q_15": 2.0, "O_15": 1.0, "city": "ORLANDO", "beds": 180.0, "SR_15": 1.0}, {"Diff_star": -1.0, "addr": "820 N CLYDE MORRIS BLVD", "SR_14": 4.0, "Q_14": 3.0, "name": "COASTAL HEALTH AND REHABILITATION CENTER", "SF_14": 5.0, "SF_15": 5.0, "cnty": "Volusia", "st": "FL", "Zip": 32117.0, "O_14": 5.0, "Q_15": 1.0, "O_15": 4.0, "city": "DAYTONA BEACH", "beds": 120.0, "SR_15": 4.0}, {"Diff_star": 0.0, "addr": "1120 CYPRESS GARDENS BLVD", "SR_14": 1.0, "Q_14": 4.0, "name": "PALM GARDEN OF WINTER HAVEN", "SF_14": 4.0, "SF_15": 4.0, "cnty": "Polk", "st": "FL", "Zip": 33884.0, "O_14": 2.0, "Q_15": 2.0, "O_15": 2.0, "city": "WINTER HAVEN", "beds": 120.0, "SR_15": 1.0}, {"Diff_star": -1.0, "addr": "3280 LAKE POINTE BLVD", "SR_14": 4.0, "Q_14": 5.0, "name": "SPRINGS AT LAKE POINTE WOODS", "SF_14": 4.0, "SF_15": 4.0, "cnty": "Sarasota", "st": "FL", "Zip": 34231.0, "O_14": 5.0, "Q_15": 4.0, "O_15": 4.0, "city": "SARASOTA", "beds": 119.0, "SR_15": 4.0}, {"Diff_star": -1.0, "addr": "13719 DALLAS DR", "SR_14": 2.0, "Q_14": 5.0, "name": "WINDSOR WOODS REHABILITATION AND HEALTHCARE CENTER", "SF_14": 4.0, "SF_15": 3.0, "cnty": "Pasco", "st": "FL", "Zip": 34667.0, "O_14": 4.0, "Q_15": 4.0, "O_15": 3.0, "city": "HUDSON", "beds": 103.0, "SR_15": 3.0}, {"Diff_star": -2.0, "addr": "595 N WILLIAMSON BLVD", "SR_14": 3.0, "Q_14": 5.0, "name": "INDIGO MANOR", "SF_14": 4.0, "SF_15": 3.0, "cnty": "Volusia", "st": "FL", "Zip": 32114.0, "O_14": 5.0, "Q_15": 4.0, "O_15": 3.0, "city": "DAYTONA BEACH", "beds": 173.0, "SR_15": 3.0}, {"Diff_star": 0.0, "addr": "227 SW 62ND BLVD", "SR_14": 2.0, "Q_14": 4.0, "name": "PALM GARDEN OF GAINESVILLE", "SF_14": 4.0, "SF_15": 4.0, "cnty": "Alachua", "st": "FL", "Zip": 32607.0, "O_14": 3.0, "Q_15": 3.0, "O_15": 3.0, "city": "GAINESVILLE", "beds": 120.0, "SR_15": 2.0}, {"Diff_star": 0.0, "addr": "51 W SAMPLE ROAD", "SR_14": 2.0, "Q_14": 5.0, "name": "POMPANO HEALTH AND REHABILITATION CENTER", "SF_14": 3.0, "SF_15": 3.0, "cnty": "Broward", "st": "FL", "Zip": 33064.0, "O_14": 3.0, "Q_15": 5.0, "O_15": 3.0, "city": "POMPANO BEACH", "beds": 127.0, "SR_15": 2.0}, {"Diff_star": 0.0, "addr": "10500 STARKEY RD", "SR_14": 2.0, "Q_14": 4.0, "name": "PALM GARDEN OF LARGO", "SF_14": 3.0, "SF_15": 3.0, "cnty": "Pinellas", "st": "FL", "Zip": 33777.0, "O_14": 2.0, "Q_15": 2.0, "O_15": 2.0, "city": "LARGO", "beds": 140.0, "SR_15": 2.0}, {"Diff_star": 0.0, "addr": "6750 WEST 22ND COURT", "SR_14": 4.0, "Q_14": 5.0, "name": "PALMETTO REHABILITATION AND HEALTH CENTER", "SF_14": 3.0, "SF_15": 3.0, "cnty": "Miami-Dade", "st": "FL", "Zip": 33016.0, "O_14": 5.0, "Q_15": 5.0, "O_15": 5.0, "city": "HIALEAH", "beds": 90.0, "SR_15": 4.0}, {"Diff_star": 0.0, "addr": "654 N ECONLOCKHATCHEE TRAIL", "SR_14": 1.0, "Q_14": 4.0, "name": "PALM GARDEN OF ORLANDO", "SF_14": 4.0, "SF_15": 4.0, "cnty": "Orange", "st": "FL", "Zip": 32825.0, "O_14": 2.0, "Q_15": 2.0, "O_15": 2.0, "city": "ORLANDO", "beds": 120.0, "SR_15": 1.0}, {"Diff_star": -2.0, "addr": "1615 MIAMI ROAD", "SR_14": 2.0, "Q_14": 3.0, "name": "HARBOR BEACH NURSING AND REHABILITATION CENTER", "SF_14": 4.0, "SF_15": 3.0, "cnty": "Broward", "st": "FL", "Zip": 33316.0, "O_14": 3.0, "Q_15": 1.0, "O_15": 1.0, "city": "FORT LAUDERDALE", "beds": 59.0, "SR_15": 2.0}, {"Diff_star": 0.0, "addr": "1655 SE WALTON ROAD", "SR_14": 3.0, "Q_14": 4.0, "name": "EMERALD HEALTH CARE CENTER", "SF_14": 4.0, "SF_15": 4.0, "cnty": "St. Lucie", "st": "FL", "Zip": 34952.0, "O_14": 4.0, "Q_15": 4.0, "O_15": 4.0, "city": "PORT SAINT LUCIE", "beds": 120.0, "SR_15": 3.0}, {"Diff_star": -1.0, "addr": "1350 S NOVA RD", "SR_14": 2.0, "Q_14": 4.0, "name": "CARLTON SHORES HEALTH AND REHABILITATION CENTER", "SF_14": 4.0, "SF_15": 3.0, "cnty": "Volusia", "st": "FL", "Zip": 32114.0, "O_14": 3.0, "Q_15": 2.0, "O_15": 2.0, "city": "DAYTONA BEACH", "beds": 114.0, "SR_15": 2.0}, {"Diff_star": 0.0, "addr": "3480 MCMULLEN BOOTH RD", "SR_14": 4.0, "Q_14": 5.0, "name": "PALM GARDEN OF CLEARWATER", "SF_14": 4.0, "SF_15": 4.0, "cnty": "Pinellas", "st": "FL", "Zip": 33761.0, "O_14": 5.0, "Q_15": 5.0, "O_15": 5.0, "city": "CLEARWATER", "beds": 120.0, "SR_15": 4.0}, {"Diff_star": 0.0, "addr": "5640 RAND BLVD", "SR_14": 5.0, "Q_14": 5.0, "name": "SARASOTA MEMORIAL NURSING AND REHABILITATION CENTE", "SF_14": 4.0, "SF_15": 4.0, "cnty": "Sarasota", "st": "FL", "Zip": 34238.0, "O_14": 5.0, "Q_15": 5.0, "O_15": 5.0, "city": "SARASOTA", "beds": 120.0, "SR_15": 5.0}, {"Diff_star": -1.0, "addr": "833 KINGSLEY AVE", "SR_14": 1.0, "Q_14": 3.0, "name": "OAK VIEW REHABILITATION CENTER", "SF_14": 4.0, "SF_15": 4.0, "cnty": "Clay", "st": "FL", "Zip": 32073.0, "O_14": 2.0, "Q_15": 1.0, "O_15": 1.0, "city": "ORANGE PARK", "beds": 120.0, "SR_15": 1.0}, {"Diff_star": -1.0, "addr": "3825 COUNTRYSIDE BLVD N", "SR_14": 1.0, "Q_14": 4.0, "name": "COUNTRYSIDE REHAB AND HEALTHCARE CENTER", "SF_14": 4.0, "SF_15": 4.0, "cnty": "Pinellas", "st": "FL", "Zip": 34684.0, "O_14": 2.0, "Q_15": 1.0, "O_15": 1.0, "city": "PALM HARBOR", "beds": 120.0, "SR_15": 1.0}, {"Diff_star": -1.0, "addr": "216 SANTA BARBARA BLVD", "SR_14": 2.0, "Q_14": 4.0, "name": "CORAL TRACE HEALTH CARE", "SF_14": 4.0, "SF_15": 3.0, "cnty": "Lee", "st": "FL", "Zip": 33991.0, "O_14": 3.0, "Q_15": 3.0, "O_15": 2.0, "city": "CAPE CORAL", "beds": 120.0, "SR_15": 2.0}, {"Diff_star": -1.0, "addr": "170 N CENTER STREET", "SR_14": 2.0, "Q_14": 5.0, "name": "COQUINA CENTER", "SF_14": 2.0, "SF_15": 2.0, "cnty": "Volusia", "st": "FL", "Zip": 32174.0, "O_14": 3.0, "Q_15": 3.0, "O_15": 2.0, "city": "ORMOND BEACH", "beds": 120.0, "SR_15": 2.0}, {"Diff_star": -1.0, "addr": "3612 E 138TH AVE", "SR_14": 3.0, "Q_14": 3.0, "name": "PALM GARDEN OF TAMPA", "SF_14": 4.0, "SF_15": 4.0, "cnty": "Hillsborough", "st": "FL", "Zip": 33613.0, "O_14": 4.0, "Q_15": 1.0, "O_15": 3.0, "city": "TAMPA", "beds": 120.0, "SR_15": 3.0}, {"Diff_star": -1.0, "addr": "1755 37TH STREET", "SR_14": 2.0, "Q_14": 4.0, "name": "PALM GARDEN OF VERO BEACH", "SF_14": 3.0, "SF_15": 3.0, "cnty": "Indian River", "st": "FL", "Zip": 32960.0, "O_14": 2.0, "Q_15": 2.0, "O_15": 1.0, "city": "VERO BEACH", "beds": 180.0, "SR_15": 1.0}, {"Diff_star": -2.0, "addr": "2440 CITRUS BLOSSOM CIR", "SR_14": 3.0, "Q_14": 5.0, "name": "WILLOWBROOKE COURT AT INDIAN RIVER ESTATES", "SF_14": 4.0, "SF_15": 3.0, "cnty": "Indian River", "st": "FL", "Zip": 32966.0, "O_14": 5.0, "Q_15": 4.0, "O_15": 3.0, "city": "VERO BEACH", "beds": 120.0, "SR_15": 3.0}, {"Diff_star": 0.0, "addr": "18905 NE 25TH AVE", "SR_14": 2.0, "Q_14": 4.0, "name": "REGENTS PARK AT AVENTURA", "SF_14": 2.0, "SF_15": 2.0, "cnty": "Miami-Dade", "st": "FL", "Zip": 33180.0, "O_14": 2.0, "Q_15": 2.0, "O_15": 2.0, "city": "AVENTURA", "beds": 180.0, "SR_15": 2.0}, {"Diff_star": 0.0, "addr": "110 SE LEE AVE", "SR_14": 2.0, "Q_14": 3.0, "name": "SURREY PLACE CARE CENTER", "SF_14": 4.0, "SF_15": 4.0, "cnty": "Suwannee", "st": "FL", "Zip": 32064.0, "O_14": 3.0, "Q_15": 2.0, "O_15": 3.0, "city": "LIVE OAK", "beds": 60.0, "SR_15": 2.0}, {"Diff_star": 0.0, "addr": "401 E LINTON BLVD", "SR_14": 5.0, "Q_14": 5.0, "name": "HARBOURS EDGE", "SF_14": 5.0, "SF_15": 5.0, "cnty": "Palm Beach", "st": "FL", "Zip": 33483.0, "O_14": 5.0, "Q_15": 5.0, "O_15": 5.0, "city": "DELRAY BEACH", "beds": 54.0, "SR_15": 5.0}, {"Diff_star": 0.0, "addr": "38220 HENRY DR", "SR_14": 3.0, "Q_14": 5.0, "name": "HEARTLAND OF ZEPHYRHILLS", "SF_14": 3.0, "SF_15": 3.0, "cnty": "Pasco", "st": "FL", "Zip": 33540.0, "O_14": 4.0, "Q_15": 5.0, "O_15": 4.0, "city": "ZEPHYRHILLS", "beds": 120.0, "SR_15": 3.0}, {"Diff_star": 0.0, "addr": "1751 SE HILLMOOR DRIVE", "SR_14": 2.0, "Q_14": 5.0, "name": "PALM GARDEN OF PORT SAINT LUCIE", "SF_14": 4.0, "SF_15": 4.0, "cnty": "St. Lucie", "st": "FL", "Zip": 34952.0, "O_14": 4.0, "Q_15": 5.0, "O_15": 4.0, "city": "PORT SAINT LUCIE", "beds": 120.0, "SR_15": 2.0}, {"Diff_star": 0.0, "addr": "138 SANDESTIN LANE", "SR_14": 5.0, "Q_14": 5.0, "name": "GRAND BOULEVARD HEALTH AND REHABILITATION CENTER", "SF_14": 4.0, "SF_15": 4.0, "cnty": "Walton", "st": "FL", "Zip": 32550.0, "O_14": 5.0, "Q_15": 2.0, "O_15": 5.0, "city": "MIRAMAR BEACH", "beds": 97.0, "SR_15": 5.0}, {"Diff_star": -1.0, "addr": "4100 SW 33RD AVE", "SR_14": 2.0, "Q_14": 4.0, "name": "HAWTHORNE HEALTH AND REHAB OF OCALA", "SF_14": 4.0, "SF_15": 3.0, "cnty": "Marion", "st": "FL", "Zip": 34474.0, "O_14": 3.0, "Q_15": 3.0, "O_15": 2.0, "city": "OCALA", "beds": 120.0, "SR_15": 2.0}, {"Diff_star": 0.0, "addr": "926 HABEN BLVD", "SR_14": 3.0, "Q_14": 4.0, "name": "RIVIERA PALMS REHABILITATION CENTER", "SF_14": 4.0, "SF_15": 4.0, "cnty": "Manatee", "st": "FL", "Zip": 34221.0, "O_14": 4.0, "Q_15": 2.0, "O_15": 4.0, "city": "PALMETTO", "beds": 120.0, "SR_15": 3.0}, {"Diff_star": 0.0, "addr": "9211 W BROWARD BLVD", "SR_14": 1.0, "Q_14": 5.0, "name": "COVENANT VILLAGE CARE CENTER", "SF_14": 4.0, "SF_15": 4.0, "cnty": "Broward", "st": "FL", "Zip": 33324.0, "O_14": 2.0, "Q_15": 5.0, "O_15": 2.0, "city": "PLANTATION", "beds": 60.0, "SR_15": 1.0}, {"Diff_star": -1.0, "addr": "575 LAMAR AVE", "SR_14": 2.0, "Q_14": 5.0, "name": "HEARTLAND OF BROOKSVILLE", "SF_14": 2.0, "SF_15": 2.0, "cnty": "Hernando", "st": "FL", "Zip": 34601.0, "O_14": 3.0, "Q_15": 3.0, "O_15": 2.0, "city": "BROOKSVILLE", "beds": 120.0, "SR_15": 2.0}, {"Diff_star": 0.0, "addr": "300 EXECUTIVE CENTER DRIVE", "SR_14": 2.0, "Q_14": 4.0, "name": "PALM GARDEN OF WEST PALM BEACH", "SF_14": 4.0, "SF_15": 4.0, "cnty": "Palm Beach", "st": "FL", "Zip": 33401.0, "O_14": 3.0, "Q_15": 2.0, "O_15": 3.0, "city": "WEST PALM BEACH", "beds": 176.0, "SR_15": 2.0}, {"Diff_star": -2.0, "addr": "5901 NW 79TH AVENUE", "SR_14": 2.0, "Q_14": 5.0, "name": "HEARTLAND OF TAMARAC", "SF_14": 4.0, "SF_15": 3.0, "cnty": "Broward", "st": "FL", "Zip": 33321.0, "O_14": 4.0, "Q_15": 4.0, "O_15": 2.0, "city": "TAMARAC", "beds": 151.0, "SR_15": 2.0}, {"Diff_star": -1.0, "addr": "21251 E DIXIE HIGHWAY", "SR_14": 2.0, "Q_14": 5.0, "name": "PALM GARDEN OF AVENTURA", "SF_14": 4.0, "SF_15": 4.0, "cnty": "Miami-Dade", "st": "FL", "Zip": 33180.0, "O_14": 4.0, "Q_15": 3.0, "O_15": 3.0, "city": "NORTH MIAMI BEACH", "beds": 120.0, "SR_15": 2.0}, {"Diff_star": -2.0, "addr": "6414 13TH ROAD SOUTH", "SR_14": 3.0, "Q_14": 4.0, "name": "WOOD LAKE NURSING AND REHABILITATION CENTER", "SF_14": 4.0, "SF_15": 3.0, "cnty": "Palm Beach", "st": "FL", "Zip": 33415.0, "O_14": 4.0, "Q_15": 1.0, "O_15": 2.0, "city": "WEST PALM BEACH", "beds": 120.0, "SR_15": 3.0}, {"Diff_star": 0.0, "addr": "910 BROOKMEADE DRIVE", "SR_14": 4.0, "Q_14": 5.0, "name": "SILVERCREST HEALTH AND REHABILITATION CENTER", "SF_14": 4.0, "SF_15": 4.0, "cnty": "Okaloosa", "st": "FL", "Zip": 32539.0, "O_14": 5.0, "Q_15": 5.0, "O_15": 5.0, "city": "CRESTVIEW", "beds": 60.0, "SR_15": 4.0}, {"Diff_star": 0.0, "addr": "1620 HELVENSTON ST SE", "SR_14": 4.0, "Q_14": 4.0, "name": "SUWANNEE HEALTH AND REHABILITATION CENTER", "SF_14": 4.0, "SF_15": 4.0, "cnty": "Suwannee", "st": "FL", "Zip": 32064.0, "O_14": 4.0, "Q_15": 3.0, "O_15": 4.0, "city": "LIVE OAK", "beds": 180.0, "SR_15": 4.0}, {"Diff_star": 0.0, "addr": "10501 ROOSEVELT BLVD N", "SR_14": 2.0, "Q_14": 5.0, "name": "CARRINGTON PLACE OF ST PETE", "SF_14": 4.0, "SF_15": 4.0, "cnty": "Pinellas", "st": "FL", "Zip": 33716.0, "O_14": 4.0, "Q_15": 5.0, "O_15": 4.0, "city": "SAINT PETERSBURG", "beds": 120.0, "SR_15": 2.0}, {"Diff_star": -1.0, "addr": "1504 SEABREEZE AVE", "SR_14": 1.0, "Q_14": 5.0, "name": "AVANTE VILLA AT JACKSONVILLE BEACH INC", "SF_14": 4.0, "SF_15": 3.0, "cnty": "Duval", "st": "FL", "Zip": 32250.0, "O_14": 2.0, "Q_15": 3.0, "O_15": 1.0, "city": "JACKSONVILLE BEACH", "beds": 165.0, "SR_15": 1.0}, {"Diff_star": -1.0, "addr": "558 N SEMORAN BLVD", "SR_14": 3.0, "Q_14": 4.0, "name": "REGENTS PARK OF WINTER PARK", "SF_14": 5.0, "SF_15": 4.0, "cnty": "Orange", "st": "FL", "Zip": 32792.0, "O_14": 4.0, "Q_15": 3.0, "O_15": 3.0, "city": "WINTER PARK", "beds": 120.0, "SR_15": 2.0}, {"Diff_star": -1.0, "addr": "4240 LAKELAND HIGHLANDS RD", "SR_14": 4.0, "Q_14": 4.0, "name": "HIGHLANDS LAKE CENTER", "SF_14": 3.0, "SF_15": 3.0, "cnty": "Polk", "st": "FL", "Zip": 33813.0, "O_14": 4.0, "Q_15": 1.0, "O_15": 3.0, "city": "LAKELAND", "beds": 179.0, "SR_15": 4.0}, {"Diff_star": 0.0, "addr": "700 N PALMETTO ST", "SR_14": 2.0, "Q_14": 4.0, "name": "NORTH CAMPUS REHABILITATION AND NURSING CENTER", "SF_14": 3.0, "SF_15": 3.0, "cnty": "Lake", "st": "FL", "Zip": 34748.0, "O_14": 2.0, "Q_15": 4.0, "O_15": 2.0, "city": "LEESBURG", "beds": 90.0, "SR_15": 2.0}, {"Diff_star": 0.0, "addr": "401 EAST SAMPLE ROAD", "SR_14": 3.0, "Q_14": 5.0, "name": "DEERFIELD BEACH HEALTH AND REHABILITATION CENTER", "SF_14": 4.0, "SF_15": 4.0, "cnty": "Broward", "st": "FL", "Zip": 33064.0, "O_14": 5.0, "Q_15": 5.0, "O_15": 5.0, "city": "POMPANO BEACH", "beds": 194.0, "SR_15": 3.0}, {"Diff_star": 0.0, "addr": "2525 SW 75TH AVENUE", "SR_14": 3.0, "Q_14": 4.0, "name": "WEST GABLES HEALTH CARE CENTER", "SF_14": 4.0, "SF_15": 4.0, "cnty": "Miami-Dade", "st": "FL", "Zip": 33155.0, "O_14": 4.0, "Q_15": 3.0, "O_15": 4.0, "city": "MIAMI", "beds": 120.0, "SR_15": 3.0}, {"Diff_star": -1.0, "addr": "306 WEST BROCK AVENUE", "SR_14": 3.0, "Q_14": 4.0, "name": "BONIFAY NURSING AND REHAB CENTER", "SF_14": 3.0, "SF_15": 3.0, "cnty": "Holmes", "st": "FL", "Zip": 32425.0, "O_14": 3.0, "Q_15": 1.0, "O_15": 2.0, "city": "BONIFAY", "beds": 180.0, "SR_15": 3.0}, {"Diff_star": -1.0, "addr": "785 S 2ND STREET", "SR_14": 5.0, "Q_14": 5.0, "name": "CHAUTAUQUA REHABILITATION AND NURSING CENTER", "SF_14": 4.0, "SF_15": 3.0, "cnty": "Walton", "st": "FL", "Zip": 32435.0, "O_14": 5.0, "Q_15": 4.0, "O_15": 4.0, "city": "DEFUNIAK SPRINGS", "beds": 180.0, "SR_15": 4.0}, {"Diff_star": 0.0, "addr": "2701 N COURSE DR", "SR_14": 5.0, "Q_14": 5.0, "name": "COURT AT PALM AIRE, THE", "SF_14": 4.0, "SF_15": 3.0, "cnty": "Broward", "st": "FL", "Zip": 33069.0, "O_14": 5.0, "Q_15": 5.0, "O_15": 5.0, "city": "POMPANO BEACH", "beds": 60.0, "SR_15": 5.0}, {"Diff_star": -1.0, "addr": "1717 W AVERY ST", "SR_14": 3.0, "Q_14": 3.0, "name": "REHABILITATION CENTER AT PARK PLACE", "SF_14": 2.0, "SF_15": 2.0, "cnty": "Escambia", "st": "FL", "Zip": 32501.0, "O_14": 3.0, "Q_15": 1.0, "O_15": 2.0, "city": "PENSACOLA", "beds": 118.0, "SR_15": 3.0}, {"Diff_star": 1.0, "addr": "5525 21ST AVE W", "SR_14": 2.0, "Q_14": 2.0, "name": "SURREY PLACE HEALTHCARE AND REHABILITATION", "SF_14": 4.0, "SF_15": 4.0, "cnty": "Manatee", "st": "FL", "Zip": 34209.0, "O_14": 3.0, "Q_15": 1.0, "O_15": 4.0, "city": "BRADENTON", "beds": 65.0, "SR_15": 5.0}, {"Diff_star": 0.0, "addr": "1003 YORK ROAD", "SR_14": 5.0, "Q_14": 5.0, "name": "VICAR'S LANDING NURSING HOME", "SF_14": 3.0, "SF_15": 3.0, "cnty": "St. Johns", "st": "FL", "Zip": 32082.0, "O_14": 5.0, "Q_15": 4.0, "O_15": 5.0, "city": "PONTE VEDRA BEACH", "beds": 15.0, "SR_15": 5.0}, {"Diff_star": 0.0, "addr": "207 MARSHALL DRIVE", "SR_14": 1.0, "Q_14": 4.0, "name": "MARSHALL HEALTH AND REHABILITATION CENTER", "SF_14": 2.0, "SF_15": 2.0, "cnty": "Taylor", "st": "FL", "Zip": 32347.0, "O_14": 1.0, "Q_15": 2.0, "O_15": 1.0, "city": "PERRY", "beds": 120.0, "SR_15": 1.0}, {"Diff_star": 0.0, "addr": "11565 HARTS ROAD", "SR_14": 3.0, "Q_14": 4.0, "name": "HARTS HARBOR HEALTH CARE CENTER", "SF_14": 2.0, "SF_15": 2.0, "cnty": "Duval", "st": "FL", "Zip": 32218.0, "O_14": 3.0, "Q_15": 2.0, "O_15": 3.0, "city": "JACKSONVILLE", "beds": 180.0, "SR_15": 3.0}, {"Diff_star": 0.0, "addr": "1100 N PINE ST", "SR_14": 3.0, "Q_14": 4.0, "name": "GLEN OAKS HEALTH AND REHABILITATION CENTER", "SF_14": 4.0, "SF_15": 4.0, "cnty": "Pinellas", "st": "FL", "Zip": 33756.0, "O_14": 4.0, "Q_15": 2.0, "O_15": 4.0, "city": "CLEARWATER", "beds": 76.0, "SR_15": 3.0}, {"Diff_star": 0.0, "addr": "251 FLORIDA AVE", "SR_14": 5.0, "Q_14": 5.0, "name": "MELBOURNE TERRACE REHABILITATION CENTER", "SF_14": 5.0, "SF_15": 5.0, "cnty": "Brevard", "st": "FL", "Zip": 32901.0, "O_14": 5.0, "Q_15": 4.0, "O_15": 5.0, "city": "MELBOURNE", "beds": 120.0, "SR_15": 5.0}, {"Diff_star": 0.0, "addr": "1150 PONCE DE LEON BLVD", "SR_14": 4.0, "Q_14": 4.0, "name": "BELLEAIR HEALTH CARE CENTER", "SF_14": 4.0, "SF_15": 4.0, "cnty": "Pinellas", "st": "FL", "Zip": 33756.0, "O_14": 4.0, "Q_15": 2.0, "O_15": 4.0, "city": "CLEARWATER", "beds": 120.0, "SR_15": 4.0}, {"Diff_star": -1.0, "addr": "4295 FIFTH AVENUE", "SR_14": 4.0, "Q_14": 4.0, "name": "MARIANNA HEALTH AND REHABILITATION CENTER", "SF_14": 4.0, "SF_15": 3.0, "cnty": "Jackson", "st": "FL", "Zip": 32446.0, "O_14": 4.0, "Q_15": 1.0, "O_15": 3.0, "city": "MARIANNA", "beds": 180.0, "SR_15": 4.0}, {"Diff_star": -1.0, "addr": "1000 SW 16TH AVE", "SR_14": 2.0, "Q_14": 5.0, "name": "PARKLANDS REHABILITATION AND NURSING CENTER", "SF_14": 3.0, "SF_15": 3.0, "cnty": "Alachua", "st": "FL", "Zip": 32601.0, "O_14": 3.0, "Q_15": 4.0, "O_15": 2.0, "city": "GAINESVILLE", "beds": 120.0, "SR_15": 2.0}, {"Diff_star": 0.0, "addr": "750 BAYBERRY DRIVE", "SR_14": 1.0, "Q_14": 5.0, "name": "NORTH LAKE REHABILITATION AND HEALTH CENTER", "SF_14": 4.0, "SF_15": 4.0, "cnty": "Palm Beach", "st": "FL", "Zip": 33403.0, "O_14": 2.0, "Q_15": 4.0, "O_15": 2.0, "city": "LAKE PARK", "beds": 85.0, "SR_15": 1.0}, {"Diff_star": -1.0, "addr": "9400 SW 137TH AVENUE", "SR_14": 3.0, "Q_14": 5.0, "name": "HEARTLAND HEALTH CARE CENTER KENDALL", "SF_14": 2.0, "SF_15": 2.0, "cnty": "Miami-Dade", "st": "FL", "Zip": 33186.0, "O_14": 4.0, "Q_15": 4.0, "O_15": 3.0, "city": "KENDALL", "beds": 120.0, "SR_15": 3.0}, {"Diff_star": -1.0, "addr": "155 LANDOVER PLACE", "SR_14": 3.0, "Q_14": 5.0, "name": "ISLAND LAKE CENTER", "SF_14": 4.0, "SF_15": 3.0, "cnty": "Seminole", "st": "FL", "Zip": 32750.0, "O_14": 5.0, "Q_15": 5.0, "O_15": 4.0, "city": "LONGWOOD", "beds": 120.0, "SR_15": 3.0}, {"Diff_star": 0.0, "addr": "518 W FLETCHER AVE", "SR_14": 2.0, "Q_14": 4.0, "name": "FLETCHER HEALTH AND REHABILITATION CENTER", "SF_14": 2.0, "SF_15": 2.0, "cnty": "Hillsborough", "st": "FL", "Zip": 33612.0, "O_14": 2.0, "Q_15": 2.0, "O_15": 2.0, "city": "TAMPA", "beds": 120.0, "SR_15": 2.0}, {"Diff_star": 0.0, "addr": "6209 BROOKS BARTRAM DRIVE", "SR_14": 4.0, "Q_14": 4.0, "name": "BARTRAM CROSSING", "SF_14": 4.0, "SF_15": 4.0, "cnty": "Duval", "st": "FL", "Zip": 32258.0, "O_14": 4.0, "Q_15": 3.0, "O_15": 4.0, "city": "JACKSONVILLE", "beds": 100.0, "SR_15": 4.0}, {"Diff_star": -1.0, "addr": "490 S OLD WIRE RD", "SR_14": 2.0, "Q_14": 4.0, "name": "ARBOR VILLAGE NURSING CENTER", "SF_14": 4.0, "SF_15": 4.0, "cnty": "Sumter", "st": "FL", "Zip": 34785.0, "O_14": 3.0, "Q_15": 1.0, "O_15": 2.0, "city": "WILDWOOD", "beds": 180.0, "SR_15": 2.0}, {"Diff_star": -1.0, "addr": "3117 W GANDY BLVD", "SR_14": 3.0, "Q_14": 5.0, "name": "BAYSHORE POINTE NURSING AND REHAB CENTER", "SF_14": 4.0, "SF_15": 4.0, "cnty": "Hillsborough", "st": "FL", "Zip": 33611.0, "O_14": 5.0, "Q_15": 4.0, "O_15": 4.0, "city": "TAMPA", "beds": 117.0, "SR_15": 3.0}, {"Diff_star": 0.0, "addr": "325 S SEGRAVE STREET", "SR_14": 4.0, "Q_14": 4.0, "name": "GOOD SAMARITAN SOCIETY-DAYTONA", "SF_14": 4.0, "SF_15": 4.0, "cnty": "Volusia", "st": "FL", "Zip": 32114.0, "O_14": 4.0, "Q_15": 2.0, "O_15": 4.0, "city": "DAYTONA BEACH", "beds": 120.0, "SR_15": 4.0}, {"Diff_star": 0.0, "addr": "110 KAY LARKIN DR", "SR_14": 3.0, "Q_14": 4.0, "name": "PALATKA HEALTH CARE CENTER", "SF_14": 4.0, "SF_15": 4.0, "cnty": "Putnam", "st": "FL", "Zip": 32177.0, "O_14": 4.0, "Q_15": 3.0, "O_15": 4.0, "city": "PALATKA", "beds": 180.0, "SR_15": 3.0}, {"Diff_star": 0.0, "addr": "1215 KINGSLEY AVE", "SR_14": 1.0, "Q_14": 4.0, "name": "CONSULATE HEALTH CARE OF ORANGE PARK", "SF_14": 3.0, "SF_15": 3.0, "cnty": "Clay", "st": "FL", "Zip": 32073.0, "O_14": 1.0, "Q_15": 1.0, "O_15": 1.0, "city": "ORANGE PARK", "beds": 120.0, "SR_15": 1.0}, {"Diff_star": 0.0, "addr": "3301 N MCMULLEN BOOTH RD", "SR_14": 4.0, "Q_14": 5.0, "name": "WESTCHESTER GARDENS REHABILITATION CARE CENTER", "SF_14": 4.0, "SF_15": 4.0, "cnty": "Pinellas", "st": "FL", "Zip": 33761.0, "O_14": 5.0, "Q_15": 5.0, "O_15": 5.0, "city": "CLEARWATER", "beds": 120.0, "SR_15": 4.0}, {"Diff_star": 0.0, "addr": "6410 21ST AVE W", "SR_14": 1.0, "Q_14": 4.0, "name": "NURSING CENTER AT FREEDOM VILLAGE, THE", "SF_14": 4.0, "SF_15": 4.0, "cnty": "Manatee", "st": "FL", "Zip": 34209.0, "O_14": 2.0, "Q_15": 2.0, "O_15": 2.0, "city": "BRADENTON", "beds": 120.0, "SR_15": 1.0}, {"Diff_star": 0.0, "addr": "2730 W MARC KNIGHTON CT", "SR_14": 4.0, "Q_14": 4.0, "name": "DIAMOND RIDGE HEALTH AND REHABILITATION CENTER", "SF_14": 3.0, "SF_15": 3.0, "cnty": "Citrus", "st": "FL", "Zip": 34461.0, "O_14": 4.0, "Q_15": 3.0, "O_15": 4.0, "city": "LECANTO", "beds": 120.0, "SR_15": 4.0}, {"Diff_star": 0.0, "addr": "38250 A AVE", "SR_14": 4.0, "Q_14": 3.0, "name": "ZEPHYR HAVEN HEALTH & REHAB CENTER, INC", "SF_14": 3.0, "SF_15": 3.0, "cnty": "Pasco", "st": "FL", "Zip": 33542.0, "O_14": 4.0, "Q_15": 2.0, "O_15": 4.0, "city": "ZEPHYRHILLS", "beds": 120.0, "SR_15": 4.0}, {"Diff_star": 0.0, "addr": "1201 12TH AVENUE SOUTH", "SR_14": 2.0, "Q_14": 5.0, "name": "OASIS HEALTH AND REHABILITATION CENTER", "SF_14": 4.0, "SF_15": 4.0, "cnty": "Palm Beach", "st": "FL", "Zip": 33460.0, "O_14": 4.0, "Q_15": 5.0, "O_15": 4.0, "city": "LAKE WORTH", "beds": 120.0, "SR_15": 2.0}, {"Diff_star": 0.0, "addr": "1001 CARPENTERS WAY", "SR_14": 1.0, "Q_14": 5.0, "name": "MANOR AT CARPENTERS, THE", "SF_14": 4.0, "SF_15": 4.0, "cnty": "Polk", "st": "FL", "Zip": 33809.0, "O_14": 2.0, "Q_15": 4.0, "O_15": 2.0, "city": "LAKELAND", "beds": 72.0, "SR_15": 1.0}, {"Diff_star": 0.0, "addr": "1083 SANDERS AVENUE", "SR_14": 5.0, "Q_14": 4.0, "name": "SIGNATURE HEALTHCARE OF NORTH FLORIDA", "SF_14": 4.0, "SF_15": 3.0, "cnty": "Jackson", "st": "FL", "Zip": 32440.0, "O_14": 5.0, "Q_15": 2.0, "O_15": 5.0, "city": "GRACEVILLE", "beds": 180.0, "SR_15": 5.0}, {"Diff_star": -1.0, "addr": "803 OAK ST", "SR_14": 2.0, "Q_14": 4.0, "name": "GOVERNORS CREEK HEALTH AND REHABILITATION", "SF_14": 4.0, "SF_15": 3.0, "cnty": "Clay", "st": "FL", "Zip": 32043.0, "O_14": 3.0, "Q_15": 2.0, "O_15": 2.0, "city": "GREEN COVE SPRINGS", "beds": 120.0, "SR_15": 2.0}, {"Diff_star": -1.0, "addr": "4000 SW 20TH AVE", "SR_14": 1.0, "Q_14": 5.0, "name": "SIGNATURE HEALTHCARE OF GAINESVILLE", "SF_14": 4.0, "SF_15": 3.0, "cnty": "Alachua", "st": "FL", "Zip": 32607.0, "O_14": 2.0, "Q_15": 4.0, "O_15": 1.0, "city": "GAINESVILLE", "beds": 120.0, "SR_15": 1.0}, {"Diff_star": 0.0, "addr": "650 REED CANAL ROAD", "SR_14": 5.0, "Q_14": 4.0, "name": "OAKTREE HEALTHCARE", "SF_14": 4.0, "SF_15": 4.0, "cnty": "Volusia", "st": "FL", "Zip": 32119.0, "O_14": 5.0, "Q_15": 2.0, "O_15": 5.0, "city": "SOUTH DAYTONA", "beds": 65.0, "SR_15": 5.0}, {"Diff_star": -2.0, "addr": "12740 LANIER ROAD", "SR_14": 2.0, "Q_14": 5.0, "name": "LANIER MANOR", "SF_14": 4.0, "SF_15": 4.0, "cnty": "Duval", "st": "FL", "Zip": 32226.0, "O_14": 4.0, "Q_15": 4.0, "O_15": 2.0, "city": "JACKSONVILLE", "beds": 120.0, "SR_15": 1.0}, {"Diff_star": 0.0, "addr": "777 SOUTH DOUGLAS ROAD", "SR_14": 4.0, "Q_14": 5.0, "name": "MEMORIAL MANOR", "SF_14": 5.0, "SF_15": 5.0, "cnty": "Broward", "st": "FL", "Zip": 33025.0, "O_14": 5.0, "Q_15": 5.0, "O_15": 5.0, "city": "PEMBROKE PINES", "beds": 120.0, "SR_15": 4.0}, {"Diff_star": -1.0, "addr": "1301 KANSAS AVE", "SR_14": 3.0, "Q_14": 5.0, "name": "AVANTE AT ST CLOUD INC", "SF_14": 5.0, "SF_15": 5.0, "cnty": "Osceola", "st": "FL", "Zip": 34769.0, "O_14": 5.0, "Q_15": 4.0, "O_15": 4.0, "city": "SAINT CLOUD", "beds": 131.0, "SR_15": 3.0}, {"Diff_star": 0.0, "addr": "1420 SOUTH OAK STREET", "SR_14": 3.0, "Q_14": 5.0, "name": "AVANTE AT MELBOURNE INC", "SF_14": 4.0, "SF_15": 4.0, "cnty": "Brevard", "st": "FL", "Zip": 32901.0, "O_14": 5.0, "Q_15": 5.0, "O_15": 5.0, "city": "MELBOURNE", "beds": 110.0, "SR_15": 3.0}, {"Diff_star": 0.0, "addr": "1333 SANTA BARBARA BLVD", "SR_14": 3.0, "Q_14": 5.0, "name": "GULF COAST VILLAGE CARE CENTER", "SF_14": 4.0, "SF_15": 4.0, "cnty": "Lee", "st": "FL", "Zip": 33991.0, "O_14": 5.0, "Q_15": 5.0, "O_15": 5.0, "city": "CAPE CORAL", "beds": 85.0, "SR_15": 3.0}, {"Diff_star": -2.0, "addr": "7201 GREENBORO DR", "SR_14": 2.0, "Q_14": 5.0, "name": "INDIAN RIVER CENTER", "SF_14": 4.0, "SF_15": 3.0, "cnty": "Brevard", "st": "FL", "Zip": 32904.0, "O_14": 4.0, "Q_15": 3.0, "O_15": 2.0, "city": "WEST MELBOURNE", "beds": 179.0, "SR_15": 2.0}, {"Diff_star": 0.0, "addr": "12250 N 22ND ST", "SR_14": 1.0, "Q_14": 5.0, "name": "NURSING CENTER AT UNIVERSITY VILLAGE, THE", "SF_14": 3.0, "SF_15": 3.0, "cnty": "Hillsborough", "st": "FL", "Zip": 33612.0, "O_14": 2.0, "Q_15": 5.0, "O_15": 2.0, "city": "TAMPA", "beds": 120.0, "SR_15": 1.0}, {"Diff_star": -1.0, "addr": "9711 W OAKLAND PARK BLVD", "SR_14": 1.0, "Q_14": 5.0, "name": "REGENTS PARK OF SUNRISE", "SF_14": 3.0, "SF_15": 3.0, "cnty": "Broward", "st": "FL", "Zip": 33351.0, "O_14": 2.0, "Q_15": 4.0, "O_15": 1.0, "city": "SUNRISE", "beds": 120.0, "SR_15": 1.0}, {"Diff_star": -1.0, "addr": "2599 NW 55TH AVE", "SR_14": 1.0, "Q_14": 5.0, "name": "HEARTLAND HEALTH CARE CENTER LAUDERHILL", "SF_14": 1.0, "SF_15": 1.0, "cnty": "Broward", "st": "FL", "Zip": 33313.0, "O_14": 2.0, "Q_15": 4.0, "O_15": 1.0, "city": "LAUDERHILL", "beds": 109.0, "SR_15": 1.0}, {"Diff_star": 0.0, "addr": "5725 SPRING PARK ROAD", "SR_14": 1.0, "Q_14": 3.0, "name": "PALM GARDEN OF JACKSONVILLE", "SF_14": 3.0, "SF_15": 3.0, "cnty": "Duval", "st": "FL", "Zip": 32216.0, "O_14": 1.0, "Q_15": 1.0, "O_15": 1.0, "city": "JACKSONVILLE", "beds": 120.0, "SR_15": 1.0}, {"Diff_star": 0.0, "addr": "250 BROWARD AVE", "SR_14": 5.0, "Q_14": 4.0, "name": "OAKBROOK OF LABELLE", "SF_14": 4.0, "SF_15": 4.0, "cnty": "Hendry", "st": "FL", "Zip": 33935.0, "O_14": 5.0, "Q_15": 2.0, "O_15": 5.0, "city": "LABELLE", "beds": 93.0, "SR_15": 5.0}, {"Diff_star": -1.0, "addr": "8495 NORMANDY BLVD", "SR_14": 1.0, "Q_14": 5.0, "name": "HEARTLAND HEALTH CARE CENTER JACKSONVILLE", "SF_14": 3.0, "SF_15": 3.0, "cnty": "Duval", "st": "FL", "Zip": 32221.0, "O_14": 2.0, "Q_15": 4.0, "O_15": 1.0, "city": "JACKSONVILLE", "beds": 120.0, "SR_15": 1.0}, {"Diff_star": -1.0, "addr": "9945 CENTRAL PARK BLVD NORTH", "SR_14": 2.0, "Q_14": 5.0, "name": "MENORAH HOUSE", "SF_14": 3.0, "SF_15": 3.0, "cnty": "Palm Beach", "st": "FL", "Zip": 33428.0, "O_14": 3.0, "Q_15": 4.0, "O_15": 2.0, "city": "BOCA RATON", "beds": 120.0, "SR_15": 2.0}, {"Diff_star": 0.0, "addr": "4251 SPRINGTREE DRIVE", "SR_14": 3.0, "Q_14": 5.0, "name": "SPRINGTREE REHABILITATION & HEALTH CARE CENTER", "SF_14": 2.0, "SF_15": 2.0, "cnty": "Broward", "st": "FL", "Zip": 33351.0, "O_14": 4.0, "Q_15": 5.0, "O_15": 4.0, "city": "SUNRISE", "beds": 110.0, "SR_15": 3.0}, {"Diff_star": 0.0, "addr": "800 SE CENTRAL PKWY", "SR_14": 1.0, "Q_14": 5.0, "name": "PARKWAY HEALTH & REHABILITATION CENTER", "SF_14": 4.0, "SF_15": 4.0, "cnty": "Martin", "st": "FL", "Zip": 34994.0, "O_14": 2.0, "Q_15": 4.0, "O_15": 2.0, "city": "STUART", "beds": 177.0, "SR_15": 1.0}, {"Diff_star": -1.0, "addr": "10300 4TH ST N", "SR_14": 4.0, "Q_14": 5.0, "name": "BON SECOURS MARIA MANOR NURSING CARE CENTER", "SF_14": 4.0, "SF_15": 4.0, "cnty": "Pinellas", "st": "FL", "Zip": 33716.0, "O_14": 5.0, "Q_15": 4.0, "O_15": 4.0, "city": "SAINT PETERSBURG", "beds": 274.0, "SR_15": 4.0}, {"Diff_star": 0.0, "addr": "1111 S HIGHLAND AVE", "SR_14": 1.0, "Q_14": 5.0, "name": "HIGHLAND PINES REHABILITATION CENTER", "SF_14": 1.0, "SF_15": 1.0, "cnty": "Pinellas", "st": "FL", "Zip": 33756.0, "O_14": 2.0, "Q_15": 5.0, "O_15": 2.0, "city": "CLEARWATER", "beds": 120.0, "SR_15": 1.0}, {"Diff_star": 0.0, "addr": "3001 DEER CREEK COUNTRY CLUB", "SR_14": 5.0, "Q_14": 5.0, "name": "FORUM AT DEER CREEK", "SF_14": 4.0, "SF_15": 4.0, "cnty": "Broward", "st": "FL", "Zip": 33442.0, "O_14": 5.0, "Q_15": 4.0, "O_15": 5.0, "city": "DEERFIELD BEACH", "beds": 60.0, "SR_15": 5.0}, {"Diff_star": -1.0, "addr": "570 WELLS RD", "SR_14": 3.0, "Q_14": 3.0, "name": "HEARTLAND HEALTH CARE CENTER ORANGE PARK", "SF_14": 4.0, "SF_15": 3.0, "cnty": "Clay", "st": "FL", "Zip": 32073.0, "O_14": 4.0, "Q_15": 2.0, "O_15": 3.0, "city": "ORANGE PARK", "beds": 120.0, "SR_15": 3.0}, {"Diff_star": -1.0, "addr": "2020 W LAKE PARKER DR", "SR_14": 1.0, "Q_14": 5.0, "name": "CONSULATE HEALTH CARE OF LAKE PARKER", "SF_14": 1.0, "SF_15": 1.0, "cnty": "Polk", "st": "FL", "Zip": 33805.0, "O_14": 2.0, "Q_15": 4.0, "O_15": 1.0, "city": "LAKELAND", "beds": 120.0, "SR_15": 1.0}, {"Diff_star": -1.0, "addr": "499 ALTERNATE KEENE RD NE", "SR_14": 4.0, "Q_14": 5.0, "name": "SABAL PALMS HEALTH CARE CENTER", "SF_14": 4.0, "SF_15": 4.0, "cnty": "Pinellas", "st": "FL", "Zip": 33771.0, "O_14": 5.0, "Q_15": 4.0, "O_15": 4.0, "city": "LARGO", "beds": 244.0, "SR_15": 4.0}, {"Diff_star": -1.0, "addr": "602 E LAURA ST", "SR_14": 4.0, "Q_14": 5.0, "name": "WINDSOR HEALTH AND REHABILITATION CENTER", "SF_14": 3.0, "SF_15": 3.0, "cnty": "Bradford", "st": "FL", "Zip": 32091.0, "O_14": 5.0, "Q_15": 3.0, "O_15": 4.0, "city": "STARKE", "beds": 120.0, "SR_15": 4.0}, {"Diff_star": 0.0, "addr": "4470 E BAY DR", "SR_14": 2.0, "Q_14": 5.0, "name": "EAST BAY REHABILITATION CENTER", "SF_14": 4.0, "SF_15": 4.0, "cnty": "Pinellas", "st": "FL", "Zip": 33764.0, "O_14": 4.0, "Q_15": 5.0, "O_15": 4.0, "city": "CLEARWATER", "beds": 120.0, "SR_15": 2.0}, {"Diff_star": -1.0, "addr": "3030 BEARSS AVE", "SR_14": 2.0, "Q_14": 4.0, "name": "MANORCARE HEALTH SERVICES CARROLLWOOD", "SF_14": 4.0, "SF_15": 3.0, "cnty": "Hillsborough", "st": "FL", "Zip": 33618.0, "O_14": 3.0, "Q_15": 3.0, "O_15": 2.0, "city": "TAMPA", "beds": 120.0, "SR_15": 2.0}, {"Diff_star": -1.0, "addr": "500 CROCKETT BLVD", "SR_14": 3.0, "Q_14": 4.0, "name": "HEALTH CENTER OF MERRITT ISLAND, THE", "SF_14": 4.0, "SF_15": 4.0, "cnty": "Brevard", "st": "FL", "Zip": 32954.0, "O_14": 4.0, "Q_15": 4.0, "O_15": 3.0, "city": "MERRITT ISLAND", "beds": 180.0, "SR_15": 2.0}, {"Diff_star": -1.0, "addr": "5157 PARK CLUB DRIVE", "SR_14": 1.0, "Q_14": 3.0, "name": "TARPON POINT NURSING AND REHABILITATION CENTER", "SF_14": 4.0, "SF_15": 3.0, "cnty": "Sarasota", "st": "FL", "Zip": 34235.0, "O_14": 2.0, "Q_15": 1.0, "O_15": 1.0, "city": "SARASOTA", "beds": 120.0, "SR_15": 1.0}, {"Diff_star": -1.0, "addr": "611 TURNER CAMP RD", "SR_14": 5.0, "Q_14": 3.0, "name": "ARBOR TRAIL REHAB AND SKILLED NURSING CENTER", "SF_14": 4.0, "SF_15": 3.0, "cnty": "Citrus", "st": "FL", "Zip": 34453.0, "O_14": 5.0, "Q_15": 1.0, "O_15": 4.0, "city": "INVERNESS", "beds": 116.0, "SR_15": 5.0}, {"Diff_star": 0.0, "addr": "701 LAKE PORT BLVD", "SR_14": 1.0, "Q_14": 3.0, "name": "LAKE HARRIS HEALTH CENTER", "SF_14": 4.0, "SF_15": 4.0, "cnty": "Lake", "st": "FL", "Zip": 34748.0, "O_14": 2.0, "Q_15": 2.0, "O_15": 2.0, "city": "LEESBURG", "beds": 120.0, "SR_15": 1.0}, {"Diff_star": 0.0, "addr": "1556 MAGUIRE RD", "SR_14": 2.0, "Q_14": 3.0, "name": "OCOEE HEALTH CARE CENTER", "SF_14": 5.0, "SF_15": 5.0, "cnty": "Orange", "st": "FL", "Zip": 34761.0, "O_14": 3.0, "Q_15": 2.0, "O_15": 3.0, "city": "OCOEE", "beds": 120.0, "SR_15": 2.0}, {"Diff_star": 0.0, "addr": "1650 FOURAKER ROAD", "SR_14": 1.0, "Q_14": 3.0, "name": "WEST JACKSONVILLE HEALTH AND REHABILITATION CENTER", "SF_14": 4.0, "SF_15": 4.0, "cnty": "Duval", "st": "FL", "Zip": 32221.0, "O_14": 2.0, "Q_15": 1.0, "O_15": 2.0, "city": "JACKSONVILLE", "beds": 120.0, "SR_15": 2.0}, {"Diff_star": 1.0, "addr": "2851 TAMPA RD", "SR_14": 2.0, "Q_14": 5.0, "name": "MANORCARE HEALTH SERVICES PALM HARBOR", "SF_14": 1.0, "SF_15": 1.0, "cnty": "Pinellas", "st": "FL", "Zip": 34684.0, "O_14": 2.0, "Q_15": 5.0, "O_15": 3.0, "city": "PALM HARBOR", "beds": 180.0, "SR_15": 3.0}, {"Diff_star": 0.0, "addr": "5725 NW 186 STREET", "SR_14": 2.0, "Q_14": 4.0, "name": "HEARTLAND HEALTH CARE CENTER MIAMI LAKES", "SF_14": 2.0, "SF_15": 2.0, "cnty": "Miami-Dade", "st": "FL", "Zip": 33015.0, "O_14": 2.0, "Q_15": 2.0, "O_15": 2.0, "city": "HIALEAH", "beds": 120.0, "SR_15": 2.0}, {"Diff_star": -2.0, "addr": "4134 DUNN AVENUE", "SR_14": 4.0, "Q_14": 4.0, "name": "JACKSONVILLE NURSING AND REHAB CENTER", "SF_14": 4.0, "SF_15": 3.0, "cnty": "Duval", "st": "FL", "Zip": 32218.0, "O_14": 4.0, "Q_15": 1.0, "O_15": 2.0, "city": "JACKSONVILLE", "beds": 163.0, "SR_15": 3.0}, {"Diff_star": -1.0, "addr": "201 NE 112TH STREET", "SR_14": 3.0, "Q_14": 4.0, "name": "SINAI PLAZA NURSING & REHAB CENTER", "SF_14": 4.0, "SF_15": 4.0, "cnty": "Miami-Dade", "st": "FL", "Zip": 33161.0, "O_14": 4.0, "Q_15": 1.0, "O_15": 3.0, "city": "MIAMI", "beds": 150.0, "SR_15": 3.0}, {"Diff_star": 0.0, "addr": "7501 38TH AVE N", "SR_14": 3.0, "Q_14": 4.0, "name": "ALHAMBRA HEALTH AND REHABILITATION CENTER", "SF_14": 4.0, "SF_15": 4.0, "cnty": "Pinellas", "st": "FL", "Zip": 33710.0, "O_14": 4.0, "Q_15": 3.0, "O_15": 4.0, "city": "SAINT PETERSBURG", "beds": 60.0, "SR_15": 3.0}, {"Diff_star": 0.0, "addr": "3456 21ST AVE S", "SR_14": 4.0, "Q_14": 4.0, "name": "ALPINE HEALTH AND REHABILITATION CENTER", "SF_14": 3.0, "SF_15": 3.0, "cnty": "Pinellas", "st": "FL", "Zip": 33711.0, "O_14": 4.0, "Q_15": 2.0, "O_15": 4.0, "city": "SAINT PETERSBURG", "beds": 57.0, "SR_15": 4.0}, {"Diff_star": 0.0, "addr": "321 13TH AVE N", "SR_14": 4.0, "Q_14": 4.0, "name": "CONCORDIA MANOR", "SF_14": 4.0, "SF_15": 3.0, "cnty": "Pinellas", "st": "FL", "Zip": 33701.0, "O_14": 4.0, "Q_15": 3.0, "O_15": 4.0, "city": "SAINT PETERSBURG", "beds": 39.0, "SR_15": 4.0}, {"Diff_star": -1.0, "addr": "16100 NW 2ND AVENUE", "SR_14": 4.0, "Q_14": 5.0, "name": "HAMPTON COURT NURSING AND REHABILITATION CENTER", "SF_14": 4.0, "SF_15": 3.0, "cnty": "Miami-Dade", "st": "FL", "Zip": 33169.0, "O_14": 5.0, "Q_15": 4.0, "O_15": 4.0, "city": "NORTH MIAMI BEACH", "beds": 120.0, "SR_15": 4.0}, {"Diff_star": 0.0, "addr": "6001 WEBB RD", "SR_14": 3.0, "Q_14": 5.0, "name": "TAMPA COMMUNITY HOSPITAL", "SF_14": "", "SF_15": "", "cnty": "Hillsborough", "st": "FL", "Zip": 33615.0, "O_14": 4.0, "Q_15": 5.0, "O_15": 4.0, "city": "TAMPA", "beds": 15.0, "SR_15": 3.0}, {"Diff_star": -1.0, "addr": "9848 SW 110TH ST", "SR_14": 4.0, "Q_14": 5.0, "name": "TIMBERRIDGE NURSING & REHABILITATION CENTER", "SF_14": 4.0, "SF_15": 3.0, "cnty": "Marion", "st": "FL", "Zip": 34481.0, "O_14": 5.0, "Q_15": 2.0, "O_15": 4.0, "city": "OCALA", "beds": 180.0, "SR_15": 4.0}, {"Diff_star": 0.0, "addr": "702 S KINGS AVE", "SR_14": 1.0, "Q_14": 3.0, "name": "CENTRAL PARK HEALTHCARE AND REHABILITATION CENTER", "SF_14": 2.0, "SF_15": 2.0, "cnty": "Hillsborough", "st": "FL", "Zip": 33511.0, "O_14": 1.0, "Q_15": 1.0, "O_15": 1.0, "city": "BRANDON", "beds": 120.0, "SR_15": 1.0}, {"Diff_star": 0.0, "addr": "11215 SW 84TH STREET", "SR_14": 4.0, "Q_14": 5.0, "name": "PALACE AT KENDALL NURSING AND REHABILITATION CENTE", "SF_14": 4.0, "SF_15": 4.0, "cnty": "Miami-Dade", "st": "FL", "Zip": 33173.0, "O_14": 5.0, "Q_15": 5.0, "O_15": 5.0, "city": "MIAMI", "beds": 180.0, "SR_15": 4.0}, {"Diff_star": 0.0, "addr": "1620 MAYFLOWER COURT", "SR_14": 4.0, "Q_14": 4.0, "name": "MAYFLOWER HEALTHCARE CENTER", "SF_14": 5.0, "SF_15": 5.0, "cnty": "Orange", "st": "FL", "Zip": 32792.0, "O_14": 5.0, "Q_15": 4.0, "O_15": 5.0, "city": "WINTER PARK", "beds": 60.0, "SR_15": 4.0}, {"Diff_star": -1.0, "addr": "5888 BLANDING BLVD", "SR_14": 3.0, "Q_14": 5.0, "name": "ALL SAINTS CATHOLIC NURSING HOME AND REHABILITATIO", "SF_14": 4.0, "SF_15": 4.0, "cnty": "Duval", "st": "FL", "Zip": 32244.0, "O_14": 5.0, "Q_15": 4.0, "O_15": 4.0, "city": "JACKSONVILLE", "beds": 120.0, "SR_15": 3.0}, {"Diff_star": 0.0, "addr": "1600 MATTHEW DRIVE", "SR_14": 4.0, "Q_14": 5.0, "name": "HEARTLAND HEALTH CARE CENTER FORT MYERS", "SF_14": 3.0, "SF_15": 3.0, "cnty": "Lee", "st": "FL", "Zip": 33907.0, "O_14": 5.0, "Q_15": 5.0, "O_15": 5.0, "city": "FORT MYERS", "beds": 120.0, "SR_15": 4.0}, {"Diff_star": 0.0, "addr": "3930 E SILVER SPRINGS BLVD", "SR_14": 2.0, "Q_14": 5.0, "name": "OCALA OAKS REHABILITATION CENTER", "SF_14": 4.0, "SF_15": 4.0, "cnty": "Marion", "st": "FL", "Zip": 34470.0, "O_14": 4.0, "Q_15": 5.0, "O_15": 4.0, "city": "OCALA", "beds": 120.0, "SR_15": 2.0}, {"Diff_star": 0.0, "addr": "1203 E 22ND AVE", "SR_14": 2.0, "Q_14": 4.0, "name": "HOME ASSOCIATION, THE", "SF_14": 4.0, "SF_15": 4.0, "cnty": "Hillsborough", "st": "FL", "Zip": 33605.0, "O_14": 3.0, "Q_15": 4.0, "O_15": 3.0, "city": "TAMPA", "beds": 96.0, "SR_15": 2.0}, {"Diff_star": 0.0, "addr": "879 USERY ROAD", "SR_14": 5.0, "Q_14": 5.0, "name": "WASHINGTON REHABILITATION AND NURSING CENTER", "SF_14": 3.0, "SF_15": 3.0, "cnty": "Washington", "st": "FL", "Zip": 32428.0, "O_14": 5.0, "Q_15": 5.0, "O_15": 5.0, "city": "CHIPLEY", "beds": 180.0, "SR_15": 5.0}, {"Diff_star": -1.0, "addr": "830 WEST 29TH STREET", "SR_14": 1.0, "Q_14": 4.0, "name": "ORLANDO HEALTH AND REHABILITATION CENTER", "SF_14": 4.0, "SF_15": 3.0, "cnty": "Orange", "st": "FL", "Zip": 32805.0, "O_14": 2.0, "Q_15": 3.0, "O_15": 1.0, "city": "ORLANDO", "beds": 406.0, "SR_15": 1.0}, {"Diff_star": 0.0, "addr": "4294 3RD AVENUE", "SR_14": 5.0, "Q_14": 4.0, "name": "CHIPOLA HEALTH AND REHABILITATION CENTER", "SF_14": 4.0, "SF_15": 4.0, "cnty": "Jackson", "st": "FL", "Zip": 32446.0, "O_14": 5.0, "Q_15": 2.0, "O_15": 5.0, "city": "MARIANNA", "beds": 60.0, "SR_15": 5.0}, {"Diff_star": 0.0, "addr": "1540 6TH ST NW", "SR_14": 1.0, "Q_14": 5.0, "name": "SPRING LAKE REHABILITATION CENTER", "SF_14": 5.0, "SF_15": 5.0, "cnty": "Polk", "st": "FL", "Zip": 33881.0, "O_14": 2.0, "Q_15": 4.0, "O_15": 2.0, "city": "WINTER HAVEN", "beds": 120.0, "SR_15": 1.0}, {"Diff_star": -1.0, "addr": "210 LAKE AVENUE", "SR_14": 3.0, "Q_14": 5.0, "name": "COMMONS AT ORLANDO LUTHERAN TOWERS", "SF_14": 4.0, "SF_15": 4.0, "cnty": "Orange", "st": "FL", "Zip": 32801.0, "O_14": 5.0, "Q_15": 4.0, "O_15": 4.0, "city": "ORLANDO", "beds": 135.0, "SR_15": 3.0}, {"Diff_star": 0.0, "addr": "910 NEW YORK AVE", "SR_14": 5.0, "Q_14": 4.0, "name": "MEASE CONTINUING CARE", "SF_14": 3.0, "SF_15": 3.0, "cnty": "Pinellas", "st": "FL", "Zip": 34698.0, "O_14": 5.0, "Q_15": 3.0, "O_15": 5.0, "city": "DUNEDIN", "beds": 100.0, "SR_15": 5.0}, {"Diff_star": 0.0, "addr": "200 16TH AVE SE", "SR_14": 2.0, "Q_14": 4.0, "name": "PALM GARDEN OF PINELLAS", "SF_14": 4.0, "SF_15": 4.0, "cnty": "Pinellas", "st": "FL", "Zip": 34641.0, "O_14": 3.0, "Q_15": 2.0, "O_15": 3.0, "city": "LARGO", "beds": 120.0, "SR_15": 2.0}, {"Diff_star": -1.0, "addr": "4201 W NEW NOLTE ROAD", "SR_14": 3.0, "Q_14": 5.0, "name": "OSCEOLA HEALTH CARE CENTER", "SF_14": 3.0, "SF_15": 3.0, "cnty": "Osceola", "st": "FL", "Zip": 34772.0, "O_14": 4.0, "Q_15": 2.0, "O_15": 3.0, "city": "SAINT CLOUD", "beds": 120.0, "SR_15": 3.0}, {"Diff_star": 0.0, "addr": "2810 ENTERPRISE RD", "SR_14": 4.0, "Q_14": 5.0, "name": "ORANGE CITY NURSING AND REHAB CENTER", "SF_14": 5.0, "SF_15": 5.0, "cnty": "Volusia", "st": "FL", "Zip": 32713.0, "O_14": 5.0, "Q_15": 5.0, "O_15": 5.0, "city": "DEBARY", "beds": 120.0, "SR_15": 4.0}, {"Diff_star": 0.0, "addr": "3850 UPPER CREEK DR", "SR_14": 4.0, "Q_14": 5.0, "name": "PALM GARDEN OF SUN CITY", "SF_14": 4.0, "SF_15": 3.0, "cnty": "Hillsborough", "st": "FL", "Zip": 33573.0, "O_14": 5.0, "Q_15": 5.0, "O_15": 5.0, "city": "SUN CITY CENTER", "beds": 120.0, "SR_15": 4.0}, {"Diff_star": 0.0, "addr": "755 S 5TH ST", "SR_14": 4.0, "Q_14": 4.0, "name": "MACCLENNY NURSING AND REHAB CENTER", "SF_14": 4.0, "SF_15": 3.0, "cnty": "Baker", "st": "FL", "Zip": 32063.0, "O_14": 4.0, "Q_15": 2.0, "O_15": 4.0, "city": "MACCLENNY", "beds": 120.0, "SR_15": 4.0}, {"Diff_star": 0.0, "addr": "900 IMPERIAL GOLF COURSE BLVD", "SR_14": 2.0, "Q_14": 5.0, "name": "IMPERIAL HEALTH CARE CENTER", "SF_14": 3.0, "SF_15": 3.0, "cnty": "Collier", "st": "FL", "Zip": 34110.0, "O_14": 3.0, "Q_15": 5.0, "O_15": 3.0, "city": "NAPLES", "beds": 113.0, "SR_15": 2.0}, {"Diff_star": -1.0, "addr": "3110 OAKBRIDGE BLVD E", "SR_14": 2.0, "Q_14": 5.0, "name": "OAKBRIDGE HEALTHCARE CENTER", "SF_14": 3.0, "SF_15": 3.0, "cnty": "Polk", "st": "FL", "Zip": 33803.0, "O_14": 3.0, "Q_15": 4.0, "O_15": 2.0, "city": "LAKELAND", "beds": 120.0, "SR_15": 2.0}, {"Diff_star": 0.0, "addr": "ONE FLEET LANDING BLVD", "SR_14": 4.0, "Q_14": 5.0, "name": "FLEET LANDING", "SF_14": 4.0, "SF_15": 4.0, "cnty": "Duval", "st": "FL", "Zip": 32233.0, "O_14": 5.0, "Q_15": 5.0, "O_15": 5.0, "city": "ATLANTIC BEACH", "beds": 80.0, "SR_15": 4.0}, {"Diff_star": 0.0, "addr": "2770 REGENCY OAKS BLVD", "SR_14": 4.0, "Q_14": 4.0, "name": "SYLVAN HEALTH CENTER", "SF_14": 4.0, "SF_15": 4.0, "cnty": "Pinellas", "st": "FL", "Zip": 33759.0, "O_14": 4.0, "Q_15": 4.0, "O_15": 4.0, "city": "CLEARWATER", "beds": 60.0, "SR_15": 4.0}, {"Diff_star": 0.0, "addr": "4600 MIDDLETON PARK CIR E", "SR_14": 3.0, "Q_14": 4.0, "name": "CYPRESS VILLAGE", "SF_14": 5.0, "SF_15": 5.0, "cnty": "Duval", "st": "FL", "Zip": 32224.0, "O_14": 4.0, "Q_15": 2.0, "O_15": 4.0, "city": "JACKSONVILLE", "beds": 120.0, "SR_15": 3.0}, {"Diff_star": 0.0, "addr": "3107 NORTH H STREET", "SR_14": 5.0, "Q_14": 4.0, "name": "ROSEWOOD HEALTHCARE AND REHABILITATION CENTER", "SF_14": 4.0, "SF_15": 3.0, "cnty": "Escambia", "st": "FL", "Zip": 32501.0, "O_14": 5.0, "Q_15": 4.0, "O_15": 5.0, "city": "PENSACOLA", "beds": 151.0, "SR_15": 5.0}, {"Diff_star": 0.0, "addr": "7101 DR MARTIN LUTHER KING JR ST N", "SR_14": 1.0, "Q_14": 4.0, "name": "ABBEY REHABILITATION AND NURSING CENTER", "SF_14": 4.0, "SF_15": 4.0, "cnty": "Pinellas", "st": "FL", "Zip": 33702.0, "O_14": 2.0, "Q_15": 2.0, "O_15": 2.0, "city": "SAINT PETERSBURG", "beds": 132.0, "SR_15": 1.0}, {"Diff_star": 0.0, "addr": "6984 PINE FOREST ROAD", "SR_14": 5.0, "Q_14": 4.0, "name": "SPECIALTY HEALTH AND REHABILITATION CENTER", "SF_14": 4.0, "SF_15": 4.0, "cnty": "Escambia", "st": "FL", "Zip": 32526.0, "O_14": 5.0, "Q_15": 2.0, "O_15": 5.0, "city": "PENSACOLA", "beds": 120.0, "SR_15": 5.0}, {"Diff_star": 0.0, "addr": "5201 CURRY FORD ROAD", "SR_14": 5.0, "Q_14": 5.0, "name": "CONWAY LAKES HEALTH & REHABILITATION CENTER", "SF_14": 5.0, "SF_15": 5.0, "cnty": "Orange", "st": "FL", "Zip": 32812.0, "O_14": 5.0, "Q_15": 5.0, "O_15": 5.0, "city": "ORLANDO", "beds": 120.0, "SR_15": 5.0}, {"Diff_star": 0.0, "addr": "3600 OLD BOYNTON ROAD", "SR_14": 2.0, "Q_14": 5.0, "name": "HEARTLAND HEALTH CARE CENTER BOYNTON BEACH", "SF_14": 2.0, "SF_15": 2.0, "cnty": "Palm Beach", "st": "FL", "Zip": 33436.0, "O_14": 3.0, "Q_15": 5.0, "O_15": 3.0, "city": "BOYNTON BEACH", "beds": 120.0, "SR_15": 2.0}, {"Diff_star": 0.0, "addr": "3756 W THIRD ST", "SR_14": 5.0, "Q_14": 5.0, "name": "LIFE CARE CENTER OF HILLIARD", "SF_14": 4.0, "SF_15": 3.0, "cnty": "Nassau", "st": "FL", "Zip": 32046.0, "O_14": 5.0, "Q_15": 3.0, "O_15": 5.0, "city": "HILLIARD", "beds": 120.0, "SR_15": 5.0}, {"Diff_star": 0.0, "addr": "70 WEST LUCERNE CIRCLE", "SR_14": 4.0, "Q_14": 4.0, "name": "WESTMINSTER TOWERS", "SF_14": "", "SF_15": "", "cnty": "Orange", "st": "FL", "Zip": 32801.0, "O_14": 4.0, "Q_15": 4.0, "O_15": 4.0, "city": "ORLANDO", "beds": 120.0, "SR_15": 4.0}, {"Diff_star": 0.0, "addr": "45 KATHERINE BLVD", "SR_14": 3.0, "Q_14": 5.0, "name": "STRATFORD COURT OF PALM HARBOR", "SF_14": 4.0, "SF_15": 3.0, "cnty": "Pinellas", "st": "FL", "Zip": 34684.0, "O_14": 5.0, "Q_15": 5.0, "O_15": 5.0, "city": "PALM HARBOR", "beds": 60.0, "SR_15": 4.0}, {"Diff_star": -1.0, "addr": "832 SUNSET LAKE BOULEVARD", "SR_14": 4.0, "Q_14": 2.0, "name": "SUNSET LAKE HEALTH AND REHABILITATION CENTER", "SF_14": 4.0, "SF_15": 3.0, "cnty": "Sarasota", "st": "FL", "Zip": 34292.0, "O_14": 4.0, "Q_15": 1.0, "O_15": 3.0, "city": "VENICE", "beds": 120.0, "SR_15": 4.0}, {"Diff_star": -1.0, "addr": "11375 PROSPERITY FARMS ROAD", "SR_14": 3.0, "Q_14": 5.0, "name": "HEARTLAND HEALTH CARE CENTER PROSPERITY OAKS", "SF_14": 4.0, "SF_15": 3.0, "cnty": "Palm Beach", "st": "FL", "Zip": 33410.0, "O_14": 5.0, "Q_15": 5.0, "O_15": 4.0, "city": "PALM BEACH GARDENS", "beds": 120.0, "SR_15": 3.0}, {"Diff_star": 0.0, "addr": "1650 PHILLIPS RD", "SR_14": 1.0, "Q_14": 4.0, "name": "CONSULATE HEALTH CARE OF TALLAHASSEE", "SF_14": 3.0, "SF_15": 3.0, "cnty": "Leon", "st": "FL", "Zip": 32308.0, "O_14": 1.0, "Q_15": 2.0, "O_15": 1.0, "city": "TALLAHASSEE", "beds": 120.0, "SR_15": 1.0}, {"Diff_star": 0.0, "addr": "190 NE 191ST STREET", "SR_14": 1.0, "Q_14": 5.0, "name": "CROSS GARDENS CARE CENTER", "SF_14": 4.0, "SF_15": 4.0, "cnty": "Miami-Dade", "st": "FL", "Zip": 33161.0, "O_14": 2.0, "Q_15": 5.0, "O_15": 2.0, "city": "MIAMI", "beds": 120.0, "SR_15": 1.0}, {"Diff_star": -1.0, "addr": "560 SW MCFARLANE AVE", "SR_14": 4.0, "Q_14": 5.0, "name": "HEALTH CENTER OF LAKE CITY, THE", "SF_14": 4.0, "SF_15": 4.0, "cnty": "Columbia", "st": "FL", "Zip": 32055.0, "O_14": 5.0, "Q_15": 4.0, "O_15": 4.0, "city": "LAKE CITY", "beds": 120.0, "SR_15": 4.0}, {"Diff_star": -1.0, "addr": "7280 SW STATE RD 26", "SR_14": 2.0, "Q_14": 2.0, "name": "TRI-COUNTY NURSING HOME", "SF_14": 3.0, "SF_15": 3.0, "cnty": "Gilchrist", "st": "FL", "Zip": 32693.0, "O_14": 2.0, "Q_15": 1.0, "O_15": 1.0, "city": "TRENTON", "beds": 81.0, "SR_15": 2.0}, {"Diff_star": -1.0, "addr": "435 42ND AVE S", "SR_14": 1.0, "Q_14": 3.0, "name": "REHABILITATION CENTER OF ST PETE", "SF_14": 4.0, "SF_15": 3.0, "cnty": "Pinellas", "st": "FL", "Zip": 33705.0, "O_14": 2.0, "Q_15": 1.0, "O_15": 1.0, "city": "SAINT PETERSBURG", "beds": 159.0, "SR_15": 1.0}, {"Diff_star": -1.0, "addr": "1755 18TH ST", "SR_14": 4.0, "Q_14": 5.0, "name": "CROSSBREEZE CARE CENTER", "SF_14": 4.0, "SF_15": 4.0, "cnty": "Sarasota", "st": "FL", "Zip": 34230.0, "O_14": 5.0, "Q_15": 3.0, "O_15": 4.0, "city": "SARASOTA", "beds": 101.0, "SR_15": 4.0}, {"Diff_star": -1.0, "addr": "1027 E HWY 98", "SR_14": 3.0, "Q_14": 5.0, "name": "GLENCOVE HEALTH AND REHABILITATION CENTER", "SF_14": 4.0, "SF_15": 4.0, "cnty": "Bay", "st": "FL", "Zip": 32401.0, "O_14": 5.0, "Q_15": 4.0, "O_15": 4.0, "city": "PANAMA CITY", "beds": 115.0, "SR_15": 3.0}, {"Diff_star": 0.0, "addr": "5600 VICTORIA GARDENS BLVD", "SR_14": 4.0, "Q_14": 4.0, "name": "PORT ORANGE NURSING AND REHAB CENTER", "SF_14": 4.0, "SF_15": 4.0, "cnty": "Volusia", "st": "FL", "Zip": 32127.0, "O_14": 4.0, "Q_15": 4.0, "O_15": 4.0, "city": "PORT ORANGE", "beds": 120.0, "SR_15": 4.0}, {"Diff_star": -1.0, "addr": "206 W ORANGE ST", "SR_14": 4.0, "Q_14": 5.0, "name": "CROSSROADS, THE", "SF_14": 4.0, "SF_15": 4.0, "cnty": "Polk", "st": "FL", "Zip": 33837.0, "O_14": 5.0, "Q_15": 3.0, "O_15": 4.0, "city": "DAVENPORT", "beds": 60.0, "SR_15": 4.0}, {"Diff_star": 0.0, "addr": "16131 ROSERUSH COURT", "SR_14": 3.0, "Q_14": 5.0, "name": "HEALTHPARK CARE CENTER, INC", "SF_14": 4.0, "SF_15": 4.0, "cnty": "Lee", "st": "FL", "Zip": 33908.0, "O_14": 5.0, "Q_15": 5.0, "O_15": 5.0, "city": "FORT MYERS", "beds": 112.0, "SR_15": 3.0}, {"Diff_star": 0.0, "addr": "1010 US 27 N", "SR_14": 3.0, "Q_14": 5.0, "name": "OAKS AT AVON", "SF_14": 2.0, "SF_15": 2.0, "cnty": "Highlands", "st": "FL", "Zip": 33825.0, "O_14": 4.0, "Q_15": 5.0, "O_15": 4.0, "city": "AVON PARK", "beds": 104.0, "SR_15": 3.0}, {"Diff_star": -1.0, "addr": "305 EAST OAK STREET", "SR_14": 4.0, "Q_14": 5.0, "name": "SUNBELT HEALTH & REHAB CENTER-APOPKA, INC", "SF_14": 3.0, "SF_15": 3.0, "cnty": "Orange", "st": "FL", "Zip": 32703.0, "O_14": 5.0, "Q_15": 4.0, "O_15": 4.0, "city": "APOPKA", "beds": 120.0, "SR_15": 4.0}, {"Diff_star": -1.0, "addr": "250 SOUTH CHICKASAW TRAIL", "SR_14": 3.0, "Q_14": 3.0, "name": "EAST ORLANDO HEALTH & REHAB CENTER INC", "SF_14": 4.0, "SF_15": 4.0, "cnty": "Orange", "st": "FL", "Zip": 32825.0, "O_14": 4.0, "Q_15": 1.0, "O_15": 3.0, "city": "ORLANDO", "beds": 120.0, "SR_15": 3.0}, {"Diff_star": 0.0, "addr": "1500 NORTH WHITE POINT ROAD", "SR_14": 5.0, "Q_14": 5.0, "name": "MANOR AT BLUE WATER BAY, THE", "SF_14": 4.0, "SF_15": 4.0, "cnty": "Okaloosa", "st": "FL", "Zip": 32578.0, "O_14": 5.0, "Q_15": 4.0, "O_15": 5.0, "city": "NICEVILLE", "beds": 120.0, "SR_15": 5.0}, {"Diff_star": 0.0, "addr": "550 W MORSE BLVD", "SR_14": 4.0, "Q_14": 4.0, "name": "MARY LEE DEPUGH NURSING HOME ASSOCIATION INC", "SF_14": 4.0, "SF_15": 4.0, "cnty": "Orange", "st": "FL", "Zip": 32789.0, "O_14": 4.0, "Q_15": 4.0, "O_15": 4.0, "city": "WINTER PARK", "beds": 40.0, "SR_15": 4.0}, {"Diff_star": 0.0, "addr": "8132 HUDSON AVENUE", "SR_14": 3.0, "Q_14": 4.0, "name": "CONSULATE HEALTH CARE OF BAYONET POINT", "SF_14": 2.0, "SF_15": 2.0, "cnty": "Pasco", "st": "FL", "Zip": 34667.0, "O_14": 3.0, "Q_15": 4.0, "O_15": 3.0, "city": "HUDSON", "beds": 120.0, "SR_15": 3.0}, {"Diff_star": 0.0, "addr": "10949 PARNU STREET", "SR_14": 1.0, "Q_14": 4.0, "name": "ARISTOCRAT, THE", "SF_14": 3.0, "SF_15": 3.0, "cnty": "Collier", "st": "FL", "Zip": 34109.0, "O_14": 1.0, "Q_15": 3.0, "O_15": 1.0, "city": "NAPLES", "beds": 60.0, "SR_15": 1.0}, {"Diff_star": 0.0, "addr": "215 ANNIE STREET", "SR_14": 4.0, "Q_14": 5.0, "name": "DELANEY PARK HEALTH AND REHABILITATION CENTER", "SF_14": 4.0, "SF_15": 3.0, "cnty": "Orange", "st": "FL", "Zip": 32806.0, "O_14": 5.0, "Q_15": 5.0, "O_15": 5.0, "city": "ORLANDO", "beds": 60.0, "SR_15": 4.0}, {"Diff_star": 0.0, "addr": "1510 CYPRESS GARDENS BLVD", "SR_14": 4.0, "Q_14": 3.0, "name": "LIFE CARE CENTER OF WINTER HAVEN", "SF_14": 2.0, "SF_15": 2.0, "cnty": "Polk", "st": "FL", "Zip": 33884.0, "O_14": 4.0, "Q_15": 2.0, "O_15": 4.0, "city": "WINTER HAVEN", "beds": 177.0, "SR_15": 4.0}, {"Diff_star": 0.0, "addr": "2225 KNOX MCRAE DR", "SR_14": 5.0, "Q_14": 5.0, "name": "ROYAL OAKS NURSING AND REHAB CENTER", "SF_14": 4.0, "SF_15": 4.0, "cnty": "Brevard", "st": "FL", "Zip": 32780.0, "O_14": 5.0, "Q_15": 4.0, "O_15": 5.0, "city": "TITUSVILLE", "beds": 120.0, "SR_15": 5.0}, {"Diff_star": -1.0, "addr": "2939 SOUTH HAVERHILL ROAD", "SR_14": 2.0, "Q_14": 5.0, "name": "CORAL BAY HEALTHCARE AND REHABILITATION", "SF_14": 3.0, "SF_15": 3.0, "cnty": "Palm Beach", "st": "FL", "Zip": 33415.0, "O_14": 3.0, "Q_15": 3.0, "O_15": 2.0, "city": "WEST PALM BEACH", "beds": 120.0, "SR_15": 2.0}, {"Diff_star": 0.0, "addr": "300 BROOKFIELD AVE", "SR_14": 3.0, "Q_14": 4.0, "name": "EDGEWATER AT WATERMAN VILLAGE", "SF_14": 4.0, "SF_15": 4.0, "cnty": "Lake", "st": "FL", "Zip": 32757.0, "O_14": 4.0, "Q_15": 2.0, "O_15": 4.0, "city": "MOUNT DORA", "beds": 120.0, "SR_15": 3.0}, {"Diff_star": -1.0, "addr": "2500 W CHURCH STREET", "SR_14": 4.0, "Q_14": 5.0, "name": "GUARDIAN CARE NURSING & REHABILITATION CENTER", "SF_14": 4.0, "SF_15": 4.0, "cnty": "Orange", "st": "FL", "Zip": 32805.0, "O_14": 5.0, "Q_15": 4.0, "O_15": 4.0, "city": "ORLANDO", "beds": 120.0, "SR_15": 4.0}, {"Diff_star": 0.0, "addr": "4847 FRED GLADSTONE DRIVE", "SR_14": 5.0, "Q_14": 5.0, "name": "JOSEPH L MORSE GERIATRIC CENTER INC", "SF_14": 5.0, "SF_15": 5.0, "cnty": "Palm Beach", "st": "FL", "Zip": 33417.0, "O_14": 5.0, "Q_15": 5.0, "O_15": 5.0, "city": "WEST PALM BEACH", "beds": 310.0, "SR_15": 5.0}, {"Diff_star": 0.0, "addr": "1780 N JEFFERSON ST", "SR_14": 2.0, "Q_14": 5.0, "name": "CROSS LANDINGS HEALTH AND REHABILITATION CENTER", "SF_14": 4.0, "SF_15": 4.0, "cnty": "Jefferson", "st": "FL", "Zip": 32344.0, "O_14": 4.0, "Q_15": 5.0, "O_15": 4.0, "city": "MONTICELLO", "beds": 60.0, "SR_15": 2.0}, {"Diff_star": -1.0, "addr": "190 W 28TH STREET", "SR_14": 2.0, "Q_14": 5.0, "name": "HIALEAH NURSING AND REHABILITATION CENTER", "SF_14": 4.0, "SF_15": 4.0, "cnty": "Miami-Dade", "st": "FL", "Zip": 33010.0, "O_14": 4.0, "Q_15": 3.0, "O_15": 3.0, "city": "HIALEAH", "beds": 276.0, "SR_15": 2.0}, {"Diff_star": 0.0, "addr": "700 S 29TH STREET", "SR_14": 1.0, "Q_14": 4.0, "name": "ABBIEJEAN RUSSELL CARE CENTER LLC", "SF_14": 4.0, "SF_15": 4.0, "cnty": "St. Lucie", "st": "FL", "Zip": 34947.0, "O_14": 2.0, "Q_15": 2.0, "O_15": 2.0, "city": "FORT PIERCE", "beds": 79.0, "SR_15": 1.0}, {"Diff_star": -1.0, "addr": "501 S PALM AVE", "SR_14": 3.0, "Q_14": 3.0, "name": "CRESTWOOD NURSING CENTER", "SF_14": 4.0, "SF_15": 4.0, "cnty": "Putnam", "st": "FL", "Zip": 32177.0, "O_14": 4.0, "Q_15": 1.0, "O_15": 3.0, "city": "PALATKA", "beds": 65.0, "SR_15": 3.0}, {"Diff_star": 0.0, "addr": "2481 WEST US 90", "SR_14": 3.0, "Q_14": 4.0, "name": "MADISON HEALTH AND REHABILITATION CENTER", "SF_14": 4.0, "SF_15": 4.0, "cnty": "Madison", "st": "FL", "Zip": 32340.0, "O_14": 4.0, "Q_15": 2.0, "O_15": 4.0, "city": "MADISON", "beds": 60.0, "SR_15": 3.0}, {"Diff_star": 0.0, "addr": "100 N LAKE ST", "SR_14": 2.0, "Q_14": 4.0, "name": "LAKEWOOD NURSING CENTER", "SF_14": 4.0, "SF_15": 4.0, "cnty": "Putnam", "st": "FL", "Zip": 32112.0, "O_14": 3.0, "Q_15": 3.0, "O_15": 3.0, "city": "CRESCENT CITY", "beds": 92.0, "SR_15": 2.0}, {"Diff_star": 0.0, "addr": "10676 MARVIN JONES BLVD", "SR_14": 2.0, "Q_14": 4.0, "name": "GOOD SAMARITAN CENTER", "SF_14": 4.0, "SF_15": 4.0, "cnty": "Suwannee", "st": "FL", "Zip": 32060.0, "O_14": 3.0, "Q_15": 3.0, "O_15": 3.0, "city": "LIVE OAK", "beds": 161.0, "SR_15": 2.0}, {"Diff_star": -1.0, "addr": "1329 ABRAHAM STREET", "SR_14": 1.0, "Q_14": 3.0, "name": "MIRACLE HILL NURSING & REHABILITATION CENTER, INC", "SF_14": 4.0, "SF_15": 3.0, "cnty": "Leon", "st": "FL", "Zip": 32304.0, "O_14": 2.0, "Q_15": 2.0, "O_15": 1.0, "city": "TALLAHASSEE", "beds": 120.0, "SR_15": 1.0}, {"Diff_star": -1.0, "addr": "1213 W STRATFORD RD", "SR_14": 4.0, "Q_14": 4.0, "name": "ROYAL CARE OF AVON PARK", "SF_14": 4.0, "SF_15": 3.0, "cnty": "Highlands", "st": "FL", "Zip": 33825.0, "O_14": 4.0, "Q_15": 1.0, "O_15": 3.0, "city": "AVON PARK", "beds": 90.0, "SR_15": 4.0}, {"Diff_star": -1.0, "addr": "730 COLLEGE STREET", "SR_14": 4.0, "Q_14": 4.0, "name": "PARK RIDGE NURSING CENTER", "SF_14": 4.0, "SF_15": 3.0, "cnty": "Duval", "st": "FL", "Zip": 32204.0, "O_14": 4.0, "Q_15": 1.0, "O_15": 3.0, "city": "JACKSONVILLE", "beds": 104.0, "SR_15": 4.0}, {"Diff_star": -2.0, "addr": "161A MARINE STREET", "SR_14": 3.0, "Q_14": 5.0, "name": "SAMANTHA WILSON CARE CENTER", "SF_14": 4.0, "SF_15": 3.0, "cnty": "St. Johns", "st": "FL", "Zip": 32084.0, "O_14": 5.0, "Q_15": 4.0, "O_15": 3.0, "city": "SAINT AUGUSTINE", "beds": 120.0, "SR_15": 3.0}, {"Diff_star": 0.0, "addr": "700 JOHN RINGLING BLVD", "SR_14": 5.0, "Q_14": 3.0, "name": "PLYMOUTH HARBOR INCORPORATED", "SF_14": 5.0, "SF_15": 5.0, "cnty": "Sarasota", "st": "FL", "Zip": 34236.0, "O_14": 5.0, "Q_15": 3.0, "O_15": 5.0, "city": "SARASOTA", "beds": 60.0, "SR_15": 5.0}, {"Diff_star": -1.0, "addr": "1800 SE HILLMOOR DRIVE", "SR_14": 2.0, "Q_14": 4.0, "name": "TIFFANY HALL NURSING AND REHAB CENTER", "SF_14": 4.0, "SF_15": 4.0, "cnty": "St. Lucie", "st": "FL", "Zip": 34952.0, "O_14": 3.0, "Q_15": 1.0, "O_15": 2.0, "city": "PORT SAINT LUCIE", "beds": 120.0, "SR_15": 2.0}, {"Diff_star": -1.0, "addr": "3937 SPRING PARK ROAD", "SR_14": 3.0, "Q_14": 5.0, "name": "FANNIE E TAYLOR HOME FOR THE AGED INC", "SF_14": 5.0, "SF_15": 5.0, "cnty": "Duval", "st": "FL", "Zip": 32207.0, "O_14": 5.0, "Q_15": 4.0, "O_15": 4.0, "city": "JACKSONVILLE", "beds": 24.0, "SR_15": 3.0}, {"Diff_star": 0.0, "addr": "6535 CHESTER AVENUE", "SR_14": 4.0, "Q_14": 5.0, "name": "TAYLOR CARE CENTER", "SF_14": 4.0, "SF_15": 3.0, "cnty": "Duval", "st": "FL", "Zip": 32217.0, "O_14": 5.0, "Q_15": 5.0, "O_15": 5.0, "city": "JACKSONVILLE", "beds": 120.0, "SR_15": 4.0}, {"Diff_star": -1.0, "addr": "1704 HUNTINGTON VILLAGE CIRCLE", "SR_14": 2.0, "Q_14": 3.0, "name": "GARDENS HEALTH & REHABILITATION CENTER, THE", "SF_14": 4.0, "SF_15": 4.0, "cnty": "Volusia", "st": "FL", "Zip": 32114.0, "O_14": 3.0, "Q_15": 1.0, "O_15": 2.0, "city": "DAYTONA BEACH", "beds": 108.0, "SR_15": 2.0}, {"Diff_star": 0.0, "addr": "2120 MARSHALL EDWARDS DR", "SR_14": 4.0, "Q_14": 4.0, "name": "ROHR HOME, THE", "SF_14": 5.0, "SF_15": 5.0, "cnty": "Polk", "st": "FL", "Zip": 33830.0, "O_14": 5.0, "Q_15": 3.0, "O_15": 5.0, "city": "BARTOW", "beds": 60.0, "SR_15": 4.0}, {"Diff_star": 0.0, "addr": "13455 W US HWY 90", "SR_14": 4.0, "Q_14": 3.0, "name": "CROSSWINDS HEALTH AND REHABILITATION CENTER", "SF_14": 4.0, "SF_15": 3.0, "cnty": "Madison", "st": "FL", "Zip": 32331.0, "O_14": 4.0, "Q_15": 2.0, "O_15": 4.0, "city": "GREENVILLE", "beds": 58.0, "SR_15": 4.0}, {"Diff_star": -1.0, "addr": "427 15TH AVENUE NORTHWEST", "SR_14": 4.0, "Q_14": 3.0, "name": "SUWANNEE VALLEY NURSING CENTER", "SF_14": 4.0, "SF_15": 4.0, "cnty": "Hamilton", "st": "FL", "Zip": 32052.0, "O_14": 4.0, "Q_15": 1.0, "O_15": 3.0, "city": "JASPER", "beds": 60.0, "SR_15": 4.0}, {"Diff_star": 0.0, "addr": "1771 EDGEWOOD AVE W", "SR_14": 2.0, "Q_14": 4.0, "name": "EDGEWOOD NURSING CENTER", "SF_14": 4.0, "SF_15": 4.0, "cnty": "Duval", "st": "FL", "Zip": 32218.0, "O_14": 3.0, "Q_15": 3.0, "O_15": 3.0, "city": "JACKSONVILLE", "beds": 60.0, "SR_15": 2.0}, {"Diff_star": -1.0, "addr": "1800 SOUTH DRIVE", "SR_14": 2.0, "Q_14": 4.0, "name": "VILLAGE ON HIGH RIDGE, THE", "SF_14": 4.0, "SF_15": 4.0, "cnty": "Palm Beach", "st": "FL", "Zip": 33461.0, "O_14": 3.0, "Q_15": 1.0, "O_15": 2.0, "city": "LAKE WORTH", "beds": 60.0, "SR_15": 2.0}, {"Diff_star": 0.0, "addr": "1500 SW CAPRI ST", "SR_14": 1.0, "Q_14": 5.0, "name": "WATERS EDGE EXTENDED CARE", "SF_14": 4.0, "SF_15": 4.0, "cnty": "Martin", "st": "FL", "Zip": 34990.0, "O_14": 2.0, "Q_15": 4.0, "O_15": 2.0, "city": "PALM CITY", "beds": 36.0, "SR_15": 1.0}, {"Diff_star": 0.0, "addr": "2505 SW MARTIN HWY", "SR_14": 1.0, "Q_14": 4.0, "name": "PALM CITY NURSING & REHAB CENTER", "SF_14": 4.0, "SF_15": 4.0, "cnty": "Martin", "st": "FL", "Zip": 34990.0, "O_14": 2.0, "Q_15": 2.0, "O_15": 2.0, "city": "PALM CITY", "beds": 120.0, "SR_15": 1.0}, {"Diff_star": 0.0, "addr": "1699 SE LYNGATE DRIVE", "SR_14": 2.0, "Q_14": 5.0, "name": "GARDENS OF PORT ST LUCIE, THE", "SF_14": 4.0, "SF_15": 4.0, "cnty": "St. Lucie", "st": "FL", "Zip": 34952.0, "O_14": 4.0, "Q_15": 5.0, "O_15": 4.0, "city": "PORT SAINT LUCIE", "beds": 30.0, "SR_15": 2.0}, {"Diff_star": 0.0, "addr": "1200  7TH AVE N", "SR_14": 5.0, "Q_14": 5.0, "name": "ST ANTHONYS HOSPITAL", "SF_14": 5.0, "SF_15": 5.0, "cnty": "Pinellas", "st": "FL", "Zip": 33705.0, "O_14": 5.0, "Q_15": 5.0, "O_15": 5.0, "city": "SAINT PETERSBURG", "beds": 30.0, "SR_15": 4.0}, {"Diff_star": 0.0, "addr": "333 E ASHLEY ST", "SR_14": 3.0, "Q_14": 4.0, "name": "CATHEDRAL GERONTOLOGY CENTER, INC", "SF_14": 5.0, "SF_15": 5.0, "cnty": "Duval", "st": "FL", "Zip": 32202.0, "O_14": 4.0, "Q_15": 4.0, "O_15": 4.0, "city": "JACKSONVILLE", "beds": 120.0, "SR_15": 3.0}, {"Diff_star": 0.0, "addr": "4445 PINE FOREST DRIVE", "SR_14": 5.0, "Q_14": 5.0, "name": "CROSSINGS, THE", "SF_14": 4.0, "SF_15": 4.0, "cnty": "Palm Beach", "st": "FL", "Zip": 33463.0, "O_14": 5.0, "Q_15": 5.0, "O_15": 5.0, "city": "LAKE WORTH", "beds": 60.0, "SR_15": 5.0}, {"Diff_star": -1.0, "addr": "9600 LAWRENCE RD", "SR_14": 2.0, "Q_14": 5.0, "name": "BOYNTON BEACH REHABILITATION CENTER", "SF_14": 4.0, "SF_15": 4.0, "cnty": "Palm Beach", "st": "FL", "Zip": 33436.0, "O_14": 4.0, "Q_15": 4.0, "O_15": 3.0, "city": "BOYNTON BEACH", "beds": 168.0, "SR_15": 2.0}, {"Diff_star": 0.0, "addr": "5101 WEST BLUE HERON BLVD", "SR_14": 3.0, "Q_14": 5.0, "name": "EDWARD J HEALEY REHABILITATION AND NURSING CENTER", "SF_14": 5.0, "SF_15": 5.0, "cnty": "Palm Beach", "st": "FL", "Zip": 33418.0, "O_14": 5.0, "Q_15": 5.0, "O_15": 5.0, "city": "RIVIERA BEACH", "beds": 120.0, "SR_15": 3.0}, {"Diff_star": 0.0, "addr": "221 PARK PLACE BLVD", "SR_14": 4.0, "Q_14": 3.0, "name": "TERRACE OF KISSIMMEE, THE", "SF_14": 1.0, "SF_15": 1.0, "cnty": "Osceola", "st": "FL", "Zip": 34741.0, "O_14": 3.0, "Q_15": 2.0, "O_15": 3.0, "city": "KISSIMMEE", "beds": 120.0, "SR_15": 4.0}, {"Diff_star": -1.0, "addr": "1920 MASON AVENUE", "SR_14": 3.0, "Q_14": 5.0, "name": "EMORY L BENNETT MEMORIAL VETERANS NURSING HOME", "SF_14": 4.0, "SF_15": 4.0, "cnty": "Volusia", "st": "FL", "Zip": 32117.0, "O_14": 5.0, "Q_15": 4.0, "O_15": 4.0, "city": "DAYTONA BEACH", "beds": 120.0, "SR_15": 3.0}, {"Diff_star": -1.0, "addr": "5401 SAWYER RD", "SR_14": 4.0, "Q_14": 5.0, "name": "HEARTLAND HEALTH CARE & REHABILITATION CENTER", "SF_14": 4.0, "SF_15": 4.0, "cnty": "Sarasota", "st": "FL", "Zip": 34233.0, "O_14": 5.0, "Q_15": 3.0, "O_15": 4.0, "city": "SARASOTA", "beds": 140.0, "SR_15": 4.0}, {"Diff_star": -1.0, "addr": "1099 WEST TOWN PARKWAY", "SR_14": 3.0, "Q_14": 5.0, "name": "CONSULATE HEALTH CARE AT WEST ALTAMONTE", "SF_14": 4.0, "SF_15": 4.0, "cnty": "Seminole", "st": "FL", "Zip": 32714.0, "O_14": 5.0, "Q_15": 4.0, "O_15": 4.0, "city": "ALTAMONTE SPRINGS", "beds": 116.0, "SR_15": 3.0}, {"Diff_star": 0.0, "addr": "587 SE ERMINE AVE", "SR_14": 5.0, "Q_14": 5.0, "name": "BAYA POINTE NURSING AND REHABILITATION CENTER", "SF_14": 4.0, "SF_15": 4.0, "cnty": "Columbia", "st": "FL", "Zip": 32025.0, "O_14": 5.0, "Q_15": 4.0, "O_15": 5.0, "city": "LAKE CITY", "beds": 90.0, "SR_15": 5.0}, {"Diff_star": 0.0, "addr": "11300 110TH AVE N", "SR_14": 2.0, "Q_14": 5.0, "name": "WRIGHTS HEALTH CARE AND REHABILITATION CENTER", "SF_14": 4.0, "SF_15": 4.0, "cnty": "Pinellas", "st": "FL", "Zip": 33778.0, "O_14": 4.0, "Q_15": 5.0, "O_15": 4.0, "city": "SEMINOLE", "beds": 60.0, "SR_15": 2.0}, {"Diff_star": 0.0, "addr": "1425 S CONGRESS AVE", "SR_14": 3.0, "Q_14": 5.0, "name": "BARRINGTON TERRACE OF BOYNTON BEACH", "SF_14": 4.0, "SF_15": 4.0, "cnty": "Palm Beach", "st": "FL", "Zip": 33426.0, "O_14": 5.0, "Q_15": 5.0, "O_15": 5.0, "city": "BOYNTON BEACH", "beds": 29.0, "SR_15": 3.0}, {"Diff_star": 0.0, "addr": "6343 VIA DE SONRISA DEL SUR", "SR_14": 2.0, "Q_14": 5.0, "name": "STRATFORD COURT OF BOCA RATON", "SF_14": 4.0, "SF_15": 4.0, "cnty": "Palm Beach", "st": "FL", "Zip": 33433.0, "O_14": 4.0, "Q_15": 5.0, "O_15": 4.0, "city": "BOCA RATON", "beds": 60.0, "SR_15": 2.0}, {"Diff_star": 0.0, "addr": "7225 BOCA DEL MAR DRIVE", "SR_14": 1.0, "Q_14": 4.0, "name": "HEARTLAND HEALTH CARE AND REHABILITATION CENTER OF", "SF_14": 2.0, "SF_15": 2.0, "cnty": "Palm Beach", "st": "FL", "Zip": 33433.0, "O_14": 1.0, "Q_15": 2.0, "O_15": 1.0, "city": "BOCA RATON", "beds": 120.0, "SR_15": 1.0}, {"Diff_star": 0.0, "addr": "4449 MEANDERING WAY", "SR_14": 5.0, "Q_14": 4.0, "name": "WESTMINSTER OAKS", "SF_14": 4.0, "SF_15": 4.0, "cnty": "Leon", "st": "FL", "Zip": 32308.0, "O_14": 5.0, "Q_15": 4.0, "O_15": 5.0, "city": "TALLAHASSEE", "beds": 120.0, "SR_15": 5.0}, {"Diff_star": 0.0, "addr": "2810 RULEME ST", "SR_14": 2.0, "Q_14": 4.0, "name": "RULEME CENTER", "SF_14": 3.0, "SF_15": 3.0, "cnty": "Lake", "st": "FL", "Zip": 32726.0, "O_14": 2.0, "Q_15": 2.0, "O_15": 2.0, "city": "EUSTIS", "beds": 138.0, "SR_15": 2.0}, {"Diff_star": 0.0, "addr": "100 GLENVIEW PLACE", "SR_14": 5.0, "Q_14": 5.0, "name": "PREMIER PLACE AT THE GLENVIEW", "SF_14": 5.0, "SF_15": 5.0, "cnty": "Collier", "st": "FL", "Zip": 34108.0, "O_14": 5.0, "Q_15": 5.0, "O_15": 5.0, "city": "NAPLES", "beds": 35.0, "SR_15": 5.0}, {"Diff_star": 0.0, "addr": "701 MEDICAL COURT EAST", "SR_14": 4.0, "Q_14": 4.0, "name": "CITRUS HEALTH AND REHABILITATION CENTER", "SF_14": 4.0, "SF_15": 4.0, "cnty": "Citrus", "st": "FL", "Zip": 34452.0, "O_14": 4.0, "Q_15": 2.0, "O_15": 4.0, "city": "INVERNESS", "beds": 111.0, "SR_15": 4.0}, {"Diff_star": 0.0, "addr": "4000 KINGS HWY", "SR_14": 3.0, "Q_14": 4.0, "name": "CHARLOTTE HARBOR HEALTHCARE", "SF_14": 4.0, "SF_15": 4.0, "cnty": "Charlotte", "st": "FL", "Zip": 33980.0, "O_14": 4.0, "Q_15": 2.0, "O_15": 4.0, "city": "PORT CHARLOTTE", "beds": 180.0, "SR_15": 3.0}, {"Diff_star": -1.0, "addr": "6020 INDUSTRIAL BLVD", "SR_14": 4.0, "Q_14": 5.0, "name": "CENTURY HEALTH AND REHABILITATION CENTER", "SF_14": 4.0, "SF_15": 4.0, "cnty": "Escambia", "st": "FL", "Zip": 32535.0, "O_14": 5.0, "Q_15": 2.0, "O_15": 4.0, "city": "CENTURY", "beds": 88.0, "SR_15": 4.0}, {"Diff_star": -1.0, "addr": "3033 SARNO RD", "SR_14": 2.0, "Q_14": 4.0, "name": "CONSULATE HEALTH CARE OF MELBOURNE", "SF_14": 4.0, "SF_15": 3.0, "cnty": "Brevard", "st": "FL", "Zip": 32934.0, "O_14": 3.0, "Q_15": 2.0, "O_15": 2.0, "city": "MELBOURNE", "beds": 167.0, "SR_15": 2.0}, {"Diff_star": -1.0, "addr": "195 MATTIE M KELLY BLVD", "SR_14": 2.0, "Q_14": 3.0, "name": "DESTIN HEALTHCARE AND REHABILITATION CENTER", "SF_14": 4.0, "SF_15": 4.0, "cnty": "Okaloosa", "st": "FL", "Zip": 32550.0, "O_14": 3.0, "Q_15": 1.0, "O_15": 2.0, "city": "DESTIN", "beds": 119.0, "SR_15": 2.0}, {"Diff_star": -1.0, "addr": "2310 N AIRPORT ROAD", "SR_14": 4.0, "Q_14": 5.0, "name": "PAGE REHABILITATION AND HEALTHCARE CENTER", "SF_14": 4.0, "SF_15": 3.0, "cnty": "Lee", "st": "FL", "Zip": 33907.0, "O_14": 5.0, "Q_15": 3.0, "O_15": 4.0, "city": "FORT MYERS", "beds": 180.0, "SR_15": 4.0}, {"Diff_star": 0.0, "addr": "912 AMERICAN EAGLE BLVD", "SR_14": 2.0, "Q_14": 5.0, "name": "PLAZA WEST", "SF_14": 5.0, "SF_15": 5.0, "cnty": "Hillsborough", "st": "FL", "Zip": 33573.0, "O_14": 4.0, "Q_15": 5.0, "O_15": 4.0, "city": "SUN CITY CENTER", "beds": 113.0, "SR_15": 2.0}, {"Diff_star": 0.0, "addr": "5900 WESTGATE DRIVE", "SR_14": 3.0, "Q_14": 4.0, "name": "METRO WEST NURSING AND REHAB CENTER", "SF_14": 5.0, "SF_15": 5.0, "cnty": "Orange", "st": "FL", "Zip": 32825.0, "O_14": 4.0, "Q_15": 4.0, "O_15": 4.0, "city": "ORLANDO", "beds": 120.0, "SR_15": 3.0}, {"Diff_star": 0.0, "addr": "3325 W JERWAYNE LN", "SR_14": 5.0, "Q_14": 5.0, "name": "LIFE CARE CENTER OF CITRUS COUNTY", "SF_14": 4.0, "SF_15": 3.0, "cnty": "Citrus", "st": "FL", "Zip": 34461.0, "O_14": 5.0, "Q_15": 5.0, "O_15": 5.0, "city": "LECANTO", "beds": 120.0, "SR_15": 5.0}, {"Diff_star": 0.0, "addr": "1024 WILLA SPRINGS DR", "SR_14": 5.0, "Q_14": 5.0, "name": "TUSKAWILLA NURSING AND REHAB CENTER", "SF_14": 5.0, "SF_15": 5.0, "cnty": "Seminole", "st": "FL", "Zip": 32708.0, "O_14": 5.0, "Q_15": 5.0, "O_15": 5.0, "city": "WINTER SPRINGS", "beds": 98.0, "SR_15": 5.0}, {"Diff_star": -1.0, "addr": "3671 S MIAMI AVENUE", "SR_14": 2.0, "Q_14": 5.0, "name": "NURSING CENTER AT MERCY, THE", "SF_14": "", "SF_15": "", "cnty": "Miami-Dade", "st": "FL", "Zip": 33133.0, "O_14": 3.0, "Q_15": 4.0, "O_15": 2.0, "city": "MIAMI", "beds": 120.0, "SR_15": 2.0}, {"Diff_star": 0.0, "addr": "2090 N CONGRESS AVE", "SR_14": 1.0, "Q_14": 5.0, "name": "SAVANNAH COVE", "SF_14": 3.0, "SF_15": 3.0, "cnty": "Palm Beach", "st": "FL", "Zip": 33401.0, "O_14": 2.0, "Q_15": 5.0, "O_15": 2.0, "city": "WEST PALM BEACH", "beds": 30.0, "SR_15": 1.0}, {"Diff_star": -1.0, "addr": "5601 31ST ST S", "SR_14": 1.0, "Q_14": 3.0, "name": "PINELLAS POINT NURSING AND REHAB CENTER", "SF_14": 4.0, "SF_15": 3.0, "cnty": "Pinellas", "st": "FL", "Zip": 33712.0, "O_14": 2.0, "Q_15": 1.0, "O_15": 1.0, "city": "SAINT PETERSBURG", "beds": 60.0, "SR_15": 1.0}, {"Diff_star": -1.0, "addr": "1111 S LAKEMONT AVE", "SR_14": 2.0, "Q_14": 5.0, "name": "WINTER PARK TOWERS", "SF_14": 4.0, "SF_15": 4.0, "cnty": "Orange", "st": "FL", "Zip": 32792.0, "O_14": 4.0, "Q_15": 4.0, "O_15": 3.0, "city": "WINTER PARK", "beds": 120.0, "SR_15": 2.0}, {"Diff_star": -1.0, "addr": "851 WEST LUMSDEN RD", "SR_14": 2.0, "Q_14": 5.0, "name": "HAWTHORNE HEALTH AND REHAB OF BRANDON", "SF_14": 4.0, "SF_15": 4.0, "cnty": "Hillsborough", "st": "FL", "Zip": 33511.0, "O_14": 4.0, "Q_15": 3.0, "O_15": 3.0, "city": "BRANDON", "beds": 120.0, "SR_15": 2.0}, {"Diff_star": 0.0, "addr": "3250 WINKLER AVENUE EXTENSION", "SR_14": 4.0, "Q_14": 5.0, "name": "WINKLER COURT", "SF_14": 4.0, "SF_15": 3.0, "cnty": "Lee", "st": "FL", "Zip": 33916.0, "O_14": 5.0, "Q_15": 5.0, "O_15": 5.0, "city": "FORT MYERS", "beds": 120.0, "SR_15": 4.0}, {"Diff_star": 0.0, "addr": "2811 CAMPUS HILL DR", "SR_14": 2.0, "Q_14": 4.0, "name": "EXCEL REHABILITATION AND HEALTH CENTER", "SF_14": 2.0, "SF_15": 2.0, "cnty": "Hillsborough", "st": "FL", "Zip": 33612.0, "O_14": 2.0, "Q_15": 2.0, "O_15": 2.0, "city": "TAMPA", "beds": 120.0, "SR_15": 2.0}, {"Diff_star": 0.0, "addr": "8050 SPYGLASS HILL RD", "SR_14": 1.0, "Q_14": 4.0, "name": "VIERA HEALTH AND REHABILITATION CENTER", "SF_14": 4.0, "SF_15": 4.0, "cnty": "Brevard", "st": "FL", "Zip": 32940.0, "O_14": 2.0, "Q_15": 3.0, "O_15": 2.0, "city": "VIERA", "beds": 114.0, "SR_15": 1.0}, {"Diff_star": -2.0, "addr": "1301 W MAITLAND BLVD", "SR_14": 3.0, "Q_14": 5.0, "name": "SAVANNAH COVE", "SF_14": 4.0, "SF_15": 3.0, "cnty": "Orange", "st": "FL", "Zip": 32751.0, "O_14": 5.0, "Q_15": 4.0, "O_15": 3.0, "city": "MAITLAND", "beds": 39.0, "SR_15": 3.0}, {"Diff_star": -1.0, "addr": "4641 OLD CANOE CREEK ROAD", "SR_14": 4.0, "Q_14": 5.0, "name": "PLANTATION BAY REHABILITATION CENTER", "SF_14": 4.0, "SF_15": 3.0, "cnty": "Osceola", "st": "FL", "Zip": 34769.0, "O_14": 5.0, "Q_15": 3.0, "O_15": 4.0, "city": "SAINT CLOUD", "beds": 120.0, "SR_15": 4.0}, {"Diff_star": 0.0, "addr": "2000 17TH AVE S", "SR_14": 1.0, "Q_14": 4.0, "name": "BAYWOOD NURSING CENTER", "SF_14": 3.0, "SF_15": 3.0, "cnty": "Pinellas", "st": "FL", "Zip": 33712.0, "O_14": 1.0, "Q_15": 3.0, "O_15": 1.0, "city": "SAINT PETERSBURG", "beds": 59.0, "SR_15": 1.0}, {"Diff_star": 0.0, "addr": "1709 TALIAFERRO AVE", "SR_14": 5.0, "Q_14": 5.0, "name": "YBOR CITY HEALTHCARE AND REHABILITATION CENTER", "SF_14": 4.0, "SF_15": 4.0, "cnty": "Hillsborough", "st": "FL", "Zip": 33602.0, "O_14": 5.0, "Q_15": 5.0, "O_15": 5.0, "city": "TAMPA", "beds": 80.0, "SR_15": 5.0}, {"Diff_star": -1.0, "addr": "259 SW CAPTAIN BROWN RD", "SR_14": 3.0, "Q_14": 3.0, "name": "LAKE PARK OF MADISON", "SF_14": 2.0, "SF_15": 2.0, "cnty": "Madison", "st": "FL", "Zip": 32340.0, "O_14": 3.0, "Q_15": 1.0, "O_15": 2.0, "city": "MADISON", "beds": 120.0, "SR_15": 3.0}, {"Diff_star": -1.0, "addr": "9393 PARK BLVD", "SR_14": 2.0, "Q_14": 4.0, "name": "CONSULATE HEALTH CARE OF ST PETERSBURG", "SF_14": 2.0, "SF_15": 2.0, "cnty": "Pinellas", "st": "FL", "Zip": 33777.0, "O_14": 2.0, "Q_15": 1.0, "O_15": 1.0, "city": "SEMINOLE", "beds": 120.0, "SR_15": 2.0}, {"Diff_star": 0.0, "addr": "25 STATE ROAD 13", "SR_14": 1.0, "Q_14": 4.0, "name": "WESTMINSTER WOODS ON JULINGTON CREEK", "SF_14": 4.0, "SF_15": 4.0, "cnty": "St. Johns", "st": "FL", "Zip": 32259.0, "O_14": 2.0, "Q_15": 3.0, "O_15": 2.0, "city": "JACKSONVILLE", "beds": 60.0, "SR_15": 1.0}, {"Diff_star": 0.0, "addr": "800 NW 95TH STREET", "SR_14": 2.0, "Q_14": 5.0, "name": "FRANCO NURSING & REHABILITATION CENTER", "SF_14": 2.0, "SF_15": 2.0, "cnty": "Miami-Dade", "st": "FL", "Zip": 33150.0, "O_14": 3.0, "Q_15": 5.0, "O_15": 3.0, "city": "MIAMI", "beds": 120.0, "SR_15": 2.0}, {"Diff_star": -1.0, "addr": "4251 STACK BLVD", "SR_14": 3.0, "Q_14": 5.0, "name": "ATLANTIC SHORES NURSING AND REHAB CENTER", "SF_14": 4.0, "SF_15": 4.0, "cnty": "Brevard", "st": "FL", "Zip": 32901.0, "O_14": 5.0, "Q_15": 3.0, "O_15": 4.0, "city": "MELBOURNE", "beds": 120.0, "SR_15": 3.0}, {"Diff_star": 0.0, "addr": "9869 SW 152ND STREET", "SR_14": 1.0, "Q_14": 5.0, "name": "CORAL REEF NURSING & REHABILITATION CENTER", "SF_14": 4.0, "SF_15": 4.0, "cnty": "Miami-Dade", "st": "FL", "Zip": 33157.0, "O_14": 2.0, "Q_15": 4.0, "O_15": 2.0, "city": "MIAMI", "beds": 180.0, "SR_15": 1.0}, {"Diff_star": -1.0, "addr": "2300 VILLAGE BLVD", "SR_14": 2.0, "Q_14": 5.0, "name": "MANORCARE HEALTH SERVICES WEST PALM BEACH", "SF_14": 2.0, "SF_15": 2.0, "cnty": "Palm Beach", "st": "FL", "Zip": 33409.0, "O_14": 3.0, "Q_15": 4.0, "O_15": 2.0, "city": "WEST PALM BEACH", "beds": 120.0, "SR_15": 2.0}, {"Diff_star": 0.0, "addr": "1395 S PINELLAS AVE", "SR_14": 4.0, "Q_14": 1.0, "name": "FLORIDA HOSPITAL NORTH PINELLAS", "SF_14": 5.0, "SF_15": 5.0, "cnty": "Pinellas", "st": "FL", "Zip": 34689.0, "O_14": 4.0, "Q_15": 1.0, "O_15": 4.0, "city": "TARPON SPRINGS", "beds": 18.0, "SR_15": 4.0}, {"Diff_star": 0.0, "addr": "550 NATIONAL HEALTHCARE DRIVE", "SR_14": 3.0, "Q_14": 4.0, "name": "HEALTH CENTER OF DAYTONA BEACH, THE", "SF_14": 4.0, "SF_15": 4.0, "cnty": "Volusia", "st": "FL", "Zip": 32114.0, "O_14": 4.0, "Q_15": 4.0, "O_15": 4.0, "city": "DAYTONA BEACH", "beds": 73.0, "SR_15": 3.0}, {"Diff_star": 0.0, "addr": "4101 SOUTHPOINT DRIVE EAST", "SR_14": 1.0, "Q_14": 3.0, "name": "CONSULATE HEALTH CARE OF JACKSONVILLE", "SF_14": 3.0, "SF_15": 3.0, "cnty": "Duval", "st": "FL", "Zip": 32216.0, "O_14": 1.0, "Q_15": 1.0, "O_15": 1.0, "city": "JACKSONVILLE", "beds": 116.0, "SR_15": 1.0}, {"Diff_star": -1.0, "addr": "1700 21ST AVE W", "SR_14": 2.0, "Q_14": 5.0, "name": "WESTMINSTER COMMUNITIES OF BRADENTON WESTMINSTER", "SF_14": 4.0, "SF_15": 4.0, "cnty": "Manatee", "st": "FL", "Zip": 34205.0, "O_14": 4.0, "Q_15": 4.0, "O_15": 3.0, "city": "BRADENTON", "beds": 59.0, "SR_15": 2.0}, {"Diff_star": 0.0, "addr": "3803 PGA BOULEVARD", "SR_14": 4.0, "Q_14": 5.0, "name": "GARDENS COURT", "SF_14": "", "SF_15": "", "cnty": "Palm Beach", "st": "FL", "Zip": 33410.0, "O_14": 5.0, "Q_15": 5.0, "O_15": 5.0, "city": "PALM BEACH GARDENS", "beds": 120.0, "SR_15": 4.0}, {"Diff_star": 0.0, "addr": "16690 SW CHIPOLA RD", "SR_14": 4.0, "Q_14": 3.0, "name": "BLOUNTSTOWN HEALTH AND REHABILITATION CENTER", "SF_14": 4.0, "SF_15": 4.0, "cnty": "Calhoun", "st": "FL", "Zip": 32424.0, "O_14": 4.0, "Q_15": 2.0, "O_15": 4.0, "city": "BLOUNTSTOWN", "beds": 96.0, "SR_15": 4.0}, {"Diff_star": 0.0, "addr": "1095 PINELLAS POINT DR S", "SR_14": 3.0, "Q_14": 4.0, "name": "WESTMINSTER SUNCOAST", "SF_14": 4.0, "SF_15": 4.0, "cnty": "Pinellas", "st": "FL", "Zip": 33705.0, "O_14": 4.0, "Q_15": 3.0, "O_15": 4.0, "city": "SAINT PETERSBURG", "beds": 120.0, "SR_15": 3.0}, {"Diff_star": -1.0, "addr": "9960 ATRIUM WAY", "SR_14": 4.0, "Q_14": 5.0, "name": "BROOKDALE ATRIUM WAY 2", "SF_14": 1.0, "SF_15": 1.0, "cnty": "Duval", "st": "FL", "Zip": 32225.0, "O_14": 4.0, "Q_15": 4.0, "O_15": 3.0, "city": "JACKSONVILLE", "beds": 84.0, "SR_15": 4.0}, {"Diff_star": 0.0, "addr": "2145 KINGSLEY AVE", "SR_14": 4.0, "Q_14": 5.0, "name": "LIFE CARE CENTER OF ORANGE PARK", "SF_14": 2.0, "SF_15": 2.0, "cnty": "Clay", "st": "FL", "Zip": 32073.0, "O_14": 5.0, "Q_15": 5.0, "O_15": 5.0, "city": "ORANGE PARK", "beds": 180.0, "SR_15": 4.0}, {"Diff_star": 0.0, "addr": "120 CHIPOLA AVE", "SR_14": 1.0, "Q_14": 4.0, "name": "VILLA HEALTH & REHABILITATION CENTER", "SF_14": 2.0, "SF_15": 2.0, "cnty": "Volusia", "st": "FL", "Zip": 32720.0, "O_14": 1.0, "Q_15": 2.0, "O_15": 1.0, "city": "DELAND", "beds": 120.0, "SR_15": 1.0}, {"Diff_star": -1.0, "addr": "235 WEST AIRPORT BLVD", "SR_14": 1.0, "Q_14": 3.0, "name": "CONSULATE HEALTH CARE OF PENSACOLA", "SF_14": 4.0, "SF_15": 3.0, "cnty": "Escambia", "st": "FL", "Zip": 32505.0, "O_14": 2.0, "Q_15": 2.0, "O_15": 1.0, "city": "PENSACOLA", "beds": 120.0, "SR_15": 1.0}, {"Diff_star": 0.0, "addr": "450 NORTH MCDONALD AVENUE", "SR_14": 4.0, "Q_14": 4.0, "name": "GOOD SAMARITAN SOCIETY-FLORIDA LUTHERAN", "SF_14": 4.0, "SF_15": 4.0, "cnty": "Volusia", "st": "FL", "Zip": 32724.0, "O_14": 4.0, "Q_15": 3.0, "O_15": 4.0, "city": "DELAND", "beds": 60.0, "SR_15": 4.0}, {"Diff_star": 0.0, "addr": "7600 SW 8TH STREET", "SR_14": 5.0, "Q_14": 5.0, "name": "PALMETTO SUB ACUTE CARE CENTER, INC", "SF_14": 1.0, "SF_15": 1.0, "cnty": "Miami-Dade", "st": "FL", "Zip": 33144.0, "O_14": 5.0, "Q_15": 5.0, "O_15": 5.0, "city": "MIAMI", "beds": 95.0, "SR_15": 5.0}, {"Diff_star": 0.0, "addr": "909 LAKESIDE AVE", "SR_14": 5.0, "Q_14": 5.0, "name": "FLORIDA PRESBYTERIAN HOMES INC", "SF_14": 5.0, "SF_15": 5.0, "cnty": "Polk", "st": "FL", "Zip": 33803.0, "O_14": 5.0, "Q_15": 4.0, "O_15": 5.0, "city": "LAKELAND", "beds": 48.0, "SR_15": 5.0}, {"Diff_star": 0.0, "addr": "1465 OAKFIELD DR", "SR_14": 2.0, "Q_14": 4.0, "name": "BRANDON HEALTH AND REHABILITATION CENTER", "SF_14": 2.0, "SF_15": 2.0, "cnty": "Hillsborough", "st": "FL", "Zip": 33511.0, "O_14": 2.0, "Q_15": 3.0, "O_15": 2.0, "city": "BRANDON", "beds": 120.0, "SR_15": 2.0}, {"Diff_star": -1.0, "addr": "3001 PALM COAST PARKWAY SE", "SR_14": 3.0, "Q_14": 3.0, "name": "GRAND OAKS HEALTH AND REHABILITATION CENTER", "SF_14": 4.0, "SF_15": 4.0, "cnty": "Flagler", "st": "FL", "Zip": 32137.0, "O_14": 4.0, "Q_15": 1.0, "O_15": 3.0, "city": "PALM COAST", "beds": 120.0, "SR_15": 3.0}, {"Diff_star": 0.0, "addr": "950 PINEBROOK ROAD", "SR_14": 2.0, "Q_14": 5.0, "name": "HARBORCHASE OF VENICE", "SF_14": 5.0, "SF_15": 5.0, "cnty": "Sarasota", "st": "FL", "Zip": 34285.0, "O_14": 4.0, "Q_15": 5.0, "O_15": 4.0, "city": "VENICE", "beds": 45.0, "SR_15": 2.0}, {"Diff_star": 0.0, "addr": "4600 54TH AVE S", "SR_14": 3.0, "Q_14": 5.0, "name": "ALLEGRO AT COLLEGE HARBOR, THE", "SF_14": 4.0, "SF_15": 4.0, "cnty": "Pinellas", "st": "FL", "Zip": 33711.0, "O_14": 5.0, "Q_15": 5.0, "O_15": 5.0, "city": "SAINT PETERSBURG", "beds": 52.0, "SR_15": 3.0}, {"Diff_star": 0.0, "addr": "4875 CASON COVE DRIVE", "SR_14": 5.0, "Q_14": 5.0, "name": "HEALTH CENTER OF WINDERMERE, THE", "SF_14": 3.0, "SF_15": 3.0, "cnty": "Orange", "st": "FL", "Zip": 32811.0, "O_14": 5.0, "Q_15": 4.0, "O_15": 5.0, "city": "ORLANDO", "beds": 120.0, "SR_15": 5.0}, {"Diff_star": 0.0, "addr": "580 W 8TH STREET", "SR_14": 1.0, "Q_14": 5.0, "name": "SHANDS JACKSONVILLE MEDICAL CENTER", "SF_14": 5.0, "SF_15": 5.0, "cnty": "Duval", "st": "FL", "Zip": 32209.0, "O_14": 2.0, "Q_15": 4.0, "O_15": 2.0, "city": "JACKSONVILLE", "beds": 56.0, "SR_15": 1.0}, {"Diff_star": -1.0, "addr": "355 CROSSING BLVD", "SR_14": 3.0, "Q_14": 5.0, "name": "LIFE CARE CENTER AT WELLS CROSSING", "SF_14": 4.0, "SF_15": 3.0, "cnty": "Clay", "st": "FL", "Zip": 32073.0, "O_14": 5.0, "Q_15": 5.0, "O_15": 4.0, "city": "ORANGE PARK", "beds": 120.0, "SR_15": 3.0}, {"Diff_star": 0.0, "addr": "512 W MAIN ST", "SR_14": 3.0, "Q_14": 5.0, "name": "LAFAYETTE HEALTH CARE CENTER", "SF_14": 4.0, "SF_15": 4.0, "cnty": "Lafayette", "st": "FL", "Zip": 32066.0, "O_14": 5.0, "Q_15": 5.0, "O_15": 5.0, "city": "MAYO", "beds": 60.0, "SR_15": 3.0}, {"Diff_star": -1.0, "addr": "1450 EAST VENICE AVENUE", "SR_14": 2.0, "Q_14": 5.0, "name": "MANORCARE HEALTH SERVICES", "SF_14": 4.0, "SF_15": 3.0, "cnty": "Sarasota", "st": "FL", "Zip": 34292.0, "O_14": 4.0, "Q_15": 5.0, "O_15": 3.0, "city": "VENICE", "beds": 129.0, "SR_15": 2.0}, {"Diff_star": 0.0, "addr": "15071 SHELL POINT BLVD", "SR_14": 4.0, "Q_14": 5.0, "name": "SHELL POINT NURSING PAVILION", "SF_14": 5.0, "SF_15": 5.0, "cnty": "Lee", "st": "FL", "Zip": 33908.0, "O_14": 5.0, "Q_15": 5.0, "O_15": 5.0, "city": "FORT MYERS", "beds": 219.0, "SR_15": 4.0}, {"Diff_star": -1.0, "addr": "1091 KELTON AVE", "SR_14": 1.0, "Q_14": 4.0, "name": "LAKE BENNETT HEALTH AND REHABILITATION", "SF_14": 4.0, "SF_15": 3.0, "cnty": "Orange", "st": "FL", "Zip": 34761.0, "O_14": 2.0, "Q_15": 2.0, "O_15": 1.0, "city": "OCOEE", "beds": 120.0, "SR_15": 1.0}, {"Diff_star": -1.0, "addr": "2792 DONNELLY DRIVE", "SR_14": 4.0, "Q_14": 5.0, "name": "VI AT LAKESIDE VILLAGE", "SF_14": 4.0, "SF_15": 3.0, "cnty": "Palm Beach", "st": "FL", "Zip": 33462.0, "O_14": 5.0, "Q_15": 4.0, "O_15": 4.0, "city": "LANTANA", "beds": 60.0, "SR_15": 4.0}, {"Diff_star": 0.0, "addr": "2600 FOREST GLEN TRAIL", "SR_14": 5.0, "Q_14": 5.0, "name": "SIGNATURE HEALTHCARE AT THE COURTYARD", "SF_14": 4.0, "SF_15": 4.0, "cnty": "Jackson", "st": "FL", "Zip": 32446.0, "O_14": 5.0, "Q_15": 5.0, "O_15": 5.0, "city": "MARIANNA", "beds": 120.0, "SR_15": 5.0}, {"Diff_star": 0.0, "addr": "6011 SE TOWER DR", "SR_14": 3.0, "Q_14": 4.0, "name": "MARTIN NURSING AND RESTORATIVE CARE CENTER", "SF_14": 4.0, "SF_15": 4.0, "cnty": "Martin", "st": "FL", "Zip": 34997.0, "O_14": 4.0, "Q_15": 3.0, "O_15": 4.0, "city": "STUART", "beds": 120.0, "SR_15": 3.0}, {"Diff_star": -1.0, "addr": "3211 ROUSE ROAD", "SR_14": 4.0, "Q_14": 5.0, "name": "LIFE CARE CENTER OF ORLANDO", "SF_14": 3.0, "SF_15": 3.0, "cnty": "Orange", "st": "FL", "Zip": 32817.0, "O_14": 5.0, "Q_15": 4.0, "O_15": 4.0, "city": "ORLANDO", "beds": 120.0, "SR_15": 4.0}, {"Diff_star": 0.0, "addr": "3611 TRANSMITTER ROAD", "SR_14": 5.0, "Q_14": 4.0, "name": "COMMUNITY HEALTH AND REHABILITATION CENTER", "SF_14": 3.0, "SF_15": 3.0, "cnty": "Bay", "st": "FL", "Zip": 32404.0, "O_14": 5.0, "Q_15": 4.0, "O_15": 5.0, "city": "PANAMA CITY", "beds": 120.0, "SR_15": 5.0}, {"Diff_star": -1.0, "addr": "6767 86TH AVE N", "SR_14": 3.0, "Q_14": 5.0, "name": "GULF SHORE REHABILITATION AND NURSING CENTER", "SF_14": 2.0, "SF_15": 2.0, "cnty": "Pinellas", "st": "FL", "Zip": 33782.0, "O_14": 4.0, "Q_15": 4.0, "O_15": 3.0, "city": "PINELLAS PARK", "beds": 120.0, "SR_15": 3.0}, {"Diff_star": -1.0, "addr": "4125 WEST SAMPLE RD", "SR_14": 4.0, "Q_14": 5.0, "name": "HEALTH CENTER OF COCONUT CREEK, THE", "SF_14": 4.0, "SF_15": 4.0, "cnty": "Broward", "st": "FL", "Zip": 33073.0, "O_14": 5.0, "Q_15": 4.0, "O_15": 4.0, "city": "COCONUT CREEK", "beds": 120.0, "SR_15": 4.0}, {"Diff_star": 0.0, "addr": "11411 ARMSDALE ROAD", "SR_14": 4.0, "Q_14": 5.0, "name": "LAKESIDE NURSING AND REHABILITATION CENTER", "SF_14": 3.0, "SF_15": 3.0, "cnty": "Duval", "st": "FL", "Zip": 32218.0, "O_14": 5.0, "Q_15": 5.0, "O_15": 5.0, "city": "JACKSONVILLE", "beds": 122.0, "SR_15": 4.0}, {"Diff_star": 0.0, "addr": "18480 COCHRAN BLVD", "SR_14": 1.0, "Q_14": 4.0, "name": "CONSULATE HEALTH CARE OF PORT CHARLOTTE", "SF_14": 2.0, "SF_15": 2.0, "cnty": "Charlotte", "st": "FL", "Zip": 33948.0, "O_14": 1.0, "Q_15": 2.0, "O_15": 1.0, "city": "PORT CHARLOTTE", "beds": 120.0, "SR_15": 1.0}, {"Diff_star": 0.0, "addr": "4783 FRUITVILLE ROAD", "SR_14": 3.0, "Q_14": 4.0, "name": "CONSULATE HEALTH CARE OF SARASOTA", "SF_14": 4.0, "SF_15": 4.0, "cnty": "Sarasota", "st": "FL", "Zip": 34232.0, "O_14": 4.0, "Q_15": 2.0, "O_15": 4.0, "city": "SARASOTA", "beds": 81.0, "SR_15": 3.0}, {"Diff_star": -2.0, "addr": "5405 BABCOCK ST NE", "SR_14": 2.0, "Q_14": 5.0, "name": "PALMS REHABILITATION AND HEALTHCARE CENTER, THE", "SF_14": 4.0, "SF_15": 3.0, "cnty": "Brevard", "st": "FL", "Zip": 32905.0, "O_14": 4.0, "Q_15": 4.0, "O_15": 2.0, "city": "PALM BAY", "beds": 120.0, "SR_15": 2.0}, {"Diff_star": -1.0, "addr": "7350 DAIRY RD", "SR_14": 5.0, "Q_14": 4.0, "name": "ZEPHYRHILLS HEALTH & REHAB CENTER, INC", "SF_14": 4.0, "SF_15": 4.0, "cnty": "Pasco", "st": "FL", "Zip": 33540.0, "O_14": 5.0, "Q_15": 4.0, "O_15": 4.0, "city": "ZEPHYRHILLS", "beds": 103.0, "SR_15": 3.0}, {"Diff_star": 0.0, "addr": "14155 TOWN LOOP BLVD", "SR_14": 2.0, "Q_14": 4.0, "name": "HUNTERS CREEK NURSING AND REHAB CENTER", "SF_14": 5.0, "SF_15": 5.0, "cnty": "Orange", "st": "FL", "Zip": 32837.0, "O_14": 3.0, "Q_15": 2.0, "O_15": 3.0, "city": "ORLANDO", "beds": 116.0, "SR_15": 2.0}, {"Diff_star": 0.0, "addr": "7801 AIRPORT PULLING ROAD N", "SR_14": 1.0, "Q_14": 3.0, "name": "HARBORCHASE OF NAPLES", "SF_14": 4.0, "SF_15": 4.0, "cnty": "Collier", "st": "FL", "Zip": 34109.0, "O_14": 2.0, "Q_15": 2.0, "O_15": 2.0, "city": "NAPLES", "beds": 40.0, "SR_15": 1.0}, {"Diff_star": 0.0, "addr": "12170 CORTEZ BLVD", "SR_14": 3.0, "Q_14": 4.0, "name": "SPRING HILL HEALTH AND REHABILITATION CENTER", "SF_14": 2.0, "SF_15": 2.0, "cnty": "Hernando", "st": "FL", "Zip": 34613.0, "O_14": 3.0, "Q_15": 3.0, "O_15": 3.0, "city": "BROOKSVILLE", "beds": 120.0, "SR_15": 3.0}, {"Diff_star": -1.0, "addr": "2701 LAKE ALFRED RD", "SR_14": 1.0, "Q_14": 5.0, "name": "CONSULATE HEALTH CARE OF WINTER HAVEN", "SF_14": 1.0, "SF_15": 1.0, "cnty": "Polk", "st": "FL", "Zip": 33881.0, "O_14": 2.0, "Q_15": 4.0, "O_15": 1.0, "city": "WINTER HAVEN", "beds": 120.0, "SR_15": 1.0}, {"Diff_star": 0.0, "addr": "2800 SW 41ST ST", "SR_14": 4.0, "Q_14": 4.0, "name": "LIFE CARE CENTER OF OCALA", "SF_14": 4.0, "SF_15": 3.0, "cnty": "Marion", "st": "FL", "Zip": 34474.0, "O_14": 4.0, "Q_15": 3.0, "O_15": 4.0, "city": "OCALA", "beds": 120.0, "SR_15": 4.0}, {"Diff_star": -1.0, "addr": "3735 EVANS AVE", "SR_14": 1.0, "Q_14": 5.0, "name": "EVANS HEALTH CARE", "SF_14": 3.0, "SF_15": 3.0, "cnty": "Lee", "st": "FL", "Zip": 33901.0, "O_14": 2.0, "Q_15": 4.0, "O_15": 1.0, "city": "FORT MYERS", "beds": 120.0, "SR_15": 1.0}, {"Diff_star": 0.0, "addr": "1010 CARPENTERS WAY", "SR_14": 1.0, "Q_14": 3.0, "name": "WEDGEWOOD HEALTHCARE CENTER", "SF_14": 1.0, "SF_15": 1.0, "cnty": "Polk", "st": "FL", "Zip": 33809.0, "O_14": 1.0, "Q_15": 1.0, "O_15": 1.0, "city": "LAKELAND", "beds": 120.0, "SR_15": 1.0}, {"Diff_star": -1.0, "addr": "630 GRIFFIN AVENUE", "SR_14": 2.0, "Q_14": 5.0, "name": "LADY LAKE SPECIALTY CARE CENTER", "SF_14": 3.0, "SF_15": 3.0, "cnty": "Lake", "st": "FL", "Zip": 32159.0, "O_14": 3.0, "Q_15": 4.0, "O_15": 2.0, "city": "LADY LAKE", "beds": 145.0, "SR_15": 2.0}, {"Diff_star": 0.0, "addr": "16200 JOG ROAD", "SR_14": 3.0, "Q_14": 5.0, "name": "MANORCARE HEALTH SERVICES", "SF_14": 3.0, "SF_15": 3.0, "cnty": "Palm Beach", "st": "FL", "Zip": 33446.0, "O_14": 4.0, "Q_15": 5.0, "O_15": 4.0, "city": "DELRAY BEACH", "beds": 120.0, "SR_15": 3.0}, {"Diff_star": 0.0, "addr": "6919 PARKWAY BLVD", "SR_14": 5.0, "Q_14": 4.0, "name": "BALDOMERO LOPEZ MEMORIAL VETERANS NURSING HOME", "SF_14": 5.0, "SF_15": 5.0, "cnty": "Pasco", "st": "FL", "Zip": 34639.0, "O_14": 5.0, "Q_15": 3.0, "O_15": 5.0, "city": "LAND O LAKES", "beds": 120.0, "SR_15": 5.0}, {"Diff_star": 0.0, "addr": "47 NW 32 PLACE", "SR_14": 4.0, "Q_14": 5.0, "name": "FLORIDEAN NURSING HOME INC", "SF_14": 3.0, "SF_15": 3.0, "cnty": "Miami-Dade", "st": "FL", "Zip": 33125.0, "O_14": 5.0, "Q_15": 5.0, "O_15": 5.0, "city": "MIAMI", "beds": 90.0, "SR_15": 4.0}, {"Diff_star": -1.0, "addr": "1104 NORTH MAIN STREET", "SR_14": 3.0, "Q_14": 5.0, "name": "OSPREY POINT NURSING CENTER", "SF_14": 1.0, "SF_15": 1.0, "cnty": "Sumter", "st": "FL", "Zip": 33513.0, "O_14": 3.0, "Q_15": 4.0, "O_15": 2.0, "city": "BUSHNELL", "beds": 60.0, "SR_15": 3.0}, {"Diff_star": -1.0, "addr": "583 NE 351 HWY", "SR_14": 2.0, "Q_14": 5.0, "name": "CROSS CITY REHABILITATION & HEALTH CARE CENTER", "SF_14": 3.0, "SF_15": 3.0, "cnty": "Dixie", "st": "FL", "Zip": 32628.0, "O_14": 3.0, "Q_15": 3.0, "O_15": 2.0, "city": "CROSS CITY", "beds": 60.0, "SR_15": 2.0}, {"Diff_star": -1.0, "addr": "9035 BRYAN DAIRY RD", "SR_14": 1.0, "Q_14": 4.0, "name": "LARGO HEALTH AND REHABILITATION CENTER", "SF_14": 4.0, "SF_15": 3.0, "cnty": "Pinellas", "st": "FL", "Zip": 33777.0, "O_14": 2.0, "Q_15": 1.0, "O_15": 1.0, "city": "LARGO", "beds": 158.0, "SR_15": 1.0}, {"Diff_star": -1.0, "addr": "2511 JOHN YOUNG PARKWAY NORTH", "SR_14": 2.0, "Q_14": 5.0, "name": "CONSULATE HEALTH CARE OF KISSIMMEE", "SF_14": 3.0, "SF_15": 3.0, "cnty": "Osceola", "st": "FL", "Zip": 34741.0, "O_14": 3.0, "Q_15": 4.0, "O_15": 2.0, "city": "KISSIMMEE", "beds": 120.0, "SR_15": 2.0}, {"Diff_star": 0.0, "addr": "3720 SE JENNINGS ROAD", "SR_14": 2.0, "Q_14": 4.0, "name": "LIFE CARE CENTER OF PORT SAINT LUCIE", "SF_14": 2.0, "SF_15": 2.0, "cnty": "St. Lucie", "st": "FL", "Zip": 34952.0, "O_14": 2.0, "Q_15": 2.0, "O_15": 2.0, "city": "PORT SAINT LUCIE", "beds": 123.0, "SR_15": 2.0}, {"Diff_star": 0.0, "addr": "347 HIATT DRIVE", "SR_14": 4.0, "Q_14": 5.0, "name": "CHATSWORTH AT PGA NATIONAL", "SF_14": 4.0, "SF_15": 4.0, "cnty": "Palm Beach", "st": "FL", "Zip": 33418.0, "O_14": 5.0, "Q_15": 5.0, "O_15": 5.0, "city": "PALM BEACH GARDENS", "beds": 76.0, "SR_15": 4.0}, {"Diff_star": 0.0, "addr": "16702 NORTH DALE MABRY HWY", "SR_14": 4.0, "Q_14": 5.0, "name": "BRIGHTON GARDENS OF TAMPA", "SF_14": 4.0, "SF_15": 4.0, "cnty": "Hillsborough", "st": "FL", "Zip": 33618.0, "O_14": 5.0, "Q_15": 5.0, "O_15": 5.0, "city": "TAMPA", "beds": 45.0, "SR_15": 4.0}, {"Diff_star": -1.0, "addr": "6305 CORTEZ RD W", "SR_14": 3.0, "Q_14": 5.0, "name": "BRADENTON HEALTH CARE", "SF_14": 3.0, "SF_15": 3.0, "cnty": "Manatee", "st": "FL", "Zip": 34210.0, "O_14": 4.0, "Q_15": 4.0, "O_15": 3.0, "city": "BRADENTON", "beds": 105.0, "SR_15": 3.0}, {"Diff_star": 0.0, "addr": "230 SOUTH BARFIELD HIGHWAY", "SR_14": 1.0, "Q_14": 4.0, "name": "GLADES HEALTH CARE CENTER", "SF_14": "", "SF_15": "", "cnty": "Palm Beach", "st": "FL", "Zip": 33476.0, "O_14": 1.0, "Q_15": 2.0, "O_15": 1.0, "city": "PAHOKEE", "beds": 120.0, "SR_15": 1.0}, {"Diff_star": 0.0, "addr": "10500 CYPRESS COVE DR", "SR_14": 3.0, "Q_14": 5.0, "name": "LODGE AT CYPRESS COVE, THE", "SF_14": 4.0, "SF_15": 4.0, "cnty": "Lee", "st": "FL", "Zip": 33908.0, "O_14": 5.0, "Q_15": 5.0, "O_15": 5.0, "city": "FORT MYERS", "beds": 64.0, "SR_15": 3.0}, {"Diff_star": 0.0, "addr": "13881 EAGLE RIDGE DRIVE", "SR_14": 3.0, "Q_14": 5.0, "name": "MANORCARE HEALTH SERVICES", "SF_14": 2.0, "SF_15": 2.0, "cnty": "Lee", "st": "FL", "Zip": 33912.0, "O_14": 4.0, "Q_15": 5.0, "O_15": 4.0, "city": "FORT MYERS", "beds": 120.0, "SR_15": 3.0}, {"Diff_star": 0.0, "addr": "335 SW 12 AVENUE", "SR_14": 4.0, "Q_14": 5.0, "name": "PONCE PLAZA NURSING & REHABILITATION CENTER", "SF_14": 4.0, "SF_15": 4.0, "cnty": "Miami-Dade", "st": "FL", "Zip": 33130.0, "O_14": 5.0, "Q_15": 5.0, "O_15": 5.0, "city": "MIAMI", "beds": 147.0, "SR_15": 4.0}, {"Diff_star": 0.0, "addr": "5111 PALMER RANCH PARKWAY", "SR_14": 1.0, "Q_14": 5.0, "name": "PALMER RANCH HEALTHCARE AND REHABILITATION", "SF_14": 5.0, "SF_15": 5.0, "cnty": "Sarasota", "st": "FL", "Zip": 34238.0, "O_14": 2.0, "Q_15": 4.0, "O_15": 2.0, "city": "SARASOTA", "beds": 60.0, "SR_15": 1.0}, {"Diff_star": 0.0, "addr": "730 COURTLAND STREET", "SR_14": 3.0, "Q_14": 4.0, "name": "ADVENTIST CARE CENTERS-COURTLAND, INC", "SF_14": 3.0, "SF_15": 3.0, "cnty": "Orange", "st": "FL", "Zip": 32804.0, "O_14": 3.0, "Q_15": 2.0, "O_15": 3.0, "city": "ORLANDO", "beds": 120.0, "SR_15": 3.0}, {"Diff_star": 0.0, "addr": "8104 N TUTTLE AVE", "SR_14": 5.0, "Q_14": 5.0, "name": "LIFE CARE CENTER OF SARASOTA", "SF_14": 5.0, "SF_15": 5.0, "cnty": "Manatee", "st": "FL", "Zip": 34243.0, "O_14": 5.0, "Q_15": 5.0, "O_15": 5.0, "city": "SARASOTA", "beds": 120.0, "SR_15": 5.0}, {"Diff_star": 0.0, "addr": "2000 NORTH SEMORAN BOULEVARD", "SR_14": 1.0, "Q_14": 4.0, "name": "AVANTE AT ORLANDO INC", "SF_14": 4.0, "SF_15": 4.0, "cnty": "Orange", "st": "FL", "Zip": 32807.0, "O_14": 2.0, "Q_15": 2.0, "O_15": 2.0, "city": "ORLANDO", "beds": 118.0, "SR_15": 1.0}, {"Diff_star": 0.0, "addr": "500 HOSPITAL DRIVE", "SR_14": 5.0, "Q_14": 4.0, "name": "SHOAL CREEK REHABILITATION CENTER", "SF_14": 4.0, "SF_15": 3.0, "cnty": "Okaloosa", "st": "FL", "Zip": 32539.0, "O_14": 5.0, "Q_15": 3.0, "O_15": 5.0, "city": "CRESTVIEW", "beds": 120.0, "SR_15": 5.0}, {"Diff_star": 0.0, "addr": "710 NORTH SUN DRIVE", "SR_14": 2.0, "Q_14": 5.0, "name": "LAKE MARY HEALTH AND REHABILITATION CENTER", "SF_14": 2.0, "SF_15": 2.0, "cnty": "Seminole", "st": "FL", "Zip": 32746.0, "O_14": 3.0, "Q_15": 5.0, "O_15": 3.0, "city": "LAKE MARY", "beds": 120.0, "SR_15": 2.0}, {"Diff_star": 0.0, "addr": "1533 4TH AVE W", "SR_14": 5.0, "Q_14": 5.0, "name": "WESTMINSTER TOWERS AND SHORES OF BRADENTON", "SF_14": 4.0, "SF_15": 4.0, "cnty": "Manatee", "st": "FL", "Zip": 34205.0, "O_14": 5.0, "Q_15": 5.0, "O_15": 5.0, "city": "BRADENTON", "beds": 120.0, "SR_15": 5.0}, {"Diff_star": -1.0, "addr": "955 NW 3RD ST", "SR_14": 4.0, "Q_14": 5.0, "name": "VICTORIA NURSING & REHABILITATION CENTER, INC.", "SF_14": 4.0, "SF_15": 4.0, "cnty": "Miami-Dade", "st": "FL", "Zip": 33128.0, "O_14": 5.0, "Q_15": 4.0, "O_15": 4.0, "city": "MIAMI", "beds": 264.0, "SR_15": 4.0}, {"Diff_star": 0.0, "addr": "1507 SOUTH TUTTLE AVENUE", "SR_14": 1.0, "Q_14": 5.0, "name": "MAGNOLIA HEALTH AND REHABILITATION CENTER", "SF_14": 3.0, "SF_15": 3.0, "cnty": "Sarasota", "st": "FL", "Zip": 34239.0, "O_14": 2.0, "Q_15": 5.0, "O_15": 2.0, "city": "SARASOTA", "beds": 120.0, "SR_15": 1.0}, {"Diff_star": 0.0, "addr": "521 69TH AVE N", "SR_14": 1.0, "Q_14": 5.0, "name": "PALM TERRACE OF ST PETERSBURG", "SF_14": 4.0, "SF_15": 4.0, "cnty": "Pinellas", "st": "FL", "Zip": 33702.0, "O_14": 2.0, "Q_15": 4.0, "O_15": 2.0, "city": "SAINT PETERSBURG", "beds": 96.0, "SR_15": 1.0}, {"Diff_star": 0.0, "addr": "1861 NW 8TH AVENUE", "SR_14": 5.0, "Q_14": 5.0, "name": "JACKSON PLAZA NURSING & REHABILITATION CENTER", "SF_14": 5.0, "SF_15": 5.0, "cnty": "Miami-Dade", "st": "FL", "Zip": 33136.0, "O_14": 5.0, "Q_15": 2.0, "O_15": 5.0, "city": "MIAMI", "beds": 120.0, "SR_15": 5.0}, {"Diff_star": 0.0, "addr": "1303 NORTH TAMIAMI TRAIL", "SR_14": 4.0, "Q_14": 3.0, "name": "INN AT SARASOTA BAY CLUB", "SF_14": 4.0, "SF_15": 4.0, "cnty": "Sarasota", "st": "FL", "Zip": 34236.0, "O_14": 4.0, "Q_15": 2.0, "O_15": 4.0, "city": "SARASOTA", "beds": 60.0, "SR_15": 4.0}, {"Diff_star": -1.0, "addr": "124 W NORVELL BRYANT HWY", "SR_14": 1.0, "Q_14": 4.0, "name": "CITRUS HILLS HEALTH & REHABILITATION CENTER", "SF_14": 4.0, "SF_15": 3.0, "cnty": "Citrus", "st": "FL", "Zip": 34442.0, "O_14": 2.0, "Q_15": 3.0, "O_15": 1.0, "city": "HERNANDO", "beds": 120.0, "SR_15": 1.0}, {"Diff_star": 0.0, "addr": "8401 W CYPRESS DR", "SR_14": 4.0, "Q_14": 5.0, "name": "ALEXANDER NININGER STATE VETERANS NURSING HOME", "SF_14": 4.0, "SF_15": 4.0, "cnty": "Broward", "st": "FL", "Zip": 33025.0, "O_14": 5.0, "Q_15": 5.0, "O_15": 5.0, "city": "PEMBROKE PINES", "beds": 120.0, "SR_15": 3.0}, {"Diff_star": 0.0, "addr": "230 TOWERVIEW DRIVE", "SR_14": 4.0, "Q_14": 2.0, "name": "LIFECARE ST. JOHNS, INC", "SF_14": 5.0, "SF_15": 5.0, "cnty": "St. Johns", "st": "FL", "Zip": 32092.0, "O_14": 5.0, "Q_15": 2.0, "O_15": 5.0, "city": "SAINT AUGUSTINE", "beds": 30.0, "SR_15": 4.0}, {"Diff_star": -1.0, "addr": "549 SKY HARBOR DR", "SR_14": 4.0, "Q_14": 3.0, "name": "HARBOURWOOD HEALTH AND REHAB CENTER", "SF_14": 4.0, "SF_15": 3.0, "cnty": "Pinellas", "st": "FL", "Zip": 33759.0, "O_14": 4.0, "Q_15": 1.0, "O_15": 3.0, "city": "CLEARWATER", "beds": 120.0, "SR_15": 4.0}, {"Diff_star": 0.0, "addr": "10801 JOHNSON BLVD", "SR_14": 4.0, "Q_14": 5.0, "name": "FREEDOM SQUARE REHABILITATION & NURSING SERVICES", "SF_14": 4.0, "SF_15": 4.0, "cnty": "Pinellas", "st": "FL", "Zip": 33772.0, "O_14": 5.0, "Q_15": 5.0, "O_15": 5.0, "city": "SEMINOLE", "beds": 116.0, "SR_15": 4.0}, {"Diff_star": 0.0, "addr": "1017 STRONG RD", "SR_14": 5.0, "Q_14": 5.0, "name": "RIVERCHASE HEALTH AND REHABILITATION CENTER", "SF_14": 4.0, "SF_15": 4.0, "cnty": "Gadsden", "st": "FL", "Zip": 32351.0, "O_14": 5.0, "Q_15": 5.0, "O_15": 5.0, "city": "QUINCY", "beds": 120.0, "SR_15": 5.0}, {"Diff_star": 0.0, "addr": "1656 SOUTH JEFFERSON STREET", "SR_14": 5.0, "Q_14": 5.0, "name": "BRYNWOOD HEALTH AND REHABILITATION CENTER", "SF_14": 3.0, "SF_15": 3.0, "cnty": "Jefferson", "st": "FL", "Zip": 32344.0, "O_14": 5.0, "Q_15": 5.0, "O_15": 5.0, "city": "MONTICELLO", "beds": 97.0, "SR_15": 5.0}, {"Diff_star": 0.0, "addr": "7207 SW 24TH AVE", "SR_14": 4.0, "Q_14": 4.0, "name": "TERRACE HEALTH & REHABILITATION CENTER", "SF_14": 3.0, "SF_15": 3.0, "cnty": "Alachua", "st": "FL", "Zip": 32608.0, "O_14": 4.0, "Q_15": 2.0, "O_15": 4.0, "city": "GAINESVILLE", "beds": 120.0, "SR_15": 4.0}, {"Diff_star": 0.0, "addr": "4300 ROCK ISLAND ROAD", "SR_14": 3.0, "Q_14": 5.0, "name": "LIFE CARE CENTER AT INVERRARY", "SF_14": 4.0, "SF_15": 4.0, "cnty": "Broward", "st": "FL", "Zip": 33319.0, "O_14": 5.0, "Q_15": 5.0, "O_15": 5.0, "city": "LAUDERHILL", "beds": 120.0, "SR_15": 3.0}, {"Diff_star": 0.0, "addr": "5530 NORTHROP ROAD", "SR_14": 4.0, "Q_14": 5.0, "name": "PRUITTHEALTH - SANTA ROSA", "SF_14": 4.0, "SF_15": 3.0, "cnty": "Santa Rosa", "st": "FL", "Zip": 32570.0, "O_14": 5.0, "Q_15": 5.0, "O_15": 5.0, "city": "MILTON", "beds": 120.0, "SR_15": 4.0}, {"Diff_star": 0.0, "addr": "7400 TROUBLE CREEK ROAD", "SR_14": 2.0, "Q_14": 5.0, "name": "LIFE CARE CENTER OF NEW PORT RICHEY", "SF_14": 2.0, "SF_15": 2.0, "cnty": "Pasco", "st": "FL", "Zip": 34653.0, "O_14": 3.0, "Q_15": 5.0, "O_15": 3.0, "city": "NEW PORT RICHEY", "beds": 113.0, "SR_15": 2.0}, {"Diff_star": -1.0, "addr": "1525 HAVEN DRIVE", "SR_14": 1.0, "Q_14": 4.0, "name": "LUTHERAN HAVEN NURSING HOME", "SF_14": 4.0, "SF_15": 3.0, "cnty": "Seminole", "st": "FL", "Zip": 32765.0, "O_14": 2.0, "Q_15": 3.0, "O_15": 1.0, "city": "OVIEDO", "beds": 42.0, "SR_15": 1.0}, {"Diff_star": 0.0, "addr": "600 WEST GREGORY STREET", "SR_14": 4.0, "Q_14": 4.0, "name": "SOUTHERN OAKS REHABILITATION AND NURSING CENTER", "SF_14": 3.0, "SF_15": 3.0, "cnty": "Escambia", "st": "FL", "Zip": 32501.0, "O_14": 4.0, "Q_15": 2.0, "O_15": 4.0, "city": "PENSACOLA", "beds": 210.0, "SR_15": 4.0}, {"Diff_star": 0.0, "addr": "1900 SUMMIT BOULEVARD", "SR_14": 5.0, "Q_14": 4.0, "name": "HAVEN OF OUR LADY OF PEACE", "SF_14": 4.0, "SF_15": 4.0, "cnty": "Escambia", "st": "FL", "Zip": 32503.0, "O_14": 5.0, "Q_15": 2.0, "O_15": 5.0, "city": "PENSACOLA", "beds": 120.0, "SR_15": 5.0}, {"Diff_star": 0.0, "addr": "5201 BAHIA VISTA STREET", "SR_14": 5.0, "Q_14": 5.0, "name": "SUNNYSIDE NURSING HOME", "SF_14": 5.0, "SF_15": 5.0, "cnty": "Sarasota", "st": "FL", "Zip": 34232.0, "O_14": 5.0, "Q_15": 5.0, "O_15": 5.0, "city": "SARASOTA", "beds": 60.0, "SR_15": 5.0}, {"Diff_star": 0.0, "addr": "1962 VANDOLAH RD", "SR_14": 5.0, "Q_14": "", "name": "FINR III, LLC", "SF_14": 5.0, "SF_15": "", "cnty": "Hardee", "st": "FL", "Zip": 33873.0, "O_14": 5.0, "Q_15": "", "O_15": 5.0, "city": "WAUCHULA", "beds": 25.0, "SR_15": 5.0}, {"Diff_star": 1.0, "addr": "1360 BRICKYARD RD", "SR_14": 3.0, "Q_14": 2.0, "name": "NORTHWEST FLORIDA COMMUNITY HOSPITAL (SNU)", "SF_14": 2.0, "SF_15": 3.0, "cnty": "Washington", "st": "FL", "Zip": 32428.0, "O_14": 3.0, "Q_15": 1.0, "O_15": 4.0, "city": "CHIPLEY", "beds": 34.0, "SR_15": 5.0}, {"Diff_star": 0.0, "addr": "4419 TRAM ROAD", "SR_14": 5.0, "Q_14": 5.0, "name": "CLIFFORD CHESTER SIMS STATE VETERANS NURSING HOME", "SF_14": 4.0, "SF_15": 4.0, "cnty": "Bay", "st": "FL", "Zip": 32404.0, "O_14": 5.0, "Q_15": 5.0, "O_15": 5.0, "city": "PANAMA CITY", "beds": 120.0, "SR_15": 5.0}, {"Diff_star": 0.0, "addr": "3850 WILLIAMS ROAD", "SR_14": 2.0, "Q_14": 5.0, "name": "LIFE CARE CENTER OF ESTERO", "SF_14": 4.0, "SF_15": 4.0, "cnty": "Lee", "st": "FL", "Zip": 33928.0, "O_14": 4.0, "Q_15": 5.0, "O_15": 4.0, "city": "ESTERO", "beds": 155.0, "SR_15": 2.0}, {"Diff_star": -1.0, "addr": "4325 SOUTHPOINT BOULEVARD", "SR_14": 2.0, "Q_14": 3.0, "name": "WOODLAND GROVE HEALTH & REHABILITATION CENTER", "SF_14": 4.0, "SF_15": 4.0, "cnty": "Duval", "st": "FL", "Zip": 32216.0, "O_14": 3.0, "Q_15": 1.0, "O_15": 2.0, "city": "JACKSONVILLE", "beds": 120.0, "SR_15": 2.0}, {"Diff_star": 0.0, "addr": "21281 GRAYTON TERRACE", "SR_14": 4.0, "Q_14": 5.0, "name": "DOUGLAS JACOBSON STATE VETERANS NURSING HOME", "SF_14": 5.0, "SF_15": 5.0, "cnty": "Charlotte", "st": "FL", "Zip": 33954.0, "O_14": 5.0, "Q_15": 5.0, "O_15": 5.0, "city": "PORT CHARLOTTE", "beds": 120.0, "SR_15": 4.0}, {"Diff_star": 0.0, "addr": "175 VILLA NUEVA AVE", "SR_14": 4.0, "Q_14": 5.0, "name": "LIFE CARE CENTER OF PALM BAY", "SF_14": 3.0, "SF_15": 3.0, "cnty": "Brevard", "st": "FL", "Zip": 32907.0, "O_14": 5.0, "Q_15": 5.0, "O_15": 5.0, "city": "PALM BAY", "beds": 141.0, "SR_15": 4.0}, {"Diff_star": 0.0, "addr": "1200 NORTH STONE STREET", "SR_14": 2.0, "Q_14": 5.0, "name": "RIDGECREST NURSING AND REHABILITATION CENTER", "SF_14": 4.0, "SF_15": 4.0, "cnty": "Volusia", "st": "FL", "Zip": 32720.0, "O_14": 4.0, "Q_15": 5.0, "O_15": 4.0, "city": "DELAND", "beds": 130.0, "SR_15": 2.0}, {"Diff_star": 0.0, "addr": "875 RETREAT DRIVE", "SR_14": 4.0, "Q_14": 4.0, "name": "BENTLEY CARE CENTER", "SF_14": 4.0, "SF_15": 4.0, "cnty": "Collier", "st": "FL", "Zip": 34110.0, "O_14": 4.0, "Q_15": 3.0, "O_15": 4.0, "city": "NAPLES", "beds": 100.0, "SR_15": 4.0}, {"Diff_star": 0.0, "addr": "7333 SCOTLAND WAY", "SR_14": 4.0, "Q_14": 5.0, "name": "GLENRIDGE ON PALMER RANCH INC.", "SF_14": 5.0, "SF_15": 5.0, "cnty": "Sarasota", "st": "FL", "Zip": 34238.0, "O_14": 5.0, "Q_15": 5.0, "O_15": 5.0, "city": "SARASOTA", "beds": 61.0, "SR_15": 4.0}, {"Diff_star": 1.0, "addr": "4813 LENOIR AVENUE", "SR_14": 2.0, "Q_14": 5.0, "name": "LIFE CARE CENTER OF JACKSONVILLE", "SF_14": 4.0, "SF_15": 4.0, "cnty": "Duval", "st": "FL", "Zip": 32216.0, "O_14": 4.0, "Q_15": 5.0, "O_15": 5.0, "city": "JACKSONVILLE", "beds": 120.0, "SR_15": 3.0}, {"Diff_star": -1.0, "addr": "1125 FLEMING PLANTATION BLVD", "SR_14": 3.0, "Q_14": 4.0, "name": "ISLE HEALTH & REHABILITATION CENTER", "SF_14": 4.0, "SF_15": 3.0, "cnty": "Clay", "st": "FL", "Zip": 32003.0, "O_14": 4.0, "Q_15": 2.0, "O_15": 3.0, "city": "ORANGE PARK", "beds": 108.0, "SR_15": 3.0}, {"Diff_star": 1.0, "addr": "2660 SW 53RD LN", "SR_14": 4.0, "Q_14": 4.0, "name": "OAK HAMMOCK AT THE UNIVERSITY OF FLORIDA INC", "SF_14": 4.0, "SF_15": 4.0, "cnty": "Alachua", "st": "FL", "Zip": 32608.0, "O_14": 4.0, "Q_15": 5.0, "O_15": 5.0, "city": "GAINESVILLE", "beds": 42.0, "SR_15": 4.0}, {"Diff_star": 0.0, "addr": "3600 MASTERPIECE WAY", "SR_14": 3.0, "Q_14": 5.0, "name": "NURSING CENTER AT LA POSADA, THE", "SF_14": 5.0, "SF_15": 5.0, "cnty": "Palm Beach", "st": "FL", "Zip": 33410.0, "O_14": 5.0, "Q_15": 5.0, "O_15": 5.0, "city": "PALM BEACH GARDENS", "beds": 40.0, "SR_15": 3.0}, {"Diff_star": 0.0, "addr": "110 LODGE TERRACE DR", "SR_14": 5.0, "Q_14": 5.0, "name": "LAKEVIEW TERRACE SKILLED NURSING FACILITY", "SF_14": 5.0, "SF_15": 5.0, "cnty": "Lake", "st": "FL", "Zip": 32702.0, "O_14": 5.0, "Q_15": 5.0, "O_15": 5.0, "city": "ALTOONA", "beds": 20.0, "SR_15": 4.0}, {"Diff_star": -1.0, "addr": "730 N SCENIC HWY", "SR_14": 2.0, "Q_14": 5.0, "name": "GRACE HEALTHCARE OF LAKE WALES", "SF_14": 4.0, "SF_15": 4.0, "cnty": "Polk", "st": "FL", "Zip": 33853.0, "O_14": 4.0, "Q_15": 4.0, "O_15": 3.0, "city": "LAKE WALES", "beds": 100.0, "SR_15": 2.0}, {"Diff_star": 0.0, "addr": "475 NURSING HOME DR", "SR_14": 2.0, "Q_14": 3.0, "name": "DESOTO HEALTH AND REHAB", "SF_14": 2.0, "SF_15": 2.0, "cnty": "De Soto", "st": "FL", "Zip": 34266.0, "O_14": 2.0, "Q_15": 2.0, "O_15": 2.0, "city": "ARCADIA", "beds": 41.0, "SR_15": 2.0}, {"Diff_star": 0.0, "addr": "2370 HARBOR BLVD", "SR_14": 2.0, "Q_14": 3.0, "name": "VILLAGE PLACE HEALTH AND REHABILITATION CENTER", "SF_14": 4.0, "SF_15": 4.0, "cnty": "Charlotte", "st": "FL", "Zip": 33952.0, "O_14": 3.0, "Q_15": 2.0, "O_15": 3.0, "city": "PORT CHARLOTTE", "beds": 104.0, "SR_15": 2.0}, {"Diff_star": 0.0, "addr": "3291 EAST OLIVE RD", "SR_14": 5.0, "Q_14": 4.0, "name": "LIFE CARE CENTER OF PENSACOLA", "SF_14": 4.0, "SF_15": 3.0, "cnty": "Escambia", "st": "FL", "Zip": 32514.0, "O_14": 5.0, "Q_15": 4.0, "O_15": 5.0, "city": "PENSACOLA", "beds": 120.0, "SR_15": 5.0}, {"Diff_star": -1.0, "addr": "1120 WEST DONEGAN AVENUE", "SR_14": 1.0, "Q_14": 5.0, "name": "KEYSTONE REHABILITATION AND HEALTH CENTER", "SF_14": 2.0, "SF_15": 2.0, "cnty": "Osceola", "st": "FL", "Zip": 34741.0, "O_14": 2.0, "Q_15": 4.0, "O_15": 1.0, "city": "KISSIMMEE", "beds": 120.0, "SR_15": 1.0}, {"Diff_star": -1.0, "addr": "2180 10TH AVENUE", "SR_14": 3.0, "Q_14": 5.0, "name": "GRACE REHABILITATION CENTER OF VERO BEACH", "SF_14": 4.0, "SF_15": 4.0, "cnty": "Indian River", "st": "FL", "Zip": 32960.0, "O_14": 5.0, "Q_15": 3.0, "O_15": 4.0, "city": "VERO BEACH", "beds": 72.0, "SR_15": 3.0}, {"Diff_star": -1.0, "addr": "19333 WEST COUNTRY CLUB DRIVE", "SR_14": 5.0, "Q_14": 5.0, "name": "VI AT AVENTURA", "SF_14": 5.0, "SF_15": 5.0, "cnty": "Miami-Dade", "st": "FL", "Zip": 33180.0, "O_14": 5.0, "Q_15": 2.0, "O_15": 4.0, "city": "AVENTURA", "beds": 40.0, "SR_15": 3.0}, {"Diff_star": -1.0, "addr": "1701 PARK AVENUE", "SR_14": 3.0, "Q_14": 5.0, "name": "MOOSEHAVEN", "SF_14": 4.0, "SF_15": 4.0, "cnty": "Clay", "st": "FL", "Zip": 32073.0, "O_14": 5.0, "Q_15": 4.0, "O_15": 4.0, "city": "ORANGE PARK", "beds": 54.0, "SR_15": 3.0}, {"Diff_star": 0.0, "addr": "2144 WELBILT BLVD", "SR_14": 3.0, "Q_14": 5.0, "name": "TRINITY REGIONAL REHAB CENTER", "SF_14": 4.0, "SF_15": 4.0, "cnty": "Pasco", "st": "FL", "Zip": 34655.0, "O_14": 5.0, "Q_15": 5.0, "O_15": 5.0, "city": "TRINITY", "beds": 120.0, "SR_15": 3.0}, {"Diff_star": 0.0, "addr": "8850 NW 122 ST", "SR_14": 3.0, "Q_14": 5.0, "name": "VILLA MARIA WEST SKILLED NURSING FACILITY", "SF_14": 5.0, "SF_15": 5.0, "cnty": "Miami-Dade", "st": "FL", "Zip": 33018.0, "O_14": 5.0, "Q_15": 5.0, "O_15": 5.0, "city": "HIALEAH GARDENS", "beds": 27.0, "SR_15": 3.0}, {"Diff_star": -1.0, "addr": "239 CROOKED RIVER ROAD", "SR_14": 1.0, "Q_14": 5.0, "name": "ST JAMES HEALTH AND REHABILITATION CENTER", "SF_14": 3.0, "SF_15": 3.0, "cnty": "Franklin", "st": "FL", "Zip": 32322.0, "O_14": 2.0, "Q_15": 3.0, "O_15": 1.0, "city": "CARRABELLE", "beds": 90.0, "SR_15": 1.0}, {"Diff_star": 0.0, "addr": "4201 BELFORT RD", "SR_14": 4.0, "Q_14": 3.0, "name": "ST VINCENT'S MEDICAL CENTER SOUTHSIDE", "SF_14": 4.0, "SF_15": "", "cnty": "Duval", "st": "FL", "Zip": 32216.0, "O_14": 4.0, "Q_15": 4.0, "O_15": 4.0, "city": "JACKSONVILLE", "beds": 36.0, "SR_15": 4.0}, {"Diff_star": 0.0, "addr": "1460 EL CAMINO REAL DRIVE", "SR_14": 5.0, "Q_14": 4.0, "name": "FREEDOM POINTE AT THE VILLAGES REHABILITATION AND", "SF_14": 5.0, "SF_15": 5.0, "cnty": "Lake", "st": "FL", "Zip": 32159.0, "O_14": 5.0, "Q_15": 3.0, "O_15": 5.0, "city": "THE VILLAGES", "beds": 72.0, "SR_15": 4.0}, {"Diff_star": -1.0, "addr": "2021 SW 1ST AVE", "SR_14": 3.0, "Q_14": 5.0, "name": "AVANTE AT OCALA, INC", "SF_14": 4.0, "SF_15": 4.0, "cnty": "Alachua", "st": "FL", "Zip": 34474.0, "O_14": 5.0, "Q_15": 4.0, "O_15": 4.0, "city": "OCALA", "beds": 133.0, "SR_15": 3.0}, {"Diff_star": 0.0, "addr": "8400 VAMO ROAD", "SR_14": 4.0, "Q_14": 3.0, "name": "BAY VILLAGE OF SARASOTA", "SF_14": 4.0, "SF_15": 4.0, "cnty": "Sarasota", "st": "FL", "Zip": 34231.0, "O_14": 4.0, "Q_15": 3.0, "O_15": 4.0, "city": "SARASOTA", "beds": 95.0, "SR_15": 4.0}, {"Diff_star": -2.0, "addr": "701 OVERLOOK DR SE", "SR_14": 2.0, "Q_14": 5.0, "name": "ASTORIA HEALTH AND REHABILITATION CENTER", "SF_14": 4.0, "SF_15": 3.0, "cnty": "Polk", "st": "FL", "Zip": 33884.0, "O_14": 4.0, "Q_15": 4.0, "O_15": 2.0, "city": "WINTER HAVEN", "beds": 120.0, "SR_15": 2.0}, {"Diff_star": 0.0, "addr": "4650 STATE RD 16", "SR_14": 5.0, "Q_14": 5.0, "name": "CLYDE E LASSEN STATE VETERANS NURSING HOME", "SF_14": 4.0, "SF_15": 4.0, "cnty": "St. Johns", "st": "FL", "Zip": 32092.0, "O_14": 5.0, "Q_15": 4.0, "O_15": 5.0, "city": "SAINT AUGUSTINE", "beds": 120.0, "SR_15": 5.0}, {"Diff_star": 0.0, "addr": "5860 W JUNIOR COLLEGE RD", "SR_14": 2.0, "Q_14": 4.0, "name": "KEY WEST HEALTH AND REHABILITATION CENTER", "SF_14": 5.0, "SF_15": 5.0, "cnty": "Monroe", "st": "FL", "Zip": 33040.0, "O_14": 3.0, "Q_15": 3.0, "O_15": 3.0, "city": "KEY WEST", "beds": 120.0, "SR_15": 2.0}, {"Diff_star": 0.0, "addr": "1959 N HONORE AVE", "SR_14": 1.0, "Q_14": 5.0, "name": "BENDERSON FAMILY SKILLED NURSING AND REHAB CENTER", "SF_14": 4.0, "SF_15": 4.0, "cnty": "Sarasota", "st": "FL", "Zip": 34235.0, "O_14": 2.0, "Q_15": 4.0, "O_15": 2.0, "city": "SARASOTA", "beds": 45.0, "SR_15": 1.0}, {"Diff_star": 0.0, "addr": "10330 NUVISTA AVENUE", "SR_14": 3.0, "Q_14": 3.0, "name": "NUVISTA LIVING AT WELLINGTON GREEN", "SF_14": 4.0, "SF_15": 4.0, "cnty": "Palm Beach", "st": "FL", "Zip": 33414.0, "O_14": 4.0, "Q_15": 3.0, "O_15": 4.0, "city": "WELLINGTON", "beds": 120.0, "SR_15": 3.0}, {"Diff_star": 0.0, "addr": "48 HIGH POINT ROAD", "SR_14": 1.0, "Q_14": 4.0, "name": "PLANTATION KEY NURSING CENTER", "SF_14": 3.0, "SF_15": 3.0, "cnty": "Monroe", "st": "FL", "Zip": 33070.0, "O_14": 1.0, "Q_15": 3.0, "O_15": 1.0, "city": "TAVERNIER", "beds": 120.0, "SR_15": 1.0}, {"Diff_star": -1.0, "addr": "19091 N DALE MABRY HWY", "SR_14": 3.0, "Q_14": 5.0, "name": "NUVISTA LIVING AT HILLSBOROUGH LAKES", "SF_14": 4.0, "SF_15": 4.0, "cnty": "Hillsborough", "st": "FL", "Zip": 33548.0, "O_14": 5.0, "Q_15": 4.0, "O_15": 4.0, "city": "LUTZ", "beds": 120.0, "SR_15": 3.0}, {"Diff_star": -1.0, "addr": "6901 YUMURI STREET", "SR_14": 3.0, "Q_14": 5.0, "name": "RIVIERA HEALTH RESORT", "SF_14": 5.0, "SF_15": 5.0, "cnty": "Miami-Dade", "st": "FL", "Zip": 33156.0, "O_14": 5.0, "Q_15": 3.0, "O_15": 4.0, "city": "CORAL GABLES", "beds": 223.0, "SR_15": 3.0}, {"Diff_star": 0.0, "addr": "16529 SE 86TH BELLE MEADE CIRCLE", "SR_14": 4.0, "Q_14": 5.0, "name": "CLUB HEALTH AND REHABILITATION CENTER AT THE VILLA", "SF_14": 4.0, "SF_15": 4.0, "cnty": "Alachua", "st": "FL", "Zip": 32162.0, "O_14": 5.0, "Q_15": 5.0, "O_15": 5.0, "city": "THE VILLAGES", "beds": 60.0, "SR_15": 4.0}, {"Diff_star": 0.0, "addr": "ONE PAVILION PLACE", "SR_14": 5.0, "Q_14": 5.0, "name": "PAVILION FOR HEALTH CARE, THE", "SF_14": 5.0, "SF_15": 5.0, "cnty": "Clay", "st": "FL", "Zip": 32079.0, "O_14": 5.0, "Q_15": 4.0, "O_15": 5.0, "city": "PENNEY FARMS", "beds": 40.0, "SR_15": 5.0}, {"Diff_star": 0.0, "addr": "1006 33RD ST", "SR_14": 1.0, "Q_14": 4.0, "name": "FLORIDA BAPTIST RETIREMENT CENTER", "SF_14": 4.0, "SF_15": 4.0, "cnty": "Indian River", "st": "FL", "Zip": 32960.0, "O_14": 2.0, "Q_15": 4.0, "O_15": 2.0, "city": "VERO BEACH", "beds": 24.0, "SR_15": 1.0}, {"Diff_star": 0.0, "addr": "5381 DESOTO ROAD", "SR_14": 3.0, "Q_14": 4.0, "name": "HAWTHORNE HEALTH AND REHAB OF SARASOTA", "SF_14": 5.0, "SF_15": 5.0, "cnty": "Sarasota", "st": "FL", "Zip": 34235.0, "O_14": 4.0, "Q_15": 2.0, "O_15": 4.0, "city": "SARASOTA", "beds": 120.0, "SR_15": 3.0}, {"Diff_star": -1.0, "addr": "900 HIGHWAY 466", "SR_14": 3.0, "Q_14": 4.0, "name": "VILLAGES REHABILITATION AND NURSING CENTER (THE)", "SF_14": 4.0, "SF_15": 3.0, "cnty": "Lake", "st": "FL", "Zip": 32159.0, "O_14": 4.0, "Q_15": 3.0, "O_15": 3.0, "city": "LADY LAKE", "beds": 120.0, "SR_15": 3.0}, {"Diff_star": 0.0, "addr": "724 NW 19TH ST", "SR_14": 4.0, "Q_14": 4.0, "name": "UNIVERSITY PLAZA REHABILITATION AND NURSING CENTER", "SF_14": 4.0, "SF_15": 4.0, "cnty": "Miami-Dade", "st": "FL", "Zip": 33136.0, "O_14": 4.0, "Q_15": 3.0, "O_15": 4.0, "city": "MIAMI", "beds": 148.0, "SR_15": 4.0}, {"Diff_star": 0.0, "addr": "13695 US 1", "SR_14": 1.0, "Q_14": 1.0, "name": "SEBASTIAN RIVER MEDICAL CENTER", "SF_14": 5.0, "SF_15": 5.0, "cnty": "Indian River", "st": "FL", "Zip": 32958.0, "O_14": 1.0, "Q_15": 1.0, "O_15": 1.0, "city": "SEBASTIAN", "beds": 33.0, "SR_15": 1.0}, {"Diff_star": 0.0, "addr": "2600 COURTLAND STREET", "SR_14": 5.0, "Q_14": 4.0, "name": "SARASOTA POINT REHABILITATION CENTER", "SF_14": 4.0, "SF_15": 4.0, "cnty": "Sarasota", "st": "FL", "Zip": 34237.0, "O_14": 5.0, "Q_15": 3.0, "O_15": 5.0, "city": "SARASOTA", "beds": 120.0, "SR_15": 5.0}, {"Diff_star": 0.0, "addr": "1430 PASADENA AVE S", "SR_14": 4.0, "Q_14": 4.0, "name": "GULFPORT REHABILITATION CENTER", "SF_14": 4.0, "SF_15": 4.0, "cnty": "Pinellas", "st": "FL", "Zip": 33707.0, "O_14": 4.0, "Q_15": 3.0, "O_15": 4.0, "city": "PASADENA", "beds": 126.0, "SR_15": 3.0}, {"Diff_star": 0.0, "addr": "26475 SOUTH TAMIAMI TRAIL", "SR_14": 3.0, "Q_14": 4.0, "name": "RENAISSANCE AT THE TERRACES", "SF_14": 4.0, "SF_15": 4.0, "cnty": "Lee", "st": "FL", "Zip": 34135.0, "O_14": 4.0, "Q_15": 2.0, "O_15": 4.0, "city": "BONITA SPRINGS", "beds": 40.0, "SR_15": 3.0}, {"Diff_star": 0.0, "addr": "1400 W 11TH ST", "SR_14": 2.0, "Q_14": 5.0, "name": "LISENBY ON LAKE CAROLINE", "SF_14": 4.0, "SF_15": 4.0, "cnty": "Bay", "st": "FL", "Zip": 32401.0, "O_14": 4.0, "Q_15": 5.0, "O_15": 4.0, "city": "PANAMA CITY", "beds": 22.0, "SR_15": 2.0}, {"Diff_star": 0.0, "addr": "200 SE 19TH AVENUE", "SR_14": 4.0, "Q_14": 5.0, "name": "CHILDRENS COMPREHENSIVE CARE CENTER INC", "SF_14": 4.0, "SF_15": 3.0, "cnty": "Broward", "st": "FL", "Zip": 33060.0, "O_14": 5.0, "Q_15": 5.0, "O_15": 5.0, "city": "POMPANO BEACH", "beds": 36.0, "SR_15": 4.0}]