[{"Diff_star": 0.0, "addr": "1190 WAIANUENUE AVENUE", "SR_14": 3.0, "Q_14": 4.0, "name": "HILO MEDICAL CENTER", "SF_14": 5.0, "SF_15": 5.0, "cnty": "Hawaii", "st": "HI", "Zip": 96720.0, "O_14": 4.0, "Q_15": 3.0, "O_15": 4.0, "city": "HILO", "beds": 134.0, "SR_15": 3.0}, {"Diff_star": 0.0, "addr": "100 KEOKEA PLACE", "SR_14": 1.0, "Q_14": 5.0, "name": "KULA HOSPITAL", "SF_14": 5.0, "SF_15": 5.0, "cnty": "Maui", "st": "HI", "Zip": 96790.0, "O_14": 2.0, "Q_15": 5.0, "O_15": 2.0, "city": "KULA", "beds": 100.0, "SR_15": 1.0}, {"Diff_star": 0.0, "addr": "3-3420 KUHIO HIGHWAY, SUITE 300", "SR_14": 4.0, "Q_14": 5.0, "name": "GARDEN ISLE HEALTHCARE", "SF_14": 4.0, "SF_15": 4.0, "cnty": "Kauai", "st": "HI", "Zip": 96766.0, "O_14": 5.0, "Q_15": 5.0, "O_15": 5.0, "city": "LIHUE", "beds": 110.0, "SR_15": 4.0}, {"Diff_star": 0.0, "addr": "1205 ALEXANDER STREET", "SR_14": 5.0, "Q_14": 5.0, "name": "ISLAND NURSING HOME", "SF_14": 4.0, "SF_15": 4.0, "cnty": "Honolulu", "st": "HI", "Zip": 96826.0, "O_14": 5.0, "Q_15": 5.0, "O_15": 5.0, "city": "HONOLULU", "beds": 42.0, "SR_15": 5.0}, {"Diff_star": -1.0, "addr": "472 KAULANA STREET", "SR_14": 3.0, "Q_14": 5.0, "name": "HALE MAKUA HEALTH SERVICES", "SF_14": 4.0, "SF_15": 4.0, "cnty": "Maui", "st": "HI", "Zip": 96732.0, "O_14": 5.0, "Q_15": 4.0, "O_15": 4.0, "city": "KAHULUI", "beds": 254.0, "SR_15": 3.0}, {"Diff_star": 0.0, "addr": "1027 HALA DRIVE", "SR_14": 4.0, "Q_14": 5.0, "name": "MALUHIA", "SF_14": 4.0, "SF_15": 4.0, "cnty": "Honolulu", "st": "HI", "Zip": 96817.0, "O_14": 5.0, "Q_15": 5.0, "O_15": 5.0, "city": "HONOLULU", "beds": 158.0, "SR_15": 4.0}, {"Diff_star": 0.0, "addr": "3675 KILAUEA AVENUE", "SR_14": 2.0, "Q_14": 5.0, "name": "LEAHI HOSPITAL", "SF_14": 5.0, "SF_15": 5.0, "cnty": "Honolulu", "st": "HI", "Zip": 96816.0, "O_14": 4.0, "Q_15": 5.0, "O_15": 4.0, "city": "HONOLULU", "beds": 155.0, "SR_15": 2.0}, {"Diff_star": 0.0, "addr": "1677 PENSACOLA STREET", "SR_14": 1.0, "Q_14": 5.0, "name": "HALE NANI REHABILITATION AND NURSING CENTER", "SF_14": 4.0, "SF_15": 4.0, "cnty": "Honolulu", "st": "HI", "Zip": 96822.0, "O_14": 2.0, "Q_15": 5.0, "O_15": 2.0, "city": "HONOLULU", "beds": 288.0, "SR_15": 1.0}, {"Diff_star": -1.0, "addr": "5113 MAUNALANI CIRCLE", "SR_14": 4.0, "Q_14": 5.0, "name": "MAUNALANI NURSING AND REHABILITATION CENTER", "SF_14": 4.0, "SF_15": 4.0, "cnty": "Honolulu", "st": "HI", "Zip": 96816.0, "O_14": 5.0, "Q_15": 4.0, "O_15": 4.0, "city": "HONOLULU", "beds": 100.0, "SR_15": 4.0}, {"Diff_star": 0.0, "addr": "1434 PUNAHOU STREET", "SR_14": 4.0, "Q_14": 5.0, "name": "ARCADIA RETIREMENT RESIDENCE", "SF_14": "", "SF_15": "", "cnty": "Honolulu", "st": "HI", "Zip": 96822.0, "O_14": 5.0, "Q_15": 5.0, "O_15": 5.0, "city": "HONOLULU", "beds": 11.0, "SR_15": 4.0}, {"Diff_star": 0.0, "addr": "128 LEHUA STREET", "SR_14": 1.0, "Q_14": 5.0, "name": "WAHIAWA GENERAL HOSPITAL", "SF_14": 3.0, "SF_15": 3.0, "cnty": "Honolulu", "st": "HI", "Zip": 96786.0, "O_14": 2.0, "Q_15": 5.0, "O_15": 2.0, "city": "WAHIAWA", "beds": 93.0, "SR_15": 1.0}, {"Diff_star": 0.0, "addr": "1900 BACHELOT STREET", "SR_14": 2.0, "Q_14": 5.0, "name": "CONVALESCENT CENTER OF HONOLULU", "SF_14": 4.0, "SF_15": 4.0, "cnty": "Honolulu", "st": "HI", "Zip": 96817.0, "O_14": 4.0, "Q_15": 5.0, "O_15": 4.0, "city": "HONOLULU", "beds": 182.0, "SR_15": 2.0}, {"Diff_star": 0.0, "addr": "1930 KAMEHAMEHA IV RD", "SR_14": 5.0, "Q_14": 5.0, "name": "AVALON CARE CENTER - HONOLULU, LLC", "SF_14": 4.0, "SF_15": 3.0, "cnty": "Honolulu", "st": "HI", "Zip": 96819.0, "O_14": 5.0, "Q_15": 5.0, "O_15": 5.0, "city": "HONOLULU", "beds": 108.0, "SR_15": 5.0}, {"Diff_star": 0.0, "addr": "4643 WAIMEA CANYON RD", "SR_14": 3.0, "Q_14": 5.0, "name": "KAUAI VETERANS MEMORIAL HOSPITAL", "SF_14": 4.0, "SF_15": 4.0, "cnty": "Kauai", "st": "HI", "Zip": 96796.0, "O_14": 5.0, "Q_15": 5.0, "O_15": 5.0, "city": "WAIMEA", "beds": 20.0, "SR_15": 3.0}, {"Diff_star": 0.0, "addr": "628 7TH STREET", "SR_14": 3.0, "Q_14": "", "name": "LANAI COMMUNITY HOSPITAL", "SF_14": "", "SF_15": "", "cnty": "Maui", "st": "HI", "Zip": 96763.0, "O_14": 3.0, "Q_15": "", "O_15": 3.0, "city": "LANAI CITY", "beds": 10.0, "SR_15": 3.0}, {"Diff_star": 0.0, "addr": "2900 PALI HIGHWAY", "SR_14": 1.0, "Q_14": 4.0, "name": "NUUANU HALE", "SF_14": 2.0, "SF_15": "", "cnty": "Honolulu", "st": "HI", "Zip": 96817.0, "O_14": 1.0, "Q_15": 4.0, "O_15": 1.0, "city": "HONOLULU", "beds": 75.0, "SR_15": 1.0}, {"Diff_star": -1.0, "addr": "347 NORTH KUAKINI STREET", "SR_14": 2.0, "Q_14": 5.0, "name": "KUAKINI GERIATRIC CARE", "SF_14": 4.0, "SF_15": 3.0, "cnty": "Honolulu", "st": "HI", "Zip": 96817.0, "O_14": 4.0, "Q_15": 5.0, "O_15": 3.0, "city": "HONOLULU", "beds": 187.0, "SR_15": 2.0}, {"Diff_star": 0.0, "addr": "79-1019 HAUKAPILA STREET", "SR_14": 5.0, "Q_14": 4.0, "name": "KONA COMMUNITY HOSPITAL", "SF_14": "", "SF_15": "", "cnty": "Hawaii", "st": "HI", "Zip": 96750.0, "O_14": 5.0, "Q_15": 4.0, "O_15": 5.0, "city": "KEALAKEKUA", "beds": 18.0, "SR_15": 5.0}, {"Diff_star": 0.0, "addr": "1 KAMANI STREET", "SR_14": 3.0, "Q_14": 5.0, "name": "KAU HOSPITAL", "SF_14": 5.0, "SF_15": 5.0, "cnty": "Hawaii", "st": "HI", "Zip": 96777.0, "O_14": 5.0, "Q_15": 5.0, "O_15": 5.0, "city": "PAHALA", "beds": 16.0, "SR_15": 3.0}, {"Diff_star": 0.0, "addr": "4800 KAWAIHAU ROAD", "SR_14": 4.0, "Q_14": 5.0, "name": "SAMUEL MAHELONA MEMORIAL HOSPITAL", "SF_14": 5.0, "SF_15": 5.0, "cnty": "Kauai", "st": "HI", "Zip": 96746.0, "O_14": 5.0, "Q_15": 5.0, "O_15": 5.0, "city": "KAPAA", "beds": 66.0, "SR_15": 4.0}, {"Diff_star": 0.0, "addr": "56-117 PUALALEA STREET", "SR_14": 4.0, "Q_14": "", "name": "KAHUKU MEDICAL CENTER", "SF_14": 5.0, "SF_15": 5.0, "cnty": "Honolulu", "st": "HI", "Zip": 96731.0, "O_14": 5.0, "Q_15": "", "O_15": 5.0, "city": "KAHUKU", "beds": 10.0, "SR_15": 4.0}, {"Diff_star": 0.0, "addr": "54-383 HOSPITAL ROAD", "SR_14": 3.0, "Q_14": "", "name": "KOHALA HOSPITAL", "SF_14": 5.0, "SF_15": 5.0, "cnty": "Hawaii", "st": "HI", "Zip": 96755.0, "O_14": 4.0, "Q_15": "", "O_15": 4.0, "city": "KAPAAU", "beds": 24.0, "SR_15": 3.0}, {"Diff_star": 0.0, "addr": "45-547 PLUMERIA STREET", "SR_14": 1.0, "Q_14": 5.0, "name": "HALE HO'OLA HAMAKUA", "SF_14": 5.0, "SF_15": 5.0, "cnty": "Hawaii", "st": "HI", "Zip": 96727.0, "O_14": 2.0, "Q_15": 5.0, "O_15": 2.0, "city": "HONOKAA", "beds": 66.0, "SR_15": 1.0}, {"Diff_star": 0.0, "addr": "45-090 NAMOKU ST", "SR_14": 4.0, "Q_14": 5.0, "name": "HARRY AND JEANETTE WEINBERG CARE CENTER", "SF_14": 4.0, "SF_15": 4.0, "cnty": "Honolulu", "st": "HI", "Zip": 96744.0, "O_14": 5.0, "Q_15": 5.0, "O_15": 5.0, "city": "KANEOHE", "beds": 44.0, "SR_15": 4.0}, {"Diff_star": -1.0, "addr": "1301 PUNCHBOWL STREET", "SR_14": 3.0, "Q_14": 5.0, "name": "THE QUEEN`S MEDICAL CENTER", "SF_14": 5.0, "SF_15": 5.0, "cnty": "Honolulu", "st": "HI", "Zip": 96813.0, "O_14": 5.0, "Q_15": 4.0, "O_15": 4.0, "city": "HONOLULU", "beds": 28.0, "SR_15": 3.0}, {"Diff_star": -1.0, "addr": "45-545 KAMEHAMEHA HIGHWAY", "SR_14": 2.0, "Q_14": 5.0, "name": "ALOHA NURSING & REHAB CENTRE", "SF_14": 4.0, "SF_15": 4.0, "cnty": "Honolulu", "st": "HI", "Zip": 96744.0, "O_14": 4.0, "Q_15": 4.0, "O_15": 3.0, "city": "KANEOHE", "beds": 141.0, "SR_15": 2.0}, {"Diff_star": 0.0, "addr": "944 WEST KAWAILANI STREET", "SR_14": 1.0, "Q_14": 5.0, "name": "LIFE CARE CENTER OF HILO", "SF_14": 1.0, "SF_15": 1.0, "cnty": "Hawaii", "st": "HI", "Zip": 96720.0, "O_14": 2.0, "Q_15": 5.0, "O_15": 2.0, "city": "HILO", "beds": 252.0, "SR_15": 1.0}, {"Diff_star": 0.0, "addr": "1814 LILIHA STREET", "SR_14": 4.0, "Q_14": 5.0, "name": "LILIHA HEALTHCARE CENTER", "SF_14": 2.0, "SF_15": 2.0, "cnty": "Honolulu", "st": "HI", "Zip": 96817.0, "O_14": 5.0, "Q_15": 5.0, "O_15": 5.0, "city": "HONOLULU", "beds": 92.0, "SR_15": 4.0}, {"Diff_star": 0.0, "addr": "1808 SOUTH BERETANIA STREET", "SR_14": 2.0, "Q_14": 5.0, "name": "OAHU CARE FACILITY", "SF_14": 2.0, "SF_15": 2.0, "cnty": "Honolulu", "st": "HI", "Zip": 96826.0, "O_14": 3.0, "Q_15": 5.0, "O_15": 3.0, "city": "HONOLULU", "beds": 82.0, "SR_15": 2.0}, {"Diff_star": 0.0, "addr": "919 LEHUA AVENUE", "SR_14": 2.0, "Q_14": 4.0, "name": "PEARL CITY NURSING HOME", "SF_14": 4.0, "SF_15": 4.0, "cnty": "Honolulu", "st": "HI", "Zip": 96782.0, "O_14": 3.0, "Q_15": 4.0, "O_15": 3.0, "city": "PEARL CITY", "beds": 122.0, "SR_15": 2.0}, {"Diff_star": 0.0, "addr": "1333 WAIANUENUE AVENUE", "SR_14": 4.0, "Q_14": 5.0, "name": "HALE ANUENUE RESTORATIVE CARE", "SF_14": 4.0, "SF_15": 4.0, "cnty": "Hawaii", "st": "HI", "Zip": 96720.0, "O_14": 5.0, "Q_15": 5.0, "O_15": 5.0, "city": "HILO", "beds": 120.0, "SR_15": 4.0}, {"Diff_star": 0.0, "addr": "84-390 JADE STREET", "SR_14": 2.0, "Q_14": 5.0, "name": "PU'UWAI 'O MAKAHA", "SF_14": 4.0, "SF_15": 4.0, "cnty": "Honolulu", "st": "HI", "Zip": 96792.0, "O_14": 4.0, "Q_15": 5.0, "O_15": 4.0, "city": "WAIANAE", "beds": 93.0, "SR_15": 2.0}, {"Diff_star": 0.0, "addr": "1314 KALAKAUA AVENUE, 2ND FLOOR", "SR_14": 4.0, "Q_14": 5.0, "name": "HALE OLA KINO", "SF_14": 5.0, "SF_15": 5.0, "cnty": "Honolulu", "st": "HI", "Zip": 96826.0, "O_14": 5.0, "Q_15": 5.0, "O_15": 5.0, "city": "HONOLULU", "beds": 32.0, "SR_15": 4.0}, {"Diff_star": -2.0, "addr": "45-181 WAIKALUA ROAD", "SR_14": 3.0, "Q_14": 5.0, "name": "ANN PEARL NURSING FACILITY", "SF_14": 4.0, "SF_15": 3.0, "cnty": "Honolulu", "st": "HI", "Zip": 96744.0, "O_14": 5.0, "Q_15": 4.0, "O_15": 3.0, "city": "KANEOHE", "beds": 104.0, "SR_15": 3.0}, {"Diff_star": 0.0, "addr": "6163 SUMMER STREET", "SR_14": 1.0, "Q_14": 5.0, "name": "HALE MALAMALAMA", "SF_14": 4.0, "SF_15": 4.0, "cnty": "Honolulu", "st": "HI", "Zip": 96821.0, "O_14": 2.0, "Q_15": 5.0, "O_15": 2.0, "city": "HONOLULU", "beds": 40.0, "SR_15": 1.0}, {"Diff_star": 0.0, "addr": "91-575 FARRINGTON HIGHWAY", "SR_14": 1.0, "Q_14": 5.0, "name": "KA PUNAWAI OLA", "SF_14": 4.0, "SF_15": 3.0, "cnty": "Honolulu", "st": "HI", "Zip": 96707.0, "O_14": 2.0, "Q_15": 5.0, "O_15": 2.0, "city": "KAPOLEI", "beds": 120.0, "SR_15": 1.0}, {"Diff_star": 0.0, "addr": "78-6957 KAMEHAMEHA III ROAD", "SR_14": 1.0, "Q_14": 4.0, "name": "LIFE CARE CENTER OF KONA", "SF_14": 4.0, "SF_15": 4.0, "cnty": "Hawaii", "st": "HI", "Zip": 96740.0, "O_14": 2.0, "Q_15": 3.0, "O_15": 2.0, "city": "KAILUA KONA", "beds": 94.0, "SR_15": 1.0}, {"Diff_star": 0.0, "addr": "4389 MALIA STREET", "SR_14": 4.0, "Q_14": 5.0, "name": "HI'OLANI CARE CENTER AT KAHALA NUI", "SF_14": "", "SF_15": "", "cnty": "Honolulu", "st": "HI", "Zip": 96821.0, "O_14": 5.0, "Q_15": 5.0, "O_15": 5.0, "city": "HONOLULU", "beds": 20.0, "SR_15": 4.0}, {"Diff_star": 0.0, "addr": "1540 LOWER MAIN STREET", "SR_14": 2.0, "Q_14": 5.0, "name": "HALE MAKUA HEALTH SERVICES", "SF_14": 4.0, "SF_15": 4.0, "cnty": "Maui", "st": "HI", "Zip": 96793.0, "O_14": 4.0, "Q_15": 5.0, "O_15": 4.0, "city": "WAILUKU", "beds": 90.0, "SR_15": 2.0}, {"Diff_star": 0.0, "addr": "91-1360 KARAYAN STREET", "SR_14": 4.0, "Q_14": 5.0, "name": "KULANA MALAMA", "SF_14": 5.0, "SF_15": 5.0, "cnty": "Honolulu", "st": "HI", "Zip": 96706.0, "O_14": 5.0, "Q_15": 5.0, "O_15": 5.0, "city": "EWA BEACH", "beds": 30.0, "SR_15": 4.0}, {"Diff_star": 0.0, "addr": "1180 WAIANUENUE AVENUE", "SR_14": 3.0, "Q_14": 5.0, "name": "YUKIO OKUTSU STATE VETERANS HOME", "SF_14": "", "SF_15": "", "cnty": "Hawaii", "st": "HI", "Zip": 96720.0, "O_14": 4.0, "Q_15": 5.0, "O_15": 4.0, "city": "HILO", "beds": 95.0, "SR_15": 3.0}, {"Diff_star": -1.0, "addr": "2459 10TH AVENUE", "SR_14": 2.0, "Q_14": 5.0, "name": "PALOLO CHINESE HOME", "SF_14": "", "SF_15": "", "cnty": "Honolulu", "st": "HI", "Zip": 96816.0, "O_14": 3.0, "Q_15": 4.0, "O_15": 2.0, "city": "HONOLULU", "beds": 61.0, "SR_15": 2.0}, {"Diff_star": -1.0, "addr": "3288 MOANALUA ROAD", "SR_14": 2.0, "Q_14": 5.0, "name": "KFH - MALAMA 'OHANA NURSING AND REHAB CENTER", "SF_14": 5.0, "SF_15": 5.0, "cnty": "Honolulu", "st": "HI", "Zip": 96819.0, "O_14": 4.0, "Q_15": 4.0, "O_15": 3.0, "city": "HONOLULU", "beds": 28.0, "SR_15": 2.0}, {"Diff_star": 0.0, "addr": "9611 WAENA ROAD", "SR_14": 4.0, "Q_14": 5.0, "name": "KAUAI CARE CENTER", "SF_14": 5.0, "SF_15": 5.0, "cnty": "Kauai", "st": "HI", "Zip": 96796.0, "O_14": 5.0, "Q_15": 5.0, "O_15": 5.0, "city": "WAIMEA", "beds": 53.0, "SR_15": 4.0}, {"Diff_star": 0.0, "addr": "4297A OMAO ROAD", "SR_14": 4.0, "Q_14": 4.0, "name": "HALE KUPUNA HERITAGE HOME, LLC", "SF_14": 3.0, "SF_15": 3.0, "cnty": "Kauai", "st": "HI", "Zip": 96756.0, "O_14": 4.0, "Q_15": 4.0, "O_15": 4.0, "city": "KOLOA", "beds": 84.0, "SR_15": 4.0}, {"Diff_star": 0.0, "addr": "15 CRAIGSIDE PLACE", "SR_14": 5.0, "Q_14": 5.0, "name": "15 CRAIGSIDE", "SF_14": "", "SF_15": "", "cnty": "Honolulu", "st": "HI", "Zip": 96817.0, "O_14": 5.0, "Q_15": 5.0, "O_15": 5.0, "city": "HONOLULU", "beds": 11.0, "SR_15": 5.0}]