[{"Diff_star": 0.0, "addr": "6640 KANIKSU STREET", "SR_14": 5.0, "Q_14": 5.0, "name": "BOUNDARY COUNTY NURSING HOME", "SF_14": 5.0, "SF_15": 5.0, "cnty": "Boundary", "st": "ID", "Zip": 83805.0, "O_14": 5.0, "Q_15": 5.0, "O_15": 5.0, "city": "BONNERS FERRY", "beds": 28.0, "SR_15": 5.0}, {"Diff_star": 0.0, "addr": "895 NORTH 6TH EAST", "SR_14": 3.0, "Q_14": 4.0, "name": "ST LUKE'S ELMORE LONG TERM CARE", "SF_14": 4.0, "SF_15": 4.0, "cnty": "Elmore", "st": "ID", "Zip": 83647.0, "O_14": 4.0, "Q_15": 3.0, "O_15": 4.0, "city": "MOUNTAIN HOME", "beds": 38.0, "SR_15": 3.0}, {"Diff_star": 0.0, "addr": "98 POPLAR STREET", "SR_14": 1.0, "Q_14": 1.0, "name": "BINGHAM MEMORIAL SKILLED NURSING & REHABILITATION", "SF_14": 4.0, "SF_15": 4.0, "cnty": "Bingham", "st": "ID", "Zip": 83221.0, "O_14": 1.0, "Q_15": 1.0, "O_15": 1.0, "city": "BLACKFOOT", "beds": 70.0, "SR_15": 1.0}, {"Diff_star": 0.0, "addr": "331 EAST PARK STREET", "SR_14": 4.0, "Q_14": 4.0, "name": "KINDRED NURSING & REHABILITATION - WEISER", "SF_14": 4.0, "SF_15": 3.0, "cnty": "Washington", "st": "ID", "Zip": 83672.0, "O_14": 4.0, "Q_15": 4.0, "O_15": 4.0, "city": "WEISER", "beds": 76.0, "SR_15": 4.0}, {"Diff_star": 0.0, "addr": "527 MEMORIAL DRIVE", "SR_14": 1.0, "Q_14": 3.0, "name": "GATEWAY TRANSITIONAL CARE CENTER", "SF_14": 4.0, "SF_15": 4.0, "cnty": "Bannock", "st": "ID", "Zip": 83201.0, "O_14": 2.0, "Q_15": 1.0, "O_15": 2.0, "city": "ALAMEDA", "beds": 88.0, "SR_15": 2.0}, {"Diff_star": 0.0, "addr": "210 CLEVELAND BOULEVARD", "SR_14": 3.0, "Q_14": 4.0, "name": "KINDRED NURSING & REHABILITATION - CALDWELL", "SF_14": 4.0, "SF_15": 4.0, "cnty": "Canyon", "st": "ID", "Zip": 83605.0, "O_14": 4.0, "Q_15": 2.0, "O_15": 4.0, "city": "CALDWELL", "beds": 71.0, "SR_15": 3.0}, {"Diff_star": 0.0, "addr": "1019 THIRD AVENUE SOUTH", "SR_14": 3.0, "Q_14": 4.0, "name": "PAYETTE CENTER", "SF_14": 4.0, "SF_15": 4.0, "cnty": "Payette", "st": "ID", "Zip": 83661.0, "O_14": 4.0, "Q_15": 3.0, "O_15": 4.0, "city": "PAYETTE", "beds": 80.0, "SR_15": 3.0}, {"Diff_star": -1.0, "addr": "1071 RENEE AVENUE", "SR_14": 1.0, "Q_14": 2.0, "name": "MONTE VISTA HILLS HEALTHCARE CENTER", "SF_14": 4.0, "SF_15": 4.0, "cnty": "Bannock", "st": "ID", "Zip": 83201.0, "O_14": 2.0, "Q_15": 1.0, "O_15": 1.0, "city": "POCATELLO", "beds": 113.0, "SR_15": 1.0}, {"Diff_star": 0.0, "addr": "404 NORTH HORTON STREET", "SR_14": 4.0, "Q_14": 4.0, "name": "KINDRED NURSING & REHABILITATION - NAMPA", "SF_14": 4.0, "SF_15": 4.0, "cnty": "Canyon", "st": "ID", "Zip": 83651.0, "O_14": 4.0, "Q_15": 4.0, "O_15": 4.0, "city": "NAMPA", "beds": 100.0, "SR_15": 4.0}, {"Diff_star": -1.0, "addr": "714 NORTH BUTTE AVENUE", "SR_14": 3.0, "Q_14": 5.0, "name": "RIVER'S EDGE REHABILITATION & LIVING CENTER", "SF_14": 4.0, "SF_15": 4.0, "cnty": "Gem", "st": "ID", "Zip": 83617.0, "O_14": 5.0, "Q_15": 3.0, "O_15": 4.0, "city": "EMMETT", "beds": 74.0, "SR_15": 3.0}, {"Diff_star": 0.0, "addr": "3315 8TH STREET", "SR_14": 2.0, "Q_14": 5.0, "name": "KINDRED TRANSITIONAL CARE & REHAB - LEWISTON", "SF_14": 4.0, "SF_15": 4.0, "cnty": "Nez Perce", "st": "ID", "Zip": 83501.0, "O_14": 4.0, "Q_15": 5.0, "O_15": 4.0, "city": "LEWISTON", "beds": 96.0, "SR_15": 2.0}, {"Diff_star": 0.0, "addr": "808 NORTH CURTIS ROAD", "SR_14": 1.0, "Q_14": 4.0, "name": "LIFE CARE CENTER OF BOISE", "SF_14": 4.0, "SF_15": 4.0, "cnty": "Ada", "st": "ID", "Zip": 83706.0, "O_14": 2.0, "Q_15": 3.0, "O_15": 2.0, "city": "BOISE", "beds": 153.0, "SR_15": 1.0}, {"Diff_star": -1.0, "addr": "210 WEST LACROSSE AVENUE", "SR_14": 2.0, "Q_14": 5.0, "name": "LACROSSE HEALTH & REHABILITATION CENTER", "SF_14": 4.0, "SF_15": 4.0, "cnty": "Kootenai", "st": "ID", "Zip": 83814.0, "O_14": 4.0, "Q_15": 4.0, "O_15": 3.0, "city": "COEUR D'ALENE", "beds": 100.0, "SR_15": 2.0}, {"Diff_star": 0.0, "addr": "1204 SHRIVER ROAD", "SR_14": 3.0, "Q_14": 5.0, "name": "CLEARWATER HEALTH & REHABILITATION", "SF_14": 4.0, "SF_15": 4.0, "cnty": "Clearwater", "st": "ID", "Zip": 83544.0, "O_14": 5.0, "Q_15": 5.0, "O_15": 5.0, "city": "OROFINO", "beds": 60.0, "SR_15": 3.0}, {"Diff_star": -1.0, "addr": "2814 SOUTH INDIANA AVENUE", "SR_14": 2.0, "Q_14": 5.0, "name": "KINDRED NURSING & REHABILITATION - CANYON WEST", "SF_14": 4.0, "SF_15": 4.0, "cnty": "Canyon", "st": "ID", "Zip": 83605.0, "O_14": 4.0, "Q_15": 3.0, "O_15": 3.0, "city": "CALDWELL", "beds": 103.0, "SR_15": 2.0}, {"Diff_star": 0.0, "addr": "2514 NORTH SEVENTH STREET", "SR_14": 1.0, "Q_14": 5.0, "name": "COEUR D'ALENE HEALTH CARE & REHABILITATION CENTER", "SF_14": 2.0, "SF_15": 2.0, "cnty": "Kootenai", "st": "ID", "Zip": 83814.0, "O_14": 2.0, "Q_15": 5.0, "O_15": 2.0, "city": "COEUR D'ALENE", "beds": 117.0, "SR_15": 1.0}, {"Diff_star": 0.0, "addr": "2200 IRONWOOD PLACE", "SR_14": 3.0, "Q_14": 5.0, "name": "IVY COURT", "SF_14": 4.0, "SF_15": 4.0, "cnty": "Kootenai", "st": "ID", "Zip": 83814.0, "O_14": 5.0, "Q_15": 5.0, "O_15": 5.0, "city": "COEUR D'ALENE", "beds": 80.0, "SR_15": 3.0}, {"Diff_star": 0.0, "addr": "220 SOUTH DIVISION", "SR_14": 4.0, "Q_14": 4.0, "name": "VALLEY VISTA CARE CENTER OF SANDPOINT", "SF_14": "", "SF_15": "", "cnty": "Bonner", "st": "ID", "Zip": 83864.0, "O_14": 4.0, "Q_15": 2.0, "O_15": 4.0, "city": "SANDPOINT", "beds": 73.0, "SR_15": 4.0}, {"Diff_star": 0.0, "addr": "511 EAST FOURTH STREET", "SR_14": 4.0, "Q_14": 4.0, "name": "LINCOLN COUNTY CARE CENTER", "SF_14": 5.0, "SF_15": 5.0, "cnty": "Lincoln", "st": "ID", "Zip": 83352.0, "O_14": 5.0, "Q_15": 2.0, "O_15": 5.0, "city": "SHOSHONE", "beds": 36.0, "SR_15": 5.0}, {"Diff_star": 0.0, "addr": "405 WEST SEVENTH STREET", "SR_14": 4.0, "Q_14": 5.0, "name": "GOOD SAMARITAN SOCIETY - SILVER WOOD VILLAGE", "SF_14": 4.0, "SF_15": 4.0, "cnty": "Shoshone", "st": "ID", "Zip": 83867.0, "O_14": 5.0, "Q_15": 5.0, "O_15": 5.0, "city": "SILVERTON", "beds": 50.0, "SR_15": 4.0}, {"Diff_star": 0.0, "addr": "44 NORTH FIRST EAST", "SR_14": 1.0, "Q_14": 5.0, "name": "FRANKLIN COUNTY TRANSITIONAL CARE", "SF_14": 4.0, "SF_15": 4.0, "cnty": "Franklin", "st": "ID", "Zip": 83263.0, "O_14": 2.0, "Q_15": 4.0, "O_15": 2.0, "city": "PRESTON", "beds": 35.0, "SR_15": 1.0}, {"Diff_star": 0.0, "addr": "300 SOUTH THIRD WEST", "SR_14": 2.0, "Q_14": 4.0, "name": "CARIBOU MEMORIAL LIVING CTR", "SF_14": 5.0, "SF_15": 5.0, "cnty": "Caribou", "st": "ID", "Zip": 83276.0, "O_14": 3.0, "Q_15": 2.0, "O_15": 3.0, "city": "SODA SPRINGS", "beds": 30.0, "SR_15": 2.0}, {"Diff_star": 0.0, "addr": "150 NORTH 200 WEST", "SR_14": 1.0, "Q_14": 4.0, "name": "ONEIDA COUNTY HOSPITAL & LONG TERM CARE FACILITY", "SF_14": 5.0, "SF_15": 5.0, "cnty": "Oneida", "st": "ID", "Zip": 83252.0, "O_14": 2.0, "Q_15": 4.0, "O_15": 2.0, "city": "MALAD", "beds": 33.0, "SR_15": 1.0}, {"Diff_star": 0.0, "addr": "1224 EIGHTH STREET", "SR_14": 4.0, "Q_14": 5.0, "name": "COUNTRYSIDE CARE & REHABILITATION", "SF_14": 5.0, "SF_15": 5.0, "cnty": "Minidoka", "st": "ID", "Zip": 83350.0, "O_14": 5.0, "Q_15": 5.0, "O_15": 5.0, "city": "RUPERT", "beds": 46.0, "SR_15": 4.0}, {"Diff_star": 0.0, "addr": "601 WEST CAMERON AVENUE", "SR_14": 5.0, "Q_14": 5.0, "name": "KINDRED NURSING & REHABILITATION - MOUNTAIN VALLEY", "SF_14": 5.0, "SF_15": 5.0, "cnty": "Shoshone", "st": "ID", "Zip": 83837.0, "O_14": 5.0, "Q_15": 4.0, "O_15": 5.0, "city": "KELLOGG", "beds": 68.0, "SR_15": 5.0}, {"Diff_star": 0.0, "addr": "510 ROOSEVELT STREET (83211-1362)", "SR_14": 1.0, "Q_14": 4.0, "name": "POWER COUNTY NURSING HOME", "SF_14": 5.0, "SF_15": 5.0, "cnty": "Power", "st": "ID", "Zip": 83211.0, "O_14": 2.0, "Q_15": 3.0, "O_15": 2.0, "city": "AMERICAN FALLS", "beds": 20.0, "SR_15": 1.0}, {"Diff_star": -1.0, "addr": "640 NORTH EISENHOWER STREET", "SR_14": 2.0, "Q_14": 3.0, "name": "GOOD SAMARITAN SOCIETY - MOSCOW VILLAGE", "SF_14": 4.0, "SF_15": 3.0, "cnty": "Latah", "st": "ID", "Zip": 83843.0, "O_14": 3.0, "Q_15": 2.0, "O_15": 2.0, "city": "MOSCOW", "beds": 64.0, "SR_15": 2.0}, {"Diff_star": -1.0, "addr": "2303 PARKE AVENUE", "SR_14": 3.0, "Q_14": 5.0, "name": "PARKE VIEW REHABILITATION & CARE CENTER", "SF_14": 4.0, "SF_15": 3.0, "cnty": "Cassia", "st": "ID", "Zip": 83318.0, "O_14": 5.0, "Q_15": 5.0, "O_15": 4.0, "city": "BURLEY", "beds": 86.0, "SR_15": 3.0}, {"Diff_star": 0.0, "addr": "706 SOUTH MAIN STREET", "SR_14": 3.0, "Q_14": 3.0, "name": "BELL MOUNTAIN VILLAGE & CARE CENTER", "SF_14": 5.0, "SF_15": 5.0, "cnty": "Blaine", "st": "ID", "Zip": 83333.0, "O_14": 4.0, "Q_15": 2.0, "O_15": 4.0, "city": "HAILEY", "beds": 25.0, "SR_15": 3.0}, {"Diff_star": 0.0, "addr": "164 SOUTH FIFTH STREET", "SR_14": 2.0, "Q_14": 3.0, "name": "BEAR LAKE MEMORIAL SKILLED NURSING FACILITY", "SF_14": 4.0, "SF_15": 4.0, "cnty": "Bear Lake", "st": "ID", "Zip": 83254.0, "O_14": 3.0, "Q_15": 2.0, "O_15": 3.0, "city": "MONTPELIER", "beds": 36.0, "SR_15": 2.0}, {"Diff_star": -1.0, "addr": "1200 HOSPITAL WAY", "SR_14": 1.0, "Q_14": 5.0, "name": "SAFE HAVEN CARE CENTER OF POCATELLO", "SF_14": "", "SF_15": "", "cnty": "Bannock", "st": "ID", "Zip": 83201.0, "O_14": 2.0, "Q_15": 3.0, "O_15": 1.0, "city": "POCATELLO", "beds": 84.0, "SR_15": 1.0}, {"Diff_star": 0.0, "addr": "820 ELM STREET", "SR_14": 2.0, "Q_14": 4.0, "name": "VALLEY VISTA CARE CENTER OF ST MARIES", "SF_14": 5.0, "SF_15": 5.0, "cnty": "Benewah", "st": "ID", "Zip": 83861.0, "O_14": 3.0, "Q_15": 2.0, "O_15": 3.0, "city": "ST MARIES", "beds": 74.0, "SR_15": 2.0}, {"Diff_star": -1.0, "addr": "46 NORTH MIDLAND BOULEVARD", "SR_14": 4.0, "Q_14": 5.0, "name": "TRINITY MISSION HEALTH & REHAB OF MIDLAND", "SF_14": 4.0, "SF_15": 4.0, "cnty": "Canyon", "st": "ID", "Zip": 83651.0, "O_14": 5.0, "Q_15": 3.0, "O_15": 4.0, "city": "NAMPA", "beds": 112.0, "SR_15": 4.0}, {"Diff_star": -1.0, "addr": "1001 SOUTH HILTON STREET", "SR_14": 3.0, "Q_14": 5.0, "name": "AVAMERE TRANSITIONAL CARE & REHAB - BOISE", "SF_14": 4.0, "SF_15": 4.0, "cnty": "Ada", "st": "ID", "Zip": 83705.0, "O_14": 5.0, "Q_15": 4.0, "O_15": 4.0, "city": "BOISE", "beds": 111.0, "SR_15": 3.0}, {"Diff_star": 0.0, "addr": "8211 USTICK ROAD", "SR_14": 1.0, "Q_14": 5.0, "name": "APEX CENTER", "SF_14": 4.0, "SF_15": 4.0, "cnty": "Ada", "st": "ID", "Zip": 83704.0, "O_14": 2.0, "Q_15": 4.0, "O_15": 2.0, "city": "BOISE", "beds": 148.0, "SR_15": 1.0}, {"Diff_star": 0.0, "addr": "410 EAST NORTH SECOND STREET", "SR_14": 2.0, "Q_14": 4.0, "name": "GRANGEVILLE HEALTH & REHABILITATION CENTER", "SF_14": 5.0, "SF_15": 5.0, "cnty": "Idaho", "st": "ID", "Zip": 83530.0, "O_14": 3.0, "Q_15": 2.0, "O_15": 3.0, "city": "GRANGEVILLE", "beds": 60.0, "SR_15": 2.0}, {"Diff_star": -1.0, "addr": "1729 MILLER AVENUE", "SR_14": 2.0, "Q_14": 2.0, "name": "MINI-CASSIA CARE CENTER", "SF_14": 5.0, "SF_15": 5.0, "cnty": "Cassia", "st": "ID", "Zip": 83318.0, "O_14": 3.0, "Q_15": 1.0, "O_15": 2.0, "city": "BURLEY", "beds": 68.0, "SR_15": 2.0}, {"Diff_star": 0.0, "addr": "418 FLOYDE STREET", "SR_14": 1.0, "Q_14": 4.0, "name": "MCCALL REHABILITATION & CARE CENTER", "SF_14": 4.0, "SF_15": 4.0, "cnty": "Valley", "st": "ID", "Zip": 83638.0, "O_14": 2.0, "Q_15": 3.0, "O_15": 2.0, "city": "MC CALL", "beds": 65.0, "SR_15": 1.0}, {"Diff_star": 0.0, "addr": "500 POLK STREET EAST", "SR_14": 4.0, "Q_14": 5.0, "name": "OAK CREEK REHABILITATION CENTER OF KIMBERLY", "SF_14": 5.0, "SF_15": 5.0, "cnty": "Twin Falls", "st": "ID", "Zip": 83341.0, "O_14": 5.0, "Q_15": 4.0, "O_15": 5.0, "city": "KIMBERLY", "beds": 45.0, "SR_15": 4.0}, {"Diff_star": -1.0, "addr": "3115 SYCAMORE DRIVE", "SR_14": 4.0, "Q_14": 5.0, "name": "GOOD SAMARITAN SOCIETY - BOISE VILLAGE", "SF_14": 4.0, "SF_15": 4.0, "cnty": "Ada", "st": "ID", "Zip": 83703.0, "O_14": 5.0, "Q_15": 3.0, "O_15": 4.0, "city": "BOISE", "beds": 127.0, "SR_15": 4.0}, {"Diff_star": 0.0, "addr": "108 WEST OWYHEE", "SR_14": 4.0, "Q_14": 5.0, "name": "OWYHEE HEALTH & REHABILITATION CENTER", "SF_14": 4.0, "SF_15": 4.0, "cnty": "Owyhee", "st": "ID", "Zip": 83628.0, "O_14": 5.0, "Q_15": 5.0, "O_15": 5.0, "city": "HOMEDALE", "beds": 49.0, "SR_15": 4.0}, {"Diff_star": -1.0, "addr": "820 SPRAGUE AVENUE", "SR_14": 5.0, "Q_14": 3.0, "name": "DESERT VIEW CARE CENTER OF BUHL", "SF_14": 4.0, "SF_15": 4.0, "cnty": "Twin Falls", "st": "ID", "Zip": 83316.0, "O_14": 5.0, "Q_15": 1.0, "O_15": 4.0, "city": "BUHL", "beds": 58.0, "SR_15": 5.0}, {"Diff_star": 0.0, "addr": "909 RESERVE STREET", "SR_14": 3.0, "Q_14": 5.0, "name": "MARQUIS CARE AT SHAW MOUNTAIN", "SF_14": 5.0, "SF_15": 5.0, "cnty": "Ada", "st": "ID", "Zip": 83712.0, "O_14": 5.0, "Q_15": 5.0, "O_15": 5.0, "city": "BOISE", "beds": 98.0, "SR_15": 3.0}, {"Diff_star": 0.0, "addr": "2725 EAST 17TH STREET", "SR_14": 3.0, "Q_14": 5.0, "name": "LIFE CARE CENTER OF IDAHO FALLS", "SF_14": 4.0, "SF_15": 4.0, "cnty": "Bonneville", "st": "ID", "Zip": 83406.0, "O_14": 5.0, "Q_15": 5.0, "O_15": 5.0, "city": "IDAHO FALLS", "beds": 109.0, "SR_15": 3.0}, {"Diff_star": 0.0, "addr": "840 EAST ELVA STREET", "SR_14": 2.0, "Q_14": 4.0, "name": "GOOD SAMARITAN SOCIETY - IDAHO FALLS VILLAGE", "SF_14": 3.0, "SF_15": 3.0, "cnty": "Bonneville", "st": "ID", "Zip": 83401.0, "O_14": 2.0, "Q_15": 3.0, "O_15": 2.0, "city": "IDAHO FALLS", "beds": 113.0, "SR_15": 2.0}, {"Diff_star": 0.0, "addr": "420 ROWE STREET", "SR_14": 4.0, "Q_14": 4.0, "name": "KINDRED NURSING & REHABILITATION - ASPEN PARK", "SF_14": 4.0, "SF_15": 3.0, "cnty": "Latah", "st": "ID", "Zip": 83843.0, "O_14": 4.0, "Q_15": 2.0, "O_15": 4.0, "city": "MOSCOW", "beds": 70.0, "SR_15": 4.0}, {"Diff_star": 0.0, "addr": "2105 12TH AVENUE ROAD", "SR_14": 3.0, "Q_14": 4.0, "name": "TRINITY MISSION HEALTH & REHAB OF HOLLY", "SF_14": 4.0, "SF_15": 4.0, "cnty": "Canyon", "st": "ID", "Zip": 83686.0, "O_14": 4.0, "Q_15": 2.0, "O_15": 4.0, "city": "NAMPA", "beds": 120.0, "SR_15": 3.0}, {"Diff_star": 0.0, "addr": "501 WEST IDAHO BOULEVARD", "SR_14": 1.0, "Q_14": 4.0, "name": "CHERRY RIDGE CENTER", "SF_14": 4.0, "SF_15": 4.0, "cnty": "Gem", "st": "ID", "Zip": 83617.0, "O_14": 2.0, "Q_15": 4.0, "O_15": 2.0, "city": "EMMETT", "beds": 40.0, "SR_15": 1.0}, {"Diff_star": 0.0, "addr": "700 NORTH SECOND STREET", "SR_14": 4.0, "Q_14": 3.0, "name": "ASHTON LIVING CENTER", "SF_14": 4.0, "SF_15": 3.0, "cnty": "Fremont", "st": "ID", "Zip": 83420.0, "O_14": 4.0, "Q_15": 2.0, "O_15": 4.0, "city": "ASHTON", "beds": 38.0, "SR_15": 4.0}, {"Diff_star": 0.0, "addr": "1130 NORTH ALLUMBAUGH STREET", "SR_14": 4.0, "Q_14": 5.0, "name": "LIFE CARE CENTER OF VALLEY VIEW", "SF_14": 4.0, "SF_15": 3.0, "cnty": "Ada", "st": "ID", "Zip": 83704.0, "O_14": 5.0, "Q_15": 5.0, "O_15": 5.0, "city": "BOISE", "beds": 120.0, "SR_15": 4.0}, {"Diff_star": 0.0, "addr": "2609 SUNNYBROOK DRIVE", "SR_14": 3.0, "Q_14": 5.0, "name": "SUNNY RIDGE", "SF_14": 4.0, "SF_15": 4.0, "cnty": "Canyon", "st": "ID", "Zip": 83686.0, "O_14": 5.0, "Q_15": 5.0, "O_15": 5.0, "city": "NAMPA", "beds": 43.0, "SR_15": 3.0}, {"Diff_star": 0.0, "addr": "1014 BURRELL AVENUE", "SR_14": 3.0, "Q_14": 4.0, "name": "PRESTIGE CARE & REHABILITATION - THE ORCHARDS", "SF_14": 5.0, "SF_15": 5.0, "cnty": "Nez Perce", "st": "ID", "Zip": 83501.0, "O_14": 4.0, "Q_15": 3.0, "O_15": 4.0, "city": "LEWISTON", "beds": 127.0, "SR_15": 3.0}, {"Diff_star": 0.0, "addr": "674 EASTLAND DRIVE", "SR_14": 1.0, "Q_14": 3.0, "name": "TWIN FALLS CENTER", "SF_14": 3.0, "SF_15": 3.0, "cnty": "Twin Falls", "st": "ID", "Zip": 83301.0, "O_14": 1.0, "Q_15": 2.0, "O_15": 1.0, "city": "TWIN FALLS", "beds": 116.0, "SR_15": 1.0}, {"Diff_star": 0.0, "addr": "660 SOUTH SECOND STREET WEST", "SR_14": 4.0, "Q_14": 5.0, "name": "REXBURG CARE & REHABILITATION CENTER", "SF_14": 1.0, "SF_15": 2.0, "cnty": "Madison", "st": "ID", "Zip": 83440.0, "O_14": 4.0, "Q_15": 4.0, "O_15": 4.0, "city": "REXBURG", "beds": 119.0, "SR_15": 4.0}, {"Diff_star": 0.0, "addr": "640 FILER AVENUE WEST", "SR_14": 2.0, "Q_14": 4.0, "name": "RIVER RIDGE CENTER", "SF_14": 3.0, "SF_15": 3.0, "cnty": "Twin Falls", "st": "ID", "Zip": 83301.0, "O_14": 2.0, "Q_15": 3.0, "O_15": 2.0, "city": "TWIN FALLS", "beds": 119.0, "SR_15": 2.0}, {"Diff_star": -2.0, "addr": "1127 CALDWELL BOULEVARD", "SR_14": 2.0, "Q_14": 5.0, "name": "KARCHER ESTATES, LLC", "SF_14": 4.0, "SF_15": 3.0, "cnty": "Canyon", "st": "ID", "Zip": 83651.0, "O_14": 4.0, "Q_15": 4.0, "O_15": 2.0, "city": "NAMPA", "beds": 66.0, "SR_15": 2.0}, {"Diff_star": 0.0, "addr": "700 EAST ALICE STREET (83221-4925)", "SR_14": 2.0, "Q_14": 2.0, "name": "SYRINGA CHALET NURSING FACILITY", "SF_14": "", "SF_15": "", "cnty": "Bingham", "st": "ID", "Zip": 83221.0, "O_14": 2.0, "Q_15": 2.0, "O_15": 2.0, "city": "BLACKFOOT", "beds": 29.0, "SR_15": 2.0}, {"Diff_star": 0.0, "addr": "1828 BRIDGEVIEW BOULEVARD", "SR_14": 3.0, "Q_14": 5.0, "name": "BRIDGEVIEW ESTATES", "SF_14": 3.0, "SF_15": 3.0, "cnty": "Twin Falls", "st": "ID", "Zip": 83301.0, "O_14": 4.0, "Q_15": 5.0, "O_15": 4.0, "city": "TWIN FALLS", "beds": 116.0, "SR_15": 3.0}, {"Diff_star": 0.0, "addr": "600 NORTH ROBBINS ROAD", "SR_14": 5.0, "Q_14": 3.0, "name": "ST LUKE'S REHAB - ELKS SUB ACUTE REHAB UNIT", "SF_14": 5.0, "SF_15": 5.0, "cnty": "Ada", "st": "ID", "Zip": 83702.0, "O_14": 5.0, "Q_15": 3.0, "O_15": 5.0, "city": "BOISE", "beds": 20.0, "SR_15": 5.0}, {"Diff_star": 0.0, "addr": "3100 CHANNING WAY, 83404-7533", "SR_14": 4.0, "Q_14": 5.0, "name": "EASTERN IDAHO REGIONAL MEDICAL CENTER - TCU", "SF_14": 4.0, "SF_15": 4.0, "cnty": "Bonneville", "st": "ID", "Zip": 83403.0, "O_14": 5.0, "Q_15": 5.0, "O_15": 5.0, "city": "IDAHO FALLS", "beds": 16.0, "SR_15": 4.0}, {"Diff_star": 0.0, "addr": "2870 JUNIPER DRIVE", "SR_14": 4.0, "Q_14": 5.0, "name": "ROYAL PLAZA HEALTH & REHABILITATION", "SF_14": 4.0, "SF_15": 4.0, "cnty": "Nez Perce", "st": "ID", "Zip": 83501.0, "O_14": 5.0, "Q_15": 5.0, "O_15": 5.0, "city": "LEWISTON", "beds": 56.0, "SR_15": 4.0}, {"Diff_star": 0.0, "addr": "1055 NORTH CURTIS ROAD", "SR_14": 4.0, "Q_14": 3.0, "name": "SAINT ALPHONSUS TRANSITIONAL REHABILITATION UNIT", "SF_14": 5.0, "SF_15": 5.0, "cnty": "Ada", "st": "ID", "Zip": 83706.0, "O_14": 5.0, "Q_15": 3.0, "O_15": 5.0, "city": "BOISE", "beds": 15.0, "SR_15": 4.0}, {"Diff_star": -1.0, "addr": "500 WEST AQUA AVENUE", "SR_14": 2.0, "Q_14": 5.0, "name": "LIFE CARE CENTER OF COEUR D'ALENE", "SF_14": 4.0, "SF_15": 4.0, "cnty": "Kootenai", "st": "ID", "Zip": 83815.0, "O_14": 4.0, "Q_15": 4.0, "O_15": 3.0, "city": "COEUR D ALENE", "beds": 120.0, "SR_15": 2.0}, {"Diff_star": 0.0, "addr": "502 NORTH KIMBALL PLACE", "SR_14": 3.0, "Q_14": 5.0, "name": "LIFE CARE CENTER OF TREASURE VALLEY", "SF_14": 4.0, "SF_15": 4.0, "cnty": "Ada", "st": "ID", "Zip": 83704.0, "O_14": 5.0, "Q_15": 5.0, "O_15": 5.0, "city": "BOISE", "beds": 120.0, "SR_15": 3.0}, {"Diff_star": 0.0, "addr": "1351 WEST PINE AVENUE", "SR_14": 1.0, "Q_14": 3.0, "name": "MERIDIAN CENTER GENESIS HEALTHCARE", "SF_14": 4.0, "SF_15": 4.0, "cnty": "Ada", "st": "ID", "Zip": 83642.0, "O_14": 2.0, "Q_15": 2.0, "O_15": 2.0, "city": "MERIDIAN", "beds": 139.0, "SR_15": 1.0}, {"Diff_star": -1.0, "addr": "1125 NORTH DIVISION STREET", "SR_14": 4.0, "Q_14": 5.0, "name": "LIFE CARE CENTER OF SANDPOINT", "SF_14": 3.0, "SF_15": 3.0, "cnty": "Bonner", "st": "ID", "Zip": 83864.0, "O_14": 5.0, "Q_15": 4.0, "O_15": 4.0, "city": "SANDPOINT", "beds": 124.0, "SR_15": 4.0}, {"Diff_star": 0.0, "addr": "325 WARNER DRIVE", "SR_14": 4.0, "Q_14": 5.0, "name": "LIFE CARE CENTER OF LEWISTON", "SF_14": 4.0, "SF_15": 4.0, "cnty": "Nez Perce", "st": "ID", "Zip": 83501.0, "O_14": 5.0, "Q_15": 5.0, "O_15": 5.0, "city": "LEWISTON", "beds": 121.0, "SR_15": 4.0}, {"Diff_star": 0.0, "addr": "600 SHANAFELT STREET", "SR_14": 3.0, "Q_14": 5.0, "name": "DISCOVERY CARE CENTER", "SF_14": 4.0, "SF_15": 4.0, "cnty": "Lemhi", "st": "ID", "Zip": 83467.0, "O_14": 5.0, "Q_15": 5.0, "O_15": 5.0, "city": "SALMON", "beds": 45.0, "SR_15": 3.0}, {"Diff_star": 0.0, "addr": "2867 EAST COPPER POINT DRIVE", "SR_14": 5.0, "Q_14": 5.0, "name": "ASPEN TRANSITIONAL REHABILITATION", "SF_14": 5.0, "SF_15": 5.0, "cnty": "Ada", "st": "ID", "Zip": 83642.0, "O_14": 5.0, "Q_15": 5.0, "O_15": 5.0, "city": "MERIDIAN", "beds": 30.0, "SR_15": 5.0}, {"Diff_star": 0.0, "addr": "320 COLLINS ROAD, 83702-4519", "SR_14": 5.0, "Q_14": 4.0, "name": "IDAHO STATE VETERANS HOME - BOISE", "SF_14": 4.0, "SF_15": 4.0, "cnty": "Ada", "st": "ID", "Zip": 83707.0, "O_14": 5.0, "Q_15": 4.0, "O_15": 5.0, "city": "BOISE", "beds": 131.0, "SR_15": 5.0}, {"Diff_star": 0.0, "addr": "1957 ALVIN RICKEN DRIVE", "SR_14": 4.0, "Q_14": 1.0, "name": "IDAHO STATE VETERANS HOME - POCATELLO", "SF_14": 5.0, "SF_15": 5.0, "cnty": "Bannock", "st": "ID", "Zip": 83201.0, "O_14": 4.0, "Q_15": 1.0, "O_15": 4.0, "city": "POCATELLO", "beds": 66.0, "SR_15": 4.0}, {"Diff_star": 0.0, "addr": "821 21ST AVENUE", "SR_14": 1.0, "Q_14": 5.0, "name": "IDAHO STATE VETERANS HOME - LEWISTON", "SF_14": 5.0, "SF_15": 5.0, "cnty": "Nez Perce", "st": "ID", "Zip": 83501.0, "O_14": 2.0, "Q_15": 5.0, "O_15": 2.0, "city": "LEWISTON", "beds": 66.0, "SR_15": 1.0}, {"Diff_star": 0.0, "addr": "1220 MONTANA STREET", "SR_14": 5.0, "Q_14": 4.0, "name": "BENNETT HILLS CENTER", "SF_14": 3.0, "SF_15": 3.0, "cnty": "Gooding", "st": "ID", "Zip": 83330.0, "O_14": 5.0, "Q_15": 4.0, "O_15": 5.0, "city": "GOODING", "beds": 80.0, "SR_15": 5.0}, {"Diff_star": -1.0, "addr": "460 NORTH GARDEN PLAZA COURT", "SR_14": 3.0, "Q_14": 5.0, "name": "LIFE CARE CENTER OF POST FALLS", "SF_14": 3.0, "SF_15": 3.0, "cnty": "Kootenai", "st": "ID", "Zip": 83854.0, "O_14": 4.0, "Q_15": 5.0, "O_15": 3.0, "city": "POST FALLS", "beds": 120.0, "SR_15": 2.0}, {"Diff_star": 0.0, "addr": "1033 WEST QUINN ROAD", "SR_14": 3.0, "Q_14": 5.0, "name": "QUINN MEADOWS REHABILITATION & CARE CENTER", "SF_14": 4.0, "SF_15": 4.0, "cnty": "Bannock", "st": "ID", "Zip": 83202.0, "O_14": 5.0, "Q_15": 5.0, "O_15": 5.0, "city": "POCATELLO", "beds": 41.0, "SR_15": 3.0}, {"Diff_star": -1.0, "addr": "3909 SOUTH 25TH EAST", "SR_14": 2.0, "Q_14": 5.0, "name": "PROMONTORY POINT REHABILITATION", "SF_14": 4.0, "SF_15": 3.0, "cnty": "Bonneville", "st": "ID", "Zip": 83406.0, "O_14": 4.0, "Q_15": 5.0, "O_15": 3.0, "city": "AMMON", "beds": 30.0, "SR_15": 2.0}, {"Diff_star": 0.0, "addr": "3111 CHANNING WAY", "SR_14": 1.0, "Q_14": 4.0, "name": "TETON POST ACUTE CARE & REHABILITATION", "SF_14": 5.0, "SF_15": 5.0, "cnty": "Bonneville", "st": "ID", "Zip": 83404.0, "O_14": 2.0, "Q_15": 3.0, "O_15": 2.0, "city": "IDAHO FALLS", "beds": 88.0, "SR_15": 1.0}, {"Diff_star": 1.0, "addr": "3550 WEST AMERICANA TERRACE", "SR_14": 3.0, "Q_14": 2.0, "name": "RIVERVIEW REHABILITATION", "SF_14": 3.0, "SF_15": 3.0, "cnty": "Ada", "st": "ID", "Zip": 83706.0, "O_14": 3.0, "Q_15": 2.0, "O_15": 4.0, "city": "BOISE", "beds": 30.0, "SR_15": 4.0}]