[{"Diff_star": 1.0, "addr": "630 OCEAN AVENUE", "SR_14": 2.0, "Q_14": 3.0, "name": "CEDARS NURSING CARE CENTER", "SF_14": 5.0, "SF_15": 5.0, "cnty": "Cumberland", "st": "ME", "Zip": 4112.0, "O_14": 3.0, "Q_15": 2.0, "O_15": 4.0, "city": "PORTLAND", "beds": 102.0, "SR_15": 3.0}, {"Diff_star": -1.0, "addr": "1037 WEST MAIN STREET", "SR_14": 3.0, "Q_14": 5.0, "name": "HIBBARD SKILLED NURSING & REHABILITATION CENTER", "SF_14": 4.0, "SF_15": 4.0, "cnty": "Piscataquis", "st": "ME", "Zip": 4426.0, "O_14": 5.0, "Q_15": 4.0, "O_15": 4.0, "city": "DOVER FOXCROFT", "beds": 97.0, "SR_15": 3.0}, {"Diff_star": 0.0, "addr": "540 COLLEGE ST", "SR_14": 3.0, "Q_14": 3.0, "name": "MONTELLO MANOR", "SF_14": 4.0, "SF_15": 4.0, "cnty": "Androscoggin", "st": "ME", "Zip": 4240.0, "O_14": 4.0, "Q_15": 2.0, "O_15": 4.0, "city": "LEWISTON", "beds": 57.0, "SR_15": 3.0}, {"Diff_star": 0.0, "addr": "1145 BRIGHTON AVE", "SR_14": 1.0, "Q_14": 4.0, "name": "BARRON CENTER", "SF_14": 5.0, "SF_15": 5.0, "cnty": "Cumberland", "st": "ME", "Zip": 4102.0, "O_14": 2.0, "Q_15": 2.0, "O_15": 2.0, "city": "PORTLAND", "beds": 219.0, "SR_15": 1.0}, {"Diff_star": 0.0, "addr": "35 JULY STREET", "SR_14": 4.0, "Q_14": 5.0, "name": "THE NEWTON CTR FOR REHAB & NUR", "SF_14": 5.0, "SF_15": 5.0, "cnty": "York", "st": "ME", "Zip": 4073.0, "O_14": 5.0, "Q_15": 4.0, "O_15": 5.0, "city": "SANFORD", "beds": 74.0, "SR_15": 4.0}, {"Diff_star": -1.0, "addr": "PO BOX 410", "SR_14": 3.0, "Q_14": 5.0, "name": "TAMC - AROOSTOOK MEDICAL CENTER", "SF_14": 5.0, "SF_15": 5.0, "cnty": "Aroostook", "st": "ME", "Zip": 4758.0, "O_14": 5.0, "Q_15": 3.0, "O_15": 4.0, "city": "MARS HILL", "beds": 72.0, "SR_15": 3.0}, {"Diff_star": 0.0, "addr": "103 TEXAS AVE", "SR_14": 2.0, "Q_14": 4.0, "name": "BANGOR NURSING & REHABILITATION", "SF_14": 4.0, "SF_15": 4.0, "cnty": "Penobscot", "st": "ME", "Zip": 4401.0, "O_14": 3.0, "Q_15": 4.0, "O_15": 3.0, "city": "BANGOR", "beds": 60.0, "SR_15": 2.0}, {"Diff_star": -1.0, "addr": "117 BENNOCH RD", "SR_14": 2.0, "Q_14": 5.0, "name": "ORONO COMMONS", "SF_14": 3.0, "SF_15": 3.0, "cnty": "Penobscot", "st": "ME", "Zip": 4473.0, "O_14": 3.0, "Q_15": 4.0, "O_15": 2.0, "city": "ORONO", "beds": 80.0, "SR_15": 2.0}, {"Diff_star": 0.0, "addr": "30 COMMUNITY DRIVE", "SR_14": 2.0, "Q_14": 4.0, "name": "THE GARDENS", "SF_14": 5.0, "SF_15": 5.0, "cnty": "Knox", "st": "ME", "Zip": 4843.0, "O_14": 3.0, "Q_15": 4.0, "O_15": 3.0, "city": "CAMDEN", "beds": 39.0, "SR_15": 2.0}, {"Diff_star": -1.0, "addr": "158-178 RUSSELL ST", "SR_14": 3.0, "Q_14": 2.0, "name": "RUSSELL PARK REHAB & LIVING", "SF_14": 5.0, "SF_15": 5.0, "cnty": "Androscoggin", "st": "ME", "Zip": 4240.0, "O_14": 4.0, "Q_15": 1.0, "O_15": 3.0, "city": "LEWISTON", "beds": 62.0, "SR_15": 3.0}, {"Diff_star": -1.0, "addr": "102 CAMPUS AVE", "SR_14": 3.0, "Q_14": 5.0, "name": "ST MARY'S D'YOUVILLE PAVILION", "SF_14": 5.0, "SF_15": 5.0, "cnty": "Androscoggin", "st": "ME", "Zip": 4240.0, "O_14": 5.0, "Q_15": 4.0, "O_15": 4.0, "city": "LEWISTON", "beds": 210.0, "SR_15": 3.0}, {"Diff_star": 0.0, "addr": "37 GRAYBIRCH DRIVE", "SR_14": 1.0, "Q_14": 4.0, "name": "MAINEGENERAL REHAB & LONG TERM CARE - GRAYBIRCH", "SF_14": 5.0, "SF_15": 5.0, "cnty": "Kennebec", "st": "ME", "Zip": 4330.0, "O_14": 2.0, "Q_15": 3.0, "O_15": 2.0, "city": "AUGUSTA", "beds": 77.0, "SR_15": 1.0}, {"Diff_star": 0.0, "addr": "23 CEDAR RIDGE DRIVE", "SR_14": 4.0, "Q_14": 4.0, "name": "CEDAR RIDGE CENTER", "SF_14": 4.0, "SF_15": 4.0, "cnty": "Somerset", "st": "ME", "Zip": 4976.0, "O_14": 4.0, "Q_15": 3.0, "O_15": 4.0, "city": "SKOWHEGAN", "beds": 75.0, "SR_15": 4.0}, {"Diff_star": 0.0, "addr": "74 PARKWAY SOUTH", "SR_14": 2.0, "Q_14": 4.0, "name": "BREWER CENTER FOR HEALTH & REHABILITATION, LLC", "SF_14": 3.0, "SF_15": 3.0, "cnty": "Penobscot", "st": "ME", "Zip": 4412.0, "O_14": 2.0, "Q_15": 2.0, "O_15": 2.0, "city": "BREWER", "beds": 111.0, "SR_15": 2.0}, {"Diff_star": -1.0, "addr": "440 MINOT AVE", "SR_14": 2.0, "Q_14": 5.0, "name": "CLOVER MANOR", "SF_14": 4.0, "SF_15": 4.0, "cnty": "Androscoggin", "st": "ME", "Zip": 4210.0, "O_14": 4.0, "Q_15": 2.0, "O_15": 3.0, "city": "AUBURN", "beds": 110.0, "SR_15": 2.0}, {"Diff_star": 0.0, "addr": "758 BROADWAY", "SR_14": 2.0, "Q_14": 4.0, "name": "ROSS MANOR", "SF_14": 5.0, "SF_15": 5.0, "cnty": "Penobscot", "st": "ME", "Zip": 4401.0, "O_14": 3.0, "Q_15": 4.0, "O_15": 3.0, "city": "BANGOR", "beds": 83.0, "SR_15": 2.0}, {"Diff_star": 0.0, "addr": "3 BRAZIER LANE", "SR_14": 3.0, "Q_14": 4.0, "name": "RIVER RIDGE CENTER", "SF_14": 5.0, "SF_15": 5.0, "cnty": "York", "st": "ME", "Zip": 4043.0, "O_14": 4.0, "Q_15": 3.0, "O_15": 4.0, "city": "KENNEBUNK", "beds": 48.0, "SR_15": 3.0}, {"Diff_star": 0.0, "addr": "70 FAIRVIEW DRIVE", "SR_14": 4.0, "Q_14": 4.0, "name": "FRYEBURG HEALTH CARE CENTER", "SF_14": 1.0, "SF_15": 1.0, "cnty": "Oxford", "st": "ME", "Zip": 4037.0, "O_14": 3.0, "Q_15": 4.0, "O_15": 3.0, "city": "FRYEBURG", "beds": 30.0, "SR_15": 4.0}, {"Diff_star": 0.0, "addr": "26 SCHOONER STREET", "SR_14": 3.0, "Q_14": 4.0, "name": "COVE'S EDGE", "SF_14": 5.0, "SF_15": 5.0, "cnty": "Lincoln", "st": "ME", "Zip": 4543.0, "O_14": 4.0, "Q_15": 2.0, "O_15": 4.0, "city": "DAMARISCOTTA", "beds": 76.0, "SR_15": 3.0}, {"Diff_star": 0.0, "addr": "300 SPRING ST", "SR_14": 4.0, "Q_14": 3.0, "name": "SPRINGBROOK CENTER", "SF_14": 4.0, "SF_15": 4.0, "cnty": "Cumberland", "st": "ME", "Zip": 4092.0, "O_14": 4.0, "Q_15": 3.0, "O_15": 4.0, "city": "WESTBROOK", "beds": 123.0, "SR_15": 4.0}, {"Diff_star": -2.0, "addr": "119 LIVERMORE FALLS RD", "SR_14": 5.0, "Q_14": 3.0, "name": "SANDY RIVER CENTER", "SF_14": 4.0, "SF_15": 4.0, "cnty": "Franklin", "st": "ME", "Zip": 4938.0, "O_14": 5.0, "Q_15": 1.0, "O_15": 3.0, "city": "FARMINGTON", "beds": 62.0, "SR_15": 3.0}, {"Diff_star": 0.0, "addr": "67 PINE POINT RD", "SR_14": 3.0, "Q_14": 3.0, "name": "PINE POINT CENTER", "SF_14": 4.0, "SF_15": 4.0, "cnty": "Cumberland", "st": "ME", "Zip": 4074.0, "O_14": 4.0, "Q_15": 2.0, "O_15": 4.0, "city": "SCARBOROUGH", "beds": 58.0, "SR_15": 3.0}, {"Diff_star": 0.0, "addr": "33 ROGER STREET", "SR_14": 1.0, "Q_14": 5.0, "name": "MARSHWOOD CENTER", "SF_14": 5.0, "SF_15": 5.0, "cnty": "Androscoggin", "st": "ME", "Zip": 4240.0, "O_14": 2.0, "Q_15": 4.0, "O_15": 2.0, "city": "LEWISTON", "beds": 108.0, "SR_15": 1.0}, {"Diff_star": 0.0, "addr": "186 PORTLAND ROAD", "SR_14": 3.0, "Q_14": 5.0, "name": "BRIDGTON HEALTH CARE CENTER", "SF_14": 5.0, "SF_15": 5.0, "cnty": "Cumberland", "st": "ME", "Zip": 4009.0, "O_14": 3.0, "Q_15": 5.0, "O_15": 3.0, "city": "BRIDGTON", "beds": 43.0, "SR_15": 3.0}, {"Diff_star": 0.0, "addr": "850 BAXTER BOULEVARD", "SR_14": 1.0, "Q_14": 3.0, "name": "SEASIDE REHAB & HEALTH CARE", "SF_14": 4.0, "SF_15": 4.0, "cnty": "Cumberland", "st": "ME", "Zip": 4103.0, "O_14": 2.0, "Q_15": 2.0, "O_15": 2.0, "city": "PORTLAND", "beds": 124.0, "SR_15": 1.0}, {"Diff_star": -1.0, "addr": "587 NORTH DEER ISLE RD", "SR_14": 3.0, "Q_14": 5.0, "name": "ISLAND NURSING HOME & CARE CTR", "SF_14": 5.0, "SF_15": 5.0, "cnty": "Hancock", "st": "ME", "Zip": 4627.0, "O_14": 5.0, "Q_15": 4.0, "O_15": 4.0, "city": "DEER ISLE", "beds": 38.0, "SR_15": 3.0}, {"Diff_star": -1.0, "addr": "3 MARKET SQUARE", "SR_14": 2.0, "Q_14": 5.0, "name": "MARKET SQUARE HEALTH CARE CENTER, LLC", "SF_14": 4.0, "SF_15": 4.0, "cnty": "Oxford", "st": "ME", "Zip": 4281.0, "O_14": 4.0, "Q_15": 4.0, "O_15": 3.0, "city": "SOUTH PARIS", "beds": 76.0, "SR_15": 2.0}, {"Diff_star": -2.0, "addr": "188 EASTERN AVE", "SR_14": 2.0, "Q_14": 5.0, "name": "AUGUSTA CENTER FOR HEALTH & REHABILITATION, LLC", "SF_14": 4.0, "SF_15": 3.0, "cnty": "Kennebec", "st": "ME", "Zip": 4330.0, "O_14": 4.0, "Q_15": 4.0, "O_15": 2.0, "city": "AUGUSTA", "beds": 72.0, "SR_15": 2.0}, {"Diff_star": 0.0, "addr": "51 WINSHIP ST", "SR_14": 4.0, "Q_14": 4.0, "name": "WINSHIP GREEN CENTER FOR HEALTH & REHAB, LLC", "SF_14": 3.0, "SF_15": 3.0, "cnty": "Sagadahoc", "st": "ME", "Zip": 4530.0, "O_14": 4.0, "Q_15": 4.0, "O_15": 4.0, "city": "BATH", "beds": 72.0, "SR_15": 4.0}, {"Diff_star": -1.0, "addr": "370 PORTLAND ST", "SR_14": 1.0, "Q_14": 4.0, "name": "BRENTWOOD CENTER FOR HEALTH & REHABILITATION, LLC", "SF_14": 4.0, "SF_15": 3.0, "cnty": "Cumberland", "st": "ME", "Zip": 4096.0, "O_14": 2.0, "Q_15": 1.0, "O_15": 1.0, "city": "YARMOUTH", "beds": 78.0, "SR_15": 1.0}, {"Diff_star": -1.0, "addr": "PO BOX 520", "SR_14": 1.0, "Q_14": 3.0, "name": "GARDINER HEALTH CARE FACILITY", "SF_14": 4.0, "SF_15": 4.0, "cnty": "Aroostook", "st": "ME", "Zip": 4730.0, "O_14": 2.0, "Q_15": 1.0, "O_15": 1.0, "city": "HOULTON", "beds": 45.0, "SR_15": 1.0}, {"Diff_star": 0.0, "addr": "1142 MAIN ST", "SR_14": 2.0, "Q_14": 5.0, "name": "GREENWOOD CENTER", "SF_14": 4.0, "SF_15": 4.0, "cnty": "York", "st": "ME", "Zip": 4073.0, "O_14": 4.0, "Q_15": 5.0, "O_15": 4.0, "city": "SANFORD", "beds": 86.0, "SR_15": 2.0}, {"Diff_star": -1.0, "addr": "93 MILITARY STREET", "SR_14": 3.0, "Q_14": 4.0, "name": "MADIGAN ESTATES", "SF_14": 4.0, "SF_15": 3.0, "cnty": "Aroostook", "st": "ME", "Zip": 4730.0, "O_14": 4.0, "Q_15": 3.0, "O_15": 3.0, "city": "HOULTON", "beds": 87.0, "SR_15": 3.0}, {"Diff_star": 0.0, "addr": "29 MAURICE DRIVE", "SR_14": 4.0, "Q_14": 4.0, "name": "HORIZONS LIVING AND REHAB CENTER", "SF_14": 5.0, "SF_15": 5.0, "cnty": "Cumberland", "st": "ME", "Zip": 4011.0, "O_14": 5.0, "Q_15": 4.0, "O_15": 5.0, "city": "BRUNSWICK", "beds": 65.0, "SR_15": 4.0}, {"Diff_star": 0.0, "addr": "47 ELM ST", "SR_14": 1.0, "Q_14": 5.0, "name": "VARNEY CROSSING NCC", "SF_14": 4.0, "SF_15": 4.0, "cnty": "York", "st": "ME", "Zip": 3906.0, "O_14": 2.0, "Q_15": 3.0, "O_15": 2.0, "city": "NORTH BERWICK", "beds": 64.0, "SR_15": 1.0}, {"Diff_star": 0.0, "addr": "208 STATE STREET", "SR_14": 4.0, "Q_14": 4.0, "name": "BORDERVIEW REHAB & LIVING CTR", "SF_14": 4.0, "SF_15": 4.0, "cnty": "Aroostook", "st": "ME", "Zip": 4785.0, "O_14": 4.0, "Q_15": 3.0, "O_15": 4.0, "city": "VAN BUREN", "beds": 55.0, "SR_15": 4.0}, {"Diff_star": -1.0, "addr": "27 COOL ST", "SR_14": 3.0, "Q_14": 4.0, "name": "OAK GROVE CENTER", "SF_14": 4.0, "SF_15": 4.0, "cnty": "Kennebec", "st": "ME", "Zip": 4901.0, "O_14": 4.0, "Q_15": 2.0, "O_15": 3.0, "city": "WATERVILLE", "beds": 90.0, "SR_15": 2.0}, {"Diff_star": -1.0, "addr": "3 EAST ST", "SR_14": 1.0, "Q_14": 2.0, "name": "FREEPORT NURSING & REHAB CENTER", "SF_14": 4.0, "SF_15": 4.0, "cnty": "Cumberland", "st": "ME", "Zip": 4032.0, "O_14": 2.0, "Q_15": 1.0, "O_15": 1.0, "city": "FREEPORT", "beds": 65.0, "SR_15": 1.0}, {"Diff_star": 0.0, "addr": "158 ROSS RD", "SR_14": 4.0, "Q_14": 4.0, "name": "KENNEBUNK CENTER FOR HEALTH & REHABILITATION, LLC", "SF_14": 2.0, "SF_15": 2.0, "cnty": "York", "st": "ME", "Zip": 4043.0, "O_14": 4.0, "Q_15": 4.0, "O_15": 4.0, "city": "KENNEBUNK", "beds": 78.0, "SR_15": 4.0}, {"Diff_star": 0.0, "addr": "29 MARION AVE", "SR_14": 4.0, "Q_14": 5.0, "name": "NORWAY CENTER FOR HEALTH & REHABILITATION, LLC", "SF_14": 4.0, "SF_15": 4.0, "cnty": "Oxford", "st": "ME", "Zip": 4268.0, "O_14": 5.0, "Q_15": 5.0, "O_15": 5.0, "city": "NORWAY", "beds": 42.0, "SR_15": 4.0}, {"Diff_star": 0.0, "addr": "6 OLD COUNTY RD", "SR_14": 3.0, "Q_14": 4.0, "name": "HAWTHORNE HOUSE", "SF_14": 5.0, "SF_15": 5.0, "cnty": "Cumberland", "st": "ME", "Zip": 4032.0, "O_14": 4.0, "Q_15": 2.0, "O_15": 4.0, "city": "FREEPORT", "beds": 81.0, "SR_15": 3.0}, {"Diff_star": -1.0, "addr": "11 JOHN F KENNEDY LANE", "SR_14": 4.0, "Q_14": 5.0, "name": "RUMFORD COMMUNITY HOME", "SF_14": 4.0, "SF_15": 4.0, "cnty": "Oxford", "st": "ME", "Zip": 4276.0, "O_14": 5.0, "Q_15": 4.0, "O_15": 4.0, "city": "RUMFORD", "beds": 32.0, "SR_15": 4.0}, {"Diff_star": 0.0, "addr": "162 ACADEMY ST", "SR_14": 4.0, "Q_14": 4.0, "name": "PRESQUE ISLE REHAB AND NURSING CENTER", "SF_14": 5.0, "SF_15": 5.0, "cnty": "Aroostook", "st": "ME", "Zip": 4769.0, "O_14": 5.0, "Q_15": 3.0, "O_15": 5.0, "city": "PRESQUE ISLE", "beds": 67.0, "SR_15": 4.0}, {"Diff_star": -1.0, "addr": "24 - 26 PLEASANT STREET", "SR_14": 3.0, "Q_14": 5.0, "name": "VICTORIAN VILLA REHABILITATION", "SF_14": 4.0, "SF_15": 4.0, "cnty": "Oxford", "st": "ME", "Zip": 4221.0, "O_14": 5.0, "Q_15": 4.0, "O_15": 4.0, "city": "CANTON", "beds": 47.0, "SR_15": 3.0}, {"Diff_star": 0.0, "addr": "88 HARBOR DRIVE", "SR_14": 3.0, "Q_14": 4.0, "name": "SEAL ROCK HEALTH CARE", "SF_14": 5.0, "SF_15": 5.0, "cnty": "York", "st": "ME", "Zip": 4072.0, "O_14": 4.0, "Q_15": 3.0, "O_15": 4.0, "city": "SACO", "beds": 105.0, "SR_15": 3.0}, {"Diff_star": -1.0, "addr": "750 UNION ST", "SR_14": 3.0, "Q_14": 5.0, "name": "WESTGATE CENTER FOR HEALTH & REHABILITATION", "SF_14": 4.0, "SF_15": 3.0, "cnty": "Penobscot", "st": "ME", "Zip": 4401.0, "O_14": 5.0, "Q_15": 5.0, "O_15": 4.0, "city": "BANGOR", "beds": 65.0, "SR_15": 3.0}, {"Diff_star": 0.0, "addr": "516 MT HOPE AVENUE", "SR_14": 1.0, "Q_14": 5.0, "name": "EASTSIDE CENTER FOR HEALTH & REHABILITATION, LLC", "SF_14": 3.0, "SF_15": 3.0, "cnty": "Penobscot", "st": "ME", "Zip": 4401.0, "O_14": 2.0, "Q_15": 5.0, "O_15": 2.0, "city": "BANGOR", "beds": 67.0, "SR_15": 1.0}, {"Diff_star": -1.0, "addr": "407 POOL ST", "SR_14": 2.0, "Q_14": 5.0, "name": "ST ANDRE HEALTH CARE FACILITY", "SF_14": 4.0, "SF_15": 4.0, "cnty": "York", "st": "ME", "Zip": 4005.0, "O_14": 4.0, "Q_15": 4.0, "O_15": 3.0, "city": "BIDDEFORD", "beds": 96.0, "SR_15": 2.0}, {"Diff_star": 0.0, "addr": "16 BEAL STREET", "SR_14": 2.0, "Q_14": 5.0, "name": "MARSHALL HEALTH CARE AND REHAB", "SF_14": 4.0, "SF_15": 4.0, "cnty": "Washington", "st": "ME", "Zip": 4654.0, "O_14": 4.0, "Q_15": 5.0, "O_15": 4.0, "city": "MACHIAS", "beds": 64.0, "SR_15": 2.0}, {"Diff_star": -1.0, "addr": "PO BOX 209", "SR_14": 2.0, "Q_14": 5.0, "name": "COUNTRY MANOR NURSING HOME", "SF_14": 5.0, "SF_15": 5.0, "cnty": "Lincoln", "st": "ME", "Zip": 4341.0, "O_14": 4.0, "Q_15": 4.0, "O_15": 3.0, "city": "COOPERS MILLS", "beds": 30.0, "SR_15": 2.0}, {"Diff_star": 0.0, "addr": "191 FORESIDE RD", "SR_14": 3.0, "Q_14": 4.0, "name": "FALMOUTH BY THE SEA", "SF_14": 5.0, "SF_15": 5.0, "cnty": "Cumberland", "st": "ME", "Zip": 4105.0, "O_14": 4.0, "Q_15": 4.0, "O_15": 4.0, "city": "FALMOUTH", "beds": 65.0, "SR_15": 3.0}, {"Diff_star": -2.0, "addr": "36 WORKMAN TERRACE STREET", "SR_14": 3.0, "Q_14": 5.0, "name": "COLONIAL HEALTH CARE", "SF_14": 3.0, "SF_15": 3.0, "cnty": "Penobscot", "st": "ME", "Zip": 4457.0, "O_14": 4.0, "Q_15": 4.0, "O_15": 2.0, "city": "LINCOLN", "beds": 60.0, "SR_15": 2.0}, {"Diff_star": 0.0, "addr": "517 RIVERVIEW ST", "SR_14": 1.0, "Q_14": 4.0, "name": "HIGH VIEW MANOR", "SF_14": 5.0, "SF_15": 5.0, "cnty": "Aroostook", "st": "ME", "Zip": 4756.0, "O_14": 2.0, "Q_15": 2.0, "O_15": 2.0, "city": "MADAWASKA", "beds": 51.0, "SR_15": 1.0}, {"Diff_star": -1.0, "addr": "64 PARK STREET", "SR_14": 1.0, "Q_14": 4.0, "name": "DEXTER HEALTH CARE", "SF_14": 4.0, "SF_15": 3.0, "cnty": "Penobscot", "st": "ME", "Zip": 4930.0, "O_14": 2.0, "Q_15": 2.0, "O_15": 1.0, "city": "DEXTER", "beds": 53.0, "SR_15": 1.0}, {"Diff_star": 0.0, "addr": "335 STILLWATER AVE", "SR_14": 4.0, "Q_14": 4.0, "name": "STILLWATER HEALTH CARE", "SF_14": 4.0, "SF_15": 4.0, "cnty": "Penobscot", "st": "ME", "Zip": 4401.0, "O_14": 4.0, "Q_15": 3.0, "O_15": 4.0, "city": "BANGOR", "beds": 63.0, "SR_15": 4.0}, {"Diff_star": 0.0, "addr": "10 BERNADETTE ST", "SR_14": 4.0, "Q_14": 4.0, "name": "CARIBOU REHAB AND NURSING CENTER", "SF_14": 5.0, "SF_15": 5.0, "cnty": "Aroostook", "st": "ME", "Zip": 4736.0, "O_14": 5.0, "Q_15": 5.0, "O_15": 5.0, "city": "CARIBOU", "beds": 68.0, "SR_15": 4.0}, {"Diff_star": 0.0, "addr": "3 MAIN STREET", "SR_14": 1.0, "Q_14": 5.0, "name": "NARRAGUAGUS BAY HEALTH CARE FACILITY", "SF_14": 5.0, "SF_15": 5.0, "cnty": "Washington", "st": "ME", "Zip": 4658.0, "O_14": 2.0, "Q_15": 4.0, "O_15": 2.0, "city": "MILBRIDGE", "beds": 35.0, "SR_15": 1.0}, {"Diff_star": 0.0, "addr": "7 HIGHWOOD ST", "SR_14": 1.0, "Q_14": 5.0, "name": "MOUNT ST JOSEPH NURSING HOME", "SF_14": 5.0, "SF_15": 5.0, "cnty": "Kennebec", "st": "ME", "Zip": 4901.0, "O_14": 2.0, "Q_15": 3.0, "O_15": 2.0, "city": "WATERVILLE", "beds": 111.0, "SR_15": 1.0}, {"Diff_star": 0.0, "addr": "42 ANTHOINE ST", "SR_14": 3.0, "Q_14": 4.0, "name": "SOUTH PORTLAND NURSING HOME", "SF_14": 3.0, "SF_15": 3.0, "cnty": "Cumberland", "st": "ME", "Zip": 4106.0, "O_14": 3.0, "Q_15": 3.0, "O_15": 3.0, "city": "SO PORTLAND", "beds": 73.0, "SR_15": 3.0}, {"Diff_star": 0.0, "addr": "2 FOOTBRIDGE RD", "SR_14": 1.0, "Q_14": 4.0, "name": "HARBOR HILL CENTER", "SF_14": 5.0, "SF_15": 5.0, "cnty": "Waldo", "st": "ME", "Zip": 4915.0, "O_14": 2.0, "Q_15": 3.0, "O_15": 2.0, "city": "BELFAST", "beds": 40.0, "SR_15": 1.0}, {"Diff_star": 0.0, "addr": "42 BUCKSPORT RD", "SR_14": 4.0, "Q_14": 4.0, "name": "COURTLAND REHAB & LIVING CENTER", "SF_14": 5.0, "SF_15": 5.0, "cnty": "Hancock", "st": "ME", "Zip": 4605.0, "O_14": 5.0, "Q_15": 3.0, "O_15": 5.0, "city": "ELLSWORTH", "beds": 54.0, "SR_15": 4.0}, {"Diff_star": -1.0, "addr": "6 WHITE STREET", "SR_14": 5.0, "Q_14": 4.0, "name": "KNOX CENTER FOR LONG TERM CARE", "SF_14": 4.0, "SF_15": 4.0, "cnty": "Knox", "st": "ME", "Zip": 4841.0, "O_14": 5.0, "Q_15": 2.0, "O_15": 4.0, "city": "ROCKLAND", "beds": 84.0, "SR_15": 4.0}, {"Diff_star": 0.0, "addr": "141 BETHEL ROAD", "SR_14": 4.0, "Q_14": 3.0, "name": "LEDGEVIEW LIVING CENTER", "SF_14": 4.0, "SF_15": 4.0, "cnty": "Oxford", "st": "ME", "Zip": 4289.0, "O_14": 4.0, "Q_15": 2.0, "O_15": 4.0, "city": "WEST PARIS", "beds": 81.0, "SR_15": 4.0}, {"Diff_star": -1.0, "addr": "310 CONY ROAD", "SR_14": 4.0, "Q_14": 5.0, "name": "MAINE VETERANS HOME - AUGUSTA", "SF_14": 2.0, "SF_15": 2.0, "cnty": "Kennebec", "st": "ME", "Zip": 4330.0, "O_14": 5.0, "Q_15": 3.0, "O_15": 4.0, "city": "AUGUSTA", "beds": 120.0, "SR_15": 4.0}, {"Diff_star": 0.0, "addr": "290 US RT 1", "SR_14": 3.0, "Q_14": 4.0, "name": "MAINE VETERANS HOME - SCARBOROUGH", "SF_14": 5.0, "SF_15": 5.0, "cnty": "Cumberland", "st": "ME", "Zip": 4074.0, "O_14": 4.0, "Q_15": 3.0, "O_15": 4.0, "city": "SCARBOROUGH", "beds": 120.0, "SR_15": 3.0}, {"Diff_star": 0.0, "addr": "174 MAIN ST", "SR_14": 1.0, "Q_14": 4.0, "name": "MAPLECREST REHAB & LIVING CENTER", "SF_14": 3.0, "SF_15": 3.0, "cnty": "Somerset", "st": "ME", "Zip": 4950.0, "O_14": 1.0, "Q_15": 3.0, "O_15": 1.0, "city": "MADISON", "beds": 58.0, "SR_15": 1.0}, {"Diff_star": 0.0, "addr": "PO BOX 228", "SR_14": 1.0, "Q_14": 5.0, "name": "MERCY HOME", "SF_14": 4.0, "SF_15": 4.0, "cnty": "Aroostook", "st": "ME", "Zip": 4739.0, "O_14": 2.0, "Q_15": 4.0, "O_15": 2.0, "city": "EAGLE LAKE", "beds": 40.0, "SR_15": 1.0}, {"Diff_star": 0.0, "addr": "221 Fairbanks Rd", "SR_14": 4.0, "Q_14": 3.0, "name": "EDGEWOOD REHAB & LIVING CTR", "SF_14": 4.0, "SF_15": 4.0, "cnty": "Franklin", "st": "ME", "Zip": 4938.0, "O_14": 4.0, "Q_15": 2.0, "O_15": 4.0, "city": "FARMINGTON", "beds": 33.0, "SR_15": 4.0}, {"Diff_star": 0.0, "addr": "9 LEWIS RD", "SR_14": 5.0, "Q_14": 5.0, "name": "DURGIN PINES", "SF_14": 4.0, "SF_15": 4.0, "cnty": "York", "st": "ME", "Zip": 3904.0, "O_14": 5.0, "Q_15": 5.0, "O_15": 5.0, "city": "KITTERY", "beds": 81.0, "SR_15": 5.0}, {"Diff_star": 0.0, "addr": "457 OLD LEWISTON RD", "SR_14": 5.0, "Q_14": 4.0, "name": "HERITAGE REHAB & LIVING CTR", "SF_14": 4.0, "SF_15": 4.0, "cnty": "Kennebec", "st": "ME", "Zip": 4364.0, "O_14": 5.0, "Q_15": 5.0, "O_15": 5.0, "city": "WINTHROP", "beds": 28.0, "SR_15": 5.0}, {"Diff_star": -1.0, "addr": "1133 WASHINGTON AVE", "SR_14": 1.0, "Q_14": 5.0, "name": "ST JOSEPH'S REHABILITATION AND RESIDENCE", "SF_14": 3.0, "SF_15": 3.0, "cnty": "Cumberland", "st": "ME", "Zip": 4103.0, "O_14": 2.0, "Q_15": 3.0, "O_15": 1.0, "city": "PORTLAND", "beds": 121.0, "SR_15": 1.0}, {"Diff_star": 0.0, "addr": "131 EDEN ST", "SR_14": 1.0, "Q_14": 4.0, "name": "SONOGEE REHABILITATION & LIVING CENTER", "SF_14": 4.0, "SF_15": 4.0, "cnty": "Hancock", "st": "ME", "Zip": 4609.0, "O_14": 2.0, "Q_15": 4.0, "O_15": 2.0, "city": "BAR HARBOR", "beds": 35.0, "SR_15": 1.0}, {"Diff_star": 0.0, "addr": "10 MAY ST", "SR_14": 4.0, "Q_14": 5.0, "name": "SOUTHRIDGE REHAB & LIVING CTR", "SF_14": 5.0, "SF_15": 5.0, "cnty": "York", "st": "ME", "Zip": 4005.0, "O_14": 5.0, "Q_15": 4.0, "O_15": 5.0, "city": "BIDDEFORD", "beds": 78.0, "SR_15": 4.0}, {"Diff_star": 0.0, "addr": "200 ROUTE 115, PO BOX 760", "SR_14": 5.0, "Q_14": 5.0, "name": "LEDGEWOOD MANOR", "SF_14": 4.0, "SF_15": 4.0, "cnty": "Cumberland", "st": "ME", "Zip": 4062.0, "O_14": 5.0, "Q_15": 4.0, "O_15": 5.0, "city": "WINDHAM", "beds": 60.0, "SR_15": 5.0}, {"Diff_star": 0.0, "addr": "220 KENNEDY MEMORIAL DR", "SR_14": 2.0, "Q_14": 4.0, "name": "LAKEWOOD", "SF_14": 5.0, "SF_15": 5.0, "cnty": "Kennebec", "st": "ME", "Zip": 4901.0, "O_14": 3.0, "Q_15": 3.0, "O_15": 3.0, "city": "WATERVILLE", "beds": 105.0, "SR_15": 2.0}, {"Diff_star": 1.0, "addr": "40 GLENRIDGE DRIVE", "SR_14": 2.0, "Q_14": 5.0, "name": "MAINEGENERAL REHAB & LONG TERM CARE - GLENRIDGE", "SF_14": 4.0, "SF_15": 4.0, "cnty": "Kennebec", "st": "ME", "Zip": 4330.0, "O_14": 4.0, "Q_15": 5.0, "O_15": 5.0, "city": "AUGUSTA", "beds": 125.0, "SR_15": 3.0}, {"Diff_star": 0.0, "addr": "34 MARTIN LANE", "SR_14": 5.0, "Q_14": 5.0, "name": "THE COMMONS AT TALL PINES", "SF_14": 4.0, "SF_15": 4.0, "cnty": "Waldo", "st": "ME", "Zip": 4915.0, "O_14": 5.0, "Q_15": 3.0, "O_15": 5.0, "city": "BELFAST", "beds": 53.0, "SR_15": 5.0}, {"Diff_star": 0.0, "addr": "5 CROCKER STREET", "SR_14": 3.0, "Q_14": 3.0, "name": "CUMMINGS HEALTH CARE FACILITY", "SF_14": 4.0, "SF_15": 4.0, "cnty": "Penobscot", "st": "ME", "Zip": 4448.0, "O_14": 4.0, "Q_15": 2.0, "O_15": 4.0, "city": "HOWLAND", "beds": 34.0, "SR_15": 3.0}, {"Diff_star": -1.0, "addr": "426 US ROUTE 1", "SR_14": 2.0, "Q_14": 5.0, "name": "ST JOSEPH NURSING HOME", "SF_14": 5.0, "SF_15": 5.0, "cnty": "Aroostook", "st": "ME", "Zip": 4745.0, "O_14": 4.0, "Q_15": 4.0, "O_15": 3.0, "city": "FRENCHVILLE", "beds": 43.0, "SR_15": 2.0}, {"Diff_star": 0.0, "addr": "19 GENERAL MOORE WAY", "SR_14": 3.0, "Q_14": 3.0, "name": "SEAPORT VILLAGE HEALTHCARE", "SF_14": 5.0, "SF_15": 5.0, "cnty": "Hancock", "st": "ME", "Zip": 4605.0, "O_14": 4.0, "Q_15": 2.0, "O_15": 4.0, "city": "ELLSWORTH", "beds": 40.0, "SR_15": 3.0}, {"Diff_star": 0.0, "addr": "23 BOYNTON STREET", "SR_14": 5.0, "Q_14": 5.0, "name": "EASTPORT MEMORIAL NURSING HOME", "SF_14": 5.0, "SF_15": 5.0, "cnty": "Washington", "st": "ME", "Zip": 4631.0, "O_14": 5.0, "Q_15": 5.0, "O_15": 5.0, "city": "EASTPORT", "beds": 26.0, "SR_15": 5.0}, {"Diff_star": 0.0, "addr": "22 WALNUT STREET", "SR_14": 5.0, "Q_14": 5.0, "name": "KATAHDIN NURSING HOME", "SF_14": 2.0, "SF_15": 2.0, "cnty": "Penobscot", "st": "ME", "Zip": 4462.0, "O_14": 5.0, "Q_15": 5.0, "O_15": 5.0, "city": "MILLINOCKET", "beds": 36.0, "SR_15": 5.0}, {"Diff_star": 0.0, "addr": "163 VAN BUREN RD SUITE 2", "SR_14": 3.0, "Q_14": 5.0, "name": "MAINE VETERANS HOME - CARIBOU", "SF_14": 5.0, "SF_15": 5.0, "cnty": "Aroostook", "st": "ME", "Zip": 4736.0, "O_14": 5.0, "Q_15": 5.0, "O_15": 5.0, "city": "CARIBOU", "beds": 40.0, "SR_15": 3.0}, {"Diff_star": 0.0, "addr": "59 WEST FRONT ST", "SR_14": 1.0, "Q_14": 3.0, "name": "WOODLAWN REHABILITATION & NURSING CENTER", "SF_14": 4.0, "SF_15": 4.0, "cnty": "Somerset", "st": "ME", "Zip": 4976.0, "O_14": 2.0, "Q_15": 2.0, "O_15": 2.0, "city": "SKOWHEGAN", "beds": 46.0, "SR_15": 1.0}, {"Diff_star": -2.0, "addr": "PO BOX 429", "SR_14": 2.0, "Q_14": 5.0, "name": "COASTAL MANOR", "SF_14": 4.0, "SF_15": 3.0, "cnty": "Cumberland", "st": "ME", "Zip": 4096.0, "O_14": 4.0, "Q_15": 3.0, "O_15": 2.0, "city": "YARMOUTH", "beds": 39.0, "SR_15": 2.0}, {"Diff_star": 0.0, "addr": "145 EMERY LANE", "SR_14": 4.0, "Q_14": 4.0, "name": "GREGORY WING OF ST ANDREWS VILLAGE", "SF_14": 4.0, "SF_15": 4.0, "cnty": "Lincoln", "st": "ME", "Zip": 4538.0, "O_14": 4.0, "Q_15": 3.0, "O_15": 4.0, "city": "BOOTHBAY HARBOR", "beds": 30.0, "SR_15": 4.0}, {"Diff_star": 0.0, "addr": "22 NORTHBROOK DR", "SR_14": 4.0, "Q_14": 5.0, "name": "SEDGEWOOD COMMONS", "SF_14": 5.0, "SF_15": 5.0, "cnty": "Cumberland", "st": "ME", "Zip": 4105.0, "O_14": 5.0, "Q_15": 5.0, "O_15": 5.0, "city": "FALMOUTH", "beds": 65.0, "SR_15": 4.0}, {"Diff_star": 0.0, "addr": "328 NORTH ST", "SR_14": 5.0, "Q_14": 5.0, "name": "EVERGREEN MANOR", "SF_14": 4.0, "SF_15": 4.0, "cnty": "York", "st": "ME", "Zip": 4072.0, "O_14": 5.0, "Q_15": 5.0, "O_15": 5.0, "city": "SACO", "beds": 42.0, "SR_15": 5.0}, {"Diff_star": 0.0, "addr": "58 BARIBEAU DRIVE", "SR_14": 3.0, "Q_14": 4.0, "name": "MID COAST SENIOR HEALTH CENTER", "SF_14": 5.0, "SF_15": 5.0, "cnty": "Cumberland", "st": "ME", "Zip": 4011.0, "O_14": 4.0, "Q_15": 3.0, "O_15": 4.0, "city": "BRUNSWICK", "beds": 42.0, "SR_15": 3.0}, {"Diff_star": 0.0, "addr": "376 MAIN STREET", "SR_14": 2.0, "Q_14": "", "name": "JACKMAN REGIONAL HEALTH CENTER", "SF_14": 5.0, "SF_15": 5.0, "cnty": "Somerset", "st": "ME", "Zip": 4945.0, "O_14": 3.0, "Q_15": "", "O_15": 3.0, "city": "JACKMAN", "beds": 18.0, "SR_15": 2.0}, {"Diff_star": 0.0, "addr": "43 OWENS ST", "SR_14": 5.0, "Q_14": 5.0, "name": "SOMERSET REHABILITATION & LIVING CENTER", "SF_14": 5.0, "SF_15": 5.0, "cnty": "Somerset", "st": "ME", "Zip": 4920.0, "O_14": 5.0, "Q_15": 5.0, "O_15": 5.0, "city": "BINGHAM", "beds": 21.0, "SR_15": 5.0}, {"Diff_star": 0.0, "addr": "50 NEW PORTLAND RD", "SR_14": 3.0, "Q_14": 4.0, "name": "GORHAM HOUSE", "SF_14": 3.0, "SF_15": 3.0, "cnty": "Cumberland", "st": "ME", "Zip": 4038.0, "O_14": 3.0, "Q_15": 4.0, "O_15": 3.0, "city": "GORHAM", "beds": 69.0, "SR_15": 3.0}, {"Diff_star": -1.0, "addr": "107 ORCHARD ST", "SR_14": 4.0, "Q_14": 2.0, "name": "ORCHARD PARK REHAB & LIVING", "SF_14": 5.0, "SF_15": 5.0, "cnty": "Franklin", "st": "ME", "Zip": 4938.0, "O_14": 5.0, "Q_15": 1.0, "O_15": 4.0, "city": "FARMINGTON", "beds": 38.0, "SR_15": 5.0}, {"Diff_star": 0.0, "addr": "96 ROUTE 133", "SR_14": 3.0, "Q_14": 5.0, "name": "WINTHROP MANOR LONGTERM CARE & REHAB CTR", "SF_14": 4.0, "SF_15": 4.0, "cnty": "Kennebec", "st": "ME", "Zip": 4364.0, "O_14": 5.0, "Q_15": 5.0, "O_15": 5.0, "city": "WINTHROP", "beds": 46.0, "SR_15": 3.0}, {"Diff_star": -1.0, "addr": "85 CARON LANE", "SR_14": 4.0, "Q_14": 5.0, "name": "ODD FELLOWS & REBEKAHS' HOME OF MAINE", "SF_14": 4.0, "SF_15": 4.0, "cnty": "Androscoggin", "st": "ME", "Zip": 4210.0, "O_14": 5.0, "Q_15": 4.0, "O_15": 4.0, "city": "AUBURN", "beds": 26.0, "SR_15": 4.0}, {"Diff_star": 0.0, "addr": "11 OCEAN ST", "SR_14": 5.0, "Q_14": 3.0, "name": "SUNRISE CARE FACILITY", "SF_14": 4.0, "SF_15": 4.0, "cnty": "Washington", "st": "ME", "Zip": 4649.0, "O_14": 5.0, "Q_15": 2.0, "O_15": 5.0, "city": "JONESPORT", "beds": 28.0, "SR_15": 5.0}, {"Diff_star": 1.0, "addr": "95 MAIN STREET", "SR_14": 2.0, "Q_14": 4.0, "name": "SANFIELD REHAB & LIVING CENTER", "SF_14": 5.0, "SF_15": 5.0, "cnty": "Somerset", "st": "ME", "Zip": 4943.0, "O_14": 3.0, "Q_15": 5.0, "O_15": 4.0, "city": "HARTLAND", "beds": 23.0, "SR_15": 2.0}, {"Diff_star": -1.0, "addr": "25 BOLDUC AVE", "SR_14": 2.0, "Q_14": 5.0, "name": "FOREST HILL MANOR", "SF_14": 4.0, "SF_15": 4.0, "cnty": "Aroostook", "st": "ME", "Zip": 4743.0, "O_14": 4.0, "Q_15": 4.0, "O_15": 3.0, "city": "FORT KENT", "beds": 45.0, "SR_15": 2.0}, {"Diff_star": -1.0, "addr": "105 MECHANIC ST", "SR_14": 2.0, "Q_14": 2.0, "name": "WINDWARD GARDENS", "SF_14": 5.0, "SF_15": 5.0, "cnty": "Knox", "st": "ME", "Zip": 4843.0, "O_14": 3.0, "Q_15": 1.0, "O_15": 2.0, "city": "CAMDEN", "beds": 58.0, "SR_15": 2.0}, {"Diff_star": 0.0, "addr": "83 HOULTON ROAD", "SR_14": 4.0, "Q_14": 5.0, "name": "MOUNTAIN HEIGHTS HEALTH CARE", "SF_14": 4.0, "SF_15": 4.0, "cnty": "Penobscot", "st": "ME", "Zip": 4765.0, "O_14": 5.0, "Q_15": 5.0, "O_15": 5.0, "city": "PATTEN", "beds": 25.0, "SR_15": 4.0}, {"Diff_star": 0.0, "addr": "477 HIGH ST", "SR_14": 5.0, "Q_14": 4.0, "name": "MAINE VETERANS HOME - SO PARIS", "SF_14": 4.0, "SF_15": 4.0, "cnty": "Oxford", "st": "ME", "Zip": 4281.0, "O_14": 5.0, "Q_15": 4.0, "O_15": 5.0, "city": "SOUTH PARIS", "beds": 62.0, "SR_15": 5.0}, {"Diff_star": 0.0, "addr": "44 HOGAN RD", "SR_14": 3.0, "Q_14": 4.0, "name": "MAINE VETERANS HOME - BANGOR", "SF_14": 4.0, "SF_15": 4.0, "cnty": "Penobscot", "st": "ME", "Zip": 4401.0, "O_14": 4.0, "Q_15": 2.0, "O_15": 4.0, "city": "BANGOR", "beds": 120.0, "SR_15": 3.0}, {"Diff_star": 0.0, "addr": "15 PIPER ROAD", "SR_14": 3.0, "Q_14": 4.0, "name": "PIPER SHORES", "SF_14": 5.0, "SF_15": 5.0, "cnty": "Cumberland", "st": "ME", "Zip": 4074.0, "O_14": 4.0, "Q_15": 3.0, "O_15": 4.0, "city": "SCARBOROUGH", "beds": 40.0, "SR_15": 3.0}]