[{"Diff_star": 0.0, "addr": "701 E MAIN ST", "SR_14": 3.0, "Q_14": 5.0, "name": "OCEANA CO MD CARE FACILITY", "SF_14": 5.0, "SF_15": 5.0, "cnty": "Oceana", "st": "MI", "Zip": 49420.0, "O_14": 5.0, "Q_15": 5.0, "O_15": 5.0, "city": "HART", "beds": 120.0, "SR_15": 3.0}, {"Diff_star": 0.0, "addr": "1505 E PARKDALE AVENUE", "SR_14": 3.0, "Q_14": 4.0, "name": "MANISTEE COUNTY MEDICAL CARE FACILITY", "SF_14": 4.0, "SF_15": 4.0, "cnty": "Manistee", "st": "MI", "Zip": 49660.0, "O_14": 4.0, "Q_15": 3.0, "O_15": 4.0, "city": "MANISTEE", "beds": 107.0, "SR_15": 3.0}, {"Diff_star": 0.0, "addr": "1061 W HACKLEY AVE", "SR_14": 2.0, "Q_14": 4.0, "name": "HEARTLAND HEALTH CARE CENTER-KNOLLVIEW", "SF_14": 2.0, "SF_15": 2.0, "cnty": "Muskegon", "st": "MI", "Zip": 49441.0, "O_14": 2.0, "Q_15": 3.0, "O_15": 2.0, "city": "MUSKEGON", "beds": 107.0, "SR_15": 2.0}, {"Diff_star": -1.0, "addr": "210 MAPLE ST", "SR_14": 2.0, "Q_14": 3.0, "name": "MAPLES BENZIE CO MEDICAL CARE", "SF_14": 5.0, "SF_15": 5.0, "cnty": "Benzie", "st": "MI", "Zip": 49635.0, "O_14": 3.0, "Q_15": 1.0, "O_15": 2.0, "city": "FRANKFORT", "beds": 62.0, "SR_15": 2.0}, {"Diff_star": 0.0, "addr": "825 N CENTER ST", "SR_14": 3.0, "Q_14": 4.0, "name": "OTSEGO MEMORIAL HOSPITAL LTCU", "SF_14": 5.0, "SF_15": 5.0, "cnty": "Otsego", "st": "MI", "Zip": 49735.0, "O_14": 4.0, "Q_15": 4.0, "O_15": 4.0, "city": "GAYLORD", "beds": 34.0, "SR_15": 3.0}, {"Diff_star": 0.0, "addr": "50 SANDERSON LANE", "SR_14": 5.0, "Q_14": 4.0, "name": "MAPLE LAWN MEDICAL CARE FACILI", "SF_14": 4.0, "SF_15": 3.0, "cnty": "Branch", "st": "MI", "Zip": 49036.0, "O_14": 5.0, "Q_15": 3.0, "O_15": 5.0, "city": "COLDWATER", "beds": 114.0, "SR_15": 5.0}, {"Diff_star": -1.0, "addr": "2700 NASHVILLE RD", "SR_14": 4.0, "Q_14": 5.0, "name": "THORNAPPLE MANOR", "SF_14": 4.0, "SF_15": 4.0, "cnty": "Barry", "st": "MI", "Zip": 49058.0, "O_14": 5.0, "Q_15": 5.0, "O_15": 4.0, "city": "HASTINGS", "beds": 161.0, "SR_15": 2.0}, {"Diff_star": 0.0, "addr": "1201 HARRIS AVE", "SR_14": 1.0, "Q_14": 5.0, "name": "IOSCO CO MEDICAL CARE FACILITY", "SF_14": 4.0, "SF_15": 4.0, "cnty": "Iosco", "st": "MI", "Zip": 48763.0, "O_14": 2.0, "Q_15": 5.0, "O_15": 2.0, "city": "TAWAS CITY", "beds": 78.0, "SR_15": 1.0}, {"Diff_star": 0.0, "addr": "441 E MAIN ST", "SR_14": 5.0, "Q_14": 4.0, "name": "FAIRVIEW NURSING AND REHABILITATION COMMUNITY", "SF_14": 3.0, "SF_15": 3.0, "cnty": "St. Joseph", "st": "MI", "Zip": 49032.0, "O_14": 5.0, "Q_15": 4.0, "O_15": 5.0, "city": "CENTREVILLE", "beds": 64.0, "SR_15": 5.0}, {"Diff_star": 1.0, "addr": "25330 WEST SIX MILE ROAD", "SR_14": 2.0, "Q_14": 5.0, "name": "THE VILLAGE OF REDFORD, A SENIOR LIVING COMMUNITY", "SF_14": 4.0, "SF_15": 4.0, "cnty": "Wayne", "st": "MI", "Zip": 48240.0, "O_14": 4.0, "Q_15": 5.0, "O_15": 5.0, "city": "REDFORD", "beds": 88.0, "SR_15": 3.0}, {"Diff_star": 0.0, "addr": "3860 DOBIE RD", "SR_14": 4.0, "Q_14": 5.0, "name": "INGHAM COUNTY MEDICAL CARE FAC", "SF_14": 5.0, "SF_15": 5.0, "cnty": "Ingham", "st": "MI", "Zip": 48864.0, "O_14": 5.0, "Q_15": 3.0, "O_15": 5.0, "city": "OKEMOS", "beds": 236.0, "SR_15": 4.0}, {"Diff_star": 0.0, "addr": "434 W NORTH ST", "SR_14": 1.0, "Q_14": 4.0, "name": "HEARTLAND HEALTH CARE CENTER-JACKSON", "SF_14": 3.0, "SF_15": 3.0, "cnty": "Jackson", "st": "MI", "Zip": 49202.0, "O_14": 1.0, "Q_15": 4.0, "O_15": 1.0, "city": "JACKSON", "beds": 100.0, "SR_15": 1.0}, {"Diff_star": 0.0, "addr": "524 LANSING AVE", "SR_14": 1.0, "Q_14": 4.0, "name": "JACKSON COUNTY MEDICAL CARE FACILITY", "SF_14": 5.0, "SF_15": 5.0, "cnty": "Jackson", "st": "MI", "Zip": 49201.0, "O_14": 2.0, "Q_15": 2.0, "O_15": 2.0, "city": "JACKSON", "beds": 194.0, "SR_15": 1.0}, {"Diff_star": 0.0, "addr": "1200 WRIGHT AVE", "SR_14": 4.0, "Q_14": 5.0, "name": "MICHIGAN MASONIC HOME", "SF_14": 5.0, "SF_15": 5.0, "cnty": "Gratiot", "st": "MI", "Zip": 48801.0, "O_14": 5.0, "Q_15": 5.0, "O_15": 5.0, "city": "ALMA", "beds": 204.0, "SR_15": 4.0}, {"Diff_star": 0.0, "addr": "805 W MIDDLE ST", "SR_14": 4.0, "Q_14": 5.0, "name": "CHELSEA RETIREMENT COMMUNITY", "SF_14": 5.0, "SF_15": 5.0, "cnty": "Washtenaw", "st": "MI", "Zip": 48118.0, "O_14": 5.0, "Q_15": 5.0, "O_15": 5.0, "city": "CHELSEA", "beds": 85.0, "SR_15": 4.0}, {"Diff_star": 0.0, "addr": "600 SE 4TH ST", "SR_14": 4.0, "Q_14": 4.0, "name": "TENDERCARE CLARE", "SF_14": 4.0, "SF_15": 4.0, "cnty": "Clare", "st": "MI", "Zip": 48617.0, "O_14": 4.0, "Q_15": 4.0, "O_15": 4.0, "city": "CLARE", "beds": 100.0, "SR_15": 4.0}, {"Diff_star": -1.0, "addr": "200 E ROOSEVELT", "SR_14": 3.0, "Q_14": 5.0, "name": "HEARTLAND HEALTH CARE CENTER-BATTLE CREEK", "SF_14": 4.0, "SF_15": 4.0, "cnty": "Calhoun", "st": "MI", "Zip": 49017.0, "O_14": 5.0, "Q_15": 4.0, "O_15": 4.0, "city": "BATTLE CREEK", "beds": 65.0, "SR_15": 3.0}, {"Diff_star": 0.0, "addr": "4543 SOUTH M-88 HIGHWAY", "SR_14": 3.0, "Q_14": 5.0, "name": "MEADOW BROOK MEDICAL CARE FACILITY", "SF_14": 5.0, "SF_15": 5.0, "cnty": "Antrim", "st": "MI", "Zip": 49615.0, "O_14": 5.0, "Q_15": 5.0, "O_15": 5.0, "city": "BELLAIRE", "beds": 113.0, "SR_15": 3.0}, {"Diff_star": 0.0, "addr": "402 NORTH STREET", "SR_14": 5.0, "Q_14": 5.0, "name": "GOGEBIC MEDICAL CARE FACILITY", "SF_14": 4.0, "SF_15": 4.0, "cnty": "Gogebic", "st": "MI", "Zip": 49968.0, "O_14": 5.0, "Q_15": 3.0, "O_15": 5.0, "city": "WAKEFIELD", "beds": 109.0, "SR_15": 5.0}, {"Diff_star": 0.0, "addr": "530 W BEECH ST", "SR_14": 4.0, "Q_14": 5.0, "name": "EATON COUNTY MEDICAL CARE FACI", "SF_14": 5.0, "SF_15": 5.0, "cnty": "Eaton", "st": "MI", "Zip": 48813.0, "O_14": 5.0, "Q_15": 5.0, "O_15": 5.0, "city": "CHARLOTTE", "beds": 142.0, "SR_15": 4.0}, {"Diff_star": -2.0, "addr": "1116 S VAN DYKE RD", "SR_14": 3.0, "Q_14": 2.0, "name": "HURON CO MED CARE FACILITY", "SF_14": 3.0, "SF_15": 3.0, "cnty": "Huron", "st": "MI", "Zip": 48413.0, "O_14": 3.0, "Q_15": 1.0, "O_15": 1.0, "city": "BAD AXE", "beds": 112.0, "SR_15": 2.0}, {"Diff_star": -1.0, "addr": "1100 QUINCY ST", "SR_14": 2.0, "Q_14": 2.0, "name": "HOUGHTON CO MED CARE FACILITY", "SF_14": 5.0, "SF_15": 5.0, "cnty": "Houghton", "st": "MI", "Zip": 49930.0, "O_14": 3.0, "Q_15": 1.0, "O_15": 2.0, "city": "HANCOCK", "beds": 197.0, "SR_15": 2.0}, {"Diff_star": 0.0, "addr": "814 E LINCOLN AVE", "SR_14": 4.0, "Q_14": 5.0, "name": "HEARTLAND HEALTH CARE CENTER-IONIA", "SF_14": 3.0, "SF_15": 3.0, "cnty": "Ionia", "st": "MI", "Zip": 48846.0, "O_14": 5.0, "Q_15": 5.0, "O_15": 5.0, "city": "IONIA", "beds": 107.0, "SR_15": 4.0}, {"Diff_star": 0.0, "addr": "750 E MAIN", "SR_14": 1.0, "Q_14": 5.0, "name": "BAY BLUFFS-EMMET CO MED CARE FAC", "SF_14": 5.0, "SF_15": 5.0, "cnty": "Emmet", "st": "MI", "Zip": 49740.0, "O_14": 2.0, "Q_15": 5.0, "O_15": 2.0, "city": "HARBOR SPRINGS", "beds": 120.0, "SR_15": 1.0}, {"Diff_star": 0.0, "addr": "4118 KALAMAZOO AVE S E", "SR_14": 3.0, "Q_14": 3.0, "name": "SPECTRUM HEALTH REHAB AND NURSING CENTER", "SF_14": 4.0, "SF_15": 4.0, "cnty": "Kent", "st": "MI", "Zip": 49508.0, "O_14": 4.0, "Q_15": 2.0, "O_15": 4.0, "city": "GRAND RAPIDS", "beds": 165.0, "SR_15": 3.0}, {"Diff_star": -2.0, "addr": "1480 WALTON BLVD", "SR_14": 2.0, "Q_14": 5.0, "name": "MEDILODGE OF ROCHESTER HILLS, INC", "SF_14": 4.0, "SF_15": 2.0, "cnty": "Oakland", "st": "MI", "Zip": 48309.0, "O_14": 4.0, "Q_15": 4.0, "O_15": 2.0, "city": "ROCHESTER HILLS", "beds": 166.0, "SR_15": 2.0}, {"Diff_star": 0.0, "addr": "1222 NORTH DR", "SR_14": 4.0, "Q_14": 4.0, "name": "ISABELLA CO MEDICAL CARE FACIL", "SF_14": 5.0, "SF_15": 5.0, "cnty": "Isabella", "st": "MI", "Zip": 48858.0, "O_14": 5.0, "Q_15": 2.0, "O_15": 5.0, "city": "MOUNT PLEASANT", "beds": 100.0, "SR_15": 4.0}, {"Diff_star": 0.0, "addr": "2000 LEONARD N E", "SR_14": 5.0, "Q_14": 5.0, "name": "PILGRIM MANOR", "SF_14": 5.0, "SF_15": 5.0, "cnty": "Kent", "st": "MI", "Zip": 49505.0, "O_14": 5.0, "Q_15": 5.0, "O_15": 5.0, "city": "GRAND RAPIDS", "beds": 55.0, "SR_15": 5.0}, {"Diff_star": 0.0, "addr": "3400 WILSON AVE", "SR_14": 3.0, "Q_14": 4.0, "name": "BROOKCREST", "SF_14": 5.0, "SF_15": 5.0, "cnty": "Kent", "st": "MI", "Zip": 49418.0, "O_14": 4.0, "Q_15": 3.0, "O_15": 4.0, "city": "GRANDVILLE", "beds": 130.0, "SR_15": 3.0}, {"Diff_star": 0.0, "addr": "1140 NORTH STATE STREET", "SR_14": 4.0, "Q_14": 3.0, "name": "MACKINAC STRAITS LONG TERM CARE UNIT", "SF_14": 5.0, "SF_15": 5.0, "cnty": "Mackinac", "st": "MI", "Zip": 49781.0, "O_14": 5.0, "Q_15": 2.0, "O_15": 5.0, "city": "SAINT IGNACE", "beds": 48.0, "SR_15": 4.0}, {"Diff_star": 0.0, "addr": "564 W HAMPTON ROAD", "SR_14": 3.0, "Q_14": 5.0, "name": "BAY COUNTY MEDICAL CARE FACILITY", "SF_14": 4.0, "SF_15": 4.0, "cnty": "Bay", "st": "MI", "Zip": 48732.0, "O_14": 5.0, "Q_15": 5.0, "O_15": 5.0, "city": "ESSEXVILLE", "beds": 206.0, "SR_15": 3.0}, {"Diff_star": 0.0, "addr": "2400 PORTAGE ST", "SR_14": 3.0, "Q_14": 4.0, "name": "HAROLD AND GRACE UPJOHN COMMUN", "SF_14": 5.0, "SF_15": 5.0, "cnty": "Kalamazoo", "st": "MI", "Zip": 49001.0, "O_14": 4.0, "Q_15": 3.0, "O_15": 4.0, "city": "KALAMAZOO", "beds": 118.0, "SR_15": 3.0}, {"Diff_star": 0.0, "addr": "418 WASHINGTON AVE", "SR_14": 5.0, "Q_14": 5.0, "name": "SPECTRUM HEALTH REHAB & NSG CTRS-KELSEY HOSPITAL", "SF_14": 5.0, "SF_15": 5.0, "cnty": "Montcalm", "st": "MI", "Zip": 48850.0, "O_14": 5.0, "Q_15": 5.0, "O_15": 5.0, "city": "LAKEVIEW", "beds": 31.0, "SR_15": 5.0}, {"Diff_star": -1.0, "addr": "5500 FORT ST", "SR_14": 3.0, "Q_14": 5.0, "name": "ABERDEEN REHABILITATION AND SKILLED NURSING CENTER", "SF_14": 5.0, "SF_15": 5.0, "cnty": "Wayne", "st": "MI", "Zip": 48183.0, "O_14": 5.0, "Q_15": 5.0, "O_15": 4.0, "city": "TRENTON", "beds": 145.0, "SR_15": 2.0}, {"Diff_star": 0.0, "addr": "111 EVERGREEN", "SR_14": 2.0, "Q_14": 5.0, "name": "EVERGREEN MANOR SENIOR CARE CE", "SF_14": 3.0, "SF_15": 3.0, "cnty": "Calhoun", "st": "MI", "Zip": 49015.0, "O_14": 3.0, "Q_15": 5.0, "O_15": 3.0, "city": "BATTLE CREEK", "beds": 91.0, "SR_15": 2.0}, {"Diff_star": -1.0, "addr": "1202 WEISS ST", "SR_14": 4.0, "Q_14": 5.0, "name": "HOYT NURSING & REHAB CENTRE", "SF_14": 4.0, "SF_15": 3.0, "cnty": "Saginaw", "st": "MI", "Zip": 48602.0, "O_14": 5.0, "Q_15": 4.0, "O_15": 4.0, "city": "SAGINAW", "beds": 128.0, "SR_15": 4.0}, {"Diff_star": 0.0, "addr": "28550 FIVE MILE RD", "SR_14": 2.0, "Q_14": 3.0, "name": "HEARTLAND HEALTH CARE CENTER-LIVONIA", "SF_14": 2.0, "SF_15": 2.0, "cnty": "Wayne", "st": "MI", "Zip": 48154.0, "O_14": 2.0, "Q_15": 2.0, "O_15": 2.0, "city": "LIVONIA", "beds": 142.0, "SR_15": 2.0}, {"Diff_star": 0.0, "addr": "1455 SUNCREST DR", "SR_14": 5.0, "Q_14": 4.0, "name": "LAPEER COUNTY MEDICAL CARE FAC", "SF_14": 4.0, "SF_15": 4.0, "cnty": "Lapeer", "st": "MI", "Zip": 48446.0, "O_14": 5.0, "Q_15": 3.0, "O_15": 5.0, "city": "LAPEER", "beds": 202.0, "SR_15": 5.0}, {"Diff_star": 0.0, "addr": "1728 S PENINSULA ROAD", "SR_14": 4.0, "Q_14": 4.0, "name": "GRANDVUE MEDICAL CARE FACILITY", "SF_14": 5.0, "SF_15": 5.0, "cnty": "Charlevoix", "st": "MI", "Zip": 49727.0, "O_14": 5.0, "Q_15": 4.0, "O_15": 5.0, "city": "EAST JORDAN", "beds": 113.0, "SR_15": 4.0}, {"Diff_star": 0.0, "addr": "700 REYNOLD SWEET PARKWAY", "SR_14": 5.0, "Q_14": 5.0, "name": "SOUTH LYON SENIOR CARE AND REHAB CENTER, L L C", "SF_14": 4.0, "SF_15": 4.0, "cnty": "Oakland", "st": "MI", "Zip": 48178.0, "O_14": 5.0, "Q_15": 5.0, "O_15": 5.0, "city": "SOUTH LYON", "beds": 74.0, "SR_15": 5.0}, {"Diff_star": 0.0, "addr": "729 S NORTON", "SR_14": 4.0, "Q_14": 3.0, "name": "SHIAWASSEE COUNTY MED CARE FAC", "SF_14": 5.0, "SF_15": 5.0, "cnty": "Shiawassee", "st": "MI", "Zip": 48817.0, "O_14": 5.0, "Q_15": 2.0, "O_15": 5.0, "city": "CORUNNA", "beds": 136.0, "SR_15": 4.0}, {"Diff_star": 0.0, "addr": "N15995 MAIN STREET", "SR_14": 3.0, "Q_14": 4.0, "name": "PINECREST MEDICAL CARE FACILITY", "SF_14": 4.0, "SF_15": 4.0, "cnty": "Menominee", "st": "MI", "Zip": 49874.0, "O_14": 4.0, "Q_15": 2.0, "O_15": 4.0, "city": "POWERS", "beds": 140.0, "SR_15": 3.0}, {"Diff_star": 0.0, "addr": "1000 DIANA ST", "SR_14": 4.0, "Q_14": 3.0, "name": "OAKVIEW MEDICAL CARE FACILITY", "SF_14": 4.0, "SF_15": 4.0, "cnty": "Mason", "st": "MI", "Zip": 49431.0, "O_14": 4.0, "Q_15": 2.0, "O_15": 4.0, "city": "LUDINGTON", "beds": 96.0, "SR_15": 4.0}, {"Diff_star": 0.0, "addr": "2770 MAIN ST", "SR_14": 5.0, "Q_14": 4.0, "name": "MARLETTE COMM HOSP LTCU", "SF_14": 4.0, "SF_15": 4.0, "cnty": "Sanilac", "st": "MI", "Zip": 48453.0, "O_14": 5.0, "Q_15": 4.0, "O_15": 5.0, "city": "MARLETTE", "beds": 39.0, "SR_15": 5.0}, {"Diff_star": 0.0, "addr": "750 FULLER AVE NE", "SR_14": 1.0, "Q_14": 3.0, "name": "SPECTRUM HEALTH REHAB & NURSING CENTER-FULLER AVE", "SF_14": 4.0, "SF_15": 4.0, "cnty": "Kent", "st": "MI", "Zip": 49503.0, "O_14": 2.0, "Q_15": 2.0, "O_15": 2.0, "city": "GRAND RAPIDS", "beds": 278.0, "SR_15": 1.0}, {"Diff_star": 0.0, "addr": "4465 W 48TH ST", "SR_14": 2.0, "Q_14": 5.0, "name": "NEWAYGO CO MEDICAL CARE FACILI", "SF_14": 5.0, "SF_15": 5.0, "cnty": "Newaygo", "st": "MI", "Zip": 49412.0, "O_14": 4.0, "Q_15": 5.0, "O_15": 4.0, "city": "FREMONT", "beds": 116.0, "SR_15": 2.0}, {"Diff_star": -1.0, "addr": "493 W 32ND ST", "SR_14": 2.0, "Q_14": 5.0, "name": "HEARTLAND OF HOLLAND", "SF_14": 4.0, "SF_15": 3.0, "cnty": "Ottawa", "st": "MI", "Zip": 49423.0, "O_14": 4.0, "Q_15": 5.0, "O_15": 3.0, "city": "HOLLAND", "beds": 103.0, "SR_15": 2.0}, {"Diff_star": 0.0, "addr": "1000 PAVILIONS CIRCLE", "SR_14": 3.0, "Q_14": 4.0, "name": "GRAND TRAVERSE PAVILIONS", "SF_14": 5.0, "SF_15": 5.0, "cnty": "Grand Traverse", "st": "MI", "Zip": 49684.0, "O_14": 4.0, "Q_15": 2.0, "O_15": 4.0, "city": "TRAVERSE CITY", "beds": 240.0, "SR_15": 3.0}, {"Diff_star": 0.0, "addr": "1285 CLEAVER RD", "SR_14": 5.0, "Q_14": 5.0, "name": "TUSCOLA COUNTY MEDICAL CARE FACILITY", "SF_14": 4.0, "SF_15": 4.0, "cnty": "Tuscola", "st": "MI", "Zip": 48723.0, "O_14": 5.0, "Q_15": 5.0, "O_15": 5.0, "city": "CARO", "beds": 159.0, "SR_15": 5.0}, {"Diff_star": 0.0, "addr": "460 PEARL ST", "SR_14": 2.0, "Q_14": 5.0, "name": "THE LAKEVIEW OF CADILLAC", "SF_14": 4.0, "SF_15": 4.0, "cnty": "Wexford", "st": "MI", "Zip": 49601.0, "O_14": 4.0, "Q_15": 5.0, "O_15": 4.0, "city": "CADILLAC", "beds": 115.0, "SR_15": 2.0}, {"Diff_star": 0.0, "addr": "8045 E JEFFERSON AVE", "SR_14": 3.0, "Q_14": 5.0, "name": "AMBASSADOR NURSING AND REHABILITATION CENTER", "SF_14": 3.0, "SF_15": 3.0, "cnty": "Wayne", "st": "MI", "Zip": 48214.0, "O_14": 4.0, "Q_15": 5.0, "O_15": 4.0, "city": "DETROIT", "beds": 176.0, "SR_15": 3.0}, {"Diff_star": 0.0, "addr": "2320 E BELTLINE SE", "SR_14": 2.0, "Q_14": 5.0, "name": "HEARTLAND HEALTH CARE CENTER-GRAND RAPIDS", "SF_14": 4.0, "SF_15": 4.0, "cnty": "Kent", "st": "MI", "Zip": 49546.0, "O_14": 4.0, "Q_15": 5.0, "O_15": 4.0, "city": "GRAND RAPIDS", "beds": 182.0, "SR_15": 2.0}, {"Diff_star": -1.0, "addr": "21401 MACK AVE", "SR_14": 2.0, "Q_14": 5.0, "name": "HEARTLAND HEALTH CARE CENTER - GROSSE POINTE WOODS", "SF_14": 4.0, "SF_15": 4.0, "cnty": "Wayne", "st": "MI", "Zip": 48236.0, "O_14": 4.0, "Q_15": 2.0, "O_15": 3.0, "city": "GROSSE POINTE WOODS", "beds": 80.0, "SR_15": 2.0}, {"Diff_star": 0.0, "addr": "4322 MACKINAW ROAD", "SR_14": 3.0, "Q_14": 4.0, "name": "SAGINAW SENIOR CARE AND REHAB CENTER, L L C", "SF_14": 4.0, "SF_15": 4.0, "cnty": "Saginaw", "st": "MI", "Zip": 48603.0, "O_14": 4.0, "Q_15": 4.0, "O_15": 4.0, "city": "SAGINAW", "beds": 71.0, "SR_15": 3.0}, {"Diff_star": 0.0, "addr": "3625 W MICHIGAN AVE", "SR_14": 2.0, "Q_14": 5.0, "name": "HEARTLAND HEALTH CARE CENTER-KALAMAZOO", "SF_14": 5.0, "SF_15": 5.0, "cnty": "Kalamazoo", "st": "MI", "Zip": 49006.0, "O_14": 4.0, "Q_15": 5.0, "O_15": 4.0, "city": "KALAMAZOO", "beds": 143.0, "SR_15": 2.0}, {"Diff_star": -1.0, "addr": "1684 VULCAN ST", "SR_14": 1.0, "Q_14": 4.0, "name": "LAKE WOODS NURSING & REHABILITATION CENTER", "SF_14": 4.0, "SF_15": 3.0, "cnty": "Muskegon", "st": "MI", "Zip": 49442.0, "O_14": 2.0, "Q_15": 3.0, "O_15": 1.0, "city": "MUSKEGON", "beds": 90.0, "SR_15": 1.0}, {"Diff_star": 0.0, "addr": "15475 MIDDLEBELT RD", "SR_14": 5.0, "Q_14": 5.0, "name": "MARYCREST MANOR", "SF_14": 4.0, "SF_15": 4.0, "cnty": "Wayne", "st": "MI", "Zip": 48154.0, "O_14": 5.0, "Q_15": 5.0, "O_15": 5.0, "city": "LIVONIA", "beds": 55.0, "SR_15": 5.0}, {"Diff_star": 0.0, "addr": "8750 E MONROE RD", "SR_14": 1.0, "Q_14": 5.0, "name": "DURAND SENIOR CARE AND REHAB CENTER, L L C", "SF_14": 4.0, "SF_15": 4.0, "cnty": "Shiawassee", "st": "MI", "Zip": 48429.0, "O_14": 2.0, "Q_15": 5.0, "O_15": 2.0, "city": "DURAND", "beds": 141.0, "SR_15": 1.0}, {"Diff_star": -2.0, "addr": "540 SUNNYSIDE DR", "SR_14": 2.0, "Q_14": 5.0, "name": "HEARTLAND HEALTH CARE CENTER-FOSTRIAN", "SF_14": 4.0, "SF_15": 4.0, "cnty": "Genesee", "st": "MI", "Zip": 48433.0, "O_14": 4.0, "Q_15": 5.0, "O_15": 2.0, "city": "FLUSHING", "beds": 140.0, "SR_15": 1.0}, {"Diff_star": 0.0, "addr": "2901 GALAXY DR", "SR_14": 1.0, "Q_14": 4.0, "name": "HEARTLAND HEALTH CARE CENTER-SAGINAW", "SF_14": 4.0, "SF_15": 4.0, "cnty": "Saginaw", "st": "MI", "Zip": 48601.0, "O_14": 2.0, "Q_15": 4.0, "O_15": 2.0, "city": "SAGINAW", "beds": 103.0, "SR_15": 1.0}, {"Diff_star": 0.0, "addr": "615 S BOWER ST", "SR_14": 4.0, "Q_14": 4.0, "name": "SPECTRUM HEALTH REHAB & NSG CTRS-UNITED HOSPITAL", "SF_14": 5.0, "SF_15": 5.0, "cnty": "Montcalm", "st": "MI", "Zip": 48838.0, "O_14": 5.0, "Q_15": 4.0, "O_15": 5.0, "city": "GREENVILLE", "beds": 39.0, "SR_15": 4.0}, {"Diff_star": 0.0, "addr": "832 SICOTTE ST", "SR_14": 3.0, "Q_14": 3.0, "name": "BAYSIDE VILLAGE", "SF_14": 5.0, "SF_15": 5.0, "cnty": "Baraga", "st": "MI", "Zip": 49946.0, "O_14": 4.0, "Q_15": 3.0, "O_15": 4.0, "city": "L' ANSE", "beds": 59.0, "SR_15": 3.0}, {"Diff_star": 0.0, "addr": "520 MAIN ST", "SR_14": 4.0, "Q_14": 1.0, "name": "SCHOOLCRAFT MEDICAL CARE FACILITY", "SF_14": 4.0, "SF_15": 4.0, "cnty": "Schoolcraft", "st": "MI", "Zip": 49854.0, "O_14": 3.0, "Q_15": 1.0, "O_15": 3.0, "city": "MANISTIQUE", "beds": 80.0, "SR_15": 4.0}, {"Diff_star": 0.0, "addr": "3340 HOSPITAL RD", "SR_14": 1.0, "Q_14": 5.0, "name": "HEALTHSOURCE SAGINAW, INC", "SF_14": 3.0, "SF_15": 3.0, "cnty": "Saginaw", "st": "MI", "Zip": 48608.0, "O_14": 2.0, "Q_15": 4.0, "O_15": 2.0, "city": "SAGINAW", "beds": 213.0, "SR_15": 2.0}, {"Diff_star": -1.0, "addr": "43533 ELIZABETH RD", "SR_14": 1.0, "Q_14": 3.0, "name": "MARTHA T BERRY MEDICAL CARE FACILITY", "SF_14": 4.0, "SF_15": 4.0, "cnty": "Macomb", "st": "MI", "Zip": 48043.0, "O_14": 2.0, "Q_15": 1.0, "O_15": 1.0, "city": "MOUNT CLEMENS", "beds": 217.0, "SR_15": 1.0}, {"Diff_star": 0.0, "addr": "137 N ELK ST", "SR_14": 4.0, "Q_14": 3.0, "name": "SANILAC MEDICAL CARE FACILITY", "SF_14": 4.0, "SF_15": 4.0, "cnty": "Sanilac", "st": "MI", "Zip": 48471.0, "O_14": 4.0, "Q_15": 2.0, "O_15": 4.0, "city": "SANDUSKY", "beds": 104.0, "SR_15": 4.0}, {"Diff_star": 0.0, "addr": "601 SEVENTH STREET", "SR_14": 3.0, "Q_14": 5.0, "name": "ASPIRUS ONTONAGON HOSPITAL, INC", "SF_14": 3.0, "SF_15": 3.0, "cnty": "Ontonagon", "st": "MI", "Zip": 49953.0, "O_14": 4.0, "Q_15": 5.0, "O_15": 4.0, "city": "ONTONAGON", "beds": 46.0, "SR_15": 3.0}, {"Diff_star": 0.0, "addr": "4368 CLEVELAND AVE", "SR_14": 3.0, "Q_14": 4.0, "name": "PINE RIDGE - A REHABILITATION AND NURSING CENTER", "SF_14": 5.0, "SF_15": 5.0, "cnty": "Berrien", "st": "MI", "Zip": 49127.0, "O_14": 4.0, "Q_15": 3.0, "O_15": 4.0, "city": "STEVENSVILLE", "beds": 111.0, "SR_15": 3.0}, {"Diff_star": 0.0, "addr": "8481 HOLLY RD", "SR_14": 1.0, "Q_14": 4.0, "name": "GENESYS CONVALESCENT CTR-GRAND", "SF_14": 5.0, "SF_15": 5.0, "cnty": "Genesee", "st": "MI", "Zip": 48439.0, "O_14": 2.0, "Q_15": 3.0, "O_15": 2.0, "city": "GRAND BLANC", "beds": 140.0, "SR_15": 1.0}, {"Diff_star": 0.0, "addr": "575 N MADISON ST", "SR_14": 1.0, "Q_14": 4.0, "name": "MARSHALL NURSING AND REHABILITATION COMMUNITY", "SF_14": 1.0, "SF_15": 1.0, "cnty": "Calhoun", "st": "MI", "Zip": 49068.0, "O_14": 1.0, "Q_15": 3.0, "O_15": 1.0, "city": "MARSHALL", "beds": 60.0, "SR_15": 1.0}, {"Diff_star": -1.0, "addr": "500 W GENESEE", "SR_14": 1.0, "Q_14": 5.0, "name": "TENDERCARE HC OF FRANKENMUTH", "SF_14": 2.0, "SF_15": 2.0, "cnty": "Saginaw", "st": "MI", "Zip": 48734.0, "O_14": 2.0, "Q_15": 3.0, "O_15": 1.0, "city": "FRANKENMUTH", "beds": 105.0, "SR_15": 1.0}, {"Diff_star": 0.0, "addr": "4554 W 48TH ST", "SR_14": 2.0, "Q_14": 4.0, "name": "TRANSITIONAL HEALTH SERVICES OF FREMONT", "SF_14": 1.0, "SF_15": 1.0, "cnty": "Newaygo", "st": "MI", "Zip": 49412.0, "O_14": 1.0, "Q_15": 2.0, "O_15": 1.0, "city": "FREMONT", "beds": 129.0, "SR_15": 2.0}, {"Diff_star": 0.0, "addr": "6700 W OUTER DR", "SR_14": 1.0, "Q_14": 5.0, "name": "HARTFORD NURSING & REHABILITATION CENTER", "SF_14": 3.0, "SF_15": 3.0, "cnty": "Wayne", "st": "MI", "Zip": 48235.0, "O_14": 2.0, "Q_15": 5.0, "O_15": 2.0, "city": "DETROIT", "beds": 140.0, "SR_15": 1.0}, {"Diff_star": 0.0, "addr": "2525 7TH AVENUE SOUTH", "SR_14": 5.0, "Q_14": 5.0, "name": "CHRISTIAN PARK VILLAGE", "SF_14": 4.0, "SF_15": 4.0, "cnty": "Delta", "st": "MI", "Zip": 49829.0, "O_14": 5.0, "Q_15": 5.0, "O_15": 5.0, "city": "ESCANABA", "beds": 59.0, "SR_15": 5.0}, {"Diff_star": -1.0, "addr": "730 KIMOLE LN", "SR_14": 2.0, "Q_14": 5.0, "name": "LYNWOOD MANOR HEALTHCARE CENTER", "SF_14": 3.0, "SF_15": 3.0, "cnty": "Lenawee", "st": "MI", "Zip": 49221.0, "O_14": 3.0, "Q_15": 4.0, "O_15": 2.0, "city": "ADRIAN", "beds": 84.0, "SR_15": 2.0}, {"Diff_star": -1.0, "addr": "3011 N CENTER RD", "SR_14": 2.0, "Q_14": 5.0, "name": "HEARTLAND HEALTH CARE CENTER-BRIARWOOD", "SF_14": 3.0, "SF_15": 3.0, "cnty": "Genesee", "st": "MI", "Zip": 48506.0, "O_14": 3.0, "Q_15": 4.0, "O_15": 2.0, "city": "FLINT", "beds": 117.0, "SR_15": 2.0}, {"Diff_star": -1.0, "addr": "31155 DEQUINDRE", "SR_14": 2.0, "Q_14": 5.0, "name": "CAMBRIDGE EAST HEALTHCARE CENT", "SF_14": 3.0, "SF_15": 3.0, "cnty": "Oakland", "st": "MI", "Zip": 48071.0, "O_14": 3.0, "Q_15": 4.0, "O_15": 2.0, "city": "MADISON HEIGHTS", "beds": 154.0, "SR_15": 2.0}, {"Diff_star": 0.0, "addr": "805 W CEDAR", "SR_14": 3.0, "Q_14": 3.0, "name": "SAINT MARY'S STANDISH COMMUNITY HOSPITAL", "SF_14": 4.0, "SF_15": 4.0, "cnty": "Arenac", "st": "MI", "Zip": 48658.0, "O_14": 4.0, "Q_15": 2.0, "O_15": 4.0, "city": "STANDISH", "beds": 39.0, "SR_15": 3.0}, {"Diff_star": 0.0, "addr": "140 W MECHANIC ST", "SR_14": 3.0, "Q_14": 4.0, "name": "HILLSDALE CO MEDICAL CARE FACI", "SF_14": 4.0, "SF_15": 4.0, "cnty": "Hillsdale", "st": "MI", "Zip": 49242.0, "O_14": 4.0, "Q_15": 2.0, "O_15": 4.0, "city": "HILLSDALE", "beds": 170.0, "SR_15": 3.0}, {"Diff_star": -1.0, "addr": "1100 MICHIGAN AVE", "SR_14": 3.0, "Q_14": 5.0, "name": "MERCY HOSPITAL- GRAYLING LTCU", "SF_14": 4.0, "SF_15": 3.0, "cnty": "Crawford", "st": "MI", "Zip": 49738.0, "O_14": 5.0, "Q_15": 5.0, "O_15": 4.0, "city": "GRAYLING", "beds": 39.0, "SR_15": 3.0}, {"Diff_star": -1.0, "addr": "1890 APPLE AVE", "SR_14": 1.0, "Q_14": 2.0, "name": "BROOKHAVEN MEDICAL CARE FACILI", "SF_14": 4.0, "SF_15": 3.0, "cnty": "Muskegon", "st": "MI", "Zip": 49442.0, "O_14": 2.0, "Q_15": 1.0, "O_15": 1.0, "city": "MUSKEGON", "beds": 160.0, "SR_15": 1.0}, {"Diff_star": 0.0, "addr": "300 NORTH PATTERSON RD", "SR_14": 3.0, "Q_14": 5.0, "name": "SPECTRUM HEALTH - REED CITY CA", "SF_14": 4.0, "SF_15": 4.0, "cnty": "Osceola", "st": "MI", "Zip": 49677.0, "O_14": 5.0, "Q_15": 5.0, "O_15": 5.0, "city": "REED CITY", "beds": 50.0, "SR_15": 3.0}, {"Diff_star": 0.0, "addr": "916 E LEWIS ST", "SR_14": 3.0, "Q_14": 4.0, "name": "HEARTLAND HEALTH CARE CENTER-WHITEHALL", "SF_14": 2.0, "SF_15": 2.0, "cnty": "Muskegon", "st": "MI", "Zip": 49461.0, "O_14": 3.0, "Q_15": 4.0, "O_15": 3.0, "city": "WHITEHALL", "beds": 125.0, "SR_15": 3.0}, {"Diff_star": 0.0, "addr": "18901 MEYERS RD", "SR_14": 3.0, "Q_14": 5.0, "name": "OAKPOINTE SENIOR CARE AND REHAB CENTER", "SF_14": 1.0, "SF_15": 1.0, "cnty": "Wayne", "st": "MI", "Zip": 48235.0, "O_14": 3.0, "Q_15": 5.0, "O_15": 3.0, "city": "DETROIT", "beds": 133.0, "SR_15": 3.0}, {"Diff_star": 0.0, "addr": "124 W 4TH STREET", "SR_14": 4.0, "Q_14": 4.0, "name": "TENDERCARE HEALTH CENTER OF LEELANAU", "SF_14": 4.0, "SF_15": 4.0, "cnty": "Leelanau", "st": "MI", "Zip": 49682.0, "O_14": 4.0, "Q_15": 4.0, "O_15": 4.0, "city": "SUTTONS BAY", "beds": 72.0, "SR_15": 4.0}, {"Diff_star": 0.0, "addr": "3265 122ND AVE R2", "SR_14": 4.0, "Q_14": 4.0, "name": "ALLEGAN COUNTY MEDICAL CARE FA", "SF_14": 5.0, "SF_15": 5.0, "cnty": "Allegan", "st": "MI", "Zip": 49010.0, "O_14": 5.0, "Q_15": 4.0, "O_15": 5.0, "city": "ALLEGAN", "beds": 70.0, "SR_15": 4.0}, {"Diff_star": -1.0, "addr": "535 N MAIN", "SR_14": 2.0, "Q_14": 5.0, "name": "CAMBRIDGE NORTH HEALTHCARE CEN", "SF_14": 2.0, "SF_15": 2.0, "cnty": "Oakland", "st": "MI", "Zip": 48017.0, "O_14": 3.0, "Q_15": 3.0, "O_15": 2.0, "city": "CLAWSON", "beds": 120.0, "SR_15": 2.0}, {"Diff_star": -1.0, "addr": "2975 N ADAMS ROAD", "SR_14": 3.0, "Q_14": 5.0, "name": "HEARTLAND HEALTH CARE CENTER-BLOOMFIELD HILLS", "SF_14": 5.0, "SF_15": 5.0, "cnty": "Oakland", "st": "MI", "Zip": 48304.0, "O_14": 5.0, "Q_15": 4.0, "O_15": 4.0, "city": "BLOOMFIELD HILLS", "beds": 159.0, "SR_15": 3.0}, {"Diff_star": 0.0, "addr": "1200 EARHART RD", "SR_14": 2.0, "Q_14": 5.0, "name": "CARE AND REHABILITATION CENTER AT GLACIER HILLS", "SF_14": 4.0, "SF_15": 4.0, "cnty": "Washtenaw", "st": "MI", "Zip": 48105.0, "O_14": 4.0, "Q_15": 5.0, "O_15": 4.0, "city": "ANN ARBOR", "beds": 161.0, "SR_15": 2.0}, {"Diff_star": 0.0, "addr": "200 SAND CREEK HWY", "SR_14": 5.0, "Q_14": 5.0, "name": "LENAWEE MEDICAL CARE FACILITY", "SF_14": 4.0, "SF_15": 4.0, "cnty": "Lenawee", "st": "MI", "Zip": 49221.0, "O_14": 5.0, "Q_15": 5.0, "O_15": 5.0, "city": "ADRIAN", "beds": 136.0, "SR_15": 5.0}, {"Diff_star": -1.0, "addr": "1971 N MONROE STREET", "SR_14": 4.0, "Q_14": 5.0, "name": "FOUNTAIN VIEW OF MONROE", "SF_14": 4.0, "SF_15": 3.0, "cnty": "Monroe", "st": "MI", "Zip": 48162.0, "O_14": 5.0, "Q_15": 4.0, "O_15": 4.0, "city": "MONROE", "beds": 119.0, "SR_15": 4.0}, {"Diff_star": 0.0, "addr": "11941 BELSAY RD", "SR_14": 1.0, "Q_14": 1.0, "name": "GRAND BLANC REHABILITATION & NURSING CENTER", "SF_14": 4.0, "SF_15": 4.0, "cnty": "Genesee", "st": "MI", "Zip": 48439.0, "O_14": 1.0, "Q_15": 1.0, "O_15": 1.0, "city": "GRAND BLANC", "beds": 157.0, "SR_15": 1.0}, {"Diff_star": 0.0, "addr": "38410 CHERRY HILL RD", "SR_14": 1.0, "Q_14": 2.0, "name": "HOPE HEALTHCARE CENTER", "SF_14": 3.0, "SF_15": 3.0, "cnty": "Wayne", "st": "MI", "Zip": 48185.0, "O_14": 1.0, "Q_15": 2.0, "O_15": 1.0, "city": "WESTLAND", "beds": 129.0, "SR_15": 1.0}, {"Diff_star": 0.0, "addr": "1215 N TELEGRAPH RD", "SR_14": 1.0, "Q_14": 4.0, "name": "MAGNUMCARE OF MONROE", "SF_14": 4.0, "SF_15": 4.0, "cnty": "Monroe", "st": "MI", "Zip": 48162.0, "O_14": 2.0, "Q_15": 2.0, "O_15": 2.0, "city": "MONROE", "beds": 131.0, "SR_15": 1.0}, {"Diff_star": 0.0, "addr": "9500 GRAND RIVER AVE", "SR_14": 1.0, "Q_14": 5.0, "name": "HERITAGE MANOR NURSING AND REHAB CENTER, LLC", "SF_14": 4.0, "SF_15": 1.0, "cnty": "Wayne", "st": "MI", "Zip": 48204.0, "O_14": 2.0, "Q_15": 5.0, "O_15": 2.0, "city": "DETROIT", "beds": 122.0, "SR_15": 2.0}, {"Diff_star": 0.0, "addr": "2700 BURCHAM DRIVE", "SR_14": 2.0, "Q_14": 5.0, "name": "BURCHAM HILLS RETIREMENT CTR", "SF_14": 5.0, "SF_15": 5.0, "cnty": "Ingham", "st": "MI", "Zip": 48823.0, "O_14": 4.0, "Q_15": 5.0, "O_15": 4.0, "city": "EAST LANSING", "beds": 133.0, "SR_15": 2.0}, {"Diff_star": -1.0, "addr": "1150 E MICHIGAN AVE", "SR_14": 3.0, "Q_14": 5.0, "name": "CALHOUN COUNTY MEDICAL CARE FACILITY", "SF_14": 4.0, "SF_15": 4.0, "cnty": "Calhoun", "st": "MI", "Zip": 49014.0, "O_14": 5.0, "Q_15": 4.0, "O_15": 4.0, "city": "BATTLE CREEK", "beds": 120.0, "SR_15": 3.0}, {"Diff_star": -1.0, "addr": "440 W RUSSELL", "SR_14": 3.0, "Q_14": 2.0, "name": "EVANGELICAL HOME - SALINE", "SF_14": 5.0, "SF_15": 5.0, "cnty": "Washtenaw", "st": "MI", "Zip": 48176.0, "O_14": 4.0, "Q_15": 1.0, "O_15": 3.0, "city": "SALINE", "beds": 215.0, "SR_15": 3.0}, {"Diff_star": 0.0, "addr": "464 E GRAND BLVD", "SR_14": 1.0, "Q_14": 5.0, "name": "BOULEVARD MANOR, LLC", "SF_14": 4.0, "SF_15": 4.0, "cnty": "Wayne", "st": "MI", "Zip": 48207.0, "O_14": 2.0, "Q_15": 5.0, "O_15": 2.0, "city": "DETROIT", "beds": 87.0, "SR_15": 1.0}, {"Diff_star": 0.0, "addr": "2950 LAFRANIER RD", "SR_14": 2.0, "Q_14": 4.0, "name": "TENDERCARE HEALTH CENTER-BIRCHWOOD", "SF_14": 4.0, "SF_15": 4.0, "cnty": "Grand Traverse", "st": "MI", "Zip": 49686.0, "O_14": 3.0, "Q_15": 3.0, "O_15": 3.0, "city": "TRAVERSE CITY", "beds": 125.0, "SR_15": 2.0}, {"Diff_star": 0.0, "addr": "2415 5TH AVE SOUTH", "SR_14": 4.0, "Q_14": 3.0, "name": "CHRISTIAN PARK HEALTH CARE CENTER", "SF_14": 3.0, "SF_15": 3.0, "cnty": "Delta", "st": "MI", "Zip": 49829.0, "O_14": 4.0, "Q_15": 2.0, "O_15": 4.0, "city": "ESCANABA", "beds": 99.0, "SR_15": 4.0}, {"Diff_star": -1.0, "addr": "3615 E ASHMAN ST", "SR_14": 3.0, "Q_14": 3.0, "name": "BRITTANY MANOR", "SF_14": 4.0, "SF_15": 4.0, "cnty": "Midland", "st": "MI", "Zip": 48642.0, "O_14": 4.0, "Q_15": 1.0, "O_15": 3.0, "city": "MIDLAND", "beds": 133.0, "SR_15": 3.0}, {"Diff_star": 1.0, "addr": "1400 N DRAKE RD", "SR_14": 2.0, "Q_14": 5.0, "name": "FRIENDSHIP VILLAGE", "SF_14": 4.0, "SF_15": 4.0, "cnty": "Kalamazoo", "st": "MI", "Zip": 49006.0, "O_14": 4.0, "Q_15": 5.0, "O_15": 5.0, "city": "KALAMAZOO", "beds": 57.0, "SR_15": 3.0}, {"Diff_star": 0.0, "addr": "915 N RIVER RD", "SR_14": 4.0, "Q_14": 5.0, "name": "ST FRANCIS HOME", "SF_14": 4.0, "SF_15": 4.0, "cnty": "Saginaw", "st": "MI", "Zip": 48609.0, "O_14": 5.0, "Q_15": 5.0, "O_15": 5.0, "city": "SAGINAW", "beds": 100.0, "SR_15": 4.0}, {"Diff_star": 0.0, "addr": "3161 DAVENPORT", "SR_14": 3.0, "Q_14": 5.0, "name": "LUTHER MANOR NURSING HOME", "SF_14": 4.0, "SF_15": 4.0, "cnty": "Saginaw", "st": "MI", "Zip": 48602.0, "O_14": 5.0, "Q_15": 5.0, "O_15": 5.0, "city": "SAGINAW", "beds": 98.0, "SR_15": 3.0}, {"Diff_star": 0.0, "addr": "2300 WATKINS LAKE RD", "SR_14": 4.0, "Q_14": 4.0, "name": "LOURDES NURSING HOME", "SF_14": 4.0, "SF_15": 4.0, "cnty": "Oakland", "st": "MI", "Zip": 48328.0, "O_14": 4.0, "Q_15": 3.0, "O_15": 4.0, "city": "WATERFORD", "beds": 108.0, "SR_15": 4.0}, {"Diff_star": 0.0, "addr": "350 N CENTER ST", "SR_14": 2.0, "Q_14": 4.0, "name": "LAURELS OF KENT (THE)", "SF_14": 3.0, "SF_15": 3.0, "cnty": "Kent", "st": "MI", "Zip": 49331.0, "O_14": 2.0, "Q_15": 4.0, "O_15": 2.0, "city": "LOWELL", "beds": 153.0, "SR_15": 2.0}, {"Diff_star": 0.0, "addr": "2251 SPRINGPORT RD", "SR_14": 2.0, "Q_14": 5.0, "name": "VISTA GRANDE VILLA", "SF_14": 5.0, "SF_15": 5.0, "cnty": "Jackson", "st": "MI", "Zip": 49202.0, "O_14": 4.0, "Q_15": 5.0, "O_15": 4.0, "city": "JACKSON", "beds": 60.0, "SR_15": 2.0}, {"Diff_star": -1.0, "addr": "4000 N MICHIGAN ROAD", "SR_14": 1.0, "Q_14": 3.0, "name": "DIMONDALE NURSING CARE CENTER", "SF_14": 4.0, "SF_15": 4.0, "cnty": "Eaton", "st": "MI", "Zip": 48821.0, "O_14": 2.0, "Q_15": 1.0, "O_15": 1.0, "city": "DIMONDALE", "beds": 150.0, "SR_15": 1.0}, {"Diff_star": 1.0, "addr": "1523 U S HIGHWAY 2", "SR_14": 2.0, "Q_14": 4.0, "name": "IRON CO MEDICAL CARE FACILITY", "SF_14": 5.0, "SF_15": 5.0, "cnty": "Iron", "st": "MI", "Zip": 49920.0, "O_14": 3.0, "Q_15": 2.0, "O_15": 4.0, "city": "CRYSTAL FALLS", "beds": 200.0, "SR_15": 3.0}, {"Diff_star": 0.0, "addr": "11525 E TEN MILE RD", "SR_14": 2.0, "Q_14": 4.0, "name": "WARREN WOODS HEALTH AND REHABILITATION CENTER", "SF_14": 1.0, "SF_15": 1.0, "cnty": "Macomb", "st": "MI", "Zip": 48089.0, "O_14": 1.0, "Q_15": 2.0, "O_15": 1.0, "city": "WARREN", "beds": 178.0, "SR_15": 1.0}, {"Diff_star": -1.0, "addr": "1901 N TELEGRAPH RD", "SR_14": 4.0, "Q_14": 4.0, "name": "REGENCY AT WATERFORD", "SF_14": 3.0, "SF_15": 3.0, "cnty": "Oakland", "st": "MI", "Zip": 48328.0, "O_14": 4.0, "Q_15": 3.0, "O_15": 3.0, "city": "WATERFORD", "beds": 120.0, "SR_15": 3.0}, {"Diff_star": 0.0, "addr": "1700 LEONARD ST N E", "SR_14": 2.0, "Q_14": 5.0, "name": "HEARTLAND HEALTH CARE CENTER-GREENVIEW", "SF_14": 3.0, "SF_15": 3.0, "cnty": "Kent", "st": "MI", "Zip": 49505.0, "O_14": 3.0, "Q_15": 5.0, "O_15": 3.0, "city": "GRAND RAPIDS", "beds": 69.0, "SR_15": 2.0}, {"Diff_star": 0.0, "addr": "3310 W COMMERCE RD", "SR_14": 5.0, "Q_14": 5.0, "name": "WEST HICKORY HAVEN", "SF_14": 4.0, "SF_15": 4.0, "cnty": "Oakland", "st": "MI", "Zip": 48380.0, "O_14": 5.0, "Q_15": 5.0, "O_15": 5.0, "city": "MILFORD", "beds": 101.0, "SR_15": 5.0}, {"Diff_star": -1.0, "addr": "14151 E 15 MILE RD", "SR_14": 2.0, "Q_14": 5.0, "name": "MEDILODGE OF STERLING HEIGHTS", "SF_14": 2.0, "SF_15": 2.0, "cnty": "Macomb", "st": "MI", "Zip": 48312.0, "O_14": 3.0, "Q_15": 4.0, "O_15": 2.0, "city": "STERLING HEIGHTS", "beds": 295.0, "SR_15": 2.0}, {"Diff_star": 0.0, "addr": "1200 ELY ST", "SR_14": 1.0, "Q_14": 5.0, "name": "ELY MANOR", "SF_14": 3.0, "SF_15": 3.0, "cnty": "Allegan", "st": "MI", "Zip": 49010.0, "O_14": 2.0, "Q_15": 5.0, "O_15": 2.0, "city": "ALLEGAN", "beds": 101.0, "SR_15": 1.0}, {"Diff_star": -1.0, "addr": "15400 TRENTON ROAD", "SR_14": 3.0, "Q_14": 4.0, "name": "MANOR OF SOUTHGATE SKILLED NURSING & REHAB", "SF_14": 4.0, "SF_15": 3.0, "cnty": "Wayne", "st": "MI", "Zip": 48195.0, "O_14": 4.0, "Q_15": 3.0, "O_15": 3.0, "city": "SOUTHGATE", "beds": 100.0, "SR_15": 3.0}, {"Diff_star": 0.0, "addr": "1225 WOODWARD AVENUE", "SR_14": 3.0, "Q_14": 5.0, "name": "MANORCARE NURSING AND REHABILITATION CENTER", "SF_14": 3.0, "SF_15": 3.0, "cnty": "Dickinson", "st": "MI", "Zip": 49801.0, "O_14": 4.0, "Q_15": 5.0, "O_15": 4.0, "city": "KINGSFORD", "beds": 107.0, "SR_15": 3.0}, {"Diff_star": -1.0, "addr": "725 W GENESEE", "SR_14": 2.0, "Q_14": 2.0, "name": "WELLSPRING LUTHERAN SERVICES", "SF_14": 4.0, "SF_15": 4.0, "cnty": "Saginaw", "st": "MI", "Zip": 48734.0, "O_14": 3.0, "Q_15": 1.0, "O_15": 2.0, "city": "FRANKENMUTH", "beds": 112.0, "SR_15": 2.0}, {"Diff_star": -1.0, "addr": "850 PHILLIPS", "SR_14": 1.0, "Q_14": 5.0, "name": "SOUTH HAVEN NURSING AND REHABILITATION COMMUNITY", "SF_14": 2.0, "SF_15": 2.0, "cnty": "Van Buren", "st": "MI", "Zip": 49090.0, "O_14": 2.0, "Q_15": 4.0, "O_15": 1.0, "city": "SOUTH HAVEN", "beds": 70.0, "SR_15": 1.0}, {"Diff_star": 0.0, "addr": "1236 S MONROE ST", "SR_14": 3.0, "Q_14": 4.0, "name": "WELLSPRING LUTHERAN  NURSING AND REHAB SERVICES", "SF_14": 4.0, "SF_15": 4.0, "cnty": "Monroe", "st": "MI", "Zip": 48161.0, "O_14": 4.0, "Q_15": 2.0, "O_15": 4.0, "city": "MONROE", "beds": 122.0, "SR_15": 3.0}, {"Diff_star": 0.0, "addr": "5091 WILLOUGHBY ROAD", "SR_14": 2.0, "Q_14": 4.0, "name": "HOLT SENIOR CARE AND REHAB CENTER, L L C", "SF_14": 3.0, "SF_15": 3.0, "cnty": "Ingham", "st": "MI", "Zip": 48842.0, "O_14": 2.0, "Q_15": 4.0, "O_15": 2.0, "city": "HOLT", "beds": 101.0, "SR_15": 2.0}, {"Diff_star": 0.0, "addr": "301 LONG RAPIDS RD", "SR_14": 4.0, "Q_14": 4.0, "name": "TENDERCARE ALPENA", "SF_14": 4.0, "SF_15": 4.0, "cnty": "Alpena", "st": "MI", "Zip": 49707.0, "O_14": 4.0, "Q_15": 2.0, "O_15": 4.0, "city": "ALPENA", "beds": 132.0, "SR_15": 4.0}, {"Diff_star": -1.0, "addr": "240 E NORTH ST", "SR_14": 1.0, "Q_14": 3.0, "name": "MAGNUMCARE OF HASTINGS, LLC", "SF_14": 4.0, "SF_15": 3.0, "cnty": "Barry", "st": "MI", "Zip": 49058.0, "O_14": 2.0, "Q_15": 2.0, "O_15": 1.0, "city": "HASTINGS", "beds": 98.0, "SR_15": 1.0}, {"Diff_star": -1.0, "addr": "1701 S 11TH ST", "SR_14": 2.0, "Q_14": 5.0, "name": "TENDERCARE KALAMAZOO", "SF_14": 4.0, "SF_15": 3.0, "cnty": "Kalamazoo", "st": "MI", "Zip": 49009.0, "O_14": 4.0, "Q_15": 5.0, "O_15": 3.0, "city": "KALAMAZOO", "beds": 114.0, "SR_15": 2.0}, {"Diff_star": 0.0, "addr": "1843 N HAGADORN RD", "SR_14": 1.0, "Q_14": 4.0, "name": "WHITEHILLS HEALTH CARE CENTER", "SF_14": 3.0, "SF_15": 3.0, "cnty": "Ingham", "st": "MI", "Zip": 48823.0, "O_14": 1.0, "Q_15": 2.0, "O_15": 1.0, "city": "EAST LANSING", "beds": 103.0, "SR_15": 1.0}, {"Diff_star": 0.0, "addr": "4900 HEDGEWOOD DR", "SR_14": 2.0, "Q_14": 4.0, "name": "TENDERCARE MIDLAND", "SF_14": 2.0, "SF_15": 2.0, "cnty": "Midland", "st": "MI", "Zip": 48640.0, "O_14": 2.0, "Q_15": 4.0, "O_15": 2.0, "city": "MIDLAND", "beds": 120.0, "SR_15": 2.0}, {"Diff_star": 0.0, "addr": "731 STARKWEATHER DR", "SR_14": 3.0, "Q_14": 5.0, "name": "TENDERCARE WEST", "SF_14": 2.0, "SF_15": 2.0, "cnty": "Eaton", "st": "MI", "Zip": 48917.0, "O_14": 4.0, "Q_15": 5.0, "O_15": 4.0, "city": "LANSING", "beds": 101.0, "SR_15": 3.0}, {"Diff_star": -1.0, "addr": "4782 HOSPITAL DR", "SR_14": 3.0, "Q_14": 5.0, "name": "TENDERCARE CASS CITY", "SF_14": 4.0, "SF_15": 3.0, "cnty": "Tuscola", "st": "MI", "Zip": 48726.0, "O_14": 5.0, "Q_15": 5.0, "O_15": 4.0, "city": "CASS CITY", "beds": 80.0, "SR_15": 3.0}, {"Diff_star": 0.0, "addr": "700 LAKESHIRE TR", "SR_14": 3.0, "Q_14": 5.0, "name": "PROVINCIAL HOUSE OF ADRIAN", "SF_14": 4.0, "SF_15": 4.0, "cnty": "Lenawee", "st": "MI", "Zip": 49221.0, "O_14": 5.0, "Q_15": 5.0, "O_15": 5.0, "city": "ADRIAN", "beds": 117.0, "SR_15": 3.0}, {"Diff_star": -1.0, "addr": "6800 WEST MAPLE", "SR_14": 1.0, "Q_14": 4.0, "name": "MARVIN & BETTY DANTO FAMILY HEALTH CARE CENTER", "SF_14": 4.0, "SF_15": 3.0, "cnty": "Oakland", "st": "MI", "Zip": 48322.0, "O_14": 2.0, "Q_15": 2.0, "O_15": 1.0, "city": "WEST BLOOMFIELD", "beds": 155.0, "SR_15": 1.0}, {"Diff_star": 0.0, "addr": "3057 GULL ROAD", "SR_14": 5.0, "Q_14": 4.0, "name": "BORGESS GARDENS", "SF_14": 5.0, "SF_15": 5.0, "cnty": "Kalamazoo", "st": "MI", "Zip": 49048.0, "O_14": 5.0, "Q_15": 4.0, "O_15": 5.0, "city": "KALAMAZOO", "beds": 101.0, "SR_15": 5.0}, {"Diff_star": -2.0, "addr": "828 E WASHINGTON ST", "SR_14": 2.0, "Q_14": 2.0, "name": "METRON OF GREENVILLE", "SF_14": 4.0, "SF_15": 4.0, "cnty": "Montcalm", "st": "MI", "Zip": 48838.0, "O_14": 3.0, "Q_15": 1.0, "O_15": 1.0, "city": "GREENVILLE", "beds": 120.0, "SR_15": 1.0}, {"Diff_star": -1.0, "addr": "1011 MERIDIAN RD", "SR_14": 2.0, "Q_14": 3.0, "name": "TENDERCARE SAULT STE MARIE", "SF_14": 4.0, "SF_15": 4.0, "cnty": "Chippewa", "st": "MI", "Zip": 49783.0, "O_14": 3.0, "Q_15": 1.0, "O_15": 2.0, "city": "SAULT SAINTE MARIE", "beds": 114.0, "SR_15": 2.0}, {"Diff_star": -1.0, "addr": "34225 GRAND RIVER AVE", "SR_14": 1.0, "Q_14": 2.0, "name": "WHITE PINE REHABILITATION & HEALTHCARE OF FARMINGT", "SF_14": 4.0, "SF_15": 4.0, "cnty": "Oakland", "st": "MI", "Zip": 48335.0, "O_14": 2.0, "Q_15": 1.0, "O_15": 1.0, "city": "FARMINGTON", "beds": 124.0, "SR_15": 1.0}, {"Diff_star": 0.0, "addr": "400 JEFFREY", "SR_14": 4.0, "Q_14": 5.0, "name": "METRON OF CEDAR SPRINGS", "SF_14": 3.0, "SF_15": 3.0, "cnty": "Kent", "st": "MI", "Zip": 49319.0, "O_14": 5.0, "Q_15": 5.0, "O_15": 5.0, "city": "CEDAR SPRINGS", "beds": 77.0, "SR_15": 4.0}, {"Diff_star": 0.0, "addr": "210 SOUTH FIRST STREET", "SR_14": 4.0, "Q_14": 3.0, "name": "LAKEVIEW EXTENDED CARE AND REHAB", "SF_14": 4.0, "SF_15": 4.0, "cnty": "Huron", "st": "MI", "Zip": 48441.0, "O_14": 4.0, "Q_15": 2.0, "O_15": 4.0, "city": "HARBOR BEACH", "beds": 39.0, "SR_15": 4.0}, {"Diff_star": 0.0, "addr": "26715 GREENFIELD RD", "SR_14": 1.0, "Q_14": 5.0, "name": "MEDILODGE OF SOUTHFIELD", "SF_14": 3.0, "SF_15": 3.0, "cnty": "Oakland", "st": "MI", "Zip": 48076.0, "O_14": 2.0, "Q_15": 5.0, "O_15": 2.0, "city": "SOUTHFIELD", "beds": 220.0, "SR_15": 1.0}, {"Diff_star": 0.0, "addr": "14041 PENNSYLVANIA RD", "SR_14": 2.0, "Q_14": 4.0, "name": "RIVERGATE HEALTH CARE CENTER", "SF_14": 3.0, "SF_15": 3.0, "cnty": "Wayne", "st": "MI", "Zip": 48193.0, "O_14": 2.0, "Q_15": 3.0, "O_15": 2.0, "city": "RIVERVIEW", "beds": 223.0, "SR_15": 2.0}, {"Diff_star": 0.0, "addr": "8444 ENGLEMAN", "SR_14": 1.0, "Q_14": 3.0, "name": "FATHER MURRAY NURSING AND REHABILITATION CENTRE", "SF_14": 2.0, "SF_15": 2.0, "cnty": "Macomb", "st": "MI", "Zip": 48015.0, "O_14": 1.0, "Q_15": 2.0, "O_15": 1.0, "city": "CENTER LINE", "beds": 231.0, "SR_15": 1.0}, {"Diff_star": -1.0, "addr": "270 N BEDFORD RD", "SR_14": 1.0, "Q_14": 5.0, "name": "LAURELS OF BEDFORD (THE)", "SF_14": 3.0, "SF_15": 3.0, "cnty": "Calhoun", "st": "MI", "Zip": 49017.0, "O_14": 2.0, "Q_15": 4.0, "O_15": 1.0, "city": "BATTLE CREEK", "beds": 123.0, "SR_15": 1.0}, {"Diff_star": -1.0, "addr": "23600 NORTHLINE RD", "SR_14": 4.0, "Q_14": 5.0, "name": "MEDILODGE OF TAYLOR", "SF_14": 4.0, "SF_15": 4.0, "cnty": "Wayne", "st": "MI", "Zip": 48180.0, "O_14": 5.0, "Q_15": 4.0, "O_15": 4.0, "city": "TAYLOR", "beds": 142.0, "SR_15": 4.0}, {"Diff_star": 0.0, "addr": "1380 E SHERMAN BLVD", "SR_14": 3.0, "Q_14": 5.0, "name": "SANCTUARY AT MCAULEY", "SF_14": 3.0, "SF_15": 4.0, "cnty": "Muskegon", "st": "MI", "Zip": 49444.0, "O_14": 4.0, "Q_15": 5.0, "O_15": 4.0, "city": "MUSKEGON", "beds": 98.0, "SR_15": 2.0}, {"Diff_star": 0.0, "addr": "90 N MICHIGAN AVE", "SR_14": 1.0, "Q_14": 5.0, "name": "LAURELS OF COLDWATER,THE", "SF_14": 3.0, "SF_15": 3.0, "cnty": "Branch", "st": "MI", "Zip": 49036.0, "O_14": 2.0, "Q_15": 5.0, "O_15": 2.0, "city": "COLDWATER", "beds": 169.0, "SR_15": 1.0}, {"Diff_star": 0.0, "addr": "3600 FULTON ST E", "SR_14": 3.0, "Q_14": 4.0, "name": "PORTER HILLS HEALTH CENTER", "SF_14": 5.0, "SF_15": 5.0, "cnty": "Kent", "st": "MI", "Zip": 49546.0, "O_14": 4.0, "Q_15": 3.0, "O_15": 4.0, "city": "GRAND RAPIDS", "beds": 81.0, "SR_15": 3.0}, {"Diff_star": 0.0, "addr": "8290 W C AVE", "SR_14": 3.0, "Q_14": 5.0, "name": "ALAMO NURSING HOME INC", "SF_14": 4.0, "SF_15": 4.0, "cnty": "Kalamazoo", "st": "MI", "Zip": 49009.0, "O_14": 5.0, "Q_15": 5.0, "O_15": 5.0, "city": "KALAMAZOO", "beds": 100.0, "SR_15": 3.0}, {"Diff_star": 0.0, "addr": "725 W FULLER", "SR_14": 4.0, "Q_14": 3.0, "name": "METRON OF BIG RAPIDS", "SF_14": 4.0, "SF_15": 4.0, "cnty": "Mecosta", "st": "MI", "Zip": 49307.0, "O_14": 4.0, "Q_15": 2.0, "O_15": 4.0, "city": "BIG RAPIDS", "beds": 100.0, "SR_15": 4.0}, {"Diff_star": 0.0, "addr": "425 E ELM ST", "SR_14": 2.0, "Q_14": 3.0, "name": "LAURELS OF SANDY CREEK (THE)", "SF_14": 3.0, "SF_15": 3.0, "cnty": "Allegan", "st": "MI", "Zip": 49348.0, "O_14": 2.0, "Q_15": 2.0, "O_15": 2.0, "city": "WAYLAND", "beds": 99.0, "SR_15": 2.0}, {"Diff_star": -1.0, "addr": "22601 E NINE MILE RD", "SR_14": 3.0, "Q_14": 5.0, "name": "ST MARY'S NURSING & REHAB CENTER", "SF_14": 2.0, "SF_15": 3.0, "cnty": "Macomb", "st": "MI", "Zip": 48080.0, "O_14": 4.0, "Q_15": 4.0, "O_15": 3.0, "city": "SAINT CLAIR SHORES", "beds": 101.0, "SR_15": 3.0}, {"Diff_star": 1.0, "addr": "25300 LAHSER RD", "SR_14": 1.0, "Q_14": 4.0, "name": "LAHSER HILLS CARE CENTRE", "SF_14": 2.0, "SF_15": 3.0, "cnty": "Oakland", "st": "MI", "Zip": 48034.0, "O_14": 1.0, "Q_15": 2.0, "O_15": 2.0, "city": "SOUTHFIELD", "beds": 143.0, "SR_15": 2.0}, {"Diff_star": 0.0, "addr": "200 W SAGINAW ST", "SR_14": 1.0, "Q_14": 4.0, "name": "MARQUETTE COUNTY MEDICAL CARE FACILITY", "SF_14": 5.0, "SF_15": 5.0, "cnty": "Marquette", "st": "MI", "Zip": 49849.0, "O_14": 2.0, "Q_15": 5.0, "O_15": 2.0, "city": "ISHPEMING", "beds": 140.0, "SR_15": 1.0}, {"Diff_star": -2.0, "addr": "3161 HILTON RD", "SR_14": 2.0, "Q_14": 5.0, "name": "OAKRIDGE MANOR NURSING & REHAB CENTER LLC", "SF_14": 4.0, "SF_15": 3.0, "cnty": "Oakland", "st": "MI", "Zip": 48220.0, "O_14": 4.0, "Q_15": 4.0, "O_15": 2.0, "city": "FERNDALE", "beds": 64.0, "SR_15": 2.0}, {"Diff_star": -1.0, "addr": "1149 WEST MONROE RD", "SR_14": 3.0, "Q_14": 5.0, "name": "PINE RIVER HEALTHCARE CENTER", "SF_14": 4.0, "SF_15": 3.0, "cnty": "Gratiot", "st": "MI", "Zip": 48880.0, "O_14": 5.0, "Q_15": 5.0, "O_15": 4.0, "city": "SAINT LOUIS", "beds": 81.0, "SR_15": 3.0}, {"Diff_star": 0.0, "addr": "11700 E TEN MILE RD", "SR_14": 2.0, "Q_14": 3.0, "name": "BORTZ HEALTH CARE OF WARREN", "SF_14": 4.0, "SF_15": 4.0, "cnty": "Macomb", "st": "MI", "Zip": 48089.0, "O_14": 3.0, "Q_15": 2.0, "O_15": 3.0, "city": "WARREN", "beds": 152.0, "SR_15": 2.0}, {"Diff_star": -1.0, "addr": "3650 VAN BUREN", "SR_14": 2.0, "Q_14": 5.0, "name": "LAURELS OF HUDSONVILLE (THE)", "SF_14": 3.0, "SF_15": 3.0, "cnty": "Ottawa", "st": "MI", "Zip": 49426.0, "O_14": 3.0, "Q_15": 4.0, "O_15": 2.0, "city": "HUDSONVILLE", "beds": 113.0, "SR_15": 2.0}, {"Diff_star": 0.0, "addr": "2160 N CENTER RD", "SR_14": 1.0, "Q_14": 4.0, "name": "MAGNUMCARE OF SAGINAW, LLC", "SF_14": 3.0, "SF_15": 3.0, "cnty": "Saginaw", "st": "MI", "Zip": 48603.0, "O_14": 1.0, "Q_15": 2.0, "O_15": 1.0, "city": "SAGINAW", "beds": 98.0, "SR_15": 1.0}, {"Diff_star": 0.0, "addr": "3003 W GRAND RIVER", "SR_14": 1.0, "Q_14": 3.0, "name": "WHITE PINE REHABILITATION & HEALTHCARE OF HOWELL", "SF_14": 2.0, "SF_15": 2.0, "cnty": "Livingston", "st": "MI", "Zip": 48843.0, "O_14": 1.0, "Q_15": 2.0, "O_15": 1.0, "city": "HOWELL", "beds": 149.0, "SR_15": 1.0}, {"Diff_star": -1.0, "addr": "1333 W GRAND RIVER", "SR_14": 2.0, "Q_14": 5.0, "name": "MEDILODGE OF HOWELL", "SF_14": 4.0, "SF_15": 3.0, "cnty": "Livingston", "st": "MI", "Zip": 48843.0, "O_14": 4.0, "Q_15": 5.0, "O_15": 3.0, "city": "HOWELL", "beds": 239.0, "SR_15": 2.0}, {"Diff_star": 0.0, "addr": "36137 W WARREN", "SR_14": 1.0, "Q_14": 2.0, "name": "WESTLAND CONVALESCENT & REHAB CENTER", "SF_14": 2.0, "SF_15": 2.0, "cnty": "Wayne", "st": "MI", "Zip": 48185.0, "O_14": 1.0, "Q_15": 1.0, "O_15": 1.0, "city": "WESTLAND", "beds": 230.0, "SR_15": 1.0}, {"Diff_star": -1.0, "addr": "12575 SO TELEGRAPH RD", "SR_14": 2.0, "Q_14": 3.0, "name": "REGENCY HEALTHCARE CENTRE", "SF_14": 4.0, "SF_15": 4.0, "cnty": "Wayne", "st": "MI", "Zip": 48180.0, "O_14": 3.0, "Q_15": 1.0, "O_15": 2.0, "city": "TAYLOR", "beds": 244.0, "SR_15": 2.0}, {"Diff_star": 0.0, "addr": "3270 PRATT LAKE RD", "SR_14": 5.0, "Q_14": 5.0, "name": "GLADWIN NURSING AND REHABILITATION COMMUNITY", "SF_14": 3.0, "SF_15": 3.0, "cnty": "Gladwin", "st": "MI", "Zip": 48624.0, "O_14": 5.0, "Q_15": 5.0, "O_15": 5.0, "city": "GLADWIN", "beds": 60.0, "SR_15": 5.0}, {"Diff_star": 0.0, "addr": "2585 S LAFRANIER RD", "SR_14": 3.0, "Q_14": 4.0, "name": "TENDERCARE TRAVERSE CITY", "SF_14": 3.0, "SF_15": 3.0, "cnty": "Grand Traverse", "st": "MI", "Zip": 49684.0, "O_14": 3.0, "Q_15": 4.0, "O_15": 3.0, "city": "TRAVERSE CITY", "beds": 84.0, "SR_15": 3.0}, {"Diff_star": -1.0, "addr": "1000 EDISON AVE NW", "SR_14": 4.0, "Q_14": 5.0, "name": "CHRISTIAN REST HOME ASSOC", "SF_14": 4.0, "SF_15": 4.0, "cnty": "Kent", "st": "MI", "Zip": 49504.0, "O_14": 5.0, "Q_15": 4.0, "O_15": 4.0, "city": "GRAND RAPIDS", "beds": 149.0, "SR_15": 4.0}, {"Diff_star": 0.0, "addr": "G 1069 BALLENGER HWY", "SR_14": 2.0, "Q_14": 5.0, "name": "KITH HAVEN", "SF_14": 4.0, "SF_15": 4.0, "cnty": "Genesee", "st": "MI", "Zip": 48504.0, "O_14": 4.0, "Q_15": 5.0, "O_15": 4.0, "city": "FLINT", "beds": 159.0, "SR_15": 2.0}, {"Diff_star": 0.0, "addr": "307 N FRANKS AVENUE", "SR_14": 4.0, "Q_14": 5.0, "name": "FROH COMMUNITY HOME", "SF_14": 4.0, "SF_15": 4.0, "cnty": "St. Joseph", "st": "MI", "Zip": 49091.0, "O_14": 5.0, "Q_15": 5.0, "O_15": 5.0, "city": "STURGIS", "beds": 118.0, "SR_15": 4.0}, {"Diff_star": -1.0, "addr": "285 N STATE ST", "SR_14": 1.0, "Q_14": 4.0, "name": "PROVIDENCE CHRISTIAN HEALTHCARE & REHAB CTR", "SF_14": 4.0, "SF_15": 3.0, "cnty": "Ottawa", "st": "MI", "Zip": 49464.0, "O_14": 2.0, "Q_15": 4.0, "O_15": 1.0, "city": "ZEELAND", "beds": 153.0, "SR_15": 1.0}, {"Diff_star": -1.0, "addr": "111 TREALOUT DR", "SR_14": 2.0, "Q_14": 3.0, "name": "CRESTMONT NURSING CARE CENTER", "SF_14": 3.0, "SF_15": 3.0, "cnty": "Genesee", "st": "MI", "Zip": 48430.0, "O_14": 2.0, "Q_15": 1.0, "O_15": 1.0, "city": "FENTON", "beds": 132.0, "SR_15": 2.0}, {"Diff_star": 0.0, "addr": "435 STONEVILLE RD", "SR_14": 1.0, "Q_14": 3.0, "name": "MATHER NURSING CENTER", "SF_14": 3.0, "SF_15": 3.0, "cnty": "Marquette", "st": "MI", "Zip": 49849.0, "O_14": 1.0, "Q_15": 1.0, "O_15": 1.0, "city": "ISHPEMING", "beds": 122.0, "SR_15": 1.0}, {"Diff_star": 0.0, "addr": "508 RANDOM LANE", "SR_14": 1.0, "Q_14": 4.0, "name": "TENDERCARE GAYLORD", "SF_14": 4.0, "SF_15": 4.0, "cnty": "Otsego", "st": "MI", "Zip": 49735.0, "O_14": 2.0, "Q_15": 3.0, "O_15": 2.0, "city": "GAYLORD", "beds": 114.0, "SR_15": 1.0}, {"Diff_star": -1.0, "addr": "105 HAGGERTY RD", "SR_14": 3.0, "Q_14": 4.0, "name": "HEARTLAND HEALTH CARE CENTER-PLYMOUTH", "SF_14": 4.0, "SF_15": 4.0, "cnty": "Wayne", "st": "MI", "Zip": 48170.0, "O_14": 4.0, "Q_15": 2.0, "O_15": 3.0, "city": "PLYMOUTH", "beds": 109.0, "SR_15": 2.0}, {"Diff_star": 0.0, "addr": "23770 HOSPITAL ST", "SR_14": 1.0, "Q_14": 5.0, "name": "CASS COUNTY MEDICAL CARE FACIL", "SF_14": 5.0, "SF_15": 5.0, "cnty": "Cass", "st": "MI", "Zip": 49031.0, "O_14": 2.0, "Q_15": 5.0, "O_15": 2.0, "city": "CASSOPOLIS", "beds": 80.0, "SR_15": 1.0}, {"Diff_star": 0.0, "addr": "55378 WILBUR RD", "SR_14": 5.0, "Q_14": 5.0, "name": "RIVERVIEW MANOR", "SF_14": 4.0, "SF_15": 4.0, "cnty": "St. Joseph", "st": "MI", "Zip": 49093.0, "O_14": 5.0, "Q_15": 5.0, "O_15": 5.0, "city": "THREE RIVERS", "beds": 87.0, "SR_15": 5.0}, {"Diff_star": 0.0, "addr": "13030 COMMERCIAL ST", "SR_14": 5.0, "Q_14": 5.0, "name": "METRON OF LAMONT", "SF_14": 5.0, "SF_15": 5.0, "cnty": "Ottawa", "st": "MI", "Zip": 49430.0, "O_14": 5.0, "Q_15": 4.0, "O_15": 5.0, "city": "LAMONT", "beds": 39.0, "SR_15": 5.0}, {"Diff_star": -1.0, "addr": "900 S BEACON BLVD", "SR_14": 4.0, "Q_14": 5.0, "name": "SANCTUARY AT THE SHORE", "SF_14": 3.0, "SF_15": 3.0, "cnty": "Ottawa", "st": "MI", "Zip": 49417.0, "O_14": 5.0, "Q_15": 5.0, "O_15": 4.0, "city": "GRAND HAVEN", "beds": 126.0, "SR_15": 3.0}, {"Diff_star": 0.0, "addr": "414 E STATE ST", "SR_14": 3.0, "Q_14": 3.0, "name": "METRON OF BELDING", "SF_14": 4.0, "SF_15": 4.0, "cnty": "Ionia", "st": "MI", "Zip": 48809.0, "O_14": 4.0, "Q_15": 2.0, "O_15": 4.0, "city": "BELDING", "beds": 128.0, "SR_15": 3.0}, {"Diff_star": -1.0, "addr": "1000 E TINKHAM AVE", "SR_14": 2.0, "Q_14": 4.0, "name": "TENDERCARE OF LUDINGTON", "SF_14": 4.0, "SF_15": 3.0, "cnty": "Mason", "st": "MI", "Zip": 49431.0, "O_14": 3.0, "Q_15": 4.0, "O_15": 2.0, "city": "LUDINGTON", "beds": 109.0, "SR_15": 2.0}, {"Diff_star": -1.0, "addr": "6531 W MICHIGAN AVENUE", "SR_14": 1.0, "Q_14": 5.0, "name": "FAITH HAVEN SENIOR CARE CENTRE", "SF_14": 3.0, "SF_15": 3.0, "cnty": "Jackson", "st": "MI", "Zip": 49201.0, "O_14": 2.0, "Q_15": 4.0, "O_15": 1.0, "city": "JACKSON", "beds": 83.0, "SR_15": 1.0}, {"Diff_star": -1.0, "addr": "151 2ND ST", "SR_14": 3.0, "Q_14": 5.0, "name": "ARBOR MANOR CARE CENTER", "SF_14": 5.0, "SF_15": 5.0, "cnty": "Jackson", "st": "MI", "Zip": 49283.0, "O_14": 5.0, "Q_15": 4.0, "O_15": 4.0, "city": "SPRING ARBOR", "beds": 122.0, "SR_15": 3.0}, {"Diff_star": -1.0, "addr": "911 S 3RD ST", "SR_14": 1.0, "Q_14": 3.0, "name": "SILVERBROOK", "SF_14": 4.0, "SF_15": 3.0, "cnty": "Berrien", "st": "MI", "Zip": 49120.0, "O_14": 2.0, "Q_15": 1.0, "O_15": 1.0, "city": "NILES", "beds": 100.0, "SR_15": 1.0}, {"Diff_star": 0.0, "addr": "G 3201 BEECHER RD", "SR_14": 1.0, "Q_14": 3.0, "name": "HERITAGE MANOR HEALTHCARE CENT", "SF_14": 3.0, "SF_15": 3.0, "cnty": "Genesee", "st": "MI", "Zip": 48532.0, "O_14": 1.0, "Q_15": 1.0, "O_15": 1.0, "city": "FLINT", "beds": 167.0, "SR_15": 1.0}, {"Diff_star": 0.0, "addr": "29270 MORLOCK", "SR_14": 2.0, "Q_14": 4.0, "name": "HEARTLAND HEALTH CARE CENTER - LIVONIA NE", "SF_14": 4.0, "SF_15": 4.0, "cnty": "Wayne", "st": "MI", "Zip": 48152.0, "O_14": 3.0, "Q_15": 3.0, "O_15": 3.0, "city": "LIVONIA", "beds": 118.0, "SR_15": 2.0}, {"Diff_star": 0.0, "addr": "1095 MEDICAL PARK DR", "SR_14": 1.0, "Q_14": 5.0, "name": "METRON OF FOREST HILLS", "SF_14": 3.0, "SF_15": 3.0, "cnty": "Kent", "st": "MI", "Zip": 49506.0, "O_14": 2.0, "Q_15": 5.0, "O_15": 2.0, "city": "GRAND RAPIDS", "beds": 123.0, "SR_15": 1.0}, {"Diff_star": 0.0, "addr": "701 HOMESTEAD ST", "SR_14": 3.0, "Q_14": 3.0, "name": "NORLITE NURSING CENTER", "SF_14": 5.0, "SF_15": 5.0, "cnty": "Marquette", "st": "MI", "Zip": 49855.0, "O_14": 4.0, "Q_15": 2.0, "O_15": 4.0, "city": "MARQUETTE", "beds": 99.0, "SR_15": 3.0}, {"Diff_star": 0.0, "addr": "1300 BEARD ST", "SR_14": 2.0, "Q_14": 4.0, "name": "MARWOOD MANOR NURSING HOME", "SF_14": 4.0, "SF_15": 4.0, "cnty": "St. Clair", "st": "MI", "Zip": 48060.0, "O_14": 3.0, "Q_15": 3.0, "O_15": 3.0, "city": "PORT HURON", "beds": 240.0, "SR_15": 2.0}, {"Diff_star": -2.0, "addr": "4220 S HOSPITAL DR", "SR_14": 3.0, "Q_14": 5.0, "name": "MEDILODGE OF ST CLAIR", "SF_14": 4.0, "SF_15": 4.0, "cnty": "St. Clair", "st": "MI", "Zip": 48054.0, "O_14": 5.0, "Q_15": 4.0, "O_15": 3.0, "city": "EAST CHINA", "beds": 172.0, "SR_15": 2.0}, {"Diff_star": 0.0, "addr": "90 JEAN ST", "SR_14": 4.0, "Q_14": 5.0, "name": "MEDILODGE OF YALE, INC", "SF_14": 4.0, "SF_15": 4.0, "cnty": "St. Clair", "st": "MI", "Zip": 48097.0, "O_14": 5.0, "Q_15": 5.0, "O_15": 5.0, "city": "YALE", "beds": 120.0, "SR_15": 4.0}, {"Diff_star": 0.0, "addr": "5000 E SEVEN MILE RD", "SR_14": 2.0, "Q_14": 5.0, "name": "LAKESHORE HEALTHCARE CRANBROOK CAMPUS, INC", "SF_14": 3.0, "SF_15": 3.0, "cnty": "Wayne", "st": "MI", "Zip": 48234.0, "O_14": 3.0, "Q_15": 5.0, "O_15": 3.0, "city": "DETROIT", "beds": 66.0, "SR_15": 2.0}, {"Diff_star": 0.0, "addr": "18525 WOODLAND RIDGE DRIVE", "SR_14": 3.0, "Q_14": 5.0, "name": "NORTH OTTAWA CARE CENTER", "SF_14": 4.0, "SF_15": 4.0, "cnty": "Ottawa", "st": "MI", "Zip": 49456.0, "O_14": 5.0, "Q_15": 5.0, "O_15": 5.0, "city": "SPRING LAKE", "beds": 84.0, "SR_15": 3.0}, {"Diff_star": 0.0, "addr": "22355 W EIGHT MILE RD", "SR_14": 4.0, "Q_14": 4.0, "name": "WEST OAKS SENIOR CARE & REHAB CENTER", "SF_14": 4.0, "SF_15": 4.0, "cnty": "Wayne", "st": "MI", "Zip": 48219.0, "O_14": 4.0, "Q_15": 4.0, "O_15": 4.0, "city": "DETROIT", "beds": 102.0, "SR_15": 4.0}, {"Diff_star": 0.0, "addr": "18500 VAN HORN RD", "SR_14": 3.0, "Q_14": 5.0, "name": "APPLEWOOD NURSING CENTER INC", "SF_14": 4.0, "SF_15": 4.0, "cnty": "Wayne", "st": "MI", "Zip": 48183.0, "O_14": 5.0, "Q_15": 5.0, "O_15": 5.0, "city": "WOODHAVEN", "beds": 150.0, "SR_15": 3.0}, {"Diff_star": 0.0, "addr": "18591 QUARRY RD", "SR_14": 4.0, "Q_14": 5.0, "name": "BELLE FOUNTAIN NURSING & REHABILITATION CENTER", "SF_14": 4.0, "SF_15": 3.0, "cnty": "Wayne", "st": "MI", "Zip": 48192.0, "O_14": 5.0, "Q_15": 5.0, "O_15": 5.0, "city": "RIVERVIEW", "beds": 91.0, "SR_15": 4.0}, {"Diff_star": -1.0, "addr": "1050 FOUR MILE NW", "SR_14": 2.0, "Q_14": 5.0, "name": "SANCTUARY AT ST MARY'S", "SF_14": 3.0, "SF_15": 3.0, "cnty": "Kent", "st": "MI", "Zip": 49544.0, "O_14": 3.0, "Q_15": 4.0, "O_15": 2.0, "city": "GRAND RAPIDS", "beds": 187.0, "SR_15": 2.0}, {"Diff_star": 0.0, "addr": "280 W 40TH ST", "SR_14": 2.0, "Q_14": 4.0, "name": "RESTHAVEN CARE CENTER", "SF_14": 4.0, "SF_15": "", "cnty": "Allegan", "st": "MI", "Zip": 49423.0, "O_14": 3.0, "Q_15": 4.0, "O_15": 3.0, "city": "HOLLAND", "beds": 145.0, "SR_15": 3.0}, {"Diff_star": 0.0, "addr": "400 W NORTH ST", "SR_14": 4.0, "Q_14": 4.0, "name": "TENDERCARE TAWAS CITY", "SF_14": 4.0, "SF_15": 3.0, "cnty": "Iosco", "st": "MI", "Zip": 48763.0, "O_14": 4.0, "Q_15": 2.0, "O_15": 4.0, "city": "TAWAS CITY", "beds": 93.0, "SR_15": 4.0}, {"Diff_star": 0.0, "addr": "517 W PAGE ST", "SR_14": 3.0, "Q_14": 5.0, "name": "BORTZ HEALTH CARE OF ROSE CITY", "SF_14": 4.0, "SF_15": 4.0, "cnty": "Ogemaw", "st": "MI", "Zip": 48654.0, "O_14": 5.0, "Q_15": 5.0, "O_15": 5.0, "city": "ROSE CITY", "beds": 102.0, "SR_15": 3.0}, {"Diff_star": 0.0, "addr": "500 OSBORN BLVD", "SR_14": 2.0, "Q_14": 1.0, "name": "CHIPPEWA COUNTY WAR MEM HOSP LTCU", "SF_14": 4.0, "SF_15": 4.0, "cnty": "Chippewa", "st": "MI", "Zip": 49783.0, "O_14": 2.0, "Q_15": 1.0, "O_15": 2.0, "city": "SAULT SAINTE MARIE", "beds": 51.0, "SR_15": 2.0}, {"Diff_star": 0.0, "addr": "590 E GRAND BLVD", "SR_14": 4.0, "Q_14": 5.0, "name": "HAMILTON NURSING HOME", "SF_14": "", "SF_15": "", "cnty": "Wayne", "st": "MI", "Zip": 48207.0, "O_14": 5.0, "Q_15": 5.0, "O_15": 5.0, "city": "DETROIT", "beds": 64.0, "SR_15": 4.0}, {"Diff_star": 0.0, "addr": "9400 CONANT STREET", "SR_14": 2.0, "Q_14": 3.0, "name": "ST JOSEPH'S HEALTHCARE CENTER", "SF_14": 1.0, "SF_15": 1.0, "cnty": "Wayne", "st": "MI", "Zip": 48212.0, "O_14": 1.0, "Q_15": 2.0, "O_15": 1.0, "city": "HAMTRAMCK", "beds": 169.0, "SR_15": 2.0}, {"Diff_star": 0.0, "addr": "427 E WASHINGTON", "SR_14": 4.0, "Q_14": 4.0, "name": "SCHNEPP SENIOR CARE AND REHAB CENTER", "SF_14": 4.0, "SF_15": 4.0, "cnty": "Gratiot", "st": "MI", "Zip": 48880.0, "O_14": 4.0, "Q_15": 4.0, "O_15": 4.0, "city": "SAINT LOUIS", "beds": 101.0, "SR_15": 4.0}, {"Diff_star": 0.0, "addr": "400 SOUTH CRAPO ST", "SR_14": 3.0, "Q_14": 5.0, "name": "LAURELS OF MT. PLEASANT (THE)", "SF_14": 3.0, "SF_15": 3.0, "cnty": "Isabella", "st": "MI", "Zip": 48858.0, "O_14": 4.0, "Q_15": 5.0, "O_15": 4.0, "city": "MOUNT PLEASANT", "beds": 112.0, "SR_15": 3.0}, {"Diff_star": 0.0, "addr": "3254 E MIDLAND RD", "SR_14": 2.0, "Q_14": 5.0, "name": "BAY SHORES SENIOR CARE AND REHAB CENTER", "SF_14": 2.0, "SF_15": 2.0, "cnty": "Bay", "st": "MI", "Zip": 48706.0, "O_14": 3.0, "Q_15": 5.0, "O_15": 3.0, "city": "BAY CITY", "beds": 126.0, "SR_15": 2.0}, {"Diff_star": -1.0, "addr": "1000 W ERIE ST", "SR_14": 1.0, "Q_14": 2.0, "name": "MAGNUMCARE OF ALBION, LLC", "SF_14": 4.0, "SF_15": 3.0, "cnty": "Calhoun", "st": "MI", "Zip": 49224.0, "O_14": 2.0, "Q_15": 1.0, "O_15": 1.0, "city": "ALBION", "beds": 80.0, "SR_15": 1.0}, {"Diff_star": -1.0, "addr": "517 S ERIE ST", "SR_14": 3.0, "Q_14": 5.0, "name": "HEARTLAND HEALTH CARE CENTER-THREE RIVERS", "SF_14": 2.0, "SF_15": 2.0, "cnty": "St. Joseph", "st": "MI", "Zip": 49093.0, "O_14": 4.0, "Q_15": 5.0, "O_15": 3.0, "city": "THREE RIVERS", "beds": 100.0, "SR_15": 2.0}, {"Diff_star": 0.0, "addr": "1255 W SILVERBELL", "SR_14": 4.0, "Q_14": 4.0, "name": "BORTZ HEALTH CARE OF OAKLAND", "SF_14": 4.0, "SF_15": 3.0, "cnty": "Oakland", "st": "MI", "Zip": 48359.0, "O_14": 4.0, "Q_15": 2.0, "O_15": 4.0, "city": "ORION", "beds": 106.0, "SR_15": 4.0}, {"Diff_star": -1.0, "addr": "7855 CURRIER DR", "SR_14": 2.0, "Q_14": 4.0, "name": "TENDERCARE PORTAGE", "SF_14": 4.0, "SF_15": 3.0, "cnty": "Kalamazoo", "st": "MI", "Zip": 49002.0, "O_14": 3.0, "Q_15": 4.0, "O_15": 2.0, "city": "PORTAGE", "beds": 120.0, "SR_15": 2.0}, {"Diff_star": 0.0, "addr": "1390 MAPLE DRIVE", "SR_14": 3.0, "Q_14": 5.0, "name": "WELLSPRING LUTHERAN SERVICES", "SF_14": 4.0, "SF_15": 4.0, "cnty": "Oscoda", "st": "MI", "Zip": 48621.0, "O_14": 5.0, "Q_15": 5.0, "O_15": 5.0, "city": "FAIRVIEW", "beds": 62.0, "SR_15": 3.0}, {"Diff_star": -1.0, "addr": "1551 FRANKLIN STREET, SE", "SR_14": 1.0, "Q_14": 4.0, "name": "CLARK RETIREMENT COMMUNITY", "SF_14": 4.0, "SF_15": 3.0, "cnty": "Kent", "st": "MI", "Zip": 49506.0, "O_14": 2.0, "Q_15": 4.0, "O_15": 1.0, "city": "GRAND RAPIDS", "beds": 111.0, "SR_15": 1.0}, {"Diff_star": 0.0, "addr": "22811 W SEVEN MILE RD", "SR_14": 3.0, "Q_14": 5.0, "name": "REDFORD GERIATRIC VILLAGE", "SF_14": 3.0, "SF_15": 3.0, "cnty": "Wayne", "st": "MI", "Zip": 48219.0, "O_14": 4.0, "Q_15": 5.0, "O_15": 4.0, "city": "DETROIT", "beds": 98.0, "SR_15": 3.0}, {"Diff_star": -1.0, "addr": "17001 17 MILE RD", "SR_14": 4.0, "Q_14": 5.0, "name": "CLINTON-AIRE HEALTHCARE CENTER", "SF_14": 3.0, "SF_15": 3.0, "cnty": "Macomb", "st": "MI", "Zip": 48038.0, "O_14": 5.0, "Q_15": 4.0, "O_15": 4.0, "city": "CLINTON TOWNSHIP", "beds": 127.0, "SR_15": 4.0}, {"Diff_star": 0.0, "addr": "419 S CORAL ST", "SR_14": 3.0, "Q_14": 4.0, "name": "KALKASKA MEMORIAL HEALTH CENTER", "SF_14": 5.0, "SF_15": 5.0, "cnty": "Kalkaska", "st": "MI", "Zip": 49646.0, "O_14": 4.0, "Q_15": 4.0, "O_15": 4.0, "city": "KALKASKA", "beds": 84.0, "SR_15": 3.0}, {"Diff_star": 0.0, "addr": "31830 RYAN RD", "SR_14": 4.0, "Q_14": 5.0, "name": "ST ANTHONY HEALTHCARE CENTER", "SF_14": 3.0, "SF_15": 3.0, "cnty": "Macomb", "st": "MI", "Zip": 48092.0, "O_14": 5.0, "Q_15": 5.0, "O_15": 5.0, "city": "WARREN", "beds": 102.0, "SR_15": 4.0}, {"Diff_star": 0.0, "addr": "300 W CITY PARK DR", "SR_14": 3.0, "Q_14": 5.0, "name": "TENDERCARE HEALTH CENTER-MUNISING", "SF_14": 3.0, "SF_15": 3.0, "cnty": "Alger", "st": "MI", "Zip": 49862.0, "O_14": 4.0, "Q_15": 5.0, "O_15": 4.0, "city": "MUNISING", "beds": 106.0, "SR_15": 3.0}, {"Diff_star": 0.0, "addr": "800 MULHOLLAND RD", "SR_14": 5.0, "Q_14": 4.0, "name": "HEARTLAND HEALTH CARE CENTER-HAMPTON", "SF_14": 4.0, "SF_15": 4.0, "cnty": "Bay", "st": "MI", "Zip": 48708.0, "O_14": 5.0, "Q_15": 4.0, "O_15": 5.0, "city": "BAY CITY", "beds": 51.0, "SR_15": 5.0}, {"Diff_star": -1.0, "addr": "2828 CONCORD ST", "SR_14": 2.0, "Q_14": 5.0, "name": "BORTZ HEALTH CARE OF TRAVERSE CITY", "SF_14": 4.0, "SF_15": 4.0, "cnty": "Grand Traverse", "st": "MI", "Zip": 49684.0, "O_14": 4.0, "Q_15": 4.0, "O_15": 3.0, "city": "TRAVERSE CITY", "beds": 96.0, "SR_15": 2.0}, {"Diff_star": -1.0, "addr": "445 S VALLEY ST", "SR_14": 4.0, "Q_14": 5.0, "name": "BORTZ HEALTH CARE OF WEST BRANCH", "SF_14": 4.0, "SF_15": 4.0, "cnty": "Ogemaw", "st": "MI", "Zip": 48661.0, "O_14": 5.0, "Q_15": 4.0, "O_15": 4.0, "city": "WEST BRANCH", "beds": 70.0, "SR_15": 4.0}, {"Diff_star": 0.0, "addr": "6232 CADIEUX ROAD", "SR_14": 5.0, "Q_14": 5.0, "name": "ST ANNES CONVALESCENT CENTER", "SF_14": "", "SF_15": "", "cnty": "Wayne", "st": "MI", "Zip": 48224.0, "O_14": 5.0, "Q_15": 4.0, "O_15": 5.0, "city": "DETROIT", "beds": 78.0, "SR_15": 5.0}, {"Diff_star": 0.0, "addr": "500 SCHOOL RD", "SR_14": 1.0, "Q_14": 5.0, "name": "MEDILODGE OF STERLING", "SF_14": 4.0, "SF_15": 4.0, "cnty": "Arenac", "st": "MI", "Zip": 48659.0, "O_14": 2.0, "Q_15": 4.0, "O_15": 2.0, "city": "STERLING", "beds": 84.0, "SR_15": 1.0}, {"Diff_star": 0.0, "addr": "5635 LAKESHORE", "SR_14": 4.0, "Q_14": 5.0, "name": "MEDILODGE OF PORT HURON", "SF_14": 3.0, "SF_15": 3.0, "cnty": "St. Clair", "st": "MI", "Zip": 48059.0, "O_14": 5.0, "Q_15": 5.0, "O_15": 5.0, "city": "FORT GRATIOT", "beds": 127.0, "SR_15": 4.0}, {"Diff_star": -1.0, "addr": "626 E GRAND BLVD", "SR_14": 4.0, "Q_14": 5.0, "name": "EASTWOOD CONVALESCENT CENTER", "SF_14": 4.0, "SF_15": 4.0, "cnty": "Wayne", "st": "MI", "Zip": 48207.0, "O_14": 5.0, "Q_15": 4.0, "O_15": 4.0, "city": "DETROIT", "beds": 72.0, "SR_15": 4.0}, {"Diff_star": -1.0, "addr": "631 CARING ST", "SR_14": 3.0, "Q_14": 5.0, "name": "MEDILODGE OF HILLMAN", "SF_14": 5.0, "SF_15": 5.0, "cnty": "Montmorency", "st": "MI", "Zip": 49746.0, "O_14": 5.0, "Q_15": 4.0, "O_15": 4.0, "city": "HILLMAN", "beds": 90.0, "SR_15": 3.0}, {"Diff_star": -1.0, "addr": "29800 HOOVER RD", "SR_14": 2.0, "Q_14": 5.0, "name": "AUTUMN WOODS RESIDENTIAL HLTH", "SF_14": 3.0, "SF_15": 3.0, "cnty": "Macomb", "st": "MI", "Zip": 48093.0, "O_14": 3.0, "Q_15": 4.0, "O_15": 2.0, "city": "WARREN", "beds": 330.0, "SR_15": 2.0}, {"Diff_star": 0.0, "addr": "26001 FORD RD", "SR_14": 1.0, "Q_14": 4.0, "name": "HEARTLAND HEALTH CARE CENTER-DEARBORN HEIGHTS", "SF_14": 4.0, "SF_15": 4.0, "cnty": "Wayne", "st": "MI", "Zip": 48127.0, "O_14": 2.0, "Q_15": 4.0, "O_15": 2.0, "city": "DEARBORN HEIGHTS", "beds": 124.0, "SR_15": 1.0}, {"Diff_star": -1.0, "addr": "1500 SPRING ST", "SR_14": 4.0, "Q_14": 2.0, "name": "BORTZ HEALTH CARE OF PETOSKEY", "SF_14": 4.0, "SF_15": 4.0, "cnty": "Emmet", "st": "MI", "Zip": 49770.0, "O_14": 4.0, "Q_15": 1.0, "O_15": 3.0, "city": "PETOSKEY", "beds": 110.0, "SR_15": 4.0}, {"Diff_star": 0.0, "addr": "10770 ELIZABETH LAKE ROAD", "SR_14": 4.0, "Q_14": 5.0, "name": "SANCTUARY AT WHITE LAKE", "SF_14": 4.0, "SF_15": 4.0, "cnty": "Oakland", "st": "MI", "Zip": 48386.0, "O_14": 5.0, "Q_15": 5.0, "O_15": 5.0, "city": "WHITE LAKE", "beds": 92.0, "SR_15": 4.0}, {"Diff_star": -1.0, "addr": "570 S HARVEY STREET", "SR_14": 2.0, "Q_14": 5.0, "name": "SANCTUARY AT THE PARK", "SF_14": 4.0, "SF_15": 3.0, "cnty": "Muskegon", "st": "MI", "Zip": 49442.0, "O_14": 4.0, "Q_15": 5.0, "O_15": 3.0, "city": "MUSKEGON", "beds": 99.0, "SR_15": 2.0}, {"Diff_star": 0.0, "addr": "331 MEADOWS DRIVE", "SR_14": 4.0, "Q_14": 5.0, "name": "GRAYLING NURSING & REHAB COMMUNITY", "SF_14": 2.0, "SF_15": 3.0, "cnty": "Crawford", "st": "MI", "Zip": 49738.0, "O_14": 5.0, "Q_15": 5.0, "O_15": 5.0, "city": "GRAYLING", "beds": 72.0, "SR_15": 4.0}, {"Diff_star": 0.0, "addr": "3030 GREENFIELD AVE", "SR_14": 3.0, "Q_14": 4.0, "name": "GREENFIELD REHAB AND NURSING CENTER", "SF_14": 2.0, "SF_15": 2.0, "cnty": "Oakland", "st": "MI", "Zip": 48073.0, "O_14": 3.0, "Q_15": 2.0, "O_15": 3.0, "city": "ROYAL OAK", "beds": 126.0, "SR_15": 3.0}, {"Diff_star": 0.0, "addr": "23332 RED ARROW HIGHWAY", "SR_14": 4.0, "Q_14": 5.0, "name": "BRONSON COMMONS", "SF_14": 5.0, "SF_15": 5.0, "cnty": "Van Buren", "st": "MI", "Zip": 49071.0, "O_14": 5.0, "Q_15": 5.0, "O_15": 5.0, "city": "MATTAWAN", "beds": 100.0, "SR_15": 4.0}, {"Diff_star": -1.0, "addr": "1450 E FULTON ST", "SR_14": 3.0, "Q_14": 5.0, "name": "HOLLAND HOME - FULTON MANOR", "SF_14": 4.0, "SF_15": 4.0, "cnty": "Kent", "st": "MI", "Zip": 49503.0, "O_14": 5.0, "Q_15": 4.0, "O_15": 4.0, "city": "GRAND RAPIDS", "beds": 82.0, "SR_15": 3.0}, {"Diff_star": -1.0, "addr": "220 HUGHSTON ST", "SR_14": 4.0, "Q_14": 4.0, "name": "AUTUMNWOOD OF MCBAIN", "SF_14": 3.0, "SF_15": 3.0, "cnty": "Missaukee", "st": "MI", "Zip": 49657.0, "O_14": 4.0, "Q_15": 3.0, "O_15": 3.0, "city": "MC BAIN", "beds": 95.0, "SR_15": 3.0}, {"Diff_star": 0.0, "addr": "9150 ALLEN RD", "SR_14": 3.0, "Q_14": 4.0, "name": "HEARTLAND HEALTH CARE CENTER-ALLEN PARK", "SF_14": 3.0, "SF_15": 3.0, "cnty": "Wayne", "st": "MI", "Zip": 48101.0, "O_14": 3.0, "Q_15": 3.0, "O_15": 3.0, "city": "ALLEN PARK", "beds": 171.0, "SR_15": 3.0}, {"Diff_star": -1.0, "addr": "2121 RAYBROOK SE", "SR_14": 4.0, "Q_14": 5.0, "name": "HOLLAND HOME - RAYBROOK MANOR", "SF_14": 4.0, "SF_15": 4.0, "cnty": "Kent", "st": "MI", "Zip": 49546.0, "O_14": 5.0, "Q_15": 4.0, "O_15": 4.0, "city": "GRAND RAPIDS", "beds": 101.0, "SR_15": 4.0}, {"Diff_star": 0.0, "addr": "625 36TH ST SW", "SR_14": 4.0, "Q_14": 4.0, "name": "HEARTLAND HEALTH CARE CENTER-CRESTVIEW", "SF_14": 3.0, "SF_15": 3.0, "cnty": "Kent", "st": "MI", "Zip": 49509.0, "O_14": 4.0, "Q_15": 4.0, "O_15": 4.0, "city": "WYOMING", "beds": 92.0, "SR_15": 4.0}, {"Diff_star": -1.0, "addr": "1413 GRATIOT", "SR_14": 1.0, "Q_14": 2.0, "name": "SAGINAW GERIATRICS HOME", "SF_14": 4.0, "SF_15": 4.0, "cnty": "Saginaw", "st": "MI", "Zip": 48602.0, "O_14": 2.0, "Q_15": 1.0, "O_15": 1.0, "city": "SAGINAW", "beds": 55.0, "SR_15": 1.0}, {"Diff_star": -1.0, "addr": "26001 EAST JEFFERSON AVENUE", "SR_14": 3.0, "Q_14": 5.0, "name": "SHOREPOINTE NURSING CENTER", "SF_14": 4.0, "SF_15": 3.0, "cnty": "Macomb", "st": "MI", "Zip": 48081.0, "O_14": 5.0, "Q_15": 5.0, "O_15": 4.0, "city": "SAINT CLAIR SHORES", "beds": 200.0, "SR_15": 3.0}, {"Diff_star": 0.0, "addr": "16588 SCHAEFER", "SR_14": 1.0, "Q_14": 4.0, "name": "WESTWOOD NURSING CENTER", "SF_14": 2.0, "SF_15": 2.0, "cnty": "Wayne", "st": "MI", "Zip": 48235.0, "O_14": 1.0, "Q_15": 2.0, "O_15": 1.0, "city": "DETROIT", "beds": 125.0, "SR_15": 1.0}, {"Diff_star": 0.0, "addr": "15750 JOY", "SR_14": 2.0, "Q_14": 4.0, "name": "FAIRLANE SENIOR CARE AND REHAB CENTER", "SF_14": 3.0, "SF_15": 3.0, "cnty": "Wayne", "st": "MI", "Zip": 48228.0, "O_14": 2.0, "Q_15": 3.0, "O_15": 2.0, "city": "DETROIT", "beds": 205.0, "SR_15": 2.0}, {"Diff_star": 0.0, "addr": "3387 ELLA ST", "SR_14": 4.0, "Q_14": 4.0, "name": "AUTUMNWOOD OF DECKERVILLE", "SF_14": 4.0, "SF_15": 4.0, "cnty": "Sanilac", "st": "MI", "Zip": 48427.0, "O_14": 4.0, "Q_15": 2.0, "O_15": 4.0, "city": "DECKERVILLE", "beds": 84.0, "SR_15": 4.0}, {"Diff_star": -1.0, "addr": "243 WILEY ROAD, PO BOX 217", "SR_14": 3.0, "Q_14": 2.0, "name": "GRACE OF DOUGLAS", "SF_14": 4.0, "SF_15": 4.0, "cnty": "Allegan", "st": "MI", "Zip": 49406.0, "O_14": 4.0, "Q_15": 1.0, "O_15": 3.0, "city": "DOUGLAS", "beds": 51.0, "SR_15": 3.0}, {"Diff_star": 0.0, "addr": "11007 RADCLIFF DR", "SR_14": 4.0, "Q_14": 5.0, "name": "ALLENDALE NURSING AND REHABILITATION COMMUNITY", "SF_14": 3.0, "SF_15": 3.0, "cnty": "Ottawa", "st": "MI", "Zip": 49401.0, "O_14": 5.0, "Q_15": 5.0, "O_15": 5.0, "city": "ALLENDALE", "beds": 60.0, "SR_15": 4.0}, {"Diff_star": 0.0, "addr": "19100 WEST SEVEN MILE ROAD", "SR_14": 2.0, "Q_14": 4.0, "name": "REGENCY HEIGHTS-DETROIT", "SF_14": 3.0, "SF_15": 3.0, "cnty": "Wayne", "st": "MI", "Zip": 48219.0, "O_14": 2.0, "Q_15": 2.0, "O_15": 2.0, "city": "DETROIT", "beds": 128.0, "SR_15": 2.0}, {"Diff_star": 0.0, "addr": "33300 UTICA RD", "SR_14": 3.0, "Q_14": 5.0, "name": "SANCTUARY AT FRASER VILLA", "SF_14": 4.0, "SF_15": 3.0, "cnty": "Macomb", "st": "MI", "Zip": 48026.0, "O_14": 5.0, "Q_15": 5.0, "O_15": 5.0, "city": "FRASER", "beds": 141.0, "SR_15": 4.0}, {"Diff_star": 0.0, "addr": "1881 E GRAND BLVD", "SR_14": 4.0, "Q_14": 4.0, "name": "LAKESHORE HEALTHCARE ELMWOOD CAMPUS, INC", "SF_14": 4.0, "SF_15": 4.0, "cnty": "Wayne", "st": "MI", "Zip": 48211.0, "O_14": 4.0, "Q_15": 3.0, "O_15": 4.0, "city": "DETROIT", "beds": 120.0, "SR_15": 4.0}, {"Diff_star": -1.0, "addr": "1167 E HOPSON STREET", "SR_14": 4.0, "Q_14": 5.0, "name": "COURTNEY MANOR", "SF_14": 4.0, "SF_15": 3.0, "cnty": "Huron", "st": "MI", "Zip": 48413.0, "O_14": 5.0, "Q_15": 4.0, "O_15": 4.0, "city": "BAD AXE", "beds": 112.0, "SR_15": 4.0}, {"Diff_star": -1.0, "addr": "1950 32ND ST S E", "SR_14": 2.0, "Q_14": 4.0, "name": "THE LODGE AT MAPLECREEK", "SF_14": 4.0, "SF_15": 3.0, "cnty": "Kent", "st": "MI", "Zip": 49508.0, "O_14": 3.0, "Q_15": 4.0, "O_15": 2.0, "city": "GRAND RAPIDS", "beds": 125.0, "SR_15": 2.0}, {"Diff_star": 0.0, "addr": "805 WEST AVE", "SR_14": 2.0, "Q_14": 5.0, "name": "ALTERCARE OF BIG RAPIDS CTR FOR REHAB & NURSING CA", "SF_14": 5.0, "SF_15": 5.0, "cnty": "Mecosta", "st": "MI", "Zip": 49307.0, "O_14": 4.0, "Q_15": 5.0, "O_15": 4.0, "city": "BIG RAPIDS", "beds": 100.0, "SR_15": 2.0}, {"Diff_star": 0.0, "addr": "224 PARK AVE", "SR_14": 4.0, "Q_14": 4.0, "name": "PAUL OLIVER MEMORIAL HOSPITAL LTCU", "SF_14": 5.0, "SF_15": 5.0, "cnty": "Benzie", "st": "MI", "Zip": 49635.0, "O_14": 5.0, "Q_15": 3.0, "O_15": 5.0, "city": "FRANKFORT", "beds": 39.0, "SR_15": 4.0}, {"Diff_star": -1.0, "addr": "4800 CLINTONVILLE RD", "SR_14": 2.0, "Q_14": 2.0, "name": "CLARKSTON SPECIALTY HEALTHCARE CENTER", "SF_14": 4.0, "SF_15": 4.0, "cnty": "Oakland", "st": "MI", "Zip": 48346.0, "O_14": 3.0, "Q_15": 1.0, "O_15": 2.0, "city": "CLARKSTON", "beds": 120.0, "SR_15": 2.0}, {"Diff_star": -1.0, "addr": "21450 ARCHWOOD CIRCLE", "SR_14": 2.0, "Q_14": 4.0, "name": "BOTSFORD CONTINUING HEALTH CENTER", "SF_14": 4.0, "SF_15": 3.0, "cnty": "Oakland", "st": "MI", "Zip": 48336.0, "O_14": 3.0, "Q_15": 3.0, "O_15": 2.0, "city": "FARMINGTON HILLS", "beds": 179.0, "SR_15": 2.0}, {"Diff_star": -1.0, "addr": "111 FORD AVE", "SR_14": 2.0, "Q_14": 5.0, "name": "PARK GERIATRIC VILLAGE", "SF_14": 3.0, "SF_15": 3.0, "cnty": "Wayne", "st": "MI", "Zip": 48203.0, "O_14": 3.0, "Q_15": 3.0, "O_15": 2.0, "city": "HIGHLAND PARK", "beds": 114.0, "SR_15": 2.0}, {"Diff_star": -1.0, "addr": "2532 CADILLAC DR", "SR_14": 3.0, "Q_14": 3.0, "name": "NORTH WOODS NURSING CENTER", "SF_14": 4.0, "SF_15": 3.0, "cnty": "Clare", "st": "MI", "Zip": 48622.0, "O_14": 4.0, "Q_15": 2.0, "O_15": 3.0, "city": "FARWELL", "beds": 71.0, "SR_15": 3.0}, {"Diff_star": 0.0, "addr": "28349 JOY RD", "SR_14": 5.0, "Q_14": 5.0, "name": "FOUR CHAPLAINS NRSG CARE CTR", "SF_14": "", "SF_15": "", "cnty": "Wayne", "st": "MI", "Zip": 48185.0, "O_14": 5.0, "Q_15": 4.0, "O_15": 5.0, "city": "WESTLAND", "beds": 103.0, "SR_15": 5.0}, {"Diff_star": 0.0, "addr": "9146 WOODWARD AVE", "SR_14": 1.0, "Q_14": 5.0, "name": "LAKESHORE HEALTHCARE SKILLED NURSING & SPECIALTY C", "SF_14": 1.0, "SF_15": 1.0, "cnty": "Wayne", "st": "MI", "Zip": 48202.0, "O_14": 2.0, "Q_15": 5.0, "O_15": 2.0, "city": "DETROIT", "beds": 110.0, "SR_15": 1.0}, {"Diff_star": 0.0, "addr": "873 W AVON RD", "SR_14": 5.0, "Q_14": 5.0, "name": "SANCTUARY AT BELLBROOK", "SF_14": 4.0, "SF_15": 4.0, "cnty": "Oakland", "st": "MI", "Zip": 48307.0, "O_14": 5.0, "Q_15": 5.0, "O_15": 5.0, "city": "ROCHESTER HILLS", "beds": 66.0, "SR_15": 5.0}, {"Diff_star": 0.0, "addr": "320 BRIGHAM ST", "SR_14": 3.0, "Q_14": 4.0, "name": "LIFE CARE CENTER OF PLAINWELL", "SF_14": 3.0, "SF_15": 3.0, "cnty": "Allegan", "st": "MI", "Zip": 49080.0, "O_14": 3.0, "Q_15": 3.0, "O_15": 3.0, "city": "PLAINWELL", "beds": 119.0, "SR_15": 3.0}, {"Diff_star": 0.0, "addr": "826 W KING ST", "SR_14": 4.0, "Q_14": 4.0, "name": "MEMORIAL HEALTHCARE CENTER LTC", "SF_14": 5.0, "SF_15": 5.0, "cnty": "Shiawassee", "st": "MI", "Zip": 48867.0, "O_14": 5.0, "Q_15": 2.0, "O_15": 5.0, "city": "OWOSSO", "beds": 39.0, "SR_15": 4.0}, {"Diff_star": 0.0, "addr": "14900 SHORE LINE DR", "SR_14": 2.0, "Q_14": 5.0, "name": "EVANGELICAL HOME STERLING HEIGHTS", "SF_14": 4.0, "SF_15": 4.0, "cnty": "Macomb", "st": "MI", "Zip": 48313.0, "O_14": 4.0, "Q_15": 5.0, "O_15": 4.0, "city": "STERLING HEIGHTS", "beds": 132.0, "SR_15": 2.0}, {"Diff_star": -1.0, "addr": "21630 HESSEL", "SR_14": 1.0, "Q_14": 4.0, "name": "BEACONSHIRE NURSING CENTRE", "SF_14": 4.0, "SF_15": 3.0, "cnty": "Wayne", "st": "MI", "Zip": 48219.0, "O_14": 2.0, "Q_15": 2.0, "O_15": 1.0, "city": "DETROIT", "beds": 103.0, "SR_15": 1.0}, {"Diff_star": 0.0, "addr": "18300 E WARREN", "SR_14": 2.0, "Q_14": 4.0, "name": "RIVERVIEW HEALTH AND REHAB CENTER NORTH", "SF_14": 4.0, "SF_15": 4.0, "cnty": "Wayne", "st": "MI", "Zip": 48224.0, "O_14": 3.0, "Q_15": 3.0, "O_15": 3.0, "city": "DETROIT", "beds": 180.0, "SR_15": 2.0}, {"Diff_star": 0.0, "addr": "3500 WEST SOUTH BLVD", "SR_14": 3.0, "Q_14": 5.0, "name": "BOULEVARD HEALTH CENTER", "SF_14": 4.0, "SF_15": 4.0, "cnty": "Oakland", "st": "MI", "Zip": 48309.0, "O_14": 5.0, "Q_15": 5.0, "O_15": 5.0, "city": "ROCHESTER HILLS", "beds": 186.0, "SR_15": 3.0}, {"Diff_star": 0.0, "addr": "14900 MIDDLEBELT RD", "SR_14": 3.0, "Q_14": 4.0, "name": "AUTUMNWOOD OF LIVONIA", "SF_14": 2.0, "SF_15": 2.0, "cnty": "Wayne", "st": "MI", "Zip": 48154.0, "O_14": 3.0, "Q_15": 2.0, "O_15": 3.0, "city": "LIVONIA", "beds": 142.0, "SR_15": 3.0}, {"Diff_star": -1.0, "addr": "19840 HARPER AVE", "SR_14": 2.0, "Q_14": 5.0, "name": "ADVANTAGE LIVING CENTER - HARPER WOODS", "SF_14": 4.0, "SF_15": 3.0, "cnty": "Wayne", "st": "MI", "Zip": 48225.0, "O_14": 4.0, "Q_15": 5.0, "O_15": 3.0, "city": "HARPER WOODS", "beds": 153.0, "SR_15": 2.0}, {"Diff_star": 0.0, "addr": "585 EAST FLINT STREET", "SR_14": 4.0, "Q_14": 5.0, "name": "LAKE ORION NURSING CENTER", "SF_14": 4.0, "SF_15": 3.0, "cnty": "Oakland", "st": "MI", "Zip": 48362.0, "O_14": 5.0, "Q_15": 5.0, "O_15": 5.0, "city": "LAKE ORION", "beds": 120.0, "SR_15": 4.0}, {"Diff_star": 0.0, "addr": "512 BEACH ST", "SR_14": 1.0, "Q_14": 3.0, "name": "FENTON HEALTHCARE", "SF_14": 2.0, "SF_15": 2.0, "cnty": "Genesee", "st": "MI", "Zip": 48430.0, "O_14": 1.0, "Q_15": 1.0, "O_15": 1.0, "city": "FENTON", "beds": 121.0, "SR_15": 1.0}, {"Diff_star": 0.0, "addr": "1080 N 35TH STREET", "SR_14": 1.0, "Q_14": 4.0, "name": "LAURELS OF GALESBURG (THE)", "SF_14": 1.0, "SF_15": 1.0, "cnty": "Kalamazoo", "st": "MI", "Zip": 49053.0, "O_14": 1.0, "Q_15": 3.0, "O_15": 1.0, "city": "GALESBURG", "beds": 93.0, "SR_15": 1.0}, {"Diff_star": 0.0, "addr": "2372 FIFTEEN MILE RD", "SR_14": 2.0, "Q_14": 5.0, "name": "CHERRYWOOD NURSING AND LIVING", "SF_14": 4.0, "SF_15": 4.0, "cnty": "Macomb", "st": "MI", "Zip": 48310.0, "O_14": 4.0, "Q_15": 5.0, "O_15": 4.0, "city": "STERLING HEIGHTS", "beds": 180.0, "SR_15": 2.0}, {"Diff_star": 0.0, "addr": "449 QUARTER STREET", "SR_14": 1.0, "Q_14": 4.0, "name": "MIDMICHIGAN GLADWIN PINES NH", "SF_14": 4.0, "SF_15": 4.0, "cnty": "Gladwin", "st": "MI", "Zip": 48624.0, "O_14": 2.0, "Q_15": 5.0, "O_15": 2.0, "city": "GLADWIN", "beds": 110.0, "SR_15": 1.0}, {"Diff_star": -3.0, "addr": "34901 DIVISION RD", "SR_14": 2.0, "Q_14": 5.0, "name": "MEDILODGE OF RICHMOND", "SF_14": 4.0, "SF_15": 3.0, "cnty": "Macomb", "st": "MI", "Zip": 48062.0, "O_14": 4.0, "Q_15": 4.0, "O_15": 1.0, "city": "RICHMOND", "beds": 126.0, "SR_15": 1.0}, {"Diff_star": -1.0, "addr": "6950 FARMINGTON RD", "SR_14": 4.0, "Q_14": 5.0, "name": "HEARTLAND-WEST BLOOMFIELD", "SF_14": 3.0, "SF_15": 3.0, "cnty": "Oakland", "st": "MI", "Zip": 48322.0, "O_14": 5.0, "Q_15": 3.0, "O_15": 4.0, "city": "WEST BLOOMFIELD", "beds": 140.0, "SR_15": 4.0}, {"Diff_star": 0.0, "addr": "6445 W MAPLE", "SR_14": 5.0, "Q_14": 5.0, "name": "WEST BLOOMFIELD NURSING & CONV", "SF_14": 4.0, "SF_15": 4.0, "cnty": "Oakland", "st": "MI", "Zip": 48322.0, "O_14": 5.0, "Q_15": 5.0, "O_15": 5.0, "city": "WEST BLOOMFIELD", "beds": 172.0, "SR_15": 5.0}, {"Diff_star": 0.0, "addr": "6470 ALDEN DR", "SR_14": 5.0, "Q_14": 5.0, "name": "BORTZ HEALTH CARE ON GREEN LAKE", "SF_14": 4.0, "SF_15": 4.0, "cnty": "Oakland", "st": "MI", "Zip": 48324.0, "O_14": 5.0, "Q_15": 5.0, "O_15": 5.0, "city": "ORCHARD LAKE", "beds": 85.0, "SR_15": 5.0}, {"Diff_star": 0.0, "addr": "1524 PORTABELLA RD", "SR_14": 3.0, "Q_14": 4.0, "name": "TENDERCARE MT PLEASANT", "SF_14": 4.0, "SF_15": 4.0, "cnty": "Isabella", "st": "MI", "Zip": 48858.0, "O_14": 4.0, "Q_15": 3.0, "O_15": 4.0, "city": "MOUNT PLEASANT", "beds": 108.0, "SR_15": 3.0}, {"Diff_star": -2.0, "addr": "25375 KELLY RD", "SR_14": 3.0, "Q_14": 5.0, "name": "ADVANTAGE LIVING CENTER - ROSEVILLE", "SF_14": 4.0, "SF_15": 3.0, "cnty": "Macomb", "st": "MI", "Zip": 48066.0, "O_14": 5.0, "Q_15": 4.0, "O_15": 3.0, "city": "ROSEVILLE", "beds": 169.0, "SR_15": 3.0}, {"Diff_star": 0.0, "addr": "15311 SCHAEFER RD", "SR_14": 4.0, "Q_14": 4.0, "name": "SHEFFIELD MANOR NURSING & REHAB CENTER", "SF_14": 4.0, "SF_15": 2.0, "cnty": "Wayne", "st": "MI", "Zip": 48227.0, "O_14": 4.0, "Q_15": 2.0, "O_15": 4.0, "city": "DETROIT", "beds": 106.0, "SR_15": 4.0}, {"Diff_star": 0.0, "addr": "879 EAST MICHIGAN AVE", "SR_14": 1.0, "Q_14": 4.0, "name": "TENDERCARE MARSHALL", "SF_14": 3.0, "SF_15": 3.0, "cnty": "Calhoun", "st": "MI", "Zip": 49068.0, "O_14": 1.0, "Q_15": 2.0, "O_15": 1.0, "city": "MARSHALL", "beds": 98.0, "SR_15": 1.0}, {"Diff_star": -2.0, "addr": "2567 WEST GRAND BOULEVARD", "SR_14": 4.0, "Q_14": 5.0, "name": "BOULEVARD TEMPLE CARE CENTER, LLC", "SF_14": 2.0, "SF_15": 2.0, "cnty": "Wayne", "st": "MI", "Zip": 48208.0, "O_14": 5.0, "Q_15": 4.0, "O_15": 3.0, "city": "DETROIT", "beds": 124.0, "SR_15": 3.0}, {"Diff_star": 0.0, "addr": "600 DENMARK ST", "SR_14": 4.0, "Q_14": 4.0, "name": "GRAND OAKS NURSING CENTER", "SF_14": 3.0, "SF_15": 3.0, "cnty": "Lake", "st": "MI", "Zip": 49304.0, "O_14": 4.0, "Q_15": 4.0, "O_15": 4.0, "city": "BALDWIN", "beds": 79.0, "SR_15": 4.0}, {"Diff_star": 0.0, "addr": "5201 CONNER", "SR_14": 3.0, "Q_14": 4.0, "name": "OMNI CONTINUING CARE", "SF_14": 3.0, "SF_15": 3.0, "cnty": "Wayne", "st": "MI", "Zip": 48213.0, "O_14": 3.0, "Q_15": 3.0, "O_15": 3.0, "city": "DETROIT", "beds": 140.0, "SR_15": 3.0}, {"Diff_star": 0.0, "addr": "16391 ROTUNDA DR", "SR_14": 1.0, "Q_14": 5.0, "name": "OAKWOOD REHABILITATION & SKILLED NURSING CTR-DEARB", "SF_14": 5.0, "SF_15": 5.0, "cnty": "Wayne", "st": "MI", "Zip": 48120.0, "O_14": 2.0, "Q_15": 5.0, "O_15": 2.0, "city": "DEARBORN", "beds": 200.0, "SR_15": 1.0}, {"Diff_star": 0.0, "addr": "28 S PROSPECT ST", "SR_14": 3.0, "Q_14": 4.0, "name": "BORTZ HEALTH CARE OF YPSILANTI", "SF_14": 4.0, "SF_15": 4.0, "cnty": "Washtenaw", "st": "MI", "Zip": 48198.0, "O_14": 4.0, "Q_15": 2.0, "O_15": 4.0, "city": "YPSILANTI", "beds": 144.0, "SR_15": 3.0}, {"Diff_star": 0.0, "addr": "130 SAND CREEK HWY", "SR_14": 2.0, "Q_14": 4.0, "name": "MAGNUMCARE OF ADRIAN, LLC", "SF_14": 2.0, "SF_15": 2.0, "cnty": "Lenawee", "st": "MI", "Zip": 49221.0, "O_14": 2.0, "Q_15": 2.0, "O_15": 2.0, "city": "ADRIAN", "beds": 120.0, "SR_15": 2.0}, {"Diff_star": 0.0, "addr": "46100 SCHOENHERR RD", "SR_14": 3.0, "Q_14": 5.0, "name": "SHELBY NURSING CENTER", "SF_14": 2.0, "SF_15": 2.0, "cnty": "Macomb", "st": "MI", "Zip": 48315.0, "O_14": 4.0, "Q_15": 5.0, "O_15": 4.0, "city": "SHELBY TOWNSHIP", "beds": 180.0, "SR_15": 3.0}, {"Diff_star": -1.0, "addr": "395 W ANN ARBOR TRAIL", "SR_14": 2.0, "Q_14": 5.0, "name": "MEDILODGE OF PLYMOUTH", "SF_14": 4.0, "SF_15": 4.0, "cnty": "Wayne", "st": "MI", "Zip": 48170.0, "O_14": 4.0, "Q_15": 4.0, "O_15": 3.0, "city": "PLYMOUTH", "beds": 46.0, "SR_15": 2.0}, {"Diff_star": -2.0, "addr": "21017 MIDDLEBELT RD", "SR_14": 3.0, "Q_14": 5.0, "name": "THE MANOR OF FARMINGTON HILLS", "SF_14": 4.0, "SF_15": 3.0, "cnty": "Oakland", "st": "MI", "Zip": 48336.0, "O_14": 5.0, "Q_15": 4.0, "O_15": 3.0, "city": "FARMINGTON HILLS", "beds": 102.0, "SR_15": 3.0}, {"Diff_star": 0.0, "addr": "12250 E 12 MILE RD", "SR_14": 1.0, "Q_14": 5.0, "name": "SANCTUARY AT THE ABBEY", "SF_14": 4.0, "SF_15": 4.0, "cnty": "Macomb", "st": "MI", "Zip": 48093.0, "O_14": 2.0, "Q_15": 5.0, "O_15": 2.0, "city": "WARREN", "beds": 200.0, "SR_15": 1.0}, {"Diff_star": 0.0, "addr": "1290 E MICHIGAN HWY", "SR_14": 1.0, "Q_14": 3.0, "name": "HILLTOP MANOR HEALTH CARE CENTER", "SF_14": 1.0, "SF_15": 1.0, "cnty": "Roscommon", "st": "MI", "Zip": 48653.0, "O_14": 1.0, "Q_15": 1.0, "O_15": 1.0, "city": "ROSCOMMON", "beds": 118.0, "SR_15": 1.0}, {"Diff_star": 0.0, "addr": "4735 RANGER RD", "SR_14": 2.0, "Q_14": 4.0, "name": "LAURELS OF FULTON,THE", "SF_14": 2.0, "SF_15": 2.0, "cnty": "Gratiot", "st": "MI", "Zip": 48871.0, "O_14": 2.0, "Q_15": 3.0, "O_15": 2.0, "city": "PERRINTON", "beds": 50.0, "SR_15": 2.0}, {"Diff_star": 0.0, "addr": "26505 POWERS AVE", "SR_14": 1.0, "Q_14": 4.0, "name": "IMPERIAL HEALTHCARE CENTRE", "SF_14": 3.0, "SF_15": 3.0, "cnty": "Wayne", "st": "MI", "Zip": 48125.0, "O_14": 1.0, "Q_15": 3.0, "O_15": 1.0, "city": "DEARBORN HEIGHTS", "beds": 265.0, "SR_15": 1.0}, {"Diff_star": 0.0, "addr": "408 N FIFTH AVE", "SR_14": 4.0, "Q_14": 3.0, "name": "LAKEVIEW MANOR HEALTHCARE CENTER", "SF_14": 3.0, "SF_15": 3.0, "cnty": "Iosco", "st": "MI", "Zip": 48763.0, "O_14": 4.0, "Q_15": 2.0, "O_15": 4.0, "city": "TAWAS CITY", "beds": 60.0, "SR_15": 4.0}, {"Diff_star": 0.0, "addr": "14141 PENNSYLVANIA", "SR_14": 4.0, "Q_14": 4.0, "name": "RIVERGATE TERRACE", "SF_14": 3.0, "SF_15": 3.0, "cnty": "Wayne", "st": "MI", "Zip": 48193.0, "O_14": 4.0, "Q_15": 3.0, "O_15": 4.0, "city": "RIVERVIEW", "beds": 288.0, "SR_15": 4.0}, {"Diff_star": -1.0, "addr": "2815 NORTHWIND DR", "SR_14": 1.0, "Q_14": 5.0, "name": "NORTHWIND REHABILITATION AND HEALTH CARE CENTER", "SF_14": 4.0, "SF_15": 3.0, "cnty": "Ingham", "st": "MI", "Zip": 48823.0, "O_14": 2.0, "Q_15": 3.0, "O_15": 1.0, "city": "EAST LANSING", "beds": 113.0, "SR_15": 1.0}, {"Diff_star": 0.0, "addr": "13137 NORTH CLIO ROAD", "SR_14": 4.0, "Q_14": 5.0, "name": "MAPLE WOODS MANOR", "SF_14": 1.0, "SF_15": 1.0, "cnty": "Genesee", "st": "MI", "Zip": 48420.0, "O_14": 4.0, "Q_15": 5.0, "O_15": 4.0, "city": "CLIO", "beds": 151.0, "SR_15": 4.0}, {"Diff_star": 0.0, "addr": "2280 TOWER HILL RD", "SR_14": 3.0, "Q_14": 5.0, "name": "KING NURSING & REHABILITATION COMMUNITY", "SF_14": 4.0, "SF_15": 4.0, "cnty": "Roscommon", "st": "MI", "Zip": 48629.0, "O_14": 5.0, "Q_15": 5.0, "O_15": 5.0, "city": "HOUGHTON LAKE", "beds": 61.0, "SR_15": 3.0}, {"Diff_star": -1.0, "addr": "700 STEWART RD", "SR_14": 3.0, "Q_14": 3.0, "name": "MERCY MEMORIAL NURSING CENTER", "SF_14": 4.0, "SF_15": 4.0, "cnty": "Monroe", "st": "MI", "Zip": 48161.0, "O_14": 4.0, "Q_15": 1.0, "O_15": 3.0, "city": "MONROE", "beds": 69.0, "SR_15": 3.0}, {"Diff_star": -1.0, "addr": "4427 VENOY RD", "SR_14": 1.0, "Q_14": 3.0, "name": "WAYNE HEALTH AND REHAB CENTER", "SF_14": 4.0, "SF_15": 3.0, "cnty": "Wayne", "st": "MI", "Zip": 48184.0, "O_14": 2.0, "Q_15": 1.0, "O_15": 1.0, "city": "WAYNE", "beds": 179.0, "SR_15": 1.0}, {"Diff_star": 0.0, "addr": "695 MITZI ST", "SR_14": 1.0, "Q_14": 5.0, "name": "HILLCREST NURSING AND REHABILITATION COMMUNITY", "SF_14": 3.0, "SF_15": 4.0, "cnty": "Muskegon", "st": "MI", "Zip": 49445.0, "O_14": 2.0, "Q_15": 5.0, "O_15": 2.0, "city": "NORTH MUSKEGON", "beds": 62.0, "SR_15": 1.0}, {"Diff_star": 0.0, "addr": "22401 FOSTER WINTER DR", "SR_14": 4.0, "Q_14": 3.0, "name": "OAKLAND NURSING CENTER", "SF_14": 4.0, "SF_15": 4.0, "cnty": "Oakland", "st": "MI", "Zip": 48075.0, "O_14": 4.0, "Q_15": 4.0, "O_15": 4.0, "city": "SOUTHFIELD", "beds": 26.0, "SR_15": 4.0}, {"Diff_star": 0.0, "addr": "1451 BRONSON WAY", "SR_14": 2.0, "Q_14": 5.0, "name": "THE SPRINGS AT THE FOUNTAINS", "SF_14": 5.0, "SF_15": 5.0, "cnty": "Kalamazoo", "st": "MI", "Zip": 49009.0, "O_14": 4.0, "Q_15": 5.0, "O_15": 4.0, "city": "KALAMAZOO", "beds": 50.0, "SR_15": 2.0}, {"Diff_star": 0.0, "addr": "320 E CENTRAL AVE", "SR_14": 3.0, "Q_14": 5.0, "name": "HERITAGE NURSING AND REHABILITATION COMMUNITY", "SF_14": 4.0, "SF_15": 4.0, "cnty": "Ottawa", "st": "MI", "Zip": 49464.0, "O_14": 5.0, "Q_15": 5.0, "O_15": 5.0, "city": "ZEELAND", "beds": 49.0, "SR_15": 3.0}, {"Diff_star": 0.0, "addr": "14676 W UPRIGHT", "SR_14": 5.0, "Q_14": 4.0, "name": "BOULDER PARK TERRACE", "SF_14": 4.0, "SF_15": 4.0, "cnty": "Charlevoix", "st": "MI", "Zip": 49720.0, "O_14": 5.0, "Q_15": 4.0, "O_15": 5.0, "city": "CHARLEVOIX", "beds": 61.0, "SR_15": 5.0}, {"Diff_star": 0.0, "addr": "15063 GRATIOT AVE", "SR_14": 1.0, "Q_14": 5.0, "name": "ST JAMES NURSING CENTER", "SF_14": 3.0, "SF_15": 3.0, "cnty": "Wayne", "st": "MI", "Zip": 48205.0, "O_14": 2.0, "Q_15": 5.0, "O_15": 2.0, "city": "DETROIT", "beds": 143.0, "SR_15": 1.0}, {"Diff_star": 0.0, "addr": "33875 KIELY DR", "SR_14": 3.0, "Q_14": 5.0, "name": "THE VILLAGE OF EAST HARBOR", "SF_14": 4.0, "SF_15": 4.0, "cnty": "Macomb", "st": "MI", "Zip": 48047.0, "O_14": 5.0, "Q_15": 5.0, "O_15": 5.0, "city": "CHESTERFIELD TOWNSHI", "beds": 90.0, "SR_15": 3.0}, {"Diff_star": -1.0, "addr": "24500 MEADOWBROOK RD", "SR_14": 3.0, "Q_14": 5.0, "name": "THE MANOR OF NOVI", "SF_14": 4.0, "SF_15": 4.0, "cnty": "Oakland", "st": "MI", "Zip": 48375.0, "O_14": 5.0, "Q_15": 3.0, "O_15": 4.0, "city": "NOVI", "beds": 140.0, "SR_15": 3.0}, {"Diff_star": 0.0, "addr": "36975 W FIVE MILE RD", "SR_14": 4.0, "Q_14": 5.0, "name": "MARYWOOD NURSING CARE CENTER", "SF_14": 5.0, "SF_15": 5.0, "cnty": "Wayne", "st": "MI", "Zip": 48154.0, "O_14": 5.0, "Q_15": 5.0, "O_15": 5.0, "city": "LIVONIA", "beds": 103.0, "SR_15": 4.0}, {"Diff_star": 0.0, "addr": "440 E GRAND BLVD", "SR_14": 5.0, "Q_14": 4.0, "name": "ALPHA MANOR NURSING HOME", "SF_14": 4.0, "SF_15": 4.0, "cnty": "Wayne", "st": "MI", "Zip": 48207.0, "O_14": 5.0, "Q_15": 3.0, "O_15": 5.0, "city": "DETROIT", "beds": 80.0, "SR_15": 5.0}, {"Diff_star": 0.0, "addr": "103 EAST WALLACE STREET", "SR_14": 4.0, "Q_14": 5.0, "name": "ASHLEY CARE CENTER", "SF_14": 5.0, "SF_15": 5.0, "cnty": "Gratiot", "st": "MI", "Zip": 48806.0, "O_14": 5.0, "Q_15": 5.0, "O_15": 5.0, "city": "ASHLEY", "beds": 63.0, "SR_15": 4.0}, {"Diff_star": 0.0, "addr": "415 FRIANT STREET", "SR_14": 5.0, "Q_14": 5.0, "name": "RIVERSIDE NURSING CENTRE", "SF_14": 5.0, "SF_15": 5.0, "cnty": "Ottawa", "st": "MI", "Zip": 49417.0, "O_14": 5.0, "Q_15": 5.0, "O_15": 5.0, "city": "GRAND HAVEN", "beds": 34.0, "SR_15": 5.0}, {"Diff_star": -1.0, "addr": "675 WAGNER DR", "SR_14": 2.0, "Q_14": 5.0, "name": "MANOR OF BATTLE CREEK SKILLED NURSING AND REHAB", "SF_14": 4.0, "SF_15": 4.0, "cnty": "Calhoun", "st": "MI", "Zip": 49017.0, "O_14": 4.0, "Q_15": 4.0, "O_15": 3.0, "city": "BATTLE CREEK", "beds": 82.0, "SR_15": 2.0}, {"Diff_star": 0.0, "addr": "703 ROBINSON RD", "SR_14": 1.0, "Q_14": 5.0, "name": "RIDGECREST HEALTH CAMPUS", "SF_14": 5.0, "SF_15": 5.0, "cnty": "Jackson", "st": "MI", "Zip": 49203.0, "O_14": 2.0, "Q_15": 5.0, "O_15": 2.0, "city": "JACKSON", "beds": 50.0, "SR_15": 1.0}, {"Diff_star": 0.0, "addr": "16181 HUBBELL ST", "SR_14": 2.0, "Q_14": 5.0, "name": "MANOR OF NORTHWEST DETROIT SKILLED NURSING AND REH", "SF_14": 1.0, "SF_15": 1.0, "cnty": "Wayne", "st": "MI", "Zip": 48235.0, "O_14": 2.0, "Q_15": 5.0, "O_15": 2.0, "city": "DETROIT", "beds": 154.0, "SR_15": 2.0}, {"Diff_star": 0.0, "addr": "2589 44TH ST SE", "SR_14": 4.0, "Q_14": 5.0, "name": "HOLLAND HOME BRETON REHABILITATION & LIVING CENTRE", "SF_14": 4.0, "SF_15": 4.0, "cnty": "Kent", "st": "MI", "Zip": 49512.0, "O_14": 5.0, "Q_15": 5.0, "O_15": 5.0, "city": "GRAND RAPIDS", "beds": 58.0, "SR_15": 4.0}, {"Diff_star": 0.0, "addr": "22950 NORTHLINE RD", "SR_14": 1.0, "Q_14": 4.0, "name": "TENDERCARE HEALTH AND REHABILITATION CTR OF TAYLOR", "SF_14": 5.0, "SF_15": 5.0, "cnty": "Wayne", "st": "MI", "Zip": 48180.0, "O_14": 2.0, "Q_15": 4.0, "O_15": 2.0, "city": "TAYLOR", "beds": 150.0, "SR_15": 1.0}, {"Diff_star": 0.0, "addr": "2575 N DRAKE RD", "SR_14": 1.0, "Q_14": 5.0, "name": "TENDERCARE OF WESTWOOD", "SF_14": 4.0, "SF_15": 4.0, "cnty": "Kalamazoo", "st": "MI", "Zip": 49007.0, "O_14": 2.0, "Q_15": 5.0, "O_15": 2.0, "city": "KALAMAZOO", "beds": 97.0, "SR_15": 1.0}, {"Diff_star": 0.0, "addr": "950 BARLOW RD", "SR_14": 3.0, "Q_14": 5.0, "name": "LINCOLN HAVEN NURSING & REHAB COMMUNITY", "SF_14": 4.0, "SF_15": 4.0, "cnty": "Alcona", "st": "MI", "Zip": 48742.0, "O_14": 5.0, "Q_15": 5.0, "O_15": 5.0, "city": "LINCOLN", "beds": 39.0, "SR_15": 3.0}, {"Diff_star": 0.0, "addr": "1385 E EMPIRE AVE", "SR_14": 4.0, "Q_14": 5.0, "name": "ORCHARD GROVE NURSING & REHAB CENTER", "SF_14": "", "SF_15": "", "cnty": "Berrien", "st": "MI", "Zip": 49022.0, "O_14": 5.0, "Q_15": 5.0, "O_15": 5.0, "city": "BENTON HARBOR", "beds": 95.0, "SR_15": 4.0}, {"Diff_star": -1.0, "addr": "8633 N MAIN ST", "SR_14": 2.0, "Q_14": 4.0, "name": "REGENCY AT WHITMORE LAKE", "SF_14": 4.0, "SF_15": 3.0, "cnty": "Washtenaw", "st": "MI", "Zip": 48189.0, "O_14": 3.0, "Q_15": 3.0, "O_15": 2.0, "city": "WHITMORE LAKE", "beds": 135.0, "SR_15": 2.0}, {"Diff_star": 0.0, "addr": "37700 HARPER AVENUE", "SR_14": 1.0, "Q_14": 4.0, "name": "LAKEPOINTE SENIOR CARE AND REHAB CENTER, L L C", "SF_14": 4.0, "SF_15": 3.0, "cnty": "Macomb", "st": "MI", "Zip": 48036.0, "O_14": 2.0, "Q_15": 3.0, "O_15": 2.0, "city": "CLINTON TOWNSHIP", "beds": 134.0, "SR_15": 2.0}, {"Diff_star": 0.0, "addr": "145 COLUMBIA AVE", "SR_14": 4.0, "Q_14": 5.0, "name": "INN AT FREEDOM VILLAGE, THE", "SF_14": 5.0, "SF_15": 5.0, "cnty": "Ottawa", "st": "MI", "Zip": 49423.0, "O_14": 5.0, "Q_15": 5.0, "O_15": 5.0, "city": "HOLLAND", "beds": 39.0, "SR_15": 4.0}, {"Diff_star": 0.0, "addr": "1300 W BROADWAY AVE", "SR_14": 2.0, "Q_14": 5.0, "name": "ROOSEVELT PARK NURSING AND REHABILITATION COMMUNIT", "SF_14": 4.0, "SF_15": 4.0, "cnty": "Muskegon", "st": "MI", "Zip": 49441.0, "O_14": 4.0, "Q_15": 5.0, "O_15": 4.0, "city": "MUSKEGON", "beds": 39.0, "SR_15": 2.0}, {"Diff_star": 0.0, "addr": "4436 BEECHER RD", "SR_14": 4.0, "Q_14": 5.0, "name": "WILLOWBROOK MANOR", "SF_14": 3.0, "SF_15": 3.0, "cnty": "Genesee", "st": "MI", "Zip": 48532.0, "O_14": 5.0, "Q_15": 5.0, "O_15": 5.0, "city": "FLINT", "beds": 101.0, "SR_15": 4.0}, {"Diff_star": 0.0, "addr": "52225 B AVENUE", "SR_14": 2.0, "Q_14": 4.0, "name": "OUR LADY OF MERCY HEALTH AND REHAB", "SF_14": 4.0, "SF_15": 4.0, "cnty": "Houghton", "st": "MI", "Zip": 49934.0, "O_14": 3.0, "Q_15": 3.0, "O_15": 3.0, "city": "HUBBELL", "beds": 55.0, "SR_15": 2.0}, {"Diff_star": -2.0, "addr": "1400 POPLAR ST", "SR_14": 2.0, "Q_14": 2.0, "name": "CYPRESS MANOR HEALTH AND REHABILITATION CENTER", "SF_14": 4.0, "SF_15": 3.0, "cnty": "Houghton", "st": "MI", "Zip": 49930.0, "O_14": 3.0, "Q_15": 1.0, "O_15": 1.0, "city": "HANCOCK", "beds": 63.0, "SR_15": 2.0}, {"Diff_star": -1.0, "addr": "555 N BRADLEY HWY", "SR_14": 3.0, "Q_14": 4.0, "name": "TENDERCARE HEALTH CENTER-ROGERS CITY", "SF_14": 4.0, "SF_15": 3.0, "cnty": "Presque Isle", "st": "MI", "Zip": 49779.0, "O_14": 4.0, "Q_15": 2.0, "O_15": 3.0, "city": "ROGERS CITY", "beds": 106.0, "SR_15": 3.0}, {"Diff_star": 0.0, "addr": "900 MAAS ST", "SR_14": 4.0, "Q_14": 4.0, "name": "EASTWOOD NURSING CENTER", "SF_14": 4.0, "SF_15": 4.0, "cnty": "Marquette", "st": "MI", "Zip": 49866.0, "O_14": 4.0, "Q_15": 2.0, "O_15": 4.0, "city": "NEGAUNEE", "beds": 100.0, "SR_15": 4.0}, {"Diff_star": -2.0, "addr": "5601 HATCHERY RD", "SR_14": 2.0, "Q_14": 3.0, "name": "CANTERBURY-ON-THE-LAKE", "SF_14": 4.0, "SF_15": 3.0, "cnty": "Oakland", "st": "MI", "Zip": 48329.0, "O_14": 3.0, "Q_15": 1.0, "O_15": 1.0, "city": "WATERFORD", "beds": 140.0, "SR_15": 2.0}, {"Diff_star": 0.0, "addr": "39312 WOODWARD", "SR_14": 2.0, "Q_14": 5.0, "name": "WOODWARD HILLS NURSING CENTER", "SF_14": 2.0, "SF_15": 2.0, "cnty": "Oakland", "st": "MI", "Zip": 48304.0, "O_14": 3.0, "Q_15": 5.0, "O_15": 3.0, "city": "BLOOMFIELD HILLS", "beds": 190.0, "SR_15": 2.0}, {"Diff_star": 0.0, "addr": "501 SECOND ST, BOX 246", "SR_14": 1.0, "Q_14": 4.0, "name": "MENOMINEE CARE CENTER", "SF_14": 3.0, "SF_15": 3.0, "cnty": "Menominee", "st": "MI", "Zip": 49858.0, "O_14": 1.0, "Q_15": 3.0, "O_15": 1.0, "city": "MENOMINEE", "beds": 59.0, "SR_15": 1.0}, {"Diff_star": -1.0, "addr": "34330 VAN BORN RD", "SR_14": 2.0, "Q_14": 2.0, "name": "TRANSITIONAL HEALTH SERVICES OF WAYNE", "SF_14": 4.0, "SF_15": 4.0, "cnty": "Wayne", "st": "MI", "Zip": 48184.0, "O_14": 3.0, "Q_15": 1.0, "O_15": 2.0, "city": "WAYNE", "beds": 49.0, "SR_15": 2.0}, {"Diff_star": 0.0, "addr": "502 EAST POTTAWATAMIE", "SR_14": 4.0, "Q_14": 5.0, "name": "HERRICK MANOR", "SF_14": 4.0, "SF_15": 4.0, "cnty": "Lenawee", "st": "MI", "Zip": 49286.0, "O_14": 5.0, "Q_15": 5.0, "O_15": 5.0, "city": "TECUMSEH", "beds": 25.0, "SR_15": 4.0}, {"Diff_star": 0.0, "addr": "707 ARMSTRONG", "SR_14": 1.0, "Q_14": 4.0, "name": "PINES REHABILITATION & HEALTH CARE CENTER, THE", "SF_14": 4.0, "SF_15": 4.0, "cnty": "Ingham", "st": "MI", "Zip": 48911.0, "O_14": 2.0, "Q_15": 2.0, "O_15": 2.0, "city": "LANSING", "beds": 125.0, "SR_15": 1.0}, {"Diff_star": -1.0, "addr": "7277 RICHARDSON RD", "SR_14": 4.0, "Q_14": 5.0, "name": "BLOOMFIELD ORCHARD VILLA", "SF_14": 4.0, "SF_15": 3.0, "cnty": "Oakland", "st": "MI", "Zip": 48323.0, "O_14": 5.0, "Q_15": 4.0, "O_15": 4.0, "city": "WEST BLOOMFIELD", "beds": 50.0, "SR_15": 4.0}, {"Diff_star": 0.0, "addr": "481 VILLAGE GREEN LANE", "SR_14": 4.0, "Q_14": 5.0, "name": "MEDILODGE OF MONROE", "SF_14": 3.0, "SF_15": 3.0, "cnty": "Monroe", "st": "MI", "Zip": 48162.0, "O_14": 5.0, "Q_15": 5.0, "O_15": 5.0, "city": "MONROE", "beds": 103.0, "SR_15": 4.0}, {"Diff_star": 0.0, "addr": "1500 NORTH LOWELL STREET", "SR_14": 3.0, "Q_14": 5.0, "name": "WESTGATE NURSING & REHAB COMMUNITY", "SF_14": 3.0, "SF_15": 3.0, "cnty": "Gogebic", "st": "MI", "Zip": 49938.0, "O_14": 4.0, "Q_15": 5.0, "O_15": 4.0, "city": "IRONWOOD", "beds": 65.0, "SR_15": 3.0}, {"Diff_star": 1.0, "addr": "824 S HURON PO BOX 408", "SR_14": 2.0, "Q_14": 4.0, "name": "TENDERCARE HEALTH CENTER OF CHEBOYGAN", "SF_14": 4.0, "SF_15": 4.0, "cnty": "Cheboygan", "st": "MI", "Zip": 49721.0, "O_14": 3.0, "Q_15": 2.0, "O_15": 4.0, "city": "CHEBOYGAN", "beds": 85.0, "SR_15": 3.0}, {"Diff_star": 0.0, "addr": "168 SOUTH HOWELL ST", "SR_14": 4.0, "Q_14": 5.0, "name": "HILLSDALE COMMUNITY HEALTH CEN", "SF_14": 2.0, "SF_15": 2.0, "cnty": "Hillsdale", "st": "MI", "Zip": 49242.0, "O_14": 5.0, "Q_15": 5.0, "O_15": 5.0, "city": "HILLSDALE", "beds": 39.0, "SR_15": 4.0}, {"Diff_star": 0.0, "addr": "9480 E M-21", "SR_14": 1.0, "Q_14": 4.0, "name": "OVID HEALTHCARE CENTER", "SF_14": 2.0, "SF_15": 2.0, "cnty": "Clinton", "st": "MI", "Zip": 48866.0, "O_14": 1.0, "Q_15": 2.0, "O_15": 1.0, "city": "OVID", "beds": 94.0, "SR_15": 1.0}, {"Diff_star": 0.0, "addr": "3370 EAST MORGAN RD", "SR_14": 4.0, "Q_14": 5.0, "name": "WHITEHALL HEALTHCARE CENTER OF ANN ARBOR", "SF_14": 3.0, "SF_15": 3.0, "cnty": "Washtenaw", "st": "MI", "Zip": 48108.0, "O_14": 5.0, "Q_15": 5.0, "O_15": 5.0, "city": "ANN ARBOR", "beds": 102.0, "SR_15": 4.0}, {"Diff_star": 0.0, "addr": "43455 W TEN MILE RD", "SR_14": 1.0, "Q_14": 4.0, "name": "WHITEHALL HEALTHCARE CENTER OF NOVI", "SF_14": 1.0, "SF_15": 1.0, "cnty": "Oakland", "st": "MI", "Zip": 48375.0, "O_14": 1.0, "Q_15": 2.0, "O_15": 1.0, "city": "NOVI", "beds": 82.0, "SR_15": 1.0}, {"Diff_star": 0.0, "addr": "120 BASELINE RD", "SR_14": 3.0, "Q_14": 5.0, "name": "COUNTRYSIDE NURSING AND REHABILITATION COMMUNITY", "SF_14": 3.0, "SF_15": 3.0, "cnty": "Van Buren", "st": "MI", "Zip": 49090.0, "O_14": 4.0, "Q_15": 5.0, "O_15": 4.0, "city": "SOUTH HAVEN", "beds": 93.0, "SR_15": 3.0}, {"Diff_star": 0.0, "addr": "2121 ROBINSON RD", "SR_14": 1.0, "Q_14": 4.0, "name": "COUNTRYSIDE CARE CENTER", "SF_14": 4.0, "SF_15": 4.0, "cnty": "Jackson", "st": "MI", "Zip": 49203.0, "O_14": 2.0, "Q_15": 4.0, "O_15": 2.0, "city": "JACKSON", "beds": 108.0, "SR_15": 1.0}, {"Diff_star": 0.0, "addr": "1375 NORTH MAIN STREET", "SR_14": 4.0, "Q_14": 3.0, "name": "LAPEER REGIONAL EXTENDED CARE", "SF_14": 5.0, "SF_15": 5.0, "cnty": "Lapeer", "st": "MI", "Zip": 48446.0, "O_14": 5.0, "Q_15": 3.0, "O_15": 5.0, "city": "LAPEER", "beds": 19.0, "SR_15": 4.0}, {"Diff_star": 0.0, "addr": "8365 NEWBURGH RD", "SR_14": 2.0, "Q_14": 5.0, "name": "FOUR SEASONS NURSING CENTER OF WESTLAND", "SF_14": 4.0, "SF_15": 4.0, "cnty": "Wayne", "st": "MI", "Zip": 48185.0, "O_14": 4.0, "Q_15": 5.0, "O_15": 4.0, "city": "WESTLAND", "beds": 180.0, "SR_15": 2.0}, {"Diff_star": 0.0, "addr": "4701 E. HURON RIVER DR", "SR_14": 4.0, "Q_14": 4.0, "name": "HEARTLAND HEALTH CARE CENTER-ANN ARBOR", "SF_14": 4.0, "SF_15": 3.0, "cnty": "Washtenaw", "st": "MI", "Zip": 48105.0, "O_14": 4.0, "Q_15": 4.0, "O_15": 4.0, "city": "ANN ARBOR", "beds": 180.0, "SR_15": 4.0}, {"Diff_star": 0.0, "addr": "19933 WEST THIRTEEN MILE ROAD", "SR_14": 5.0, "Q_14": 5.0, "name": "EVERGREEN HEALTH & LIVING CTR", "SF_14": 4.0, "SF_15": 3.0, "cnty": "Oakland", "st": "MI", "Zip": 48076.0, "O_14": 5.0, "Q_15": 5.0, "O_15": 5.0, "city": "SOUTHFIELD", "beds": 151.0, "SR_15": 5.0}, {"Diff_star": 0.0, "addr": "1234 GOLF COURSE RD", "SR_14": 5.0, "Q_14": 5.0, "name": "TENDERCARE GREEN VIEW", "SF_14": 4.0, "SF_15": 4.0, "cnty": "Alpena", "st": "MI", "Zip": 49707.0, "O_14": 5.0, "Q_15": 3.0, "O_15": 5.0, "city": "ALPENA", "beds": 53.0, "SR_15": 5.0}, {"Diff_star": 0.0, "addr": "9051 SILVER LAKE RD", "SR_14": 5.0, "Q_14": 4.0, "name": "ARGENTINE CARE CENTER", "SF_14": 4.0, "SF_15": 4.0, "cnty": "Genesee", "st": "MI", "Zip": 48451.0, "O_14": 5.0, "Q_15": 3.0, "O_15": 5.0, "city": "LINDEN", "beds": 60.0, "SR_15": 5.0}, {"Diff_star": 0.0, "addr": "515 N. MICHIGAN", "SR_14": 4.0, "Q_14": 3.0, "name": "COVENANT MEDICAL CENTER,  INC", "SF_14": 4.0, "SF_15": 4.0, "cnty": "Saginaw", "st": "MI", "Zip": 48602.0, "O_14": 4.0, "Q_15": 2.0, "O_15": 4.0, "city": "SAGINAW", "beds": 20.0, "SR_15": 4.0}, {"Diff_star": -1.0, "addr": "28910 PLYMOUTH ROAD", "SR_14": 2.0, "Q_14": 5.0, "name": "WELLSPRING LUTHERAN SERVICES", "SF_14": 4.0, "SF_15": 4.0, "cnty": "Wayne", "st": "MI", "Zip": 48150.0, "O_14": 4.0, "Q_15": 4.0, "O_15": 3.0, "city": "LIVONIA", "beds": 88.0, "SR_15": 2.0}, {"Diff_star": -1.0, "addr": "1086 W. BURDICKVILLE ROAD", "SR_14": 4.0, "Q_14": 3.0, "name": "MAPLE VALLEY NURSING HOME", "SF_14": 3.0, "SF_15": 3.0, "cnty": "Leelanau", "st": "MI", "Zip": 49664.0, "O_14": 4.0, "Q_15": 1.0, "O_15": 3.0, "city": "MAPLE CITY", "beds": 25.0, "SR_15": 4.0}, {"Diff_star": 0.0, "addr": "26900 FRANKLIN ROAD", "SR_14": 3.0, "Q_14": 4.0, "name": "LAKELAND CENTER (THE)", "SF_14": 4.0, "SF_15": 4.0, "cnty": "Oakland", "st": "MI", "Zip": 48034.0, "O_14": 4.0, "Q_15": 2.0, "O_15": 4.0, "city": "SOUTHFIELD", "beds": 91.0, "SR_15": 3.0}, {"Diff_star": 0.0, "addr": "33600 LUTHER LANE", "SR_14": 2.0, "Q_14": 4.0, "name": "LIVONIA WOODS NURSING AND REHABILITATION", "SF_14": 3.0, "SF_15": 3.0, "cnty": "Wayne", "st": "MI", "Zip": 48154.0, "O_14": 2.0, "Q_15": 3.0, "O_15": 2.0, "city": "LIVONIA", "beds": 72.0, "SR_15": 2.0}, {"Diff_star": 0.0, "addr": "N 306 MAPLE STREET", "SR_14": 5.0, "Q_14": 5.0, "name": "ROUBAL CARE AND REHAB CENTER", "SF_14": 4.0, "SF_15": 4.0, "cnty": "Menominee", "st": "MI", "Zip": 49887.0, "O_14": 5.0, "Q_15": 5.0, "O_15": 5.0, "city": "STEPHENSON", "beds": 39.0, "SR_15": 5.0}, {"Diff_star": 0.0, "addr": "1395 S HURON RD", "SR_14": 5.0, "Q_14": 5.0, "name": "HURON WOODS NURSING CENTER", "SF_14": 3.0, "SF_15": 3.0, "cnty": "Bay", "st": "MI", "Zip": 48631.0, "O_14": 5.0, "Q_15": 5.0, "O_15": 5.0, "city": "KAWKAWLIN", "beds": 60.0, "SR_15": 5.0}, {"Diff_star": 0.0, "addr": "15101 FORD RD", "SR_14": 3.0, "Q_14": 3.0, "name": "HENRY FORD VILLAGE, INC", "SF_14": 3.0, "SF_15": 3.0, "cnty": "Wayne", "st": "MI", "Zip": 48126.0, "O_14": 3.0, "Q_15": 2.0, "O_15": 3.0, "city": "DEARBORN", "beds": 89.0, "SR_15": 3.0}, {"Diff_star": 0.0, "addr": "1211 STATE LINE RD", "SR_14": 4.0, "Q_14": 5.0, "name": "WEST WOODS OF NILES", "SF_14": 2.0, "SF_15": 2.0, "cnty": "Berrien", "st": "MI", "Zip": 49120.0, "O_14": 5.0, "Q_15": 5.0, "O_15": 5.0, "city": "NILES", "beds": 121.0, "SR_15": 4.0}, {"Diff_star": -1.0, "addr": "1533 CADILLAC", "SR_14": 1.0, "Q_14": 4.0, "name": "ST FRANCIS NURSING CENTER", "SF_14": 4.0, "SF_15": 3.0, "cnty": "Wayne", "st": "MI", "Zip": 48214.0, "O_14": 2.0, "Q_15": 4.0, "O_15": 1.0, "city": "DETROIT", "beds": 81.0, "SR_15": 1.0}, {"Diff_star": -1.0, "addr": "8380 GEDDES RD", "SR_14": 2.0, "Q_14": 3.0, "name": "SUPERIOR WOODS HEALTHCARE CENTER", "SF_14": 3.0, "SF_15": 3.0, "cnty": "Washtenaw", "st": "MI", "Zip": 48198.0, "O_14": 2.0, "Q_15": 1.0, "O_15": 1.0, "city": "YPSILANTI", "beds": 94.0, "SR_15": 2.0}, {"Diff_star": 0.0, "addr": "1333 WELLS ST", "SR_14": 2.0, "Q_14": 5.0, "name": "RIVERIDGE MANOR", "SF_14": 3.0, "SF_15": 3.0, "cnty": "Berrien", "st": "MI", "Zip": 49120.0, "O_14": 3.0, "Q_15": 5.0, "O_15": 3.0, "city": "NILES", "beds": 84.0, "SR_15": 2.0}, {"Diff_star": -1.0, "addr": "2394 MIDLAND RD", "SR_14": 2.0, "Q_14": 5.0, "name": "THE CARRIAGE HOUSE OF BAY CITY", "SF_14": 4.0, "SF_15": 4.0, "cnty": "Bay", "st": "MI", "Zip": 48706.0, "O_14": 4.0, "Q_15": 4.0, "O_15": 3.0, "city": "BAY CITY", "beds": 165.0, "SR_15": 2.0}, {"Diff_star": 0.0, "addr": "9317 W VIENNA RD", "SR_14": 3.0, "Q_14": 3.0, "name": "MEDILODGE OF MONTROSE INC", "SF_14": 4.0, "SF_15": 4.0, "cnty": "Genesee", "st": "MI", "Zip": 48457.0, "O_14": 4.0, "Q_15": 2.0, "O_15": 4.0, "city": "MONTROSE", "beds": 121.0, "SR_15": 3.0}, {"Diff_star": -1.0, "addr": "330 LINCOLN AVE", "SR_14": 3.0, "Q_14": 3.0, "name": "IRON RIVER CARE CENTER", "SF_14": 3.0, "SF_15": 3.0, "cnty": "Iron", "st": "MI", "Zip": 49935.0, "O_14": 3.0, "Q_15": 1.0, "O_15": 2.0, "city": "IRON RIVER", "beds": 69.0, "SR_15": 3.0}, {"Diff_star": 0.0, "addr": "1101 S SCOTT RD", "SR_14": 3.0, "Q_14": 4.0, "name": "HAZEL I FINDLAY COUNTRY MANOR", "SF_14": 4.0, "SF_15": 4.0, "cnty": "Clinton", "st": "MI", "Zip": 48879.0, "O_14": 4.0, "Q_15": 2.0, "O_15": 4.0, "city": "SAINT JOHNS", "beds": 157.0, "SR_15": 3.0}, {"Diff_star": 0.0, "addr": "29667 WENTWORTH AVENUE", "SR_14": 4.0, "Q_14": 5.0, "name": "WOODHAVEN RETIREMENT COMMUNITY", "SF_14": 5.0, "SF_15": 5.0, "cnty": "Wayne", "st": "MI", "Zip": 48154.0, "O_14": 5.0, "Q_15": 5.0, "O_15": 5.0, "city": "LIVONIA", "beds": 32.0, "SR_15": 4.0}, {"Diff_star": 0.0, "addr": "3900 NILES RD", "SR_14": 3.0, "Q_14": 5.0, "name": "COVENTRY HOUSE INN", "SF_14": 5.0, "SF_15": 5.0, "cnty": "Berrien", "st": "MI", "Zip": 49085.0, "O_14": 5.0, "Q_15": 5.0, "O_15": 5.0, "city": "ST JOSEPH", "beds": 32.0, "SR_15": 3.0}, {"Diff_star": 0.0, "addr": "521 OHMER RD", "SR_14": 5.0, "Q_14": 5.0, "name": "FISHER SENIOR CARE AND REHAB", "SF_14": 2.0, "SF_15": 2.0, "cnty": "Tuscola", "st": "MI", "Zip": 48744.0, "O_14": 5.0, "Q_15": 5.0, "O_15": 5.0, "city": "MAYVILLE", "beds": 53.0, "SR_15": 5.0}, {"Diff_star": 1.0, "addr": "842 W WARWICK DR", "SR_14": 4.0, "Q_14": 4.0, "name": "WARWICK LIVING CENTER", "SF_14": 4.0, "SF_15": 4.0, "cnty": "Gratiot", "st": "MI", "Zip": 48801.0, "O_14": 4.0, "Q_15": 5.0, "O_15": 5.0, "city": "ALMA", "beds": 45.0, "SR_15": 4.0}, {"Diff_star": 0.0, "addr": "2121 ROCKWELL DR", "SR_14": 2.0, "Q_14": 5.0, "name": "MIDMICHIGAN STRATFORD VILLAGE", "SF_14": 3.0, "SF_15": 3.0, "cnty": "Midland", "st": "MI", "Zip": 48642.0, "O_14": 3.0, "Q_15": 4.0, "O_15": 3.0, "city": "MIDLAND", "beds": 100.0, "SR_15": 3.0}, {"Diff_star": 0.0, "addr": "22600 ARMADA RIDGE RD", "SR_14": 3.0, "Q_14": 3.0, "name": "THE VILLAGE REHABILITATION AND CARE CENTER", "SF_14": 4.0, "SF_15": 4.0, "cnty": "Macomb", "st": "MI", "Zip": 48005.0, "O_14": 4.0, "Q_15": 3.0, "O_15": 4.0, "city": "ARMADA", "beds": 67.0, "SR_15": 3.0}, {"Diff_star": 0.0, "addr": "9731 EAST CHERRY BEND ROAD", "SR_14": 4.0, "Q_14": 5.0, "name": "ORCHARD CREEK SKILLED NURSING", "SF_14": 5.0, "SF_15": 5.0, "cnty": "Leelanau", "st": "MI", "Zip": 49684.0, "O_14": 5.0, "Q_15": 5.0, "O_15": 5.0, "city": "TRAVERSE CITY", "beds": 22.0, "SR_15": 4.0}, {"Diff_star": 0.0, "addr": "1805 PYLE DRIVE", "SR_14": 4.0, "Q_14": 4.0, "name": "FREEMAN NURSING & REHAB COMMUNITY", "SF_14": 3.0, "SF_15": 3.0, "cnty": "Dickinson", "st": "MI", "Zip": 49802.0, "O_14": 4.0, "Q_15": 3.0, "O_15": 4.0, "city": "KINGSFORD", "beds": 45.0, "SR_15": 4.0}, {"Diff_star": 0.0, "addr": "3999 VENOY ROAD", "SR_14": 5.0, "Q_14": 5.0, "name": "MAPLE MANOR REHAB CENTER", "SF_14": 5.0, "SF_15": 5.0, "cnty": "Wayne", "st": "MI", "Zip": 48184.0, "O_14": 5.0, "Q_15": 4.0, "O_15": 5.0, "city": "WAYNE", "beds": 59.0, "SR_15": 5.0}, {"Diff_star": 0.0, "addr": "2520 LAKE MICHIGAN DRIVE NW", "SR_14": 4.0, "Q_14": 5.0, "name": "COVENANT VILLAGE OF THE GREAT LAKES", "SF_14": 5.0, "SF_15": 5.0, "cnty": "Kent", "st": "MI", "Zip": 49504.0, "O_14": 5.0, "Q_15": 5.0, "O_15": 5.0, "city": "GRAND RAPIDS", "beds": 37.0, "SR_15": 4.0}, {"Diff_star": 0.0, "addr": "1014 E GRAND RIVER", "SR_14": 5.0, "Q_14": 5.0, "name": "CARETEL INNS OF BRIGHTON", "SF_14": 5.0, "SF_15": 5.0, "cnty": "Livingston", "st": "MI", "Zip": 48116.0, "O_14": 5.0, "Q_15": 5.0, "O_15": 5.0, "city": "BRIGHTON", "beds": 60.0, "SR_15": 4.0}, {"Diff_star": -1.0, "addr": "7700 MCCLELLAN", "SR_14": 4.0, "Q_14": 5.0, "name": "REGENCY MANOR NURSING & REHABILITATION CENTER", "SF_14": 2.0, "SF_15": 2.0, "cnty": "Macomb", "st": "MI", "Zip": 48317.0, "O_14": 5.0, "Q_15": 4.0, "O_15": 4.0, "city": "UTICA", "beds": 39.0, "SR_15": 4.0}, {"Diff_star": 0.0, "addr": "7025 LILLEY ROAD", "SR_14": 4.0, "Q_14": 5.0, "name": "HEARTLAND HEALTH CARE CENTER-CANTON", "SF_14": 3.0, "SF_15": 3.0, "cnty": "Wayne", "st": "MI", "Zip": 48187.0, "O_14": 5.0, "Q_15": 5.0, "O_15": 5.0, "city": "CANTON", "beds": 150.0, "SR_15": 4.0}, {"Diff_star": -1.0, "addr": "23575 15 MILE RD", "SR_14": 2.0, "Q_14": 5.0, "name": "CHURCH OF CHRIST CARE CENTER", "SF_14": 5.0, "SF_15": 5.0, "cnty": "Macomb", "st": "MI", "Zip": 48035.0, "O_14": 4.0, "Q_15": 4.0, "O_15": 3.0, "city": "CLINTON TOWNSHIP", "beds": 129.0, "SR_15": 2.0}, {"Diff_star": -1.0, "addr": "34350 ANN ARBOR TR", "SR_14": 1.0, "Q_14": 3.0, "name": "ST JUDE NURSING CENTER", "SF_14": 4.0, "SF_15": 3.0, "cnty": "Wayne", "st": "MI", "Zip": 48150.0, "O_14": 2.0, "Q_15": 1.0, "O_15": 1.0, "city": "LIVONIA", "beds": 64.0, "SR_15": 1.0}, {"Diff_star": 0.0, "addr": "5669 LAKESHORE", "SR_14": 4.0, "Q_14": 3.0, "name": "REGENCY ON THE LAKE - FORT GRATIOT", "SF_14": 3.0, "SF_15": 3.0, "cnty": "St. Clair", "st": "MI", "Zip": 48059.0, "O_14": 4.0, "Q_15": 3.0, "O_15": 4.0, "city": "FORT GRATIOT", "beds": 108.0, "SR_15": 4.0}, {"Diff_star": 0.0, "addr": "695 E GRAND BLVD", "SR_14": 5.0, "Q_14": 4.0, "name": "QUALICARE NURSING HOME", "SF_14": 3.0, "SF_15": 3.0, "cnty": "Wayne", "st": "MI", "Zip": 48207.0, "O_14": 5.0, "Q_15": 4.0, "O_15": 5.0, "city": "DETROIT", "beds": 96.0, "SR_15": 5.0}, {"Diff_star": 0.0, "addr": "288 PEACE BLVD", "SR_14": 1.0, "Q_14": 5.0, "name": "ROYALTON MANOR, L L C", "SF_14": 4.0, "SF_15": 4.0, "cnty": "Berrien", "st": "MI", "Zip": 49085.0, "O_14": 2.0, "Q_15": 5.0, "O_15": 2.0, "city": "ST JOSEPH", "beds": 123.0, "SR_15": 1.0}, {"Diff_star": 0.0, "addr": "500 CAMPUS DRIVE", "SR_14": 4.0, "Q_14": 3.0, "name": "PORTAGEPOINTE", "SF_14": 5.0, "SF_15": 5.0, "cnty": "Houghton", "st": "MI", "Zip": 49930.0, "O_14": 5.0, "Q_15": 2.0, "O_15": 5.0, "city": "HANCOCK", "beds": 60.0, "SR_15": 4.0}, {"Diff_star": 0.0, "addr": "9935 RED ARROW HWY", "SR_14": 3.0, "Q_14": 4.0, "name": "WEST WOODS OF BRIDGMAN", "SF_14": 3.0, "SF_15": 3.0, "cnty": "Berrien", "st": "MI", "Zip": 49106.0, "O_14": 3.0, "Q_15": 4.0, "O_15": 3.0, "city": "BRIDGMAN", "beds": 105.0, "SR_15": 3.0}, {"Diff_star": 0.0, "addr": "925 W SOUTH BLVD", "SR_14": 5.0, "Q_14": 5.0, "name": "HEARTLAND HEALTH CARE CENTER-OAKLAND", "SF_14": 3.0, "SF_15": 3.0, "cnty": "Oakland", "st": "MI", "Zip": 48085.0, "O_14": 5.0, "Q_15": 4.0, "O_15": 5.0, "city": "TROY", "beds": 160.0, "SR_15": 5.0}, {"Diff_star": 0.0, "addr": "790 S US HWY 23, BOX 369", "SR_14": 4.0, "Q_14": 4.0, "name": "JAMIESON NURSING HOME", "SF_14": 5.0, "SF_15": 5.0, "cnty": "Alcona", "st": "MI", "Zip": 48740.0, "O_14": 5.0, "Q_15": 3.0, "O_15": 5.0, "city": "HARRISVILLE", "beds": 39.0, "SR_15": 4.0}, {"Diff_star": -1.0, "addr": "2786 56 STREET, SW", "SR_14": 3.0, "Q_14": 4.0, "name": "TENDERCARE HEALTH & REHAB CENTER OF WYOMING", "SF_14": 4.0, "SF_15": 4.0, "cnty": "Kent", "st": "MI", "Zip": 49418.0, "O_14": 4.0, "Q_15": 3.0, "O_15": 3.0, "city": "WYOMING", "beds": 80.0, "SR_15": 2.0}, {"Diff_star": -1.0, "addr": "5555 CONNER AVENUE, SUITE 4000", "SR_14": 1.0, "Q_14": 4.0, "name": "SAMARITAN MANOR", "SF_14": 4.0, "SF_15": 3.0, "cnty": "Wayne", "st": "MI", "Zip": 48213.0, "O_14": 2.0, "Q_15": 4.0, "O_15": 1.0, "city": "DETROIT", "beds": 120.0, "SR_15": 1.0}, {"Diff_star": 0.0, "addr": "1845 BOSTON BLVD S E", "SR_14": 4.0, "Q_14": 4.0, "name": "MICHIGAN CHRISTIAN HOME", "SF_14": 4.0, "SF_15": 4.0, "cnty": "Kent", "st": "MI", "Zip": 49506.0, "O_14": 4.0, "Q_15": 3.0, "O_15": 4.0, "city": "GRAND RAPIDS", "beds": 29.0, "SR_15": 4.0}, {"Diff_star": 0.0, "addr": "41215 FOX RUN ROAD", "SR_14": 4.0, "Q_14": 4.0, "name": "FOX RUN VILLAGE", "SF_14": 5.0, "SF_15": 5.0, "cnty": "Oakland", "st": "MI", "Zip": 48377.0, "O_14": 5.0, "Q_15": 2.0, "O_15": 5.0, "city": "NOVI", "beds": 88.0, "SR_15": 4.0}, {"Diff_star": 0.0, "addr": "6700 WESTSIDE SAGINAW ROAD", "SR_14": 2.0, "Q_14": 4.0, "name": "CARETEL INNS OF TRI-CITIES", "SF_14": 4.0, "SF_15": 4.0, "cnty": "Bay", "st": "MI", "Zip": 48706.0, "O_14": 3.0, "Q_15": 2.0, "O_15": 3.0, "city": "BAY CITY", "beds": 60.0, "SR_15": 2.0}, {"Diff_star": -1.0, "addr": "620 NORTH SECOND STREET", "SR_14": 4.0, "Q_14": 5.0, "name": "LAURELS OF CARSON CITY", "SF_14": 4.0, "SF_15": 3.0, "cnty": "Montcalm", "st": "MI", "Zip": 48811.0, "O_14": 5.0, "Q_15": 5.0, "O_15": 4.0, "city": "CARSON CITY", "beds": 82.0, "SR_15": 3.0}, {"Diff_star": 0.0, "addr": "3260 EAST B AVE", "SR_14": 3.0, "Q_14": 5.0, "name": "PLAINWELL PINES NURSING AND REHABILITATION COMMUNI", "SF_14": 4.0, "SF_15": 4.0, "cnty": "Kalamazoo", "st": "MI", "Zip": 49080.0, "O_14": 5.0, "Q_15": 5.0, "O_15": 5.0, "city": "PLAINWELL", "beds": 39.0, "SR_15": 3.0}, {"Diff_star": 0.0, "addr": "1221 EAST 16TH", "SR_14": 2.0, "Q_14": 3.0, "name": "TENDERCARE HEALTH & REHAB CENTER OF HOLLAND", "SF_14": 4.0, "SF_15": 4.0, "cnty": "Ottawa", "st": "MI", "Zip": 49423.0, "O_14": 3.0, "Q_15": 2.0, "O_15": 3.0, "city": "HOLLAND", "beds": 77.0, "SR_15": 2.0}, {"Diff_star": -1.0, "addr": "1157 MEDICAL PARK DR. S.E.", "SR_14": 2.0, "Q_14": 3.0, "name": "HEATHER HILLS CARE CENTER", "SF_14": 4.0, "SF_15": 3.0, "cnty": "Kent", "st": "MI", "Zip": 49546.0, "O_14": 3.0, "Q_15": 2.0, "O_15": 2.0, "city": "GRAND RAPIDS", "beds": 60.0, "SR_15": 2.0}, {"Diff_star": -1.0, "addr": "42235 COUNTY ROAD 390", "SR_14": 3.0, "Q_14": 4.0, "name": "MEADOW WOODS NURSING AND REHAB CENTER", "SF_14": 4.0, "SF_15": 3.0, "cnty": "Van Buren", "st": "MI", "Zip": 49026.0, "O_14": 4.0, "Q_15": 4.0, "O_15": 3.0, "city": "BLOOMINGDALE", "beds": 67.0, "SR_15": 3.0}, {"Diff_star": 0.0, "addr": "201 S FRONT ST", "SR_14": 5.0, "Q_14": 5.0, "name": "CHESANING NURSING CARE CENTER", "SF_14": 4.0, "SF_15": 4.0, "cnty": "Saginaw", "st": "MI", "Zip": 48616.0, "O_14": 5.0, "Q_15": 5.0, "O_15": 5.0, "city": "CHESANING", "beds": 39.0, "SR_15": 5.0}, {"Diff_star": 0.0, "addr": "10735  BOGIE LAKE ROAD", "SR_14": 3.0, "Q_14": 4.0, "name": "WESTLAKE HEALTH CAMPUS", "SF_14": 4.0, "SF_15": 4.0, "cnty": "Oakland", "st": "MI", "Zip": 48382.0, "O_14": 4.0, "Q_15": 3.0, "O_15": 4.0, "city": "COMMERCE", "beds": 65.0, "SR_15": 3.0}, {"Diff_star": 0.0, "addr": "2161 LEONARD NW", "SR_14": 5.0, "Q_14": 5.0, "name": "ST ANNS HOME", "SF_14": 5.0, "SF_15": 5.0, "cnty": "Kent", "st": "MI", "Zip": 49504.0, "O_14": 5.0, "Q_15": 4.0, "O_15": 5.0, "city": "GRAND RAPIDS", "beds": 55.0, "SR_15": 5.0}, {"Diff_star": 0.0, "addr": "951 HICKORY CREEK BOULEVARD", "SR_14": 5.0, "Q_14": 5.0, "name": "HICKORY RIDGE OF TEMPERANCE", "SF_14": 3.0, "SF_15": 4.0, "cnty": "Monroe", "st": "MI", "Zip": 48182.0, "O_14": 5.0, "Q_15": 4.0, "O_15": 5.0, "city": "TEMPERANCE", "beds": 74.0, "SR_15": 5.0}, {"Diff_star": 0.0, "addr": "202 SOUTH BRIDGE STREET", "SR_14": 2.0, "Q_14": 5.0, "name": "CARETEL INNS OF LINDEN", "SF_14": 4.0, "SF_15": 4.0, "cnty": "Genesee", "st": "MI", "Zip": 48451.0, "O_14": 4.0, "Q_15": 5.0, "O_15": 4.0, "city": "LINDEN", "beds": 60.0, "SR_15": 2.0}, {"Diff_star": 0.0, "addr": "5211 MARSH RD", "SR_14": 4.0, "Q_14": 5.0, "name": "OKEMOS HEALTH AND REHABILITATION CENTER", "SF_14": 5.0, "SF_15": 5.0, "cnty": "Ingham", "st": "MI", "Zip": 48864.0, "O_14": 5.0, "Q_15": 5.0, "O_15": 5.0, "city": "OKEMOS", "beds": 100.0, "SR_15": 4.0}, {"Diff_star": 0.0, "addr": "610 WEST ELM AVENUE", "SR_14": 5.0, "Q_14": 3.0, "name": "SISTERS, SERVANTS OF THE IMMACULATE HEART OF MARY", "SF_14": 5.0, "SF_15": 5.0, "cnty": "Monroe", "st": "MI", "Zip": 48162.0, "O_14": 5.0, "Q_15": 2.0, "O_15": 5.0, "city": "MONROE", "beds": 58.0, "SR_15": 5.0}, {"Diff_star": 0.0, "addr": "1015 E PARIS AVE SE", "SR_14": 5.0, "Q_14": 4.0, "name": "VALLEY HEALTH CENTER", "SF_14": 5.0, "SF_15": 5.0, "cnty": "Kent", "st": "MI", "Zip": 49546.0, "O_14": 5.0, "Q_15": 2.0, "O_15": 5.0, "city": "GRAND RAPIDS", "beds": 20.0, "SR_15": 5.0}, {"Diff_star": 0.0, "addr": "555 HIGHLAND AVE", "SR_14": 4.0, "Q_14": 4.0, "name": "MEDILODGE OF MILFORD", "SF_14": 5.0, "SF_15": 5.0, "cnty": "Oakland", "st": "MI", "Zip": 48381.0, "O_14": 5.0, "Q_15": 3.0, "O_15": 5.0, "city": "MILFORD", "beds": 111.0, "SR_15": 4.0}, {"Diff_star": -1.0, "addr": "2900 THIRD AVENUE SOUTH", "SR_14": 3.0, "Q_14": 3.0, "name": "BISHOP NOA HOME FOR SENIOR CITIZENS", "SF_14": 5.0, "SF_15": 5.0, "cnty": "Delta", "st": "MI", "Zip": 49829.0, "O_14": 4.0, "Q_15": 1.0, "O_15": 3.0, "city": "ESCANABA", "beds": 81.0, "SR_15": 3.0}, {"Diff_star": 0.0, "addr": "55432 COLBY ST", "SR_14": 4.0, "Q_14": 4.0, "name": "THE TIMBERS OF CASS COUNTY", "SF_14": 4.0, "SF_15": 4.0, "cnty": "Cass", "st": "MI", "Zip": 49047.0, "O_14": 4.0, "Q_15": 2.0, "O_15": 4.0, "city": "DOWAGIAC", "beds": 108.0, "SR_15": 4.0}, {"Diff_star": -1.0, "addr": "2100 E  PROVINCIAL HOUSE DR", "SR_14": 3.0, "Q_14": 2.0, "name": "CAPITAL AREA HEALTH & REHAB CENTER", "SF_14": 5.0, "SF_15": 5.0, "cnty": "Ingham", "st": "MI", "Zip": 48910.0, "O_14": 4.0, "Q_15": 1.0, "O_15": 3.0, "city": "LANSING", "beds": 120.0, "SR_15": 3.0}, {"Diff_star": 0.0, "addr": "239 S MAIN ST", "SR_14": 1.0, "Q_14": 3.0, "name": "FERGUSON CONVALESCENT HOME", "SF_14": 4.0, "SF_15": 3.0, "cnty": "Lapeer", "st": "MI", "Zip": 48446.0, "O_14": 2.0, "Q_15": 2.0, "O_15": 2.0, "city": "LAPEER", "beds": 91.0, "SR_15": 2.0}, {"Diff_star": 0.0, "addr": "35100 ANN ARBOR TRAIL", "SR_14": 3.0, "Q_14": 4.0, "name": "CAMELOT HALL CONVALESCENT CTR", "SF_14": 2.0, "SF_15": 2.0, "cnty": "Wayne", "st": "MI", "Zip": 48150.0, "O_14": 3.0, "Q_15": 3.0, "O_15": 3.0, "city": "LIVONIA", "beds": 122.0, "SR_15": 3.0}, {"Diff_star": 0.0, "addr": "2053 S SHERIDAN DRIVE", "SR_14": 3.0, "Q_14": 4.0, "name": "CHRISTIAN CARE NURSING CENTER", "SF_14": 5.0, "SF_15": 5.0, "cnty": "Muskegon", "st": "MI", "Zip": 49442.0, "O_14": 4.0, "Q_15": 2.0, "O_15": 4.0, "city": "MUSKEGON", "beds": 49.0, "SR_15": 3.0}, {"Diff_star": 0.0, "addr": "45900 GEDDES ROAD", "SR_14": 2.0, "Q_14": 4.0, "name": "REGENCY AT CANTON", "SF_14": 4.0, "SF_15": 4.0, "cnty": "Wayne", "st": "MI", "Zip": 48188.0, "O_14": 3.0, "Q_15": 3.0, "O_15": 3.0, "city": "CANTON", "beds": 113.0, "SR_15": 2.0}, {"Diff_star": 0.0, "addr": "355 HURON VIEW BLVD", "SR_14": 4.0, "Q_14": 4.0, "name": "REGENCY AT BLUFFS PARK", "SF_14": 4.0, "SF_15": 4.0, "cnty": "Washtenaw", "st": "MI", "Zip": 48103.0, "O_14": 4.0, "Q_15": 4.0, "O_15": 4.0, "city": "ANN ARBOR", "beds": 71.0, "SR_15": 4.0}, {"Diff_star": 0.0, "addr": "7733 E JEFFERSON", "SR_14": 1.0, "Q_14": 3.0, "name": "RIVERVIEW HEALTH & REHAB CENTER", "SF_14": 2.0, "SF_15": 2.0, "cnty": "Wayne", "st": "MI", "Zip": 48214.0, "O_14": 1.0, "Q_15": 2.0, "O_15": 1.0, "city": "DETROIT", "beds": 136.0, "SR_15": 1.0}, {"Diff_star": 0.0, "addr": "5370 E BALDWIN ROAD", "SR_14": 5.0, "Q_14": 5.0, "name": "THE OAKS AT WOODFIELD", "SF_14": 4.0, "SF_15": 4.0, "cnty": "Genesee", "st": "MI", "Zip": 48439.0, "O_14": 5.0, "Q_15": 5.0, "O_15": 5.0, "city": "GR BLANC", "beds": 51.0, "SR_15": 5.0}, {"Diff_star": 0.0, "addr": "2525 DEMILLE ROAD", "SR_14": 1.0, "Q_14": 5.0, "name": "STONEGATE HEALTH CAMPUS", "SF_14": 3.0, "SF_15": 3.0, "cnty": "Lapeer", "st": "MI", "Zip": 48446.0, "O_14": 2.0, "Q_15": 5.0, "O_15": 2.0, "city": "LAPEER", "beds": 60.0, "SR_15": 1.0}, {"Diff_star": 0.0, "addr": "13794 21 MILE ROAD", "SR_14": 5.0, "Q_14": 4.0, "name": "SHELBY CROSSING HEALTH CAMPUS", "SF_14": 4.0, "SF_15": 4.0, "cnty": "Macomb", "st": "MI", "Zip": 48315.0, "O_14": 5.0, "Q_15": 3.0, "O_15": 5.0, "city": "SHELBY TOWNSHIP", "beds": 57.0, "SR_15": 5.0}, {"Diff_star": 0.0, "addr": "6535 DRAKE ROAD", "SR_14": 5.0, "Q_14": 5.0, "name": "NOTTING HILL OF WEST BLOOMFIELD", "SF_14": 5.0, "SF_15": 5.0, "cnty": "Oakland", "st": "MI", "Zip": 48322.0, "O_14": 5.0, "Q_15": 4.0, "O_15": 5.0, "city": "W BLOOMFIELD", "beds": 120.0, "SR_15": 5.0}, {"Diff_star": -1.0, "addr": "18200 W 13 MILE ROAD", "SR_14": 4.0, "Q_14": 2.0, "name": "CAMBRIDGE SOUTH HEALTHCARE CTR", "SF_14": 2.0, "SF_15": 2.0, "cnty": "Oakland", "st": "MI", "Zip": 48025.0, "O_14": 4.0, "Q_15": 1.0, "O_15": 3.0, "city": "BEVERLY HILLS", "beds": 96.0, "SR_15": 4.0}, {"Diff_star": 0.0, "addr": "38200 SCHOENHERR ROAD", "SR_14": 4.0, "Q_14": 5.0, "name": "HEARTLAND HEALTH CARE CENTER - STERLING HEIGHTS", "SF_14": 3.0, "SF_15": 3.0, "cnty": "Macomb", "st": "MI", "Zip": 48312.0, "O_14": 5.0, "Q_15": 5.0, "O_15": 5.0, "city": "STERLING HEIGHTS", "beds": 120.0, "SR_15": 4.0}, {"Diff_star": 0.0, "addr": "1330 GRAND POINTE COURT", "SR_14": 4.0, "Q_14": 4.0, "name": "REGENCY AT GRAND BLANC", "SF_14": 4.0, "SF_15": 4.0, "cnty": "Genesee", "st": "MI", "Zip": 48439.0, "O_14": 4.0, "Q_15": 3.0, "O_15": 4.0, "city": "GRAND BLANC", "beds": 138.0, "SR_15": 4.0}, {"Diff_star": 0.0, "addr": "111 LAKESIDE DRIVE, NE", "SR_14": "", "Q_14": "", "name": "MARYWOOD HEALTH CENTER", "SF_14": "", "SF_15": "", "cnty": "Kent", "st": "MI", "Zip": 49503.0, "O_14": "", "Q_15": "", "O_15": "", "city": "GRAND RAPIDS", "beds": 32.0, "SR_15": ""}, {"Diff_star": 5.0, "addr": "2200 DORR ROAD", "SR_14": "", "Q_14": "", "name": "WELLBRIDGE OF BRIGHTON", "SF_14": "", "SF_15": 4.0, "cnty": "Livingston", "st": "MI", "Zip": 48843.0, "O_14": "", "Q_15": 5.0, "O_15": 5.0, "city": "HOWELL", "beds": 88.0, "SR_15": 4.0}, {"Diff_star": 0.0, "addr": "31215 NOVI ROAD", "SR_14": "", "Q_14": "", "name": "MAPLE MANOR REHAB CENTER OF NOVI INC", "SF_14": "", "SF_15": "", "cnty": "Oakland", "st": "MI", "Zip": 48377.0, "O_14": "", "Q_15": "", "O_15": "", "city": "NOVI", "beds": 72.0, "SR_15": ""}, {"Diff_star": 0.0, "addr": "3500 COOLIDGE ROAD", "SR_14": "", "Q_14": "", "name": "THE WILLOWS AT EAST LANSING", "SF_14": "", "SF_15": "", "cnty": "Ingham", "st": "MI", "Zip": 48823.0, "O_14": "", "Q_15": "", "O_15": "", "city": "EAST LANSING", "beds": 68.0, "SR_15": ""}, {"Diff_star": 0.0, "addr": "203 S HURON ST", "SR_14": 4.0, "Q_14": 5.0, "name": "GILBERT RESIDENCE (THE)", "SF_14": 4.0, "SF_15": 4.0, "cnty": "Washtenaw", "st": "MI", "Zip": 48197.0, "O_14": 5.0, "Q_15": 5.0, "O_15": 5.0, "city": "YPSILANTI", "beds": 32.0, "SR_15": 4.0}, {"Diff_star": 0.0, "addr": "601 EAST G ST", "SR_14": 2.0, "Q_14": 5.0, "name": "HYLAND NURSING HOME", "SF_14": 4.0, "SF_15": 4.0, "cnty": "Dickinson", "st": "MI", "Zip": 49801.0, "O_14": 4.0, "Q_15": 5.0, "O_15": 4.0, "city": "IRON MOUNTAIN", "beds": 51.0, "SR_15": 2.0}, {"Diff_star": 0.0, "addr": "1640 WEBB AVE", "SR_14": 1.0, "Q_14": 5.0, "name": "LAW-DEN NURSING HOME", "SF_14": 3.0, "SF_15": 3.0, "cnty": "Wayne", "st": "MI", "Zip": 48206.0, "O_14": 2.0, "Q_15": 5.0, "O_15": 2.0, "city": "DETROIT", "beds": 100.0, "SR_15": 1.0}, {"Diff_star": 1.0, "addr": "313 SHERWOOD ST", "SR_14": 2.0, "Q_14": 4.0, "name": "HOLLY CONVALESCENT CENTER", "SF_14": 3.0, "SF_15": 3.0, "cnty": "Oakland", "st": "MI", "Zip": 48442.0, "O_14": 2.0, "Q_15": 5.0, "O_15": 3.0, "city": "HOLLY", "beds": 66.0, "SR_15": 2.0}, {"Diff_star": 0.0, "addr": "520 W MAIN ST C/O BOX 206", "SR_14": 5.0, "Q_14": 4.0, "name": "STAR MANOR OF NORTHVILLE", "SF_14": 4.0, "SF_15": 4.0, "cnty": "Wayne", "st": "MI", "Zip": 48167.0, "O_14": 5.0, "Q_15": 5.0, "O_15": 5.0, "city": "NORTHVILLE", "beds": 37.0, "SR_15": 5.0}, {"Diff_star": -1.0, "addr": "309 S BAILEY    PO BOX 306", "SR_14": 4.0, "Q_14": 3.0, "name": "ROMEO CONTINUING CARE, INC", "SF_14": 4.0, "SF_15": 4.0, "cnty": "Macomb", "st": "MI", "Zip": 48065.0, "O_14": 4.0, "Q_15": 1.0, "O_15": 3.0, "city": "ROMEO", "beds": 33.0, "SR_15": 4.0}, {"Diff_star": 0.0, "addr": "250 DENBY ST", "SR_14": 4.0, "Q_14": 5.0, "name": "ROMEO NURSING CENTER", "SF_14": 4.0, "SF_15": 4.0, "cnty": "Macomb", "st": "MI", "Zip": 48065.0, "O_14": 5.0, "Q_15": 5.0, "O_15": 5.0, "city": "ROMEO", "beds": 35.0, "SR_15": 4.0}, {"Diff_star": 0.0, "addr": "502 W HARRIE ST", "SR_14": 1.0, "Q_14": 3.0, "name": "HELEN NEWBERRY JOY HOSP LTCU", "SF_14": 4.0, "SF_15": 4.0, "cnty": "Luce", "st": "MI", "Zip": 49868.0, "O_14": 2.0, "Q_15": 2.0, "O_15": 2.0, "city": "NEWBERRY", "beds": 39.0, "SR_15": 1.0}, {"Diff_star": 1.0, "addr": "170 N CASEVILLE RD", "SR_14": 4.0, "Q_14": 3.0, "name": "SCHEURER HOSPITAL LTCU", "SF_14": "", "SF_15": "", "cnty": "Huron", "st": "MI", "Zip": 48755.0, "O_14": 4.0, "Q_15": 2.0, "O_15": 5.0, "city": "PIGEON", "beds": 19.0, "SR_15": 5.0}]