[{"Diff_star": 0.0, "addr": "400 EVANS AVENUE", "SR_14": 5.0, "Q_14": 5.0, "name": "GUARDIAN ANGELS CARE CENTER", "SF_14": 4.0, "SF_15": 4.0, "cnty": "Sherburne", "st": "MN", "Zip": 55330.0, "O_14": 5.0, "Q_15": 5.0, "O_15": 5.0, "city": "ELK RIVER", "beds": 120.0, "SR_15": 5.0}, {"Diff_star": -1.0, "addr": "4444 RESERVOIR BOULEVARD NORTHEAST", "SR_14": 1.0, "Q_14": 4.0, "name": "CREST VIEW LUTHERAN HOME", "SF_14": 4.0, "SF_15": 3.0, "cnty": "Anoka", "st": "MN", "Zip": 55421.0, "O_14": 2.0, "Q_15": 3.0, "O_15": 1.0, "city": "COLUMBIA HEIGHTS", "beds": 122.0, "SR_15": 1.0}, {"Diff_star": 0.0, "addr": "811 THIRD STREET", "SR_14": 1.0, "Q_14": 3.0, "name": "INTERFAITH CARE CENTER", "SF_14": 4.0, "SF_15": 4.0, "cnty": "Carlton", "st": "MN", "Zip": 55718.0, "O_14": 2.0, "Q_15": 2.0, "O_15": 2.0, "city": "CARLTON", "beds": 96.0, "SR_15": 1.0}, {"Diff_star": 0.0, "addr": "2319 WEST SEVENTH STREET", "SR_14": 3.0, "Q_14": 4.0, "name": "HIGHLAND CHATEAU HEALTH CARE CENTER", "SF_14": 4.0, "SF_15": 4.0, "cnty": "Ramsey", "st": "MN", "Zip": 55116.0, "O_14": 4.0, "Q_15": 2.0, "O_15": 4.0, "city": "SAINT PAUL", "beds": 64.0, "SR_15": 3.0}, {"Diff_star": 0.0, "addr": "1000 ANNE STREET NORTHWEST", "SR_14": 4.0, "Q_14": 4.0, "name": "NEILSON PLACE", "SF_14": 4.0, "SF_15": 4.0, "cnty": "Beltrami", "st": "MN", "Zip": 56601.0, "O_14": 4.0, "Q_15": 3.0, "O_15": 4.0, "city": "BEMIDJI", "beds": 78.0, "SR_15": 4.0}, {"Diff_star": 0.0, "addr": "512 SKYLINE BOULEVARD", "SR_14": 4.0, "Q_14": 5.0, "name": "SUNNYSIDE HEALTH CARE CENTER", "SF_14": 4.0, "SF_15": 4.0, "cnty": "Carlton", "st": "MN", "Zip": 55720.0, "O_14": 5.0, "Q_15": 5.0, "O_15": 5.0, "city": "CLOQUET", "beds": 44.0, "SR_15": 4.0}, {"Diff_star": 0.0, "addr": "2810 NORTH 2ND AVENUE", "SR_14": 1.0, "Q_14": 4.0, "name": "GOLDEN LIVINGCENTER - MOORHEAD", "SF_14": 4.0, "SF_15": 4.0, "cnty": "Clay", "st": "MN", "Zip": 56560.0, "O_14": 2.0, "Q_15": 2.0, "O_15": 2.0, "city": "MOORHEAD", "beds": 87.0, "SR_15": 1.0}, {"Diff_star": 0.0, "addr": "3737 BRYANT AVENUE SOUTH", "SR_14": 3.0, "Q_14": 4.0, "name": "WALKER METHODIST HEALTH CENTER", "SF_14": 5.0, "SF_15": 5.0, "cnty": "Hennepin", "st": "MN", "Zip": 55409.0, "O_14": 4.0, "Q_15": 3.0, "O_15": 4.0, "city": "MINNEAPOLIS", "beds": 330.0, "SR_15": 3.0}, {"Diff_star": -1.0, "addr": "2237 COMMONWEALTH AVENUE", "SR_14": 3.0, "Q_14": 5.0, "name": "ST ANTHONY PARK HOME", "SF_14": 4.0, "SF_15": 4.0, "cnty": "Ramsey", "st": "MN", "Zip": 55108.0, "O_14": 5.0, "Q_15": 3.0, "O_15": 4.0, "city": "SAINT PAUL", "beds": 84.0, "SR_15": 3.0}, {"Diff_star": 0.0, "addr": "500 SOUTHEAST FIRST STREET", "SR_14": 1.0, "Q_14": 4.0, "name": "ST LUCAS CARE CENTER", "SF_14": 4.0, "SF_15": 4.0, "cnty": "Rice", "st": "MN", "Zip": 55021.0, "O_14": 2.0, "Q_15": 4.0, "O_15": 2.0, "city": "FARIBAULT", "beds": 109.0, "SR_15": 1.0}, {"Diff_star": 0.0, "addr": "5517 LYNDALE AVENUE SOUTH", "SR_14": 5.0, "Q_14": 5.0, "name": "MOUNT OLIVET CAREVIEW HOME", "SF_14": 4.0, "SF_15": 4.0, "cnty": "Hennepin", "st": "MN", "Zip": 55419.0, "O_14": 5.0, "Q_15": 5.0, "O_15": 5.0, "city": "MINNEAPOLIS", "beds": 153.0, "SR_15": 5.0}, {"Diff_star": -1.0, "addr": "4415 WEST 36 1/2 STREET", "SR_14": 4.0, "Q_14": 5.0, "name": "PARK HEALTH AND REHABILITATION CENTER", "SF_14": 3.0, "SF_15": 3.0, "cnty": "Hennepin", "st": "MN", "Zip": 55416.0, "O_14": 5.0, "Q_15": 4.0, "O_15": 4.0, "city": "SAINT LOUIS PARK", "beds": 81.0, "SR_15": 4.0}, {"Diff_star": 0.0, "addr": "15409 WAYZATA BOULEVARD", "SR_14": 4.0, "Q_14": 4.0, "name": "GOLDEN LIVINGCENTER - HILLCREST OF WAYZATA", "SF_14": 5.0, "SF_15": 5.0, "cnty": "Hennepin", "st": "MN", "Zip": 55391.0, "O_14": 5.0, "Q_15": 4.0, "O_15": 5.0, "city": "WAYZATA", "beds": 84.0, "SR_15": 4.0}, {"Diff_star": 0.0, "addr": "27 BRAND AVENUE", "SR_14": 4.0, "Q_14": 4.0, "name": "PLEASANT MANOR INC", "SF_14": 3.0, "SF_15": 4.0, "cnty": "Rice", "st": "MN", "Zip": 55021.0, "O_14": 4.0, "Q_15": 3.0, "O_15": 4.0, "city": "FARIBAULT", "beds": 65.0, "SR_15": 4.0}, {"Diff_star": 0.0, "addr": "1738 HULETT AVENUE NORTH", "SR_14": 1.0, "Q_14": 2.0, "name": "FARIBAULT CARE CENTER", "SF_14": 1.0, "SF_15": 1.0, "cnty": "Rice", "st": "MN", "Zip": 55021.0, "O_14": 1.0, "Q_15": 1.0, "O_15": 1.0, "city": "FARIBAULT", "beds": 55.0, "SR_15": 1.0}, {"Diff_star": 0.0, "addr": "1635 WEST SERVICE DRIVE", "SR_14": 1.0, "Q_14": 5.0, "name": "SAUER HEALTH CARE", "SF_14": 4.0, "SF_15": 4.0, "cnty": "Winona", "st": "MN", "Zip": 55987.0, "O_14": 2.0, "Q_15": 4.0, "O_15": 2.0, "city": "WINONA", "beds": 71.0, "SR_15": 1.0}, {"Diff_star": 0.0, "addr": "2727 NORTH VICTORIA", "SR_14": 3.0, "Q_14": 4.0, "name": "GOLDEN LIVINGCENTER - LAKE RIDGE", "SF_14": 5.0, "SF_15": 5.0, "cnty": "Ramsey", "st": "MN", "Zip": 55113.0, "O_14": 4.0, "Q_15": 2.0, "O_15": 4.0, "city": "ROSEVILLE", "beds": 175.0, "SR_15": 3.0}, {"Diff_star": 0.0, "addr": "1555 SHERWOOD STREET SOUTHEAST", "SR_14": 4.0, "Q_14": 4.0, "name": "HARMONY RIVER LIVING CENTER", "SF_14": 4.0, "SF_15": 4.0, "cnty": "Mc Leod", "st": "MN", "Zip": 55350.0, "O_14": 4.0, "Q_15": 4.0, "O_15": 4.0, "city": "HUTCHINSON", "beds": 120.0, "SR_15": 4.0}, {"Diff_star": 0.0, "addr": "301 MINNESOTA AVENUE SOUTH", "SR_14": 3.0, "Q_14": 5.0, "name": "AITKIN HEALTH SERVICES", "SF_14": 3.0, "SF_15": 3.0, "cnty": "Aitkin", "st": "MN", "Zip": 56431.0, "O_14": 4.0, "Q_15": 5.0, "O_15": 4.0, "city": "AITKIN", "beds": 44.0, "SR_15": 3.0}, {"Diff_star": 0.0, "addr": "548 FIRST AVENUE", "SR_14": 1.0, "Q_14": 5.0, "name": "GRACEPOINTE CROSSING GABLES EAST", "SF_14": 3.0, "SF_15": 3.0, "cnty": "Isanti", "st": "MN", "Zip": 55008.0, "O_14": 2.0, "Q_15": 5.0, "O_15": 2.0, "city": "CAMBRIDGE", "beds": 90.0, "SR_15": 1.0}, {"Diff_star": 0.0, "addr": "227 MCKINLEY AVENUE", "SR_14": 2.0, "Q_14": 3.0, "name": "FITZGERALD NH AND REHAB", "SF_14": 4.0, "SF_15": 3.0, "cnty": "St. Louis", "st": "MN", "Zip": 55734.0, "O_14": 3.0, "Q_15": 2.0, "O_15": 3.0, "city": "EVELETH", "beds": 24.0, "SR_15": 3.0}, {"Diff_star": 1.0, "addr": "200 NORTH ELM STREET", "SR_14": 3.0, "Q_14": 4.0, "name": "MILLE LACS HEALTH SYSTEM", "SF_14": 4.0, "SF_15": 4.0, "cnty": "Mille Lacs", "st": "MN", "Zip": 56359.0, "O_14": 4.0, "Q_15": 5.0, "O_15": 5.0, "city": "ONAMIA", "beds": 57.0, "SR_15": 3.0}, {"Diff_star": -1.0, "addr": "200 WEST CONAN STREET", "SR_14": 1.0, "Q_14": 5.0, "name": "BOUNDARY WATERS CARE CENTER", "SF_14": 3.0, "SF_15": 3.0, "cnty": "St. Louis", "st": "MN", "Zip": 55731.0, "O_14": 2.0, "Q_15": 4.0, "O_15": 1.0, "city": "ELY", "beds": 40.0, "SR_15": 1.0}, {"Diff_star": -1.0, "addr": "3201 VIRGINIA AVENUE SOUTH", "SR_14": 2.0, "Q_14": 4.0, "name": "GOLDEN LIVINGCENTER - ST LOUIS PARK PLAZA", "SF_14": 4.0, "SF_15": 3.0, "cnty": "Hennepin", "st": "MN", "Zip": 55426.0, "O_14": 3.0, "Q_15": 2.0, "O_15": 2.0, "city": "SAINT LOUIS PARK", "beds": 208.0, "SR_15": 2.0}, {"Diff_star": -1.0, "addr": "8100 MEDICINE LAKE ROAD", "SR_14": 4.0, "Q_14": 3.0, "name": "GOOD SAMARITAN SOCIETY - AMBASSADOR", "SF_14": 4.0, "SF_15": 4.0, "cnty": "Hennepin", "st": "MN", "Zip": 55427.0, "O_14": 4.0, "Q_15": 1.0, "O_15": 3.0, "city": "NEW HOPE", "beds": 85.0, "SR_15": 4.0}, {"Diff_star": 0.0, "addr": "4001 19TH AVENUE NORTHWEST", "SR_14": 1.0, "Q_14": 5.0, "name": "MADONNA TOWERS OF ROCHESTER INC", "SF_14": 5.0, "SF_15": 5.0, "cnty": "Olmsted", "st": "MN", "Zip": 55901.0, "O_14": 2.0, "Q_15": 5.0, "O_15": 2.0, "city": "ROCHESTER", "beds": 62.0, "SR_15": 1.0}, {"Diff_star": 0.0, "addr": "825  FIRST AVENUE NORTHWEST", "SR_14": 1.0, "Q_14": 5.0, "name": "HEALTH AND REHABILITATION OF NEW BRIGHTON", "SF_14": 4.0, "SF_15": 4.0, "cnty": "Ramsey", "st": "MN", "Zip": 55112.0, "O_14": 2.0, "Q_15": 3.0, "O_15": 2.0, "city": "NEW BRIGHTON", "beds": 100.0, "SR_15": 1.0}, {"Diff_star": 0.0, "addr": "2450 RIVERSIDE AVENUE SOUTH", "SR_14": 5.0, "Q_14": 1.0, "name": "FAIRVIEW UNIVERSITY TRANS SERV", "SF_14": "", "SF_15": "", "cnty": "Hennepin", "st": "MN", "Zip": 55454.0, "O_14": 4.0, "Q_15": 1.0, "O_15": 4.0, "city": "MINNEAPOLIS", "beds": 36.0, "SR_15": 5.0}, {"Diff_star": 0.0, "addr": "7500 WEST 22ND STREET", "SR_14": 2.0, "Q_14": 5.0, "name": "THE VILLA AT ST LOUIS PARK", "SF_14": 2.0, "SF_15": 2.0, "cnty": "Hennepin", "st": "MN", "Zip": 55426.0, "O_14": 3.0, "Q_15": 5.0, "O_15": 3.0, "city": "SAINT LOUIS PARK", "beds": 105.0, "SR_15": 2.0}, {"Diff_star": -1.0, "addr": "5430 BOONE AVENUE NORTH", "SR_14": 2.0, "Q_14": 5.0, "name": "NORTH RIDGE HEALTH AND REHAB", "SF_14": 4.0, "SF_15": 4.0, "cnty": "Hennepin", "st": "MN", "Zip": 55428.0, "O_14": 4.0, "Q_15": 4.0, "O_15": 3.0, "city": "NEW HOPE", "beds": 351.0, "SR_15": 2.0}, {"Diff_star": 0.0, "addr": "501 EIGHTH AVENUE SOUTHEAST", "SR_14": 2.0, "Q_14": 4.0, "name": "GOLDEN LIVINGCENTER - ROCHESTER EAST", "SF_14": 3.0, "SF_15": 3.0, "cnty": "Olmsted", "st": "MN", "Zip": 55904.0, "O_14": 2.0, "Q_15": 2.0, "O_15": 2.0, "city": "ROCHESTER", "beds": 116.0, "SR_15": 2.0}, {"Diff_star": -1.0, "addr": "7505 COUNTRY CLUB DRIVE", "SR_14": 3.0, "Q_14": 4.0, "name": "GOLDEN VALLEY REHABILITATION AND CARE CENTER", "SF_14": 3.0, "SF_15": 3.0, "cnty": "Hennepin", "st": "MN", "Zip": 55427.0, "O_14": 3.0, "Q_15": 1.0, "O_15": 2.0, "city": "GOLDEN VALLEY", "beds": 164.0, "SR_15": 3.0}, {"Diff_star": 0.0, "addr": "7900 WEST 28TH STREET", "SR_14": 1.0, "Q_14": 4.0, "name": "TEXAS TERRACE CARE CENTER", "SF_14": 3.0, "SF_15": 3.0, "cnty": "Hennepin", "st": "MN", "Zip": 55426.0, "O_14": 1.0, "Q_15": 3.0, "O_15": 1.0, "city": "SAINT LOUIS PARK", "beds": 118.0, "SR_15": 1.0}, {"Diff_star": 0.0, "addr": "2000 OAKDALE AVENUE", "SR_14": 2.0, "Q_14": 4.0, "name": "SOUTHVIEW ACRES HEALTH CARE CENTER INC", "SF_14": 5.0, "SF_15": 5.0, "cnty": "Dakota", "st": "MN", "Zip": 55118.0, "O_14": 3.0, "Q_15": 4.0, "O_15": 3.0, "city": "WEST SAINT PAUL", "beds": 241.0, "SR_15": 2.0}, {"Diff_star": -1.0, "addr": "604 - 1ST STREET NE", "SR_14": 3.0, "Q_14": 4.0, "name": "BIRCHWOOD HEALTH CARE CENTER", "SF_14": 4.0, "SF_15": 3.0, "cnty": "Washington", "st": "MN", "Zip": 55025.0, "O_14": 4.0, "Q_15": 3.0, "O_15": 3.0, "city": "FOREST LAKE", "beds": 110.0, "SR_15": 3.0}, {"Diff_star": -1.0, "addr": "5700 EAST RIVER ROAD", "SR_14": 2.0, "Q_14": 4.0, "name": "GOLDEN LIVINGCENTER - LYNWOOD", "SF_14": 4.0, "SF_15": 3.0, "cnty": "Anoka", "st": "MN", "Zip": 55432.0, "O_14": 3.0, "Q_15": 2.0, "O_15": 2.0, "city": "FRIDLEY", "beds": 54.0, "SR_15": 2.0}, {"Diff_star": -1.0, "addr": "275 PENN AVENUE NORTH", "SR_14": 1.0, "Q_14": 5.0, "name": "THE VILLA AT BRYN MAWR", "SF_14": 2.0, "SF_15": 2.0, "cnty": "Hennepin", "st": "MN", "Zip": 55405.0, "O_14": 2.0, "Q_15": 3.0, "O_15": 1.0, "city": "MINNEAPOLIS", "beds": 120.0, "SR_15": 1.0}, {"Diff_star": -1.0, "addr": "3000 4TH AVENUE", "SR_14": 2.0, "Q_14": 5.0, "name": "ANOKA REHABILITATION AND LIVING CENTER", "SF_14": 4.0, "SF_15": 4.0, "cnty": "Anoka", "st": "MN", "Zip": 55303.0, "O_14": 4.0, "Q_15": 4.0, "O_15": 3.0, "city": "ANOKA", "beds": 120.0, "SR_15": 2.0}, {"Diff_star": 0.0, "addr": "1119 OWENS STREET NORTH", "SR_14": 2.0, "Q_14": 4.0, "name": "GOOD SAMARITAN SOCIETY - STILLWATER", "SF_14": 4.0, "SF_15": 4.0, "cnty": "Washington", "st": "MN", "Zip": 55082.0, "O_14": 3.0, "Q_15": 3.0, "O_15": 3.0, "city": "STILLWATER", "beds": 94.0, "SR_15": 2.0}, {"Diff_star": -1.0, "addr": "4527 SHORELINE DRIVE", "SR_14": 4.0, "Q_14": 5.0, "name": "LAKE MINNETONKA SHORES", "SF_14": 4.0, "SF_15": 4.0, "cnty": "Hennepin", "st": "MN", "Zip": 55384.0, "O_14": 5.0, "Q_15": 4.0, "O_15": 4.0, "city": "SPRING PARK", "beds": 145.0, "SR_15": 4.0}, {"Diff_star": 0.0, "addr": "1040 LINCOLN AVENUE", "SR_14": 5.0, "Q_14": 5.0, "name": "ESSENTIA HEALTH OAK CROSSING", "SF_14": 4.0, "SF_15": 4.0, "cnty": "Becker", "st": "MN", "Zip": 56501.0, "O_14": 5.0, "Q_15": 4.0, "O_15": 5.0, "city": "DETROIT LAKES", "beds": 96.0, "SR_15": 5.0}, {"Diff_star": 0.0, "addr": "13820 COMMUNITY DRIVE", "SR_14": 5.0, "Q_14": 4.0, "name": "EBENEZER RIDGES GERIATRIC CARE CENTER", "SF_14": 4.0, "SF_15": 4.0, "cnty": "Dakota", "st": "MN", "Zip": 55337.0, "O_14": 5.0, "Q_15": 2.0, "O_15": 5.0, "city": "BURNSVILLE", "beds": 104.0, "SR_15": 5.0}, {"Diff_star": 0.0, "addr": "4002 LONDON ROAD", "SR_14": 2.0, "Q_14": 4.0, "name": "LAKESHORE INC", "SF_14": 5.0, "SF_15": 5.0, "cnty": "St. Louis", "st": "MN", "Zip": 55804.0, "O_14": 3.0, "Q_15": 2.0, "O_15": 3.0, "city": "DULUTH", "beds": 60.0, "SR_15": 2.0}, {"Diff_star": 0.0, "addr": "500 WEST GRANT STREET", "SR_14": 2.0, "Q_14": 4.0, "name": "MAYO CLINIC HEALTH SYSTEM - LAKE CITY", "SF_14": 5.0, "SF_15": 5.0, "cnty": "Goodhue", "st": "MN", "Zip": 55041.0, "O_14": 3.0, "Q_15": 4.0, "O_15": 3.0, "city": "LAKE CITY", "beds": 90.0, "SR_15": 2.0}, {"Diff_star": -1.0, "addr": "550 EAST ROSELAWN AVENUE", "SR_14": 1.0, "Q_14": 5.0, "name": "GOOD SAMARITAN SOCIETY - MAPLEWOOD", "SF_14": 2.0, "SF_15": 2.0, "cnty": "Ramsey", "st": "MN", "Zip": 55117.0, "O_14": 2.0, "Q_15": 4.0, "O_15": 1.0, "city": "MAPLEWOOD", "beds": 96.0, "SR_15": 1.0}, {"Diff_star": 0.0, "addr": "2106 SECOND AVENUE SOUTH", "SR_14": 4.0, "Q_14": 5.0, "name": "GOLDEN LIVINGCENTER - CHATEAU", "SF_14": 4.0, "SF_15": 4.0, "cnty": "Hennepin", "st": "MN", "Zip": 55404.0, "O_14": 5.0, "Q_15": 5.0, "O_15": 5.0, "city": "MINNEAPOLIS", "beds": 69.0, "SR_15": 4.0}, {"Diff_star": -1.0, "addr": "1412 WEST FOURTH STREET", "SR_14": 3.0, "Q_14": 5.0, "name": "RED WING HEALTH CENTER", "SF_14": 3.0, "SF_15": 3.0, "cnty": "Goodhue", "st": "MN", "Zip": 55066.0, "O_14": 4.0, "Q_15": 4.0, "O_15": 3.0, "city": "RED WING", "beds": 145.0, "SR_15": 3.0}, {"Diff_star": 0.0, "addr": "930 WEST 16TH STREET", "SR_14": 4.0, "Q_14": 4.0, "name": "AUGUSTANA HEALTH CARE CENTER OF HASTINGS", "SF_14": 4.0, "SF_15": 3.0, "cnty": "Dakota", "st": "MN", "Zip": 55033.0, "O_14": 4.0, "Q_15": 4.0, "O_15": 4.0, "city": "HASTINGS", "beds": 91.0, "SR_15": 4.0}, {"Diff_star": 0.0, "addr": "1105 3RD AVENUE SOUTHWEST", "SR_14": 4.0, "Q_14": 4.0, "name": "SLEEPY EYE CARE CENTER", "SF_14": 4.0, "SF_15": 3.0, "cnty": "Brown", "st": "MN", "Zip": 56085.0, "O_14": 4.0, "Q_15": 2.0, "O_15": 4.0, "city": "SLEEPY EYE", "beds": 65.0, "SR_15": 4.0}, {"Diff_star": -1.0, "addr": "1601 ST LOUIS AVENUE", "SR_14": 1.0, "Q_14": 3.0, "name": "BAYSHORE RESIDENCE & REHAB CTR", "SF_14": 4.0, "SF_15": 4.0, "cnty": "St. Louis", "st": "MN", "Zip": 55802.0, "O_14": 2.0, "Q_15": 1.0, "O_15": 1.0, "city": "DULUTH", "beds": 139.0, "SR_15": 1.0}, {"Diff_star": -1.0, "addr": "300 SOUTH BRUCE STREET", "SR_14": 4.0, "Q_14": 3.0, "name": "AVERA MORNINGSIDE HEIGHTS CARE CENTER", "SF_14": 2.0, "SF_15": 2.0, "cnty": "Lyon", "st": "MN", "Zip": 56258.0, "O_14": 4.0, "Q_15": 1.0, "O_15": 3.0, "city": "MARSHALL", "beds": 76.0, "SR_15": 4.0}, {"Diff_star": 0.0, "addr": "8100 HIGHWOOD DRIVE", "SR_14": 5.0, "Q_14": 5.0, "name": "FRIENDSHIP VILLAGE OF BLOOMINGTON", "SF_14": 5.0, "SF_15": 5.0, "cnty": "Hennepin", "st": "MN", "Zip": 55438.0, "O_14": 5.0, "Q_15": 4.0, "O_15": 5.0, "city": "BLOOMINGTON", "beds": 66.0, "SR_15": 5.0}, {"Diff_star": 0.0, "addr": "30 SOUTH BEHL STREET", "SR_14": 5.0, "Q_14": 5.0, "name": "APPLETON MUNICIPAL HOSPITAL", "SF_14": 4.0, "SF_15": 4.0, "cnty": "Swift", "st": "MN", "Zip": 56208.0, "O_14": 5.0, "Q_15": 5.0, "O_15": 5.0, "city": "APPLETON", "beds": 50.0, "SR_15": 5.0}, {"Diff_star": 0.0, "addr": "320 EAST MAIN STREET", "SR_14": 2.0, "Q_14": 3.0, "name": "CUYUNA REGIONAL MEDICAL CENTER", "SF_14": 4.0, "SF_15": 4.0, "cnty": "Crow Wing", "st": "MN", "Zip": 56441.0, "O_14": 3.0, "Q_15": 2.0, "O_15": 3.0, "city": "CROSBY", "beds": 117.0, "SR_15": 2.0}, {"Diff_star": 0.0, "addr": "1347 WEST BROADWAY", "SR_14": 2.0, "Q_14": 4.0, "name": "SAINT ANNE EXTENDED HEALTHCARE", "SF_14": 4.0, "SF_15": 4.0, "cnty": "Winona", "st": "MN", "Zip": 55987.0, "O_14": 3.0, "Q_15": 2.0, "O_15": 3.0, "city": "WINONA", "beds": 109.0, "SR_15": 2.0}, {"Diff_star": 0.0, "addr": "333 FIFTH STREET WEST", "SR_14": 5.0, "Q_14": 4.0, "name": "GOOD SAMARITAN SOCIETY - WACONIA AND WESTVIEW ACRE", "SF_14": 4.0, "SF_15": 4.0, "cnty": "Carver", "st": "MN", "Zip": 55387.0, "O_14": 5.0, "Q_15": 4.0, "O_15": 5.0, "city": "WACONIA", "beds": 100.0, "SR_15": 5.0}, {"Diff_star": -2.0, "addr": "7012 LAKE ROAD", "SR_14": 3.0, "Q_14": 4.0, "name": "WOODBURY HEALTH CARE CENTER", "SF_14": 4.0, "SF_15": 3.0, "cnty": "Washington", "st": "MN", "Zip": 55125.0, "O_14": 4.0, "Q_15": 3.0, "O_15": 2.0, "city": "WOODBURY", "beds": 175.0, "SR_15": 2.0}, {"Diff_star": -1.0, "addr": "935 KENWOOD AVENUE", "SR_14": 1.0, "Q_14": 5.0, "name": "BENEDICTINE HEALTH CENTER", "SF_14": 4.0, "SF_15": "", "cnty": "St. Louis", "st": "MN", "Zip": 55811.0, "O_14": 2.0, "Q_15": 4.0, "O_15": 1.0, "city": "DULUTH", "beds": 96.0, "SR_15": 1.0}, {"Diff_star": 0.0, "addr": "200 SOUTH DEKALB STREET", "SR_14": 1.0, "Q_14": 5.0, "name": "GOOD SAMARITAN SOCIETY - REDWOOD FALLS", "SF_14": 5.0, "SF_15": 5.0, "cnty": "Redwood", "st": "MN", "Zip": 56283.0, "O_14": 2.0, "Q_15": 5.0, "O_15": 2.0, "city": "REDWOOD FALLS", "beds": 40.0, "SR_15": 1.0}, {"Diff_star": 0.0, "addr": "414 WEST JEFFERSON AVENUE, PO BOX 396", "SR_14": 2.0, "Q_14": 4.0, "name": "MAHNOMEN HEALTH CENTER", "SF_14": 5.0, "SF_15": 5.0, "cnty": "Mahnomen", "st": "MN", "Zip": 56557.0, "O_14": 3.0, "Q_15": 3.0, "O_15": 3.0, "city": "MAHNOMEN", "beds": 42.0, "SR_15": 2.0}, {"Diff_star": 0.0, "addr": "1500 EAST THIRD AVENUE", "SR_14": 2.0, "Q_14": 4.0, "name": "GUARDIAN ANGELS HEALTH & REHAB CENTER", "SF_14": 4.0, "SF_15": 4.0, "cnty": "St. Louis", "st": "MN", "Zip": 55746.0, "O_14": 3.0, "Q_15": 4.0, "O_15": 3.0, "city": "HIBBING", "beds": 92.0, "SR_15": 2.0}, {"Diff_star": 0.0, "addr": "865 MANKATO AVENUE", "SR_14": 1.0, "Q_14": 5.0, "name": "LAKE WINONA MANOR", "SF_14": 4.0, "SF_15": 4.0, "cnty": "Winona", "st": "MN", "Zip": 55987.0, "O_14": 2.0, "Q_15": 4.0, "O_15": 2.0, "city": "WINONA", "beds": 134.0, "SR_15": 1.0}, {"Diff_star": 0.0, "addr": "2000 NORTH AVENUE", "SR_14": 5.0, "Q_14": 4.0, "name": "NORTHFIELD HOSPITAL LONG TERM CARE CENTER", "SF_14": 4.0, "SF_15": 4.0, "cnty": "Rice", "st": "MN", "Zip": 55057.0, "O_14": 5.0, "Q_15": 4.0, "O_15": 5.0, "city": "NORTHFIELD", "beds": 40.0, "SR_15": 5.0}, {"Diff_star": -1.0, "addr": "1007 EAST 14TH STREET", "SR_14": 2.0, "Q_14": 5.0, "name": "AUGUSTANA HCC OF MPLS", "SF_14": 3.0, "SF_15": 3.0, "cnty": "Hennepin", "st": "MN", "Zip": 55404.0, "O_14": 3.0, "Q_15": 3.0, "O_15": 2.0, "city": "MINNEAPOLIS", "beds": 268.0, "SR_15": 2.0}, {"Diff_star": 0.0, "addr": "345 TENTH AVENUE", "SR_14": 4.0, "Q_14": 5.0, "name": "MUNICIPAL HOSP & GRANITE MANOR", "SF_14": 5.0, "SF_15": 5.0, "cnty": "Yellow Medcine", "st": "MN", "Zip": 56241.0, "O_14": 5.0, "Q_15": 5.0, "O_15": 5.0, "city": "GRANITE FALLS", "beds": 57.0, "SR_15": 4.0}, {"Diff_star": -1.0, "addr": "20 NINTH STREET SOUTHEAST", "SR_14": 4.0, "Q_14": 5.0, "name": "CENTRACARE HEALTH SYSTEM - LONG PRAIRIE", "SF_14": 4.0, "SF_15": 3.0, "cnty": "Todd", "st": "MN", "Zip": 56347.0, "O_14": 5.0, "Q_15": 4.0, "O_15": 4.0, "city": "LONG PRAIRIE", "beds": 70.0, "SR_15": 4.0}, {"Diff_star": 0.0, "addr": "321 NORTHEAST SIXTH STREET", "SR_14": 2.0, "Q_14": 4.0, "name": "HERITAGE MANOR", "SF_14": 4.0, "SF_15": 4.0, "cnty": "St. Louis", "st": "MN", "Zip": 55719.0, "O_14": 3.0, "Q_15": 2.0, "O_15": 3.0, "city": "CHISHOLM", "beds": 78.0, "SR_15": 2.0}, {"Diff_star": -1.0, "addr": "1010 SOUTH BIRCH", "SR_14": 2.0, "Q_14": 5.0, "name": "KITTSON MEMORIAL HEALTHCARE CENTER", "SF_14": 4.0, "SF_15": 3.0, "cnty": "Kittson", "st": "MN", "Zip": 56728.0, "O_14": 4.0, "Q_15": 5.0, "O_15": 3.0, "city": "HALLOCK", "beds": 70.0, "SR_15": 2.0}, {"Diff_star": 0.0, "addr": "515 FRANKLIN STREET SOUTH", "SR_14": 3.0, "Q_14": 4.0, "name": "GOOD SAMARITAN SOCIETY - GLENWOOD LAKEVIEW", "SF_14": 3.0, "SF_15": 3.0, "cnty": "Pope", "st": "MN", "Zip": 56334.0, "O_14": 3.0, "Q_15": 4.0, "O_15": 3.0, "city": "GLENWOOD", "beds": 32.0, "SR_15": 3.0}, {"Diff_star": 0.0, "addr": "3410  213TH STREET WEST", "SR_14": 5.0, "Q_14": 5.0, "name": "TRINITY CARE CENTER", "SF_14": 4.0, "SF_15": 5.0, "cnty": "Dakota", "st": "MN", "Zip": 55024.0, "O_14": 5.0, "Q_15": 5.0, "O_15": 5.0, "city": "FARMINGTON", "beds": 65.0, "SR_15": 5.0}, {"Diff_star": 0.0, "addr": "323 SOUTH MINNESOTA", "SR_14": 2.0, "Q_14": 5.0, "name": "RIVERVIEW HOSPITAL & NURSING HOME", "SF_14": 4.0, "SF_15": 4.0, "cnty": "Polk", "st": "MN", "Zip": 56716.0, "O_14": 4.0, "Q_15": 5.0, "O_15": 4.0, "city": "CROOKSTON", "beds": 24.0, "SR_15": 2.0}, {"Diff_star": 0.0, "addr": "2001 EASTWOOD DRIVE", "SR_14": 3.0, "Q_14": 4.0, "name": "THIEF RIVER CARE CENTER", "SF_14": 4.0, "SF_15": 4.0, "cnty": "Pennington", "st": "MN", "Zip": 56701.0, "O_14": 4.0, "Q_15": 3.0, "O_15": 4.0, "city": "THIEF RIVER FALLS", "beds": 70.0, "SR_15": 3.0}, {"Diff_star": 0.0, "addr": "200 FIRST STREET WEST", "SR_14": 4.0, "Q_14": 3.0, "name": "CENTRACARE HEALTH PAYNESVILLE KORONIS MANOR CC", "SF_14": 4.0, "SF_15": 4.0, "cnty": "Stearns", "st": "MN", "Zip": 56362.0, "O_14": 4.0, "Q_15": 2.0, "O_15": 4.0, "city": "PAYNESVILLE", "beds": 52.0, "SR_15": 4.0}, {"Diff_star": 0.0, "addr": "1175 NININGER ROAD", "SR_14": 3.0, "Q_14": 3.0, "name": "REGINA SENIOR LIVING", "SF_14": 5.0, "SF_15": 5.0, "cnty": "Dakota", "st": "MN", "Zip": 55033.0, "O_14": 4.0, "Q_15": 2.0, "O_15": 4.0, "city": "HASTINGS", "beds": 61.0, "SR_15": 3.0}, {"Diff_star": 0.0, "addr": "512 HUMBOLDT AVENUE", "SR_14": 3.0, "Q_14": 3.0, "name": "CERENITY CARE CENTER ON HUMBOLDT", "SF_14": 4.0, "SF_15": 4.0, "cnty": "Ramsey", "st": "MN", "Zip": 55107.0, "O_14": 4.0, "Q_15": 2.0, "O_15": 4.0, "city": "SAINT PAUL", "beds": 117.0, "SR_15": 3.0}, {"Diff_star": 0.0, "addr": "920 SOUTHEAST 4TH STREET", "SR_14": 3.0, "Q_14": 4.0, "name": "ST OTTOS CARE CENTER", "SF_14": 2.0, "SF_15": 2.0, "cnty": "Morrison", "st": "MN", "Zip": 56345.0, "O_14": 3.0, "Q_15": 4.0, "O_15": 3.0, "city": "LITTLE FALLS", "beds": 93.0, "SR_15": 3.0}, {"Diff_star": 0.0, "addr": "3910 MINNESOTA AVENUE", "SR_14": 3.0, "Q_14": 3.0, "name": "FRANCISCAN HEALTH CENTER", "SF_14": 4.0, "SF_15": 4.0, "cnty": "St. Louis", "st": "MN", "Zip": 55802.0, "O_14": 4.0, "Q_15": 2.0, "O_15": 4.0, "city": "DULUTH", "beds": 44.0, "SR_15": 3.0}, {"Diff_star": 0.0, "addr": "1109 EAST HIGHWAY 7", "SR_14": 4.0, "Q_14": 5.0, "name": "LUTHER HAVEN", "SF_14": 4.0, "SF_15": 4.0, "cnty": "Chippewa", "st": "MN", "Zip": 56265.0, "O_14": 5.0, "Q_15": 5.0, "O_15": 5.0, "city": "MONTEVIDEO", "beds": 90.0, "SR_15": 4.0}, {"Diff_star": 0.0, "addr": "600 SUNRISE BOULEVARD", "SR_14": 1.0, "Q_14": 5.0, "name": "WOOD DALE HOME INC", "SF_14": 4.0, "SF_15": 4.0, "cnty": "Redwood", "st": "MN", "Zip": 56283.0, "O_14": 2.0, "Q_15": 5.0, "O_15": 2.0, "city": "REDWOOD FALLS", "beds": 50.0, "SR_15": 1.0}, {"Diff_star": 0.0, "addr": "1001 SCOTTS AVENUE", "SR_14": 3.0, "Q_14": 5.0, "name": "WEST WIND VILLAGE", "SF_14": 4.0, "SF_15": 4.0, "cnty": "Stevens", "st": "MN", "Zip": 56267.0, "O_14": 5.0, "Q_15": 5.0, "O_15": 5.0, "city": "MORRIS", "beds": 80.0, "SR_15": 3.0}, {"Diff_star": 0.0, "addr": "1805 HENNEPIN AVENUE NORTH", "SR_14": 4.0, "Q_14": 4.0, "name": "GLENCOE REGIONAL HEALTH SERVICES", "SF_14": 3.0, "SF_15": 3.0, "cnty": "Mc Leod", "st": "MN", "Zip": 55336.0, "O_14": 4.0, "Q_15": 3.0, "O_15": 4.0, "city": "GLENCOE", "beds": 110.0, "SR_15": 4.0}, {"Diff_star": -1.0, "addr": "14650 GARRETT AVENUE", "SR_14": 4.0, "Q_14": 5.0, "name": "AUGUSTANA HCC OF APPLE VALLEY", "SF_14": 4.0, "SF_15": 4.0, "cnty": "Dakota", "st": "MN", "Zip": 55124.0, "O_14": 5.0, "Q_15": 4.0, "O_15": 4.0, "city": "APPLE VALLEY", "beds": 178.0, "SR_15": 4.0}, {"Diff_star": 0.0, "addr": "2400 ST FRANCIS DRIVE", "SR_14": 4.0, "Q_14": 4.0, "name": "ST FRANCIS HOME", "SF_14": 4.0, "SF_15": 4.0, "cnty": "Wilkin", "st": "MN", "Zip": 56520.0, "O_14": 4.0, "Q_15": 4.0, "O_15": 4.0, "city": "BRECKENRIDGE", "beds": 80.0, "SR_15": 4.0}, {"Diff_star": 0.0, "addr": "618 EAST 17TH STREET", "SR_14": 2.0, "Q_14": 4.0, "name": "BENEDICTINE HEALTH CENTER OF MINNEAPOLIS", "SF_14": 5.0, "SF_15": 5.0, "cnty": "Hennepin", "st": "MN", "Zip": 55404.0, "O_14": 3.0, "Q_15": 3.0, "O_15": 3.0, "city": "MINNEAPOLIS", "beds": 95.0, "SR_15": 2.0}, {"Diff_star": 0.0, "addr": "3700 FOSS ROAD NORTHEAST", "SR_14": 2.0, "Q_14": 5.0, "name": "ST ANTHONY HEALTH CENTER", "SF_14": 4.0, "SF_15": 4.0, "cnty": "Anoka", "st": "MN", "Zip": 55421.0, "O_14": 4.0, "Q_15": 5.0, "O_15": 4.0, "city": "ST ANTHONY", "beds": 150.0, "SR_15": 2.0}, {"Diff_star": 0.0, "addr": "1115 4TH AVENUE NORTH", "SR_14": 3.0, "Q_14": 4.0, "name": "GOOD SHEPHERD LUTHERAN HOME", "SF_14": 4.0, "SF_15": 4.0, "cnty": "Benton", "st": "MN", "Zip": 56379.0, "O_14": 4.0, "Q_15": 3.0, "O_15": 4.0, "city": "SAUK RAPIDS", "beds": 162.0, "SR_15": 3.0}, {"Diff_star": -1.0, "addr": "525 BLUFF AVENUE", "SR_14": 3.0, "Q_14": 3.0, "name": "GOLDEN LIVINGCENTER - WHITEWATER", "SF_14": 4.0, "SF_15": 3.0, "cnty": "Winona", "st": "MN", "Zip": 55972.0, "O_14": 4.0, "Q_15": 3.0, "O_15": 3.0, "city": "ST CHARLES", "beds": 55.0, "SR_15": 3.0}, {"Diff_star": -1.0, "addr": "3720 23RD AVENUE  SOUTH", "SR_14": 2.0, "Q_14": 4.0, "name": "PROVIDENCE PLACE", "SF_14": 4.0, "SF_15": 3.0, "cnty": "Hennepin", "st": "MN", "Zip": 55407.0, "O_14": 3.0, "Q_15": 2.0, "O_15": 2.0, "city": "MINNEAPOLIS", "beds": 190.0, "SR_15": 2.0}, {"Diff_star": -1.0, "addr": "1401 EAST 100TH STREET", "SR_14": 4.0, "Q_14": 4.0, "name": "MARTIN LUTHER CARE CENTER", "SF_14": 4.0, "SF_15": 4.0, "cnty": "Hennepin", "st": "MN", "Zip": 55425.0, "O_14": 4.0, "Q_15": 3.0, "O_15": 3.0, "city": "BLOOMINGTON", "beds": 137.0, "SR_15": 2.0}, {"Diff_star": 0.0, "addr": "900 3RD STREET SOUTH", "SR_14": 5.0, "Q_14": 4.0, "name": "GOLDEN LIVINGCENTER - FRANKLIN", "SF_14": 4.0, "SF_15": 3.0, "cnty": "Renville", "st": "MN", "Zip": 55333.0, "O_14": 5.0, "Q_15": 2.0, "O_15": 5.0, "city": "FRANKLIN", "beds": 46.0, "SR_15": 5.0}, {"Diff_star": 1.0, "addr": "800 MEDICAL CENTER DRIVE,  PO BOX 800", "SR_14": 3.0, "Q_14": 4.0, "name": "MAYO CLINIC HEALTH SYSTEM - FAIRMONT", "SF_14": 5.0, "SF_15": 4.0, "cnty": "Martin", "st": "MN", "Zip": 56031.0, "O_14": 4.0, "Q_15": 5.0, "O_15": 5.0, "city": "FAIRMONT", "beds": 40.0, "SR_15": 3.0}, {"Diff_star": 1.0, "addr": "6200 XERXES AVENUE SOUTH", "SR_14": 3.0, "Q_14": 4.0, "name": "EDINA CARE & REHAB CENTER", "SF_14": 5.0, "SF_15": 5.0, "cnty": "Hennepin", "st": "MN", "Zip": 55423.0, "O_14": 4.0, "Q_15": 5.0, "O_15": 5.0, "city": "RICHFIELD", "beds": 125.0, "SR_15": 3.0}, {"Diff_star": 0.0, "addr": "1900 SHERREN AVENUE", "SR_14": 4.0, "Q_14": 5.0, "name": "MAPLEWOOD CARE CENTER", "SF_14": 4.0, "SF_15": 3.0, "cnty": "Ramsey", "st": "MN", "Zip": 55109.0, "O_14": 5.0, "Q_15": 5.0, "O_15": 5.0, "city": "MAPLEWOOD", "beds": 149.0, "SR_15": 4.0}, {"Diff_star": -2.0, "addr": "601 GRANT AVENUE", "SR_14": 2.0, "Q_14": 2.0, "name": "ST RAPHAELS HEALTH & REHAB CENTER", "SF_14": 4.0, "SF_15": 3.0, "cnty": "St. Louis", "st": "MN", "Zip": 55734.0, "O_14": 3.0, "Q_15": 1.0, "O_15": 1.0, "city": "EVELETH", "beds": 76.0, "SR_15": 2.0}, {"Diff_star": 0.0, "addr": "413 13TH AVENUE", "SR_14": 3.0, "Q_14": 4.0, "name": "GOOD SAMARITAN SOCIETY - HOWARD LAKE", "SF_14": 4.0, "SF_15": 4.0, "cnty": "Wright", "st": "MN", "Zip": 55349.0, "O_14": 4.0, "Q_15": 2.0, "O_15": 4.0, "city": "HOWARD LAKE", "beds": 35.0, "SR_15": 3.0}, {"Diff_star": -1.0, "addr": "3815 WEST BROADWAY", "SR_14": 2.0, "Q_14": 5.0, "name": "GOOD SAMARITAN SOCIETY - SPECIALTY CARE COMMUNITY", "SF_14": 5.0, "SF_15": 5.0, "cnty": "Hennepin", "st": "MN", "Zip": 55422.0, "O_14": 4.0, "Q_15": 4.0, "O_15": 3.0, "city": "ROBBINSDALE", "beds": 96.0, "SR_15": 2.0}, {"Diff_star": 0.0, "addr": "610 SUMMIT DRIVE", "SR_14": 2.0, "Q_14": 5.0, "name": "LAKEVIEW METHODIST HEALTH CARE CENTER", "SF_14": 5.0, "SF_15": 5.0, "cnty": "Martin", "st": "MN", "Zip": 56031.0, "O_14": 4.0, "Q_15": 5.0, "O_15": 4.0, "city": "FAIRMONT", "beds": 85.0, "SR_15": 2.0}, {"Diff_star": 0.0, "addr": "600 FIFTH STREET SOUTHEAST, BOX 129", "SR_14": 1.0, "Q_14": 4.0, "name": "CLAYCO CARE CENTER", "SF_14": 4.0, "SF_15": 4.0, "cnty": "Clay", "st": "MN", "Zip": 56514.0, "O_14": 2.0, "Q_15": 2.0, "O_15": 2.0, "city": "BARNESVILLE", "beds": 35.0, "SR_15": 1.0}, {"Diff_star": 0.0, "addr": "211 NORTHWEST SECOND STREET", "SR_14": 3.0, "Q_14": 2.0, "name": "CHARTER HOUSE", "SF_14": 5.0, "SF_15": 5.0, "cnty": "Olmsted", "st": "MN", "Zip": 55901.0, "O_14": 4.0, "Q_15": 3.0, "O_15": 4.0, "city": "ROCHESTER", "beds": 32.0, "SR_15": 3.0}, {"Diff_star": 0.0, "addr": "1201 8TH STREET SOUTH", "SR_14": 1.0, "Q_14": 3.0, "name": "ST MICHAELS HEALTH & REHAB CENTER", "SF_14": 3.0, "SF_15": 3.0, "cnty": "St. Louis", "st": "MN", "Zip": 55792.0, "O_14": 1.0, "Q_15": 2.0, "O_15": 1.0, "city": "VIRGINIA", "beds": 83.0, "SR_15": 1.0}, {"Diff_star": 0.0, "addr": "1301 50TH STREET EAST", "SR_14": 3.0, "Q_14": 2.0, "name": "GOOD SAMARITAN SOCIETY - INVER GROVE HEIGHTS", "SF_14": 4.0, "SF_15": 4.0, "cnty": "Dakota", "st": "MN", "Zip": 55077.0, "O_14": 4.0, "Q_15": 2.0, "O_15": 4.0, "city": "INVER GROVE HEIGHTS", "beds": 52.0, "SR_15": 3.0}, {"Diff_star": 0.0, "addr": "119 FAUST STREET SOUTHEAST", "SR_14": 2.0, "Q_14": 4.0, "name": "PIERZ VILLA INC", "SF_14": 3.0, "SF_15": 3.0, "cnty": "Morrison", "st": "MN", "Zip": 56364.0, "O_14": 2.0, "Q_15": 4.0, "O_15": 2.0, "city": "PIERZ", "beds": 50.0, "SR_15": 2.0}, {"Diff_star": 0.0, "addr": "3245 VERA CRUZ AVENUE NORTH", "SR_14": 2.0, "Q_14": 5.0, "name": "CRYSTAL CARE CENTER", "SF_14": 3.0, "SF_15": 3.0, "cnty": "Hennepin", "st": "MN", "Zip": 55422.0, "O_14": 3.0, "Q_15": 5.0, "O_15": 3.0, "city": "CRYSTAL", "beds": 130.0, "SR_15": 2.0}, {"Diff_star": 0.0, "addr": "1003 WEST MAPLE", "SR_14": 4.0, "Q_14": 5.0, "name": "GOLDEN LIVINGCENTER - OLIVIA", "SF_14": 2.0, "SF_15": 2.0, "cnty": "Renville", "st": "MN", "Zip": 56277.0, "O_14": 5.0, "Q_15": 5.0, "O_15": 5.0, "city": "OLIVIA", "beds": 57.0, "SR_15": 4.0}, {"Diff_star": 0.0, "addr": "110 NORTH 7TH STREET", "SR_14": 4.0, "Q_14": 5.0, "name": "ST CLARE LIVING COMMUNITY OF MORA", "SF_14": 5.0, "SF_15": 5.0, "cnty": "Kanabec", "st": "MN", "Zip": 55051.0, "O_14": 5.0, "Q_15": 4.0, "O_15": 5.0, "city": "MORA", "beds": 65.0, "SR_15": 4.0}, {"Diff_star": 0.0, "addr": "725 SECOND AVENUE SOUTH", "SR_14": 2.0, "Q_14": 4.0, "name": "GOLDEN LIVINGCENTER - HOPKINS", "SF_14": 4.0, "SF_15": 4.0, "cnty": "Hennepin", "st": "MN", "Zip": 55343.0, "O_14": 3.0, "Q_15": 2.0, "O_15": 3.0, "city": "HOPKINS", "beds": 138.0, "SR_15": 2.0}, {"Diff_star": 0.0, "addr": "205 FIRST STREET NORTH", "SR_14": 3.0, "Q_14": 4.0, "name": "GOOD SAMARITAN SOCIETY - WATERVILLE", "SF_14": 4.0, "SF_15": 4.0, "cnty": "Le Sueur", "st": "MN", "Zip": 56096.0, "O_14": 4.0, "Q_15": 4.0, "O_15": 4.0, "city": "WATERVILLE", "beds": 33.0, "SR_15": 3.0}, {"Diff_star": -1.0, "addr": "420 MARSHALL AVENUE", "SR_14": 2.0, "Q_14": 4.0, "name": "BETHEL CARE CENTER", "SF_14": 4.0, "SF_15": 3.0, "cnty": "Ramsey", "st": "MN", "Zip": 55102.0, "O_14": 3.0, "Q_15": 2.0, "O_15": 2.0, "city": "SAINT PAUL", "beds": 131.0, "SR_15": 2.0}, {"Diff_star": 0.0, "addr": "305 FREMONT STREET", "SR_14": 4.0, "Q_14": 4.0, "name": "GOLDEN LIVINGCENTER - TWIN RIVERS", "SF_14": 4.0, "SF_15": 4.0, "cnty": "Anoka", "st": "MN", "Zip": 55303.0, "O_14": 4.0, "Q_15": 3.0, "O_15": 4.0, "city": "ANOKA", "beds": 56.0, "SR_15": 4.0}, {"Diff_star": 0.0, "addr": "219 WEST MAPLE AVENUE, PO BOX 96", "SR_14": 1.0, "Q_14": 5.0, "name": "FRAZEE CARE CENTER", "SF_14": 3.0, "SF_15": 3.0, "cnty": "Becker", "st": "MN", "Zip": 56544.0, "O_14": 2.0, "Q_15": 5.0, "O_15": 2.0, "city": "FRAZEE", "beds": 74.0, "SR_15": 1.0}, {"Diff_star": -1.0, "addr": "1891 FLORENCE STREET", "SR_14": 3.0, "Q_14": 5.0, "name": "CERENITY CARE CENTER - WHITE BEAR LAKE", "SF_14": 5.0, "SF_15": 5.0, "cnty": "Ramsey", "st": "MN", "Zip": 55110.0, "O_14": 5.0, "Q_15": 3.0, "O_15": 4.0, "city": "WHITE BEAR LAKE", "beds": 138.0, "SR_15": 3.0}, {"Diff_star": 0.0, "addr": "23028 - 347TH STREET SOUTHEAST", "SR_14": 4.0, "Q_14": 5.0, "name": "PIONEER MEMORIAL CARE CENTER", "SF_14": 4.0, "SF_15": 4.0, "cnty": "Polk", "st": "MN", "Zip": 56535.0, "O_14": 5.0, "Q_15": 5.0, "O_15": 5.0, "city": "ERSKINE", "beds": 68.0, "SR_15": 4.0}, {"Diff_star": -1.0, "addr": "300 NORTH DOW STREET", "SR_14": 1.0, "Q_14": 4.0, "name": "ANGELS CARE CENTER", "SF_14": 4.0, "SF_15": 3.0, "cnty": "Goodhue", "st": "MN", "Zip": 55009.0, "O_14": 2.0, "Q_15": 2.0, "O_15": 1.0, "city": "CANNON FALLS", "beds": 74.0, "SR_15": 1.0}, {"Diff_star": -1.0, "addr": "2215 HIGHWAY 52 NORTH", "SR_14": 3.0, "Q_14": 5.0, "name": "GOLDEN LIVINGCENTER - ROCHESTER WEST", "SF_14": 3.0, "SF_15": 3.0, "cnty": "Olmsted", "st": "MN", "Zip": 55901.0, "O_14": 4.0, "Q_15": 4.0, "O_15": 3.0, "city": "ROCHESTER", "beds": 54.0, "SR_15": 3.0}, {"Diff_star": 0.0, "addr": "416 SEVENTH STREET NORTHEAST", "SR_14": 2.0, "Q_14": 4.0, "name": "CORNERSTONE NSG & REHAB CENTER", "SF_14": 3.0, "SF_15": 3.0, "cnty": "Clearwater", "st": "MN", "Zip": 56621.0, "O_14": 2.0, "Q_15": 3.0, "O_15": 2.0, "city": "BAGLEY", "beds": 43.0, "SR_15": 2.0}, {"Diff_star": 0.0, "addr": "1101 BLACK OAK DRIVE", "SR_14": 3.0, "Q_14": 5.0, "name": "BENEDICTINE HEALTH CENTER INNSBRUCK", "SF_14": 4.0, "SF_15": 4.0, "cnty": "Ramsey", "st": "MN", "Zip": 55112.0, "O_14": 5.0, "Q_15": 5.0, "O_15": 5.0, "city": "NEW BRIGHTON", "beds": 105.0, "SR_15": 3.0}, {"Diff_star": 0.0, "addr": "625 PRAIRIE CENTER DRIVE", "SR_14": 5.0, "Q_14": 5.0, "name": "CASTLE RIDGE CARE CENTER", "SF_14": 4.0, "SF_15": 4.0, "cnty": "Hennepin", "st": "MN", "Zip": 55344.0, "O_14": 5.0, "Q_15": 4.0, "O_15": 5.0, "city": "EDEN PRAIRIE", "beds": 60.0, "SR_15": 5.0}, {"Diff_star": -1.0, "addr": "2209 UTAH AVENUE", "SR_14": 3.0, "Q_14": 5.0, "name": "GOLDEN LIVINGCENTER - MEADOW LANE", "SF_14": 3.0, "SF_15": 3.0, "cnty": "Swift", "st": "MN", "Zip": 56215.0, "O_14": 4.0, "Q_15": 5.0, "O_15": 3.0, "city": "BENSON", "beds": 62.0, "SR_15": 2.0}, {"Diff_star": 0.0, "addr": "506 HIGH STREET", "SR_14": 3.0, "Q_14": 4.0, "name": "GOOD SAMARITAN SOCIETY - WINTHROP", "SF_14": 4.0, "SF_15": 4.0, "cnty": "Sibley", "st": "MN", "Zip": 55396.0, "O_14": 4.0, "Q_15": 3.0, "O_15": 4.0, "city": "WINTHROP", "beds": 37.0, "SR_15": 3.0}, {"Diff_star": 0.0, "addr": "303 BROADWAY AVENUE SOUTH", "SR_14": 5.0, "Q_14": 4.0, "name": "TRIMONT HEALTH CARE CENTER", "SF_14": 4.0, "SF_15": 4.0, "cnty": "Martin", "st": "MN", "Zip": 56176.0, "O_14": 5.0, "Q_15": 3.0, "O_15": 5.0, "city": "TRIMONT", "beds": 36.0, "SR_15": 5.0}, {"Diff_star": 0.0, "addr": "312  NORTHEAST 1ST STREET", "SR_14": 5.0, "Q_14": 5.0, "name": "NEW RICHLAND CARE CENTER", "SF_14": 4.0, "SF_15": 4.0, "cnty": "Waseca", "st": "MN", "Zip": 56072.0, "O_14": 5.0, "Q_15": 5.0, "O_15": 5.0, "city": "NEW RICHLAND", "beds": 50.0, "SR_15": 5.0}, {"Diff_star": 0.0, "addr": "1201 17TH STREET NE", "SR_14": 2.0, "Q_14": 5.0, "name": "GOOD SAMARITAN SOCIETY - COMFORCARE", "SF_14": 5.0, "SF_15": 5.0, "cnty": "Mower", "st": "MN", "Zip": 55912.0, "O_14": 4.0, "Q_15": 5.0, "O_15": 4.0, "city": "AUSTIN", "beds": 45.0, "SR_15": 2.0}, {"Diff_star": -2.0, "addr": "2201 KEENAN DRIVE", "SR_14": 3.0, "Q_14": 3.0, "name": "GOOD SAMARITAN SOCIETY - INTERNATIONAL FALLS", "SF_14": 4.0, "SF_15": 3.0, "cnty": "Koochiching", "st": "MN", "Zip": 56649.0, "O_14": 4.0, "Q_15": 1.0, "O_15": 2.0, "city": "INTERNATIONAL FALLS", "beds": 54.0, "SR_15": 3.0}, {"Diff_star": 0.0, "addr": "101 SOUTH HILL STREET", "SR_14": 1.0, "Q_14": 4.0, "name": "GOLDEN LIVINGCENTER - LA CRESCENT", "SF_14": 3.0, "SF_15": 3.0, "cnty": "Houston", "st": "MN", "Zip": 55947.0, "O_14": 1.0, "Q_15": 3.0, "O_15": 1.0, "city": "LA CRESCENT", "beds": 45.0, "SR_15": 1.0}, {"Diff_star": 0.0, "addr": "2060 UPPER 55TH STREET EAST", "SR_14": 2.0, "Q_14": 5.0, "name": "WOODLYN HEIGHTS HEALTHCARE CENTER", "SF_14": 4.0, "SF_15": 4.0, "cnty": "Dakota", "st": "MN", "Zip": 55077.0, "O_14": 4.0, "Q_15": 5.0, "O_15": 4.0, "city": "INVER GROVE HEIGHTS", "beds": 99.0, "SR_15": 2.0}, {"Diff_star": -1.0, "addr": "5825 ST CROIX AVENUE", "SR_14": 2.0, "Q_14": 5.0, "name": "COLONIAL ACRES HEALTH CARE CTR", "SF_14": "", "SF_15": "", "cnty": "Hennepin", "st": "MN", "Zip": 55422.0, "O_14": 3.0, "Q_15": 4.0, "O_15": 2.0, "city": "GOLDEN VALLEY", "beds": 39.0, "SR_15": 2.0}, {"Diff_star": 0.0, "addr": "209 BIRCHWOOD AVENUE WEST PO BOX 700", "SR_14": 1.0, "Q_14": 4.0, "name": "GOLDEN LIVINGCENTER - WALKER", "SF_14": 3.0, "SF_15": 3.0, "cnty": "Cass", "st": "MN", "Zip": 56484.0, "O_14": 1.0, "Q_15": 3.0, "O_15": 1.0, "city": "WALKER", "beds": 40.0, "SR_15": 1.0}, {"Diff_star": 0.0, "addr": "9200 NICOLLET AVENUE SOUTH", "SR_14": 4.0, "Q_14": 4.0, "name": "GOLDEN LIVINGCENTER - BLOOMINGTON", "SF_14": 4.0, "SF_15": 3.0, "cnty": "Hennepin", "st": "MN", "Zip": 55420.0, "O_14": 4.0, "Q_15": 2.0, "O_15": 4.0, "city": "BLOOMINGTON", "beds": 74.0, "SR_15": 4.0}, {"Diff_star": -2.0, "addr": "253 PINE STREET", "SR_14": 3.0, "Q_14": 3.0, "name": "FOLEY NURSING CENTER", "SF_14": 4.0, "SF_15": 3.0, "cnty": "Benton", "st": "MN", "Zip": 56329.0, "O_14": 4.0, "Q_15": 1.0, "O_15": 2.0, "city": "FOLEY", "beds": 89.0, "SR_15": 3.0}, {"Diff_star": 0.0, "addr": "1000 LOVELL AVENUE", "SR_14": 4.0, "Q_14": 3.0, "name": "ROSE OF SHARON MANOR", "SF_14": "", "SF_15": "", "cnty": "Ramsey", "st": "MN", "Zip": 55113.0, "O_14": 4.0, "Q_15": 2.0, "O_15": 4.0, "city": "ROSEVILLE", "beds": 63.0, "SR_15": 4.0}, {"Diff_star": 0.0, "addr": "312 EAST GEORGE ST  PO BOX 136", "SR_14": 4.0, "Q_14": 4.0, "name": "DIVINE PROVIDENCE HEALTH CENTER", "SF_14": 4.0, "SF_15": 4.0, "cnty": "Lincoln", "st": "MN", "Zip": 56142.0, "O_14": 4.0, "Q_15": 4.0, "O_15": 4.0, "city": "IVANHOE", "beds": 25.0, "SR_15": 4.0}, {"Diff_star": 0.0, "addr": "28210 OLD TOWNE ROAD", "SR_14": 2.0, "Q_14": 4.0, "name": "THE MARGARET S PARMLY RESIDENCE", "SF_14": 4.0, "SF_15": 4.0, "cnty": "Chisago", "st": "MN", "Zip": 55013.0, "O_14": 3.0, "Q_15": 3.0, "O_15": 3.0, "city": "CHISAGO CITY", "beds": 101.0, "SR_15": 2.0}, {"Diff_star": 0.0, "addr": "1401 LAKE STREET NORTHWEST", "SR_14": 1.0, "Q_14": 2.0, "name": "WARROAD CARE CENTER", "SF_14": 3.0, "SF_15": 3.0, "cnty": "Roseau", "st": "MN", "Zip": 56763.0, "O_14": 1.0, "Q_15": 1.0, "O_15": 1.0, "city": "WARROAD", "beds": 49.0, "SR_15": 1.0}, {"Diff_star": -1.0, "addr": "520 FIRST STREET NORTHEAST", "SR_14": 4.0, "Q_14": 5.0, "name": "COUNTRY MANOR HEALTH & REHAB CTR", "SF_14": 4.0, "SF_15": 4.0, "cnty": "Stearns", "st": "MN", "Zip": 56377.0, "O_14": 5.0, "Q_15": 4.0, "O_15": 4.0, "city": "SARTELL", "beds": 165.0, "SR_15": 4.0}, {"Diff_star": -1.0, "addr": "515 DIVISION STREET", "SR_14": 4.0, "Q_14": 5.0, "name": "GOLDEN LIVINGCENTER - EXCELSIOR", "SF_14": 3.0, "SF_15": 3.0, "cnty": "Hennepin", "st": "MN", "Zip": 55331.0, "O_14": 5.0, "Q_15": 4.0, "O_15": 4.0, "city": "EXCELSIOR", "beds": 56.0, "SR_15": 4.0}, {"Diff_star": 1.0, "addr": "300 TENTH AVENUE SOUTHEAST", "SR_14": 4.0, "Q_14": 4.0, "name": "FAIRFAX COMMUNITY HOME", "SF_14": 4.0, "SF_15": 4.0, "cnty": "Renville", "st": "MN", "Zip": 55332.0, "O_14": 4.0, "Q_15": 5.0, "O_15": 5.0, "city": "FAIRFAX", "beds": 50.0, "SR_15": 4.0}, {"Diff_star": 0.0, "addr": "433 COUNTY ROAD 30", "SR_14": 4.0, "Q_14": 3.0, "name": "GOLDEN LIVINGCENTER - DELANO", "SF_14": 3.0, "SF_15": 3.0, "cnty": "Wright", "st": "MN", "Zip": 55328.0, "O_14": 4.0, "Q_15": 2.0, "O_15": 4.0, "city": "DELANO", "beds": 54.0, "SR_15": 4.0}, {"Diff_star": -1.0, "addr": "105 WEST LINDEN STREET", "SR_14": 1.0, "Q_14": 5.0, "name": "GOLDEN LIVINGCENTER - LINDEN", "SF_14": 3.0, "SF_15": 3.0, "cnty": "Washington", "st": "MN", "Zip": 55082.0, "O_14": 2.0, "Q_15": 4.0, "O_15": 1.0, "city": "STILLWATER", "beds": 67.0, "SR_15": 1.0}, {"Diff_star": 0.0, "addr": "901 LUTHER PLACE", "SR_14": 3.0, "Q_14": 4.0, "name": "ST JOHNS LUTHERAN HOME", "SF_14": 4.0, "SF_15": 4.0, "cnty": "Freeborn", "st": "MN", "Zip": 56007.0, "O_14": 4.0, "Q_15": 2.0, "O_15": 4.0, "city": "ALBERT LEA", "beds": 170.0, "SR_15": 3.0}, {"Diff_star": 0.0, "addr": "230 CHURCH AVENUE, BOX 676", "SR_14": 4.0, "Q_14": 4.0, "name": "MOTHER OF MERCY CAMPUS OF CARE", "SF_14": 4.0, "SF_15": 4.0, "cnty": "Stearns", "st": "MN", "Zip": 56307.0, "O_14": 4.0, "Q_15": 3.0, "O_15": 4.0, "city": "ALBANY", "beds": 76.0, "SR_15": 4.0}, {"Diff_star": -1.0, "addr": "445 GALTIER AVENUE", "SR_14": 3.0, "Q_14": 5.0, "name": "GALTIER HEALTH CENTER", "SF_14": 4.0, "SF_15": 4.0, "cnty": "Ramsey", "st": "MN", "Zip": 55103.0, "O_14": 5.0, "Q_15": 4.0, "O_15": 4.0, "city": "SAINT PAUL", "beds": 112.0, "SR_15": 3.0}, {"Diff_star": 0.0, "addr": "425 N ELM STREET", "SR_14": 5.0, "Q_14": 4.0, "name": "CENTRACARE HEALTH SYSTEM-SAUK CENTRE NURSING HOME", "SF_14": 4.0, "SF_15": 4.0, "cnty": "Stearns", "st": "MN", "Zip": 56378.0, "O_14": 5.0, "Q_15": 2.0, "O_15": 5.0, "city": "SAUK CENTRE", "beds": 60.0, "SR_15": 5.0}, {"Diff_star": 0.0, "addr": "313 SOUTH GREELEY STREET", "SR_14": 4.0, "Q_14": 5.0, "name": "GOLDEN LIVINGCENTER - GREELEY", "SF_14": 4.0, "SF_15": 4.0, "cnty": "Washington", "st": "MN", "Zip": 55082.0, "O_14": 5.0, "Q_15": 5.0, "O_15": 5.0, "city": "STILLWATER", "beds": 70.0, "SR_15": 4.0}, {"Diff_star": 0.0, "addr": "11501 MASONIC HOME DRIVE", "SR_14": 4.0, "Q_14": 4.0, "name": "MINNESOTA MASONIC HOME CARE CENTER", "SF_14": 4.0, "SF_15": 4.0, "cnty": "Hennepin", "st": "MN", "Zip": 55437.0, "O_14": 4.0, "Q_15": 4.0, "O_15": 4.0, "city": "BLOOMINGTON", "beds": 214.0, "SR_15": 4.0}, {"Diff_star": 0.0, "addr": "702 10TH AVENUE NORTHWEST, PO BOX 10", "SR_14": 3.0, "Q_14": 4.0, "name": "FAIRVIEW CARE CENTER", "SF_14": 4.0, "SF_15": 4.0, "cnty": "Dodge", "st": "MN", "Zip": 55927.0, "O_14": 4.0, "Q_15": 3.0, "O_15": 4.0, "city": "DODGE CENTER", "beds": 55.0, "SR_15": 3.0}, {"Diff_star": 0.0, "addr": "800 SECOND AVENUE NORTHWEST", "SR_14": 2.0, "Q_14": 5.0, "name": "ST ISIDORE HEALTH CENTER OF GREENWOOD PRAIRIE", "SF_14": 4.0, "SF_15": 4.0, "cnty": "Wabasha", "st": "MN", "Zip": 55964.0, "O_14": 4.0, "Q_15": 5.0, "O_15": 4.0, "city": "PLAINVIEW", "beds": 53.0, "SR_15": 2.0}, {"Diff_star": 0.0, "addr": "400 NORTH 4TH AVENUE EAST", "SR_14": 1.0, "Q_14": 2.0, "name": "TRUMAN SENIOR LIVING", "SF_14": 2.0, "SF_15": 2.0, "cnty": "Martin", "st": "MN", "Zip": 56088.0, "O_14": 1.0, "Q_15": 1.0, "O_15": 1.0, "city": "TRUMAN", "beds": 50.0, "SR_15": 1.0}, {"Diff_star": 0.0, "addr": "1415 ALMOND AVENUE", "SR_14": 3.0, "Q_14": 4.0, "name": "LYNGBLOMSTEN CARE CENTER", "SF_14": 4.0, "SF_15": 4.0, "cnty": "Ramsey", "st": "MN", "Zip": 55108.0, "O_14": 4.0, "Q_15": 2.0, "O_15": 4.0, "city": "SAINT PAUL", "beds": 237.0, "SR_15": 3.0}, {"Diff_star": 0.0, "addr": "650 BREMER AVENUE SOUTH", "SR_14": 3.0, "Q_14": 5.0, "name": "GOLDEN LIVINGCENTER - RUSH CITY", "SF_14": 4.0, "SF_15": 4.0, "cnty": "Chisago", "st": "MN", "Zip": 55069.0, "O_14": 5.0, "Q_15": 5.0, "O_15": 5.0, "city": "RUSH CITY", "beds": 49.0, "SR_15": 3.0}, {"Diff_star": 0.0, "addr": "120 FOURTH STREET NORTHEAST", "SR_14": 1.0, "Q_14": 4.0, "name": "STEWARTVILLE CARE CENTER", "SF_14": 4.0, "SF_15": 4.0, "cnty": "Olmsted", "st": "MN", "Zip": 55976.0, "O_14": 2.0, "Q_15": 3.0, "O_15": 2.0, "city": "STEWARTVILLE", "beds": 85.0, "SR_15": 1.0}, {"Diff_star": 0.0, "addr": "1810 MINNESOTA BOULEVARD SOUTHEAST", "SR_14": 4.0, "Q_14": 5.0, "name": "ST BENEDICTS SENIOR COMMUNITY", "SF_14": 4.0, "SF_15": 4.0, "cnty": "Stearns", "st": "MN", "Zip": 56304.0, "O_14": 5.0, "Q_15": 5.0, "O_15": 5.0, "city": "SAINT CLOUD", "beds": 197.0, "SR_15": 4.0}, {"Diff_star": 0.0, "addr": "2000 WHITE BEAR AVENUE", "SR_14": 1.0, "Q_14": 4.0, "name": "RAMSEY COUNTY CARE CENTER", "SF_14": 3.0, "SF_15": 3.0, "cnty": "Ramsey", "st": "MN", "Zip": 55109.0, "O_14": 1.0, "Q_15": 3.0, "O_15": 1.0, "city": "MAPLEWOOD", "beds": 178.0, "SR_15": 1.0}, {"Diff_star": 0.0, "addr": "11800 XEON BOULEVARD", "SR_14": 1.0, "Q_14": 4.0, "name": "CAMILIA ROSE CARE CENTER LLC", "SF_14": 4.0, "SF_15": 4.0, "cnty": "Anoka", "st": "MN", "Zip": 55448.0, "O_14": 2.0, "Q_15": 3.0, "O_15": 2.0, "city": "COON RAPIDS", "beds": 80.0, "SR_15": 1.0}, {"Diff_star": -1.0, "addr": "213 PIONEER ROAD", "SR_14": 4.0, "Q_14": 5.0, "name": "ST BRIGID'S AT HI-PARK", "SF_14": 2.0, "SF_15": 2.0, "cnty": "Goodhue", "st": "MN", "Zip": 55066.0, "O_14": 5.0, "Q_15": 4.0, "O_15": 4.0, "city": "RED WING", "beds": 65.0, "SR_15": 4.0}, {"Diff_star": -2.0, "addr": "600 NORTHEAST RIVERSIDE AVENUE", "SR_14": 3.0, "Q_14": 5.0, "name": "MCINTOSH SENIOR LIVING", "SF_14": 4.0, "SF_15": 3.0, "cnty": "Polk", "st": "MN", "Zip": 56556.0, "O_14": 5.0, "Q_15": 3.0, "O_15": 3.0, "city": "MCINTOSH", "beds": 45.0, "SR_15": 3.0}, {"Diff_star": 0.0, "addr": "240 WILLOW STREET", "SR_14": 4.0, "Q_14": 5.0, "name": "SUNRISE MANOR NURSING HOME", "SF_14": 5.0, "SF_15": 5.0, "cnty": "Lincoln", "st": "MN", "Zip": 56178.0, "O_14": 5.0, "Q_15": 5.0, "O_15": 5.0, "city": "TYLER", "beds": 38.0, "SR_15": 4.0}, {"Diff_star": 0.0, "addr": "410 LUELLA STREET", "SR_14": 5.0, "Q_14": 5.0, "name": "HILLTOP CARE CENTER", "SF_14": 4.0, "SF_15": 4.0, "cnty": "Meeker", "st": "MN", "Zip": 55389.0, "O_14": 5.0, "Q_15": 5.0, "O_15": 5.0, "city": "WATKINS", "beds": 50.0, "SR_15": 5.0}, {"Diff_star": -1.0, "addr": "210 NORTHWEST 3RD STREET", "SR_14": 2.0, "Q_14": 5.0, "name": "PINE HAVEN CARE CENTER INC", "SF_14": 3.0, "SF_15": 3.0, "cnty": "Goodhue", "st": "MN", "Zip": 55963.0, "O_14": 3.0, "Q_15": 4.0, "O_15": 2.0, "city": "PINE ISLAND", "beds": 66.0, "SR_15": 2.0}, {"Diff_star": -1.0, "addr": "100 GLEN OAKS DRIVE", "SR_14": 2.0, "Q_14": 3.0, "name": "BENEDICTINE LIVING COMMUNITY OF NEW LONDON", "SF_14": 4.0, "SF_15": 4.0, "cnty": "Kandiyohi", "st": "MN", "Zip": 56273.0, "O_14": 3.0, "Q_15": 1.0, "O_15": 2.0, "city": "NEW LONDON", "beds": 58.0, "SR_15": 2.0}, {"Diff_star": 0.0, "addr": "600 SOUTH DAVIS AVENUE", "SR_14": 3.0, "Q_14": 5.0, "name": "EMMANUEL HOME", "SF_14": 3.0, "SF_15": 3.0, "cnty": "Meeker", "st": "MN", "Zip": 55355.0, "O_14": 4.0, "Q_15": 5.0, "O_15": 4.0, "city": "LITCHFIELD", "beds": 90.0, "SR_15": 3.0}, {"Diff_star": 0.0, "addr": "301 TROENDLE STREET", "SR_14": 4.0, "Q_14": 4.0, "name": "MAPLETON COMMUNITY HOME", "SF_14": 5.0, "SF_15": 5.0, "cnty": "Blue Earth", "st": "MN", "Zip": 56065.0, "O_14": 5.0, "Q_15": 2.0, "O_15": 5.0, "city": "MAPLETON", "beds": 60.0, "SR_15": 4.0}, {"Diff_star": 0.0, "addr": "850 SECOND STREET NORTHWEST", "SR_14": 4.0, "Q_14": 4.0, "name": "AICOTA HEALTH CARE CENTER", "SF_14": 4.0, "SF_15": 4.0, "cnty": "Aitkin", "st": "MN", "Zip": 56431.0, "O_14": 4.0, "Q_15": 3.0, "O_15": 4.0, "city": "AITKIN", "beds": 75.0, "SR_15": 4.0}, {"Diff_star": 0.0, "addr": "500 PARK STREET EAST", "SR_14": 5.0, "Q_14": 4.0, "name": "ANNANDALE CARE CENTER", "SF_14": 3.0, "SF_15": 3.0, "cnty": "Wright", "st": "MN", "Zip": 55302.0, "O_14": 5.0, "Q_15": 5.0, "O_15": 5.0, "city": "ANNANDALE", "beds": 60.0, "SR_15": 5.0}, {"Diff_star": -1.0, "addr": "200 EARL STREET", "SR_14": 3.0, "Q_14": 5.0, "name": "CERENITY CARE CENTER - MARIAN", "SF_14": 4.0, "SF_15": 4.0, "cnty": "Ramsey", "st": "MN", "Zip": 55106.0, "O_14": 5.0, "Q_15": 3.0, "O_15": 4.0, "city": "SAINT PAUL", "beds": 90.0, "SR_15": 3.0}, {"Diff_star": -1.0, "addr": "2501 RICE LAKE ROAD", "SR_14": 2.0, "Q_14": 2.0, "name": "CHRIS JENSEN HEALTH & REHABILITATION CENTER", "SF_14": 3.0, "SF_15": 3.0, "cnty": "St. Louis", "st": "MN", "Zip": 55811.0, "O_14": 2.0, "Q_15": 1.0, "O_15": 1.0, "city": "DULUTH", "beds": 170.0, "SR_15": 2.0}, {"Diff_star": 0.0, "addr": "210 EAST GRAND AVENUE, PO BOX 365", "SR_14": 3.0, "Q_14": 4.0, "name": "MEADOW MANOR", "SF_14": 3.0, "SF_15": 3.0, "cnty": "Mower", "st": "MN", "Zip": 55936.0, "O_14": 3.0, "Q_15": 2.0, "O_15": 3.0, "city": "GRAND MEADOW", "beds": 43.0, "SR_15": 3.0}, {"Diff_star": 0.0, "addr": "923 HALE LAKE POINTE", "SR_14": 1.0, "Q_14": 3.0, "name": "GRAND VILLAGE", "SF_14": 4.0, "SF_15": 4.0, "cnty": "Itasca", "st": "MN", "Zip": 55744.0, "O_14": 2.0, "Q_15": 2.0, "O_15": 2.0, "city": "GRAND RAPIDS", "beds": 119.0, "SR_15": 1.0}, {"Diff_star": 0.0, "addr": "400 - 15TH AVENUE SOUTHWEST", "SR_14": 1.0, "Q_14": 4.0, "name": "ST MARKS LUTHERAN HOME", "SF_14": 4.0, "SF_15": 4.0, "cnty": "Mower", "st": "MN", "Zip": 55912.0, "O_14": 2.0, "Q_15": 3.0, "O_15": 2.0, "city": "AUSTIN", "beds": 61.0, "SR_15": 1.0}, {"Diff_star": 1.0, "addr": "5379 -383RD STREET", "SR_14": 1.0, "Q_14": 5.0, "name": "ECUMEN NORTH BRANCH", "SF_14": 4.0, "SF_15": 4.0, "cnty": "Chisago", "st": "MN", "Zip": 55056.0, "O_14": 2.0, "Q_15": 4.0, "O_15": 3.0, "city": "NORTH BRANCH", "beds": 67.0, "SR_15": 2.0}, {"Diff_star": 0.0, "addr": "250 FIFTH STREET EAST", "SR_14": 5.0, "Q_14": 3.0, "name": "PRAIRIE VIEW SENIOR LIVING", "SF_14": 3.0, "SF_15": 3.0, "cnty": "Lyon", "st": "MN", "Zip": 56175.0, "O_14": 5.0, "Q_15": 2.0, "O_15": 5.0, "city": "TRACY", "beds": 55.0, "SR_15": 5.0}, {"Diff_star": 0.0, "addr": "1219 SOUTH RAMSEY", "SR_14": 4.0, "Q_14": 4.0, "name": "ST LUKES LUTHERAN CARE CENTER", "SF_14": 4.0, "SF_15": 3.0, "cnty": "Faribault", "st": "MN", "Zip": 56013.0, "O_14": 4.0, "Q_15": 3.0, "O_15": 4.0, "city": "BLUE EARTH", "beds": 108.0, "SR_15": 4.0}, {"Diff_star": 0.0, "addr": "211 EAST MILL AVENUE", "SR_14": 2.0, "Q_14": 5.0, "name": "PELICAN VALLEY HEALTH CENTER", "SF_14": 5.0, "SF_15": 5.0, "cnty": "Otter Tail", "st": "MN", "Zip": 56572.0, "O_14": 4.0, "Q_15": 5.0, "O_15": 4.0, "city": "PELICAN RAPIDS", "beds": 40.0, "SR_15": 2.0}, {"Diff_star": 0.0, "addr": "129 EAST 6TH AVENUE", "SR_14": 1.0, "Q_14": 5.0, "name": "LAKESIDE MEDICAL CENTER", "SF_14": 5.0, "SF_15": 5.0, "cnty": "Pine", "st": "MN", "Zip": 55063.0, "O_14": 2.0, "Q_15": 3.0, "O_15": 2.0, "city": "PINE CITY", "beds": 46.0, "SR_15": 1.0}, {"Diff_star": 1.0, "addr": "142 NORTH FIRST STREET", "SR_14": 1.0, "Q_14": 4.0, "name": "STERLING PARK HEALTH CARE CENTER", "SF_14": 3.0, "SF_15": 3.0, "cnty": "Stearns", "st": "MN", "Zip": 56387.0, "O_14": 1.0, "Q_15": 5.0, "O_15": 2.0, "city": "WAITE PARK", "beds": 53.0, "SR_15": 1.0}, {"Diff_star": 0.0, "addr": "433 MILL STREET", "SR_14": 3.0, "Q_14": 5.0, "name": "ZUMBROTA CARE CENTER", "SF_14": 4.0, "SF_15": 4.0, "cnty": "Goodhue", "st": "MN", "Zip": 55992.0, "O_14": 5.0, "Q_15": 5.0, "O_15": 5.0, "city": "ZUMBROTA", "beds": 50.0, "SR_15": 3.0}, {"Diff_star": 0.0, "addr": "200 EAST NINTH AVENUE", "SR_14": 3.0, "Q_14": 3.0, "name": "VALLEY VIEW MANOR", "SF_14": 3.0, "SF_15": 3.0, "cnty": "Redwood", "st": "MN", "Zip": 56152.0, "O_14": 3.0, "Q_15": 4.0, "O_15": 3.0, "city": "LAMBERTON", "beds": 50.0, "SR_15": 3.0}, {"Diff_star": 0.0, "addr": "127 GUNDERSON BOULEVARD", "SR_14": 1.0, "Q_14": 4.0, "name": "KENYON SUNSET HOME", "SF_14": 4.0, "SF_15": 4.0, "cnty": "Goodhue", "st": "MN", "Zip": 55946.0, "O_14": 2.0, "Q_15": 3.0, "O_15": 2.0, "city": "KENYON", "beds": 30.0, "SR_15": 1.0}, {"Diff_star": -1.0, "addr": "135 GERANIUM AVENUE EAST", "SR_14": 3.0, "Q_14": 5.0, "name": "NEW HARMONY CARE CENTER", "SF_14": 4.0, "SF_15": 4.0, "cnty": "Ramsey", "st": "MN", "Zip": 55117.0, "O_14": 5.0, "Q_15": 4.0, "O_15": 4.0, "city": "SAINT PAUL", "beds": 76.0, "SR_15": 3.0}, {"Diff_star": 0.0, "addr": "900 SECOND AVENUE", "SR_14": 1.0, "Q_14": 4.0, "name": "MADISON LUTHERAN HOME", "SF_14": 4.0, "SF_15": 4.0, "cnty": "Lac Qui Parle", "st": "MN", "Zip": 56256.0, "O_14": 2.0, "Q_15": 3.0, "O_15": 2.0, "city": "MADISON", "beds": 80.0, "SR_15": 1.0}, {"Diff_star": 0.0, "addr": "201 SOUTHWEST 18TH STREET", "SR_14": 1.0, "Q_14": 3.0, "name": "OWATONNA CARE CENTER", "SF_14": 3.0, "SF_15": 3.0, "cnty": "Steele", "st": "MN", "Zip": 55060.0, "O_14": 1.0, "Q_15": 1.0, "O_15": 1.0, "city": "OWATONNA", "beds": 55.0, "SR_15": 1.0}, {"Diff_star": 0.0, "addr": "515 - 5TH AVENUE WEST", "SR_14": 1.0, "Q_14": 4.0, "name": "COOK CO NORTHSHORE HOSP & C&NC", "SF_14": 4.0, "SF_15": 4.0, "cnty": "Cook", "st": "MN", "Zip": 55604.0, "O_14": 2.0, "Q_15": 4.0, "O_15": 2.0, "city": "GRAND MARAIS", "beds": 37.0, "SR_15": 1.0}, {"Diff_star": 0.0, "addr": "2957 REDWOOD AVENUE SOUTH", "SR_14": 5.0, "Q_14": 4.0, "name": "GOLDEN LIVINGCENTER - SLAYTON", "SF_14": 4.0, "SF_15": 4.0, "cnty": "Murray", "st": "MN", "Zip": 56172.0, "O_14": 5.0, "Q_15": 2.0, "O_15": 5.0, "city": "SLAYTON", "beds": 55.0, "SR_15": 5.0}, {"Diff_star": 0.0, "addr": "2912 FREMONT AVENUE NORTH", "SR_14": 1.0, "Q_14": 5.0, "name": "ST OLAF RESIDENCE", "SF_14": 3.0, "SF_15": 3.0, "cnty": "Hennepin", "st": "MN", "Zip": 55411.0, "O_14": 2.0, "Q_15": 5.0, "O_15": 2.0, "city": "MINNEAPOLIS", "beds": 80.0, "SR_15": 1.0}, {"Diff_star": -1.0, "addr": "108  8TH STREET NORTHWEST", "SR_14": 3.0, "Q_14": 5.0, "name": "LAKESHORE INN NURSING HOME", "SF_14": 1.0, "SF_15": 1.0, "cnty": "Waseca", "st": "MN", "Zip": 56093.0, "O_14": 3.0, "Q_15": 3.0, "O_15": 2.0, "city": "WASECA", "beds": 55.0, "SR_15": 3.0}, {"Diff_star": 0.0, "addr": "1910 WEST COUNTY ROAD D", "SR_14": 4.0, "Q_14": 5.0, "name": "LANGTON PLACE", "SF_14": 4.0, "SF_15": 4.0, "cnty": "Ramsey", "st": "MN", "Zip": 55112.0, "O_14": 5.0, "Q_15": 5.0, "O_15": 5.0, "city": "ROSEVILLE", "beds": 119.0, "SR_15": 4.0}, {"Diff_star": 0.0, "addr": "718 MOUND AVENUE", "SR_14": 5.0, "Q_14": 5.0, "name": "PATHSTONE LIVING", "SF_14": 4.0, "SF_15": 4.0, "cnty": "Blue Earth", "st": "MN", "Zip": 56001.0, "O_14": 5.0, "Q_15": 5.0, "O_15": 5.0, "city": "MANKATO", "beds": 69.0, "SR_15": 5.0}, {"Diff_star": -1.0, "addr": "10 SOUTHEAST FIFTH STREET", "SR_14": 3.0, "Q_14": 4.0, "name": "COOK COMMUNITY HOSPITAL C&NC", "SF_14": 4.0, "SF_15": 5.0, "cnty": "St. Louis", "st": "MN", "Zip": 55723.0, "O_14": 4.0, "Q_15": 2.0, "O_15": 3.0, "city": "COOK", "beds": 28.0, "SR_15": 2.0}, {"Diff_star": 0.0, "addr": "800 HOME STREET,  BOX 747", "SR_14": 3.0, "Q_14": 5.0, "name": "GOOD SHEPHERD LUTHERAN HOME", "SF_14": 3.0, "SF_15": 3.0, "cnty": "Fillmore", "st": "MN", "Zip": 55971.0, "O_14": 4.0, "Q_15": 5.0, "O_15": 4.0, "city": "RUSHFORD", "beds": 75.0, "SR_15": 3.0}, {"Diff_star": -1.0, "addr": "471 LYNNHURST AVENUE WEST", "SR_14": 2.0, "Q_14": 5.0, "name": "GOLDEN LIVINGCENTER - LYNNHURST", "SF_14": 2.0, "SF_15": 2.0, "cnty": "Ramsey", "st": "MN", "Zip": 55104.0, "O_14": 3.0, "Q_15": 4.0, "O_15": 2.0, "city": "SAINT PAUL", "beds": 72.0, "SR_15": 2.0}, {"Diff_star": 0.0, "addr": "965 MCMILLAN STREET", "SR_14": 3.0, "Q_14": 4.0, "name": "CROSSROADS CARE CENTER", "SF_14": 4.0, "SF_15": 4.0, "cnty": "Nobles", "st": "MN", "Zip": 56187.0, "O_14": 4.0, "Q_15": 4.0, "O_15": 4.0, "city": "WORTHINGTON", "beds": 50.0, "SR_15": 3.0}, {"Diff_star": 0.0, "addr": "525 WEST MAIN STREET", "SR_14": 3.0, "Q_14": 5.0, "name": "CENTRACARE HEALTH SYSTEM - MELROSE PINE VILLA C C", "SF_14": 4.0, "SF_15": 4.0, "cnty": "Stearns", "st": "MN", "Zip": 56352.0, "O_14": 5.0, "Q_15": 5.0, "O_15": 5.0, "city": "MELROSE", "beds": 75.0, "SR_15": 3.0}, {"Diff_star": -1.0, "addr": "1633 DELTON AVENUE", "SR_14": 1.0, "Q_14": 5.0, "name": "HAVENWOOD CARE CENTER", "SF_14": 4.0, "SF_15": 3.0, "cnty": "Beltrami", "st": "MN", "Zip": 56601.0, "O_14": 2.0, "Q_15": 4.0, "O_15": 1.0, "city": "BEMIDJI", "beds": 90.0, "SR_15": 1.0}, {"Diff_star": -1.0, "addr": "211 6TH STREET NORTHWEST", "SR_14": 2.0, "Q_14": 2.0, "name": "PARKER OAKS COMMUNITIES INC", "SF_14": 4.0, "SF_15": 4.0, "cnty": "Faribault", "st": "MN", "Zip": 56098.0, "O_14": 3.0, "Q_15": 1.0, "O_15": 2.0, "city": "WINNEBAGO", "beds": 35.0, "SR_15": 2.0}, {"Diff_star": -2.0, "addr": "1200 FIRST AVENUE NORTHEAST", "SR_14": 2.0, "Q_14": 3.0, "name": "LITTLE FALLS CARE CENTER", "SF_14": 4.0, "SF_15": 3.0, "cnty": "Morrison", "st": "MN", "Zip": 56345.0, "O_14": 3.0, "Q_15": 1.0, "O_15": 1.0, "city": "LITTLE FALLS", "beds": 45.0, "SR_15": 2.0}, {"Diff_star": 0.0, "addr": "660 MAPLE STREET", "SR_14": 5.0, "Q_14": 4.0, "name": "GOLDEN LIVINGCENTER - WABASSO", "SF_14": 5.0, "SF_15": 5.0, "cnty": "Redwood", "st": "MN", "Zip": 56293.0, "O_14": 5.0, "Q_15": 4.0, "O_15": 5.0, "city": "WABASSO", "beds": 44.0, "SR_15": 5.0}, {"Diff_star": 0.0, "addr": "444 NORTH CORDOVA", "SR_14": 2.0, "Q_14": 4.0, "name": "CENTRAL HEALTH CARE", "SF_14": 4.0, "SF_15": 4.0, "cnty": "Le Sueur", "st": "MN", "Zip": 56057.0, "O_14": 3.0, "Q_15": 3.0, "O_15": 3.0, "city": "LE CENTER", "beds": 54.0, "SR_15": 2.0}, {"Diff_star": 0.0, "addr": "719 SOUTHEAST 2ND STREET", "SR_14": 3.0, "Q_14": 4.0, "name": "GLENWOOD VILLAGE CARE CENTER", "SF_14": 4.0, "SF_15": 4.0, "cnty": "Pope", "st": "MN", "Zip": 56334.0, "O_14": 4.0, "Q_15": 4.0, "O_15": 4.0, "city": "GLENWOOD", "beds": 64.0, "SR_15": 3.0}, {"Diff_star": 0.0, "addr": "105 GLENHAVEN DRIVE", "SR_14": 3.0, "Q_14": 5.0, "name": "GOOD SAMARITAN SOCIETY - BATTLE LAKE", "SF_14": 4.0, "SF_15": 4.0, "cnty": "Otter Tail", "st": "MN", "Zip": 56515.0, "O_14": 5.0, "Q_15": 5.0, "O_15": 5.0, "city": "BATTLE LAKE", "beds": 55.0, "SR_15": 3.0}, {"Diff_star": -1.0, "addr": "619 WEST SIXTH STREET", "SR_14": 2.0, "Q_14": 4.0, "name": "HERITAGE LIVING CENTER", "SF_14": 4.0, "SF_15": 3.0, "cnty": "Hubbard", "st": "MN", "Zip": 56470.0, "O_14": 3.0, "Q_15": 3.0, "O_15": 2.0, "city": "PARK RAPIDS", "beds": 60.0, "SR_15": 2.0}, {"Diff_star": 0.0, "addr": "201 SOUTH COUNTY ROAD 5", "SR_14": 3.0, "Q_14": 4.0, "name": "ST JOHN LUTHERAN HOME", "SF_14": 4.0, "SF_15": 4.0, "cnty": "Brown", "st": "MN", "Zip": 56087.0, "O_14": 4.0, "Q_15": 4.0, "O_15": 4.0, "city": "SPRINGFIELD", "beds": 85.0, "SR_15": 3.0}, {"Diff_star": 0.0, "addr": "1875 19TH STREET NORTHWEST", "SR_14": 1.0, "Q_14": 5.0, "name": "MAPLE MANOR HEALTHCARE & REHAB", "SF_14": 4.0, "SF_15": 4.0, "cnty": "Olmsted", "st": "MN", "Zip": 55901.0, "O_14": 2.0, "Q_15": 4.0, "O_15": 2.0, "city": "ROCHESTER", "beds": 81.0, "SR_15": 1.0}, {"Diff_star": 0.0, "addr": "1801 SOUTHWEST WILLMAR AVENUE", "SR_14": 3.0, "Q_14": 4.0, "name": "RICE CARE CENTER", "SF_14": 5.0, "SF_15": 5.0, "cnty": "Kandiyohi", "st": "MN", "Zip": 56201.0, "O_14": 4.0, "Q_15": 4.0, "O_15": 4.0, "city": "WILLMAR", "beds": 78.0, "SR_15": 3.0}, {"Diff_star": 0.0, "addr": "740 KAY AVENUE", "SR_14": 4.0, "Q_14": 3.0, "name": "SHIRLEY CHAPMAN SHOLOM HOME EAST", "SF_14": 4.0, "SF_15": 4.0, "cnty": "Ramsey", "st": "MN", "Zip": 55102.0, "O_14": 4.0, "Q_15": 2.0, "O_15": 4.0, "city": "SAINT PAUL", "beds": 108.0, "SR_15": 4.0}, {"Diff_star": 0.0, "addr": "182 SUNSET AVENUE", "SR_14": 3.0, "Q_14": 4.0, "name": "COKATO MANOR", "SF_14": 2.0, "SF_15": 2.0, "cnty": "Wright", "st": "MN", "Zip": 55321.0, "O_14": 3.0, "Q_15": 4.0, "O_15": 3.0, "city": "COKATO", "beds": 56.0, "SR_15": 3.0}, {"Diff_star": 0.0, "addr": "3111 CHURCH STREET", "SR_14": 1.0, "Q_14": 4.0, "name": "VIEWCREST HEALTH CENTER", "SF_14": 4.0, "SF_15": 4.0, "cnty": "St. Louis", "st": "MN", "Zip": 55811.0, "O_14": 2.0, "Q_15": 3.0, "O_15": 2.0, "city": "DULUTH", "beds": 92.0, "SR_15": 1.0}, {"Diff_star": 0.0, "addr": "621 SOUTH 4TH  STREET", "SR_14": 5.0, "Q_14": 4.0, "name": "MINNESOTA VALLEY HLTH CTR-LONG", "SF_14": 4.0, "SF_15": 4.0, "cnty": "Le Sueur", "st": "MN", "Zip": 56058.0, "O_14": 5.0, "Q_15": 4.0, "O_15": 5.0, "city": "LE SUEUR", "beds": 55.0, "SR_15": 5.0}, {"Diff_star": 0.0, "addr": "3130 GRIMES AVENUE NORTH", "SR_14": 4.0, "Q_14": 5.0, "name": "ROBBINSDALE REHAB & CARE CENTER", "SF_14": 4.0, "SF_15": 4.0, "cnty": "Hennepin", "st": "MN", "Zip": 55422.0, "O_14": 5.0, "Q_15": 5.0, "O_15": 5.0, "city": "ROBBINSDALE", "beds": 75.0, "SR_15": 5.0}, {"Diff_star": 0.0, "addr": "103 SCHOOL STREET,  PO BOX 340", "SR_14": 3.0, "Q_14": 5.0, "name": "BELGRADE NURSING HOME", "SF_14": 4.0, "SF_15": 4.0, "cnty": "Stearns", "st": "MN", "Zip": 56312.0, "O_14": 5.0, "Q_15": 5.0, "O_15": 5.0, "city": "BELGRADE", "beds": 49.0, "SR_15": 3.0}, {"Diff_star": -1.0, "addr": "208 OPPEGARD AVENUE NORTHWEST, PO BOX 480", "SR_14": 3.0, "Q_14": 5.0, "name": "TWIN VALLEY LIVING CENTER", "SF_14": 4.0, "SF_15": 3.0, "cnty": "Norman", "st": "MN", "Zip": 56584.0, "O_14": 5.0, "Q_15": 5.0, "O_15": 4.0, "city": "TWIN VALLEY", "beds": 58.0, "SR_15": 3.0}, {"Diff_star": 0.0, "addr": "401 PRAIRIE AVENUE NORTHEAST", "SR_14": 5.0, "Q_14": 5.0, "name": "LAKEWOOD HEALTH SYSTEM", "SF_14": 4.0, "SF_15": 4.0, "cnty": "Todd", "st": "MN", "Zip": 56479.0, "O_14": 5.0, "Q_15": 5.0, "O_15": 5.0, "city": "STAPLES", "beds": 100.0, "SR_15": 5.0}, {"Diff_star": 0.0, "addr": "805 SIXTH AVENUE NORTHWEST", "SR_14": 3.0, "Q_14": 4.0, "name": "NEW BRIGHTON CARE CENTER", "SF_14": 4.0, "SF_15": 4.0, "cnty": "Ramsey", "st": "MN", "Zip": 55112.0, "O_14": 4.0, "Q_15": 3.0, "O_15": 4.0, "city": "NEW BRIGHTON", "beds": 57.0, "SR_15": 3.0}, {"Diff_star": 0.0, "addr": "730 SECOND STREET SOUTHEAST, PO BOX 157", "SR_14": 3.0, "Q_14": 4.0, "name": "ELIM HOME - MILACA", "SF_14": 3.0, "SF_15": 3.0, "cnty": "Mille Lacs", "st": "MN", "Zip": 56353.0, "O_14": 3.0, "Q_15": 3.0, "O_15": 3.0, "city": "MILACA", "beds": 86.0, "SR_15": 3.0}, {"Diff_star": -1.0, "addr": "1102 LIBERTY STREET SOUTHEAST", "SR_14": 4.0, "Q_14": 5.0, "name": "CHOSEN VALLEY CARE CENTER", "SF_14": 4.0, "SF_15": 4.0, "cnty": "Fillmore", "st": "MN", "Zip": 55923.0, "O_14": 5.0, "Q_15": 4.0, "O_15": 4.0, "city": "CHATFIELD", "beds": 78.0, "SR_15": 4.0}, {"Diff_star": -2.0, "addr": "3220 LAKE JOHANNA BOULEVARD", "SR_14": 2.0, "Q_14": 5.0, "name": "PRESBYTERIAN HOMES OF ARDEN HILLS", "SF_14": 5.0, "SF_15": 4.0, "cnty": "Ramsey", "st": "MN", "Zip": 55112.0, "O_14": 4.0, "Q_15": 4.0, "O_15": 2.0, "city": "ARDEN HILLS", "beds": 208.0, "SR_15": 1.0}, {"Diff_star": 0.0, "addr": "1201 GARFIELD AVENUE", "SR_14": 3.0, "Q_14": 4.0, "name": "THORNE CREST RETIREMENT CENTER", "SF_14": 4.0, "SF_15": 4.0, "cnty": "Freeborn", "st": "MN", "Zip": 56007.0, "O_14": 4.0, "Q_15": 2.0, "O_15": 4.0, "city": "ALBERT LEA", "beds": 52.0, "SR_15": 3.0}, {"Diff_star": -1.0, "addr": "2255 30TH STREET NW", "SR_14": 1.0, "Q_14": 3.0, "name": "KODA LIVING COMMUNITY", "SF_14": 4.0, "SF_15": 4.0, "cnty": "Steele", "st": "MN", "Zip": 55060.0, "O_14": 2.0, "Q_15": 1.0, "O_15": 1.0, "city": "OWATONNA", "beds": 79.0, "SR_15": 1.0}, {"Diff_star": 0.0, "addr": "901 SOUTHEAST WILLMAR AVENUE", "SR_14": 1.0, "Q_14": 5.0, "name": "BETHESDA NH PLEASANTVIEW", "SF_14": 4.0, "SF_15": 4.0, "cnty": "Kandiyohi", "st": "MN", "Zip": 56201.0, "O_14": 2.0, "Q_15": 4.0, "O_15": 2.0, "city": "WILLMAR", "beds": 123.0, "SR_15": 1.0}, {"Diff_star": 0.0, "addr": "115 10TH AVENUE NORTHEAST", "SR_14": 1.0, "Q_14": 5.0, "name": "ESSENTIA HEALTH - HOMESTEAD", "SF_14": 4.0, "SF_15": 4.0, "cnty": "Itasca", "st": "MN", "Zip": 56636.0, "O_14": 2.0, "Q_15": 5.0, "O_15": 2.0, "city": "DEER RIVER", "beds": 32.0, "SR_15": 1.0}, {"Diff_star": 0.0, "addr": "125 5TH AVENUE SOUTHEAST", "SR_14": 1.0, "Q_14": 5.0, "name": "TWEETEN LUTHERAN HEALTH CARE CENTER", "SF_14": 4.0, "SF_15": 4.0, "cnty": "Houston", "st": "MN", "Zip": 55974.0, "O_14": 2.0, "Q_15": 5.0, "O_15": 2.0, "city": "SPRING GROVE", "beds": 50.0, "SR_15": 1.0}, {"Diff_star": -1.0, "addr": "318 SECOND STREET NORTHEAST", "SR_14": 2.0, "Q_14": 5.0, "name": "FIELD CREST CARE CENTER", "SF_14": 4.0, "SF_15": 4.0, "cnty": "Dodge", "st": "MN", "Zip": 55940.0, "O_14": 4.0, "Q_15": 4.0, "O_15": 3.0, "city": "HAYFIELD", "beds": 45.0, "SR_15": 2.0}, {"Diff_star": -1.0, "addr": "135 FERN STREET NORTH", "SR_14": 2.0, "Q_14": 5.0, "name": "GRACEPOINTE CROSSING GABLES WEST", "SF_14": 4.0, "SF_15": 4.0, "cnty": "Isanti", "st": "MN", "Zip": 55008.0, "O_14": 4.0, "Q_15": 4.0, "O_15": 3.0, "city": "CAMBRIDGE", "beds": 140.0, "SR_15": 2.0}, {"Diff_star": 0.0, "addr": "112 ST OLAF AVENUE SOUTH", "SR_14": 4.0, "Q_14": 4.0, "name": "SYLVAN COURT", "SF_14": 4.0, "SF_15": 4.0, "cnty": "Yellow Medcine", "st": "MN", "Zip": 56220.0, "O_14": 4.0, "Q_15": 4.0, "O_15": 4.0, "city": "CANBY", "beds": 68.0, "SR_15": 4.0}, {"Diff_star": -1.0, "addr": "1020 LARK STREET", "SR_14": 3.0, "Q_14": 5.0, "name": "BETHANY HOME", "SF_14": 4.0, "SF_15": 4.0, "cnty": "Douglas", "st": "MN", "Zip": 56308.0, "O_14": 5.0, "Q_15": 4.0, "O_15": 4.0, "city": "ALEXANDRIA", "beds": 83.0, "SR_15": 3.0}, {"Diff_star": 0.0, "addr": "420 12TH AVENUE EAST", "SR_14": 1.0, "Q_14": 3.0, "name": "KNUTE NELSON", "SF_14": 4.0, "SF_15": 4.0, "cnty": "Douglas", "st": "MN", "Zip": 56308.0, "O_14": 2.0, "Q_15": 2.0, "O_15": 2.0, "city": "ALEXANDRIA", "beds": 85.0, "SR_15": 1.0}, {"Diff_star": 0.0, "addr": "55 TENTH STREET SOUTHEAST", "SR_14": 2.0, "Q_14": 4.0, "name": "PARKVIEW CARE CENTER WELLS INC", "SF_14": 2.0, "SF_15": 2.0, "cnty": "Faribault", "st": "MN", "Zip": 56097.0, "O_14": 2.0, "Q_15": 4.0, "O_15": 2.0, "city": "WELLS", "beds": 55.0, "SR_15": 2.0}, {"Diff_star": 0.0, "addr": "409 JEFFERSON AVENUE SOUTHWEST, BOX 638", "SR_14": 5.0, "Q_14": 4.0, "name": "ELIM HOME - WATERTOWN", "SF_14": 4.0, "SF_15": 4.0, "cnty": "Carver", "st": "MN", "Zip": 55388.0, "O_14": 5.0, "Q_15": 2.0, "O_15": 5.0, "city": "WATERTOWN", "beds": 51.0, "SR_15": 5.0}, {"Diff_star": -2.0, "addr": "1717 UNIVERSITY DRIVE SOUTHEAST", "SR_14": 2.0, "Q_14": 5.0, "name": "TALAHI NURSING AND REHAB CENTER", "SF_14": 4.0, "SF_15": 3.0, "cnty": "Stearns", "st": "MN", "Zip": 56304.0, "O_14": 4.0, "Q_15": 4.0, "O_15": 2.0, "city": "SAINT CLOUD", "beds": 77.0, "SR_15": 2.0}, {"Diff_star": 0.0, "addr": "817 MAIN STREET NORTHEAST", "SR_14": 1.0, "Q_14": 4.0, "name": "CATHOLIC ELDERCARE ON MAIN", "SF_14": 4.0, "SF_15": 4.0, "cnty": "Hennepin", "st": "MN", "Zip": 55413.0, "O_14": 2.0, "Q_15": 3.0, "O_15": 2.0, "city": "MINNEAPOLIS", "beds": 150.0, "SR_15": 1.0}, {"Diff_star": 0.0, "addr": "102 EAST NORTH STREET", "SR_14": 4.0, "Q_14": 4.0, "name": "JANESVILLE NURSING HOME", "SF_14": 2.0, "SF_15": 2.0, "cnty": "Waseca", "st": "MN", "Zip": 56048.0, "O_14": 4.0, "Q_15": 3.0, "O_15": 4.0, "city": "JANESVILLE", "beds": 40.0, "SR_15": 4.0}, {"Diff_star": 0.0, "addr": "75507 240TH STREET", "SR_14": 4.0, "Q_14": 4.0, "name": "GOOD SAMARITAN SOCIETY - ALBERT LEA", "SF_14": 4.0, "SF_15": 4.0, "cnty": "Freeborn", "st": "MN", "Zip": 56007.0, "O_14": 4.0, "Q_15": 3.0, "O_15": 4.0, "city": "ALBERT LEA", "beds": 114.0, "SR_15": 4.0}, {"Diff_star": 0.0, "addr": "800 MEMORIAL DRIVE", "SR_14": 3.0, "Q_14": 5.0, "name": "SPRING VALLEY CARE CENTER", "SF_14": 4.0, "SF_15": 4.0, "cnty": "Fillmore", "st": "MN", "Zip": 55975.0, "O_14": 5.0, "Q_15": 5.0, "O_15": 5.0, "city": "SPRING VALLEY", "beds": 50.0, "SR_15": 3.0}, {"Diff_star": -1.0, "addr": "1340 THIRD AVENUE WEST", "SR_14": 2.0, "Q_14": 4.0, "name": "SHAKOPEE FRIENDSHIP MANOR", "SF_14": 4.0, "SF_15": 4.0, "cnty": "Scott", "st": "MN", "Zip": 55379.0, "O_14": 3.0, "Q_15": 2.0, "O_15": 2.0, "city": "SHAKOPEE", "beds": 80.0, "SR_15": 1.0}, {"Diff_star": 0.0, "addr": "715 NORTH FIRST STREET", "SR_14": 4.0, "Q_14": 5.0, "name": "ASSUMPTION HOME", "SF_14": 4.0, "SF_15": 4.0, "cnty": "Stearns", "st": "MN", "Zip": 56320.0, "O_14": 5.0, "Q_15": 5.0, "O_15": 5.0, "city": "COLD SPRING", "beds": 82.0, "SR_15": 4.0}, {"Diff_star": 0.0, "addr": "1200 12TH STREET SOUTHWEST", "SR_14": 5.0, "Q_14": 5.0, "name": "SACRED HEART CARE CENTER", "SF_14": 4.0, "SF_15": 4.0, "cnty": "Mower", "st": "MN", "Zip": 55912.0, "O_14": 5.0, "Q_15": 5.0, "O_15": 5.0, "city": "AUSTIN", "beds": 59.0, "SR_15": 5.0}, {"Diff_star": 0.0, "addr": "9899 AVOCET STREET NORTHWEST", "SR_14": 2.0, "Q_14": 4.0, "name": "PARK RIVER ESTATES CARE CENTER", "SF_14": 4.0, "SF_15": 4.0, "cnty": "Anoka", "st": "MN", "Zip": 55433.0, "O_14": 3.0, "Q_15": 4.0, "O_15": 3.0, "city": "COON RAPIDS", "beds": 99.0, "SR_15": 2.0}, {"Diff_star": -1.0, "addr": "906 COLLEGE AVENUE", "SR_14": 2.0, "Q_14": 4.0, "name": "SEMINARY HOME", "SF_14": 4.0, "SF_15": 3.0, "cnty": "Goodhue", "st": "MN", "Zip": 55066.0, "O_14": 3.0, "Q_15": 2.0, "O_15": 2.0, "city": "RED WING", "beds": 84.0, "SR_15": 2.0}, {"Diff_star": 0.0, "addr": "815 FOREST AVENUE", "SR_14": 5.0, "Q_14": 5.0, "name": "THREE LINKS CARE CENTER", "SF_14": 4.0, "SF_15": 4.0, "cnty": "Rice", "st": "MN", "Zip": 55057.0, "O_14": 5.0, "Q_15": 5.0, "O_15": 5.0, "city": "NORTHFIELD", "beds": 102.0, "SR_15": 5.0}, {"Diff_star": 1.0, "addr": "1075 ROY STREET", "SR_14": 3.0, "Q_14": 4.0, "name": "NORTHRIDGE RESIDENCE", "SF_14": 4.0, "SF_15": 5.0, "cnty": "Big Stone", "st": "MN", "Zip": 56278.0, "O_14": 4.0, "Q_15": 2.0, "O_15": 5.0, "city": "ORTONVILLE", "beds": 64.0, "SR_15": 4.0}, {"Diff_star": 0.0, "addr": "1879 FERONIA AVENUE", "SR_14": 2.0, "Q_14": 4.0, "name": "EPISCOPAL CHURCH HOME OF MINNESOTA", "SF_14": 4.0, "SF_15": 4.0, "cnty": "Ramsey", "st": "MN", "Zip": 55104.0, "O_14": 3.0, "Q_15": 3.0, "O_15": 3.0, "city": "SAINT PAUL", "beds": 131.0, "SR_15": 2.0}, {"Diff_star": -1.0, "addr": "824 SOUTH SHERIDAN", "SR_14": 3.0, "Q_14": 4.0, "name": "BROEN MEMORIAL HOME", "SF_14": 4.0, "SF_15": 3.0, "cnty": "Otter Tail", "st": "MN", "Zip": 56537.0, "O_14": 4.0, "Q_15": 3.0, "O_15": 3.0, "city": "FERGUS FALLS", "beds": 107.0, "SR_15": 3.0}, {"Diff_star": 0.0, "addr": "109 COURT AVENUE SOUTH", "SR_14": 2.0, "Q_14": 4.0, "name": "ESSENTIA HEALTH - SANDSTONE MEDICAL CENTER", "SF_14": 4.0, "SF_15": 4.0, "cnty": "Pine", "st": "MN", "Zip": 55072.0, "O_14": 3.0, "Q_15": 4.0, "O_15": 3.0, "city": "SANDSTONE", "beds": 45.0, "SR_15": 2.0}, {"Diff_star": 0.0, "addr": "601 WEST JACKSON", "SR_14": 3.0, "Q_14": 5.0, "name": "GOOD SAMARITAN SOCIETY - JACKSON", "SF_14": 4.0, "SF_15": 4.0, "cnty": "Jackson", "st": "MN", "Zip": 56143.0, "O_14": 5.0, "Q_15": 5.0, "O_15": 5.0, "city": "JACKSON", "beds": 63.0, "SR_15": 3.0}, {"Diff_star": -1.0, "addr": "901 9TH STREET NORTH", "SR_14": 1.0, "Q_14": 4.0, "name": "ESSENTIA HEALTH VIRGINIA CARE CENT", "SF_14": 4.0, "SF_15": 3.0, "cnty": "St. Louis", "st": "MN", "Zip": 55792.0, "O_14": 2.0, "Q_15": 3.0, "O_15": 1.0, "city": "VIRGINIA", "beds": 90.0, "SR_15": 1.0}, {"Diff_star": 0.0, "addr": "551 FOURTH STREET NORTH", "SR_14": 2.0, "Q_14": 4.0, "name": "BENEDICTINE LIVING COMMUNITY WINSTED", "SF_14": 5.0, "SF_15": 5.0, "cnty": "Mc Leod", "st": "MN", "Zip": 55395.0, "O_14": 3.0, "Q_15": 2.0, "O_15": 3.0, "city": "WINSTED", "beds": 65.0, "SR_15": 2.0}, {"Diff_star": 0.0, "addr": "3700 CEDAR LAKE AVENUE", "SR_14": 2.0, "Q_14": 5.0, "name": "JONES HARRISON RESIDENCE", "SF_14": 4.0, "SF_15": 4.0, "cnty": "Hennepin", "st": "MN", "Zip": 55416.0, "O_14": 4.0, "Q_15": 5.0, "O_15": 4.0, "city": "MINNEAPOLIS", "beds": 163.0, "SR_15": 2.0}, {"Diff_star": -2.0, "addr": "1405 7TH STREET SOUTH", "SR_14": 3.0, "Q_14": 5.0, "name": "EVENTIDE LUTHERAN HOME", "SF_14": 4.0, "SF_15": 3.0, "cnty": "Clay", "st": "MN", "Zip": 56560.0, "O_14": 5.0, "Q_15": 4.0, "O_15": 3.0, "city": "MOORHEAD", "beds": 195.0, "SR_15": 3.0}, {"Diff_star": 0.0, "addr": "5409 69TH AVENUE NORTH", "SR_14": 1.0, "Q_14": 5.0, "name": "MARANATHA CARE CENTER", "SF_14": 5.0, "SF_15": 5.0, "cnty": "Hennepin", "st": "MN", "Zip": 55429.0, "O_14": 2.0, "Q_15": 4.0, "O_15": 2.0, "city": "BROOKLYN CENTER", "beds": 97.0, "SR_15": 1.0}, {"Diff_star": 0.0, "addr": "1131 SOUTH MABELLE AVENUE", "SR_14": 5.0, "Q_14": 5.0, "name": "PIONEER CARE CENTER", "SF_14": 4.0, "SF_15": 4.0, "cnty": "Otter Tail", "st": "MN", "Zip": 56537.0, "O_14": 5.0, "Q_15": 5.0, "O_15": 5.0, "city": "FERGUS FALLS", "beds": 105.0, "SR_15": 5.0}, {"Diff_star": -1.0, "addr": "305 MINNESOTA STREET", "SR_14": 2.0, "Q_14": 5.0, "name": "OSTRANDER CARE AND REHAB", "SF_14": 4.0, "SF_15": 4.0, "cnty": "Fillmore", "st": "MN", "Zip": 55961.0, "O_14": 4.0, "Q_15": 4.0, "O_15": 3.0, "city": "OSTRANDER", "beds": 25.0, "SR_15": 2.0}, {"Diff_star": 0.0, "addr": "410 WEST MAIN STREET", "SR_14": 1.0, "Q_14": 4.0, "name": "COMMUNITY MEMORIAL HOME", "SF_14": 4.0, "SF_15": 4.0, "cnty": "Douglas", "st": "MN", "Zip": 56360.0, "O_14": 2.0, "Q_15": 5.0, "O_15": 2.0, "city": "OSAKIS", "beds": 50.0, "SR_15": 1.0}, {"Diff_star": -2.0, "addr": "503 E LINCOLN STREET", "SR_14": 3.0, "Q_14": 5.0, "name": "HENDRICKS COMMUNITY HOSPITAL", "SF_14": 4.0, "SF_15": 3.0, "cnty": "Lincoln", "st": "MN", "Zip": 56136.0, "O_14": 5.0, "Q_15": 4.0, "O_15": 3.0, "city": "HENDRICKS", "beds": 58.0, "SR_15": 3.0}, {"Diff_star": 0.0, "addr": "304 WASHINGTON AVENUE WEST", "SR_14": 5.0, "Q_14": 5.0, "name": "KARLSTAD HEALTHCARE CENTER INC", "SF_14": 2.0, "SF_15": 2.0, "cnty": "Kittson", "st": "MN", "Zip": 56732.0, "O_14": 5.0, "Q_15": 5.0, "O_15": 5.0, "city": "KARLSTAD", "beds": 46.0, "SR_15": 5.0}, {"Diff_star": 0.0, "addr": "5211 HIGHWAY 110", "SR_14": 4.0, "Q_14": 5.0, "name": "ESSENTIA HEALTH NORTHERN PINES MEDICAL CENTER", "SF_14": 4.0, "SF_15": 4.0, "cnty": "St. Louis", "st": "MN", "Zip": 55705.0, "O_14": 5.0, "Q_15": 5.0, "O_15": 5.0, "city": "AURORA", "beds": 50.0, "SR_15": 4.0}, {"Diff_star": -1.0, "addr": "715 DELMORE DRIVE", "SR_14": 2.0, "Q_14": 5.0, "name": "LIFECARE ROSEAU MANOR", "SF_14": 4.0, "SF_15": 3.0, "cnty": "Roseau", "st": "MN", "Zip": 56751.0, "O_14": 4.0, "Q_15": 5.0, "O_15": 3.0, "city": "ROSEAU", "beds": 60.0, "SR_15": 2.0}, {"Diff_star": 0.0, "addr": "402 - 13TH AVENUE", "SR_14": 2.0, "Q_14": 4.0, "name": "ECUMEN SCENIC SHORES", "SF_14": 5.0, "SF_15": 5.0, "cnty": "Lake", "st": "MN", "Zip": 55616.0, "O_14": 3.0, "Q_15": 4.0, "O_15": 3.0, "city": "TWO HARBORS", "beds": 45.0, "SR_15": 2.0}, {"Diff_star": -1.0, "addr": "640 THIRD STREET", "SR_14": 3.0, "Q_14": 5.0, "name": "OAK TERRACE HEALTH CARE CENTER", "SF_14": 3.0, "SF_15": 3.0, "cnty": "Sibley", "st": "MN", "Zip": 55334.0, "O_14": 4.0, "Q_15": 4.0, "O_15": 3.0, "city": "GAYLORD", "beds": 46.0, "SR_15": 3.0}, {"Diff_star": 0.0, "addr": "200 PARK LANE", "SR_14": 4.0, "Q_14": 5.0, "name": "PARK VIEW CARE CENTER", "SF_14": 5.0, "SF_15": 5.0, "cnty": "Wright", "st": "MN", "Zip": 55313.0, "O_14": 5.0, "Q_15": 5.0, "O_15": 5.0, "city": "BUFFALO", "beds": 123.0, "SR_15": 4.0}, {"Diff_star": 1.0, "addr": "102 COUNTY STATE AID HIGHWAY 9", "SR_14": 4.0, "Q_14": 4.0, "name": "PARKVIEW HOME", "SF_14": 4.0, "SF_15": 4.0, "cnty": "Redwood", "st": "MN", "Zip": 56214.0, "O_14": 4.0, "Q_15": 5.0, "O_15": 5.0, "city": "BELVIEW", "beds": 30.0, "SR_15": 4.0}, {"Diff_star": 0.0, "addr": "518 JEFFERSON AVENUE, PO BOX 29", "SR_14": 4.0, "Q_14": 4.0, "name": "GOOD SAMARITAN SOCIETY - PINE RIVER", "SF_14": 4.0, "SF_15": 3.0, "cnty": "Cass", "st": "MN", "Zip": 56474.0, "O_14": 4.0, "Q_15": 4.0, "O_15": 4.0, "city": "PINE RIVER", "beds": 56.0, "SR_15": 4.0}, {"Diff_star": 0.0, "addr": "514 HUMBOLDT AVENUE", "SR_14": 5.0, "Q_14": 5.0, "name": "CERENITY RESIDENCE ON HUMBOLDT", "SF_14": 5.0, "SF_15": 5.0, "cnty": "Ramsey", "st": "MN", "Zip": 55107.0, "O_14": 5.0, "Q_15": 5.0, "O_15": 5.0, "city": "SAINT PAUL", "beds": 30.0, "SR_15": 5.0}, {"Diff_star": -1.0, "addr": "220 THIRD STREET NORTHWEST", "SR_14": 4.0, "Q_14": 3.0, "name": "PRAIRIE MANOR CARE CENTER", "SF_14": 3.0, "SF_15": 3.0, "cnty": "Steele", "st": "MN", "Zip": 55917.0, "O_14": 4.0, "Q_15": 1.0, "O_15": 3.0, "city": "BLOOMING PRAIRIE", "beds": 52.0, "SR_15": 4.0}, {"Diff_star": 0.0, "addr": "7700 GRAND AVENUE", "SR_14": 2.0, "Q_14": 4.0, "name": "ST ELIGIUS HEALTH CENTER", "SF_14": 3.0, "SF_15": 3.0, "cnty": "St. Louis", "st": "MN", "Zip": 55807.0, "O_14": 2.0, "Q_15": 4.0, "O_15": 2.0, "city": "DULUTH", "beds": 70.0, "SR_15": 2.0}, {"Diff_star": 0.0, "addr": "516 WALSH STREET", "SR_14": 2.0, "Q_14": 5.0, "name": "VILLA ST VINCENT", "SF_14": 3.0, "SF_15": 4.0, "cnty": "Polk", "st": "MN", "Zip": 56716.0, "O_14": 3.0, "Q_15": 3.0, "O_15": 3.0, "city": "CROOKSTON", "beds": 104.0, "SR_15": 2.0}, {"Diff_star": 0.0, "addr": "1282 WALNUT STREET", "SR_14": 4.0, "Q_14": 3.0, "name": "JOHNSON MEMORIAL HOSP & HOME", "SF_14": 5.0, "SF_15": 5.0, "cnty": "Lac Qui Parle", "st": "MN", "Zip": 56232.0, "O_14": 5.0, "Q_15": 3.0, "O_15": 5.0, "city": "DAWSON", "beds": 56.0, "SR_15": 4.0}, {"Diff_star": -1.0, "addr": "735 THIRD STREET SOUTHWEST", "SR_14": 4.0, "Q_14": 5.0, "name": "PERHAM LIVING", "SF_14": 4.0, "SF_15": 4.0, "cnty": "Otter Tail", "st": "MN", "Zip": 56573.0, "O_14": 5.0, "Q_15": 4.0, "O_15": 4.0, "city": "PERHAM", "beds": 96.0, "SR_15": 4.0}, {"Diff_star": -1.0, "addr": "1200 FIFTH GRANT BOULEVARD WEST", "SR_14": 4.0, "Q_14": 5.0, "name": "ST ELIZABETH MEDICAL CENTER", "SF_14": 4.0, "SF_15": 3.0, "cnty": "Wabasha", "st": "MN", "Zip": 55981.0, "O_14": 5.0, "Q_15": 4.0, "O_15": 4.0, "city": "WABASHA", "beds": 100.0, "SR_15": 4.0}, {"Diff_star": 0.0, "addr": "100 BUFFALO HILLS LANE", "SR_14": 4.0, "Q_14": 4.0, "name": "GOOD SAMARITAN SOCIETY - WOODLAND", "SF_14": 3.0, "SF_15": 3.0, "cnty": "Crow Wing", "st": "MN", "Zip": 56401.0, "O_14": 4.0, "Q_15": 2.0, "O_15": 4.0, "city": "BRAINERD", "beds": 42.0, "SR_15": 4.0}, {"Diff_star": 0.0, "addr": "1415 MADISON AVENUE", "SR_14": 3.0, "Q_14": 5.0, "name": "EMMANUEL NURSING HOME", "SF_14": 4.0, "SF_15": 4.0, "cnty": "Becker", "st": "MN", "Zip": 56501.0, "O_14": 5.0, "Q_15": 5.0, "O_15": 5.0, "city": "DETROIT LAKES", "beds": 112.0, "SR_15": 3.0}, {"Diff_star": 0.0, "addr": "1314 EIGHTH STREET NORTH", "SR_14": 3.0, "Q_14": 5.0, "name": "OAK HILLS LIVING CENTER", "SF_14": 4.0, "SF_15": 4.0, "cnty": "Brown", "st": "MN", "Zip": 56073.0, "O_14": 5.0, "Q_15": 5.0, "O_15": 5.0, "city": "NEW ULM", "beds": 94.0, "SR_15": 3.0}, {"Diff_star": -2.0, "addr": "710 SOUTH KENWOOD AVENUE", "SR_14": 3.0, "Q_14": 5.0, "name": "AUGUSTANA MERCY CARE CENTER", "SF_14": 4.0, "SF_15": 3.0, "cnty": "Carlton", "st": "MN", "Zip": 55767.0, "O_14": 5.0, "Q_15": 4.0, "O_15": 3.0, "city": "MOOSE LAKE", "beds": 72.0, "SR_15": 3.0}, {"Diff_star": 0.0, "addr": "7727 PORTLAND AVENUE SOUTH", "SR_14": 3.0, "Q_14": 4.0, "name": "RICHFIELD HEALTH CENTER", "SF_14": 3.0, "SF_15": 3.0, "cnty": "Hennepin", "st": "MN", "Zip": 55423.0, "O_14": 3.0, "Q_15": 2.0, "O_15": 3.0, "city": "RICHFIELD", "beds": 118.0, "SR_15": 3.0}, {"Diff_star": 0.0, "addr": "615 MINNETONKA MILLS ROAD", "SR_14": 1.0, "Q_14": 5.0, "name": "AUGUSTANA CHAPEL VIEW CARE CENTER", "SF_14": 4.0, "SF_15": 4.0, "cnty": "Hennepin", "st": "MN", "Zip": 55343.0, "O_14": 2.0, "Q_15": 5.0, "O_15": 2.0, "city": "HOPKINS", "beds": 118.0, "SR_15": 1.0}, {"Diff_star": 0.0, "addr": "701 FIRST STREET", "SR_14": 2.0, "Q_14": 4.0, "name": "ELIM HOME", "SF_14": 4.0, "SF_15": 4.0, "cnty": "Mille Lacs", "st": "MN", "Zip": 55371.0, "O_14": 3.0, "Q_15": 3.0, "O_15": 3.0, "city": "PRINCETON", "beds": 106.0, "SR_15": 2.0}, {"Diff_star": 0.0, "addr": "2801 SOUTH HIGHWAY 169", "SR_14": 1.0, "Q_14": 3.0, "name": "EVERGREEN TERRACE", "SF_14": 3.0, "SF_15": 3.0, "cnty": "Itasca", "st": "MN", "Zip": 55744.0, "O_14": 1.0, "Q_15": 3.0, "O_15": 1.0, "city": "GRAND RAPIDS", "beds": 109.0, "SR_15": 1.0}, {"Diff_star": 0.0, "addr": "700 NORTH MONROE STREET", "SR_14": 4.0, "Q_14": 4.0, "name": "MINNEOTA MANOR HEALTH CARE CENTER", "SF_14": 4.0, "SF_15": 4.0, "cnty": "Lyon", "st": "MN", "Zip": 56264.0, "O_14": 4.0, "Q_15": 4.0, "O_15": 4.0, "city": "MINNEOTA", "beds": 67.0, "SR_15": 4.0}, {"Diff_star": -1.0, "addr": "1520 WYMAN AVENUE", "SR_14": 2.0, "Q_14": 4.0, "name": "HAVEN HOMES OF MAPLE PLAIN", "SF_14": 4.0, "SF_15": 4.0, "cnty": "Hennepin", "st": "MN", "Zip": 55359.0, "O_14": 3.0, "Q_15": 3.0, "O_15": 2.0, "city": "MAPLE PLAIN", "beds": 52.0, "SR_15": 1.0}, {"Diff_star": 0.0, "addr": "425 NORTH BADGER STREET", "SR_14": 2.0, "Q_14": 4.0, "name": "CALEDONIA CARE AND REHABILITATION CENTER", "SF_14": 4.0, "SF_15": 4.0, "cnty": "Houston", "st": "MN", "Zip": 55921.0, "O_14": 3.0, "Q_15": 4.0, "O_15": 3.0, "city": "CALEDONIA", "beds": 50.0, "SR_15": 2.0}, {"Diff_star": 1.0, "addr": "804 WRIGHT STREET", "SR_14": 2.0, "Q_14": 4.0, "name": "GOOD SAMARITAN SOCIETY - BETHANY", "SF_14": 4.0, "SF_15": 4.0, "cnty": "Crow Wing", "st": "MN", "Zip": 56401.0, "O_14": 3.0, "Q_15": 3.0, "O_15": 4.0, "city": "BRAINERD", "beds": 114.0, "SR_15": 3.0}, {"Diff_star": 0.0, "addr": "1907 KLEIN STREET", "SR_14": 4.0, "Q_14": 5.0, "name": "BENEDICTINE LIVING COMMUNITY", "SF_14": 5.0, "SF_15": 5.0, "cnty": "Nicollet", "st": "MN", "Zip": 56082.0, "O_14": 5.0, "Q_15": 4.0, "O_15": 5.0, "city": "ST PETER", "beds": 79.0, "SR_15": 4.0}, {"Diff_star": -1.0, "addr": "201 9TH STREET WEST", "SR_14": 4.0, "Q_14": 5.0, "name": "BENEDICTINE CARE COMMUNITY", "SF_14": 3.0, "SF_15": 3.0, "cnty": "Norman", "st": "MN", "Zip": 56510.0, "O_14": 5.0, "Q_15": 4.0, "O_15": 4.0, "city": "ADA", "beds": 49.0, "SR_15": 4.0}, {"Diff_star": 0.0, "addr": "714 SOUTHBEND AVENUE", "SR_14": 5.0, "Q_14": 5.0, "name": "HILLCREST HEALTH CARE CENTER", "SF_14": 4.0, "SF_15": 4.0, "cnty": "Blue Earth", "st": "MN", "Zip": 56001.0, "O_14": 5.0, "Q_15": 5.0, "O_15": 5.0, "city": "MANKATO", "beds": 85.0, "SR_15": 4.0}, {"Diff_star": 0.0, "addr": "810 WEST MAIN STREET", "SR_14": 2.0, "Q_14": 5.0, "name": "ADAMS HEALTH CARE CENTER", "SF_14": 3.0, "SF_15": 3.0, "cnty": "Mower", "st": "MN", "Zip": 55909.0, "O_14": 3.0, "Q_15": 5.0, "O_15": 3.0, "city": "ADAMS", "beds": 49.0, "SR_15": 2.0}, {"Diff_star": 1.0, "addr": "649 STATE STREET NORTHWEST", "SR_14": 2.0, "Q_14": 4.0, "name": "EVANSVILLE CARE CENTER", "SF_14": 4.0, "SF_15": 3.0, "cnty": "Douglas", "st": "MN", "Zip": 56326.0, "O_14": 3.0, "Q_15": 2.0, "O_15": 4.0, "city": "EVANSVILLE", "beds": 40.0, "SR_15": 4.0}, {"Diff_star": 0.0, "addr": "1013 HART BOULEVARD", "SR_14": 1.0, "Q_14": 4.0, "name": "CENTRACARE HEALTH - MONTICELLO", "SF_14": 4.0, "SF_15": 4.0, "cnty": "Wright", "st": "MN", "Zip": 55362.0, "O_14": 2.0, "Q_15": 4.0, "O_15": 2.0, "city": "MONTICELLO", "beds": 89.0, "SR_15": 1.0}, {"Diff_star": 0.0, "addr": "900 HILLIGOSS BOULEVARD SOUTHEAST", "SR_14": 2.0, "Q_14": 5.0, "name": "ESSENTIA HEALTH FOSSTON", "SF_14": 3.0, "SF_15": 3.0, "cnty": "Polk", "st": "MN", "Zip": 56542.0, "O_14": 3.0, "Q_15": 5.0, "O_15": 3.0, "city": "FOSSTON", "beds": 50.0, "SR_15": 2.0}, {"Diff_star": -1.0, "addr": "310 LAKE BOULEVARD", "SR_14": 4.0, "Q_14": 4.0, "name": "LAKE RIDGE CARE CENTER OF BUFFALO", "SF_14": 4.0, "SF_15": 3.0, "cnty": "Wright", "st": "MN", "Zip": 55313.0, "O_14": 4.0, "Q_15": 4.0, "O_15": 3.0, "city": "BUFFALO", "beds": 63.0, "SR_15": 3.0}, {"Diff_star": 0.0, "addr": "1001 COLUMBUS AVENUE NORTH", "SR_14": 5.0, "Q_14": 5.0, "name": "MALA STRANA HEALTH CARE CENTER", "SF_14": 4.0, "SF_15": 4.0, "cnty": "Scott", "st": "MN", "Zip": 56071.0, "O_14": 5.0, "Q_15": 5.0, "O_15": 5.0, "city": "NEW PRAGUE", "beds": 90.0, "SR_15": 5.0}, {"Diff_star": 0.0, "addr": "700 JAMES AVENUE", "SR_14": 4.0, "Q_14": 1.0, "name": "LAURELS PEAK REHABILITATION CENTER", "SF_14": 4.0, "SF_15": 4.0, "cnty": "Blue Earth", "st": "MN", "Zip": 56001.0, "O_14": 3.0, "Q_15": 1.0, "O_15": 3.0, "city": "MANKATO", "beds": 65.0, "SR_15": 4.0}, {"Diff_star": -1.0, "addr": "201 OAKLAWN AVENUE", "SR_14": 2.0, "Q_14": 4.0, "name": "OAKLAWN HEALTH CARE CENTER", "SF_14": 4.0, "SF_15": 3.0, "cnty": "Blue Earth", "st": "MN", "Zip": 56001.0, "O_14": 3.0, "Q_15": 4.0, "O_15": 2.0, "city": "MANKATO", "beds": 77.0, "SR_15": 2.0}, {"Diff_star": 0.0, "addr": "8000 BASS LAKE ROAD", "SR_14": 4.0, "Q_14": 5.0, "name": "ST THERESE HOME", "SF_14": 4.0, "SF_15": 4.0, "cnty": "Hennepin", "st": "MN", "Zip": 55428.0, "O_14": 5.0, "Q_15": 5.0, "O_15": 5.0, "city": "NEW HOPE", "beds": 258.0, "SR_15": 4.0}, {"Diff_star": 0.0, "addr": "3915 GOLDEN VALLEY ROAD", "SR_14": 3.0, "Q_14": 3.0, "name": "COURAGE KENNY REHABILITATION INSTITUTE'S TRP", "SF_14": 5.0, "SF_15": 5.0, "cnty": "Hennepin", "st": "MN", "Zip": 55422.0, "O_14": 4.0, "Q_15": 2.0, "O_15": 4.0, "city": "GOLDEN VALLEY", "beds": 44.0, "SR_15": 3.0}, {"Diff_star": -1.0, "addr": "625 WEST 31ST STREET", "SR_14": 1.0, "Q_14": 5.0, "name": "REDEEMER RESIDENCE INC", "SF_14": 2.0, "SF_15": 3.0, "cnty": "Hennepin", "st": "MN", "Zip": 55408.0, "O_14": 2.0, "Q_15": 4.0, "O_15": 1.0, "city": "MINNEAPOLIS", "beds": 129.0, "SR_15": 1.0}, {"Diff_star": 1.0, "addr": "406 EAST HIGHWAY 71, PO BOX 38", "SR_14": 4.0, "Q_14": 4.0, "name": "CENTRAL TODD COUNTY CARE CENTER", "SF_14": 4.0, "SF_15": 4.0, "cnty": "Todd", "st": "MN", "Zip": 56440.0, "O_14": 4.0, "Q_15": 4.0, "O_15": 5.0, "city": "CLARISSA", "beds": 60.0, "SR_15": 5.0}, {"Diff_star": 0.0, "addr": "221 6TH STREET SOUTHWEST", "SR_14": 1.0, "Q_14": 5.0, "name": "LUTHER MEMORIAL HOME", "SF_14": 3.0, "SF_15": 3.0, "cnty": "Watonwan", "st": "MN", "Zip": 56062.0, "O_14": 2.0, "Q_15": 5.0, "O_15": 2.0, "city": "MADELIA", "beds": 61.0, "SR_15": 1.0}, {"Diff_star": 0.0, "addr": "305 3RD AVENUE SOUTHWEST", "SR_14": 4.0, "Q_14": 5.0, "name": "GOOD SAMARITAN SOCIETY - CLEARBROOK", "SF_14": 4.0, "SF_15": 3.0, "cnty": "Clearwater", "st": "MN", "Zip": 56634.0, "O_14": 5.0, "Q_15": 5.0, "O_15": 5.0, "city": "CLEARBROOK", "beds": 43.0, "SR_15": 4.0}, {"Diff_star": 0.0, "addr": "330 EXCHANGE STREET SOUTH", "SR_14": 5.0, "Q_14": 5.0, "name": "LITTLE SISTERS OF THE POOR", "SF_14": 5.0, "SF_15": 5.0, "cnty": "Ramsey", "st": "MN", "Zip": 55102.0, "O_14": 5.0, "Q_15": 5.0, "O_15": 5.0, "city": "SAINT PAUL", "beds": 73.0, "SR_15": 5.0}, {"Diff_star": -1.0, "addr": "815 MAIN AVENUE SOUTH", "SR_14": 3.0, "Q_14": 4.0, "name": "GUNDERSEN HARMONY CARE CENTER", "SF_14": 4.0, "SF_15": 3.0, "cnty": "Fillmore", "st": "MN", "Zip": 55939.0, "O_14": 4.0, "Q_15": 2.0, "O_15": 3.0, "city": "HARMONY", "beds": 43.0, "SR_15": 3.0}, {"Diff_star": 0.0, "addr": "258 PINE TREE DRIVE, PO BOX 258", "SR_14": 1.0, "Q_14": 4.0, "name": "BIGFORK VALLEY COMMUNITIES", "SF_14": 4.0, "SF_15": 4.0, "cnty": "Itasca", "st": "MN", "Zip": 56628.0, "O_14": 2.0, "Q_15": 5.0, "O_15": 2.0, "city": "BIGFORK", "beds": 47.0, "SR_15": 1.0}, {"Diff_star": 0.0, "addr": "24 - 8TH STREET NORTHWEST", "SR_14": 2.0, "Q_14": 4.0, "name": "SAMARITAN BETHANY HOME ON EIGHTH", "SF_14": 4.0, "SF_15": 4.0, "cnty": "Olmsted", "st": "MN", "Zip": 55901.0, "O_14": 3.0, "Q_15": 3.0, "O_15": 3.0, "city": "ROCHESTER", "beds": 182.0, "SR_15": 2.0}, {"Diff_star": 0.0, "addr": "1012 EAST THIRD STREET", "SR_14": 4.0, "Q_14": 5.0, "name": "BETHESDA HERITAGE CENTER", "SF_14": 4.0, "SF_15": 4.0, "cnty": "Kandiyohi", "st": "MN", "Zip": 56201.0, "O_14": 5.0, "Q_15": 5.0, "O_15": 5.0, "city": "WILLMAR", "beds": 125.0, "SR_15": 4.0}, {"Diff_star": 0.0, "addr": "439 WILLIAM AVENUE EAST, PO BOX 383", "SR_14": 5.0, "Q_14": 5.0, "name": "LAKESIDE HEALTH CARE CENTER", "SF_14": 4.0, "SF_15": 4.0, "cnty": "Meeker", "st": "MN", "Zip": 55325.0, "O_14": 5.0, "Q_15": 5.0, "O_15": 5.0, "city": "DASSEL", "beds": 54.0, "SR_15": 5.0}, {"Diff_star": 0.0, "addr": "640 JACKSON STREET", "SR_14": 5.0, "Q_14": 3.0, "name": "CAPITOL VIEW TRANSITIONAL CARE CENTER", "SF_14": 5.0, "SF_15": 5.0, "cnty": "Ramsey", "st": "MN", "Zip": 55101.0, "O_14": 5.0, "Q_15": 2.0, "O_15": 5.0, "city": "SAINT PAUL", "beds": 32.0, "SR_15": 5.0}, {"Diff_star": 0.0, "addr": "24856 HOSPITAL DRIVE", "SR_14": 1.0, "Q_14": 1.0, "name": "JOURDAIN PERPICH EXT CARE FAC", "SF_14": 4.0, "SF_15": 4.0, "cnty": "Beltrami", "st": "MN", "Zip": 56671.0, "O_14": 1.0, "Q_15": 1.0, "O_15": 1.0, "city": "REDLAKE", "beds": 47.0, "SR_15": 1.0}, {"Diff_star": 0.0, "addr": "115 NORTH LYNDALE, RR 2  BOX 49", "SR_14": 3.0, "Q_14": 3.0, "name": "GREEN LEA SENIOR LIVING", "SF_14": 2.0, "SF_15": 2.0, "cnty": "Fillmore", "st": "MN", "Zip": 55954.0, "O_14": 3.0, "Q_15": 2.0, "O_15": 3.0, "city": "MABEL", "beds": 51.0, "SR_15": 3.0}, {"Diff_star": 0.0, "addr": "605 MAIN STREET,  PO BOX 40", "SR_14": 2.0, "Q_14": 4.0, "name": "MINNEWASKA COMMUNITY HEALTH SERVICES", "SF_14": 3.0, "SF_15": 3.0, "cnty": "Pope", "st": "MN", "Zip": 56381.0, "O_14": 2.0, "Q_15": 4.0, "O_15": 2.0, "city": "STARBUCK", "beds": 65.0, "SR_15": 2.0}, {"Diff_star": 0.0, "addr": "907 MARSHALL AVENUE,  PO BOX 57", "SR_14": 4.0, "Q_14": 5.0, "name": "GOLDEN LIVINGCENTER - HENNING", "SF_14": 3.0, "SF_15": 3.0, "cnty": "Otter Tail", "st": "MN", "Zip": 56551.0, "O_14": 5.0, "Q_15": 5.0, "O_15": 5.0, "city": "HENNING", "beds": 42.0, "SR_15": 4.0}, {"Diff_star": 0.0, "addr": "BOX N, 900 MAIN STREET", "SR_14": 3.0, "Q_14": 2.0, "name": "LITTLEFORK MEDICAL CENTER", "SF_14": 4.0, "SF_15": 4.0, "cnty": "Koochiching", "st": "MN", "Zip": 56653.0, "O_14": 4.0, "Q_15": 2.0, "O_15": 4.0, "city": "LITTLEFORK", "beds": 50.0, "SR_15": 3.0}, {"Diff_star": 1.0, "addr": "512 49TH AVENUE NORTH", "SR_14": 1.0, "Q_14": 4.0, "name": "CAMDEN CARE CENTER", "SF_14": 2.0, "SF_15": 2.0, "cnty": "Hennepin", "st": "MN", "Zip": 55430.0, "O_14": 1.0, "Q_15": 5.0, "O_15": 2.0, "city": "MINNEAPOLIS", "beds": 87.0, "SR_15": 1.0}, {"Diff_star": 0.0, "addr": "BOX 8 300 GARFIELD AVENUE SOUTHEAST", "SR_14": 4.0, "Q_14": 3.0, "name": "FAIR MEADOW NURSING HOME", "SF_14": 4.0, "SF_15": 4.0, "cnty": "Polk", "st": "MN", "Zip": 56540.0, "O_14": 4.0, "Q_15": 2.0, "O_15": 4.0, "city": "FERTILE", "beds": 50.0, "SR_15": 4.0}, {"Diff_star": -1.0, "addr": "3401 EAST MEDICINE LAKE BOULEVARD", "SR_14": 1.0, "Q_14": 5.0, "name": "MISSION NURSING HOME", "SF_14": 3.0, "SF_15": 3.0, "cnty": "Hennepin", "st": "MN", "Zip": 55441.0, "O_14": 2.0, "Q_15": 3.0, "O_15": 1.0, "city": "PLYMOUTH", "beds": 97.0, "SR_15": 1.0}, {"Diff_star": 0.0, "addr": "603 LOUISIANA AVENUE", "SR_14": 1.0, "Q_14": 5.0, "name": "ADRIAN CARE CENTER", "SF_14": 3.0, "SF_15": 3.0, "cnty": "Nobles", "st": "MN", "Zip": 56110.0, "O_14": 2.0, "Q_15": 5.0, "O_15": 2.0, "city": "ADRIAN", "beds": 30.0, "SR_15": 1.0}, {"Diff_star": -1.0, "addr": "505 EAST 4TH STREET", "SR_14": 4.0, "Q_14": 2.0, "name": "TUFF MEMORIAL HOME", "SF_14": 4.0, "SF_15": 4.0, "cnty": "Rock", "st": "MN", "Zip": 56138.0, "O_14": 4.0, "Q_15": 1.0, "O_15": 3.0, "city": "HILLS", "beds": 50.0, "SR_15": 4.0}, {"Diff_star": -1.0, "addr": "745 BASINGER MEMORIAL DRIVE", "SR_14": 2.0, "Q_14": 5.0, "name": "GOOD SAMARITAN SOCIETY - MOUNTAIN LAKE", "SF_14": 4.0, "SF_15": 3.0, "cnty": "Cottonwood", "st": "MN", "Zip": 56159.0, "O_14": 4.0, "Q_15": 5.0, "O_15": 3.0, "city": "MOUNTAIN LAKE", "beds": 55.0, "SR_15": 2.0}, {"Diff_star": -1.0, "addr": "410 SOUTH MCKINLEY STREET", "SR_14": 1.0, "Q_14": 4.0, "name": "GOOD SAMARITAN SOCIETY - WARREN", "SF_14": 4.0, "SF_15": 3.0, "cnty": "Marshall", "st": "MN", "Zip": 56762.0, "O_14": 2.0, "Q_15": 3.0, "O_15": 1.0, "city": "WARREN", "beds": 52.0, "SR_15": 1.0}, {"Diff_star": 0.0, "addr": "805 FIFTH STREET, BOX 458", "SR_14": 2.0, "Q_14": 3.0, "name": "CLARKFIELD CARE CENTER", "SF_14": 4.0, "SF_15": 4.0, "cnty": "Yellow Medcine", "st": "MN", "Zip": 56223.0, "O_14": 3.0, "Q_15": 2.0, "O_15": 3.0, "city": "CLARKFIELD", "beds": 48.0, "SR_15": 2.0}, {"Diff_star": 0.0, "addr": "HIGHWAY 14 EAST PO BOX 219", "SR_14": 4.0, "Q_14": 5.0, "name": "COLONIAL MANOR OF BALATON", "SF_14": 5.0, "SF_15": 5.0, "cnty": "Lyon", "st": "MN", "Zip": 56115.0, "O_14": 5.0, "Q_15": 5.0, "O_15": 5.0, "city": "BALATON", "beds": 33.0, "SR_15": 4.0}, {"Diff_star": -1.0, "addr": "308 SHERMAN AVENUE", "SR_14": 5.0, "Q_14": 5.0, "name": "PARKVIEW MANOR NURSING HOME", "SF_14": 3.0, "SF_15": 1.0, "cnty": "Nobles", "st": "MN", "Zip": 56129.0, "O_14": 5.0, "Q_15": 5.0, "O_15": 4.0, "city": "ELLSWORTH", "beds": 37.0, "SR_15": 4.0}, {"Diff_star": -1.0, "addr": "205 SOUTHEAST ELM AVENUE", "SR_14": 2.0, "Q_14": 5.0, "name": "RENVILLA HEALTH CENTER", "SF_14": 4.0, "SF_15": 4.0, "cnty": "Renville", "st": "MN", "Zip": 56284.0, "O_14": 4.0, "Q_15": 4.0, "O_15": 3.0, "city": "RENVILLE", "beds": 56.0, "SR_15": 2.0}, {"Diff_star": 0.0, "addr": "9889 PENN AVENUE SOUTH", "SR_14": 4.0, "Q_14": 4.0, "name": "PRESBYTERIAN HOMES OF BLOOMINGTON", "SF_14": 4.0, "SF_15": 4.0, "cnty": "Hennepin", "st": "MN", "Zip": 55431.0, "O_14": 4.0, "Q_15": 4.0, "O_15": 4.0, "city": "BLOOMINGTON", "beds": 98.0, "SR_15": 4.0}, {"Diff_star": 0.0, "addr": "705 SIXTH STREET", "SR_14": 2.0, "Q_14": 5.0, "name": "GOOD SAMARITAN SOCIETY - WINDOM", "SF_14": 4.0, "SF_15": 4.0, "cnty": "Cottonwood", "st": "MN", "Zip": 56101.0, "O_14": 4.0, "Q_15": 5.0, "O_15": 4.0, "city": "WINDOM", "beds": 78.0, "SR_15": 2.0}, {"Diff_star": 0.0, "addr": "317 FIRST STREET NORTHWEST", "SR_14": 1.0, "Q_14": 5.0, "name": "VIKING MANOR NURSING HOME", "SF_14": 4.0, "SF_15": 4.0, "cnty": "Clay", "st": "MN", "Zip": 56585.0, "O_14": 2.0, "Q_15": 5.0, "O_15": 2.0, "city": "ULEN", "beds": 45.0, "SR_15": 1.0}, {"Diff_star": 0.0, "addr": "505 TROSKY ROAD WEST", "SR_14": 3.0, "Q_14": 3.0, "name": "EDGEBROOK CARE CENTER", "SF_14": 3.0, "SF_15": 3.0, "cnty": "Pipestone", "st": "MN", "Zip": 56128.0, "O_14": 3.0, "Q_15": 2.0, "O_15": 3.0, "city": "EDGERTON", "beds": 56.0, "SR_15": 3.0}, {"Diff_star": 0.0, "addr": "900 CANNON VALLEY DRIVE", "SR_14": 5.0, "Q_14": 4.0, "name": "NORTHFIELD CARE CENTER INC", "SF_14": 4.0, "SF_15": 4.0, "cnty": "Rice", "st": "MN", "Zip": 55057.0, "O_14": 5.0, "Q_15": 3.0, "O_15": 5.0, "city": "NORTHFIELD", "beds": 42.0, "SR_15": 5.0}, {"Diff_star": 0.0, "addr": "SOUTH TOUSLEY, PO BOX 188", "SR_14": 2.0, "Q_14": 5.0, "name": "ELDERS HOME INC", "SF_14": 3.0, "SF_15": 4.0, "cnty": "Otter Tail", "st": "MN", "Zip": 56567.0, "O_14": 3.0, "Q_15": 4.0, "O_15": 3.0, "city": "NEW YORK MILLS", "beds": 51.0, "SR_15": 2.0}, {"Diff_star": 0.0, "addr": "427 MAIN STREET NORTHEAST", "SR_14": 1.0, "Q_14": 3.0, "name": "GREEN PINE ACRES NURSING HOME", "SF_14": 4.0, "SF_15": 4.0, "cnty": "Wadena", "st": "MN", "Zip": 56464.0, "O_14": 2.0, "Q_15": 1.0, "O_15": 2.0, "city": "MENAHGA", "beds": 65.0, "SR_15": 2.0}, {"Diff_star": 0.0, "addr": "114 JEFFERSON STREET SOUTH", "SR_14": 5.0, "Q_14": 4.0, "name": "BROWNS VALLEY HEALTH CENTER", "SF_14": 4.0, "SF_15": 4.0, "cnty": "Traverse", "st": "MN", "Zip": 56219.0, "O_14": 5.0, "Q_15": 3.0, "O_15": 5.0, "city": "BROWNS VALLEY", "beds": 41.0, "SR_15": 5.0}, {"Diff_star": -1.0, "addr": "510 EAST CEDAR STREET", "SR_14": 3.0, "Q_14": 5.0, "name": "VALLEY VIEW HEALTHCARE & REHAB", "SF_14": 4.0, "SF_15": 4.0, "cnty": "Houston", "st": "MN", "Zip": 55943.0, "O_14": 5.0, "Q_15": 4.0, "O_15": 4.0, "city": "HOUSTON", "beds": 45.0, "SR_15": 3.0}, {"Diff_star": 0.0, "addr": "110 SOUTH WALNUT AVENUE", "SR_14": 1.0, "Q_14": 4.0, "name": "GOOD SAMARITAN SOCIETY - MARY JANE BROWN", "SF_14": 3.0, "SF_15": 3.0, "cnty": "Rock", "st": "MN", "Zip": 56156.0, "O_14": 1.0, "Q_15": 3.0, "O_15": 1.0, "city": "LUVERNE", "beds": 51.0, "SR_15": 1.0}, {"Diff_star": 0.0, "addr": "133  FOURTH AVENUE EAST", "SR_14": 4.0, "Q_14": 5.0, "name": "HALSTAD LIVING CENTER", "SF_14": 3.0, "SF_15": 3.0, "cnty": "Norman", "st": "MN", "Zip": 56548.0, "O_14": 5.0, "Q_15": 5.0, "O_15": 5.0, "city": "HALSTAD", "beds": 44.0, "SR_15": 4.0}, {"Diff_star": -1.0, "addr": "400 SEVENTH STREET", "SR_14": 4.0, "Q_14": 5.0, "name": "MAPLE LAWN NURSING HOME", "SF_14": 4.0, "SF_15": 4.0, "cnty": "Murray", "st": "MN", "Zip": 56131.0, "O_14": 5.0, "Q_15": 4.0, "O_15": 4.0, "city": "FULDA", "beds": 58.0, "SR_15": 4.0}, {"Diff_star": 0.0, "addr": "403 COLONIAL AVENUE", "SR_14": 4.0, "Q_14": 4.0, "name": "COLONIAL MANOR NURSING HOME", "SF_14": 4.0, "SF_15": 3.0, "cnty": "Jackson", "st": "MN", "Zip": 56150.0, "O_14": 4.0, "Q_15": 4.0, "O_15": 4.0, "city": "LAKEFIELD", "beds": 37.0, "SR_15": 4.0}, {"Diff_star": 0.0, "addr": "1012 NORTH DIVISION STREET  PO BOX 797", "SR_14": 3.0, "Q_14": 4.0, "name": "CLARA CITY CARE CENTER", "SF_14": 4.0, "SF_15": 4.0, "cnty": "Chippewa", "st": "MN", "Zip": 56222.0, "O_14": 4.0, "Q_15": 2.0, "O_15": 4.0, "city": "CLARA CITY", "beds": 66.0, "SR_15": 3.0}, {"Diff_star": -1.0, "addr": "3620 PHILLIPS PARKWAY SOUTH", "SR_14": 2.0, "Q_14": 4.0, "name": "SHOLOM HOME WEST", "SF_14": 4.0, "SF_15": 3.0, "cnty": "Hennepin", "st": "MN", "Zip": 55426.0, "O_14": 3.0, "Q_15": 3.0, "O_15": 2.0, "city": "SAINT LOUIS PARK", "beds": 179.0, "SR_15": 2.0}, {"Diff_star": -1.0, "addr": "800 SPRUCE AVENUE", "SR_14": 4.0, "Q_14": 2.0, "name": "BARRETT CARE CENTER INC", "SF_14": 4.0, "SF_15": 4.0, "cnty": "Grant", "st": "MN", "Zip": 56311.0, "O_14": 4.0, "Q_15": 1.0, "O_15": 3.0, "city": "BARRETT", "beds": 45.0, "SR_15": 4.0}, {"Diff_star": 0.0, "addr": "2309 HAYES STREET NORTHEAST", "SR_14": 1.0, "Q_14": 3.0, "name": "BETHANY CARE CENTER", "SF_14": 4.0, "SF_15": 4.0, "cnty": "Hennepin", "st": "MN", "Zip": 55418.0, "O_14": 2.0, "Q_15": 2.0, "O_15": 2.0, "city": "MINNEAPOLIS", "beds": 66.0, "SR_15": 1.0}, {"Diff_star": 0.0, "addr": "116 WEST SECOND STREET", "SR_14": 4.0, "Q_14": 5.0, "name": "ESSENTIA HEALTH GRACE HOME", "SF_14": 4.0, "SF_15": 3.0, "cnty": "Big Stone", "st": "MN", "Zip": 56240.0, "O_14": 5.0, "Q_15": 5.0, "O_15": 5.0, "city": "GRACEVILLE", "beds": 45.0, "SR_15": 4.0}, {"Diff_star": 0.0, "addr": "600 MAIN AVENUE SOUTH", "SR_14": 4.0, "Q_14": 4.0, "name": "LAKEWOOD CARE CENTER", "SF_14": 4.0, "SF_15": 4.0, "cnty": "Lake Of  Woods", "st": "MN", "Zip": 56623.0, "O_14": 4.0, "Q_15": 3.0, "O_15": 4.0, "city": "BAUDETTE", "beds": 36.0, "SR_15": 4.0}, {"Diff_star": 0.0, "addr": "201 SHADY LANE DRIVE", "SR_14": 2.0, "Q_14": 4.0, "name": "FAIR OAKS LODGE", "SF_14": 4.0, "SF_15": 4.0, "cnty": "Wadena", "st": "MN", "Zip": 56482.0, "O_14": 3.0, "Q_15": 4.0, "O_15": 3.0, "city": "WADENA", "beds": 75.0, "SR_15": 2.0}, {"Diff_star": 0.0, "addr": "594 CHERRY DRIVE", "SR_14": 4.0, "Q_14": 4.0, "name": "AUBURN HOME IN WACONIA", "SF_14": 5.0, "SF_15": 5.0, "cnty": "Carver", "st": "MN", "Zip": 55387.0, "O_14": 5.0, "Q_15": 4.0, "O_15": 5.0, "city": "WACONIA", "beds": 37.0, "SR_15": 4.0}, {"Diff_star": 1.0, "addr": "303 SEVENTH STREET SOUTH", "SR_14": 1.0, "Q_14": 4.0, "name": "TRAVERSE CARE CENTER", "SF_14": 3.0, "SF_15": 3.0, "cnty": "Traverse", "st": "MN", "Zip": 56296.0, "O_14": 1.0, "Q_15": 5.0, "O_15": 2.0, "city": "WHEATON", "beds": 49.0, "SR_15": 1.0}, {"Diff_star": -2.0, "addr": "2545 PORTLAND AVENUE SOUTH", "SR_14": 2.0, "Q_14": 5.0, "name": "EBENEZER CARE CENTER", "SF_14": 4.0, "SF_15": 3.0, "cnty": "Hennepin", "st": "MN", "Zip": 55404.0, "O_14": 4.0, "Q_15": 3.0, "O_15": 2.0, "city": "MINNEAPOLIS", "beds": 127.0, "SR_15": 2.0}, {"Diff_star": 0.0, "addr": "212 WEST SOO STREET, BOX 30", "SR_14": 4.0, "Q_14": 5.0, "name": "ST WILLIAMS LIVING CENTER", "SF_14": 4.0, "SF_15": 4.0, "cnty": "Otter Tail", "st": "MN", "Zip": 56361.0, "O_14": 5.0, "Q_15": 5.0, "O_15": 5.0, "city": "PARKERS PRAIRIE", "beds": 58.0, "SR_15": 4.0}, {"Diff_star": 0.0, "addr": "703 WEST YELLOWSTONE TRAIL, PO 368", "SR_14": 4.0, "Q_14": 4.0, "name": "BUFFALO LAKE HEALTH CARE CTR", "SF_14": 4.0, "SF_15": 4.0, "cnty": "Renville", "st": "MN", "Zip": 55314.0, "O_14": 4.0, "Q_15": 4.0, "O_15": 4.0, "city": "BUFFALO LAKE", "beds": 49.0, "SR_15": 4.0}, {"Diff_star": 0.0, "addr": "611 WEST MAIN STREET", "SR_14": 5.0, "Q_14": 4.0, "name": "LUTHERAN HOME", "SF_14": 5.0, "SF_15": 5.0, "cnty": "Scott", "st": "MN", "Zip": 56011.0, "O_14": 5.0, "Q_15": 2.0, "O_15": 5.0, "city": "BELLE PLAINE", "beds": 97.0, "SR_15": 5.0}, {"Diff_star": 0.0, "addr": "1311 NORTH HIAWATHA", "SR_14": 4.0, "Q_14": 5.0, "name": "GOOD SAMARITAN SOCIETY - PIPESTONE", "SF_14": 4.0, "SF_15": 4.0, "cnty": "Pipestone", "st": "MN", "Zip": 56164.0, "O_14": 5.0, "Q_15": 5.0, "O_15": 5.0, "city": "PIPESTONE", "beds": 94.0, "SR_15": 4.0}, {"Diff_star": -1.0, "addr": "123 BAKEN STREET", "SR_14": 1.0, "Q_14": 5.0, "name": "OAKLAND PARK COMMUNITIES", "SF_14": 3.0, "SF_15": 3.0, "cnty": "Pennington", "st": "MN", "Zip": 56701.0, "O_14": 2.0, "Q_15": 4.0, "O_15": 1.0, "city": "THIEF RIVER FALLS", "beds": 40.0, "SR_15": 1.0}, {"Diff_star": -2.0, "addr": "1000 SOUTH SECOND STREET", "SR_14": 3.0, "Q_14": 5.0, "name": "GOOD SAMARITAN SOCIETY - ST JAMES", "SF_14": 4.0, "SF_15": 3.0, "cnty": "Watonwan", "st": "MN", "Zip": 56081.0, "O_14": 5.0, "Q_15": 4.0, "O_15": 3.0, "city": "ST JAMES", "beds": 55.0, "SR_15": 3.0}, {"Diff_star": 0.0, "addr": "96 THIRD STREET EAST", "SR_14": 3.0, "Q_14": 3.0, "name": "GIL- MOR MANOR", "SF_14": 5.0, "SF_15": 5.0, "cnty": "Redwood", "st": "MN", "Zip": 56266.0, "O_14": 4.0, "Q_15": 2.0, "O_15": 4.0, "city": "MORGAN", "beds": 35.0, "SR_15": 3.0}, {"Diff_star": -1.0, "addr": "149 FIRST STREET, BOX 218", "SR_14": 1.0, "Q_14": 3.0, "name": "GOOD SAMARITAN SOCIETY - WESTBROOK", "SF_14": 4.0, "SF_15": 3.0, "cnty": "Cottonwood", "st": "MN", "Zip": 56183.0, "O_14": 2.0, "Q_15": 3.0, "O_15": 1.0, "city": "WESTBROOK", "beds": 40.0, "SR_15": 1.0}, {"Diff_star": 0.0, "addr": "1307 SOUTH SHORE DRIVE PO BOX 69", "SR_14": 1.0, "Q_14": 4.0, "name": "SOUTH SHORE CARE CENTER", "SF_14": 4.0, "SF_15": 4.0, "cnty": "Nobles", "st": "MN", "Zip": 56187.0, "O_14": 2.0, "Q_15": 4.0, "O_15": 2.0, "city": "WORTHINGTON", "beds": 54.0, "SR_15": 1.0}, {"Diff_star": 0.0, "addr": "16561 US HIGHWAY 10", "SR_14": 4.0, "Q_14": 4.0, "name": "SUNNYSIDE CARE CENTER", "SF_14": 4.0, "SF_15": 4.0, "cnty": "Becker", "st": "MN", "Zip": 56554.0, "O_14": 4.0, "Q_15": 3.0, "O_15": 4.0, "city": "LAKE PARK", "beds": 42.0, "SR_15": 4.0}, {"Diff_star": 1.0, "addr": "411 SEVENTH AVENUE NORTHWEST", "SR_14": 4.0, "Q_14": 4.0, "name": "GOOD SAMARITAN SOCIETY - ARLINGTON", "SF_14": 4.0, "SF_15": 4.0, "cnty": "Sibley", "st": "MN", "Zip": 55307.0, "O_14": 4.0, "Q_15": 5.0, "O_15": 5.0, "city": "ARLINGTON", "beds": 35.0, "SR_15": 4.0}, {"Diff_star": 0.0, "addr": "700 THIRD AVENUE NORTHWEST", "SR_14": 3.0, "Q_14": 2.0, "name": "DIVINE PROVIDENCE COMMUNITY HOME", "SF_14": 2.0, "SF_15": 2.0, "cnty": "Brown", "st": "MN", "Zip": 56085.0, "O_14": 3.0, "Q_15": 2.0, "O_15": 3.0, "city": "SLEEPY EYE", "beds": 58.0, "SR_15": 3.0}, {"Diff_star": 0.0, "addr": "172 SUMMIT AVENUE WEST", "SR_14": 2.0, "Q_14": 4.0, "name": "GOOD SAMARITAN SOCIETY - BLACKDUCK", "SF_14": 4.0, "SF_15": 4.0, "cnty": "Beltrami", "st": "MN", "Zip": 56630.0, "O_14": 3.0, "Q_15": 4.0, "O_15": 3.0, "city": "BLACKDUCK", "beds": 32.0, "SR_15": 2.0}, {"Diff_star": 0.0, "addr": "501 OAK STREET", "SR_14": 5.0, "Q_14": 3.0, "name": "AUBURN MANOR", "SF_14": 4.0, "SF_15": 4.0, "cnty": "Carver", "st": "MN", "Zip": 55318.0, "O_14": 5.0, "Q_15": 3.0, "O_15": 5.0, "city": "CHASKA", "beds": 61.0, "SR_15": 5.0}, {"Diff_star": 0.0, "addr": "20395 SUMMERVILLE ROAD", "SR_14": 1.0, "Q_14": 5.0, "name": "LAKE MINNETONKA CARE CENTER", "SF_14": 2.0, "SF_15": 2.0, "cnty": "Hennepin", "st": "MN", "Zip": 55331.0, "O_14": 2.0, "Q_15": 5.0, "O_15": 2.0, "city": "DEEPHAVEN", "beds": 21.0, "SR_15": 1.0}, {"Diff_star": 0.0, "addr": "1850 SARAZIN STREET", "SR_14": 4.0, "Q_14": 4.0, "name": "ST GERTRUDES HEALTH & REHABILITATION CENTER", "SF_14": 5.0, "SF_15": 5.0, "cnty": "Scott", "st": "MN", "Zip": 55379.0, "O_14": 5.0, "Q_15": 3.0, "O_15": 5.0, "city": "SHAKOPEE", "beds": 105.0, "SR_15": 4.0}, {"Diff_star": 0.0, "addr": "431 PRAIRIE CENTER DRIVE", "SR_14": 5.0, "Q_14": 4.0, "name": "THE COLONY AT EDEN PRAIRIE", "SF_14": 5.0, "SF_15": 5.0, "cnty": "Hennepin", "st": "MN", "Zip": 55344.0, "O_14": 5.0, "Q_15": 4.0, "O_15": 5.0, "city": "EDEN PRAIRIE", "beds": 25.0, "SR_15": 5.0}, {"Diff_star": -1.0, "addr": "1000 FOREST STREET PO BOX 724", "SR_14": 3.0, "Q_14": 5.0, "name": "CORNERSTONE VILLA", "SF_14": 4.0, "SF_15": 3.0, "cnty": "St. Louis", "st": "MN", "Zip": 55713.0, "O_14": 5.0, "Q_15": 5.0, "O_15": 4.0, "city": "BUHL", "beds": 44.0, "SR_15": 3.0}, {"Diff_star": 0.0, "addr": "5919 CENTERVILLE ROAD", "SR_14": 5.0, "Q_14": 5.0, "name": "PRESBYTERIAN HOMES OF NORTH OAKS", "SF_14": 4.0, "SF_15": 4.0, "cnty": "Ramsey", "st": "MN", "Zip": 55127.0, "O_14": 5.0, "Q_15": 5.0, "O_15": 5.0, "city": "NORTH OAKS", "beds": 60.0, "SR_15": 5.0}, {"Diff_star": 0.0, "addr": "13575 58TH STREET", "SR_14": 4.0, "Q_14": 5.0, "name": "GABLES OF BOUTWELLS LANDING", "SF_14": 5.0, "SF_15": 5.0, "cnty": "Washington", "st": "MN", "Zip": 55082.0, "O_14": 5.0, "Q_15": 4.0, "O_15": 5.0, "city": "OAK PARK HEIGHTS", "beds": 108.0, "SR_15": 4.0}, {"Diff_star": 0.0, "addr": "19120 200TH STREET", "SR_14": 5.0, "Q_14": 4.0, "name": "LIFECARE GREENBUSH MANOR", "SF_14": 4.0, "SF_15": 4.0, "cnty": "Roseau", "st": "MN", "Zip": 56726.0, "O_14": 5.0, "Q_15": 2.0, "O_15": 5.0, "city": "GREENBUSH", "beds": 40.0, "SR_15": 5.0}, {"Diff_star": 0.0, "addr": "525 FAIRVIEW AVENUE SOUTH", "SR_14": 4.0, "Q_14": 5.0, "name": "CARONDELET VILLAGE CARE CENTER", "SF_14": 4.0, "SF_15": 4.0, "cnty": "Ramsey", "st": "MN", "Zip": 55116.0, "O_14": 5.0, "Q_15": 5.0, "O_15": 5.0, "city": "SAINT PAUL", "beds": 45.0, "SR_15": 4.0}, {"Diff_star": 0.0, "addr": "61 THOMPSON AVENUE WEST", "SR_14": 5.0, "Q_14": 3.0, "name": "WALKER METHODIST WESTWOOD RIDGE II", "SF_14": 5.0, "SF_15": 5.0, "cnty": "Dakota", "st": "MN", "Zip": 55118.0, "O_14": 5.0, "Q_15": 2.0, "O_15": 5.0, "city": "WEST SAINT PAUL", "beds": 37.0, "SR_15": 4.0}, {"Diff_star": 0.0, "addr": "5200 OAK GROVE PARKWAY", "SR_14": 3.0, "Q_14": 5.0, "name": "SAINT THERESE AT OXBOW LAKE", "SF_14": 5.0, "SF_15": 5.0, "cnty": "Hennepin", "st": "MN", "Zip": 55443.0, "O_14": 5.0, "Q_15": 5.0, "O_15": 5.0, "city": "BROOKLYN PARK", "beds": 64.0, "SR_15": 3.0}, {"Diff_star": 0.0, "addr": "5101 MINNEHAHA AVENUE SOUTH", "SR_14": 4.0, "Q_14": 5.0, "name": "MN VETERANS HOME MINNEAPOLIS", "SF_14": 5.0, "SF_15": 5.0, "cnty": "Hennepin", "st": "MN", "Zip": 55417.0, "O_14": 5.0, "Q_15": 5.0, "O_15": 5.0, "city": "MINNEAPOLIS", "beds": 100.0, "SR_15": 4.0}, {"Diff_star": 0.0, "addr": "100 PROMENADE AVENUE", "SR_14": "", "Q_14": "", "name": "FOLKESTONE", "SF_14": "", "SF_15": "", "cnty": "Hennepin", "st": "MN", "Zip": 55391.0, "O_14": "", "Q_15": "", "O_15": "", "city": "WAYZATA", "beds": 30.0, "SR_15": ""}, {"Diff_star": 0.0, "addr": "5517 LYNDALE AVENUE SOUTH", "SR_14": 5.0, "Q_14": 4.0, "name": "MOUNT OLIVET HOME", "SF_14": 1.0, "SF_15": 1.0, "cnty": "Hennepin", "st": "MN", "Zip": 55419.0, "O_14": 4.0, "Q_15": 4.0, "O_15": 4.0, "city": "MINNEAPOLIS", "beds": 94.0, "SR_15": 5.0}, {"Diff_star": 0.0, "addr": "1215 SOUTH 9TH STREET", "SR_14": 4.0, "Q_14": 5.0, "name": "ANDREW RESIDENCE", "SF_14": 2.0, "SF_15": 2.0, "cnty": "Hennepin", "st": "MN", "Zip": 55404.0, "O_14": 5.0, "Q_15": 5.0, "O_15": 5.0, "city": "MINNEAPOLIS", "beds": 212.0, "SR_15": 4.0}, {"Diff_star": 0.0, "addr": "501 SECOND STREET SOUTHEAST", "SR_14": 2.0, "Q_14": 4.0, "name": "THE VILLA AT OSSEO", "SF_14": 1.0, "SF_15": 1.0, "cnty": "Hennepin", "st": "MN", "Zip": 55369.0, "O_14": 1.0, "Q_15": 2.0, "O_15": 1.0, "city": "OSSEO", "beds": 115.0, "SR_15": 2.0}, {"Diff_star": 0.0, "addr": "3956 GRAND AVENUE S0UTH", "SR_14": 4.0, "Q_14": 5.0, "name": "GRAND AVENUE REST HOME", "SF_14": "", "SF_15": "", "cnty": "Hennepin", "st": "MN", "Zip": 55409.0, "O_14": 5.0, "Q_15": 5.0, "O_15": 5.0, "city": "MINNEAPOLIS", "beds": 20.0, "SR_15": 4.0}, {"Diff_star": 0.0, "addr": "1500 ELLIOT AVENUE SOUTH", "SR_14": 2.0, "Q_14": 5.0, "name": "ELLIOT CARE HOME INC", "SF_14": 2.0, "SF_15": 2.0, "cnty": "Hennepin", "st": "MN", "Zip": 55404.0, "O_14": 3.0, "Q_15": 5.0, "O_15": 3.0, "city": "MINNEAPOLIS", "beds": 15.0, "SR_15": 2.0}, {"Diff_star": 0.0, "addr": "715 WEST 31ST STREET", "SR_14": 4.0, "Q_14": 5.0, "name": "BIRCHWOOD CARE HOME", "SF_14": "", "SF_15": "", "cnty": "Hennepin", "st": "MN", "Zip": 55408.0, "O_14": 5.0, "Q_15": 5.0, "O_15": 5.0, "city": "MINNEAPOLIS", "beds": 60.0, "SR_15": 4.0}, {"Diff_star": -1.0, "addr": "3427 CENTRAL AVENUE NORTHEAST", "SR_14": 1.0, "Q_14": 5.0, "name": "BYWOOD EAST HEALTH CARE", "SF_14": 2.0, "SF_15": 2.0, "cnty": "Hennepin", "st": "MN", "Zip": 55418.0, "O_14": 2.0, "Q_15": 4.0, "O_15": 1.0, "city": "MINNEAPOLIS", "beds": 101.0, "SR_15": 1.0}, {"Diff_star": 0.0, "addr": "510 WEST COLLEGE STREET", "SR_14": 1.0, "Q_14": 5.0, "name": "AFTENRO HOME", "SF_14": 2.0, "SF_15": 2.0, "cnty": "St. Louis", "st": "MN", "Zip": 55811.0, "O_14": 2.0, "Q_15": 5.0, "O_15": 2.0, "city": "DULUTH", "beds": 54.0, "SR_15": 1.0}, {"Diff_star": -1.0, "addr": "2644 ALDRICH AVENUE SOUTH", "SR_14": 2.0, "Q_14": 5.0, "name": "SOUTHSIDE CARE CENTER", "SF_14": "", "SF_15": "", "cnty": "Hennepin", "st": "MN", "Zip": 55408.0, "O_14": 3.0, "Q_15": 4.0, "O_15": 2.0, "city": "MINNEAPOLIS", "beds": 17.0, "SR_15": 2.0}, {"Diff_star": -1.0, "addr": "1620 RANDOLPH AVENUE", "SR_14": 1.0, "Q_14": 5.0, "name": "HAYES RESIDENCE", "SF_14": 1.0, "SF_15": 1.0, "cnty": "Ramsey", "st": "MN", "Zip": 55105.0, "O_14": 2.0, "Q_15": 4.0, "O_15": 1.0, "city": "SAINT PAUL", "beds": 40.0, "SR_15": 1.0}]