[{"Diff_star": -1.0, "addr": "55 HARRIS ROAD", "SR_14": 3.0, "Q_14": 4.0, "name": "KINDRED TRANSITIONAL CARE & REHABILITATION-GREENBR", "SF_14": 4.0, "SF_15": 3.0, "cnty": "Hillsborough", "st": "NH", "Zip": 3062.0, "O_14": 4.0, "Q_15": 3.0, "O_15": 3.0, "city": "NASHUA", "beds": 290.0, "SR_15": 3.0}, {"Diff_star": 0.0, "addr": "700 HANOVER STREET", "SR_14": 5.0, "Q_14": 5.0, "name": "HANOVER HILL HEALTH CARE CENTER", "SF_14": 4.0, "SF_15": 3.0, "cnty": "Hillsborough", "st": "NH", "Zip": 3104.0, "O_14": 5.0, "Q_15": 5.0, "O_15": 5.0, "city": "MANCHESTER", "beds": 124.0, "SR_15": 5.0}, {"Diff_star": 0.0, "addr": "33 CHRISTIAN AVENUE", "SR_14": 4.0, "Q_14": 5.0, "name": "HAVENWOOD-HERITAGE HEIGHTS", "SF_14": 5.0, "SF_15": 5.0, "cnty": "Merrimack", "st": "NH", "Zip": 3301.0, "O_14": 5.0, "Q_15": 4.0, "O_15": 5.0, "city": "CONCORD", "beds": 70.0, "SR_15": 4.0}, {"Diff_star": -1.0, "addr": "307 PLAZA DRIVE", "SR_14": 1.0, "Q_14": 3.0, "name": "DOVER CENTER FOR HEALTH & REHABILITATION", "SF_14": 4.0, "SF_15": 3.0, "cnty": "Strafford", "st": "NH", "Zip": 3820.0, "O_14": 2.0, "Q_15": 2.0, "O_15": 1.0, "city": "DOVER", "beds": 112.0, "SR_15": 1.0}, {"Diff_star": 0.0, "addr": "49 LYME ROAD", "SR_14": 1.0, "Q_14": 4.0, "name": "HANOVER TERRACE HEALTH & REHABILITATION CENTER", "SF_14": 4.0, "SF_15": 4.0, "cnty": "Grafton", "st": "NH", "Zip": 3755.0, "O_14": 2.0, "Q_15": 2.0, "O_15": 2.0, "city": "HANOVER", "beds": 100.0, "SR_15": 1.0}, {"Diff_star": 0.0, "addr": "273 COUNTY ROAD", "SR_14": 1.0, "Q_14": 4.0, "name": "WILLIAM P CLOUGH EXTENDED CARE CENTER", "SF_14": 5.0, "SF_15": 5.0, "cnty": "Merrimack", "st": "NH", "Zip": 3257.0, "O_14": 2.0, "Q_15": 3.0, "O_15": 2.0, "city": "NEW LONDON", "beds": 56.0, "SR_15": 1.0}, {"Diff_star": 0.0, "addr": "928 SOUTH STREET", "SR_14": 4.0, "Q_14": 4.0, "name": "EDGEWOOD CENTRE (THE)", "SF_14": 5.0, "SF_15": 5.0, "cnty": "Rockingham", "st": "NH", "Zip": 3801.0, "O_14": 5.0, "Q_15": 3.0, "O_15": 5.0, "city": "PORTSMOUTH", "beds": 156.0, "SR_15": 4.0}, {"Diff_star": -1.0, "addr": "40 WHITEHALL ROAD", "SR_14": 3.0, "Q_14": 5.0, "name": "ROCHESTER MANOR", "SF_14": 3.0, "SF_15": 3.0, "cnty": "Strafford", "st": "NH", "Zip": 3867.0, "O_14": 4.0, "Q_15": 3.0, "O_15": 3.0, "city": "ROCHESTER", "beds": 108.0, "SR_15": 3.0}, {"Diff_star": 0.0, "addr": "1 VERNEY DRIVE", "SR_14": 1.0, "Q_14": 4.0, "name": "CROTCHED MOUNTAIN REHABILITATION CENTER", "SF_14": "", "SF_15": "", "cnty": "Hillsborough", "st": "NH", "Zip": 3047.0, "O_14": 1.0, "Q_15": 4.0, "O_15": 1.0, "city": "GREENFIELD", "beds": 62.0, "SR_15": 1.0}, {"Diff_star": 0.0, "addr": "198 PEARL STREET", "SR_14": 4.0, "Q_14": 5.0, "name": "MAPLE LEAF HEALTH CARE CENTER", "SF_14": 4.0, "SF_15": 4.0, "cnty": "Hillsborough", "st": "NH", "Zip": 3104.0, "O_14": 5.0, "Q_15": 5.0, "O_15": 5.0, "city": "MANCHESTER", "beds": 114.0, "SR_15": 4.0}, {"Diff_star": 0.0, "addr": "22 HUNT STREET", "SR_14": 5.0, "Q_14": 5.0, "name": "COURVILLE AT NASHUA", "SF_14": 4.0, "SF_15": 4.0, "cnty": "Hillsborough", "st": "NH", "Zip": 3060.0, "O_14": 5.0, "Q_15": 5.0, "O_15": 5.0, "city": "NASHUA", "beds": 100.0, "SR_15": 5.0}, {"Diff_star": 0.0, "addr": "191 HACKETT HILL ROAD", "SR_14": 1.0, "Q_14": 5.0, "name": "HACKETT HILL HEALTHCARE CENTER", "SF_14": 4.0, "SF_15": 3.0, "cnty": "Hillsborough", "st": "NH", "Zip": 3102.0, "O_14": 2.0, "Q_15": 5.0, "O_15": 2.0, "city": "MANCHESTER", "beds": 68.0, "SR_15": 1.0}, {"Diff_star": -2.0, "addr": "8 PEABODY ROAD", "SR_14": 3.0, "Q_14": 5.0, "name": "PLEASANT VALLEY NURSING CENTER", "SF_14": 4.0, "SF_15": 4.0, "cnty": "Rockingham", "st": "NH", "Zip": 3038.0, "O_14": 5.0, "Q_15": 4.0, "O_15": 3.0, "city": "DERRY", "beds": 112.0, "SR_15": 2.0}, {"Diff_star": 0.0, "addr": "175 BLUEBERRY LANE", "SR_14": 3.0, "Q_14": 4.0, "name": "LACONIA CENTER, GENESIS HEALTHCARE", "SF_14": 4.0, "SF_15": 4.0, "cnty": "Belknap", "st": "NH", "Zip": 3246.0, "O_14": 4.0, "Q_15": 4.0, "O_15": 4.0, "city": "LACONIA", "beds": 120.0, "SR_15": 3.0}, {"Diff_star": 0.0, "addr": "290 HANOVER STREET", "SR_14": 2.0, "Q_14": 3.0, "name": "ELM WOOD CENTER AT CLAREMONT", "SF_14": 1.0, "SF_15": 1.0, "cnty": "Sullivan", "st": "NH", "Zip": 3743.0, "O_14": 1.0, "Q_15": 1.0, "O_15": 1.0, "city": "CLAREMONT", "beds": 68.0, "SR_15": 2.0}, {"Diff_star": 0.0, "addr": "80 LYME ROAD", "SR_14": 5.0, "Q_14": "", "name": "KENDAL AT HANOVER", "SF_14": "", "SF_15": "", "cnty": "Grafton", "st": "NH", "Zip": 3755.0, "O_14": 5.0, "Q_15": "", "O_15": 5.0, "city": "HANOVER", "beds": 5.0, "SR_15": 5.0}, {"Diff_star": 0.0, "addr": "21 SEARLES ROAD", "SR_14": 4.0, "Q_14": 5.0, "name": "WARDE HEALTH CENTER", "SF_14": 5.0, "SF_15": 5.0, "cnty": "Rockingham", "st": "NH", "Zip": 3087.0, "O_14": 5.0, "Q_15": 5.0, "O_15": 5.0, "city": "WINDHAM", "beds": 28.0, "SR_15": 4.0}, {"Diff_star": 0.0, "addr": "19 NH ROUTE 104", "SR_14": 3.0, "Q_14": 5.0, "name": "GOLDEN VIEW HEALTH CARE CENTER", "SF_14": 5.0, "SF_15": 5.0, "cnty": "Belknap", "st": "NH", "Zip": 3253.0, "O_14": 5.0, "Q_15": 5.0, "O_15": 5.0, "city": "MEREDITH", "beds": 131.0, "SR_15": 3.0}, {"Diff_star": -1.0, "addr": "239 PLEASANT STREET", "SR_14": 2.0, "Q_14": 4.0, "name": "PLEASANT VIEW CENTER, GENESIS HEALTHCARE", "SF_14": 4.0, "SF_15": 4.0, "cnty": "Merrimack", "st": "NH", "Zip": 3301.0, "O_14": 3.0, "Q_15": 2.0, "O_15": 2.0, "city": "CONCORD", "beds": 176.0, "SR_15": 1.0}, {"Diff_star": -1.0, "addr": "117 NORTH ROAD", "SR_14": 2.0, "Q_14": 5.0, "name": "ROCKINGHAM COUNTY NURSING HOME", "SF_14": 5.0, "SF_15": 5.0, "cnty": "Rockingham", "st": "NH", "Zip": 3833.0, "O_14": 4.0, "Q_15": 4.0, "O_15": 3.0, "city": "BRENTWOOD", "beds": 226.0, "SR_15": 2.0}, {"Diff_star": 0.0, "addr": "276 COUNTY FARM ROAD", "SR_14": 3.0, "Q_14": 3.0, "name": "RIVERSIDE REST HOME", "SF_14": 4.0, "SF_15": 4.0, "cnty": "Strafford", "st": "NH", "Zip": 3820.0, "O_14": 4.0, "Q_15": 2.0, "O_15": 4.0, "city": "DOVER", "beds": 215.0, "SR_15": 3.0}, {"Diff_star": -1.0, "addr": "400 MAST ROAD", "SR_14": 4.0, "Q_14": 5.0, "name": "HILLSBOROUGH COUNTY NURSING HOME", "SF_14": 4.0, "SF_15": 4.0, "cnty": "Hillsborough", "st": "NH", "Zip": 3045.0, "O_14": 5.0, "Q_15": 4.0, "O_15": 4.0, "city": "GOFFSTOWN", "beds": 300.0, "SR_15": 4.0}, {"Diff_star": 0.0, "addr": "7 RIVERWOODS DRIVE", "SR_14": 4.0, "Q_14": 5.0, "name": "RIVERWOODS AT EXETER", "SF_14": 5.0, "SF_15": 5.0, "cnty": "Rockingham", "st": "NH", "Zip": 3833.0, "O_14": 5.0, "Q_15": 5.0, "O_15": 5.0, "city": "EXETER", "beds": 78.0, "SR_15": 4.0}, {"Diff_star": -1.0, "addr": "RR #1 BOX 13K,  24 OLD ETNA ROAD", "SR_14": 2.0, "Q_14": 5.0, "name": "LEBANON CENTER, GENESIS HEALTHCARE", "SF_14": 2.0, "SF_15": 2.0, "cnty": "Grafton", "st": "NH", "Zip": 3766.0, "O_14": 3.0, "Q_15": 3.0, "O_15": 2.0, "city": "LEBANON", "beds": 110.0, "SR_15": 2.0}, {"Diff_star": 0.0, "addr": "677 COURT STREET", "SR_14": 3.0, "Q_14": 5.0, "name": "KEENE  CENTER, GENESIS HEALTHCARE", "SF_14": 3.0, "SF_15": 3.0, "cnty": "Cheshire", "st": "NH", "Zip": 3431.0, "O_14": 4.0, "Q_15": 5.0, "O_15": 4.0, "city": "KEENE", "beds": 106.0, "SR_15": 3.0}, {"Diff_star": 0.0, "addr": "25 RIDGEWOOD ROAD", "SR_14": 2.0, "Q_14": 4.0, "name": "RIDGEWOOD CENTER, GENESIS HEALTHCARE", "SF_14": 3.0, "SF_15": 3.0, "cnty": "Hillsborough", "st": "NH", "Zip": 3110.0, "O_14": 2.0, "Q_15": 2.0, "O_15": 2.0, "city": "BEDFORD", "beds": 150.0, "SR_15": 2.0}, {"Diff_star": 0.0, "addr": "3855 DARTMOUTH COLLEGE HIGHWAY", "SR_14": 4.0, "Q_14": 5.0, "name": "GRAFTON COUNTY NURSING HOME", "SF_14": 5.0, "SF_15": 5.0, "cnty": "Grafton", "st": "NH", "Zip": 3774.0, "O_14": 5.0, "Q_15": 4.0, "O_15": 5.0, "city": "NORTH HAVERHILL", "beds": 135.0, "SR_15": 4.0}, {"Diff_star": 0.0, "addr": "201 RIVER ROAD", "SR_14": 3.0, "Q_14": 5.0, "name": "CHESHIRE COUNTY HOME", "SF_14": 5.0, "SF_15": 5.0, "cnty": "Cheshire", "st": "NH", "Zip": 3467.0, "O_14": 5.0, "Q_15": 5.0, "O_15": 5.0, "city": "WESTMORELAND", "beds": 150.0, "SR_15": 3.0}, {"Diff_star": -1.0, "addr": "22 TUCK ROAD", "SR_14": 4.0, "Q_14": 3.0, "name": "OCEANSIDE SKILLED NURSING AND REHABILITATION", "SF_14": 3.0, "SF_15": 3.0, "cnty": "Rockingham", "st": "NH", "Zip": 3842.0, "O_14": 4.0, "Q_15": 1.0, "O_15": 3.0, "city": "HAMPTON", "beds": 117.0, "SR_15": 4.0}, {"Diff_star": 0.0, "addr": "325 DANIEL WEBSTER HIGHWAY", "SR_14": 4.0, "Q_14": 5.0, "name": "MERRIMACK COUNTY NURSING HOME", "SF_14": 5.0, "SF_15": 5.0, "cnty": "Merrimack", "st": "NH", "Zip": 3303.0, "O_14": 5.0, "Q_15": 5.0, "O_15": 5.0, "city": "BOSCAWEN", "beds": 290.0, "SR_15": 4.0}, {"Diff_star": 0.0, "addr": "44 WEST WEBSTER STREET", "SR_14": 5.0, "Q_14": 5.0, "name": "COURVILLE AT MANCHESTER", "SF_14": 5.0, "SF_15": 5.0, "cnty": "Hillsborough", "st": "NH", "Zip": 3104.0, "O_14": 5.0, "Q_15": 5.0, "O_15": 5.0, "city": "MANCHESTER", "beds": 70.0, "SR_15": 5.0}, {"Diff_star": 0.0, "addr": "23 GEREMONTY DRIVE", "SR_14": 4.0, "Q_14": 4.0, "name": "SALEMHAVEN", "SF_14": 4.0, "SF_15": 4.0, "cnty": "Rockingham", "st": "NH", "Zip": 3079.0, "O_14": 4.0, "Q_15": 3.0, "O_15": 4.0, "city": "SALEM", "beds": 110.0, "SR_15": 4.0}, {"Diff_star": 0.0, "addr": "50 PHEASANT ROAD", "SR_14": 1.0, "Q_14": 4.0, "name": "PHEASANT WOOD CENTER", "SF_14": "", "SF_15": "", "cnty": "Hillsborough", "st": "NH", "Zip": 3458.0, "O_14": 1.0, "Q_15": 3.0, "O_15": 1.0, "city": "PETERBOROUGH", "beds": 99.0, "SR_15": 1.0}, {"Diff_star": 0.0, "addr": "30 COLBY COURT", "SR_14": 2.0, "Q_14": 4.0, "name": "BEDFORD HILLS CENTER", "SF_14": 2.0, "SF_15": 2.0, "cnty": "Hillsborough", "st": "NH", "Zip": 3110.0, "O_14": 2.0, "Q_15": 2.0, "O_15": 2.0, "city": "BEDFORD", "beds": 147.0, "SR_15": 2.0}, {"Diff_star": 0.0, "addr": "40 CROSBY STREET", "SR_14": 5.0, "Q_14": 5.0, "name": "CRESTWOOD CENTER", "SF_14": 3.0, "SF_15": 3.0, "cnty": "Hillsborough", "st": "NH", "Zip": 3055.0, "O_14": 5.0, "Q_15": 5.0, "O_15": 5.0, "city": "MILFORD", "beds": 82.0, "SR_15": 5.0}, {"Diff_star": 0.0, "addr": "298 MAIN STREET", "SR_14": 4.0, "Q_14": 1.0, "name": "WESTWOOD CENTER", "SF_14": 4.0, "SF_15": 4.0, "cnty": "Cheshire", "st": "NH", "Zip": 3431.0, "O_14": 3.0, "Q_15": 1.0, "O_15": 3.0, "city": "KEENE", "beds": 85.0, "SR_15": 4.0}, {"Diff_star": 0.0, "addr": "200 PLEASANT STREET", "SR_14": 2.0, "Q_14": 4.0, "name": "PRESIDENTIAL OAKS", "SF_14": 4.0, "SF_15": 4.0, "cnty": "Merrimack", "st": "NH", "Zip": 3301.0, "O_14": 3.0, "Q_15": 3.0, "O_15": 3.0, "city": "CONCORD", "beds": 85.0, "SR_15": 2.0}, {"Diff_star": -2.0, "addr": "8 HAMPTON ROAD", "SR_14": 2.0, "Q_14": 5.0, "name": "EXETER CENTER", "SF_14": 4.0, "SF_15": 3.0, "cnty": "Rockingham", "st": "NH", "Zip": 3833.0, "O_14": 4.0, "Q_15": 4.0, "O_15": 2.0, "city": "EXETER", "beds": 81.0, "SR_15": 2.0}, {"Diff_star": -1.0, "addr": "8 SNOW ROAD", "SR_14": 5.0, "Q_14": 2.0, "name": "APPLEWOOD CENTER", "SF_14": 4.0, "SF_15": 3.0, "cnty": "Cheshire", "st": "NH", "Zip": 3470.0, "O_14": 5.0, "Q_15": 1.0, "O_15": 4.0, "city": "WINCHESTER", "beds": 72.0, "SR_15": 5.0}, {"Diff_star": 0.0, "addr": "29 PROVIDENCE AVENUE", "SR_14": 2.0, "Q_14": 5.0, "name": "SAINT VINCENT DE PAUL REHABILITATION & NURSING CTR", "SF_14": 5.0, "SF_15": 5.0, "cnty": "Coos", "st": "NH", "Zip": 3570.0, "O_14": 4.0, "Q_15": 5.0, "O_15": 4.0, "city": "BERLIN", "beds": 80.0, "SR_15": 2.0}, {"Diff_star": 0.0, "addr": "235 MYRTLE STREET", "SR_14": 2.0, "Q_14": 5.0, "name": "MOUNT CARMEL REHABILITATION AND NURSING CENTER", "SF_14": 4.0, "SF_15": 4.0, "cnty": "Hillsborough", "st": "NH", "Zip": 3104.0, "O_14": 4.0, "Q_15": 5.0, "O_15": 4.0, "city": "MANCHESTER", "beds": 122.0, "SR_15": 2.0}, {"Diff_star": 0.0, "addr": "71 ELM STREET", "SR_14": 2.0, "Q_14": 5.0, "name": "THE ELMS CENTER", "SF_14": 2.0, "SF_15": 2.0, "cnty": "Hillsborough", "st": "NH", "Zip": 3055.0, "O_14": 3.0, "Q_15": 5.0, "O_15": 3.0, "city": "MILFORD", "beds": 52.0, "SR_15": 2.0}, {"Diff_star": 0.0, "addr": "195 DOVER POINT ROAD", "SR_14": 4.0, "Q_14": 3.0, "name": "SAINT ANN REHABILITATION AND NURSING CENTER", "SF_14": 4.0, "SF_15": 4.0, "cnty": "Strafford", "st": "NH", "Zip": 3820.0, "O_14": 4.0, "Q_15": 2.0, "O_15": 4.0, "city": "DOVER", "beds": 54.0, "SR_15": 4.0}, {"Diff_star": 0.0, "addr": "406 COURT STREET", "SR_14": 2.0, "Q_14": 4.0, "name": "SAINT FRANCIS REHABILITATION AND NURSING CENTER", "SF_14": 4.0, "SF_15": 4.0, "cnty": "Belknap", "st": "NH", "Zip": 3246.0, "O_14": 3.0, "Q_15": 3.0, "O_15": 3.0, "city": "LACONIA", "beds": 51.0, "SR_15": 2.0}, {"Diff_star": 0.0, "addr": "519 BRIDGE STREET", "SR_14": 3.0, "Q_14": 5.0, "name": "SAINT TERESA REHABILITATION AND NURSING CENTER", "SF_14": 4.0, "SF_15": 4.0, "cnty": "Hillsborough", "st": "NH", "Zip": 3104.0, "O_14": 5.0, "Q_15": 5.0, "O_15": 5.0, "city": "MANCHESTER", "beds": 51.0, "SR_15": 3.0}, {"Diff_star": 0.0, "addr": "20 PLANTATION DRIVE", "SR_14": 4.0, "Q_14": 4.0, "name": "GOOD SHEPHERD REHABILITATION AND NURSING CENTER", "SF_14": 3.0, "SF_15": 3.0, "cnty": "Cheshire", "st": "NH", "Zip": 3452.0, "O_14": 4.0, "Q_15": 4.0, "O_15": 4.0, "city": "JAFFREY", "beds": 83.0, "SR_15": 4.0}, {"Diff_star": 0.0, "addr": "357 ISLAND POND ROAD", "SR_14": 2.0, "Q_14": 5.0, "name": "HOLY CROSS HEALTH CENTER", "SF_14": 4.0, "SF_15": 4.0, "cnty": "Hillsborough", "st": "NH", "Zip": 3109.0, "O_14": 4.0, "Q_15": 4.0, "O_15": 4.0, "city": "MANCHESTER", "beds": 40.0, "SR_15": 3.0}, {"Diff_star": 0.0, "addr": "7 BALDWIN STREET", "SR_14": 4.0, "Q_14": 4.0, "name": "MOUNTAIN RIDGE CENTER, GENESIS HEALTHCARE", "SF_14": 3.0, "SF_15": 3.0, "cnty": "Merrimack", "st": "NH", "Zip": 3235.0, "O_14": 4.0, "Q_15": 3.0, "O_15": 4.0, "city": "FRANKLIN", "beds": 86.0, "SR_15": 4.0}, {"Diff_star": -1.0, "addr": "91 COUNTRY VILLAGE ROAD", "SR_14": 2.0, "Q_14": 4.0, "name": "COUNTRY VILLAGE CENTER, GENESIS HEALTHCARE", "SF_14": 4.0, "SF_15": 3.0, "cnty": "Coos", "st": "NH", "Zip": 3584.0, "O_14": 3.0, "Q_15": 2.0, "O_15": 2.0, "city": "LANCASTER", "beds": 86.0, "SR_15": 2.0}, {"Diff_star": 0.0, "addr": "93 MAIN STREET", "SR_14": 1.0, "Q_14": 4.0, "name": "LAFAYETTE CENTER, GENESIS HEALTHCARE", "SF_14": 4.0, "SF_15": 4.0, "cnty": "Grafton", "st": "NH", "Zip": 3580.0, "O_14": 2.0, "Q_15": 4.0, "O_15": 2.0, "city": "FRANCONIA", "beds": 72.0, "SR_15": 1.0}, {"Diff_star": 0.0, "addr": "20 MAITLAND STREET", "SR_14": 2.0, "Q_14": 4.0, "name": "HARRIS HILL CENTER, GENESIS HEALTHCARE", "SF_14": 4.0, "SF_15": 4.0, "cnty": "Merrimack", "st": "NH", "Zip": 3301.0, "O_14": 3.0, "Q_15": 3.0, "O_15": 3.0, "city": "CONCORD", "beds": 78.0, "SR_15": 2.0}, {"Diff_star": 0.0, "addr": "1276 HANOVER STREET", "SR_14": 5.0, "Q_14": 5.0, "name": "VILLA CREST", "SF_14": 4.0, "SF_15": 4.0, "cnty": "Hillsborough", "st": "NH", "Zip": 3104.0, "O_14": 5.0, "Q_15": 5.0, "O_15": 5.0, "city": "MANCHESTER", "beds": 126.0, "SR_15": 5.0}, {"Diff_star": 0.0, "addr": "901 SUNCOOK VALLEY HIGHWAY", "SR_14": 4.0, "Q_14": 5.0, "name": "EPSOM HEALTHCARE CENTER", "SF_14": 4.0, "SF_15": 3.0, "cnty": "Merrimack", "st": "NH", "Zip": 3234.0, "O_14": 5.0, "Q_15": 5.0, "O_15": 5.0, "city": "EPSOM", "beds": 108.0, "SR_15": 4.0}, {"Diff_star": 0.0, "addr": "62 ROCHESTER HILL ROAD", "SR_14": 3.0, "Q_14": 4.0, "name": "COLONIAL HILL CENTER", "SF_14": 2.0, "SF_15": 2.0, "cnty": "Strafford", "st": "NH", "Zip": 3867.0, "O_14": 3.0, "Q_15": 3.0, "O_15": 3.0, "city": "ROCHESTER", "beds": 79.0, "SR_15": 3.0}, {"Diff_star": -1.0, "addr": "188 JONES AVENUE", "SR_14": 4.0, "Q_14": 3.0, "name": "CLIPPER HARBOR", "SF_14": 4.0, "SF_15": 4.0, "cnty": "Rockingham", "st": "NH", "Zip": 3801.0, "O_14": 4.0, "Q_15": 1.0, "O_15": 3.0, "city": "PORTSMOUTH", "beds": 102.0, "SR_15": 4.0}, {"Diff_star": 0.0, "addr": "39 CLIPPER DRIVE", "SR_14": 2.0, "Q_14": 3.0, "name": "WOLFEBORO BAY CENTER", "SF_14": 2.0, "SF_15": 2.0, "cnty": "Carroll", "st": "NH", "Zip": 3894.0, "O_14": 2.0, "Q_15": 2.0, "O_15": 2.0, "city": "WOLFEBORO", "beds": 104.0, "SR_15": 2.0}, {"Diff_star": -1.0, "addr": "1251 WHITE MOUNTAIN HIGHWAY", "SR_14": 1.0, "Q_14": 3.0, "name": "MINERAL SPRINGS", "SF_14": 4.0, "SF_15": 3.0, "cnty": "Carroll", "st": "NH", "Zip": 3860.0, "O_14": 2.0, "Q_15": 1.0, "O_15": 1.0, "city": "NORTH CONWAY", "beds": 87.0, "SR_15": 1.0}, {"Diff_star": 0.0, "addr": "136 A ARCH STREET", "SR_14": 4.0, "Q_14": 2.0, "name": "LANGDON PLACE OF KEENE", "SF_14": 4.0, "SF_15": 5.0, "cnty": "Cheshire", "st": "NH", "Zip": 3431.0, "O_14": 4.0, "Q_15": 2.0, "O_15": 4.0, "city": "KEENE", "beds": 25.0, "SR_15": 3.0}, {"Diff_star": 0.0, "addr": "480 DONALD STREET", "SR_14": 1.0, "Q_14": 4.0, "name": "BEDFORD NURSING & REHABILITATION CENTER", "SF_14": 4.0, "SF_15": 4.0, "cnty": "Hillsborough", "st": "NH", "Zip": 3110.0, "O_14": 2.0, "Q_15": 2.0, "O_15": 2.0, "city": "BEDFORD", "beds": 102.0, "SR_15": 1.0}, {"Diff_star": 0.0, "addr": "93 WATER VILLAGE ROAD", "SR_14": 2.0, "Q_14": 4.0, "name": "MOUNTAIN VIEW NURSING HOME", "SF_14": 4.0, "SF_15": 4.0, "cnty": "Carroll", "st": "NH", "Zip": 3864.0, "O_14": 3.0, "Q_15": 2.0, "O_15": 3.0, "city": "OSSIPEE", "beds": 103.0, "SR_15": 2.0}, {"Diff_star": 0.0, "addr": "495 MAMMOTH RD", "SR_14": 4.0, "Q_14": 5.0, "name": "ST JOSEPH RESIDENCE", "SF_14": 5.0, "SF_15": 5.0, "cnty": "Hillsborough", "st": "NH", "Zip": 3104.0, "O_14": 5.0, "Q_15": 5.0, "O_15": 5.0, "city": "MANCHESTER", "beds": 22.0, "SR_15": 4.0}, {"Diff_star": -1.0, "addr": "60 MIDDLE ROAD", "SR_14": 2.0, "Q_14": 4.0, "name": "LANGDON PLACE OF DOVER", "SF_14": 4.0, "SF_15": 4.0, "cnty": "Strafford", "st": "NH", "Zip": 3820.0, "O_14": 3.0, "Q_15": 1.0, "O_15": 2.0, "city": "DOVER", "beds": 30.0, "SR_15": 2.0}, {"Diff_star": -1.0, "addr": "442 MAIN STREET", "SR_14": 3.0, "Q_14": 5.0, "name": "COLONIAL POPLIN NURSING HOME", "SF_14": 2.0, "SF_15": 2.0, "cnty": "Rockingham", "st": "NH", "Zip": 3044.0, "O_14": 4.0, "Q_15": 4.0, "O_15": 3.0, "city": "FREMONT", "beds": 50.0, "SR_15": 3.0}, {"Diff_star": 0.0, "addr": "PO BOX 400 67 SCHOOL STREET", "SR_14": 3.0, "Q_14": 5.0, "name": "HILLSBORO HOUSE NURSING HOME", "SF_14": 4.0, "SF_15": 4.0, "cnty": "Hillsborough", "st": "NH", "Zip": 3244.0, "O_14": 5.0, "Q_15": 5.0, "O_15": 5.0, "city": "HILLSBORO", "beds": 33.0, "SR_15": 3.0}, {"Diff_star": 0.0, "addr": "5 NURSING HOME DRIVE", "SR_14": 3.0, "Q_14": 4.0, "name": "SULLIVAN COUNTY HEALTH CARE", "SF_14": 4.0, "SF_15": 4.0, "cnty": "Sullivan", "st": "NH", "Zip": 3743.0, "O_14": 4.0, "Q_15": 2.0, "O_15": 4.0, "city": "UNITY", "beds": 156.0, "SR_15": 3.0}, {"Diff_star": 0.0, "addr": "6 TERRACE STREET", "SR_14": 4.0, "Q_14": 5.0, "name": "MORRISON NURSING HOME", "SF_14": 5.0, "SF_15": 5.0, "cnty": "Coos", "st": "NH", "Zip": 3598.0, "O_14": 5.0, "Q_15": 4.0, "O_15": 5.0, "city": "WHITEFIELD", "beds": 57.0, "SR_15": 4.0}, {"Diff_star": -1.0, "addr": "20 CHESTER ROAD", "SR_14": 2.0, "Q_14": 3.0, "name": "AURORA SENIOR LIVING OF DERRY, LLC", "SF_14": 3.0, "SF_15": 3.0, "cnty": "Rockingham", "st": "NH", "Zip": 3038.0, "O_14": 2.0, "Q_15": 1.0, "O_15": 1.0, "city": "DERRY", "beds": 62.0, "SR_15": 2.0}, {"Diff_star": 0.0, "addr": "29 CENTER STREET", "SR_14": 5.0, "Q_14": 4.0, "name": "BEL-AIR NURSING AND REHAB CENTER INC", "SF_14": 4.0, "SF_15": 4.0, "cnty": "Hillsborough", "st": "NH", "Zip": 3045.0, "O_14": 5.0, "Q_15": 3.0, "O_15": 5.0, "city": "GOFFSTOWN", "beds": 35.0, "SR_15": 5.0}, {"Diff_star": 1.0, "addr": "84 PINE STREET", "SR_14": 4.0, "Q_14": 4.0, "name": "WOODLAWN CARE CENTER", "SF_14": 4.0, "SF_15": 4.0, "cnty": "Sullivan", "st": "NH", "Zip": 3773.0, "O_14": 4.0, "Q_15": 5.0, "O_15": 5.0, "city": "NEWPORT", "beds": 53.0, "SR_15": 4.0}, {"Diff_star": 0.0, "addr": "795 WASHINGTON ROAD", "SR_14": 1.0, "Q_14": 5.0, "name": "WEBSTER AT RYE", "SF_14": 4.0, "SF_15": 4.0, "cnty": "Rockingham", "st": "NH", "Zip": 3870.0, "O_14": 2.0, "Q_15": 5.0, "O_15": 2.0, "city": "RYE", "beds": 61.0, "SR_15": 1.0}, {"Diff_star": -1.0, "addr": "203 LOWELL ROAD", "SR_14": 1.0, "Q_14": 3.0, "name": "FAIRVIEW NURSING HOME", "SF_14": 4.0, "SF_15": 4.0, "cnty": "Hillsborough", "st": "NH", "Zip": 3051.0, "O_14": 2.0, "Q_15": 1.0, "O_15": 1.0, "city": "HUDSON", "beds": 101.0, "SR_15": 1.0}, {"Diff_star": -1.0, "addr": "30 COUNTY DRIVE", "SR_14": 4.0, "Q_14": 5.0, "name": "BELKNAP COUNTY NURSING HOME", "SF_14": 4.0, "SF_15": 4.0, "cnty": "Belknap", "st": "NH", "Zip": 3246.0, "O_14": 5.0, "Q_15": 4.0, "O_15": 4.0, "city": "LACONIA", "beds": 94.0, "SR_15": 4.0}, {"Diff_star": 0.0, "addr": "364 CATES HILL RD  PO BOX 416", "SR_14": 5.0, "Q_14": 5.0, "name": "COOS COUNTY NURSING HOME", "SF_14": 5.0, "SF_15": 5.0, "cnty": "Coos", "st": "NH", "Zip": 3570.0, "O_14": 5.0, "Q_15": 5.0, "O_15": 5.0, "city": "BERLIN", "beds": 100.0, "SR_15": 5.0}, {"Diff_star": -1.0, "addr": "393 HIGH STREET", "SR_14": 3.0, "Q_14": 5.0, "name": "GLENCLIFF HOME FOR THE ELDERLY", "SF_14": 5.0, "SF_15": 5.0, "cnty": "Grafton", "st": "NH", "Zip": 3238.0, "O_14": 5.0, "Q_15": 3.0, "O_15": 4.0, "city": "GLENCLIFF", "beds": 130.0, "SR_15": 3.0}, {"Diff_star": 0.0, "addr": "3073 WHITE MOUNTAIN HIGHWAY", "SR_14": 5.0, "Q_14": 4.0, "name": "MERRIMAN HOUSE", "SF_14": 5.0, "SF_15": 5.0, "cnty": "Carroll", "st": "NH", "Zip": 3860.0, "O_14": 5.0, "Q_15": 3.0, "O_15": 5.0, "city": "NORTH CONWAY", "beds": 45.0, "SR_15": 5.0}, {"Diff_star": 0.0, "addr": "136 COUNTY FARM ROAD", "SR_14": 3.0, "Q_14": 4.0, "name": "COOS COUNTY NURSING HOSPITAL", "SF_14": 5.0, "SF_15": 5.0, "cnty": "Coos", "st": "NH", "Zip": 3597.0, "O_14": 4.0, "Q_15": 3.0, "O_15": 4.0, "city": "WEST STEWARTSTOWN", "beds": 97.0, "SR_15": 3.0}]