[{"Diff_star": 0.0, "addr": "855 6TH STREET", "SR_14": 5.0, "Q_14": 5.0, "name": "PERSHING GENERAL HOSPITAL SNF", "SF_14": 5.0, "SF_15": 5.0, "cnty": "Pershing", "st": "NV", "Zip": 89419.0, "O_14": 5.0, "Q_15": 5.0, "O_15": 5.0, "city": "LOVELOCK", "beds": 25.0, "SR_15": 5.0}, {"Diff_star": 0.0, "addr": "1ST AND A ST/ PO BOX 1510", "SR_14": 4.0, "Q_14": 1.0, "name": "LEFA SERAN SNF", "SF_14": 4.0, "SF_15": 4.0, "cnty": "Mineral", "st": "NV", "Zip": 89415.0, "O_14": 3.0, "Q_15": 1.0, "O_15": 3.0, "city": "HAWTHORNE", "beds": 24.0, "SR_15": 4.0}, {"Diff_star": -1.0, "addr": "2832 S. MARYLAND PARKWAY", "SR_14": 2.0, "Q_14": 5.0, "name": "LAS VEGAS POST ACUTE & REHABILITATION", "SF_14": 4.0, "SF_15": 4.0, "cnty": "Clark", "st": "NV", "Zip": 89109.0, "O_14": 4.0, "Q_15": 3.0, "O_15": 3.0, "city": "LAS VEGAS", "beds": 79.0, "SR_15": 2.0}, {"Diff_star": 0.0, "addr": "5538 W DUNCAN DR", "SR_14": 2.0, "Q_14": 4.0, "name": "EL JEN CONVALESCENT HOSPITAL AND RETIREMENT CENTER", "SF_14": 3.0, "SF_15": 3.0, "cnty": "Clark", "st": "NV", "Zip": 89130.0, "O_14": 2.0, "Q_15": 3.0, "O_15": 2.0, "city": "LAS VEGAS", "beds": 144.0, "SR_15": 2.0}, {"Diff_star": 0.0, "addr": "P.O. BOX 940", "SR_14": 5.0, "Q_14": 5.0, "name": "SOUTH LYON MEDICAL CENTER", "SF_14": 5.0, "SF_15": 5.0, "cnty": "Lyon", "st": "NV", "Zip": 89447.0, "O_14": 5.0, "Q_15": 4.0, "O_15": 5.0, "city": "YERINGTON", "beds": 49.0, "SR_15": 5.0}, {"Diff_star": 0.0, "addr": "660 DESERT LN", "SR_14": 2.0, "Q_14": 4.0, "name": "HORIZON HEALTH AND REHABILITATION CENTER", "SF_14": 2.0, "SF_15": 2.0, "cnty": "Clark", "st": "NV", "Zip": 89106.0, "O_14": 2.0, "Q_15": 2.0, "O_15": 2.0, "city": "LAS VEGAS", "beds": 138.0, "SR_15": 2.0}, {"Diff_star": 0.0, "addr": "2045 SILVERADA BLVD", "SR_14": 3.0, "Q_14": 5.0, "name": "ROSEWOOD REHABILITATION CENTER", "SF_14": 5.0, "SF_15": 5.0, "cnty": "Washoe", "st": "NV", "Zip": 89512.0, "O_14": 5.0, "Q_15": 5.0, "O_15": 5.0, "city": "RENO", "beds": 99.0, "SR_15": 3.0}, {"Diff_star": 0.0, "addr": "2945 CASA VEGAS STREET", "SR_14": 2.0, "Q_14": 4.0, "name": "SOUTHERN NEVADA MEDICAL AND REHABILITATION CENTER", "SF_14": 4.0, "SF_15": 4.0, "cnty": "Clark", "st": "NV", "Zip": 89109.0, "O_14": 3.0, "Q_15": 3.0, "O_15": 3.0, "city": "LAS VEGAS", "beds": 100.0, "SR_15": 2.0}, {"Diff_star": 0.0, "addr": "2898 HIGHWAY 50 EAST", "SR_14": 3.0, "Q_14": 5.0, "name": "CARSON NURSING AND REHABILITATION CENTER", "SF_14": 2.0, "SF_15": 3.0, "cnty": "Carson City", "st": "NV", "Zip": 89701.0, "O_14": 4.0, "Q_15": 4.0, "O_15": 4.0, "city": "CARSON CITY", "beds": 73.0, "SR_15": 4.0}, {"Diff_star": 0.0, "addr": "118 EAST HASKELL ST", "SR_14": 5.0, "Q_14": 4.0, "name": "HARMONY MANOR SKILLED NURSING FACILITY", "SF_14": 5.0, "SF_15": 5.0, "cnty": "Humboldt", "st": "NV", "Zip": 89445.0, "O_14": 5.0, "Q_15": 5.0, "O_15": 5.0, "city": "WINNEMUCCA", "beds": 30.0, "SR_15": 5.0}, {"Diff_star": 0.0, "addr": "700 N SPRING ST, BOX 1010-C-ADM BLDG", "SR_14": 4.0, "Q_14": 4.0, "name": "GROVER C. DILS MEDICAL CENTER SNF", "SF_14": 5.0, "SF_15": 5.0, "cnty": "Lincoln", "st": "NV", "Zip": 89008.0, "O_14": 5.0, "Q_15": 5.0, "O_15": 5.0, "city": "CALIENTE", "beds": 16.0, "SR_15": 4.0}, {"Diff_star": 0.0, "addr": "1500 AVENUE G", "SR_14": 1.0, "Q_14": 3.0, "name": "WHITE PINE CARE CENTER", "SF_14": 2.0, "SF_15": 2.0, "cnty": "White Pine", "st": "NV", "Zip": 89301.0, "O_14": 1.0, "Q_15": 1.0, "O_15": 1.0, "city": "ELY", "beds": 97.0, "SR_15": 1.0}, {"Diff_star": -1.0, "addr": "1835 ODDIE BLVD", "SR_14": 3.0, "Q_14": 5.0, "name": "RENOWN SKILLED NURSING", "SF_14": 5.0, "SF_15": 5.0, "cnty": "Washoe", "st": "NV", "Zip": 89431.0, "O_14": 5.0, "Q_15": 4.0, "O_15": 4.0, "city": "SPARKS", "beds": 160.0, "SR_15": 3.0}, {"Diff_star": 0.0, "addr": "3215 E. CHEYENNE AVE.", "SR_14": 1.0, "Q_14": 4.0, "name": "NORTH LAS VEGAS CARE CENTER", "SF_14": 1.0, "SF_15": 1.0, "cnty": "Clark", "st": "NV", "Zip": 89030.0, "O_14": 1.0, "Q_15": 1.0, "O_15": 1.0, "city": "NORTH LAS VEGAS", "beds": 182.0, "SR_15": 1.0}, {"Diff_star": 0.0, "addr": "1180 E. LAKE MEAD DRIVE", "SR_14": 1.0, "Q_14": 4.0, "name": "LAKE MEAD HEALTH AND REHABILITATION CENTER", "SF_14": "", "SF_15": "", "cnty": "Clark", "st": "NV", "Zip": 89015.0, "O_14": 1.0, "Q_15": 2.0, "O_15": 1.0, "city": "HENDERSON", "beds": 266.0, "SR_15": 1.0}, {"Diff_star": -1.0, "addr": "2035 W. CHARLESTON BLVD.", "SR_14": 4.0, "Q_14": 5.0, "name": "ST JOSEPH TRANSITIONAL REHABILITATION CENTER", "SF_14": 3.0, "SF_15": 3.0, "cnty": "Clark", "st": "NV", "Zip": 89102.0, "O_14": 5.0, "Q_15": 5.0, "O_15": 4.0, "city": "LAS VEGAS", "beds": 100.0, "SR_15": 3.0}, {"Diff_star": 0.0, "addr": "100 DELMAR GARDENS DRIVE", "SR_14": 1.0, "Q_14": 4.0, "name": "DELMAR GARDENS OF GREEN VALLEY", "SF_14": 3.0, "SF_15": 3.0, "cnty": "Clark", "st": "NV", "Zip": 89014.0, "O_14": 1.0, "Q_15": 2.0, "O_15": 1.0, "city": "HENDERSON", "beds": 212.0, "SR_15": 1.0}, {"Diff_star": -1.0, "addr": "3101 PLUMAS", "SR_14": 3.0, "Q_14": 5.0, "name": "MANOR CARE HEALTH SERVICES", "SF_14": 4.0, "SF_15": 4.0, "cnty": "Washoe", "st": "NV", "Zip": 89509.0, "O_14": 5.0, "Q_15": 3.0, "O_15": 4.0, "city": "RENO", "beds": 189.0, "SR_15": 3.0}, {"Diff_star": 0.0, "addr": "1950 BARING BLVD", "SR_14": 4.0, "Q_14": 4.0, "name": "HEARTHSTONE OF NORTHERN NEVADA", "SF_14": 2.0, "SF_15": 2.0, "cnty": "Washoe", "st": "NV", "Zip": 89434.0, "O_14": 4.0, "Q_15": 3.0, "O_15": 4.0, "city": "SPARKS", "beds": 125.0, "SR_15": 4.0}, {"Diff_star": 0.0, "addr": "1701 S. TORREY PINES DRIVE", "SR_14": 1.0, "Q_14": 3.0, "name": "TORREY PINES POST ACUTE AND REHABILITATION", "SF_14": 3.0, "SF_15": 3.0, "cnty": "Clark", "st": "NV", "Zip": 89146.0, "O_14": 1.0, "Q_15": 1.0, "O_15": 1.0, "city": "LAS VEGAS", "beds": 95.0, "SR_15": 1.0}, {"Diff_star": -1.0, "addr": "901 ADAMS BLVD.", "SR_14": 4.0, "Q_14": 2.0, "name": "BOULDER CITY HOSPITAL SNF", "SF_14": 4.0, "SF_15": 3.0, "cnty": "Clark", "st": "NV", "Zip": 89005.0, "O_14": 4.0, "Q_15": 1.0, "O_15": 3.0, "city": "BOULDER CITY", "beds": 47.0, "SR_15": 4.0}, {"Diff_star": 1.0, "addr": "2170 EAST HARMON AVE", "SR_14": 4.0, "Q_14": 4.0, "name": "HARMON HOSPITAL - SNF", "SF_14": "", "SF_15": "", "cnty": "Clark", "st": "NV", "Zip": 89119.0, "O_14": 4.0, "Q_15": 5.0, "O_15": 5.0, "city": "LAS VEGAS", "beds": 2.0, "SR_15": 4.0}, {"Diff_star": 0.0, "addr": "445 W. HOLCOMB LANE", "SR_14": 4.0, "Q_14": 5.0, "name": "LIFE CARE CENTER OF RENO", "SF_14": 3.0, "SF_15": 3.0, "cnty": "Washoe", "st": "NV", "Zip": 89511.0, "O_14": 5.0, "Q_15": 5.0, "O_15": 5.0, "city": "RENO", "beds": 198.0, "SR_15": 4.0}, {"Diff_star": -1.0, "addr": "6151 VEGAS DRIVE", "SR_14": 1.0, "Q_14": 5.0, "name": "LIFE CARE CENTER OF LAS VEGAS", "SF_14": 3.0, "SF_15": 3.0, "cnty": "Clark", "st": "NV", "Zip": 89108.0, "O_14": 2.0, "Q_15": 3.0, "O_15": 1.0, "city": "LAS VEGAS", "beds": 239.0, "SR_15": 1.0}, {"Diff_star": -1.0, "addr": "2856 E. CHEYENNE AVE.", "SR_14": 3.0, "Q_14": 3.0, "name": "COLLEGE PARK REHABILITATION CENTER", "SF_14": 2.0, "SF_15": 2.0, "cnty": "Clark", "st": "NV", "Zip": 89030.0, "O_14": 3.0, "Q_15": 1.0, "O_15": 2.0, "city": "NORTH LAS VEGAS", "beds": 98.0, "SR_15": 3.0}, {"Diff_star": 0.0, "addr": "535 S. HUMBOLT STREET", "SR_14": 5.0, "Q_14": 5.0, "name": "BATTLE MOUNTAIN GENERAL HOSPITAL", "SF_14": 5.0, "SF_15": 5.0, "cnty": "Lander", "st": "NV", "Zip": 89820.0, "O_14": 5.0, "Q_15": 5.0, "O_15": 5.0, "city": "BATTLE MOUNTAIN", "beds": 18.0, "SR_15": 5.0}, {"Diff_star": -1.0, "addr": "3450 N BUFFALO DR", "SR_14": 2.0, "Q_14": 5.0, "name": "SILVER HILLS HEALTH CARE CENTER", "SF_14": 4.0, "SF_15": 4.0, "cnty": "Clark", "st": "NV", "Zip": 89129.0, "O_14": 4.0, "Q_15": 4.0, "O_15": 3.0, "city": "LAS VEGAS", "beds": 155.0, "SR_15": 2.0}, {"Diff_star": 1.0, "addr": "3050 N ORMSBY", "SR_14": 1.0, "Q_14": 4.0, "name": "ORMSBY POST ACUTE REHAB", "SF_14": 3.0, "SF_15": 3.0, "cnty": "Carson City", "st": "NV", "Zip": 89703.0, "O_14": 1.0, "Q_15": 2.0, "O_15": 2.0, "city": "CARSON CITY", "beds": 120.0, "SR_15": 2.0}, {"Diff_star": 0.0, "addr": "272 PIONEER BLVD", "SR_14": 2.0, "Q_14": 5.0, "name": "HIGHLAND MANOR OF MESQUITE", "SF_14": 4.0, "SF_15": 4.0, "cnty": "Clark", "st": "NV", "Zip": 89027.0, "O_14": 4.0, "Q_15": 5.0, "O_15": 4.0, "city": "MESQUITE", "beds": 112.0, "SR_15": 2.0}, {"Diff_star": -1.0, "addr": "6021 W. CHEYENNE AVE.", "SR_14": 2.0, "Q_14": 2.0, "name": "MARQUIS CARE PLAZA REGENCY", "SF_14": 4.0, "SF_15": 4.0, "cnty": "Clark", "st": "NV", "Zip": 89108.0, "O_14": 3.0, "Q_15": 1.0, "O_15": 2.0, "city": "LAS VEGAS", "beds": 188.0, "SR_15": 2.0}, {"Diff_star": -1.0, "addr": "1500 W WARM SPRINGS RD", "SR_14": 2.0, "Q_14": 4.0, "name": "TLC CARE CENTER", "SF_14": 4.0, "SF_15": 3.0, "cnty": "Clark", "st": "NV", "Zip": 89014.0, "O_14": 3.0, "Q_15": 2.0, "O_15": 2.0, "city": "HENDERSON", "beds": 255.0, "SR_15": 2.0}, {"Diff_star": 0.0, "addr": "1151 TORREY PINES DR.", "SR_14": 3.0, "Q_14": 5.0, "name": "SILVER RIDGE HEALTH CARE CENTER", "SF_14": 2.0, "SF_15": 2.0, "cnty": "Clark", "st": "NV", "Zip": 89146.0, "O_14": 4.0, "Q_15": 5.0, "O_15": 4.0, "city": "LAS VEGAS", "beds": 148.0, "SR_15": 3.0}, {"Diff_star": -1.0, "addr": "8501 DEL WEBB BLVD", "SR_14": 3.0, "Q_14": 5.0, "name": "ROYAL SPRINGS HEALTHCARE AND REHAB", "SF_14": 4.0, "SF_15": 4.0, "cnty": "Clark", "st": "NV", "Zip": 89134.0, "O_14": 5.0, "Q_15": 2.0, "O_15": 4.0, "city": "LAS VEGAS", "beds": 225.0, "SR_15": 3.0}, {"Diff_star": -1.0, "addr": "4501 NE BLAGG RD", "SR_14": 2.0, "Q_14": 2.0, "name": "PAHRUMP HEALTH AND REHABILITATION CENTER", "SF_14": 3.0, "SF_15": 3.0, "cnty": "Nye", "st": "NV", "Zip": 89060.0, "O_14": 2.0, "Q_15": 1.0, "O_15": 1.0, "city": "PAHRUMP", "beds": 120.0, "SR_15": 2.0}, {"Diff_star": -1.0, "addr": "2325 E. HARMON AVE.", "SR_14": 3.0, "Q_14": 2.0, "name": "LIFE CARE CENT-PARADISE VALLEY", "SF_14": 3.0, "SF_15": 3.0, "cnty": "Clark", "st": "NV", "Zip": 89119.0, "O_14": 3.0, "Q_15": 1.0, "O_15": 2.0, "city": "LAS VEGAS", "beds": 120.0, "SR_15": 3.0}, {"Diff_star": 0.0, "addr": "555 HAMMILL LANE", "SR_14": 4.0, "Q_14": 3.0, "name": "REGENT CARE CENTER OF RENO", "SF_14": 3.0, "SF_15": 3.0, "cnty": "Washoe", "st": "NV", "Zip": 89511.0, "O_14": 4.0, "Q_15": 3.0, "O_15": 4.0, "city": "RENO", "beds": 178.0, "SR_15": 4.0}, {"Diff_star": -1.0, "addr": "2850 RUBY VISTA DRIVE", "SR_14": 3.0, "Q_14": 3.0, "name": "HIGHLAND MANOR OF ELKO", "SF_14": 4.0, "SF_15": 4.0, "cnty": "Elko", "st": "NV", "Zip": 89801.0, "O_14": 4.0, "Q_15": 1.0, "O_15": 3.0, "city": "ELKO", "beds": 112.0, "SR_15": 3.0}, {"Diff_star": 0.0, "addr": "201 KOONTZ LANE", "SR_14": 1.0, "Q_14": 4.0, "name": "MOUNTAIN VIEW HEALTH & REHAB", "SF_14": 3.0, "SF_15": 3.0, "cnty": "Carson City", "st": "NV", "Zip": 89701.0, "O_14": 1.0, "Q_15": 2.0, "O_15": 1.0, "city": "CARSON CITY", "beds": 146.0, "SR_15": 1.0}, {"Diff_star": -1.0, "addr": "601 ADAMS BOULEVARD", "SR_14": 2.0, "Q_14": 4.0, "name": "MOUNTAIN VIEW CARE CENTER", "SF_14": 2.0, "SF_15": 2.0, "cnty": "Clark", "st": "NV", "Zip": 89005.0, "O_14": 2.0, "Q_15": 1.0, "O_15": 1.0, "city": "BOULDER CITY", "beds": 87.0, "SR_15": 2.0}, {"Diff_star": 0.0, "addr": "100 VETERANS MEMORIAL DR", "SR_14": 3.0, "Q_14": 4.0, "name": "NEVADA STATE VETERANS HOME - BOULDER CITY", "SF_14": 4.0, "SF_15": 4.0, "cnty": "Clark", "st": "NV", "Zip": 89005.0, "O_14": 4.0, "Q_15": 3.0, "O_15": 4.0, "city": "BOULDER CITY", "beds": 180.0, "SR_15": 3.0}, {"Diff_star": -1.0, "addr": "1573  MATHIAS PKWY", "SR_14": 2.0, "Q_14": 5.0, "name": "GARDNERVILLE  HEALTH & REHAB  CENTER", "SF_14": 2.0, "SF_15": 2.0, "cnty": "Douglas", "st": "NV", "Zip": 89410.0, "O_14": 3.0, "Q_15": 4.0, "O_15": 2.0, "city": "GARDNERVILLE", "beds": 60.0, "SR_15": 2.0}, {"Diff_star": 0.0, "addr": "10550 PARK RUN DRIVE", "SR_14": 1.0, "Q_14": 4.0, "name": "THE HEIGHTS OF SUMMERLIN, LLC", "SF_14": 4.0, "SF_15": 4.0, "cnty": "Clark", "st": "NV", "Zip": 89144.0, "O_14": 2.0, "Q_15": 3.0, "O_15": 2.0, "city": "LAS VEGAS", "beds": 190.0, "SR_15": 1.0}, {"Diff_star": 0.0, "addr": "7690 CARMEN BLVD", "SR_14": 1.0, "Q_14": "", "name": "CAREMERIDIAN", "SF_14": 4.0, "SF_15": 4.0, "cnty": "Clark", "st": "NV", "Zip": 89128.0, "O_14": 2.0, "Q_15": "", "O_15": 2.0, "city": "LAS VEGAS", "beds": 35.0, "SR_15": 1.0}, {"Diff_star": -1.0, "addr": "550 NORTH SHERMAN ROAD", "SR_14": 1.0, "Q_14": 2.0, "name": "HIGHLAND MANOR OF FALLON", "SF_14": 4.0, "SF_15": 3.0, "cnty": "Churchill", "st": "NV", "Zip": 89406.0, "O_14": 2.0, "Q_15": 1.0, "O_15": 1.0, "city": "FALLON", "beds": 102.0, "SR_15": 1.0}, {"Diff_star": 0.0, "addr": "10401 WEST CHARLESTON BLVD", "SR_14": 4.0, "Q_14": 4.0, "name": "LAS VENTANAS RETIREMENT COMM SNF", "SF_14": 5.0, "SF_15": 5.0, "cnty": "Clark", "st": "NV", "Zip": 89135.0, "O_14": 5.0, "Q_15": 2.0, "O_15": 5.0, "city": "LAS VEGAS", "beds": 60.0, "SR_15": 4.0}, {"Diff_star": 0.0, "addr": "2250 E FLAMINGO RD", "SR_14": 4.0, "Q_14": 5.0, "name": "KINDRED HOSPITAL - LAS VEGAS (FLAMINGO) - SNF/DP", "SF_14": 5.0, "SF_15": 5.0, "cnty": "Clark", "st": "NV", "Zip": 89119.0, "O_14": 5.0, "Q_15": 5.0, "O_15": 5.0, "city": "LAS VEGAS", "beds": 50.0, "SR_15": 4.0}, {"Diff_star": 0.0, "addr": "2350 WINGFIELD HILLS DR", "SR_14": 3.0, "Q_14": 4.0, "name": "MANOR CARE HEALTH SERVICES WINGFIELD HILLS", "SF_14": 3.0, "SF_15": 3.0, "cnty": "Washoe", "st": "NV", "Zip": 89436.0, "O_14": 3.0, "Q_15": 4.0, "O_15": 3.0, "city": "SPARKS", "beds": 120.0, "SR_15": 3.0}, {"Diff_star": -1.0, "addr": "6351 N FORT APACHE RD", "SR_14": 4.0, "Q_14": 3.0, "name": "MARQUIS CARE AT CENTENNIAL HILLS", "SF_14": 4.0, "SF_15": 4.0, "cnty": "Clark", "st": "NV", "Zip": 89149.0, "O_14": 4.0, "Q_15": 1.0, "O_15": 3.0, "city": "LAS VEGAS", "beds": 120.0, "SR_15": 4.0}, {"Diff_star": 0.0, "addr": "5840 W SUNSET RD", "SR_14": 4.0, "Q_14": 5.0, "name": "ADVANCED HEALTH CARE OF LAS VEGAS", "SF_14": 5.0, "SF_15": 5.0, "cnty": "Clark", "st": "NV", "Zip": 89118.0, "O_14": 5.0, "Q_15": 5.0, "O_15": 5.0, "city": "LAS VEGAS", "beds": 38.0, "SR_15": 4.0}, {"Diff_star": 0.0, "addr": "3391 N BUFFALO DRIVE", "SR_14": 5.0, "Q_14": "", "name": "CAREMERIDIAN-BUFFALO", "SF_14": "", "SF_15": "", "cnty": "Clark", "st": "NV", "Zip": 89129.0, "O_14": 5.0, "Q_15": "", "O_15": 5.0, "city": "LAS VEGAS", "beds": 24.0, "SR_15": 5.0}, {"Diff_star": 0.0, "addr": "1813 BETTY LANE", "SR_14": 5.0, "Q_14": 5.0, "name": "GAYE HAVEN INTERMEDIATE CARE FACILITY", "SF_14": 4.0, "SF_15": 4.0, "cnty": "Clark", "st": "NV", "Zip": 89156.0, "O_14": 5.0, "Q_15": 4.0, "O_15": 5.0, "city": "LAS VEGAS", "beds": 20.0, "SR_15": 5.0}, {"Diff_star": 0.0, "addr": "2860 E. CHEYENNE AVENUE", "SR_14": 3.0, "Q_14": 5.0, "name": "MISSION PINES NURSING & REHABILITATION CENTER", "SF_14": "", "SF_15": "", "cnty": "Clark", "st": "NV", "Zip": 89030.0, "O_14": 4.0, "Q_15": 5.0, "O_15": 4.0, "city": "NORTH LAS VEGAS", "beds": 240.0, "SR_15": 3.0}]