[{"Diff_star": -1.0, "addr": "2000 EAST MAIN STREET", "SR_14": 3.0, "Q_14": 5.0, "name": "WEST LEDGE REHABILITATION AND NURSING CENTER", "SF_14": 3.0, "SF_15": 3.0, "cnty": "Westchester", "st": "NY", "Zip": 10566.0, "O_14": 4.0, "Q_15": 4.0, "O_15": 3.0, "city": "PEEKSKILL", "beds": 100.0, "SR_15": 3.0}, {"Diff_star": -2.0, "addr": "85 THORNTON AVENUE", "SR_14": 2.0, "Q_14": 2.0, "name": "AUBURN NURSING HOME", "SF_14": 4.0, "SF_15": 3.0, "cnty": "Cayuga", "st": "NY", "Zip": 13021.0, "O_14": 3.0, "Q_15": 1.0, "O_15": 1.0, "city": "AUBURN", "beds": 92.0, "SR_15": 2.0}, {"Diff_star": -1.0, "addr": "620 SLEEPY HOLLOW ROAD", "SR_14": 3.0, "Q_14": 5.0, "name": "BRIARCLIFF MANOR CENTER FOR REHAB AND NURSING CARE", "SF_14": 2.0, "SF_15": 1.0, "cnty": "Westchester", "st": "NY", "Zip": 10510.0, "O_14": 4.0, "Q_15": 5.0, "O_15": 3.0, "city": "BRIARCLIFF MANOR", "beds": 131.0, "SR_15": 3.0}, {"Diff_star": 0.0, "addr": "110 UTICA ROAD", "SR_14": 1.0, "Q_14": 4.0, "name": "KATHERINE LUTHER RESIDENTIAL HLTH CARE & REHAB", "SF_14": 3.0, "SF_15": 3.0, "cnty": "Oneida", "st": "NY", "Zip": 13323.0, "O_14": 1.0, "Q_15": 3.0, "O_15": 1.0, "city": "CLINTON", "beds": 280.0, "SR_15": 1.0}, {"Diff_star": 0.0, "addr": "150 HIGHLAND AVENUE", "SR_14": 1.0, "Q_14": 4.0, "name": "ST JOHNS HEALTH CARE CORPORATION", "SF_14": 4.0, "SF_15": 4.0, "cnty": "Monroe", "st": "NY", "Zip": 14620.0, "O_14": 2.0, "Q_15": 2.0, "O_15": 2.0, "city": "ROCHESTER", "beds": 455.0, "SR_15": 1.0}, {"Diff_star": 0.0, "addr": "66 VAN CORTLANDT PARK SOUTH", "SR_14": 3.0, "Q_14": 5.0, "name": "ST PATRICKS HOME", "SF_14": 2.0, "SF_15": 2.0, "cnty": "Bronx", "st": "NY", "Zip": 10463.0, "O_14": 4.0, "Q_15": 4.0, "O_15": 4.0, "city": "BRONX", "beds": 264.0, "SR_15": 4.0}, {"Diff_star": 0.0, "addr": "526 ALTAMONT AVE", "SR_14": 3.0, "Q_14": 5.0, "name": "THE CAPITAL LIVING NURSING & REHABILITATION CENTRE", "SF_14": 3.0, "SF_15": 3.0, "cnty": "Schenectady", "st": "NY", "Zip": 12303.0, "O_14": 4.0, "Q_15": 5.0, "O_15": 4.0, "city": "SCHENECTADY", "beds": 240.0, "SR_15": 3.0}, {"Diff_star": 0.0, "addr": "2975 INDEPENDENCE AVE", "SR_14": 4.0, "Q_14": 5.0, "name": "SCHERVIER NURSING CARE CENTER", "SF_14": 2.0, "SF_15": 2.0, "cnty": "Bronx", "st": "NY", "Zip": 10463.0, "O_14": 5.0, "Q_15": 5.0, "O_15": 5.0, "city": "BRONX", "beds": 366.0, "SR_15": 4.0}, {"Diff_star": 0.0, "addr": "318 SOUTH ALBANY STREET", "SR_14": 1.0, "Q_14": 4.0, "name": "BEECHTREE CENTER FOR REHABILITATION AND NURSING", "SF_14": 3.0, "SF_15": 3.0, "cnty": "Tompkins", "st": "NY", "Zip": 14850.0, "O_14": 1.0, "Q_15": 2.0, "O_15": 1.0, "city": "ITHACA", "beds": 120.0, "SR_15": 1.0}, {"Diff_star": 0.0, "addr": "3200 BAYCHESTER AVENUE", "SR_14": 4.0, "Q_14": 5.0, "name": "REGEIS CARE CENTER", "SF_14": 1.0, "SF_15": 1.0, "cnty": "Bronx", "st": "NY", "Zip": 10475.0, "O_14": 4.0, "Q_15": 5.0, "O_15": 4.0, "city": "BRONX", "beds": 236.0, "SR_15": 4.0}, {"Diff_star": 0.0, "addr": "5901 PALISADE AVENUE", "SR_14": 5.0, "Q_14": 5.0, "name": "HEBREW HOME FOR THE AGED AT RIVERDALE", "SF_14": 2.0, "SF_15": 2.0, "cnty": "Bronx", "st": "NY", "Zip": 10471.0, "O_14": 5.0, "Q_15": 5.0, "O_15": 5.0, "city": "RIVERDALE", "beds": 580.0, "SR_15": 5.0}, {"Diff_star": 0.0, "addr": "1440 PORT WASHINGTON BLVD", "SR_14": 3.0, "Q_14": 5.0, "name": "SANDS POINT CENTER FOR H & R", "SF_14": 4.0, "SF_15": 4.0, "cnty": "Nassau", "st": "NY", "Zip": 11050.0, "O_14": 5.0, "Q_15": 5.0, "O_15": 5.0, "city": "PORT WASHINGTON", "beds": 180.0, "SR_15": 3.0}, {"Diff_star": 0.0, "addr": "875 JERUSALEM AVENUE", "SR_14": 5.0, "Q_14": 5.0, "name": "A HOLLY PATTERSON EXTENDED CARE FACILITY", "SF_14": 4.0, "SF_15": 4.0, "cnty": "Nassau", "st": "NY", "Zip": 11553.0, "O_14": 5.0, "Q_15": 5.0, "O_15": 5.0, "city": "UNIONDALE", "beds": 589.0, "SR_15": 5.0}, {"Diff_star": 0.0, "addr": "640 WEST BROADWAY", "SR_14": 5.0, "Q_14": 5.0, "name": "BEACH TERRACE CARE CENTER", "SF_14": 2.0, "SF_15": 2.0, "cnty": "Nassau", "st": "NY", "Zip": 11561.0, "O_14": 5.0, "Q_15": 5.0, "O_15": 5.0, "city": "LONG BEACH", "beds": 182.0, "SR_15": 5.0}, {"Diff_star": 0.0, "addr": "214 W HOUSTON STREET", "SR_14": 5.0, "Q_14": 5.0, "name": "VILLAGE CARE REHAB AND NURSING CTR", "SF_14": 4.0, "SF_15": 4.0, "cnty": "New York", "st": "NY", "Zip": 10014.0, "O_14": 5.0, "Q_15": 5.0, "O_15": 5.0, "city": "NEW YORK", "beds": 200.0, "SR_15": 5.0}, {"Diff_star": -1.0, "addr": "3400 -26  CANNON PLACE", "SR_14": 3.0, "Q_14": 5.0, "name": "KINGSBRIDGE HEIGHTS REHABILITATION", "SF_14": 3.0, "SF_15": 3.0, "cnty": "Bronx", "st": "NY", "Zip": 10463.0, "O_14": 4.0, "Q_15": 3.0, "O_15": 3.0, "city": "BRONX", "beds": 400.0, "SR_15": 3.0}, {"Diff_star": -1.0, "addr": "3356 PERRY AVENUE", "SR_14": 3.0, "Q_14": 5.0, "name": "MOSHOLU PARKWAY NURSING AND REHAB", "SF_14": 1.0, "SF_15": 1.0, "cnty": "Bronx", "st": "NY", "Zip": 10467.0, "O_14": 3.0, "Q_15": 4.0, "O_15": 2.0, "city": "BRONX", "beds": 122.0, "SR_15": 3.0}, {"Diff_star": 0.0, "addr": "400 NORTH MAIN STREET", "SR_14": 2.0, "Q_14": 3.0, "name": "WYOMING COUNTY COMMUNITY HOSPITAL S N F", "SF_14": 2.0, "SF_15": 2.0, "cnty": "Wyoming", "st": "NY", "Zip": 14569.0, "O_14": 2.0, "Q_15": 2.0, "O_15": 2.0, "city": "WARSAW", "beds": 138.0, "SR_15": 2.0}, {"Diff_star": -1.0, "addr": "9 HILAIRE DRIVE", "SR_14": 2.0, "Q_14": 5.0, "name": "HILAIRE REHAB & NURSING", "SF_14": 3.0, "SF_15": 3.0, "cnty": "Suffolk", "st": "NY", "Zip": 11743.0, "O_14": 3.0, "Q_15": 4.0, "O_15": 2.0, "city": "HUNTINGTON", "beds": 76.0, "SR_15": 2.0}, {"Diff_star": -1.0, "addr": "13 11 VIRGINA ST", "SR_14": 2.0, "Q_14": 5.0, "name": "FAR ROCKAWAY NURSING HOME", "SF_14": 2.0, "SF_15": 3.0, "cnty": "Queens", "st": "NY", "Zip": 11691.0, "O_14": 3.0, "Q_15": 5.0, "O_15": 2.0, "city": "FAR ROCKAWAY", "beds": 100.0, "SR_15": 1.0}, {"Diff_star": 0.0, "addr": "199 N MIDDLETOWN ROAD", "SR_14": 1.0, "Q_14": 4.0, "name": "NORTHERN MANOR GERIATRIC CTR INC", "SF_14": 4.0, "SF_15": 4.0, "cnty": "Rockland", "st": "NY", "Zip": 10954.0, "O_14": 2.0, "Q_15": 3.0, "O_15": 2.0, "city": "NANUET", "beds": 231.0, "SR_15": 1.0}, {"Diff_star": 0.0, "addr": "1540 TOMLINSON AVENUE", "SR_14": 4.0, "Q_14": 5.0, "name": "WILLIAMSBRIDGE MANOR N H", "SF_14": 4.0, "SF_15": 4.0, "cnty": "Bronx", "st": "NY", "Zip": 10461.0, "O_14": 5.0, "Q_15": 5.0, "O_15": 5.0, "city": "BRONX", "beds": 77.0, "SR_15": 4.0}, {"Diff_star": -1.0, "addr": "1339 YORK AVENUE", "SR_14": 1.0, "Q_14": 5.0, "name": "MARY MANNING WALSH NURSING HOME", "SF_14": 3.0, "SF_15": 3.0, "cnty": "New York", "st": "NY", "Zip": 10021.0, "O_14": 2.0, "Q_15": 3.0, "O_15": 1.0, "city": "NEW YORK", "beds": 362.0, "SR_15": 1.0}, {"Diff_star": 0.0, "addr": "48 COLONIAL DRIVE", "SR_14": 2.0, "Q_14": 4.0, "name": "ELCOR NURSING  AND REHABILITATION CENTER", "SF_14": 2.0, "SF_15": 2.0, "cnty": "Chemung", "st": "NY", "Zip": 14845.0, "O_14": 2.0, "Q_15": 2.0, "O_15": 2.0, "city": "HORSEHEADS", "beds": 305.0, "SR_15": 2.0}, {"Diff_star": 0.0, "addr": "4459 BAILEY AVE", "SR_14": 4.0, "Q_14": 4.0, "name": "ELDERWOOD AT AMHERST", "SF_14": 3.0, "SF_15": 3.0, "cnty": "Erie", "st": "NY", "Zip": 14226.0, "O_14": 4.0, "Q_15": 3.0, "O_15": 4.0, "city": "AMHERST", "beds": 92.0, "SR_15": 4.0}, {"Diff_star": 0.0, "addr": "2505 GRAND AVE", "SR_14": 4.0, "Q_14": 5.0, "name": "UNIVERSITY NURSING HOME", "SF_14": 5.0, "SF_15": 5.0, "cnty": "Bronx", "st": "NY", "Zip": 10468.0, "O_14": 5.0, "Q_15": 4.0, "O_15": 5.0, "city": "BRONX", "beds": 46.0, "SR_15": 4.0}, {"Diff_star": 0.0, "addr": "900 MAIN ST", "SR_14": "", "Q_14": "", "name": "COLER REHABILITATION AND NURSING CARE CENTER", "SF_14": "", "SF_15": "", "cnty": "New York", "st": "NY", "Zip": 10044.0, "O_14": "", "Q_15": "", "O_15": "", "city": "ROOSEVELT ISLAND", "beds": 815.0, "SR_15": ""}, {"Diff_star": -1.0, "addr": "78 BIRCHWOOD DR", "SR_14": 4.0, "Q_14": 5.0, "name": "APEX REHABILITATION & CARE CENTER", "SF_14": 4.0, "SF_15": 4.0, "cnty": "Suffolk", "st": "NY", "Zip": 11746.0, "O_14": 5.0, "Q_15": 4.0, "O_15": 4.0, "city": "HUNTINGTON STATION", "beds": 195.0, "SR_15": 4.0}, {"Diff_star": -1.0, "addr": "101 SOUTH STREET", "SR_14": 2.0, "Q_14": 1.0, "name": "CROUSE COMMUNITY CENTER INC", "SF_14": 4.0, "SF_15": 3.0, "cnty": "Madison", "st": "NY", "Zip": 13408.0, "O_14": 2.0, "Q_15": 1.0, "O_15": 1.0, "city": "MORRISVILLE", "beds": 120.0, "SR_15": 2.0}, {"Diff_star": 0.0, "addr": "6131 BIG TREE ROAD BOX F", "SR_14": 4.0, "Q_14": 4.0, "name": "CONESUS LAKE NURSING HOME", "SF_14": 3.0, "SF_15": 3.0, "cnty": "Livingston", "st": "NY", "Zip": 14487.0, "O_14": 4.0, "Q_15": 2.0, "O_15": 4.0, "city": "LIVONIA", "beds": 48.0, "SR_15": 4.0}, {"Diff_star": -1.0, "addr": "835 HERKIMER STREET", "SR_14": 2.0, "Q_14": 5.0, "name": "BISHOP HENRY B HUCLES EPISCOPAL NURSING HOME INC", "SF_14": 1.0, "SF_15": 1.0, "cnty": "Kings", "st": "NY", "Zip": 11233.0, "O_14": 2.0, "Q_15": 4.0, "O_15": 1.0, "city": "BROOKLYN", "beds": 240.0, "SR_15": 2.0}, {"Diff_star": -1.0, "addr": "555 EAST MARKET STREET", "SR_14": 1.0, "Q_14": 3.0, "name": "ST JOSEPHS HOSP  S N F", "SF_14": 4.0, "SF_15": 4.0, "cnty": "Chemung", "st": "NY", "Zip": 14902.0, "O_14": 2.0, "Q_15": 1.0, "O_15": 1.0, "city": "ELMIRA", "beds": 85.0, "SR_15": 1.0}, {"Diff_star": -1.0, "addr": "5353 MERRICK ROAD", "SR_14": 1.0, "Q_14": 5.0, "name": "PARKVIEW CARE AND REHAB CENTER INC", "SF_14": 1.0, "SF_15": 1.0, "cnty": "Nassau", "st": "NY", "Zip": 11758.0, "O_14": 2.0, "Q_15": 3.0, "O_15": 1.0, "city": "MASSAPEQUA", "beds": 169.0, "SR_15": 1.0}, {"Diff_star": 0.0, "addr": "PO BOX 1079", "SR_14": 1.0, "Q_14": 2.0, "name": "NORTHWOODS REHAB  EXTENDED CARE FACILITY", "SF_14": 2.0, "SF_15": 2.0, "cnty": "Cayuga", "st": "NY", "Zip": 13118.0, "O_14": 1.0, "Q_15": 1.0, "O_15": 1.0, "city": "MORAVIA", "beds": 40.0, "SR_15": 1.0}, {"Diff_star": 0.0, "addr": "2300 CATHERINE STREET", "SR_14": 3.0, "Q_14": 3.0, "name": "FIELD HOME - HOLY COMFORTER", "SF_14": 4.0, "SF_15": 4.0, "cnty": "Westchester", "st": "NY", "Zip": 10567.0, "O_14": 4.0, "Q_15": 2.0, "O_15": 4.0, "city": "CORTLANDT MANOR", "beds": 200.0, "SR_15": 3.0}, {"Diff_star": 0.0, "addr": "2316 BRUNER AVENUE", "SR_14": 4.0, "Q_14": 5.0, "name": "GOLD CREST CARE CENTER", "SF_14": 1.0, "SF_15": 1.0, "cnty": "Bronx", "st": "NY", "Zip": 10469.0, "O_14": 4.0, "Q_15": 5.0, "O_15": 4.0, "city": "BRONX", "beds": 175.0, "SR_15": 4.0}, {"Diff_star": -1.0, "addr": "65 ASHBURTON AVENUE", "SR_14": 3.0, "Q_14": 5.0, "name": "REGENCY EXTENDED CARE CENTER", "SF_14": 2.0, "SF_15": 2.0, "cnty": "Westchester", "st": "NY", "Zip": 10701.0, "O_14": 4.0, "Q_15": 3.0, "O_15": 3.0, "city": "YONKERS", "beds": 315.0, "SR_15": 3.0}, {"Diff_star": -1.0, "addr": "1500 PORTLAND AVENUE", "SR_14": 3.0, "Q_14": 5.0, "name": "ST ANNS HOME FOR THE AGED", "SF_14": 5.0, "SF_15": 5.0, "cnty": "Monroe", "st": "NY", "Zip": 14621.0, "O_14": 5.0, "Q_15": 4.0, "O_15": 4.0, "city": "ROCHESTER", "beds": 470.0, "SR_15": 3.0}, {"Diff_star": 0.0, "addr": "425 BEACH AVENUE", "SR_14": 1.0, "Q_14": 4.0, "name": "THE SHORE WINDS", "SF_14": 2.0, "SF_15": 2.0, "cnty": "Monroe", "st": "NY", "Zip": 14612.0, "O_14": 1.0, "Q_15": 3.0, "O_15": 1.0, "city": "ROCHESTER", "beds": 229.0, "SR_15": 1.0}, {"Diff_star": 1.0, "addr": "10 BERKSHIRE ROAD", "SR_14": 2.0, "Q_14": 1.0, "name": "BERKSHIRE NURSING AND REHAB", "SF_14": 1.0, "SF_15": 2.0, "cnty": "Suffolk", "st": "NY", "Zip": 11704.0, "O_14": 1.0, "Q_15": 1.0, "O_15": 2.0, "city": "WEST BABYLON", "beds": 175.0, "SR_15": 3.0}, {"Diff_star": 0.0, "addr": "950 LINDEN STREET", "SR_14": 5.0, "Q_14": 4.0, "name": "ST JOSEPHS HOME", "SF_14": 3.0, "SF_15": 3.0, "cnty": "St. Lawrence", "st": "NY", "Zip": 13669.0, "O_14": 5.0, "Q_15": 3.0, "O_15": 5.0, "city": "OGDENSBURG", "beds": 82.0, "SR_15": 5.0}, {"Diff_star": 0.0, "addr": "863 FRONT STREET", "SR_14": 2.0, "Q_14": 5.0, "name": "ELIZABETH CHURCH MANOR NURSING", "SF_14": 4.0, "SF_15": 4.0, "cnty": "Broome", "st": "NY", "Zip": 13905.0, "O_14": 4.0, "Q_15": 5.0, "O_15": 4.0, "city": "BINGHAMTON", "beds": 120.0, "SR_15": 2.0}, {"Diff_star": 0.0, "addr": "847 COUNTY  HIGHWAY 122", "SR_14": 1.0, "Q_14": 4.0, "name": "FULTON CENTER FOR REHABILITATION AND HEALTHCARE", "SF_14": 4.0, "SF_15": 4.0, "cnty": "Fulton", "st": "NY", "Zip": 12078.0, "O_14": 2.0, "Q_15": 2.0, "O_15": 2.0, "city": "GLOVERSVILLE", "beds": 176.0, "SR_15": 1.0}, {"Diff_star": 0.0, "addr": "1752 PARK AVE", "SR_14": 1.0, "Q_14": 5.0, "name": "HENRY J CARTER SKILLED NURSING FACILITY", "SF_14": 5.0, "SF_15": 5.0, "cnty": "New York", "st": "NY", "Zip": 10035.0, "O_14": 2.0, "Q_15": 3.0, "O_15": 2.0, "city": "MANHATTAN", "beds": 1389.0, "SR_15": 1.0}, {"Diff_star": 0.0, "addr": "128 BEACH 115TH STREET", "SR_14": 2.0, "Q_14": 4.0, "name": "PARK NURSING HOME", "SF_14": 1.0, "SF_15": 1.0, "cnty": "Queens", "st": "NY", "Zip": 11694.0, "O_14": 1.0, "Q_15": 3.0, "O_15": 1.0, "city": "ROCKAWAY PARK", "beds": 196.0, "SR_15": 2.0}, {"Diff_star": 0.0, "addr": "641 WEST 230TH ST", "SR_14": 1.0, "Q_14": 5.0, "name": "RIVERDALE NURSING HOME", "SF_14": 1.0, "SF_15": 1.0, "cnty": "Bronx", "st": "NY", "Zip": 10463.0, "O_14": 2.0, "Q_15": 5.0, "O_15": 2.0, "city": "BRONX", "beds": 146.0, "SR_15": 1.0}, {"Diff_star": 0.0, "addr": "4211 STATE HIGHWAY 220", "SR_14": 3.0, "Q_14": 5.0, "name": "N Y S VETS HOME AT OXFORD", "SF_14": 5.0, "SF_15": 5.0, "cnty": "Chenango", "st": "NY", "Zip": 13830.0, "O_14": 5.0, "Q_15": 5.0, "O_15": 5.0, "city": "OXFORD", "beds": 242.0, "SR_15": 3.0}, {"Diff_star": -2.0, "addr": "196-198 NORTH STREET", "SR_14": 2.0, "Q_14": 4.0, "name": "FINGER LAKES HEALTH", "SF_14": 4.0, "SF_15": 3.0, "cnty": "Ontario", "st": "NY", "Zip": 14456.0, "O_14": 3.0, "Q_15": 1.0, "O_15": 1.0, "city": "GENEVA", "beds": 345.0, "SR_15": 2.0}, {"Diff_star": -1.0, "addr": "515 AUDUBON AVENUE", "SR_14": 4.0, "Q_14": 5.0, "name": "ISABELLA GERIATRIC CENTER INC", "SF_14": 2.0, "SF_15": 2.0, "cnty": "New York", "st": "NY", "Zip": 10040.0, "O_14": 5.0, "Q_15": 4.0, "O_15": 4.0, "city": "NEW YORK", "beds": 705.0, "SR_15": 4.0}, {"Diff_star": 0.0, "addr": "510 FIFTH AVENUE", "SR_14": 1.0, "Q_14": 3.0, "name": "RIVERVIEW MANOR HEALTH CARE CENTER", "SF_14": 3.0, "SF_15": 3.0, "cnty": "Tioga", "st": "NY", "Zip": 13827.0, "O_14": 1.0, "Q_15": 1.0, "O_15": 1.0, "city": "OWEGO", "beds": 77.0, "SR_15": 2.0}, {"Diff_star": 0.0, "addr": "5606 15TH AVE", "SR_14": 5.0, "Q_14": 4.0, "name": "THE HERITAGE REHABILITATION AND HEALTH CARE CENTER", "SF_14": 1.0, "SF_15": 1.0, "cnty": "Kings", "st": "NY", "Zip": 11219.0, "O_14": 4.0, "Q_15": 2.0, "O_15": 4.0, "city": "BROOKLYN", "beds": 79.0, "SR_15": 5.0}, {"Diff_star": 0.0, "addr": "2021 WINTON ROAD SOUTH", "SR_14": 4.0, "Q_14": 4.0, "name": "JEWISH HOME OF ROCHESTER", "SF_14": 4.0, "SF_15": 4.0, "cnty": "Monroe", "st": "NY", "Zip": 14618.0, "O_14": 4.0, "Q_15": 4.0, "O_15": 4.0, "city": "ROCHESTER", "beds": 362.0, "SR_15": 4.0}, {"Diff_star": 0.0, "addr": "460 BRIELLE AVE", "SR_14": 5.0, "Q_14": 5.0, "name": "SEA VIEW HOSPITAL REHABILITATION CENTER AND HOME", "SF_14": 4.0, "SF_15": 5.0, "cnty": "Richmond", "st": "NY", "Zip": 10314.0, "O_14": 5.0, "Q_15": 5.0, "O_15": 5.0, "city": "STATEN ISLAND", "beds": 304.0, "SR_15": 5.0}, {"Diff_star": 0.0, "addr": "1070 LUTHER ROAD", "SR_14": 1.0, "Q_14": 4.0, "name": "EVERGREEN COMMONS", "SF_14": 2.0, "SF_15": 2.0, "cnty": "Rensselaer", "st": "NY", "Zip": 12061.0, "O_14": 1.0, "Q_15": 3.0, "O_15": 1.0, "city": "EAST GREENBUSH", "beds": 242.0, "SR_15": 1.0}, {"Diff_star": -1.0, "addr": "10570 BERGTOLD ROAD", "SR_14": 3.0, "Q_14": 5.0, "name": "BROTHERS OF MERCY NURSING & REHABILITATION CENTER", "SF_14": 5.0, "SF_15": 5.0, "cnty": "Erie", "st": "NY", "Zip": 14031.0, "O_14": 5.0, "Q_15": 4.0, "O_15": 4.0, "city": "CLARENCE", "beds": 240.0, "SR_15": 3.0}, {"Diff_star": -1.0, "addr": "660 LOUISIANA AVE", "SR_14": 2.0, "Q_14": 5.0, "name": "SPRING CREEK REHABILITATION AND NURSING CARE CTR", "SF_14": 1.0, "SF_15": 1.0, "cnty": "Kings", "st": "NY", "Zip": 11239.0, "O_14": 2.0, "Q_15": 3.0, "O_15": 1.0, "city": "BROOKLYN", "beds": 188.0, "SR_15": 2.0}, {"Diff_star": 0.0, "addr": "133 PARK STREET", "SR_14": 1.0, "Q_14": 4.0, "name": "ALICE HYDE MEDICAL CENTER S N F", "SF_14": 3.0, "SF_15": 3.0, "cnty": "Franklin", "st": "NY", "Zip": 12953.0, "O_14": 1.0, "Q_15": 2.0, "O_15": 1.0, "city": "MALONE", "beds": 75.0, "SR_15": 1.0}, {"Diff_star": 0.0, "addr": "301 HACKETT BLVD", "SR_14": 3.0, "Q_14": 5.0, "name": "ST PETERS NURSING AND REHABILITATION CENTER", "SF_14": 4.0, "SF_15": 4.0, "cnty": "Albany", "st": "NY", "Zip": 12208.0, "O_14": 5.0, "Q_15": 5.0, "O_15": 5.0, "city": "ALBANY", "beds": 160.0, "SR_15": 3.0}, {"Diff_star": -1.0, "addr": "157 15 19TH AVENUE", "SR_14": 4.0, "Q_14": 5.0, "name": "QUEENS CENTER FOR REHAB AND R H C", "SF_14": 3.0, "SF_15": 3.0, "cnty": "Queens", "st": "NY", "Zip": 11357.0, "O_14": 5.0, "Q_15": 3.0, "O_15": 4.0, "city": "WHITESTONE", "beds": 179.0, "SR_15": 4.0}, {"Diff_star": 0.0, "addr": "405 CARLTON AVE", "SR_14": 3.0, "Q_14": 5.0, "name": "NEW CARLTON REHAB & NURSING CENTER", "SF_14": 1.0, "SF_15": 1.0, "cnty": "Kings", "st": "NY", "Zip": 11238.0, "O_14": 3.0, "Q_15": 5.0, "O_15": 3.0, "city": "BROOKLYN", "beds": 148.0, "SR_15": 3.0}, {"Diff_star": 0.0, "addr": "271-11 76TH AVE", "SR_14": 5.0, "Q_14": 5.0, "name": "PARKER JEWISH INSTITUTE FOR H C & REHAB", "SF_14": 3.0, "SF_15": 3.0, "cnty": "Queens", "st": "NY", "Zip": 11040.0, "O_14": 5.0, "Q_15": 5.0, "O_15": 5.0, "city": "NEW HYDE PARK", "beds": 527.0, "SR_15": 5.0}, {"Diff_star": 0.0, "addr": "35 15 PARSONS BLVD", "SR_14": 5.0, "Q_14": 5.0, "name": "FLUSHING MANOR NURSING HOME", "SF_14": 3.0, "SF_15": 3.0, "cnty": "Queens", "st": "NY", "Zip": 11354.0, "O_14": 5.0, "Q_15": 5.0, "O_15": 5.0, "city": "FLUSHING", "beds": 227.0, "SR_15": 5.0}, {"Diff_star": 0.0, "addr": "700 EAST BRIGHTON AVENUE", "SR_14": 1.0, "Q_14": 4.0, "name": "LORETTO HEALTH AND REHABILITATION CENTER", "SF_14": 2.0, "SF_15": 2.0, "cnty": "Onondaga", "st": "NY", "Zip": 13205.0, "O_14": 1.0, "Q_15": 2.0, "O_15": 1.0, "city": "SYRACUSE", "beds": 583.0, "SR_15": 1.0}, {"Diff_star": 0.0, "addr": "71 44 YELLOWSTONE BLVD", "SR_14": 5.0, "Q_14": 5.0, "name": "FOREST HILLS CARE CENTER", "SF_14": 1.0, "SF_15": 1.0, "cnty": "Queens", "st": "NY", "Zip": 11375.0, "O_14": 5.0, "Q_15": 5.0, "O_15": 5.0, "city": "FOREST HILLS", "beds": 100.0, "SR_15": 5.0}, {"Diff_star": 0.0, "addr": "2478 JERUSALEM AVE", "SR_14": 4.0, "Q_14": 5.0, "name": "BELAIR CARE CENTER INC", "SF_14": 3.0, "SF_15": 3.0, "cnty": "Nassau", "st": "NY", "Zip": 11710.0, "O_14": 5.0, "Q_15": 5.0, "O_15": 5.0, "city": "BELLMORE", "beds": 102.0, "SR_15": 4.0}, {"Diff_star": 0.0, "addr": "2 MEDICAL PLAZA", "SR_14": 1.0, "Q_14": 4.0, "name": "MARQUIS REHABILITATION & NURSING CENTER", "SF_14": 5.0, "SF_15": 5.0, "cnty": "Nassau", "st": "NY", "Zip": 11542.0, "O_14": 2.0, "Q_15": 3.0, "O_15": 2.0, "city": "GLEN COVE", "beds": 102.0, "SR_15": 1.0}, {"Diff_star": 0.0, "addr": "150 PRATHER AVENUE", "SR_14": 2.0, "Q_14": 4.0, "name": "HERITAGE PARK HEALTH CARE CENTER", "SF_14": 2.0, "SF_15": 2.0, "cnty": "Chautauqua", "st": "NY", "Zip": 14701.0, "O_14": 2.0, "Q_15": 3.0, "O_15": 2.0, "city": "JAMESTOWN", "beds": 149.0, "SR_15": 2.0}, {"Diff_star": -1.0, "addr": "78 10 164TH STREET", "SR_14": 3.0, "Q_14": 5.0, "name": "MEADOW PARK REHAB HLTH CTR L L C", "SF_14": 2.0, "SF_15": 2.0, "cnty": "Queens", "st": "NY", "Zip": 11366.0, "O_14": 4.0, "Q_15": 4.0, "O_15": 3.0, "city": "FLUSHING", "beds": 143.0, "SR_15": 3.0}, {"Diff_star": 0.0, "addr": "69 70 GRAND CENTRAL PARKWAY", "SR_14": 5.0, "Q_14": 4.0, "name": "FAIRVIEW NURSING CARE CTR INC", "SF_14": 3.0, "SF_15": 3.0, "cnty": "Queens", "st": "NY", "Zip": 11375.0, "O_14": 5.0, "Q_15": 2.0, "O_15": 5.0, "city": "FOREST HILLS", "beds": 200.0, "SR_15": 5.0}, {"Diff_star": -1.0, "addr": "30 CRAGMERE ROAD", "SR_14": 4.0, "Q_14": 3.0, "name": "RAMAPO MANOR CTR FOR REHAB & NURSING", "SF_14": 1.0, "SF_15": 1.0, "cnty": "Rockland", "st": "NY", "Zip": 10901.0, "O_14": 3.0, "Q_15": 1.0, "O_15": 2.0, "city": "SUFFERN", "beds": 203.0, "SR_15": 4.0}, {"Diff_star": 0.0, "addr": "119 15 27TH AVENUE", "SR_14": 3.0, "Q_14": 5.0, "name": "WATERVIEW NURSING CARE CENTER", "SF_14": 1.0, "SF_15": 1.0, "cnty": "Queens", "st": "NY", "Zip": 11354.0, "O_14": 3.0, "Q_15": 5.0, "O_15": 3.0, "city": "FLUSHING", "beds": 200.0, "SR_15": 3.0}, {"Diff_star": 0.0, "addr": "212 40 HILLSIDE AVENUE", "SR_14": 5.0, "Q_14": 5.0, "name": "WINDSOR PARK NURSING HOME", "SF_14": 2.0, "SF_15": 2.0, "cnty": "Queens", "st": "NY", "Zip": 11427.0, "O_14": 5.0, "Q_15": 4.0, "O_15": 5.0, "city": "QUEENS VILLAGE", "beds": 70.0, "SR_15": 5.0}, {"Diff_star": 0.0, "addr": "275 W MERRICK ROAD", "SR_14": 4.0, "Q_14": 5.0, "name": "SOUTH SHORE REHABILITATION AND NURSING CENTER", "SF_14": 5.0, "SF_15": 5.0, "cnty": "Nassau", "st": "NY", "Zip": 11520.0, "O_14": 5.0, "Q_15": 5.0, "O_15": 5.0, "city": "FREEPORT", "beds": 100.0, "SR_15": 4.0}, {"Diff_star": 0.0, "addr": "2914 LINCOLN AVENUE", "SR_14": 3.0, "Q_14": 3.0, "name": "OCEANSIDE CARE CENTER INC", "SF_14": 1.0, "SF_15": 1.0, "cnty": "Nassau", "st": "NY", "Zip": 11572.0, "O_14": 2.0, "Q_15": 2.0, "O_15": 2.0, "city": "OCEANSIDE", "beds": 100.0, "SR_15": 3.0}, {"Diff_star": 0.0, "addr": "839 SUFFOLK AVENUE", "SR_14": 2.0, "Q_14": 5.0, "name": "ROSS HEALTH CARE CENTER INC", "SF_14": 1.0, "SF_15": 1.0, "cnty": "Suffolk", "st": "NY", "Zip": 11717.0, "O_14": 2.0, "Q_15": 5.0, "O_15": 2.0, "city": "BRENTWOOD", "beds": 135.0, "SR_15": 2.0}, {"Diff_star": -2.0, "addr": "243 ATLANTIC AVENUE", "SR_14": 3.0, "Q_14": 5.0, "name": "LYNBROOK RESTORATIVE THERAPY AND NURSING", "SF_14": 4.0, "SF_15": 4.0, "cnty": "Nassau", "st": "NY", "Zip": 11563.0, "O_14": 5.0, "Q_15": 4.0, "O_15": 3.0, "city": "LYNBROOK", "beds": 100.0, "SR_15": 2.0}, {"Diff_star": 0.0, "addr": "574 FULTON STREET", "SR_14": 3.0, "Q_14": 5.0, "name": "DALEVIEW CARE CENTER", "SF_14": 3.0, "SF_15": 3.0, "cnty": "Nassau", "st": "NY", "Zip": 11735.0, "O_14": 4.0, "Q_15": 5.0, "O_15": 4.0, "city": "EAST FARMINGDALE", "beds": 142.0, "SR_15": 3.0}, {"Diff_star": 0.0, "addr": "ONE LONG BEACH ROAD", "SR_14": 1.0, "Q_14": 4.0, "name": "SOUTH POINT PLAZA NURSING & REHABILITATION CENTER", "SF_14": 1.0, "SF_15": 1.0, "cnty": "Nassau", "st": "NY", "Zip": 11558.0, "O_14": 1.0, "Q_15": 3.0, "O_15": 1.0, "city": "ISLAND PARK", "beds": 185.0, "SR_15": 1.0}, {"Diff_star": -1.0, "addr": "144 SO OXFORD ST", "SR_14": 5.0, "Q_14": 5.0, "name": "OXFORD NURSING HOME", "SF_14": 1.0, "SF_15": 1.0, "cnty": "Kings", "st": "NY", "Zip": 11217.0, "O_14": 5.0, "Q_15": 4.0, "O_15": 4.0, "city": "BROOKLYN", "beds": 235.0, "SR_15": 5.0}, {"Diff_star": 0.0, "addr": "64 HAGER STREET", "SR_14": 2.0, "Q_14": 4.0, "name": "NIAGARA LUTHERAN HOME & REHABILITATION CENTER, INC", "SF_14": 3.0, "SF_15": 3.0, "cnty": "Erie", "st": "NY", "Zip": 14208.0, "O_14": 2.0, "Q_15": 3.0, "O_15": 2.0, "city": "BUFFALO", "beds": 173.0, "SR_15": 2.0}, {"Diff_star": 0.0, "addr": "22-41 NEW HAVEN AVENUE", "SR_14": 2.0, "Q_14": 5.0, "name": "NEW SURFSIDE NURSING HOME", "SF_14": 2.0, "SF_15": 2.0, "cnty": "Queens", "st": "NY", "Zip": 11691.0, "O_14": 3.0, "Q_15": 5.0, "O_15": 3.0, "city": "FAR ROCKAWAY", "beds": 183.0, "SR_15": 2.0}, {"Diff_star": -1.0, "addr": "315 BEACH 9TH STREET", "SR_14": 3.0, "Q_14": 5.0, "name": "OCEANVIEW NURSING AND REHABILITATION CENTER L L C", "SF_14": 1.0, "SF_15": 1.0, "cnty": "Queens", "st": "NY", "Zip": 11691.0, "O_14": 3.0, "Q_15": 3.0, "O_15": 2.0, "city": "FAR ROCKAWAY", "beds": 102.0, "SR_15": 3.0}, {"Diff_star": -1.0, "addr": "147 REIST STREET", "SR_14": 3.0, "Q_14": 5.0, "name": "ST FRANCIS HOME OF WILLIAMSVILLE", "SF_14": 4.0, "SF_15": 4.0, "cnty": "Erie", "st": "NY", "Zip": 14221.0, "O_14": 5.0, "Q_15": 5.0, "O_15": 4.0, "city": "WILLIAMSVILLE", "beds": 142.0, "SR_15": 2.0}, {"Diff_star": -1.0, "addr": "380 HENRY STREET", "SR_14": 4.0, "Q_14": 5.0, "name": "COBBLE HILL HEALTH CENTER INC", "SF_14": 2.0, "SF_15": 2.0, "cnty": "Kings", "st": "NY", "Zip": 11201.0, "O_14": 5.0, "Q_15": 4.0, "O_15": 4.0, "city": "BROOKLYN", "beds": 364.0, "SR_15": 4.0}, {"Diff_star": 0.0, "addr": "7 ROUTE 25A", "SR_14": 1.0, "Q_14": 4.0, "name": "AVALON GARDENS REHABILITATION & HEALTH CARE CENTER", "SF_14": 1.0, "SF_15": 1.0, "cnty": "Suffolk", "st": "NY", "Zip": 11787.0, "O_14": 1.0, "Q_15": 2.0, "O_15": 1.0, "city": "SMITHTOWN", "beds": 353.0, "SR_15": 1.0}, {"Diff_star": -1.0, "addr": "2700 NORTH FOREST ROAD", "SR_14": 2.0, "Q_14": 5.0, "name": "ROSA COPLON JEWISH HOME AND INFIRMARY", "SF_14": 4.0, "SF_15": 3.0, "cnty": "Erie", "st": "NY", "Zip": 14068.0, "O_14": 4.0, "Q_15": 5.0, "O_15": 3.0, "city": "GETZVILLE", "beds": 180.0, "SR_15": 2.0}, {"Diff_star": -1.0, "addr": "1455 CONEY ISLAND AVENUE", "SR_14": 4.0, "Q_14": 5.0, "name": "BROOKLYN CTR FOR REHAB AND RESIDENTIAL HLTH CARE", "SF_14": 4.0, "SF_15": 4.0, "cnty": "Kings", "st": "NY", "Zip": 11230.0, "O_14": 5.0, "Q_15": 4.0, "O_15": 4.0, "city": "BROOKLYN", "beds": 215.0, "SR_15": 4.0}, {"Diff_star": -1.0, "addr": "2799 SHERIDAN DRIVE", "SR_14": 2.0, "Q_14": 5.0, "name": "SHERIDAN MANOR L L C", "SF_14": 3.0, "SF_15": 3.0, "cnty": "Erie", "st": "NY", "Zip": 14150.0, "O_14": 3.0, "Q_15": 4.0, "O_15": 2.0, "city": "TONAWANDA", "beds": 100.0, "SR_15": 2.0}, {"Diff_star": 0.0, "addr": "5949 BROADWAY", "SR_14": 3.0, "Q_14": 4.0, "name": "GREENFIELD HEALTH AND REHABILITATION CENTER", "SF_14": 4.0, "SF_15": 4.0, "cnty": "Erie", "st": "NY", "Zip": 14086.0, "O_14": 4.0, "Q_15": 3.0, "O_15": 4.0, "city": "LANCASTER", "beds": 160.0, "SR_15": 3.0}, {"Diff_star": 0.0, "addr": "5075 WEST SENECA TURNPIKE", "SR_14": 1.0, "Q_14": 3.0, "name": "VAN DUYN CENTER FOR REHABILITATION AND NURSING", "SF_14": 1.0, "SF_15": 1.0, "cnty": "Onondaga", "st": "NY", "Zip": 13215.0, "O_14": 1.0, "Q_15": 2.0, "O_15": 1.0, "city": "SYRACUSE", "beds": 513.0, "SR_15": 1.0}, {"Diff_star": -1.0, "addr": "CEDAR LANE, PO BOX 928", "SR_14": 4.0, "Q_14": 5.0, "name": "CEDAR MANOR NURSING & REHABILITATION CENTER", "SF_14": 3.0, "SF_15": 3.0, "cnty": "Westchester", "st": "NY", "Zip": 10562.0, "O_14": 5.0, "Q_15": 4.0, "O_15": 4.0, "city": "OSSINING", "beds": 153.0, "SR_15": 4.0}, {"Diff_star": 0.0, "addr": "3220 HENRY HUDSON PARKWAY", "SR_14": 5.0, "Q_14": 5.0, "name": "HUDSON POINTE AT RIVERDALE CTR FOR NRSG AND REHAB", "SF_14": 2.0, "SF_15": 2.0, "cnty": "Bronx", "st": "NY", "Zip": 10463.0, "O_14": 5.0, "Q_15": 5.0, "O_15": 5.0, "city": "BRONX", "beds": 167.0, "SR_15": 5.0}, {"Diff_star": 0.0, "addr": "1 JANSEN ROAD PO BOX 909", "SR_14": 4.0, "Q_14": 5.0, "name": "THE MOUNTAIN VIEW NURSING AND REHAB CENTRE", "SF_14": 4.0, "SF_15": 3.0, "cnty": "Ulster", "st": "NY", "Zip": 12561.0, "O_14": 5.0, "Q_15": 5.0, "O_15": 5.0, "city": "NEW PALTZ", "beds": 79.0, "SR_15": 4.0}, {"Diff_star": 0.0, "addr": "4101 E GENESEE ST", "SR_14": 1.0, "Q_14": 5.0, "name": "THE JEWISH HOME OF CENTRAL NEW YORK", "SF_14": 4.0, "SF_15": 3.0, "cnty": "Onondaga", "st": "NY", "Zip": 13214.0, "O_14": 2.0, "Q_15": 5.0, "O_15": 2.0, "city": "SYRACUSE", "beds": 132.0, "SR_15": 1.0}, {"Diff_star": -1.0, "addr": "275 CASTLETON AVENUE", "SR_14": 4.0, "Q_14": 3.0, "name": "SILVER LAKE SPECIALIZED REHAB AND CARE CENTER", "SF_14": 3.0, "SF_15": 3.0, "cnty": "Richmond", "st": "NY", "Zip": 10301.0, "O_14": 4.0, "Q_15": 1.0, "O_15": 3.0, "city": "STATEN ISLAND", "beds": 278.0, "SR_15": 4.0}, {"Diff_star": -1.0, "addr": "435 EAST HENRIETTA ROAD", "SR_14": 1.0, "Q_14": 3.0, "name": "MONROE COMMUNITY HOSPITAL", "SF_14": 4.0, "SF_15": 3.0, "cnty": "Monroe", "st": "NY", "Zip": 14620.0, "O_14": 2.0, "Q_15": 1.0, "O_15": 1.0, "city": "ROCHESTER", "beds": 566.0, "SR_15": 1.0}, {"Diff_star": -1.0, "addr": "430 BEACH 68TH STREET", "SR_14": 5.0, "Q_14": 5.0, "name": "RESORT NURSING HOME", "SF_14": 3.0, "SF_15": 4.0, "cnty": "Queens", "st": "NY", "Zip": 11692.0, "O_14": 5.0, "Q_15": 4.0, "O_15": 4.0, "city": "ARVERNE", "beds": 280.0, "SR_15": 4.0}, {"Diff_star": 0.0, "addr": "612 ALLERTON AVENUE", "SR_14": 3.0, "Q_14": 5.0, "name": "BETH ABRAHAM HEALTH SERVICES", "SF_14": 1.0, "SF_15": 1.0, "cnty": "Bronx", "st": "NY", "Zip": 10467.0, "O_14": 3.0, "Q_15": 5.0, "O_15": 3.0, "city": "BRONX", "beds": 520.0, "SR_15": 3.0}, {"Diff_star": 0.0, "addr": "257 STATE ST", "SR_14": 1.0, "Q_14": 5.0, "name": "BATAVIA HEALTH CARE CENTER, LLC", "SF_14": 4.0, "SF_15": 3.0, "cnty": "Genesee", "st": "NY", "Zip": 14020.0, "O_14": 2.0, "Q_15": 5.0, "O_15": 2.0, "city": "BATAVIA", "beds": 62.0, "SR_15": 1.0}, {"Diff_star": 0.0, "addr": "ONE NORTON AVENUE", "SR_14": 1.0, "Q_14": 4.0, "name": "AURELIA OSBORN FOX MEMORIAL HO", "SF_14": 3.0, "SF_15": 3.0, "cnty": "Otsego", "st": "NY", "Zip": 13820.0, "O_14": 1.0, "Q_15": 4.0, "O_15": 1.0, "city": "ONEONTA", "beds": 131.0, "SR_15": 1.0}, {"Diff_star": -1.0, "addr": "40 PARK STREET", "SR_14": 1.0, "Q_14": 5.0, "name": "VALLEY VIEW MANOR NURSING HOME", "SF_14": 3.0, "SF_15": 3.0, "cnty": "Chenango", "st": "NY", "Zip": 13815.0, "O_14": 2.0, "Q_15": 3.0, "O_15": 1.0, "city": "NORWICH", "beds": 82.0, "SR_15": 1.0}, {"Diff_star": -1.0, "addr": "160 SENECA ST", "SR_14": 2.0, "Q_14": 5.0, "name": "HIGHLAND PARK REHABILITATION AND NURSING CENTER", "SF_14": 2.0, "SF_15": 2.0, "cnty": "Allegany", "st": "NY", "Zip": 14895.0, "O_14": 3.0, "Q_15": 4.0, "O_15": 2.0, "city": "WELLSVILLE", "beds": 80.0, "SR_15": 2.0}, {"Diff_star": 0.0, "addr": "141 DOSORIS LANE", "SR_14": 1.0, "Q_14": 4.0, "name": "GLENGARIFF HEALTH CARE CENTER", "SF_14": 3.0, "SF_15": 3.0, "cnty": "Nassau", "st": "NY", "Zip": 11542.0, "O_14": 1.0, "Q_15": 2.0, "O_15": 1.0, "city": "GLEN COVE", "beds": 262.0, "SR_15": 1.0}, {"Diff_star": -1.0, "addr": "14012 ROUTE 31", "SR_14": 2.0, "Q_14": 4.0, "name": "THE VILLAGES OF ORLEANS HEALTH AND REHAB CTR", "SF_14": 4.0, "SF_15": 3.0, "cnty": "Orleans", "st": "NY", "Zip": 14411.0, "O_14": 3.0, "Q_15": 3.0, "O_15": 2.0, "city": "ALBION", "beds": 120.0, "SR_15": 2.0}, {"Diff_star": 0.0, "addr": "399 COUNTY LINE RD", "SR_14": 1.0, "Q_14": 5.0, "name": "BROADLAWN MANOR NURSING & REHAB CTR", "SF_14": 3.0, "SF_15": 3.0, "cnty": "Suffolk", "st": "NY", "Zip": 11701.0, "O_14": 2.0, "Q_15": 5.0, "O_15": 2.0, "city": "AMITYVILLE", "beds": 320.0, "SR_15": 1.0}, {"Diff_star": 0.0, "addr": "2700 EASTCHESTER ROAD", "SR_14": 3.0, "Q_14": 4.0, "name": "EASTCHESTER REHAB AND HEALTH CARE CENTER, L L C", "SF_14": 3.0, "SF_15": 3.0, "cnty": "Bronx", "st": "NY", "Zip": 10469.0, "O_14": 3.0, "Q_15": 2.0, "O_15": 3.0, "city": "BRONX", "beds": 200.0, "SR_15": 3.0}, {"Diff_star": -1.0, "addr": "215 CLINTON STREET", "SR_14": 1.0, "Q_14": 5.0, "name": "AVON NURSING HOME", "SF_14": 3.0, "SF_15": 3.0, "cnty": "Livingston", "st": "NY", "Zip": 14414.0, "O_14": 2.0, "Q_15": 3.0, "O_15": 1.0, "city": "AVON", "beds": 40.0, "SR_15": 1.0}, {"Diff_star": 0.0, "addr": "193 CLINTON AVENUE", "SR_14": 2.0, "Q_14": 4.0, "name": "CORTLAND PARK REHABILITATION AND NURSING CENTER", "SF_14": 2.0, "SF_15": 2.0, "cnty": "Cortland", "st": "NY", "Zip": 13045.0, "O_14": 2.0, "Q_15": 4.0, "O_15": 2.0, "city": "CORTLAND", "beds": 120.0, "SR_15": 2.0}, {"Diff_star": -1.0, "addr": "222 WEST PEARL STREET", "SR_14": 2.0, "Q_14": 5.0, "name": "NEWARK MANOR NURSING HOME", "SF_14": 3.0, "SF_15": 3.0, "cnty": "Wayne", "st": "NY", "Zip": 14513.0, "O_14": 3.0, "Q_15": 4.0, "O_15": 2.0, "city": "NEWARK", "beds": 60.0, "SR_15": 2.0}, {"Diff_star": 0.0, "addr": "114 WAWBEEK AVE", "SR_14": 2.0, "Q_14": 4.0, "name": "MERCY LIVING CENTER", "SF_14": 4.0, "SF_15": 4.0, "cnty": "Franklin", "st": "NY", "Zip": 12986.0, "O_14": 3.0, "Q_15": 3.0, "O_15": 3.0, "city": "TUPPER LAKE", "beds": 60.0, "SR_15": 2.0}, {"Diff_star": 0.0, "addr": "220 WEST POST ROAD", "SR_14": 2.0, "Q_14": 4.0, "name": "WHITE PLAINS CENTER FOR NURSING CARE L L C", "SF_14": 4.0, "SF_15": 4.0, "cnty": "Westchester", "st": "NY", "Zip": 10606.0, "O_14": 3.0, "Q_15": 4.0, "O_15": 3.0, "city": "WHITE PLAINS", "beds": 88.0, "SR_15": 2.0}, {"Diff_star": 0.0, "addr": "602 HUDSON ST", "SR_14": 2.0, "Q_14": 4.0, "name": "OAK HILL MANOR NURSING HOME", "SF_14": 4.0, "SF_15": 4.0, "cnty": "Tompkins", "st": "NY", "Zip": 14850.0, "O_14": 3.0, "Q_15": 2.0, "O_15": 3.0, "city": "ITHACA", "beds": 60.0, "SR_15": 2.0}, {"Diff_star": 0.0, "addr": "860 OLD VESTAL ROAD", "SR_14": 1.0, "Q_14": 2.0, "name": "VESTAL PARK REHABILITATION AND NURSING CENTER", "SF_14": 3.0, "SF_15": 1.0, "cnty": "Broome", "st": "NY", "Zip": 13850.0, "O_14": 1.0, "Q_15": 1.0, "O_15": 1.0, "city": "VESTAL", "beds": 180.0, "SR_15": 1.0}, {"Diff_star": 0.0, "addr": "3155 GRACE AVENUE", "SR_14": 5.0, "Q_14": 5.0, "name": "WORKMENS CIRCLE MULTICARE CENTER", "SF_14": 2.0, "SF_15": 2.0, "cnty": "Bronx", "st": "NY", "Zip": 10469.0, "O_14": 5.0, "Q_15": 5.0, "O_15": 5.0, "city": "BRONX", "beds": 524.0, "SR_15": 5.0}, {"Diff_star": 0.0, "addr": "159 163 FRONT STREET - BOX 765", "SR_14": 1.0, "Q_14": 3.0, "name": "BRIDGEWATER CENTER FOR REHAB & NURSING L L C", "SF_14": 1.0, "SF_15": 1.0, "cnty": "Broome", "st": "NY", "Zip": 13902.0, "O_14": 1.0, "Q_15": 1.0, "O_15": 1.0, "city": "BINGHAMTON", "beds": 356.0, "SR_15": 1.0}, {"Diff_star": -1.0, "addr": "404 LUDINGTONVILLE ROAD", "SR_14": 2.0, "Q_14": 3.0, "name": "PUTNAM NURSING AND REHABILITATION CENTER", "SF_14": 2.0, "SF_15": 2.0, "cnty": "Putnam", "st": "NY", "Zip": 12531.0, "O_14": 2.0, "Q_15": 1.0, "O_15": 1.0, "city": "HOLMES", "beds": 160.0, "SR_15": 2.0}, {"Diff_star": 0.0, "addr": "8533 JERICHO TPKE", "SR_14": 4.0, "Q_14": 5.0, "name": "WOODBURY CENTER FOR HEALTH CARE", "SF_14": 4.0, "SF_15": 4.0, "cnty": "Nassau", "st": "NY", "Zip": 11797.0, "O_14": 5.0, "Q_15": 5.0, "O_15": 5.0, "city": "WOODBURY", "beds": 123.0, "SR_15": 4.0}, {"Diff_star": -1.0, "addr": "211 EAST 79 ST", "SR_14": 3.0, "Q_14": 5.0, "name": "DEWITT REHAB AND HEALTH CARE CENTER", "SF_14": 4.0, "SF_15": 3.0, "cnty": "New York", "st": "NY", "Zip": 10021.0, "O_14": 5.0, "Q_15": 5.0, "O_15": 4.0, "city": "NEW YORK", "beds": 499.0, "SR_15": 3.0}, {"Diff_star": -1.0, "addr": "950 FLOYD AVENUE", "SR_14": 1.0, "Q_14": 5.0, "name": "COLONIAL PARK REHABILITATION AND NURSING CENTER", "SF_14": 2.0, "SF_15": 2.0, "cnty": "Oneida", "st": "NY", "Zip": 13440.0, "O_14": 2.0, "Q_15": 2.0, "O_15": 1.0, "city": "ROME", "beds": 80.0, "SR_15": 1.0}, {"Diff_star": 0.0, "addr": "28652 STATE HIGHWAY 23", "SR_14": 1.0, "Q_14": 4.0, "name": "ROBINSON TERRACE", "SF_14": 4.0, "SF_15": 4.0, "cnty": "Delaware", "st": "NY", "Zip": 12167.0, "O_14": 2.0, "Q_15": 2.0, "O_15": 2.0, "city": "STAMFORD", "beds": 120.0, "SR_15": 1.0}, {"Diff_star": 0.0, "addr": "GLENMERE COVE RD PO BOX 59", "SR_14": 4.0, "Q_14": 4.0, "name": "THE VALLEY VIEW CENTER FOR NRSG  CARE & REHAB", "SF_14": 2.0, "SF_15": 2.0, "cnty": "Orange", "st": "NY", "Zip": 10924.0, "O_14": 4.0, "Q_15": 3.0, "O_15": 4.0, "city": "GOSHEN", "beds": 360.0, "SR_15": 4.0}, {"Diff_star": -1.0, "addr": "25 FANNING STREET", "SR_14": 3.0, "Q_14": 5.0, "name": "CLOVE LAKES HEALTH CARE AND REHABILITATION CENTER", "SF_14": 3.0, "SF_15": 3.0, "cnty": "Richmond", "st": "NY", "Zip": 10314.0, "O_14": 4.0, "Q_15": 4.0, "O_15": 3.0, "city": "STATEN ISLAND", "beds": 576.0, "SR_15": 3.0}, {"Diff_star": 0.0, "addr": "330 CHESTNUT STREET", "SR_14": 2.0, "Q_14": 4.0, "name": "CHESTNUT PARK AND REHABILITATION NURSING CENTER", "SF_14": 2.0, "SF_15": 2.0, "cnty": "Otsego", "st": "NY", "Zip": 13820.0, "O_14": 2.0, "Q_15": 2.0, "O_15": 2.0, "city": "ONEONTA", "beds": 80.0, "SR_15": 2.0}, {"Diff_star": -1.0, "addr": "1312 CATON AVENUE", "SR_14": 4.0, "Q_14": 5.0, "name": "CATON PARK NURSING HOME", "SF_14": 1.0, "SF_15": 1.0, "cnty": "Kings", "st": "NY", "Zip": 11226.0, "O_14": 4.0, "Q_15": 2.0, "O_15": 3.0, "city": "BROOKLYN", "beds": 119.0, "SR_15": 4.0}, {"Diff_star": 0.0, "addr": "1550 EMPIRE BLVD", "SR_14": 1.0, "Q_14": 4.0, "name": "HILL HAVEN NURSING HOME", "SF_14": 4.0, "SF_15": 4.0, "cnty": "Monroe", "st": "NY", "Zip": 14580.0, "O_14": 2.0, "Q_15": 2.0, "O_15": 2.0, "city": "WEBSTER", "beds": 288.0, "SR_15": 1.0}, {"Diff_star": -1.0, "addr": "666 KAPPOCK STREET", "SR_14": 3.0, "Q_14": 5.0, "name": "FIELDSTON LODGE CARE CENTER", "SF_14": 1.0, "SF_15": 1.0, "cnty": "Bronx", "st": "NY", "Zip": 10463.0, "O_14": 3.0, "Q_15": 4.0, "O_15": 2.0, "city": "RIVERDALE", "beds": 200.0, "SR_15": 3.0}, {"Diff_star": 0.0, "addr": "1229 TRUMANSBURG ROAD", "SR_14": 1.0, "Q_14": 4.0, "name": "CAYUGA RIDGE EXTENDED CARE", "SF_14": 2.0, "SF_15": 2.0, "cnty": "Tompkins", "st": "NY", "Zip": 14850.0, "O_14": 1.0, "Q_15": 4.0, "O_15": 1.0, "city": "ITHACA", "beds": 160.0, "SR_15": 1.0}, {"Diff_star": 0.0, "addr": "199 COMMUNITY DRIVE", "SR_14": 4.0, "Q_14": 5.0, "name": "HIGHFIELD GARDENS CARE CENTER OF GREAT NECK", "SF_14": 4.0, "SF_15": 4.0, "cnty": "Nassau", "st": "NY", "Zip": 11021.0, "O_14": 5.0, "Q_15": 5.0, "O_15": 5.0, "city": "GREAT NECK", "beds": 200.0, "SR_15": 4.0}, {"Diff_star": -1.0, "addr": "59 HETCHELTOWN ROAD", "SR_14": 2.0, "Q_14": 4.0, "name": "GLENDALE HOME SCHDY CNTY DEPT", "SF_14": 4.0, "SF_15": 3.0, "cnty": "Schenectady", "st": "NY", "Zip": 12302.0, "O_14": 3.0, "Q_15": 2.0, "O_15": 2.0, "city": "SCOTIA", "beds": 360.0, "SR_15": 2.0}, {"Diff_star": 0.0, "addr": "116 EAST CASTLE STREET", "SR_14": 1.0, "Q_14": 5.0, "name": "CENTRAL PARK REHABILITATION AND NURSING CENTER", "SF_14": 2.0, "SF_15": 2.0, "cnty": "Onondaga", "st": "NY", "Zip": 13205.0, "O_14": 2.0, "Q_15": 5.0, "O_15": 2.0, "city": "SYRACUSE", "beds": 160.0, "SR_15": 1.0}, {"Diff_star": -1.0, "addr": "1146 WOODCREST AVENUE", "SR_14": 1.0, "Q_14": 5.0, "name": "RIVERHEAD CARE CENTER L L C", "SF_14": 1.0, "SF_15": 1.0, "cnty": "Suffolk", "st": "NY", "Zip": 11901.0, "O_14": 2.0, "Q_15": 4.0, "O_15": 1.0, "city": "RIVERHEAD", "beds": 181.0, "SR_15": 1.0}, {"Diff_star": -1.0, "addr": "210 N MAIN STREET", "SR_14": 2.0, "Q_14": 2.0, "name": "ELM MANOR NURSING HOME", "SF_14": 3.0, "SF_15": 3.0, "cnty": "Ontario", "st": "NY", "Zip": 14424.0, "O_14": 2.0, "Q_15": 1.0, "O_15": 1.0, "city": "CANANDAIGUA", "beds": 46.0, "SR_15": 2.0}, {"Diff_star": 0.0, "addr": "154 JEFFERSON HEIGHTS", "SR_14": 1.0, "Q_14": 5.0, "name": "THE PINES AT CATSKILL CTR FOR NRSG & REHAB", "SF_14": 1.0, "SF_15": 1.0, "cnty": "Greene", "st": "NY", "Zip": 12414.0, "O_14": 2.0, "Q_15": 5.0, "O_15": 2.0, "city": "CATSKILL", "beds": 136.0, "SR_15": 1.0}, {"Diff_star": 0.0, "addr": "801 W 190TH ST", "SR_14": 4.0, "Q_14": 5.0, "name": "FORT TRYON REHAB & HEALTH CARE FAC L T H H C P", "SF_14": 1.0, "SF_15": 1.0, "cnty": "New York", "st": "NY", "Zip": 10040.0, "O_14": 4.0, "Q_15": 5.0, "O_15": 4.0, "city": "NEW YORK", "beds": 205.0, "SR_15": 4.0}, {"Diff_star": 0.0, "addr": "537 ROUTE 22", "SR_14": 4.0, "Q_14": 5.0, "name": "WATERVIEW HILLS REHABILITATION AND NRSG CTR", "SF_14": 2.0, "SF_15": 2.0, "cnty": "Westchester", "st": "NY", "Zip": 10578.0, "O_14": 5.0, "Q_15": 5.0, "O_15": 5.0, "city": "PURDY STATION", "beds": 130.0, "SR_15": 4.0}, {"Diff_star": 0.0, "addr": "SANATORIUM ROAD", "SR_14": 2.0, "Q_14": 5.0, "name": "SUMMIT PARK NURSING CARE CENTER", "SF_14": 4.0, "SF_15": 4.0, "cnty": "Rockland", "st": "NY", "Zip": 10970.0, "O_14": 4.0, "Q_15": 3.0, "O_15": 4.0, "city": "POMONA", "beds": 341.0, "SR_15": 4.0}, {"Diff_star": 0.0, "addr": "ROUTE 100", "SR_14": 3.0, "Q_14": 3.0, "name": "SOMERS MANOR REHABILITATION & NURSING CENTER", "SF_14": 2.0, "SF_15": 2.0, "cnty": "Westchester", "st": "NY", "Zip": 10589.0, "O_14": 3.0, "Q_15": 2.0, "O_15": 3.0, "city": "SOMERS", "beds": 300.0, "SR_15": 3.0}, {"Diff_star": 0.0, "addr": "505 MT HOPE AVENUE", "SR_14": 2.0, "Q_14": 5.0, "name": "EPISCOPAL CHURCH HOME", "SF_14": 3.0, "SF_15": 4.0, "cnty": "Monroe", "st": "NY", "Zip": 14620.0, "O_14": 3.0, "Q_15": 4.0, "O_15": 3.0, "city": "ROCHESTER", "beds": 182.0, "SR_15": 2.0}, {"Diff_star": 0.0, "addr": "85 BLOOMINGROVE DRIVE", "SR_14": 3.0, "Q_14": 4.0, "name": "VAN RENSSELAER MANOR", "SF_14": 4.0, "SF_15": 4.0, "cnty": "Rensselaer", "st": "NY", "Zip": 12180.0, "O_14": 4.0, "Q_15": 2.0, "O_15": 4.0, "city": "TROY", "beds": 362.0, "SR_15": 3.0}, {"Diff_star": 0.0, "addr": "119 09 26TH AVENUE", "SR_14": 2.0, "Q_14": 5.0, "name": "WOODCREST REHAB & RESIDENTIAL H C CENTER L L C", "SF_14": 1.0, "SF_15": 1.0, "cnty": "Queens", "st": "NY", "Zip": 11354.0, "O_14": 2.0, "Q_15": 3.0, "O_15": 2.0, "city": "FLUSHING", "beds": 200.0, "SR_15": 3.0}, {"Diff_star": 0.0, "addr": "185 OLD MILITARY ROAD", "SR_14": 1.0, "Q_14": 3.0, "name": "UIHLEIN LIVING CENTER", "SF_14": 3.0, "SF_15": 3.0, "cnty": "Essex", "st": "NY", "Zip": 12946.0, "O_14": 1.0, "Q_15": 3.0, "O_15": 1.0, "city": "LAKE PLACID", "beds": 157.0, "SR_15": 1.0}, {"Diff_star": -1.0, "addr": "715 FALCONER STREET", "SR_14": 1.0, "Q_14": 3.0, "name": "LUTHERAN RETIREMENT HOME", "SF_14": 4.0, "SF_15": 4.0, "cnty": "Chautauqua", "st": "NY", "Zip": 14701.0, "O_14": 2.0, "Q_15": 1.0, "O_15": 1.0, "city": "JAMESTOWN", "beds": 148.0, "SR_15": 1.0}, {"Diff_star": 0.0, "addr": "BRADLEY AVENUE", "SR_14": 5.0, "Q_14": 5.0, "name": "THE WARTBURG HOME", "SF_14": 1.0, "SF_15": 1.0, "cnty": "Westchester", "st": "NY", "Zip": 10552.0, "O_14": 5.0, "Q_15": 5.0, "O_15": 5.0, "city": "MOUNT VERNON", "beds": 240.0, "SR_15": 5.0}, {"Diff_star": 0.0, "addr": "676 PELHAM ROAD", "SR_14": 2.0, "Q_14": 4.0, "name": "DUMONT CENTER FOR REHABILATION AND NURSING", "SF_14": 2.0, "SF_15": 2.0, "cnty": "Westchester", "st": "NY", "Zip": 10805.0, "O_14": 2.0, "Q_15": 2.0, "O_15": 2.0, "city": "NEW ROCHELLE", "beds": 196.0, "SR_15": 2.0}, {"Diff_star": 0.0, "addr": "100 CASTLETON AVENUE", "SR_14": 5.0, "Q_14": 5.0, "name": "VERRAZANO NURSING HOME", "SF_14": 1.0, "SF_15": 1.0, "cnty": "Richmond", "st": "NY", "Zip": 10301.0, "O_14": 5.0, "Q_15": 5.0, "O_15": 5.0, "city": "STATEN ISLAND", "beds": 120.0, "SR_15": 5.0}, {"Diff_star": 0.0, "addr": "PO BOX 2122", "SR_14": 4.0, "Q_14": 5.0, "name": "SAN SIMEON BY THE SOUND CTR FOR NRSG & REHAB", "SF_14": 4.0, "SF_15": 4.0, "cnty": "Suffolk", "st": "NY", "Zip": 11944.0, "O_14": 5.0, "Q_15": 5.0, "O_15": 5.0, "city": "GREENPORT", "beds": 120.0, "SR_15": 4.0}, {"Diff_star": 0.0, "addr": "37 MESIER AVENUE", "SR_14": 2.0, "Q_14": 4.0, "name": "ELANT AT WAPPINGERS FALLS", "SF_14": 4.0, "SF_15": 3.0, "cnty": "Dutchess", "st": "NY", "Zip": 12590.0, "O_14": 3.0, "Q_15": 2.0, "O_15": 3.0, "city": "WAPPINGERS FALLS", "beds": 62.0, "SR_15": 3.0}, {"Diff_star": 0.0, "addr": "100 BALDWIN ROAD", "SR_14": 2.0, "Q_14": 5.0, "name": "MAYFAIR CARE CENTER INC", "SF_14": 2.0, "SF_15": 2.0, "cnty": "Nassau", "st": "NY", "Zip": 11550.0, "O_14": 3.0, "Q_15": 5.0, "O_15": 3.0, "city": "HEMPSTEAD", "beds": 200.0, "SR_15": 2.0}, {"Diff_star": 0.0, "addr": "49 MARVIN AVENUE", "SR_14": 2.0, "Q_14": 5.0, "name": "THE SPRINGS NURSING AND REHABILITATION CENTRE", "SF_14": 4.0, "SF_15": 4.0, "cnty": "Rensselaer", "st": "NY", "Zip": 12180.0, "O_14": 4.0, "Q_15": 5.0, "O_15": 4.0, "city": "TROY", "beds": 80.0, "SR_15": 2.0}, {"Diff_star": 0.0, "addr": "292 MAIN STREET", "SR_14": 1.0, "Q_14": 3.0, "name": "ABSOLUT CTR FOR NURSING & REHAB AURORA PARK L L C", "SF_14": 2.0, "SF_15": 2.0, "cnty": "Erie", "st": "NY", "Zip": 14052.0, "O_14": 1.0, "Q_15": 1.0, "O_15": 1.0, "city": "EAST AURORA", "beds": 320.0, "SR_15": 1.0}, {"Diff_star": -1.0, "addr": "813 FAY ROAD", "SR_14": 1.0, "Q_14": 5.0, "name": "ST CAMILLUS RESIDENTIAL HEALTH CARE FACILITY", "SF_14": 3.0, "SF_15": 3.0, "cnty": "Onondaga", "st": "NY", "Zip": 13219.0, "O_14": 2.0, "Q_15": 4.0, "O_15": 1.0, "city": "SYRACUSE", "beds": 284.0, "SR_15": 1.0}, {"Diff_star": 0.0, "addr": "825 OLD COUNTRY RD", "SR_14": 4.0, "Q_14": 4.0, "name": "CENTRAL ISLAND HEALTHCARE", "SF_14": 2.0, "SF_15": 2.0, "cnty": "Nassau", "st": "NY", "Zip": 11803.0, "O_14": 4.0, "Q_15": 4.0, "O_15": 4.0, "city": "PLAINVIEW", "beds": 202.0, "SR_15": 4.0}, {"Diff_star": -1.0, "addr": "661 N MAIN ST", "SR_14": 4.0, "Q_14": 5.0, "name": "PINE VALLEY CENTER FOR REHAB AND NURSING", "SF_14": 4.0, "SF_15": 4.0, "cnty": "Rockland", "st": "NY", "Zip": 10977.0, "O_14": 5.0, "Q_15": 4.0, "O_15": 4.0, "city": "SPRING VALLEY", "beds": 200.0, "SR_15": 4.0}, {"Diff_star": -1.0, "addr": "830 PARK AVENUE", "SR_14": 4.0, "Q_14": 5.0, "name": "CARILLON NURSING & REHAB CENTER", "SF_14": 3.0, "SF_15": 3.0, "cnty": "Suffolk", "st": "NY", "Zip": 11743.0, "O_14": 5.0, "Q_15": 3.0, "O_15": 4.0, "city": "HUNTINGTON", "beds": 315.0, "SR_15": 4.0}, {"Diff_star": 0.0, "addr": "6585 BROADWAY", "SR_14": 5.0, "Q_14": 5.0, "name": "PARK GARDENS REHAB AND N C", "SF_14": "", "SF_15": 1.0, "cnty": "Bronx", "st": "NY", "Zip": 10471.0, "O_14": 5.0, "Q_15": 5.0, "O_15": 5.0, "city": "RIVERDALE", "beds": 200.0, "SR_15": 5.0}, {"Diff_star": -1.0, "addr": "2865 BRIGHTON 3RD STREET", "SR_14": 5.0, "Q_14": 5.0, "name": "SHORE VIEW NURSING  & REHABILITATION CENTER", "SF_14": 1.0, "SF_15": 1.0, "cnty": "Kings", "st": "NY", "Zip": 11235.0, "O_14": 5.0, "Q_15": 4.0, "O_15": 4.0, "city": "BROOKLYN", "beds": 320.0, "SR_15": 5.0}, {"Diff_star": 0.0, "addr": "418 NORTH MAIN STREET", "SR_14": 3.0, "Q_14": 4.0, "name": "SOLDIERS AND SAILORS MEMORIAL HOSPITAL E C U", "SF_14": 2.0, "SF_15": 2.0, "cnty": "Yates", "st": "NY", "Zip": 14527.0, "O_14": 3.0, "Q_15": 2.0, "O_15": 3.0, "city": "PENN YAN", "beds": 152.0, "SR_15": 3.0}, {"Diff_star": -1.0, "addr": "3457 NOSTRAND AVENUE", "SR_14": 4.0, "Q_14": 5.0, "name": "CROWN NURSING AND REHAB CENTER", "SF_14": 3.0, "SF_15": 3.0, "cnty": "Kings", "st": "NY", "Zip": 11229.0, "O_14": 5.0, "Q_15": 4.0, "O_15": 4.0, "city": "BROOKLYN", "beds": 189.0, "SR_15": 4.0}, {"Diff_star": 0.0, "addr": "3700 OLD VESTAL ROAD", "SR_14": 1.0, "Q_14": 3.0, "name": "WILLOW POINT NURSING HOME", "SF_14": 2.0, "SF_15": 2.0, "cnty": "Broome", "st": "NY", "Zip": 13850.0, "O_14": 1.0, "Q_15": 2.0, "O_15": 1.0, "city": "VESTAL", "beds": 363.0, "SR_15": 1.0}, {"Diff_star": -1.0, "addr": "140 BEACH 114TH STREET", "SR_14": 1.0, "Q_14": 5.0, "name": "PROMENADE REHAB AND HEALTH CARE CENTER", "SF_14": 3.0, "SF_15": 3.0, "cnty": "Queens", "st": "NY", "Zip": 11694.0, "O_14": 2.0, "Q_15": 3.0, "O_15": 1.0, "city": "ROCKAWAY PARK", "beds": 240.0, "SR_15": 1.0}, {"Diff_star": 0.0, "addr": "184 FINNEY BOULEVARD", "SR_14": 1.0, "Q_14": 3.0, "name": "FRANKLIN COUNTY NURSING HOME", "SF_14": 4.0, "SF_15": 4.0, "cnty": "Franklin", "st": "NY", "Zip": 12953.0, "O_14": 2.0, "Q_15": 2.0, "O_15": 2.0, "city": "MALONE", "beds": 80.0, "SR_15": 1.0}, {"Diff_star": 0.0, "addr": "144-61 38TH AVE", "SR_14": 3.0, "Q_14": 5.0, "name": "LONG ISLAND CARE CENTER INC", "SF_14": 1.0, "SF_15": 1.0, "cnty": "Queens", "st": "NY", "Zip": 11354.0, "O_14": 3.0, "Q_15": 4.0, "O_15": 3.0, "city": "FLUSHING", "beds": 200.0, "SR_15": 4.0}, {"Diff_star": 0.0, "addr": "845 PALMER AVENUE", "SR_14": 3.0, "Q_14": 5.0, "name": "JEWISH HOME LIFECARE, SARAH NEUMAN CENTER", "SF_14": 2.0, "SF_15": 2.0, "cnty": "Westchester", "st": "NY", "Zip": 10543.0, "O_14": 4.0, "Q_15": 5.0, "O_15": 4.0, "city": "MAMARONECK", "beds": 300.0, "SR_15": 3.0}, {"Diff_star": -1.0, "addr": "41 MAINE AVENUE", "SR_14": 4.0, "Q_14": 4.0, "name": "THE GRAND PAVILION FOR R & N AT ROCKVILLE CENTRE", "SF_14": 2.0, "SF_15": 3.0, "cnty": "Nassau", "st": "NY", "Zip": 11570.0, "O_14": 4.0, "Q_15": 2.0, "O_15": 3.0, "city": "ROCKVILLE CENTRE", "beds": 158.0, "SR_15": 3.0}, {"Diff_star": 0.0, "addr": "260 01 79TH AVENUE", "SR_14": 4.0, "Q_14": 5.0, "name": "NEW GLEN OAKS N H", "SF_14": 3.0, "SF_15": 3.0, "cnty": "Queens", "st": "NY", "Zip": 11004.0, "O_14": 5.0, "Q_15": 5.0, "O_15": 5.0, "city": "GLEN OAKS", "beds": 60.0, "SR_15": 4.0}, {"Diff_star": -1.0, "addr": "319 UPPER BROADWAY", "SR_14": 3.0, "Q_14": 4.0, "name": "FORT HUDSON NURSING CENTER INC", "SF_14": 4.0, "SF_15": 3.0, "cnty": "Washington", "st": "NY", "Zip": 12828.0, "O_14": 4.0, "Q_15": 3.0, "O_15": 3.0, "city": "FORT EDWARD", "beds": 198.0, "SR_15": 3.0}, {"Diff_star": 0.0, "addr": "275 MORICHES ROAD", "SR_14": 3.0, "Q_14": 4.0, "name": "ST JAMES REHAB & HEALTH CARE CENTER", "SF_14": 2.0, "SF_15": 2.0, "cnty": "Suffolk", "st": "NY", "Zip": 11780.0, "O_14": 3.0, "Q_15": 4.0, "O_15": 3.0, "city": "ST JAMES", "beds": 230.0, "SR_15": 3.0}, {"Diff_star": 0.0, "addr": "152 SHERMAN AVENUE", "SR_14": 3.0, "Q_14": 4.0, "name": "THE STANTON NURSING AND REHAB CENTRE", "SF_14": 3.0, "SF_15": 3.0, "cnty": "Warren", "st": "NY", "Zip": 12801.0, "O_14": 3.0, "Q_15": 3.0, "O_15": 3.0, "city": "GLENS FALLS", "beds": 120.0, "SR_15": 3.0}, {"Diff_star": -1.0, "addr": "55 MELROY AVENUE", "SR_14": 2.0, "Q_14": 5.0, "name": "MERCY HOSPITAL SKILLED NURSING FACILITY", "SF_14": 4.0, "SF_15": 4.0, "cnty": "Erie", "st": "NY", "Zip": 14218.0, "O_14": 4.0, "Q_15": 4.0, "O_15": 3.0, "city": "LACKAWANNA", "beds": 84.0, "SR_15": 2.0}, {"Diff_star": -1.0, "addr": "7009 RUMSEY STREET EXTENSION", "SR_14": 2.0, "Q_14": 3.0, "name": "STEUBEN CENTER FOR REHABILITATION AND HEALTHCARE", "SF_14": 4.0, "SF_15": 3.0, "cnty": "Steuben", "st": "NY", "Zip": 14810.0, "O_14": 3.0, "Q_15": 2.0, "O_15": 2.0, "city": "BATH", "beds": 105.0, "SR_15": 2.0}, {"Diff_star": 0.0, "addr": "71 20 110TH STREET", "SR_14": 5.0, "Q_14": 5.0, "name": "FOREST VIEW CTR  REHAB NURSING", "SF_14": 3.0, "SF_15": 3.0, "cnty": "Queens", "st": "NY", "Zip": 11375.0, "O_14": 5.0, "Q_15": 5.0, "O_15": 5.0, "city": "FOREST HILLS", "beds": 160.0, "SR_15": 5.0}, {"Diff_star": 0.0, "addr": "100 LAKE ROAD, PO BOX 319", "SR_14": 3.0, "Q_14": 3.0, "name": "TOLSTOY FOUNDATION REHABILITATION & NURSING CENTER", "SF_14": 3.0, "SF_15": 3.0, "cnty": "Rockland", "st": "NY", "Zip": 10989.0, "O_14": 3.0, "Q_15": 2.0, "O_15": 3.0, "city": "VALLEY COTTAGE", "beds": 96.0, "SR_15": 3.0}, {"Diff_star": 0.0, "addr": "1000 HIGH ST", "SR_14": 4.0, "Q_14": 5.0, "name": "PORT CHESTER NURSING AND REHAB", "SF_14": 3.0, "SF_15": 3.0, "cnty": "Westchester", "st": "NY", "Zip": 10573.0, "O_14": 5.0, "Q_15": 5.0, "O_15": 5.0, "city": "PORT CHESTER", "beds": 160.0, "SR_15": 4.0}, {"Diff_star": -1.0, "addr": "200 OHIO STREET", "SR_14": 3.0, "Q_14": 5.0, "name": "MEDINA MEMORIAL HOSPITAL S N F", "SF_14": 1.0, "SF_15": 1.0, "cnty": "Orleans", "st": "NY", "Zip": 14103.0, "O_14": 3.0, "Q_15": 4.0, "O_15": 2.0, "city": "MEDINA", "beds": 30.0, "SR_15": 3.0}, {"Diff_star": -1.0, "addr": "201 W MADISON AVENUE", "SR_14": 4.0, "Q_14": 2.0, "name": "WELLS NURSING HOME INC", "SF_14": 4.0, "SF_15": 3.0, "cnty": "Fulton", "st": "NY", "Zip": 12095.0, "O_14": 4.0, "Q_15": 1.0, "O_15": 3.0, "city": "JOHNSTOWN", "beds": 100.0, "SR_15": 4.0}, {"Diff_star": 0.0, "addr": "420 ROCKLAND ROAD", "SR_14": 5.0, "Q_14": 5.0, "name": "ROSCOE REGIONAL REHAB & RESIDENTIAL H C F", "SF_14": 4.0, "SF_15": 4.0, "cnty": "Sullivan", "st": "NY", "Zip": 12776.0, "O_14": 5.0, "Q_15": 4.0, "O_15": 5.0, "city": "ROSCOE", "beds": 87.0, "SR_15": 5.0}, {"Diff_star": 0.0, "addr": "59 20 VAN DOREN STREET", "SR_14": 5.0, "Q_14": 5.0, "name": "PARK TERRACE CARE CENTER", "SF_14": 2.0, "SF_15": 2.0, "cnty": "Queens", "st": "NY", "Zip": 11368.0, "O_14": 5.0, "Q_15": 4.0, "O_15": 5.0, "city": "CORONA", "beds": 200.0, "SR_15": 5.0}, {"Diff_star": 0.0, "addr": "77 JACKSON AVE", "SR_14": 2.0, "Q_14": 4.0, "name": "SPRAIN BROOK MANOR REHAB", "SF_14": 4.0, "SF_15": 4.0, "cnty": "Westchester", "st": "NY", "Zip": 10583.0, "O_14": 3.0, "Q_15": 3.0, "O_15": 3.0, "city": "SCARSDALE", "beds": 121.0, "SR_15": 2.0}, {"Diff_star": 0.0, "addr": "3525 BAYCHESTER AVE", "SR_14": 3.0, "Q_14": 4.0, "name": "SPLIT ROCK REHAB AND HEALTH CARE CENTER", "SF_14": 3.0, "SF_15": 3.0, "cnty": "Bronx", "st": "NY", "Zip": 10466.0, "O_14": 3.0, "Q_15": 2.0, "O_15": 3.0, "city": "BRONX", "beds": 240.0, "SR_15": 3.0}, {"Diff_star": 0.0, "addr": "434 MONROE AVENUE", "SR_14": 1.0, "Q_14": 3.0, "name": "HORNELL GARDENS", "SF_14": 4.0, "SF_15": 4.0, "cnty": "Steuben", "st": "NY", "Zip": 14843.0, "O_14": 2.0, "Q_15": 2.0, "O_15": 2.0, "city": "HORNELL", "beds": 114.0, "SR_15": 1.0}, {"Diff_star": 0.0, "addr": "419 NORTH QUAKER LANE", "SR_14": 2.0, "Q_14": 4.0, "name": "QUAKER HILL MANOR", "SF_14": 3.0, "SF_15": 3.0, "cnty": "Dutchess", "st": "NY", "Zip": 12538.0, "O_14": 2.0, "Q_15": 2.0, "O_15": 2.0, "city": "HYDE PARK", "beds": 120.0, "SR_15": 2.0}, {"Diff_star": 0.0, "addr": "170 WARREN STREET", "SR_14": 1.0, "Q_14": 5.0, "name": "THE PINES AT GLENS FALLS CTR FOR NRSG & REHAB", "SF_14": 4.0, "SF_15": 4.0, "cnty": "Warren", "st": "NY", "Zip": 12801.0, "O_14": 2.0, "Q_15": 4.0, "O_15": 2.0, "city": "GLENS FALLS", "beds": 120.0, "SR_15": 1.0}, {"Diff_star": 0.0, "addr": "200 BASSETT ROAD", "SR_14": 4.0, "Q_14": 3.0, "name": "ELDERWOOD  AT WILLIAMSVILLE", "SF_14": 3.0, "SF_15": 3.0, "cnty": "Erie", "st": "NY", "Zip": 14221.0, "O_14": 4.0, "Q_15": 2.0, "O_15": 4.0, "city": "WILLIAMSVILLE", "beds": 200.0, "SR_15": 4.0}, {"Diff_star": -1.0, "addr": "143 10 20TH AVE", "SR_14": 4.0, "Q_14": 5.0, "name": "BRIDGE VIEW NURSING HOME INC", "SF_14": 1.0, "SF_15": 1.0, "cnty": "Queens", "st": "NY", "Zip": 11357.0, "O_14": 4.0, "Q_15": 4.0, "O_15": 3.0, "city": "WHITESTONE", "beds": 200.0, "SR_15": 4.0}, {"Diff_star": 0.0, "addr": "615 AVENUE C", "SR_14": 4.0, "Q_14": 4.0, "name": "PALM GARDENS CARE CENTER L L C", "SF_14": 2.0, "SF_15": 2.0, "cnty": "Kings", "st": "NY", "Zip": 11218.0, "O_14": 4.0, "Q_15": 2.0, "O_15": 4.0, "city": "BROOKLYN", "beds": 240.0, "SR_15": 4.0}, {"Diff_star": -1.0, "addr": "205 EAST FIRST STREET", "SR_14": 1.0, "Q_14": 4.0, "name": "CORNING CENTER FOR REHABILITATION AND HEALTHCARE", "SF_14": 4.0, "SF_15": 4.0, "cnty": "Steuben", "st": "NY", "Zip": 14830.0, "O_14": 2.0, "Q_15": 1.0, "O_15": 1.0, "city": "CORNING", "beds": 120.0, "SR_15": 1.0}, {"Diff_star": 0.0, "addr": "17 MADISON STREET", "SR_14": 1.0, "Q_14": 4.0, "name": "INDIAN RIVER REHAB AND NURSING CENTER", "SF_14": 3.0, "SF_15": 3.0, "cnty": "Washington", "st": "NY", "Zip": 12832.0, "O_14": 1.0, "Q_15": 1.0, "O_15": 1.0, "city": "GRANVILLE", "beds": 122.0, "SR_15": 1.0}, {"Diff_star": -1.0, "addr": "140 MEISNER AVENUE", "SR_14": 2.0, "Q_14": 5.0, "name": "EGER HEALTH CARE AND REHABILITATION CENTER", "SF_14": 3.0, "SF_15": 3.0, "cnty": "Richmond", "st": "NY", "Zip": 10306.0, "O_14": 3.0, "Q_15": 4.0, "O_15": 2.0, "city": "STATEN ISLAND", "beds": 378.0, "SR_15": 2.0}, {"Diff_star": -1.0, "addr": "191 06 HILLSIDE AVENUE", "SR_14": 4.0, "Q_14": 5.0, "name": "HOLLIS PARK MANOR NURSING HOME", "SF_14": 1.0, "SF_15": 1.0, "cnty": "Queens", "st": "NY", "Zip": 11423.0, "O_14": 4.0, "Q_15": 4.0, "O_15": 3.0, "city": "HOLLIS", "beds": 80.0, "SR_15": 4.0}, {"Diff_star": 0.0, "addr": "150 RIVERSIDE DRIVE", "SR_14": 2.0, "Q_14": 5.0, "name": "THE RIVERSIDE", "SF_14": 1.0, "SF_15": 1.0, "cnty": "New York", "st": "NY", "Zip": 10024.0, "O_14": 2.0, "Q_15": 5.0, "O_15": 2.0, "city": "NEW YORK", "beds": 520.0, "SR_15": 2.0}, {"Diff_star": -1.0, "addr": "164 11 CHAPIN PARKWAY", "SR_14": 3.0, "Q_14": 5.0, "name": "MARGARET TIETZ CENTER FOR NURSING", "SF_14": 2.0, "SF_15": 2.0, "cnty": "Queens", "st": "NY", "Zip": 11432.0, "O_14": 4.0, "Q_15": 4.0, "O_15": 3.0, "city": "JAMAICA", "beds": 200.0, "SR_15": 3.0}, {"Diff_star": 0.0, "addr": "16 GUION PLACE", "SR_14": 4.0, "Q_14": 5.0, "name": "SCHAFFER EXTENDED CARE CENTER, INC", "SF_14": 3.0, "SF_15": 3.0, "cnty": "Westchester", "st": "NY", "Zip": 10802.0, "O_14": 5.0, "Q_15": 5.0, "O_15": 5.0, "city": "NEW ROCHELLE", "beds": 150.0, "SR_15": 4.0}, {"Diff_star": 0.0, "addr": "918 JAMES STREET", "SR_14": 1.0, "Q_14": 3.0, "name": "JAMES SQUARE HEALTH AND REHAB CENTRE", "SF_14": 3.0, "SF_15": 3.0, "cnty": "Onondaga", "st": "NY", "Zip": 13203.0, "O_14": 1.0, "Q_15": 2.0, "O_15": 1.0, "city": "SYRACUSE", "beds": 455.0, "SR_15": 1.0}, {"Diff_star": 0.0, "addr": "42158 STATE HIGHWAY 28", "SR_14": 5.0, "Q_14": 5.0, "name": "MOUNTAINSIDE RESIDENTIAL CARE", "SF_14": 4.0, "SF_15": 3.0, "cnty": "Delaware", "st": "NY", "Zip": 12455.0, "O_14": 5.0, "Q_15": 5.0, "O_15": 5.0, "city": "MARGARETVILLE", "beds": 82.0, "SR_15": 5.0}, {"Diff_star": 0.0, "addr": "5460 MELTZER COURT", "SR_14": 1.0, "Q_14": 4.0, "name": "THE COTTAGES AT GARDEN GROVE, A  S N COMMUNITY", "SF_14": 4.0, "SF_15": 4.0, "cnty": "Onondaga", "st": "NY", "Zip": 13039.0, "O_14": 2.0, "Q_15": 3.0, "O_15": 2.0, "city": "CICERO", "beds": 242.0, "SR_15": 1.0}, {"Diff_star": -2.0, "addr": "1177 EAST HENRIETTA RD", "SR_14": 2.0, "Q_14": 5.0, "name": "THE HURLBUT", "SF_14": 4.0, "SF_15": 3.0, "cnty": "Monroe", "st": "NY", "Zip": 14623.0, "O_14": 4.0, "Q_15": 4.0, "O_15": 2.0, "city": "ROCHESTER", "beds": 160.0, "SR_15": 2.0}, {"Diff_star": -1.0, "addr": "3550 LEXINGTON AVENUE", "SR_14": 3.0, "Q_14": 5.0, "name": "NORTH WESTCHESTER RESTORATIVE THERAPY & N C", "SF_14": 3.0, "SF_15": 3.0, "cnty": "Westchester", "st": "NY", "Zip": 10547.0, "O_14": 4.0, "Q_15": 4.0, "O_15": 3.0, "city": "MOHEGAN LAKE", "beds": 120.0, "SR_15": 3.0}, {"Diff_star": 0.0, "addr": "ONE TERRACE HEIGHTS", "SR_14": 1.0, "Q_14": 4.0, "name": "CHASEHEALTH REHAB & RESIDENTIAL CARE", "SF_14": 3.0, "SF_15": 3.0, "cnty": "Chenango", "st": "NY", "Zip": 13411.0, "O_14": 1.0, "Q_15": 4.0, "O_15": 1.0, "city": "NEW BERLIN", "beds": 80.0, "SR_15": 1.0}, {"Diff_star": 0.0, "addr": "350 PARRISH STREET", "SR_14": 3.0, "Q_14": 4.0, "name": "M M EWING CONTINUING CARE CTR", "SF_14": 4.0, "SF_15": 4.0, "cnty": "Ontario", "st": "NY", "Zip": 14424.0, "O_14": 4.0, "Q_15": 2.0, "O_15": 4.0, "city": "CANANDAIGUA", "beds": 190.0, "SR_15": 3.0}, {"Diff_star": -1.0, "addr": "37 NORTH CHEMUNG STREET", "SR_14": 3.0, "Q_14": 4.0, "name": "ELDERWOOD AT WAVERLY", "SF_14": 4.0, "SF_15": 3.0, "cnty": "Tioga", "st": "NY", "Zip": 14892.0, "O_14": 4.0, "Q_15": 2.0, "O_15": 3.0, "city": "WAVERLY", "beds": 200.0, "SR_15": 3.0}, {"Diff_star": 1.0, "addr": "1235 PELHAM PARKWAY NORTH", "SR_14": 3.0, "Q_14": 5.0, "name": "MORRIS PARK NURSING AND REHAB CENTER", "SF_14": 1.0, "SF_15": 1.0, "cnty": "Bronx", "st": "NY", "Zip": 10469.0, "O_14": 3.0, "Q_15": 5.0, "O_15": 4.0, "city": "BRONX", "beds": 191.0, "SR_15": 4.0}, {"Diff_star": 0.0, "addr": "6526 SPRINGBROOK, PO BOX 514", "SR_14": 2.0, "Q_14": 4.0, "name": "NORTHERN DUTCHESS R H C F INC", "SF_14": 3.0, "SF_15": 3.0, "cnty": "Dutchess", "st": "NY", "Zip": 12572.0, "O_14": 2.0, "Q_15": 3.0, "O_15": 2.0, "city": "RHINEBECK", "beds": 100.0, "SR_15": 2.0}, {"Diff_star": -2.0, "addr": "119 - 19 GRAHAM COURT", "SR_14": 4.0, "Q_14": 5.0, "name": "CLIFFSIDE REHAB & H C C", "SF_14": 3.0, "SF_15": 4.0, "cnty": "Queens", "st": "NY", "Zip": 11354.0, "O_14": 5.0, "Q_15": 3.0, "O_15": 3.0, "city": "FLUSHING", "beds": 218.0, "SR_15": 2.0}, {"Diff_star": 0.0, "addr": "31 LOCKWOOD AVENUE", "SR_14": 4.0, "Q_14": 5.0, "name": "SUTTON PARK CTR NURSING REHAB", "SF_14": 3.0, "SF_15": 3.0, "cnty": "Westchester", "st": "NY", "Zip": 10801.0, "O_14": 5.0, "Q_15": 5.0, "O_15": 5.0, "city": "NEW ROCHELLE", "beds": 160.0, "SR_15": 4.0}, {"Diff_star": 0.0, "addr": "99 EAST STATE STREET", "SR_14": 2.0, "Q_14": 5.0, "name": "NATHAN LITTAUER HOSPITAL NURSING", "SF_14": 4.0, "SF_15": 4.0, "cnty": "Fulton", "st": "NY", "Zip": 12078.0, "O_14": 4.0, "Q_15": 5.0, "O_15": 4.0, "city": "GLOVERSVILLE", "beds": 84.0, "SR_15": 2.0}, {"Diff_star": 0.0, "addr": "4570 ROUTE 60", "SR_14": 4.0, "Q_14": 5.0, "name": "HERITAGE VILLAGE REHAB AND SKILLED NURSING INC.", "SF_14": 3.0, "SF_15": 3.0, "cnty": "Chautauqua", "st": "NY", "Zip": 14740.0, "O_14": 5.0, "Q_15": 5.0, "O_15": 5.0, "city": "GERRY", "beds": 120.0, "SR_15": 4.0}, {"Diff_star": 0.0, "addr": "179 NORTH BROAD STREET", "SR_14": 2.0, "Q_14": 4.0, "name": "CHENANGO MEMORIAL HOSPITAL", "SF_14": 4.0, "SF_15": 4.0, "cnty": "Chenango", "st": "NY", "Zip": 13815.0, "O_14": 3.0, "Q_15": 2.0, "O_15": 3.0, "city": "NORWICH", "beds": 80.0, "SR_15": 2.0}, {"Diff_star": 0.0, "addr": "150 BROAD ST", "SR_14": 4.0, "Q_14": 5.0, "name": "COMMUNITY MEMORIAL HOSPITAL S N F", "SF_14": 4.0, "SF_15": 3.0, "cnty": "Madison", "st": "NY", "Zip": 13346.0, "O_14": 5.0, "Q_15": 5.0, "O_15": 5.0, "city": "HAMILTON", "beds": 40.0, "SR_15": 4.0}, {"Diff_star": 0.0, "addr": "2245 WEST STATE STREET", "SR_14": 1.0, "Q_14": 2.0, "name": "THE PINES HEALTHCARE & REHABILITATION CTR OLEAN", "SF_14": 2.0, "SF_15": 2.0, "cnty": "Cattaraugus", "st": "NY", "Zip": 14760.0, "O_14": 1.0, "Q_15": 1.0, "O_15": 1.0, "city": "OLEAN", "beds": 120.0, "SR_15": 1.0}, {"Diff_star": 0.0, "addr": "3845 CARPENTER AVE", "SR_14": 5.0, "Q_14": 5.0, "name": "BRONX PARK REHABILITATION & NURSING CENTER", "SF_14": 2.0, "SF_15": 2.0, "cnty": "Bronx", "st": "NY", "Zip": 10467.0, "O_14": 5.0, "Q_15": 4.0, "O_15": 5.0, "city": "BRONX", "beds": 240.0, "SR_15": 5.0}, {"Diff_star": -1.0, "addr": "211 CHURCH STREET", "SR_14": 1.0, "Q_14": 2.0, "name": "SARATOGA HOSPITAL NURSING HOME", "SF_14": 5.0, "SF_15": 5.0, "cnty": "Saratoga", "st": "NY", "Zip": 12866.0, "O_14": 2.0, "Q_15": 1.0, "O_15": 1.0, "city": "SARATOGA SPRINGS", "beds": 36.0, "SR_15": 1.0}, {"Diff_star": 0.0, "addr": "2 COULTER ROAD", "SR_14": 3.0, "Q_14": 4.0, "name": "CLIFTON SPRINGS HOSPITAL & CLINIC EXTENDED CARE", "SF_14": 4.0, "SF_15": 4.0, "cnty": "Ontario", "st": "NY", "Zip": 14432.0, "O_14": 4.0, "Q_15": 2.0, "O_15": 4.0, "city": "CLIFTON SPRINGS", "beds": 108.0, "SR_15": 3.0}, {"Diff_star": 0.0, "addr": "42 41 201ST STREET", "SR_14": 4.0, "Q_14": 5.0, "name": "OZANAM HALL OF QUEENS NURSING", "SF_14": 5.0, "SF_15": 5.0, "cnty": "Queens", "st": "NY", "Zip": 11361.0, "O_14": 5.0, "Q_15": 5.0, "O_15": 5.0, "city": "BAYSIDE", "beds": 432.0, "SR_15": 4.0}, {"Diff_star": 0.0, "addr": "140 WEST MAIN STREET", "SR_14": 3.0, "Q_14": 5.0, "name": "CUBA MEMORIAL HOSPITAL INC S N F", "SF_14": 3.0, "SF_15": 3.0, "cnty": "Allegany", "st": "NY", "Zip": 14727.0, "O_14": 4.0, "Q_15": 5.0, "O_15": 4.0, "city": "CUBA", "beds": 61.0, "SR_15": 3.0}, {"Diff_star": 0.0, "addr": "476 CHRISTIAN HERALD ROAD", "SR_14": 3.0, "Q_14": 4.0, "name": "NYACK MANOR NURSING HOME", "SF_14": 1.0, "SF_15": 1.0, "cnty": "Rockland", "st": "NY", "Zip": 10989.0, "O_14": 2.0, "Q_15": 2.0, "O_15": 2.0, "city": "VALLEY COTTAGE", "beds": 160.0, "SR_15": 3.0}, {"Diff_star": 0.0, "addr": "2425 CLINTON AVENUE SOUTH", "SR_14": 4.0, "Q_14": 4.0, "name": "WOODSIDE MANOR NURSING HOME", "SF_14": 2.0, "SF_15": 2.0, "cnty": "Monroe", "st": "NY", "Zip": 14618.0, "O_14": 4.0, "Q_15": 2.0, "O_15": 4.0, "city": "ROCHESTER", "beds": 44.0, "SR_15": 4.0}, {"Diff_star": 0.0, "addr": "1555 LONG POND ROAD", "SR_14": 4.0, "Q_14": 4.0, "name": "PARK RIDGE NURSING HOME", "SF_14": 5.0, "SF_15": 5.0, "cnty": "Monroe", "st": "NY", "Zip": 14626.0, "O_14": 5.0, "Q_15": 3.0, "O_15": 5.0, "city": "ROCHESTER", "beds": 120.0, "SR_15": 4.0}, {"Diff_star": 0.0, "addr": "301 NANTUCKET DRIVE", "SR_14": 1.0, "Q_14": 3.0, "name": "ABSOLUT CTR FOR NURSING & REHAB ENDICOTT L L C", "SF_14": 2.0, "SF_15": 2.0, "cnty": "Broome", "st": "NY", "Zip": 13760.0, "O_14": 1.0, "Q_15": 1.0, "O_15": 1.0, "city": "ENDICOTT", "beds": 160.0, "SR_15": 1.0}, {"Diff_star": -2.0, "addr": "135 VANDERBILT AVE", "SR_14": 2.0, "Q_14": 5.0, "name": "NEW VANDERBILT REHAB AND CARE CENTER", "SF_14": 4.0, "SF_15": 3.0, "cnty": "Richmond", "st": "NY", "Zip": 10304.0, "O_14": 4.0, "Q_15": 3.0, "O_15": 2.0, "city": "STATEN ISLAND", "beds": 320.0, "SR_15": 2.0}, {"Diff_star": -1.0, "addr": "3518 BAINBRIDGE AVENUE", "SR_14": 3.0, "Q_14": 5.0, "name": "BAINBRIDGE NURSING AND REHAB CENTER", "SF_14": 1.0, "SF_15": 1.0, "cnty": "Bronx", "st": "NY", "Zip": 10467.0, "O_14": 3.0, "Q_15": 3.0, "O_15": 2.0, "city": "BRONX", "beds": 200.0, "SR_15": 3.0}, {"Diff_star": -1.0, "addr": "1800 BUTTERFIELD AVE", "SR_14": 1.0, "Q_14": 3.0, "name": "THE PINES AT UTICA CENTER FOR NRSG AND REHAB", "SF_14": 4.0, "SF_15": 3.0, "cnty": "Oneida", "st": "NY", "Zip": 13501.0, "O_14": 2.0, "Q_15": 1.0, "O_15": 1.0, "city": "UTICA", "beds": 117.0, "SR_15": 1.0}, {"Diff_star": -1.0, "addr": "220 STEUBEN STREET", "SR_14": 2.0, "Q_14": 3.0, "name": "SCHUYLER HOSPITAL INC & LONG TERM CARE UNIT S N F", "SF_14": 3.0, "SF_15": 3.0, "cnty": "Schuyler", "st": "NY", "Zip": 14865.0, "O_14": 2.0, "Q_15": 1.0, "O_15": 1.0, "city": "MONTOUR FALLS", "beds": 120.0, "SR_15": 2.0}, {"Diff_star": -1.0, "addr": "621 TENTH STREET", "SR_14": 1.0, "Q_14": 5.0, "name": "SCHOELLKOPF HEALTH CENTER", "SF_14": 4.0, "SF_15": 3.0, "cnty": "Niagara", "st": "NY", "Zip": 14302.0, "O_14": 2.0, "Q_15": 4.0, "O_15": 1.0, "city": "NIAGARA FALLS", "beds": 120.0, "SR_15": 1.0}, {"Diff_star": 0.0, "addr": "100 NEW TURNPIKE ROAD", "SR_14": 1.0, "Q_14": 3.0, "name": "DIAMOND HILL NURSING & REHABILITATION CENTER", "SF_14": 2.0, "SF_15": 1.0, "cnty": "Rensselaer", "st": "NY", "Zip": 12182.0, "O_14": 1.0, "Q_15": 2.0, "O_15": 1.0, "city": "TROY", "beds": 120.0, "SR_15": 1.0}, {"Diff_star": 0.0, "addr": "6884 MAPLE AVE", "SR_14": 3.0, "Q_14": 4.0, "name": "BLOSSOM VIEW NURSING HOME", "SF_14": 4.0, "SF_15": 4.0, "cnty": "Wayne", "st": "NY", "Zip": 14551.0, "O_14": 4.0, "Q_15": 3.0, "O_15": 4.0, "city": "SODUS", "beds": 130.0, "SR_15": 3.0}, {"Diff_star": 0.0, "addr": "111 26 CORONA AVENUE", "SR_14": 3.0, "Q_14": 5.0, "name": "REGO PARK NURSING HOME", "SF_14": 2.0, "SF_15": 3.0, "cnty": "Queens", "st": "NY", "Zip": 11368.0, "O_14": 4.0, "Q_15": 5.0, "O_15": 4.0, "city": "FLUSHING", "beds": 200.0, "SR_15": 3.0}, {"Diff_star": 0.0, "addr": "225 MAPLE AVENUE", "SR_14": 4.0, "Q_14": 4.0, "name": "NORTHERN METROPOLITAN R H C F INC", "SF_14": 4.0, "SF_15": 4.0, "cnty": "Rockland", "st": "NY", "Zip": 10952.0, "O_14": 4.0, "Q_15": 2.0, "O_15": 4.0, "city": "MONSEY", "beds": 120.0, "SR_15": 4.0}, {"Diff_star": -1.0, "addr": "555 ROCKAWAY PARKWAY", "SR_14": 4.0, "Q_14": 5.0, "name": "SCHULMAN AND SCHACHNE INST FOR NURSING & REHAB", "SF_14": 4.0, "SF_15": 3.0, "cnty": "Kings", "st": "NY", "Zip": 11212.0, "O_14": 5.0, "Q_15": 4.0, "O_15": 4.0, "city": "BROOKLYN", "beds": 448.0, "SR_15": 4.0}, {"Diff_star": -1.0, "addr": "3 ST ANTHONY STREET", "SR_14": 1.0, "Q_14": 3.0, "name": "AUBURN SENIOR SERVICES INC", "SF_14": 4.0, "SF_15": 3.0, "cnty": "Cayuga", "st": "NY", "Zip": 13021.0, "O_14": 2.0, "Q_15": 2.0, "O_15": 1.0, "city": "AUBURN", "beds": 297.0, "SR_15": 1.0}, {"Diff_star": -1.0, "addr": "115 BROADWAY", "SR_14": 3.0, "Q_14": 5.0, "name": "ST CABRINI NURSING HOME", "SF_14": 2.0, "SF_15": 2.0, "cnty": "Westchester", "st": "NY", "Zip": 10522.0, "O_14": 4.0, "Q_15": 4.0, "O_15": 3.0, "city": "DOBBS FERRY", "beds": 304.0, "SR_15": 3.0}, {"Diff_star": -2.0, "addr": "99 SIXTH AVENUE", "SR_14": 2.0, "Q_14": 2.0, "name": "MOHAWK VALLEY HEALTH CARE CENTER", "SF_14": 4.0, "SF_15": 3.0, "cnty": "Herkimer", "st": "NY", "Zip": 13357.0, "O_14": 3.0, "Q_15": 1.0, "O_15": 1.0, "city": "ILION", "beds": 120.0, "SR_15": 2.0}, {"Diff_star": -1.0, "addr": "50 15 BEACH CHANNEL DRIVE", "SR_14": 1.0, "Q_14": 5.0, "name": "PENINSULA NURSING AND REHABILITATION CENTER", "SF_14": 1.0, "SF_15": 1.0, "cnty": "Queens", "st": "NY", "Zip": 11691.0, "O_14": 2.0, "Q_15": 3.0, "O_15": 1.0, "city": "FAR ROCKAWAY", "beds": 200.0, "SR_15": 1.0}, {"Diff_star": -1.0, "addr": "1050 EAST 230TH STREET", "SR_14": 4.0, "Q_14": 5.0, "name": "LACONIA NURSING HOME", "SF_14": 1.0, "SF_15": 1.0, "cnty": "Bronx", "st": "NY", "Zip": 10466.0, "O_14": 4.0, "Q_15": 4.0, "O_15": 3.0, "city": "BRONX", "beds": 240.0, "SR_15": 4.0}, {"Diff_star": -1.0, "addr": "2781 ROUTE 9 , P O BOX 95", "SR_14": 1.0, "Q_14": 2.0, "name": "LIVINGSTON HILLS NURSING & REHABILITATION  CTR", "SF_14": 4.0, "SF_15": 4.0, "cnty": "Columbia", "st": "NY", "Zip": 12541.0, "O_14": 2.0, "Q_15": 1.0, "O_15": 1.0, "city": "LIVINGSTON", "beds": 120.0, "SR_15": 1.0}, {"Diff_star": -1.0, "addr": "49 OAKCREST AVE", "SR_14": 2.0, "Q_14": 4.0, "name": "OAK HOLLOW NURSING CENTER", "SF_14": 4.0, "SF_15": 3.0, "cnty": "Suffolk", "st": "NY", "Zip": 11953.0, "O_14": 3.0, "Q_15": 2.0, "O_15": 2.0, "city": "MIDDLE ISLAND", "beds": 164.0, "SR_15": 2.0}, {"Diff_star": 0.0, "addr": "2850 GRAND ISLAND BLVD", "SR_14": 3.0, "Q_14": 5.0, "name": "ELDERWOOD AT GRAND ISLAND", "SF_14": 2.0, "SF_15": 2.0, "cnty": "Erie", "st": "NY", "Zip": 14072.0, "O_14": 4.0, "Q_15": 5.0, "O_15": 4.0, "city": "GRAND ISLAND", "beds": 90.0, "SR_15": 3.0}, {"Diff_star": 0.0, "addr": "28 KELLOGG ROAD", "SR_14": 1.0, "Q_14": 4.0, "name": "CROWN CENTER FOR NURSING & REHABILITATION", "SF_14": 1.0, "SF_15": 1.0, "cnty": "Cortland", "st": "NY", "Zip": 13045.0, "O_14": 1.0, "Q_15": 1.0, "O_15": 1.0, "city": "CORTLAND", "beds": 200.0, "SR_15": 1.0}, {"Diff_star": -2.0, "addr": "282 RIVERSIDE DR", "SR_14": 2.0, "Q_14": 5.0, "name": "SUSQUEHANNA NURSING AND REHAB CENTER L L C", "SF_14": 4.0, "SF_15": 3.0, "cnty": "Broome", "st": "NY", "Zip": 13790.0, "O_14": 4.0, "Q_15": 4.0, "O_15": 2.0, "city": "JOHNSON CITY", "beds": 160.0, "SR_15": 2.0}, {"Diff_star": -2.0, "addr": "131 LAWRENCE STREET", "SR_14": 2.0, "Q_14": 5.0, "name": "WESLEY HEALTH CARE CENTER", "SF_14": 4.0, "SF_15": 3.0, "cnty": "Saratoga", "st": "NY", "Zip": 12866.0, "O_14": 4.0, "Q_15": 4.0, "O_15": 2.0, "city": "SARATOGA SPRINGS", "beds": 356.0, "SR_15": 2.0}, {"Diff_star": -1.0, "addr": "2817 ALBANY POST ROAD", "SR_14": 2.0, "Q_14": 3.0, "name": "MONTGOMERY NURSING AND REHABILITATION CENTER", "SF_14": 3.0, "SF_15": 3.0, "cnty": "Orange", "st": "NY", "Zip": 12549.0, "O_14": 2.0, "Q_15": 1.0, "O_15": 1.0, "city": "MONTGOMERY", "beds": 100.0, "SR_15": 2.0}, {"Diff_star": 0.0, "addr": "600 BATES ROAD", "SR_14": 2.0, "Q_14": 2.0, "name": "ORCHARD MANOR REHABILITATION AND NURSING CENTER", "SF_14": 1.0, "SF_15": 1.0, "cnty": "Orleans", "st": "NY", "Zip": 14103.0, "O_14": 1.0, "Q_15": 1.0, "O_15": 1.0, "city": "MEDINA", "beds": 160.0, "SR_15": 2.0}, {"Diff_star": -1.0, "addr": "115 PARK AVENUE", "SR_14": 3.0, "Q_14": 5.0, "name": "SANS SOUCI REHABILITATION AND NURSING CENTER", "SF_14": 1.0, "SF_15": 1.0, "cnty": "Westchester", "st": "NY", "Zip": 10703.0, "O_14": 3.0, "Q_15": 4.0, "O_15": 2.0, "city": "YONKERS", "beds": 120.0, "SR_15": 3.0}, {"Diff_star": 0.0, "addr": "260 VINEYARD AVE, RT 44/55", "SR_14": 2.0, "Q_14": 4.0, "name": "HUDSON VALLEY REHAB AND EXT CARE FACILITY", "SF_14": 2.0, "SF_15": 2.0, "cnty": "Ulster", "st": "NY", "Zip": 12528.0, "O_14": 2.0, "Q_15": 3.0, "O_15": 2.0, "city": "HIGHLAND", "beds": 203.0, "SR_15": 2.0}, {"Diff_star": 0.0, "addr": "200 DOUGLAS DRIVE", "SR_14": 3.0, "Q_14": 4.0, "name": "SENECA NURSING AND REHABILITATION CENTER", "SF_14": 1.0, "SF_15": 1.0, "cnty": "Seneca", "st": "NY", "Zip": 13165.0, "O_14": 2.0, "Q_15": 2.0, "O_15": 2.0, "city": "WATERLOO", "beds": 120.0, "SR_15": 3.0}, {"Diff_star": -1.0, "addr": "340 EAST MONTAUK HIGHWAY", "SR_14": 2.0, "Q_14": 5.0, "name": "MOMENTUM AT SOUTH BAY FOR REHABILATION AND NURSING", "SF_14": 3.0, "SF_15": 3.0, "cnty": "Suffolk", "st": "NY", "Zip": 11730.0, "O_14": 3.0, "Q_15": 4.0, "O_15": 2.0, "city": "EAST ISLIP", "beds": 160.0, "SR_15": 2.0}, {"Diff_star": -1.0, "addr": "6 FROWEIN ROAD", "SR_14": 2.0, "Q_14": 3.0, "name": "OASIS REHABILITATION AND NURSING, LLC", "SF_14": 4.0, "SF_15": 4.0, "cnty": "Suffolk", "st": "NY", "Zip": 11934.0, "O_14": 3.0, "Q_15": 1.0, "O_15": 2.0, "city": "CENTER MORICHES", "beds": 100.0, "SR_15": 2.0}, {"Diff_star": -1.0, "addr": "100 SUNSET DRIVE", "SR_14": 2.0, "Q_14": 3.0, "name": "WAYNE HEALTH CARE", "SF_14": 4.0, "SF_15": 4.0, "cnty": "Wayne", "st": "NY", "Zip": 14513.0, "O_14": 3.0, "Q_15": 1.0, "O_15": 2.0, "city": "NEWARK", "beds": 182.0, "SR_15": 2.0}, {"Diff_star": -1.0, "addr": "4975 ALBANY POST ROAD", "SR_14": 3.0, "Q_14": 3.0, "name": "RENAISSANCE REHABILITATION AND NURSING CARE CENTER", "SF_14": 3.0, "SF_15": 3.0, "cnty": "Dutchess", "st": "NY", "Zip": 12580.0, "O_14": 3.0, "Q_15": 1.0, "O_15": 2.0, "city": "STAATSBURG", "beds": 120.0, "SR_15": 3.0}, {"Diff_star": -1.0, "addr": "21 FERNCLIFF DRIVE", "SR_14": 2.0, "Q_14": 5.0, "name": "FERNCLIFF NURSING HOME CO INC", "SF_14": 1.0, "SF_15": 1.0, "cnty": "Dutchess", "st": "NY", "Zip": 12572.0, "O_14": 2.0, "Q_15": 4.0, "O_15": 1.0, "city": "RHINEBECK", "beds": 328.0, "SR_15": 2.0}, {"Diff_star": 0.0, "addr": "1529 NYE ROAD", "SR_14": 4.0, "Q_14": 4.0, "name": "WAYNE COUNTY NURSING HOME", "SF_14": 3.0, "SF_15": 3.0, "cnty": "Wayne", "st": "NY", "Zip": 14489.0, "O_14": 4.0, "Q_15": 2.0, "O_15": 4.0, "city": "LYONS", "beds": 192.0, "SR_15": 4.0}, {"Diff_star": 0.0, "addr": "1700 PENFIELD RD", "SR_14": 3.0, "Q_14": 5.0, "name": "PENFIELD PLACE", "SF_14": 2.0, "SF_15": 2.0, "cnty": "Monroe", "st": "NY", "Zip": 14526.0, "O_14": 4.0, "Q_15": 5.0, "O_15": 4.0, "city": "PENFIELD", "beds": 48.0, "SR_15": 3.0}, {"Diff_star": 0.0, "addr": "5 CHURCH STREET", "SR_14": 2.0, "Q_14": 5.0, "name": "WEDGEWOOD NURSING HOME", "SF_14": 4.0, "SF_15": 4.0, "cnty": "Monroe", "st": "NY", "Zip": 14559.0, "O_14": 4.0, "Q_15": 5.0, "O_15": 4.0, "city": "SPENCERPORT", "beds": 29.0, "SR_15": 2.0}, {"Diff_star": 0.0, "addr": "7000 COLLAMER RD", "SR_14": 1.0, "Q_14": 4.0, "name": "SUNNYSIDE CARE CENTER", "SF_14": 2.0, "SF_15": 2.0, "cnty": "Onondaga", "st": "NY", "Zip": 13057.0, "O_14": 1.0, "Q_15": 2.0, "O_15": 1.0, "city": "EAST SYRACUSE", "beds": 80.0, "SR_15": 1.0}, {"Diff_star": 0.0, "addr": "150 DARK HOLLOW ROAD", "SR_14": 1.0, "Q_14": 4.0, "name": "WATERS EDGE AT PORT JEFFERSON FOR REHAB & NURSING", "SF_14": 1.0, "SF_15": 1.0, "cnty": "Suffolk", "st": "NY", "Zip": 11777.0, "O_14": 1.0, "Q_15": 2.0, "O_15": 1.0, "city": "PORT JEFFERSON", "beds": 120.0, "SR_15": 1.0}, {"Diff_star": -1.0, "addr": "3035 WEST 24TH ST", "SR_14": 4.0, "Q_14": 5.0, "name": "SEA CREST HEALTH CARE CENTER", "SF_14": 2.0, "SF_15": 2.0, "cnty": "Kings", "st": "NY", "Zip": 11224.0, "O_14": 5.0, "Q_15": 3.0, "O_15": 4.0, "city": "BROOKLYN", "beds": 320.0, "SR_15": 4.0}, {"Diff_star": -1.0, "addr": "128 PHOENIX MILLS CROSS ROAD", "SR_14": 1.0, "Q_14": 4.0, "name": "OTSEGO MANOR", "SF_14": 4.0, "SF_15": 3.0, "cnty": "Otsego", "st": "NY", "Zip": 13326.0, "O_14": 2.0, "Q_15": 3.0, "O_15": 1.0, "city": "COOPERSTOWN", "beds": 174.0, "SR_15": 1.0}, {"Diff_star": -1.0, "addr": "ROUTE 40", "SR_14": 1.0, "Q_14": 4.0, "name": "WASHINGTON CENTER FOR REHABILITATION & HEALTHCARE", "SF_14": 4.0, "SF_15": 3.0, "cnty": "Washington", "st": "NY", "Zip": 12809.0, "O_14": 2.0, "Q_15": 2.0, "O_15": 1.0, "city": "ARGYLE", "beds": 122.0, "SR_15": 1.0}, {"Diff_star": 0.0, "addr": "350 BEACH 54TH STREET", "SR_14": 2.0, "Q_14": 5.0, "name": "LAWRENCE NURSING CARE CENTER", "SF_14": "", "SF_15": "", "cnty": "Queens", "st": "NY", "Zip": 11692.0, "O_14": 3.0, "Q_15": 5.0, "O_15": 3.0, "city": "ARVERNE", "beds": 200.0, "SR_15": 2.0}, {"Diff_star": 0.0, "addr": "61 35 DRY HARBOR ROAD", "SR_14": 5.0, "Q_14": 5.0, "name": "DRY HARBOR NURSING HOME", "SF_14": 2.0, "SF_15": 2.0, "cnty": "Queens", "st": "NY", "Zip": 11379.0, "O_14": 5.0, "Q_15": 5.0, "O_15": 5.0, "city": "MIDDLE VILLAGE", "beds": 360.0, "SR_15": 5.0}, {"Diff_star": 0.0, "addr": "87 SOUTH ROUTE 9W", "SR_14": 2.0, "Q_14": 4.0, "name": "NORTHERN RIVERVIEW HEALTH CARE", "SF_14": 4.0, "SF_15": 4.0, "cnty": "Rockland", "st": "NY", "Zip": 10927.0, "O_14": 3.0, "Q_15": 2.0, "O_15": 3.0, "city": "HAVERSTRAW", "beds": 182.0, "SR_15": 2.0}, {"Diff_star": 0.0, "addr": "2157 MAIN STREET", "SR_14": 4.0, "Q_14": 4.0, "name": "ST CATHERINE LABOURE HEALTH CARE CENTER", "SF_14": 2.0, "SF_15": 2.0, "cnty": "Erie", "st": "NY", "Zip": 14214.0, "O_14": 4.0, "Q_15": 4.0, "O_15": 4.0, "city": "BUFFALO", "beds": 80.0, "SR_15": 4.0}, {"Diff_star": -1.0, "addr": "20 WOOD COURT", "SR_14": 2.0, "Q_14": 5.0, "name": "TARRYTOWN HALL CARE CENTER", "SF_14": 1.0, "SF_15": 1.0, "cnty": "Westchester", "st": "NY", "Zip": 10591.0, "O_14": 2.0, "Q_15": 4.0, "O_15": 1.0, "city": "TARRYTOWN", "beds": 120.0, "SR_15": 2.0}, {"Diff_star": 0.0, "addr": "100 SANDY DRIVE", "SR_14": 2.0, "Q_14": 4.0, "name": "RIVER RIDGE LIVING CENTER", "SF_14": 1.0, "SF_15": 1.0, "cnty": "Montgomery", "st": "NY", "Zip": 12010.0, "O_14": 1.0, "Q_15": 3.0, "O_15": 1.0, "city": "AMSTERDAM", "beds": 120.0, "SR_15": 2.0}, {"Diff_star": 0.0, "addr": "278 BANK STREET", "SR_14": 2.0, "Q_14": 4.0, "name": "GENESEE COUNTY NURSING HOME", "SF_14": 4.0, "SF_15": 4.0, "cnty": "Genesee", "st": "NY", "Zip": 14020.0, "O_14": 3.0, "Q_15": 2.0, "O_15": 3.0, "city": "BATAVIA", "beds": 160.0, "SR_15": 2.0}, {"Diff_star": -1.0, "addr": "12 TIBBITS AVENUE", "SR_14": 4.0, "Q_14": 5.0, "name": "SCHNURMACHER CENTER FOR REHAB & NURSING", "SF_14": 1.0, "SF_15": 1.0, "cnty": "Westchester", "st": "NY", "Zip": 10606.0, "O_14": 4.0, "Q_15": 4.0, "O_15": 3.0, "city": "WHITE PLAINS", "beds": 225.0, "SR_15": 4.0}, {"Diff_star": 0.0, "addr": "780 ALBANY SHAKER ROAD", "SR_14": 1.0, "Q_14": 4.0, "name": "ALBANY COUNTY NURSING HOME", "SF_14": 4.0, "SF_15": 4.0, "cnty": "Albany", "st": "NY", "Zip": 12211.0, "O_14": 2.0, "Q_15": 3.0, "O_15": 2.0, "city": "ALBANY", "beds": 420.0, "SR_15": 1.0}, {"Diff_star": -1.0, "addr": "142 27 FRANKLIN AVENUE", "SR_14": 5.0, "Q_14": 5.0, "name": "FRANKLIN CENTER FOR REHAB AND NURSING", "SF_14": 1.0, "SF_15": 1.0, "cnty": "Queens", "st": "NY", "Zip": 11355.0, "O_14": 5.0, "Q_15": 4.0, "O_15": 4.0, "city": "FLUSHING", "beds": 320.0, "SR_15": 5.0}, {"Diff_star": -1.0, "addr": "323 GENESEE STREET", "SR_14": 3.0, "Q_14": 5.0, "name": "ONEIDA HEALTHCARE", "SF_14": 3.0, "SF_15": 3.0, "cnty": "Madison", "st": "NY", "Zip": 13421.0, "O_14": 4.0, "Q_15": 4.0, "O_15": 3.0, "city": "ONEIDA", "beds": 160.0, "SR_15": 3.0}, {"Diff_star": -3.0, "addr": "7785 NORTH STATE STREET", "SR_14": 4.0, "Q_14": 5.0, "name": "LEWIS COUNTY R H C F", "SF_14": 3.0, "SF_15": 2.0, "cnty": "Lewis", "st": "NY", "Zip": 13367.0, "O_14": 5.0, "Q_15": 4.0, "O_15": 2.0, "city": "LOWVILLE", "beds": 160.0, "SR_15": 2.0}, {"Diff_star": 0.0, "addr": "112 SKI BOWL ROAD", "SR_14": 3.0, "Q_14": 3.0, "name": "ADIRONDACK TRI COUNTY NURSING & REHABILITATION CTR", "SF_14": 4.0, "SF_15": 4.0, "cnty": "Warren", "st": "NY", "Zip": 12853.0, "O_14": 4.0, "Q_15": 2.0, "O_15": 4.0, "city": "NORTH CREEK", "beds": 75.0, "SR_15": 3.0}, {"Diff_star": -1.0, "addr": "133 PRATT ST", "SR_14": 2.0, "Q_14": 2.0, "name": "SAMARITAN KEEP NURSING HOME INC", "SF_14": 3.0, "SF_15": 3.0, "cnty": "Jefferson", "st": "NY", "Zip": 13601.0, "O_14": 2.0, "Q_15": 1.0, "O_15": 1.0, "city": "WATERTOWN", "beds": 272.0, "SR_15": 1.0}, {"Diff_star": 1.0, "addr": "375 EAST BAY DRIVE", "SR_14": 3.0, "Q_14": 4.0, "name": "KOMANOFF CTR FOR GERIATRIC & REHAB MEDICINE", "SF_14": 3.0, "SF_15": 4.0, "cnty": "Nassau", "st": "NY", "Zip": 11561.0, "O_14": 3.0, "Q_15": 3.0, "O_15": 4.0, "city": "LONG BEACH", "beds": 200.0, "SR_15": 3.0}, {"Diff_star": 0.0, "addr": "1503 MILITARY ROAD", "SR_14": 2.0, "Q_14": 5.0, "name": "MCAULEY RESIDENCE", "SF_14": 4.0, "SF_15": 4.0, "cnty": "Erie", "st": "NY", "Zip": 14217.0, "O_14": 4.0, "Q_15": 5.0, "O_15": 4.0, "city": "KENMORE", "beds": 160.0, "SR_15": 2.0}, {"Diff_star": 0.0, "addr": "260 19 NASSAU BLVD", "SR_14": 4.0, "Q_14": 5.0, "name": "LITTLE NECK CARE CENTER", "SF_14": 1.0, "SF_15": 1.0, "cnty": "Queens", "st": "NY", "Zip": 11362.0, "O_14": 4.0, "Q_15": 5.0, "O_15": 4.0, "city": "LITTLE NECK", "beds": 120.0, "SR_15": 4.0}, {"Diff_star": 0.0, "addr": "222 EAST MAIN STREET", "SR_14": 4.0, "Q_14": 4.0, "name": "JENNIE B RICHMOND CHAFFEE NURSING HOME CO., INC.", "SF_14": 4.0, "SF_15": 4.0, "cnty": "Erie", "st": "NY", "Zip": 14141.0, "O_14": 4.0, "Q_15": 3.0, "O_15": 4.0, "city": "SPRINGVILLE", "beds": 80.0, "SR_15": 4.0}, {"Diff_star": 0.0, "addr": "89-40  135TH  STREET", "SR_14": 5.0, "Q_14": 5.0, "name": "JAMAICA HOSPITAL NURSING HOME", "SF_14": 2.0, "SF_15": 2.0, "cnty": "Queens", "st": "NY", "Zip": 11418.0, "O_14": 5.0, "Q_15": 5.0, "O_15": 5.0, "city": "JAMAICA", "beds": 226.0, "SR_15": 5.0}, {"Diff_star": 0.0, "addr": "200 SEVENTH STREET", "SR_14": 1.0, "Q_14": 5.0, "name": "WATERFRONT CENTER FOR REHABILITATION & HEALTHCARE", "SF_14": 4.0, "SF_15": 4.0, "cnty": "Erie", "st": "NY", "Zip": 14201.0, "O_14": 2.0, "Q_15": 4.0, "O_15": 2.0, "city": "BUFFALO", "beds": 160.0, "SR_15": 1.0}, {"Diff_star": -1.0, "addr": "154 NORTH PROSPECT AVENUE", "SR_14": 3.0, "Q_14": 5.0, "name": "MEADOWBROOK HEALTHCARE", "SF_14": 2.0, "SF_15": 2.0, "cnty": "Clinton", "st": "NY", "Zip": 12901.0, "O_14": 4.0, "Q_15": 3.0, "O_15": 3.0, "city": "PLATTSBURGH", "beds": 201.0, "SR_15": 3.0}, {"Diff_star": -1.0, "addr": "1335 PORTLAND AVE", "SR_14": 1.0, "Q_14": 5.0, "name": "BLOSSOM NORTH NURSING AND REHABILITATION CENTER", "SF_14": 2.0, "SF_15": 2.0, "cnty": "Monroe", "st": "NY", "Zip": 14621.0, "O_14": 2.0, "Q_15": 3.0, "O_15": 1.0, "city": "ROCHESTER", "beds": 120.0, "SR_15": 1.0}, {"Diff_star": 0.0, "addr": "100 FRANKLIN STREET", "SR_14": 4.0, "Q_14": 5.0, "name": "THE PINES AT POUGHKEEPSIE CTR FOR NRSG & REHAB", "SF_14": 3.0, "SF_15": 3.0, "cnty": "Dutchess", "st": "NY", "Zip": 12601.0, "O_14": 5.0, "Q_15": 5.0, "O_15": 5.0, "city": "POUGHKEEPSIE", "beds": 200.0, "SR_15": 4.0}, {"Diff_star": -1.0, "addr": "110 OREGON ROAD", "SR_14": 4.0, "Q_14": 5.0, "name": "CORTLANDT HEALTHCARE L L C", "SF_14": 2.0, "SF_15": 2.0, "cnty": "Westchester", "st": "NY", "Zip": 10567.0, "O_14": 5.0, "Q_15": 3.0, "O_15": 4.0, "city": "CORTLANDT MANOR", "beds": 120.0, "SR_15": 4.0}, {"Diff_star": -1.0, "addr": "75 BEEKMAN STREET", "SR_14": 2.0, "Q_14": 2.0, "name": "CHAMPLAIN VALLEY PHYSICIANS HOSPITAL S N F", "SF_14": 4.0, "SF_15": 4.0, "cnty": "Clinton", "st": "NY", "Zip": 12901.0, "O_14": 3.0, "Q_15": 1.0, "O_15": 2.0, "city": "PLATTSBURGH", "beds": 95.0, "SR_15": 2.0}, {"Diff_star": 0.0, "addr": "1160 TELLER AVE", "SR_14": 3.0, "Q_14": 4.0, "name": "DAUGHTERS OF JACOB NURSING HOME CO, INC", "SF_14": 4.0, "SF_15": 4.0, "cnty": "Bronx", "st": "NY", "Zip": 10456.0, "O_14": 4.0, "Q_15": 4.0, "O_15": 4.0, "city": "BRONX", "beds": 515.0, "SR_15": 3.0}, {"Diff_star": 0.0, "addr": "139 66 35TH AVENUE", "SR_14": 5.0, "Q_14": 5.0, "name": "FLUSHING MANOR CARE CENTER", "SF_14": 2.0, "SF_15": 2.0, "cnty": "Queens", "st": "NY", "Zip": 11354.0, "O_14": 5.0, "Q_15": 4.0, "O_15": 5.0, "city": "FLUSHING", "beds": 278.0, "SR_15": 5.0}, {"Diff_star": -1.0, "addr": "787 KING STREET", "SR_14": 2.0, "Q_14": 5.0, "name": "KING STREET HOME INC", "SF_14": 4.0, "SF_15": 3.0, "cnty": "Westchester", "st": "NY", "Zip": 10573.0, "O_14": 4.0, "Q_15": 5.0, "O_15": 3.0, "city": "PORT CHESTER", "beds": 120.0, "SR_15": 2.0}, {"Diff_star": -1.0, "addr": "520 BEACH 19TH STREET", "SR_14": 3.0, "Q_14": 5.0, "name": "QUEENS NASSAU REHABILITATION AND NURSING CENTER", "SF_14": 2.0, "SF_15": 2.0, "cnty": "Queens", "st": "NY", "Zip": 11691.0, "O_14": 4.0, "Q_15": 2.0, "O_15": 3.0, "city": "FAR ROCKAWAY", "beds": 200.0, "SR_15": 3.0}, {"Diff_star": 0.0, "addr": "170 LAKE STREET", "SR_14": 4.0, "Q_14": 4.0, "name": "ACHIEVE REHAB AND NURSING FACILITY", "SF_14": 2.0, "SF_15": 2.0, "cnty": "Sullivan", "st": "NY", "Zip": 12754.0, "O_14": 4.0, "Q_15": 3.0, "O_15": 4.0, "city": "LIBERTY", "beds": 140.0, "SR_15": 4.0}, {"Diff_star": 0.0, "addr": "99 GOLDEN HILL DRIVE", "SR_14": 3.0, "Q_14": 4.0, "name": "GOLDEN HILL HEALTH CARE CENTER", "SF_14": 1.0, "SF_15": 1.0, "cnty": "Ulster", "st": "NY", "Zip": 12401.0, "O_14": 2.0, "Q_15": 3.0, "O_15": 2.0, "city": "KINGSTON", "beds": 280.0, "SR_15": 3.0}, {"Diff_star": 0.0, "addr": "1001 WEST STREET ROAD", "SR_14": 2.0, "Q_14": 2.0, "name": "CARTHAGE AREA HOSPITAL S N F", "SF_14": 3.0, "SF_15": 3.0, "cnty": "Jefferson", "st": "NY", "Zip": 13619.0, "O_14": 2.0, "Q_15": 2.0, "O_15": 2.0, "city": "CARTHAGE", "beds": 30.0, "SR_15": 2.0}, {"Diff_star": -1.0, "addr": "8101 STATE HIGHWAY 68", "SR_14": 2.0, "Q_14": 3.0, "name": "RIVER LEDGE HEALTH CARE AND REHABILITATION CENTER", "SF_14": 4.0, "SF_15": 3.0, "cnty": "St. Lawrence", "st": "NY", "Zip": 13669.0, "O_14": 3.0, "Q_15": 2.0, "O_15": 2.0, "city": "OGDENSBURG", "beds": 180.0, "SR_15": 2.0}, {"Diff_star": 0.0, "addr": "88 OLD TOWN ROAD", "SR_14": 4.0, "Q_14": 5.0, "name": "CARMEL RICHMOND HEALTHCARE AND REHAB CENTER", "SF_14": 3.0, "SF_15": 3.0, "cnty": "Richmond", "st": "NY", "Zip": 10304.0, "O_14": 5.0, "Q_15": 5.0, "O_15": 5.0, "city": "STATEN ISLAND", "beds": 300.0, "SR_15": 4.0}, {"Diff_star": -1.0, "addr": "168 WEST MAIN STREET", "SR_14": 2.0, "Q_14": 5.0, "name": "FIDDLERS GREEN MANOR REHABILITATION & NURSING CTR", "SF_14": 2.0, "SF_15": 2.0, "cnty": "Erie", "st": "NY", "Zip": 14141.0, "O_14": 3.0, "Q_15": 4.0, "O_15": 2.0, "city": "SPRINGVILLE", "beds": 82.0, "SR_15": 2.0}, {"Diff_star": 0.0, "addr": "9 RESERVOIR ROAD", "SR_14": 3.0, "Q_14": 4.0, "name": "DUTCHESS CENTER FOR REHAB AND HEALTHCARE", "SF_14": 4.0, "SF_15": 4.0, "cnty": "Dutchess", "st": "NY", "Zip": 12564.0, "O_14": 4.0, "Q_15": 2.0, "O_15": 4.0, "city": "PAWLING", "beds": 122.0, "SR_15": 3.0}, {"Diff_star": -1.0, "addr": "10 CLAREMONT AVE", "SR_14": 2.0, "Q_14": 5.0, "name": "WESTCHESTER CENTER FOR REHABILITATION & NURSING", "SF_14": 4.0, "SF_15": 3.0, "cnty": "Westchester", "st": "NY", "Zip": 10550.0, "O_14": 4.0, "Q_15": 5.0, "O_15": 3.0, "city": "MOUNT VERNON", "beds": 240.0, "SR_15": 2.0}, {"Diff_star": -1.0, "addr": "453 PARK STREET", "SR_14": 2.0, "Q_14": 4.0, "name": "MICHAUD RESIDENTIAL HEALTH SERVICES INC", "SF_14": 4.0, "SF_15": 3.0, "cnty": "Oswego", "st": "NY", "Zip": 13069.0, "O_14": 3.0, "Q_15": 4.0, "O_15": 2.0, "city": "FULTON", "beds": 89.0, "SR_15": 2.0}, {"Diff_star": 1.0, "addr": "227 MADISON STREET", "SR_14": 2.0, "Q_14": 5.0, "name": "NEW GOUVERNEUR HOSPITAL S N F", "SF_14": 5.0, "SF_15": 4.0, "cnty": "New York", "st": "NY", "Zip": 10002.0, "O_14": 4.0, "Q_15": 5.0, "O_15": 5.0, "city": "NEW YORK", "beds": 210.0, "SR_15": 3.0}, {"Diff_star": 0.0, "addr": "100 WEST KINGSBRIDGE ROAD", "SR_14": 4.0, "Q_14": 5.0, "name": "JEWISH HOME LIFECARE, HARRY & JEANETTE WEINBERG C", "SF_14": 2.0, "SF_15": 1.0, "cnty": "Bronx", "st": "NY", "Zip": 10468.0, "O_14": 5.0, "Q_15": 5.0, "O_15": 5.0, "city": "BRONX", "beds": 816.0, "SR_15": 5.0}, {"Diff_star": -1.0, "addr": "172 MEADOW HILL ROAD", "SR_14": 4.0, "Q_14": 5.0, "name": "ELANT AT MEADOW HILL", "SF_14": 3.0, "SF_15": 3.0, "cnty": "Orange", "st": "NY", "Zip": 12550.0, "O_14": 5.0, "Q_15": 4.0, "O_15": 4.0, "city": "NEWBURGH", "beds": 190.0, "SR_15": 4.0}, {"Diff_star": 0.0, "addr": "180 WASHINGTON AVE EXT", "SR_14": 2.0, "Q_14": 5.0, "name": "DAUGHTERS OF SARAH NURSING CENTER", "SF_14": 4.0, "SF_15": 3.0, "cnty": "Albany", "st": "NY", "Zip": 12203.0, "O_14": 4.0, "Q_15": 5.0, "O_15": 4.0, "city": "ALBANY", "beds": 210.0, "SR_15": 3.0}, {"Diff_star": -1.0, "addr": "323 KINGS ROAD", "SR_14": 3.0, "Q_14": 5.0, "name": "KINGSWAY ARMS NURSING CENTER INC", "SF_14": 3.0, "SF_15": 3.0, "cnty": "Schenectady", "st": "NY", "Zip": 12304.0, "O_14": 4.0, "Q_15": 4.0, "O_15": 3.0, "city": "SCHENECTADY", "beds": 160.0, "SR_15": 3.0}, {"Diff_star": 0.0, "addr": "6745 PITTSFORD PALMYRA ROAD", "SR_14": 5.0, "Q_14": 4.0, "name": "CREST MANOR LIVING AND REHABILITATION CENTER", "SF_14": 3.0, "SF_15": 3.0, "cnty": "Monroe", "st": "NY", "Zip": 14450.0, "O_14": 5.0, "Q_15": 3.0, "O_15": 5.0, "city": "FAIRPORT", "beds": 80.0, "SR_15": 5.0}, {"Diff_star": 0.0, "addr": "2235 MILLERSPORT HIGHWAY", "SR_14": 2.0, "Q_14": 4.0, "name": "BEECHWOOD HOMES", "SF_14": 4.0, "SF_15": 4.0, "cnty": "Erie", "st": "NY", "Zip": 14068.0, "O_14": 3.0, "Q_15": 2.0, "O_15": 3.0, "city": "GETZVILLE", "beds": 272.0, "SR_15": 2.0}, {"Diff_star": -1.0, "addr": "4915 10TH AVE", "SR_14": 3.0, "Q_14": 5.0, "name": "BORO PARK CENTER FOR NURSING AND REHAB CENTER", "SF_14": 4.0, "SF_15": 4.0, "cnty": "Kings", "st": "NY", "Zip": 11219.0, "O_14": 5.0, "Q_15": 4.0, "O_15": 4.0, "city": "BROOKLYN", "beds": 510.0, "SR_15": 3.0}, {"Diff_star": 0.0, "addr": "2535 GENESEE STREET", "SR_14": 1.0, "Q_14": 4.0, "name": "ST JOSEPH NURSING HOME", "SF_14": 4.0, "SF_15": 4.0, "cnty": "Oneida", "st": "NY", "Zip": 13501.0, "O_14": 2.0, "Q_15": 2.0, "O_15": 2.0, "city": "UTICA", "beds": 120.0, "SR_15": 1.0}, {"Diff_star": -1.0, "addr": "69 95 QUEENS MIDTOWN EXPRESSWAY", "SR_14": 3.0, "Q_14": 5.0, "name": "MIDWAY NURSING HOME INC", "SF_14": 1.0, "SF_15": 1.0, "cnty": "Queens", "st": "NY", "Zip": 11378.0, "O_14": 3.0, "Q_15": 4.0, "O_15": 2.0, "city": "MASPETH", "beds": 200.0, "SR_15": 3.0}, {"Diff_star": 0.0, "addr": "989 BLOSSOM ROAD", "SR_14": 1.0, "Q_14": 3.0, "name": "BRIGHTON MANOR", "SF_14": 1.0, "SF_15": 1.0, "cnty": "Monroe", "st": "NY", "Zip": 14610.0, "O_14": 1.0, "Q_15": 2.0, "O_15": 1.0, "city": "ROCHESTER", "beds": 80.0, "SR_15": 1.0}, {"Diff_star": 1.0, "addr": "2050 TILDEN AVE", "SR_14": 1.0, "Q_14": 4.0, "name": "CHARLES T SITRIN HEALTH CARE S N F", "SF_14": 4.0, "SF_15": 4.0, "cnty": "Oneida", "st": "NY", "Zip": 13413.0, "O_14": 2.0, "Q_15": 2.0, "O_15": 3.0, "city": "NEW HARTFORD", "beds": 156.0, "SR_15": 2.0}, {"Diff_star": 0.0, "addr": "3156 EAST AVENUE", "SR_14": 5.0, "Q_14": 5.0, "name": "THE FRIENDLY HOME", "SF_14": 3.0, "SF_15": 3.0, "cnty": "Monroe", "st": "NY", "Zip": 14618.0, "O_14": 5.0, "Q_15": 4.0, "O_15": 5.0, "city": "ROCHESTER", "beds": 204.0, "SR_15": 5.0}, {"Diff_star": -1.0, "addr": "PO BOX 127", "SR_14": 2.0, "Q_14": 2.0, "name": "ESSEX CENTER FOR REHABILITATION AND HEALTHCARE", "SF_14": 3.0, "SF_15": 3.0, "cnty": "Essex", "st": "NY", "Zip": 12932.0, "O_14": 2.0, "Q_15": 1.0, "O_15": 1.0, "city": "ELIZABETHTOWN", "beds": 100.0, "SR_15": 2.0}, {"Diff_star": -1.0, "addr": "103 WASHINGTON STREET", "SR_14": 2.0, "Q_14": 4.0, "name": "CHEMUNG COUNTY HEALTH CENTER", "SF_14": 4.0, "SF_15": 3.0, "cnty": "Chemung", "st": "NY", "Zip": 14901.0, "O_14": 3.0, "Q_15": 2.0, "O_15": 2.0, "city": "ELMIRA", "beds": 200.0, "SR_15": 2.0}, {"Diff_star": -1.0, "addr": "2709 TRANSIT RD", "SR_14": 3.0, "Q_14": 5.0, "name": "NEWFANE REHAB AND HEALTH CARE CENTER CORP.", "SF_14": 4.0, "SF_15": 4.0, "cnty": "Niagara", "st": "NY", "Zip": 14108.0, "O_14": 5.0, "Q_15": 3.0, "O_15": 4.0, "city": "NEWFANE", "beds": 175.0, "SR_15": 3.0}, {"Diff_star": 0.0, "addr": "1019 WICKER STREET", "SR_14": 1.0, "Q_14": 5.0, "name": "HERITAGE COMMONS RESIDENTIAL HEALTH CARE", "SF_14": 4.0, "SF_15": 4.0, "cnty": "Essex", "st": "NY", "Zip": 12883.0, "O_14": 2.0, "Q_15": 4.0, "O_15": 2.0, "city": "TICONDEROGA", "beds": 84.0, "SR_15": 1.0}, {"Diff_star": -1.0, "addr": "15 ST PAULS PLACE", "SR_14": 3.0, "Q_14": 5.0, "name": "GRACE PLAZA NURSING AND REHABILITATION CENTER", "SF_14": 2.0, "SF_15": 2.0, "cnty": "Nassau", "st": "NY", "Zip": 11021.0, "O_14": 4.0, "Q_15": 4.0, "O_15": 3.0, "city": "GREAT NECK", "beds": 214.0, "SR_15": 3.0}, {"Diff_star": -1.0, "addr": "1000 PELHAM PARKWAY SOUTH", "SR_14": 3.0, "Q_14": 5.0, "name": "MORNINGSIDE NURSING AND REHABILITATION CENTER", "SF_14": 3.0, "SF_15": 3.0, "cnty": "Bronx", "st": "NY", "Zip": 10461.0, "O_14": 4.0, "Q_15": 4.0, "O_15": 3.0, "city": "BRONX", "beds": 386.0, "SR_15": 3.0}, {"Diff_star": 0.0, "addr": "10836 TEMPLE ROAD", "SR_14": 1.0, "Q_14": 4.0, "name": "CHAUTAUQUA COUNTY HOME", "SF_14": 3.0, "SF_15": 3.0, "cnty": "Chautauqua", "st": "NY", "Zip": 14048.0, "O_14": 1.0, "Q_15": 2.0, "O_15": 1.0, "city": "DUNKIRK", "beds": 216.0, "SR_15": 1.0}, {"Diff_star": 0.0, "addr": "2401 LACONIA AVE", "SR_14": 5.0, "Q_14": 5.0, "name": "PELHAM PARKWAY NURSING CENTER AND REHAB FACILITY", "SF_14": 1.0, "SF_15": 1.0, "cnty": "Bronx", "st": "NY", "Zip": 10469.0, "O_14": 5.0, "Q_15": 5.0, "O_15": 5.0, "city": "BRONX", "beds": 200.0, "SR_15": 5.0}, {"Diff_star": -1.0, "addr": "395 SUNKEN MEADOW ROAD", "SR_14": 4.0, "Q_14": 5.0, "name": "ST JOHNLAND NURSING CENTER INC", "SF_14": 4.0, "SF_15": 3.0, "cnty": "Suffolk", "st": "NY", "Zip": 11754.0, "O_14": 5.0, "Q_15": 3.0, "O_15": 4.0, "city": "KINGS PARK", "beds": 250.0, "SR_15": 4.0}, {"Diff_star": -1.0, "addr": "3 UPTON PARK", "SR_14": 2.0, "Q_14": 5.0, "name": "WESLEY GARDENS CORPORATION", "SF_14": 3.0, "SF_15": 3.0, "cnty": "Monroe", "st": "NY", "Zip": 14607.0, "O_14": 3.0, "Q_15": 3.0, "O_15": 2.0, "city": "ROCHESTER", "beds": 200.0, "SR_15": 2.0}, {"Diff_star": 0.0, "addr": "17 SUNRISE TERRACE", "SR_14": 2.0, "Q_14": 4.0, "name": "MORNINGSTAR RESIDENTIAL CARE CENTER", "SF_14": 2.0, "SF_15": 2.0, "cnty": "Oswego", "st": "NY", "Zip": 13126.0, "O_14": 2.0, "Q_15": 3.0, "O_15": 2.0, "city": "OSWEGO", "beds": 120.0, "SR_15": 2.0}, {"Diff_star": 0.0, "addr": "17 NARRAGANSETT AVENUE", "SR_14": 4.0, "Q_14": 5.0, "name": "BETHEL NURSING HOME CO INC", "SF_14": 4.0, "SF_15": 4.0, "cnty": "Westchester", "st": "NY", "Zip": 10562.0, "O_14": 5.0, "Q_15": 5.0, "O_15": 5.0, "city": "OSSINING", "beds": 79.0, "SR_15": 4.0}, {"Diff_star": 0.0, "addr": "120 WEST 106TH STREET", "SR_14": 4.0, "Q_14": 5.0, "name": "JEWISH HOME LIFECARE, MANHATTAN", "SF_14": 2.0, "SF_15": 2.0, "cnty": "New York", "st": "NY", "Zip": 10025.0, "O_14": 5.0, "Q_15": 5.0, "O_15": 5.0, "city": "NEW YORK", "beds": 514.0, "SR_15": 4.0}, {"Diff_star": 0.0, "addr": "1072 GRAND CONCOURSE", "SR_14": 4.0, "Q_14": 5.0, "name": "CONCOURSE REHABILITATION AND NURSING CENTER INC", "SF_14": 1.0, "SF_15": 1.0, "cnty": "Bronx", "st": "NY", "Zip": 10456.0, "O_14": 4.0, "Q_15": 5.0, "O_15": 4.0, "city": "BRONX", "beds": 240.0, "SR_15": 4.0}, {"Diff_star": 0.0, "addr": "655 N LIBERTY STREET", "SR_14": 2.0, "Q_14": 4.0, "name": "PENN YAN MANOR NURSING HOME IN", "SF_14": 3.0, "SF_15": 3.0, "cnty": "Yates", "st": "NY", "Zip": 14527.0, "O_14": 2.0, "Q_15": 2.0, "O_15": 2.0, "city": "PENN YAN", "beds": 45.0, "SR_15": 2.0}, {"Diff_star": -1.0, "addr": "3530 WAYNE AVENUE", "SR_14": 3.0, "Q_14": 5.0, "name": "WAYNE CENTER FOR NURSING & REHABILITATION", "SF_14": 1.0, "SF_15": 1.0, "cnty": "Bronx", "st": "NY", "Zip": 10467.0, "O_14": 3.0, "Q_15": 4.0, "O_15": 2.0, "city": "BRONX", "beds": 243.0, "SR_15": 3.0}, {"Diff_star": 0.0, "addr": "8290 STATE RT 69", "SR_14": 3.0, "Q_14": 3.0, "name": "EASTERN STAR HOME AND INFIRMARY", "SF_14": 4.0, "SF_15": 4.0, "cnty": "Oneida", "st": "NY", "Zip": 13424.0, "O_14": 4.0, "Q_15": 3.0, "O_15": 4.0, "city": "ORISKANY", "beds": 84.0, "SR_15": 3.0}, {"Diff_star": -1.0, "addr": "645 W BROADWAY", "SR_14": 1.0, "Q_14": 5.0, "name": "GRANDELL REHABILITATION AND NURSING CENTER", "SF_14": 3.0, "SF_15": 3.0, "cnty": "Nassau", "st": "NY", "Zip": 11561.0, "O_14": 2.0, "Q_15": 4.0, "O_15": 1.0, "city": "LONG BEACH", "beds": 278.0, "SR_15": 1.0}, {"Diff_star": 0.0, "addr": "104 OLD NIAGARA ROAD", "SR_14": 2.0, "Q_14": 4.0, "name": "ODD FELLOW AND REBEKAH REHAB & HLTH CARE CTR INC", "SF_14": 3.0, "SF_15": 3.0, "cnty": "Niagara", "st": "NY", "Zip": 14094.0, "O_14": 2.0, "Q_15": 3.0, "O_15": 2.0, "city": "LOCKPORT", "beds": 126.0, "SR_15": 2.0}, {"Diff_star": 0.0, "addr": "191 BRADLEY AVE", "SR_14": 4.0, "Q_14": 4.0, "name": "GOLDEN GATE REHAB AND H C C", "SF_14": 2.0, "SF_15": 2.0, "cnty": "Richmond", "st": "NY", "Zip": 10314.0, "O_14": 4.0, "Q_15": 2.0, "O_15": 4.0, "city": "STATEN ISLAND", "beds": 238.0, "SR_15": 4.0}, {"Diff_star": -1.0, "addr": "195 44 WOODHULL AVENUE", "SR_14": 4.0, "Q_14": 5.0, "name": "HOLLISWOOD CENTER FOR REHABILITATION & HEALTHCARE", "SF_14": 4.0, "SF_15": 4.0, "cnty": "Queens", "st": "NY", "Zip": 11423.0, "O_14": 5.0, "Q_15": 4.0, "O_15": 4.0, "city": "HOLLIS", "beds": 314.0, "SR_15": 4.0}, {"Diff_star": 0.0, "addr": "2987 SENECA STREET", "SR_14": 5.0, "Q_14": 5.0, "name": "SENECA HEALTH CARE CENTER", "SF_14": 4.0, "SF_15": 3.0, "cnty": "Erie", "st": "NY", "Zip": 14224.0, "O_14": 5.0, "Q_15": 5.0, "O_15": 5.0, "city": "WEST SENECA", "beds": 160.0, "SR_15": 5.0}, {"Diff_star": -1.0, "addr": "91 31 175TH STREET", "SR_14": 3.0, "Q_14": 5.0, "name": "HIGHLAND CARE CENTER INC", "SF_14": 1.0, "SF_15": 1.0, "cnty": "Queens", "st": "NY", "Zip": 11432.0, "O_14": 3.0, "Q_15": 3.0, "O_15": 2.0, "city": "JAMAICA", "beds": 320.0, "SR_15": 3.0}, {"Diff_star": 0.0, "addr": "1010 UNDERHILL AVE", "SR_14": 2.0, "Q_14": 5.0, "name": "BRONX CENTER FOR REHAB HEALTH", "SF_14": 4.0, "SF_15": 4.0, "cnty": "Bronx", "st": "NY", "Zip": 10472.0, "O_14": 4.0, "Q_15": 5.0, "O_15": 4.0, "city": "BRONX", "beds": 200.0, "SR_15": 2.0}, {"Diff_star": -1.0, "addr": "6060 ARMOR ROAD", "SR_14": 2.0, "Q_14": 2.0, "name": "ABSOLUT CTR FOR NURSING & REHAB ORCHARD PARK L L C", "SF_14": 3.0, "SF_15": 2.0, "cnty": "Erie", "st": "NY", "Zip": 14127.0, "O_14": 2.0, "Q_15": 1.0, "O_15": 1.0, "city": "ORCHARD PARK", "beds": 202.0, "SR_15": 1.0}, {"Diff_star": -1.0, "addr": "1280 ALBANY POST RD", "SR_14": 5.0, "Q_14": 5.0, "name": "SKY VIEW REHABILITATION & HEALTH CARE CENTER L L C", "SF_14": 1.0, "SF_15": 1.0, "cnty": "Westchester", "st": "NY", "Zip": 10520.0, "O_14": 5.0, "Q_15": 4.0, "O_15": 4.0, "city": "CROTON ON HUDSON", "beds": 192.0, "SR_15": 5.0}, {"Diff_star": -1.0, "addr": "104 NORTH WASHINGTON STREET", "SR_14": 1.0, "Q_14": 4.0, "name": "FOLTS CENTER FOR REHABILITATION AND NURSING", "SF_14": 4.0, "SF_15": 2.0, "cnty": "Herkimer", "st": "NY", "Zip": 13350.0, "O_14": 2.0, "Q_15": 2.0, "O_15": 1.0, "city": "HERKIMER", "beds": 163.0, "SR_15": 1.0}, {"Diff_star": -1.0, "addr": "62 PROSPECT ST", "SR_14": 2.0, "Q_14": 3.0, "name": "EAST SIDE NURSING HOME", "SF_14": 4.0, "SF_15": 3.0, "cnty": "Wyoming", "st": "NY", "Zip": 14569.0, "O_14": 3.0, "Q_15": 2.0, "O_15": 2.0, "city": "WARSAW", "beds": 80.0, "SR_15": 2.0}, {"Diff_star": -1.0, "addr": "3015 W 29 ST", "SR_14": 5.0, "Q_14": 5.0, "name": "SEAGATE REHABILITATION AND NURSING CENTER", "SF_14": 1.0, "SF_15": 1.0, "cnty": "Kings", "st": "NY", "Zip": 11224.0, "O_14": 5.0, "Q_15": 3.0, "O_15": 4.0, "city": "BROOKLYN", "beds": 360.0, "SR_15": 5.0}, {"Diff_star": -1.0, "addr": "1360 ROUTE 112", "SR_14": 1.0, "Q_14": 5.0, "name": "WOODHAVEN NURSING HOME", "SF_14": 1.0, "SF_15": 1.0, "cnty": "Suffolk", "st": "NY", "Zip": 11776.0, "O_14": 2.0, "Q_15": 3.0, "O_15": 1.0, "city": "PORT JEFFERSON STATI", "beds": 143.0, "SR_15": 1.0}, {"Diff_star": 0.0, "addr": "127 SOUTH BROADWAY", "SR_14": 4.0, "Q_14": 5.0, "name": "ST JOSEPHS HOSP NURSING HOME OF YONKERS N Y", "SF_14": 1.0, "SF_15": 1.0, "cnty": "Westchester", "st": "NY", "Zip": 10701.0, "O_14": 4.0, "Q_15": 5.0, "O_15": 4.0, "city": "YONKERS", "beds": 200.0, "SR_15": 4.0}, {"Diff_star": 0.0, "addr": "140 ST EDWARDS STREET", "SR_14": 5.0, "Q_14": 5.0, "name": "ATLANTIS REHAB AND RESIDENTIAL H C F", "SF_14": 2.0, "SF_15": 2.0, "cnty": "Kings", "st": "NY", "Zip": 11201.0, "O_14": 5.0, "Q_15": 5.0, "O_15": 5.0, "city": "BROOKLYN", "beds": 400.0, "SR_15": 5.0}, {"Diff_star": 0.0, "addr": "25 BIALYSTOKER PLACE", "SR_14": 5.0, "Q_14": 5.0, "name": "NEW EAST SIDE NURSING HOME", "SF_14": 3.0, "SF_15": 3.0, "cnty": "New York", "st": "NY", "Zip": 10002.0, "O_14": 5.0, "Q_15": 3.0, "O_15": 5.0, "city": "NEW YORK", "beds": 58.0, "SR_15": 5.0}, {"Diff_star": 0.0, "addr": "149 BALLSTON AVENUE", "SR_14": 1.0, "Q_14": 4.0, "name": "SARATOGA COUNTY MAPLEWOOD MANOR", "SF_14": 2.0, "SF_15": 2.0, "cnty": "Saratoga", "st": "NY", "Zip": 12020.0, "O_14": 1.0, "Q_15": 2.0, "O_15": 1.0, "city": "BALLSTON SPA", "beds": 277.0, "SR_15": 1.0}, {"Diff_star": -1.0, "addr": "601 HIGH AVENUE", "SR_14": 1.0, "Q_14": 4.0, "name": "IDEAL SENIOR LIVING CENTER", "SF_14": 4.0, "SF_15": 3.0, "cnty": "Broome", "st": "NY", "Zip": 13760.0, "O_14": 2.0, "Q_15": 3.0, "O_15": 1.0, "city": "ENDICOTT", "beds": 150.0, "SR_15": 1.0}, {"Diff_star": 0.0, "addr": "5434 SECOND AVENUE", "SR_14": 4.0, "Q_14": 5.0, "name": "LUTHERAN AUGUSTANA CTR FOR EXTENDED CARE & REHAB", "SF_14": 2.0, "SF_15": 2.0, "cnty": "Kings", "st": "NY", "Zip": 11204.0, "O_14": 5.0, "Q_15": 5.0, "O_15": 5.0, "city": "BROOKLYN", "beds": 240.0, "SR_15": 4.0}, {"Diff_star": -1.0, "addr": "30 WEST 138TH STREET", "SR_14": 3.0, "Q_14": 5.0, "name": "GREATER HARLEM NURSING HOME CO", "SF_14": 1.0, "SF_15": 1.0, "cnty": "New York", "st": "NY", "Zip": 10037.0, "O_14": 3.0, "Q_15": 4.0, "O_15": 2.0, "city": "NEW YORK", "beds": 200.0, "SR_15": 3.0}, {"Diff_star": 0.0, "addr": "1270 67TH STREET", "SR_14": 4.0, "Q_14": 4.0, "name": "NORWEGIAN CHRISTIAN HOME & HEALTH CENTER", "SF_14": 4.0, "SF_15": 4.0, "cnty": "Kings", "st": "NY", "Zip": 11219.0, "O_14": 4.0, "Q_15": 3.0, "O_15": 4.0, "city": "BROOKLYN", "beds": 135.0, "SR_15": 4.0}, {"Diff_star": 0.0, "addr": "4499 MANHATTAN COLLEGE PARKWAY", "SR_14": 4.0, "Q_14": 4.0, "name": "METHODIST HOME FOR NURSING AND REHABILITATION", "SF_14": 2.0, "SF_15": 2.0, "cnty": "Bronx", "st": "NY", "Zip": 10471.0, "O_14": 4.0, "Q_15": 2.0, "O_15": 4.0, "city": "BRONX", "beds": 120.0, "SR_15": 4.0}, {"Diff_star": 0.0, "addr": "90 NO MAIN STREET", "SR_14": 2.0, "Q_14": 4.0, "name": "RIVERSIDE CENTER FOR REHABILITATION AND NURSING", "SF_14": 3.0, "SF_15": 3.0, "cnty": "Rensselaer", "st": "NY", "Zip": 12033.0, "O_14": 2.0, "Q_15": 4.0, "O_15": 2.0, "city": "CASTLETON ON HUDSON", "beds": 80.0, "SR_15": 2.0}, {"Diff_star": -1.0, "addr": "120 HIGHLAND AVENUE", "SR_14": 3.0, "Q_14": 3.0, "name": "HIGHLAND REHABILITATION AND NURSING CENTER", "SF_14": 1.0, "SF_15": 1.0, "cnty": "Orange", "st": "NY", "Zip": 10940.0, "O_14": 2.0, "Q_15": 1.0, "O_15": 1.0, "city": "MIDDLETOWN", "beds": 98.0, "SR_15": 3.0}, {"Diff_star": -1.0, "addr": "80 FAIRVIEW AVENUE", "SR_14": 2.0, "Q_14": 3.0, "name": "GOOD SHEPHERD FAIRVIEW HOME", "SF_14": 4.0, "SF_15": 4.0, "cnty": "Broome", "st": "NY", "Zip": 13904.0, "O_14": 3.0, "Q_15": 1.0, "O_15": 2.0, "city": "BINGHAMTON", "beds": 54.0, "SR_15": 2.0}, {"Diff_star": -1.0, "addr": "8 BUSHEY BOULEVARD", "SR_14": 2.0, "Q_14": 2.0, "name": "EVERGREEN VALLEY NURSING HOME", "SF_14": 4.0, "SF_15": 3.0, "cnty": "Clinton", "st": "NY", "Zip": 12901.0, "O_14": 3.0, "Q_15": 2.0, "O_15": 2.0, "city": "PLATTSBURGH", "beds": 89.0, "SR_15": 2.0}, {"Diff_star": 0.0, "addr": "182 15 HILLSIDE AVENUE", "SR_14": 5.0, "Q_14": 5.0, "name": "HILLSIDE MANOR REHAB AND EXTENDED CARE CENTER", "SF_14": 2.0, "SF_15": 2.0, "cnty": "Queens", "st": "NY", "Zip": 11432.0, "O_14": 5.0, "Q_15": 5.0, "O_15": 5.0, "city": "JAMAICA EST", "beds": 400.0, "SR_15": 5.0}, {"Diff_star": 0.0, "addr": "100 ST CAMILLUS WAY", "SR_14": 4.0, "Q_14": 4.0, "name": "AARON MANOR REHABILITATION & NURSING CENTER", "SF_14": 4.0, "SF_15": 3.0, "cnty": "Monroe", "st": "NY", "Zip": 14450.0, "O_14": 4.0, "Q_15": 3.0, "O_15": 4.0, "city": "FAIRPORT", "beds": 140.0, "SR_15": 4.0}, {"Diff_star": 0.0, "addr": "4540 LINCOLN DRIVE", "SR_14": 4.0, "Q_14": 4.0, "name": "ABSOLUT CTR FOR NURSING & REHAB GASPORT L L C", "SF_14": 1.0, "SF_15": 1.0, "cnty": "Niagara", "st": "NY", "Zip": 14067.0, "O_14": 3.0, "Q_15": 2.0, "O_15": 3.0, "city": "GASPORT", "beds": 83.0, "SR_15": 4.0}, {"Diff_star": 0.0, "addr": "451 BROAD STREET", "SR_14": 3.0, "Q_14": 4.0, "name": "ABSOLUT CTR FOR NURSING & REHAB SALAMANCA L L C", "SF_14": 2.0, "SF_15": 2.0, "cnty": "Cattaraugus", "st": "NY", "Zip": 14779.0, "O_14": 3.0, "Q_15": 4.0, "O_15": 3.0, "city": "SALAMANCA", "beds": 120.0, "SR_15": 3.0}, {"Diff_star": 0.0, "addr": "585 SCHENECTADY AVE", "SR_14": 1.0, "Q_14": 5.0, "name": "RUTLAND NURSING HOME CO INC", "SF_14": 2.0, "SF_15": 3.0, "cnty": "Kings", "st": "NY", "Zip": 11203.0, "O_14": 2.0, "Q_15": 4.0, "O_15": 2.0, "city": "BROOKLYN", "beds": 538.0, "SR_15": 2.0}, {"Diff_star": 0.0, "addr": "300 MADISON STREET", "SR_14": 1.0, "Q_14": 5.0, "name": "CONCORD NURSING HOME INC", "SF_14": 1.0, "SF_15": 1.0, "cnty": "Kings", "st": "NY", "Zip": 11216.0, "O_14": 2.0, "Q_15": 5.0, "O_15": 2.0, "city": "BROOKLYN", "beds": 140.0, "SR_15": 1.0}, {"Diff_star": 0.0, "addr": "111 BEACH DRIVE", "SR_14": 4.0, "Q_14": 5.0, "name": "OUR LADY OF CONSOLATION GERIATRIC CARE CENTER", "SF_14": 3.0, "SF_15": 3.0, "cnty": "Suffolk", "st": "NY", "Zip": 11795.0, "O_14": 5.0, "Q_15": 5.0, "O_15": 5.0, "city": "WEST ISLIP", "beds": 450.0, "SR_15": 4.0}, {"Diff_star": 0.0, "addr": "127 MAIN ST", "SR_14": 1.0, "Q_14": 4.0, "name": "GUILDERLAND CENTER REHABILITATION AND E C F", "SF_14": 4.0, "SF_15": 4.0, "cnty": "Albany", "st": "NY", "Zip": 12085.0, "O_14": 2.0, "Q_15": 2.0, "O_15": 2.0, "city": "GUILDERLAND CENTER", "beds": 127.0, "SR_15": 1.0}, {"Diff_star": 0.0, "addr": "2150 BLEECKER STREET", "SR_14": 1.0, "Q_14": 5.0, "name": "MASONIC CARE COMMUNITY OF NEW YORK", "SF_14": 4.0, "SF_15": 4.0, "cnty": "Oneida", "st": "NY", "Zip": 13501.0, "O_14": 2.0, "Q_15": 4.0, "O_15": 2.0, "city": "UTICA", "beds": 320.0, "SR_15": 1.0}, {"Diff_star": -2.0, "addr": "302 SWART HILL ROAD", "SR_14": 2.0, "Q_14": 4.0, "name": "CAPSTONE CENTER FOR REHABILITATION AND NURSING", "SF_14": 4.0, "SF_15": 3.0, "cnty": "Montgomery", "st": "NY", "Zip": 12010.0, "O_14": 3.0, "Q_15": 1.0, "O_15": 1.0, "city": "AMSTERDAM", "beds": 120.0, "SR_15": 2.0}, {"Diff_star": 0.0, "addr": "2266 CROPSEY AVENUE", "SR_14": 4.0, "Q_14": 4.0, "name": "SEPHARDIC NURSING AND REHABILITATION CENTER", "SF_14": 3.0, "SF_15": 3.0, "cnty": "Kings", "st": "NY", "Zip": 11214.0, "O_14": 4.0, "Q_15": 2.0, "O_15": 4.0, "city": "BROOKLYN", "beds": 271.0, "SR_15": 4.0}, {"Diff_star": 0.0, "addr": "4290 MIDDLE SETTLEMENT ROAD", "SR_14": 1.0, "Q_14": 3.0, "name": "PRESBYTERIAN HOME FOR CENTRAL NEW YORK INC", "SF_14": 3.0, "SF_15": 3.0, "cnty": "Oneida", "st": "NY", "Zip": 13413.0, "O_14": 1.0, "Q_15": 1.0, "O_15": 1.0, "city": "NEW HARTFORD", "beds": 242.0, "SR_15": 1.0}, {"Diff_star": -1.0, "addr": "217 EAST AVENUE", "SR_14": 1.0, "Q_14": 4.0, "name": "THE CROSSINGS NURSING AND REHAB CENTRE", "SF_14": 4.0, "SF_15": 3.0, "cnty": "Onondaga", "st": "NY", "Zip": 13116.0, "O_14": 2.0, "Q_15": 3.0, "O_15": 1.0, "city": "MINOA", "beds": 82.0, "SR_15": 1.0}, {"Diff_star": 1.0, "addr": "42 GURNEY LANE", "SR_14": 1.0, "Q_14": 5.0, "name": "WESTMOUNT HEALTH FACILITY", "SF_14": 4.0, "SF_15": 4.0, "cnty": "Warren", "st": "NY", "Zip": 12804.0, "O_14": 2.0, "Q_15": 4.0, "O_15": 3.0, "city": "QUEENSBURY", "beds": 80.0, "SR_15": 2.0}, {"Diff_star": 0.0, "addr": "270 NOSTRAND AVENUE", "SR_14": 1.0, "Q_14": 5.0, "name": "CABS NURSING HOME COMPANY INC", "SF_14": "", "SF_15": "", "cnty": "Kings", "st": "NY", "Zip": 11205.0, "O_14": 2.0, "Q_15": 5.0, "O_15": 2.0, "city": "BROOKLYN", "beds": 157.0, "SR_15": 1.0}, {"Diff_star": 0.0, "addr": "1919 ELMWOOD AVENUE", "SR_14": 2.0, "Q_14": 4.0, "name": "THE BRIGHTONIAN", "SF_14": 4.0, "SF_15": 4.0, "cnty": "Monroe", "st": "NY", "Zip": 14620.0, "O_14": 3.0, "Q_15": 4.0, "O_15": 3.0, "city": "ROCHESTER", "beds": 54.0, "SR_15": 2.0}, {"Diff_star": 0.0, "addr": "378 SYOSSET WOODBURY ROAD", "SR_14": 3.0, "Q_14": 5.0, "name": "COLD SPRINGS HILLS CTR FOR NURSING AND REHAB", "SF_14": 4.0, "SF_15": 4.0, "cnty": "Nassau", "st": "NY", "Zip": 11797.0, "O_14": 5.0, "Q_15": 5.0, "O_15": 5.0, "city": "WOODBURY", "beds": 672.0, "SR_15": 3.0}, {"Diff_star": 0.0, "addr": "525 BEAHAN ROAD", "SR_14": 1.0, "Q_14": 2.0, "name": "WESTGATE NURSING HOME", "SF_14": 1.0, "SF_15": 1.0, "cnty": "Monroe", "st": "NY", "Zip": 14624.0, "O_14": 1.0, "Q_15": 1.0, "O_15": 1.0, "city": "ROCHESTER", "beds": 124.0, "SR_15": 1.0}, {"Diff_star": 0.0, "addr": "1072 HAVEMEYER AVENUE", "SR_14": 3.0, "Q_14": 4.0, "name": "REBEKAH REHAB AND EXTENDED CARE CENTER", "SF_14": 1.0, "SF_15": 1.0, "cnty": "Bronx", "st": "NY", "Zip": 10462.0, "O_14": 2.0, "Q_15": 2.0, "O_15": 2.0, "city": "BRONX", "beds": 213.0, "SR_15": 3.0}, {"Diff_star": 0.0, "addr": "1740 84TH STREET", "SR_14": 3.0, "Q_14": 5.0, "name": "BENSONHURST CENTER FOR REHAB AND HEALTHCARE", "SF_14": 1.0, "SF_15": 1.0, "cnty": "Kings", "st": "NY", "Zip": 11214.0, "O_14": 3.0, "Q_15": 5.0, "O_15": 3.0, "city": "BROOKLYN", "beds": 200.0, "SR_15": 3.0}, {"Diff_star": 0.0, "addr": "255 WARNER AVENUE", "SR_14": 4.0, "Q_14": 4.0, "name": "SUNHARBOR MANOR", "SF_14": 2.0, "SF_15": 2.0, "cnty": "Nassau", "st": "NY", "Zip": 11577.0, "O_14": 4.0, "Q_15": 3.0, "O_15": 4.0, "city": "ROSLYN HEIGHTS", "beds": 266.0, "SR_15": 4.0}, {"Diff_star": 0.0, "addr": "135 LINDEN BOULEVARD", "SR_14": 4.0, "Q_14": 5.0, "name": "N Y CONGREGATIONAL NURSING CTR", "SF_14": 1.0, "SF_15": 1.0, "cnty": "Kings", "st": "NY", "Zip": 11226.0, "O_14": 4.0, "Q_15": 5.0, "O_15": 4.0, "city": "BROOKLYN", "beds": 200.0, "SR_15": 4.0}, {"Diff_star": 0.0, "addr": "200 LAFAYETTE AVENUE", "SR_14": 3.0, "Q_14": 5.0, "name": "STATEN ISLAND CARE CENTER", "SF_14": 2.0, "SF_15": 1.0, "cnty": "Richmond", "st": "NY", "Zip": 10301.0, "O_14": 4.0, "Q_15": 5.0, "O_15": 4.0, "city": "STATEN ISLAND", "beds": 300.0, "SR_15": 4.0}, {"Diff_star": 0.0, "addr": "11 MURRAY HILL DRIVE", "SR_14": 3.0, "Q_14": 4.0, "name": "LIVINGSTON COUNTY CENTER FOR NURSING AND REHAB", "SF_14": 3.0, "SF_15": 3.0, "cnty": "Livingston", "st": "NY", "Zip": 14510.0, "O_14": 3.0, "Q_15": 3.0, "O_15": 3.0, "city": "MOUNT MORRIS", "beds": 266.0, "SR_15": 3.0}, {"Diff_star": 0.0, "addr": "1500 NORTH JAMES STREET", "SR_14": 3.0, "Q_14": 4.0, "name": "ROME MEMORIAL HOSPITAL R H C F", "SF_14": 4.0, "SF_15": 4.0, "cnty": "Oneida", "st": "NY", "Zip": 13440.0, "O_14": 4.0, "Q_15": 2.0, "O_15": 4.0, "city": "ROME", "beds": 80.0, "SR_15": 3.0}, {"Diff_star": 0.0, "addr": "3062 COUNTY COMPLEX DRIVE", "SR_14": 3.0, "Q_14": 4.0, "name": "ONTARIO CENTER FOR REHABILITATION AND HEALTHCARE", "SF_14": "", "SF_15": "", "cnty": "Ontario", "st": "NY", "Zip": 14424.0, "O_14": 3.0, "Q_15": 2.0, "O_15": 3.0, "city": "CANANDAIGUA", "beds": 98.0, "SR_15": 3.0}, {"Diff_star": 0.0, "addr": "3230 CHURCH STREET", "SR_14": 1.0, "Q_14": 3.0, "name": "BARNWELL NURSING AND REHABILITATION CENTER", "SF_14": 1.0, "SF_15": 1.0, "cnty": "Columbia", "st": "NY", "Zip": 12184.0, "O_14": 1.0, "Q_15": 1.0, "O_15": 1.0, "city": "VALATIE", "beds": 228.0, "SR_15": 1.0}, {"Diff_star": 0.0, "addr": "205 OUTER STATE STREET ROAD", "SR_14": 3.0, "Q_14": 4.0, "name": "MAPLEWOOD HEALTH CARE AND REHABILITATION CENTER", "SF_14": 4.0, "SF_15": 4.0, "cnty": "St. Lawrence", "st": "NY", "Zip": 13617.0, "O_14": 4.0, "Q_15": 2.0, "O_15": 4.0, "city": "CANTON", "beds": 160.0, "SR_15": 3.0}, {"Diff_star": -1.0, "addr": "1325 BRENTWOOD ROAD", "SR_14": 4.0, "Q_14": 5.0, "name": "SUNRISE MANOR CTR FOR NURSING", "SF_14": 2.0, "SF_15": 2.0, "cnty": "Suffolk", "st": "NY", "Zip": 11706.0, "O_14": 5.0, "Q_15": 4.0, "O_15": 4.0, "city": "BAY SHORE", "beds": 84.0, "SR_15": 4.0}, {"Diff_star": -1.0, "addr": "170 WEST AVENUE", "SR_14": 3.0, "Q_14": 4.0, "name": "LAKESIDE BEIKIRCH CARE CTR", "SF_14": 4.0, "SF_15": 3.0, "cnty": "Monroe", "st": "NY", "Zip": 14420.0, "O_14": 4.0, "Q_15": 2.0, "O_15": 3.0, "city": "BROCKPORT", "beds": 120.0, "SR_15": 3.0}, {"Diff_star": 0.0, "addr": "1060 AMSTERDAM AVENUE", "SR_14": 5.0, "Q_14": 5.0, "name": "AMSTERDAM NURSING HOME CORP (1992)", "SF_14": 4.0, "SF_15": 4.0, "cnty": "New York", "st": "NY", "Zip": 10025.0, "O_14": 5.0, "Q_15": 5.0, "O_15": 5.0, "city": "NEW YORK", "beds": 409.0, "SR_15": 5.0}, {"Diff_star": -1.0, "addr": "353 BEACH 48TH STREET", "SR_14": 3.0, "Q_14": 5.0, "name": "ROCKAWAY CARE CENTER L L C", "SF_14": 1.0, "SF_15": 1.0, "cnty": "Queens", "st": "NY", "Zip": 11691.0, "O_14": 3.0, "Q_15": 4.0, "O_15": 2.0, "city": "FAR ROCKAWAY", "beds": 228.0, "SR_15": 3.0}, {"Diff_star": 0.0, "addr": "100 DANIEL DRIVE", "SR_14": 4.0, "Q_14": 4.0, "name": "MAPLEWOOD NURSING HOME INC", "SF_14": 4.0, "SF_15": 4.0, "cnty": "Monroe", "st": "NY", "Zip": 14580.0, "O_14": 4.0, "Q_15": 3.0, "O_15": 4.0, "city": "WEBSTER", "beds": 74.0, "SR_15": 4.0}, {"Diff_star": 0.0, "addr": "909 LINCOLN AVE", "SR_14": 5.0, "Q_14": 4.0, "name": "BRIODY HEALTH CARE FACILITY", "SF_14": 4.0, "SF_15": 4.0, "cnty": "Niagara", "st": "NY", "Zip": 14094.0, "O_14": 5.0, "Q_15": 4.0, "O_15": 5.0, "city": "LOCKPORT", "beds": 82.0, "SR_15": 5.0}, {"Diff_star": 0.0, "addr": "161 JEFFERSON HEIGHTS", "SR_14": 1.0, "Q_14": 3.0, "name": "KAATERSKILL CARE SKILLED NURSING AND REHAB", "SF_14": 3.0, "SF_15": 3.0, "cnty": "Greene", "st": "NY", "Zip": 12414.0, "O_14": 1.0, "Q_15": 2.0, "O_15": 1.0, "city": "CATSKILL", "beds": 120.0, "SR_15": 1.0}, {"Diff_star": 0.0, "addr": "4646 NINE MILE POINT ROAD", "SR_14": 2.0, "Q_14": 4.0, "name": "FAIRPORT BAPTIST HOMES", "SF_14": 4.0, "SF_15": 4.0, "cnty": "Monroe", "st": "NY", "Zip": 14450.0, "O_14": 3.0, "Q_15": 3.0, "O_15": 3.0, "city": "FAIRPORT", "beds": 196.0, "SR_15": 2.0}, {"Diff_star": 0.0, "addr": "1818 COMO PARK BLVD", "SR_14": 3.0, "Q_14": 4.0, "name": "ELDERWOOD AT LANCASTER", "SF_14": 2.0, "SF_15": 2.0, "cnty": "Erie", "st": "NY", "Zip": 14086.0, "O_14": 3.0, "Q_15": 3.0, "O_15": 3.0, "city": "LANCASTER", "beds": 94.0, "SR_15": 3.0}, {"Diff_star": 0.0, "addr": "9822 ROUTE 16", "SR_14": 3.0, "Q_14": 3.0, "name": "THE PINES HEALTHCARE & REHABILITATION CTR MACHIAS", "SF_14": 4.0, "SF_15": 4.0, "cnty": "Cattaraugus", "st": "NY", "Zip": 14101.0, "O_14": 4.0, "Q_15": 3.0, "O_15": 4.0, "city": "MACHIAS", "beds": 115.0, "SR_15": 3.0}, {"Diff_star": -1.0, "addr": "1045 WEST STREET", "SR_14": 3.0, "Q_14": 4.0, "name": "THE COUNTRY MANOR NURSING AND REHAB CTR", "SF_14": 4.0, "SF_15": 3.0, "cnty": "Jefferson", "st": "NY", "Zip": 13619.0, "O_14": 4.0, "Q_15": 3.0, "O_15": 3.0, "city": "CARTHAGE", "beds": 90.0, "SR_15": 3.0}, {"Diff_star": -1.0, "addr": "801 CO OP CITY BLVD", "SR_14": 2.0, "Q_14": 5.0, "name": "BAY PARK CENTER FOR NRSG AND REHAB L L C", "SF_14": 1.0, "SF_15": 1.0, "cnty": "Bronx", "st": "NY", "Zip": 10475.0, "O_14": 2.0, "Q_15": 4.0, "O_15": 1.0, "city": "BRONX", "beds": 480.0, "SR_15": 2.0}, {"Diff_star": 1.0, "addr": "250 BEACH 17TH STREET", "SR_14": 2.0, "Q_14": 5.0, "name": "BROOKHAVEN REHAB AND HEALTH CARE CENTER L L C", "SF_14": 1.0, "SF_15": 3.0, "cnty": "Queens", "st": "NY", "Zip": 11691.0, "O_14": 2.0, "Q_15": 5.0, "O_15": 3.0, "city": "FAR ROCKAWAY", "beds": 298.0, "SR_15": 2.0}, {"Diff_star": 0.0, "addr": "3304 WATERBURY AVENUE", "SR_14": 4.0, "Q_14": 4.0, "name": "PROVIDENCE REST INC", "SF_14": 2.0, "SF_15": 2.0, "cnty": "Bronx", "st": "NY", "Zip": 10465.0, "O_14": 4.0, "Q_15": 4.0, "O_15": 4.0, "city": "BRONX", "beds": 200.0, "SR_15": 4.0}, {"Diff_star": 0.0, "addr": "220 TOWER STREET", "SR_14": 2.0, "Q_14": 4.0, "name": "HARDING NURSING HOME", "SF_14": 2.0, "SF_15": 2.0, "cnty": "Oneida", "st": "NY", "Zip": 13480.0, "O_14": 2.0, "Q_15": 2.0, "O_15": 2.0, "city": "WATERVILLE", "beds": 92.0, "SR_15": 2.0}, {"Diff_star": -1.0, "addr": "755 E MONROE STREET", "SR_14": 1.0, "Q_14": 4.0, "name": "ALPINE REHABILITATION AND NURSING CENTER", "SF_14": 4.0, "SF_15": 3.0, "cnty": "Herkimer", "st": "NY", "Zip": 13365.0, "O_14": 2.0, "Q_15": 2.0, "O_15": 1.0, "city": "LITTLE FALLS", "beds": 80.0, "SR_15": 1.0}, {"Diff_star": 0.0, "addr": "232 ACADEMY STREET", "SR_14": 1.0, "Q_14": 3.0, "name": "SUNSET NURSING HOME INC", "SF_14": 2.0, "SF_15": 2.0, "cnty": "Oneida", "st": "NY", "Zip": 13309.0, "O_14": 1.0, "Q_15": 2.0, "O_15": 1.0, "city": "BOONVILLE", "beds": 120.0, "SR_15": 1.0}, {"Diff_star": 0.0, "addr": "331 RUSSELL STREET", "SR_14": 1.0, "Q_14": 4.0, "name": "CHITTENANGO CENTER FOR REHAB  HEALTH CARE", "SF_14": 5.0, "SF_15": 5.0, "cnty": "Madison", "st": "NY", "Zip": 13037.0, "O_14": 2.0, "Q_15": 3.0, "O_15": 2.0, "city": "CHITTENANGO", "beds": 80.0, "SR_15": 1.0}, {"Diff_star": 0.0, "addr": "801 NORTH JAMES STREET", "SR_14": 1.0, "Q_14": 4.0, "name": "ROME CENTER FOR REHABILITATION AND HEALTH CARE", "SF_14": 4.0, "SF_15": 4.0, "cnty": "Oneida", "st": "NY", "Zip": 13440.0, "O_14": 2.0, "Q_15": 2.0, "O_15": 2.0, "city": "ROME", "beds": 160.0, "SR_15": 1.0}, {"Diff_star": 0.0, "addr": "303 EAST RIVER ROAD", "SR_14": 1.0, "Q_14": 2.0, "name": "PONTIAC NURSING HOME", "SF_14": 1.0, "SF_15": 1.0, "cnty": "Oswego", "st": "NY", "Zip": 13126.0, "O_14": 1.0, "Q_15": 1.0, "O_15": 1.0, "city": "OSWEGO", "beds": 80.0, "SR_15": 1.0}, {"Diff_star": -1.0, "addr": "89 GROVE STREET", "SR_14": 2.0, "Q_14": 4.0, "name": "ST REGIS NURSING HOME  INC", "SF_14": 3.0, "SF_15": 3.0, "cnty": "St. Lawrence", "st": "NY", "Zip": 13662.0, "O_14": 2.0, "Q_15": 1.0, "O_15": 1.0, "city": "MASSENA", "beds": 159.0, "SR_15": 2.0}, {"Diff_star": -1.0, "addr": "1175 DELAWARE AVE", "SR_14": 2.0, "Q_14": 4.0, "name": "EMERALD SOUTH NURSING AND REHABILITATION CENTER", "SF_14": 3.0, "SF_15": 3.0, "cnty": "Erie", "st": "NY", "Zip": 14209.0, "O_14": 2.0, "Q_15": 1.0, "O_15": 1.0, "city": "BUFFALO", "beds": 122.0, "SR_15": 2.0}, {"Diff_star": -1.0, "addr": "447 449 LAKE SHORE DRIVE WEST", "SR_14": 2.0, "Q_14": 2.0, "name": "ABSOLUT CTR FOR NURSING & REHAB DUNKIRK L L C", "SF_14": 2.0, "SF_15": 2.0, "cnty": "Chautauqua", "st": "NY", "Zip": 14048.0, "O_14": 2.0, "Q_15": 1.0, "O_15": 1.0, "city": "DUNKIRK", "beds": 40.0, "SR_15": 2.0}, {"Diff_star": -1.0, "addr": "25 SCHOENFELD BLVD", "SR_14": 1.0, "Q_14": 3.0, "name": "SUFFOLK CENTER FOR REHABILITATION AND NRSG", "SF_14": 4.0, "SF_15": 4.0, "cnty": "Suffolk", "st": "NY", "Zip": 11772.0, "O_14": 2.0, "Q_15": 1.0, "O_15": 1.0, "city": "PATCHOGUE", "beds": 120.0, "SR_15": 1.0}, {"Diff_star": -2.0, "addr": "16 FLYNN AVENUE", "SR_14": 3.0, "Q_14": 2.0, "name": "CLINTON COUNTY NURSING HOME", "SF_14": 4.0, "SF_15": 3.0, "cnty": "Clinton", "st": "NY", "Zip": 12901.0, "O_14": 4.0, "Q_15": 1.0, "O_15": 2.0, "city": "PLATTSBURGH", "beds": 81.0, "SR_15": 3.0}, {"Diff_star": 0.0, "addr": "1657 SUNSET AVE", "SR_14": 1.0, "Q_14": 3.0, "name": "HERITAGE HEALTH CARE CENTER", "SF_14": 3.0, "SF_15": 3.0, "cnty": "Oneida", "st": "NY", "Zip": 13502.0, "O_14": 1.0, "Q_15": 1.0, "O_15": 1.0, "city": "UTICA", "beds": 220.0, "SR_15": 1.0}, {"Diff_star": -2.0, "addr": "21 DANFORTH STREET", "SR_14": 3.0, "Q_14": 5.0, "name": "THE CENTER FOR NURSING AND REHAB AT HOOSICK FALLS", "SF_14": 4.0, "SF_15": 3.0, "cnty": "Rensselaer", "st": "NY", "Zip": 12090.0, "O_14": 5.0, "Q_15": 4.0, "O_15": 3.0, "city": "HOOSICK FALLS", "beds": 82.0, "SR_15": 3.0}, {"Diff_star": 0.0, "addr": "3333 ELMWOOD AVENUE", "SR_14": 2.0, "Q_14": 5.0, "name": "SCHOFIELD RESIDENCE", "SF_14": 4.0, "SF_15": 4.0, "cnty": "Erie", "st": "NY", "Zip": 14217.0, "O_14": 4.0, "Q_15": 5.0, "O_15": 4.0, "city": "KENMORE", "beds": 120.0, "SR_15": 2.0}, {"Diff_star": -1.0, "addr": "1485 DUMONT AVENUE", "SR_14": 4.0, "Q_14": 5.0, "name": "BROOKLYN UNITED METHODIST CHURCH HOME", "SF_14": 1.0, "SF_15": 1.0, "cnty": "Kings", "st": "NY", "Zip": 11208.0, "O_14": 4.0, "Q_15": 4.0, "O_15": 3.0, "city": "BROOKLYN", "beds": 120.0, "SR_15": 4.0}, {"Diff_star": 0.0, "addr": "110 30 221ST ST", "SR_14": 5.0, "Q_14": 5.0, "name": "QUEEN OF PEACE RESIDENCE", "SF_14": 4.0, "SF_15": 4.0, "cnty": "Queens", "st": "NY", "Zip": 11429.0, "O_14": 5.0, "Q_15": 5.0, "O_15": 5.0, "city": "QUEENS VILLAGE", "beds": 53.0, "SR_15": 5.0}, {"Diff_star": 0.0, "addr": "2806 GEORGE STREET", "SR_14": 4.0, "Q_14": 2.0, "name": "ABSOLUT CTR FOR NURSING & REHAB EDEN L L C", "SF_14": 2.0, "SF_15": 2.0, "cnty": "Erie", "st": "NY", "Zip": 14057.0, "O_14": 4.0, "Q_15": 2.0, "O_15": 4.0, "city": "EDEN", "beds": 40.0, "SR_15": 4.0}, {"Diff_star": 0.0, "addr": "810 20 ST MARKS AVENUE", "SR_14": 3.0, "Q_14": 5.0, "name": "CROWN HEIGHTS CENTER FOR NURSING & REHABILITATION", "SF_14": 3.0, "SF_15": 3.0, "cnty": "Kings", "st": "NY", "Zip": 11213.0, "O_14": 4.0, "Q_15": 5.0, "O_15": 4.0, "city": "BROOKLYN", "beds": 295.0, "SR_15": 3.0}, {"Diff_star": 0.0, "addr": "2178 NORTH FIFTH STREET", "SR_14": 4.0, "Q_14": 3.0, "name": "ABSOLUT CTR FOR NURSING & REHAB ALLEGANY L L C", "SF_14": 1.0, "SF_15": 1.0, "cnty": "Cattaraugus", "st": "NY", "Zip": 14706.0, "O_14": 3.0, "Q_15": 2.0, "O_15": 3.0, "city": "ALLEGANY", "beds": 37.0, "SR_15": 4.0}, {"Diff_star": -1.0, "addr": "490 PELHAM ROAD", "SR_14": 4.0, "Q_14": 5.0, "name": "GLEN ISLAND  CENTER FOR NURSING AND REHAB", "SF_14": 2.0, "SF_15": 2.0, "cnty": "Westchester", "st": "NY", "Zip": 10805.0, "O_14": 5.0, "Q_15": 2.0, "O_15": 4.0, "city": "NEW ROCHELLE", "beds": 182.0, "SR_15": 4.0}, {"Diff_star": -1.0, "addr": "297 N BALLSTON AVE", "SR_14": 1.0, "Q_14": 5.0, "name": "BAPTIST HEALTH N  &  R", "SF_14": 4.0, "SF_15": 3.0, "cnty": "Schenectady", "st": "NY", "Zip": 12302.0, "O_14": 2.0, "Q_15": 4.0, "O_15": 1.0, "city": "SCOTIA", "beds": 262.0, "SR_15": 1.0}, {"Diff_star": 0.0, "addr": "46 BROOKMEADE DRIVE", "SR_14": 4.0, "Q_14": 4.0, "name": "THE BAPTIST HOME AT BROOKMEADE", "SF_14": 3.0, "SF_15": 3.0, "cnty": "Dutchess", "st": "NY", "Zip": 12572.0, "O_14": 4.0, "Q_15": 4.0, "O_15": 4.0, "city": "RHINEBECK", "beds": 120.0, "SR_15": 4.0}, {"Diff_star": 0.0, "addr": "40 KEOGH LANE", "SR_14": 5.0, "Q_14": 4.0, "name": "BAYBERRY NURSING HOME", "SF_14": 4.0, "SF_15": 4.0, "cnty": "Westchester", "st": "NY", "Zip": 10805.0, "O_14": 5.0, "Q_15": 2.0, "O_15": 5.0, "city": "NEW ROCHELLE", "beds": 60.0, "SR_15": 5.0}, {"Diff_star": 0.0, "addr": "1172 LONG POND ROAD", "SR_14": 3.0, "Q_14": 5.0, "name": "HAMILTON MANOR NURSING HOME", "SF_14": 4.0, "SF_15": 4.0, "cnty": "Monroe", "st": "NY", "Zip": 14626.0, "O_14": 5.0, "Q_15": 5.0, "O_15": 5.0, "city": "ROCHESTER", "beds": 40.0, "SR_15": 3.0}, {"Diff_star": 0.0, "addr": "2100 LATTA ROAD", "SR_14": 1.0, "Q_14": 5.0, "name": "LATTA ROAD NURSING HOME", "SF_14": 4.0, "SF_15": 4.0, "cnty": "Monroe", "st": "NY", "Zip": 14612.0, "O_14": 2.0, "Q_15": 5.0, "O_15": 2.0, "city": "ROCHESTER", "beds": 38.0, "SR_15": 1.0}, {"Diff_star": 0.0, "addr": "2102 LATTA ROAD", "SR_14": 5.0, "Q_14": 5.0, "name": "LATTA ROAD NURSING HOME A", "SF_14": 4.0, "SF_15": 5.0, "cnty": "Monroe", "st": "NY", "Zip": 14612.0, "O_14": 5.0, "Q_15": 4.0, "O_15": 5.0, "city": "ROCHESTER", "beds": 40.0, "SR_15": 4.0}, {"Diff_star": -1.0, "addr": "182 HIGHLAND ROAD", "SR_14": 1.0, "Q_14": 2.0, "name": "HIGHLAND NURSING HOME INC", "SF_14": 4.0, "SF_15": 4.0, "cnty": "St. Lawrence", "st": "NY", "Zip": 13662.0, "O_14": 2.0, "Q_15": 1.0, "O_15": 1.0, "city": "MASSENA", "beds": 140.0, "SR_15": 1.0}, {"Diff_star": -1.0, "addr": "89 GENESEE STREET", "SR_14": 2.0, "Q_14": 3.0, "name": "UNITY LIVING CENTER", "SF_14": 4.0, "SF_15": 4.0, "cnty": "Monroe", "st": "NY", "Zip": 14611.0, "O_14": 3.0, "Q_15": 1.0, "O_15": 2.0, "city": "ROCHESTER", "beds": 120.0, "SR_15": 2.0}, {"Diff_star": 0.0, "addr": "391 PELHAM ROAD", "SR_14": 5.0, "Q_14": 5.0, "name": "UNITED HEBREW GERIATRIC CENTER", "SF_14": 4.0, "SF_15": 3.0, "cnty": "Westchester", "st": "NY", "Zip": 10805.0, "O_14": 5.0, "Q_15": 5.0, "O_15": 5.0, "city": "NEW ROCHELLE", "beds": 296.0, "SR_15": 5.0}, {"Diff_star": 0.0, "addr": "520 PROSPECT PLACE", "SR_14": 4.0, "Q_14": 5.0, "name": "CENTER FOR NURSING AND REHABILITATION S N F", "SF_14": 1.0, "SF_15": 1.0, "cnty": "Kings", "st": "NY", "Zip": 11238.0, "O_14": 4.0, "Q_15": 5.0, "O_15": 4.0, "city": "BROOKLYN", "beds": 320.0, "SR_15": 4.0}, {"Diff_star": -1.0, "addr": "40 HEYWARD STREET", "SR_14": 2.0, "Q_14": 5.0, "name": "BEDFORD CENTER FOR NURSING AND REHABILITATION", "SF_14": 2.0, "SF_15": 2.0, "cnty": "Kings", "st": "NY", "Zip": 11249.0, "O_14": 3.0, "Q_15": 4.0, "O_15": 2.0, "city": "BROOKLYN", "beds": 200.0, "SR_15": 2.0}, {"Diff_star": 0.0, "addr": "200 WASHINGTON AVE EXT", "SR_14": 1.0, "Q_14": 5.0, "name": "TERESIAN HOUSE NURSING HOME CO", "SF_14": 4.0, "SF_15": 4.0, "cnty": "Albany", "st": "NY", "Zip": 12203.0, "O_14": 2.0, "Q_15": 4.0, "O_15": 2.0, "city": "ALBANY", "beds": 302.0, "SR_15": 1.0}, {"Diff_star": 0.0, "addr": "256 SUNSET LAKE ROAD", "SR_14": 1.0, "Q_14": 2.0, "name": "SULLIVAN COUNTY ADULT CARE CENTER", "SF_14": 4.0, "SF_15": 4.0, "cnty": "Sullivan", "st": "NY", "Zip": 12754.0, "O_14": 2.0, "Q_15": 2.0, "O_15": 2.0, "city": "LIBERTY", "beds": 160.0, "SR_15": 1.0}, {"Diff_star": 0.0, "addr": "5901 PALISADE AVENUE", "SR_14": 4.0, "Q_14": 5.0, "name": "PALISADE NURSING HOME COMPANY", "SF_14": 2.0, "SF_15": 2.0, "cnty": "Bronx", "st": "NY", "Zip": 10471.0, "O_14": 5.0, "Q_15": 5.0, "O_15": 5.0, "city": "BRONX", "beds": 348.0, "SR_15": 4.0}, {"Diff_star": 0.0, "addr": "165 01 CHAPIN PARKWAY", "SR_14": 4.0, "Q_14": 4.0, "name": "CHAPIN HOME FOR THE AGING", "SF_14": 1.0, "SF_15": 1.0, "cnty": "Queens", "st": "NY", "Zip": 11432.0, "O_14": 3.0, "Q_15": 2.0, "O_15": 3.0, "city": "JAMAICA", "beds": 220.0, "SR_15": 4.0}, {"Diff_star": 0.0, "addr": "NY ROUTE 217", "SR_14": 1.0, "Q_14": 4.0, "name": "PINE HAVEN HOME", "SF_14": 4.0, "SF_15": 4.0, "cnty": "Columbia", "st": "NY", "Zip": 12565.0, "O_14": 2.0, "Q_15": 2.0, "O_15": 2.0, "city": "PHILMONT", "beds": 120.0, "SR_15": 1.0}, {"Diff_star": 0.0, "addr": "2365 UNION ROAD", "SR_14": 2.0, "Q_14": 5.0, "name": "GARDEN GATE HEALTH CARE FACILITY", "SF_14": 4.0, "SF_15": 4.0, "cnty": "Erie", "st": "NY", "Zip": 14227.0, "O_14": 4.0, "Q_15": 5.0, "O_15": 4.0, "city": "CHEEKTOWAGA", "beds": 184.0, "SR_15": 2.0}, {"Diff_star": 0.0, "addr": "10 MUNSON STREET", "SR_14": 3.0, "Q_14": 4.0, "name": "LEROY VILLAGE GREEN R H C F INC", "SF_14": 3.0, "SF_15": 3.0, "cnty": "Genesee", "st": "NY", "Zip": 14482.0, "O_14": 3.0, "Q_15": 4.0, "O_15": 3.0, "city": "LEROY", "beds": 140.0, "SR_15": 3.0}, {"Diff_star": 1.0, "addr": "101 ELM ST", "SR_14": 3.0, "Q_14": 4.0, "name": "GOOD SAMARITAN NURSING HOME", "SF_14": 1.0, "SF_15": 1.0, "cnty": "Suffolk", "st": "NY", "Zip": 11782.0, "O_14": 2.0, "Q_15": 5.0, "O_15": 3.0, "city": "SAYVILLE", "beds": 100.0, "SR_15": 3.0}, {"Diff_star": -1.0, "addr": "2749 LINDEN BLVD", "SR_14": 3.0, "Q_14": 5.0, "name": "BROOKLYN QUEENS NURSING HOME", "SF_14": 1.0, "SF_15": 1.0, "cnty": "Kings", "st": "NY", "Zip": 11208.0, "O_14": 3.0, "Q_15": 4.0, "O_15": 2.0, "city": "BROOKLYN", "beds": 140.0, "SR_15": 3.0}, {"Diff_star": -1.0, "addr": "1014 DELAWARE AVE", "SR_14": 2.0, "Q_14": 5.0, "name": "DELAWARE NURSING AND REHABILITATION CENTER", "SF_14": 4.0, "SF_15": 4.0, "cnty": "Erie", "st": "NY", "Zip": 14209.0, "O_14": 4.0, "Q_15": 4.0, "O_15": 3.0, "city": "BUFFALO", "beds": 200.0, "SR_15": 2.0}, {"Diff_star": 0.0, "addr": "68 BUSHVILLE ROAD", "SR_14": 3.0, "Q_14": 4.0, "name": "CATSKILL REGIONAL MEDICAL CENTER S N F", "SF_14": 3.0, "SF_15": 3.0, "cnty": "Sullivan", "st": "NY", "Zip": 12742.0, "O_14": 3.0, "Q_15": 4.0, "O_15": 3.0, "city": "HARRIS", "beds": 64.0, "SR_15": 3.0}, {"Diff_star": 0.0, "addr": "1205 DELAWARE AVENUE", "SR_14": 1.0, "Q_14": 4.0, "name": "EMERALD NORTH NURSING AND REHABILITATION CENTER", "SF_14": 1.0, "SF_15": 1.0, "cnty": "Erie", "st": "NY", "Zip": 14209.0, "O_14": 1.0, "Q_15": 4.0, "O_15": 1.0, "city": "BUFFALO", "beds": 95.0, "SR_15": 1.0}, {"Diff_star": -1.0, "addr": "9876 LUCKEY DRIVE", "SR_14": 3.0, "Q_14": 5.0, "name": "ABSOLUT CTR FOR NURSING & REHAB HOUGHTON  L L C", "SF_14": 1.0, "SF_15": 2.0, "cnty": "Allegany", "st": "NY", "Zip": 14744.0, "O_14": 3.0, "Q_15": 4.0, "O_15": 2.0, "city": "HOUGHTON", "beds": 100.0, "SR_15": 2.0}, {"Diff_star": -1.0, "addr": "100 MILLER STREET", "SR_14": 2.0, "Q_14": 3.0, "name": "GOWANDA REHABILITATION AND NURSING CENTER", "SF_14": 2.0, "SF_15": 2.0, "cnty": "Cattaraugus", "st": "NY", "Zip": 14070.0, "O_14": 2.0, "Q_15": 1.0, "O_15": 1.0, "city": "GOWANDA", "beds": 160.0, "SR_15": 2.0}, {"Diff_star": 0.0, "addr": "2000 E GUNHILL ROAD", "SR_14": 5.0, "Q_14": 5.0, "name": "KINGS HARBOR MULTICARE CENTER", "SF_14": 1.0, "SF_15": 1.0, "cnty": "Bronx", "st": "NY", "Zip": 10469.0, "O_14": 5.0, "Q_15": 5.0, "O_15": 5.0, "city": "BRONX", "beds": 720.0, "SR_15": 5.0}, {"Diff_star": 0.0, "addr": "3005 WATKINS ROAD", "SR_14": 2.0, "Q_14": 4.0, "name": "BETHANY NURSING HOME", "SF_14": 2.0, "SF_15": 2.0, "cnty": "Chemung", "st": "NY", "Zip": 14845.0, "O_14": 2.0, "Q_15": 2.0, "O_15": 2.0, "city": "HORSEHEADS", "beds": 122.0, "SR_15": 2.0}, {"Diff_star": 0.0, "addr": "163 SOUTH UNION ROAD", "SR_14": 1.0, "Q_14": 4.0, "name": "WILLIAMSVILLE SUBURBAN L L C", "SF_14": 1.0, "SF_15": 1.0, "cnty": "Erie", "st": "NY", "Zip": 14221.0, "O_14": 1.0, "Q_15": 2.0, "O_15": 1.0, "city": "WILLIAMSVILLE", "beds": 220.0, "SR_15": 1.0}, {"Diff_star": 0.0, "addr": "2107 DITMAS AVENUE", "SR_14": 5.0, "Q_14": 5.0, "name": "DITMAS PARK CARE CENTER", "SF_14": 2.0, "SF_15": 2.0, "cnty": "Kings", "st": "NY", "Zip": 11226.0, "O_14": 5.0, "Q_15": 3.0, "O_15": 5.0, "city": "BROOKLYN", "beds": 200.0, "SR_15": 5.0}, {"Diff_star": -1.0, "addr": "7264 NASH ROAD", "SR_14": 2.0, "Q_14": 5.0, "name": "NORTH GATE HEALTH CARE FACILITY", "SF_14": 4.0, "SF_15": 3.0, "cnty": "Niagara", "st": "NY", "Zip": 14120.0, "O_14": 4.0, "Q_15": 5.0, "O_15": 3.0, "city": "NORTH TONAWANDA", "beds": 200.0, "SR_15": 2.0}, {"Diff_star": -1.0, "addr": "462 GRIDER STREET", "SR_14": 1.0, "Q_14": 2.0, "name": "TERRACE VIEW LONG TERM CARE FACILITY", "SF_14": 4.0, "SF_15": 4.0, "cnty": "Erie", "st": "NY", "Zip": 14215.0, "O_14": 2.0, "Q_15": 1.0, "O_15": 1.0, "city": "BUFFALO", "beds": 390.0, "SR_15": 1.0}, {"Diff_star": 0.0, "addr": "101 CREEKSIDE DRIVE", "SR_14": 2.0, "Q_14": 3.0, "name": "ABSOLUT CTR FOR NURSING & REHAB THREE RIVERS L L C", "SF_14": 1.0, "SF_15": 1.0, "cnty": "Steuben", "st": "NY", "Zip": 14870.0, "O_14": 1.0, "Q_15": 2.0, "O_15": 1.0, "city": "PAINTED POST", "beds": 120.0, "SR_15": 2.0}, {"Diff_star": 0.0, "addr": "1516 ORIENTAL BLVD", "SR_14": 5.0, "Q_14": 5.0, "name": "MENORAH HOME & HOSPITAL FOR AGED AND INFIRM", "SF_14": 2.0, "SF_15": 2.0, "cnty": "Kings", "st": "NY", "Zip": 11235.0, "O_14": 5.0, "Q_15": 3.0, "O_15": 5.0, "city": "BROOKLYN", "beds": 420.0, "SR_15": 5.0}, {"Diff_star": 0.0, "addr": "121 DUNNING ROAD", "SR_14": 5.0, "Q_14": 5.0, "name": "PARK MANOR REHAB & HEALTH CARE", "SF_14": 2.0, "SF_15": 2.0, "cnty": "Orange", "st": "NY", "Zip": 10940.0, "O_14": 5.0, "Q_15": 5.0, "O_15": 5.0, "city": "MIDDLETOWN", "beds": 230.0, "SR_15": 5.0}, {"Diff_star": -1.0, "addr": "2340 CROPSEY AVENUE", "SR_14": 2.0, "Q_14": 5.0, "name": "HAYM SALOMON HOME FOR THE AGED", "SF_14": 2.0, "SF_15": 2.0, "cnty": "Kings", "st": "NY", "Zip": 11214.0, "O_14": 3.0, "Q_15": 4.0, "O_15": 2.0, "city": "BROOKLYN", "beds": 240.0, "SR_15": 2.0}, {"Diff_star": 0.0, "addr": "23 KIERNAN RD", "SR_14": 1.0, "Q_14": 4.0, "name": "CAMPBELL HALL REHAB CENTER", "SF_14": 2.0, "SF_15": 2.0, "cnty": "Orange", "st": "NY", "Zip": 10916.0, "O_14": 1.0, "Q_15": 1.0, "O_15": 1.0, "city": "CAMPBELL HALL", "beds": 134.0, "SR_15": 1.0}, {"Diff_star": 0.0, "addr": "120 SYKES STREET", "SR_14": 1.0, "Q_14": 3.0, "name": "GROTON COMMUNITY HEALTH CARE CTR R C F", "SF_14": 2.0, "SF_15": 2.0, "cnty": "Tompkins", "st": "NY", "Zip": 13073.0, "O_14": 1.0, "Q_15": 2.0, "O_15": 1.0, "city": "GROTON", "beds": 80.0, "SR_15": 1.0}, {"Diff_star": -1.0, "addr": "2678 KINGSBRIDGE TERRACE", "SR_14": 4.0, "Q_14": 5.0, "name": "TERRACE HEALTH CARE CENTER", "SF_14": 1.0, "SF_15": 1.0, "cnty": "Bronx", "st": "NY", "Zip": 10463.0, "O_14": 4.0, "Q_15": 4.0, "O_15": 3.0, "city": "BRONX", "beds": 240.0, "SR_15": 4.0}, {"Diff_star": 0.0, "addr": "4192A BOLIVAR ROAD", "SR_14": 3.0, "Q_14": 5.0, "name": "WELLSVILLE MANOR CARE CENTER", "SF_14": 3.0, "SF_15": 3.0, "cnty": "Allegany", "st": "NY", "Zip": 14895.0, "O_14": 4.0, "Q_15": 5.0, "O_15": 4.0, "city": "WELLSVILLE", "beds": 120.0, "SR_15": 3.0}, {"Diff_star": 0.0, "addr": "S 4650 SOUTHWESTERN BLVD", "SR_14": 4.0, "Q_14": 5.0, "name": "AUTUMN VIEW HEALTH CARE FACILITY L L C", "SF_14": 4.0, "SF_15": 4.0, "cnty": "Erie", "st": "NY", "Zip": 14075.0, "O_14": 5.0, "Q_15": 5.0, "O_15": 5.0, "city": "HAMBURG", "beds": 230.0, "SR_15": 4.0}, {"Diff_star": 0.0, "addr": "300 DORRANCE AVENUE", "SR_14": 1.0, "Q_14": 3.0, "name": "RIDGE VIEW MANOR, L L C", "SF_14": 1.0, "SF_15": 1.0, "cnty": "Erie", "st": "NY", "Zip": 14220.0, "O_14": 1.0, "Q_15": 1.0, "O_15": 1.0, "city": "BUFFALO", "beds": 120.0, "SR_15": 1.0}, {"Diff_star": -1.0, "addr": "1249 FIFTH AVENUE", "SR_14": 3.0, "Q_14": 5.0, "name": "TERENCE CARDINAL COOKE H C C", "SF_14": 3.0, "SF_15": 3.0, "cnty": "New York", "st": "NY", "Zip": 10029.0, "O_14": 4.0, "Q_15": 4.0, "O_15": 3.0, "city": "NEW YORK", "beds": 679.0, "SR_15": 3.0}, {"Diff_star": -1.0, "addr": "29 38 FAR ROCKAWAY BLVD", "SR_14": 5.0, "Q_14": 5.0, "name": "BEZALEL REHABILITATION AND NURSING CENTER", "SF_14": 4.0, "SF_15": 1.0, "cnty": "Queens", "st": "NY", "Zip": 11691.0, "O_14": 5.0, "Q_15": 5.0, "O_15": 4.0, "city": "FAR ROCKAWAY", "beds": 120.0, "SR_15": 4.0}, {"Diff_star": 0.0, "addr": "15 SPRING VALLEY ROAD", "SR_14": 5.0, "Q_14": 5.0, "name": "SUNSHINE CHILDREN'S HOME AND REHAB CENTER", "SF_14": 5.0, "SF_15": 5.0, "cnty": "Westchester", "st": "NY", "Zip": 10562.0, "O_14": 5.0, "Q_15": 5.0, "O_15": 5.0, "city": "OSSINING", "beds": 54.0, "SR_15": 5.0}, {"Diff_star": 0.0, "addr": "254 ALEXANDER STREET", "SR_14": 2.0, "Q_14": 4.0, "name": "KIRKHAVEN", "SF_14": 2.0, "SF_15": 2.0, "cnty": "Monroe", "st": "NY", "Zip": 14607.0, "O_14": 2.0, "Q_15": 3.0, "O_15": 2.0, "city": "ROCHESTER", "beds": 147.0, "SR_15": 2.0}, {"Diff_star": 0.0, "addr": "445 TREMONT STREET", "SR_14": 2.0, "Q_14": 5.0, "name": "KALEIDA HEALTH DEGRAFF MEMORIAL HOSPITAL S N F", "SF_14": 3.0, "SF_15": 3.0, "cnty": "Niagara", "st": "NY", "Zip": 14120.0, "O_14": 3.0, "Q_15": 5.0, "O_15": 3.0, "city": "NORTH TONAWANDA", "beds": 80.0, "SR_15": 2.0}, {"Diff_star": 0.0, "addr": "7451 COUNTY HOUSE ROAD", "SR_14": 2.0, "Q_14": 4.0, "name": "AUBURN SENIOR SERVICES INC", "SF_14": 4.0, "SF_15": 4.0, "cnty": "Cayuga", "st": "NY", "Zip": 13021.0, "O_14": 3.0, "Q_15": 2.0, "O_15": 3.0, "city": "AUBURN", "beds": 80.0, "SR_15": 2.0}, {"Diff_star": -1.0, "addr": "690 WEST GERMAN STREET", "SR_14": 2.0, "Q_14": 5.0, "name": "VALLEY HEALTH SERVICES INC", "SF_14": 4.0, "SF_15": 4.0, "cnty": "Herkimer", "st": "NY", "Zip": 13350.0, "O_14": 4.0, "Q_15": 4.0, "O_15": 3.0, "city": "HERKIMER", "beds": 160.0, "SR_15": 2.0}, {"Diff_star": 0.0, "addr": "1555 ROCKAWAY PARKWAY", "SR_14": 5.0, "Q_14": 5.0, "name": "FOUR SEASONS NURSING AND REHAB", "SF_14": 3.0, "SF_15": 3.0, "cnty": "Kings", "st": "NY", "Zip": 11236.0, "O_14": 5.0, "Q_15": 4.0, "O_15": 5.0, "city": "BROOKLYN", "beds": 270.0, "SR_15": 5.0}, {"Diff_star": 0.0, "addr": "100 SOUTHERN BOULEVARD", "SR_14": 3.0, "Q_14": 4.0, "name": "NESCONSET CENTER FOR NURSING AND REHABILITATION", "SF_14": 1.0, "SF_15": 1.0, "cnty": "Suffolk", "st": "NY", "Zip": 11767.0, "O_14": 2.0, "Q_15": 2.0, "O_15": 2.0, "city": "NESCONSET", "beds": 240.0, "SR_15": 3.0}, {"Diff_star": 0.0, "addr": "285 DEYO HILL ROAD", "SR_14": 4.0, "Q_14": 5.0, "name": "JAMES G JOHNSTON MEMORIAL NURSING HOME", "SF_14": 4.0, "SF_15": 4.0, "cnty": "Broome", "st": "NY", "Zip": 13790.0, "O_14": 5.0, "Q_15": 5.0, "O_15": 5.0, "city": "JOHNSON CITY", "beds": 122.0, "SR_15": 4.0}, {"Diff_star": -1.0, "addr": "1441 GATEWAY BOULEVARD", "SR_14": 5.0, "Q_14": 5.0, "name": "HAVEN MANOR HEALTH CARE CENTER L L C", "SF_14": 1.0, "SF_15": 1.0, "cnty": "Queens", "st": "NY", "Zip": 11691.0, "O_14": 5.0, "Q_15": 4.0, "O_15": 4.0, "city": "FAR ROCKAWAY", "beds": 240.0, "SR_15": 5.0}, {"Diff_star": 0.0, "addr": "2840 KNAPP ST", "SR_14": 5.0, "Q_14": 5.0, "name": "SHEEPSHEAD NURSING AND REHAB CTR", "SF_14": 2.0, "SF_15": 2.0, "cnty": "Kings", "st": "NY", "Zip": 11235.0, "O_14": 5.0, "Q_15": 5.0, "O_15": 5.0, "city": "BROOKLYN", "beds": 200.0, "SR_15": 5.0}, {"Diff_star": 0.0, "addr": "4800 BEAR ROAD", "SR_14": 5.0, "Q_14": 5.0, "name": "ELDERWOOD AT LIVERPOOL", "SF_14": 3.0, "SF_15": 3.0, "cnty": "Onondaga", "st": "NY", "Zip": 13088.0, "O_14": 5.0, "Q_15": 5.0, "O_15": 5.0, "city": "LIVERPOOL", "beds": 160.0, "SR_15": 5.0}, {"Diff_star": -1.0, "addr": "5775 MAELOU DRIVE", "SR_14": 4.0, "Q_14": 5.0, "name": "ELDERWOOD AT HAMBURG", "SF_14": 4.0, "SF_15": 4.0, "cnty": "Erie", "st": "NY", "Zip": 14075.0, "O_14": 5.0, "Q_15": 4.0, "O_15": 4.0, "city": "HAMBURG", "beds": 166.0, "SR_15": 3.0}, {"Diff_star": 0.0, "addr": "2256 BURDETT AVENUE", "SR_14": 3.0, "Q_14": 5.0, "name": "JAMES A EDDY MEMORIAL GERIATRIC CENTER", "SF_14": 4.0, "SF_15": 4.0, "cnty": "Rensselaer", "st": "NY", "Zip": 12180.0, "O_14": 5.0, "Q_15": 5.0, "O_15": 5.0, "city": "TROY", "beds": 80.0, "SR_15": 3.0}, {"Diff_star": -1.0, "addr": "134 GREAT EAST NECK ROAD", "SR_14": 1.0, "Q_14": 5.0, "name": "EAST NECK NURSING & REHAB CENTER", "SF_14": 1.0, "SF_15": 1.0, "cnty": "Suffolk", "st": "NY", "Zip": 11704.0, "O_14": 2.0, "Q_15": 4.0, "O_15": 1.0, "city": "WEST BABYLON", "beds": 300.0, "SR_15": 1.0}, {"Diff_star": 0.0, "addr": "17 11 BROOKHAVEN AVENUE", "SR_14": 1.0, "Q_14": 5.0, "name": "HENDON GARDEN NURSING AND REHABILITATION CENTER", "SF_14": 1.0, "SF_15": 1.0, "cnty": "Queens", "st": "NY", "Zip": 11691.0, "O_14": 2.0, "Q_15": 5.0, "O_15": 2.0, "city": "FAR ROCKAWAY", "beds": 163.0, "SR_15": 1.0}, {"Diff_star": 0.0, "addr": "26 CASS STREET", "SR_14": 1.0, "Q_14": 3.0, "name": "ABSOLUT CTR FOR NURSING & REHAB WESTFIELD L L C", "SF_14": 4.0, "SF_15": 4.0, "cnty": "Chautauqua", "st": "NY", "Zip": 14787.0, "O_14": 2.0, "Q_15": 2.0, "O_15": 2.0, "city": "WESTFIELD", "beds": 120.0, "SR_15": 1.0}, {"Diff_star": -1.0, "addr": "46 HARRIMAN DRIVE", "SR_14": 3.0, "Q_14": 3.0, "name": "ELANT AT GOSHEN INC", "SF_14": 4.0, "SF_15": 4.0, "cnty": "Orange", "st": "NY", "Zip": 10924.0, "O_14": 4.0, "Q_15": 1.0, "O_15": 3.0, "city": "GOSHEN", "beds": 120.0, "SR_15": 3.0}, {"Diff_star": 0.0, "addr": "154  LAFAYETTE STREET", "SR_14": 4.0, "Q_14": 3.0, "name": "PALATINE NURSING HOME", "SF_14": 2.0, "SF_15": 2.0, "cnty": "Montgomery", "st": "NY", "Zip": 13428.0, "O_14": 4.0, "Q_15": 2.0, "O_15": 4.0, "city": "PALATINE BRIDGE", "beds": 70.0, "SR_15": 4.0}, {"Diff_star": 0.0, "addr": "539 ROUTE 22", "SR_14": 4.0, "Q_14": 5.0, "name": "SALEM HILLS REHABILITATION AND NURSING CTR", "SF_14": 2.0, "SF_15": 2.0, "cnty": "Westchester", "st": "NY", "Zip": 10578.0, "O_14": 5.0, "Q_15": 5.0, "O_15": 5.0, "city": "PURDYS", "beds": 126.0, "SR_15": 4.0}, {"Diff_star": 0.0, "addr": "1300 ROANOKE AVENUE", "SR_14": 4.0, "Q_14": 5.0, "name": "PECONIC BAY SKILLED NURSING FACILITY", "SF_14": 4.0, "SF_15": 5.0, "cnty": "Suffolk", "st": "NY", "Zip": 11901.0, "O_14": 5.0, "Q_15": 5.0, "O_15": 5.0, "city": "RIVERHEAD", "beds": 60.0, "SR_15": 4.0}, {"Diff_star": -1.0, "addr": "8565 JERICHO TURNPIKE", "SR_14": 2.0, "Q_14": 5.0, "name": "WHITE OAKS NURSING HOME", "SF_14": 1.0, "SF_15": 1.0, "cnty": "Nassau", "st": "NY", "Zip": 11797.0, "O_14": 2.0, "Q_15": 4.0, "O_15": 1.0, "city": "WOODBURY", "beds": 200.0, "SR_15": 2.0}, {"Diff_star": 0.0, "addr": "ONE BETHESDA DRIVE", "SR_14": 2.0, "Q_14": 5.0, "name": "MCAULEY MANOR AT MERCYCARE", "SF_14": 2.0, "SF_15": 2.0, "cnty": "Steuben", "st": "NY", "Zip": 14843.0, "O_14": 3.0, "Q_15": 5.0, "O_15": 3.0, "city": "HORNELL", "beds": 122.0, "SR_15": 2.0}, {"Diff_star": 0.0, "addr": "160 EAST MAIN STREET", "SR_14": 4.0, "Q_14": 4.0, "name": "ST JOSEPHS PLACE", "SF_14": 3.0, "SF_15": 3.0, "cnty": "Orange", "st": "NY", "Zip": 12771.0, "O_14": 4.0, "Q_15": 4.0, "O_15": 4.0, "city": "PORT JERVIS", "beds": 46.0, "SR_15": 4.0}, {"Diff_star": 0.0, "addr": "284 TROY ROAD", "SR_14": 1.0, "Q_14": 4.0, "name": "ROSEWOOD  REHABILITATION & NURSING CENTER", "SF_14": 4.0, "SF_15": 4.0, "cnty": "Rensselaer", "st": "NY", "Zip": 12144.0, "O_14": 2.0, "Q_15": 2.0, "O_15": 2.0, "city": "RENSSELAER", "beds": 80.0, "SR_15": 1.0}, {"Diff_star": 0.0, "addr": "801 GAZZOLA BLVD", "SR_14": 5.0, "Q_14": 5.0, "name": "BROOKHAVEN HEALTH CARE FACILITY L L C", "SF_14": 4.0, "SF_15": 4.0, "cnty": "Suffolk", "st": "NY", "Zip": 11772.0, "O_14": 5.0, "Q_15": 5.0, "O_15": 5.0, "city": "EAST PATCHOGUE", "beds": 162.0, "SR_15": 5.0}, {"Diff_star": 0.0, "addr": "311 W 231ST STREET", "SR_14": 5.0, "Q_14": 5.0, "name": "MANHATTANVILLE HEALTH CARE CENTER L L C", "SF_14": 2.0, "SF_15": 2.0, "cnty": "Bronx", "st": "NY", "Zip": 10463.0, "O_14": 5.0, "Q_15": 5.0, "O_15": 5.0, "city": "BRONX", "beds": 200.0, "SR_15": 5.0}, {"Diff_star": 0.0, "addr": "68 HAUPPAUGE ROAD", "SR_14": 2.0, "Q_14": 4.0, "name": "GURWIN JEWISH NURSING AND REHABILITATION CENTER", "SF_14": 3.0, "SF_15": 3.0, "cnty": "Suffolk", "st": "NY", "Zip": 11725.0, "O_14": 2.0, "Q_15": 3.0, "O_15": 2.0, "city": "COMMACK", "beds": 460.0, "SR_15": 2.0}, {"Diff_star": 0.0, "addr": "421 W COLUMBIA STREET", "SR_14": 4.0, "Q_14": 5.0, "name": "EDDY VILLAGE GREEN", "SF_14": 4.0, "SF_15": 4.0, "cnty": "Albany", "st": "NY", "Zip": 12047.0, "O_14": 5.0, "Q_15": 5.0, "O_15": 5.0, "city": "COHOES", "beds": 192.0, "SR_15": 4.0}, {"Diff_star": 0.0, "addr": "900 FRANKLIN AVENUE", "SR_14": 4.0, "Q_14": 5.0, "name": "ORZAC CENTER FOR EXTENDED CARE & REHABILITATION", "SF_14": 4.0, "SF_15": 4.0, "cnty": "Nassau", "st": "NY", "Zip": 11580.0, "O_14": 5.0, "Q_15": 5.0, "O_15": 5.0, "city": "VALLEY STREAM", "beds": 120.0, "SR_15": 4.0}, {"Diff_star": 0.0, "addr": "1805 PROVIDENCE AVENUE", "SR_14": 3.0, "Q_14": 4.0, "name": "PATHWAYS NURSING & REHABILITATION CENTER", "SF_14": 4.0, "SF_15": 4.0, "cnty": "Schenectady", "st": "NY", "Zip": 12309.0, "O_14": 4.0, "Q_15": 3.0, "O_15": 4.0, "city": "NISKAYUNA", "beds": 112.0, "SR_15": 3.0}, {"Diff_star": 0.0, "addr": "300 COMMUNITY DRIVE", "SR_14": 4.0, "Q_14": 5.0, "name": "NORTH SHORE - L I J STERN FAMILY CTR FOR REHAB", "SF_14": 5.0, "SF_15": 5.0, "cnty": "Nassau", "st": "NY", "Zip": 11030.0, "O_14": 5.0, "Q_15": 5.0, "O_15": 5.0, "city": "MANHASSET", "beds": 256.0, "SR_15": 4.0}, {"Diff_star": 0.0, "addr": "50 SHEFFIELD AVENUE", "SR_14": 3.0, "Q_14": 5.0, "name": "BUSHWICK CENTER FOR REHAB AND HEALTH CARE", "SF_14": 4.0, "SF_15": 4.0, "cnty": "Kings", "st": "NY", "Zip": 11207.0, "O_14": 5.0, "Q_15": 5.0, "O_15": 5.0, "city": "BROOKLYN", "beds": 225.0, "SR_15": 4.0}, {"Diff_star": 0.0, "addr": "7 TIMMERMAN AVENUE", "SR_14": 2.0, "Q_14": 4.0, "name": "ST JOHNSVILLE REHAB & NURSING", "SF_14": 1.0, "SF_15": 1.0, "cnty": "Montgomery", "st": "NY", "Zip": 13452.0, "O_14": 1.0, "Q_15": 2.0, "O_15": 1.0, "city": "SAINT JOHNSVILLE", "beds": 120.0, "SR_15": 2.0}, {"Diff_star": 0.0, "addr": "600 MCCLELLAN STREET", "SR_14": 1.0, "Q_14": 3.0, "name": "ELLIS RESIDENTIAL & REHABILITATION CENTER", "SF_14": 5.0, "SF_15": 5.0, "cnty": "Schenectady", "st": "NY", "Zip": 12304.0, "O_14": 2.0, "Q_15": 2.0, "O_15": 2.0, "city": "SCHENECTADY", "beds": 82.0, "SR_15": 1.0}, {"Diff_star": -1.0, "addr": "7571 STATE ROUTE 54", "SR_14": 3.0, "Q_14": 4.0, "name": "IRA DAVENPORT MEMORIAL HOSPITAL S N F", "SF_14": 4.0, "SF_15": 4.0, "cnty": "Steuben", "st": "NY", "Zip": 14810.0, "O_14": 4.0, "Q_15": 1.0, "O_15": 3.0, "city": "BATH", "beds": 120.0, "SR_15": 3.0}, {"Diff_star": 0.0, "addr": "691 92ND STREET", "SR_14": 2.0, "Q_14": 3.0, "name": "HAMILTON PARK NURSING AND REHABILITATION CENTER", "SF_14": 3.0, "SF_15": 3.0, "cnty": "Kings", "st": "NY", "Zip": 11228.0, "O_14": 2.0, "Q_15": 2.0, "O_15": 2.0, "city": "BROOKLYN", "beds": 200.0, "SR_15": 2.0}, {"Diff_star": 0.0, "addr": "10421 STATE ROUTE 40", "SR_14": 1.0, "Q_14": 3.0, "name": "THE ORCHARD NURSING AND REHABILITATION CENTRE", "SF_14": 3.0, "SF_15": 3.0, "cnty": "Washington", "st": "NY", "Zip": 12832.0, "O_14": 1.0, "Q_15": 1.0, "O_15": 1.0, "city": "GRANVILLE", "beds": 88.0, "SR_15": 1.0}, {"Diff_star": 0.0, "addr": "7740 MEIGS ROAD", "SR_14": 2.0, "Q_14": 5.0, "name": "SYRACUSE HOME ASSOCIATION", "SF_14": 3.0, "SF_15": 3.0, "cnty": "Onondaga", "st": "NY", "Zip": 13027.0, "O_14": 3.0, "Q_15": 5.0, "O_15": 3.0, "city": "BALDWINSVILLE", "beds": 120.0, "SR_15": 2.0}, {"Diff_star": 0.0, "addr": "25 N MALCOLM STREET", "SR_14": 5.0, "Q_14": 5.0, "name": "VICTORIA HOME", "SF_14": 4.0, "SF_15": 4.0, "cnty": "Westchester", "st": "NY", "Zip": 10562.0, "O_14": 5.0, "Q_15": 5.0, "O_15": 5.0, "city": "OSSINING", "beds": 49.0, "SR_15": 5.0}, {"Diff_star": 0.0, "addr": "6 MEDICAL PLAZA", "SR_14": 1.0, "Q_14": 4.0, "name": "GLEN COVE CENTER FOR NURSING", "SF_14": 4.0, "SF_15": 4.0, "cnty": "Nassau", "st": "NY", "Zip": 11542.0, "O_14": 2.0, "Q_15": 4.0, "O_15": 2.0, "city": "GLEN COVE", "beds": 154.0, "SR_15": 1.0}, {"Diff_star": -1.0, "addr": "121 FRANKLIN PLACE", "SR_14": 1.0, "Q_14": 5.0, "name": "WOODMERE REHAB AND HEALTH CARE", "SF_14": 3.0, "SF_15": 3.0, "cnty": "Nassau", "st": "NY", "Zip": 11598.0, "O_14": 2.0, "Q_15": 4.0, "O_15": 1.0, "city": "WOODMERE", "beds": 336.0, "SR_15": 1.0}, {"Diff_star": -1.0, "addr": "63 OAKCREST AVENUE", "SR_14": 1.0, "Q_14": 5.0, "name": "LAKEVIEW REHABILITATION AND CARE CENTER", "SF_14": 3.0, "SF_15": 3.0, "cnty": "Suffolk", "st": "NY", "Zip": 11953.0, "O_14": 2.0, "Q_15": 4.0, "O_15": 1.0, "city": "MIDDLE ISLAND", "beds": 120.0, "SR_15": 1.0}, {"Diff_star": 0.0, "addr": "630 E 104TH STREET", "SR_14": 3.0, "Q_14": 5.0, "name": "ATRIUM CENTER FOR REHABILITATION AND NURSING", "SF_14": 1.0, "SF_15": 1.0, "cnty": "Kings", "st": "NY", "Zip": 11236.0, "O_14": 3.0, "Q_15": 5.0, "O_15": 3.0, "city": "BROOKLYN", "beds": 380.0, "SR_15": 3.0}, {"Diff_star": -1.0, "addr": "3023 ROUTE 430     PO BOX 400", "SR_14": 3.0, "Q_14": 5.0, "name": "HERITAGE GREEN NURSING HOME", "SF_14": 2.0, "SF_15": 2.0, "cnty": "Chautauqua", "st": "NY", "Zip": 14742.0, "O_14": 4.0, "Q_15": 3.0, "O_15": 3.0, "city": "GREENHURST", "beds": 134.0, "SR_15": 3.0}, {"Diff_star": 0.0, "addr": "2323  EASTCHESTER ROAD", "SR_14": 3.0, "Q_14": 5.0, "name": "EAST HAVEN NURSING AND REHAB CENTER", "SF_14": 1.0, "SF_15": 1.0, "cnty": "Bronx", "st": "NY", "Zip": 10469.0, "O_14": 3.0, "Q_15": 5.0, "O_15": 3.0, "city": "BRONX", "beds": 200.0, "SR_15": 3.0}, {"Diff_star": 0.0, "addr": "144 45 87TH AVENUE", "SR_14": 4.0, "Q_14": 5.0, "name": "SILVERCREST CENTER FOR NURSING AND REHABILITATION", "SF_14": 2.0, "SF_15": 2.0, "cnty": "Queens", "st": "NY", "Zip": 11435.0, "O_14": 5.0, "Q_15": 4.0, "O_15": 5.0, "city": "JAMAICA", "beds": 320.0, "SR_15": 5.0}, {"Diff_star": 0.0, "addr": "1401 UNIVERSITY AVENUE", "SR_14": 4.0, "Q_14": 5.0, "name": "HELP/ P S I  INC", "SF_14": 3.0, "SF_15": 3.0, "cnty": "Bronx", "st": "NY", "Zip": 10452.0, "O_14": 5.0, "Q_15": 5.0, "O_15": 5.0, "city": "BRONX", "beds": 66.0, "SR_15": 5.0}, {"Diff_star": 1.0, "addr": "140 BEACH 113TH STREET", "SR_14": 3.0, "Q_14": 4.0, "name": "BEACON REHABILITATION AND NURSING CENTER", "SF_14": 1.0, "SF_15": 1.0, "cnty": "Queens", "st": "NY", "Zip": 11694.0, "O_14": 2.0, "Q_15": 2.0, "O_15": 3.0, "city": "ROCKAWAY PARK", "beds": 120.0, "SR_15": 4.0}, {"Diff_star": 0.0, "addr": "1 ELSIE STREET", "SR_14": 2.0, "Q_14": 4.0, "name": "BETSY ROSS REHABILITATION CTR", "SF_14": 2.0, "SF_15": 2.0, "cnty": "Oneida", "st": "NY", "Zip": 13440.0, "O_14": 2.0, "Q_15": 2.0, "O_15": 2.0, "city": "ROME", "beds": 120.0, "SR_15": 2.0}, {"Diff_star": 0.0, "addr": "920 CHERRY RIDGE BLVD", "SR_14": 4.0, "Q_14": 4.0, "name": "ST ANNS NURSING HOME CO INC ( THE HERITAGE)", "SF_14": 4.0, "SF_15": 4.0, "cnty": "Monroe", "st": "NY", "Zip": 14580.0, "O_14": 4.0, "Q_15": 4.0, "O_15": 4.0, "city": "WEBSTER", "beds": 72.0, "SR_15": 4.0}, {"Diff_star": -1.0, "addr": "800 WEST CHESTNUT STREET", "SR_14": 1.0, "Q_14": 4.0, "name": "BETHANY GARDENS SKILLED LIVING CENTER", "SF_14": 4.0, "SF_15": 4.0, "cnty": "Oneida", "st": "NY", "Zip": 13440.0, "O_14": 2.0, "Q_15": 1.0, "O_15": 1.0, "city": "ROME", "beds": 100.0, "SR_15": 1.0}, {"Diff_star": 0.0, "addr": "475 NEW HEMPSTEAD ROAD", "SR_14": 4.0, "Q_14": 2.0, "name": "FRIEDWALD CENTER FOR REHAB AND NURSING L L C", "SF_14": 3.0, "SF_15": 3.0, "cnty": "Rockland", "st": "NY", "Zip": 10956.0, "O_14": 4.0, "Q_15": 2.0, "O_15": 4.0, "city": "NEW CITY", "beds": 180.0, "SR_15": 4.0}, {"Diff_star": -1.0, "addr": "125 ROCKEFELLER ROAD", "SR_14": 1.0, "Q_14": "", "name": "BETHLEHEM COMMONS CARE CENTER", "SF_14": 4.0, "SF_15": 3.0, "cnty": "Albany", "st": "NY", "Zip": 12054.0, "O_14": 2.0, "Q_15": "", "O_15": 1.0, "city": "DELMAR", "beds": 120.0, "SR_15": 1.0}, {"Diff_star": -2.0, "addr": "1410 SEAGIRT BLVD", "SR_14": 4.0, "Q_14": 5.0, "name": "WEST LAWRENCE CARE CENTER L L C", "SF_14": 1.0, "SF_15": 1.0, "cnty": "Queens", "st": "NY", "Zip": 11691.0, "O_14": 4.0, "Q_15": 3.0, "O_15": 2.0, "city": "FAR ROCKAWAY", "beds": 215.0, "SR_15": 3.0}, {"Diff_star": 0.0, "addr": "64 11 BEACH CHANNEL DRIVE", "SR_14": 4.0, "Q_14": 5.0, "name": "HORIZON CARE CENTER", "SF_14": 1.0, "SF_15": 1.0, "cnty": "Queens", "st": "NY", "Zip": 11692.0, "O_14": 4.0, "Q_15": 5.0, "O_15": 4.0, "city": "ARVERNE", "beds": 280.0, "SR_15": 4.0}, {"Diff_star": -1.0, "addr": "273 MORICHES ROAD", "SR_14": 4.0, "Q_14": 5.0, "name": "MILLS POND NURSING AND REHABILITATION CENTER", "SF_14": 1.0, "SF_15": 1.0, "cnty": "Suffolk", "st": "NY", "Zip": 11780.0, "O_14": 4.0, "Q_15": 4.0, "O_15": 3.0, "city": "ST JAMES", "beds": 252.0, "SR_15": 4.0}, {"Diff_star": 0.0, "addr": "822 CEDAR AVENUE", "SR_14": 1.0, "Q_14": 4.0, "name": "NIAGARA REHABILITATION AND NURSING CENTER", "SF_14": 1.0, "SF_15": 1.0, "cnty": "Niagara", "st": "NY", "Zip": 14301.0, "O_14": 1.0, "Q_15": 3.0, "O_15": 1.0, "city": "NIAGARA FALLS", "beds": 160.0, "SR_15": 1.0}, {"Diff_star": 0.0, "addr": "700 WHITE PLAINS ROAD", "SR_14": 4.0, "Q_14": 5.0, "name": "GRAND MANOR NURSING AND REHAB", "SF_14": 1.0, "SF_15": 1.0, "cnty": "Bronx", "st": "NY", "Zip": 10473.0, "O_14": 4.0, "Q_15": 5.0, "O_15": 4.0, "city": "BRONX", "beds": 240.0, "SR_15": 4.0}, {"Diff_star": -1.0, "addr": "845 ROUTES 5 AND 20", "SR_14": 2.0, "Q_14": 2.0, "name": "T L C HEALTH NETWORK LAKE SHORE HOSP NURSING FAC", "SF_14": "", "SF_15": "", "cnty": "Chautauqua", "st": "NY", "Zip": 14081.0, "O_14": 2.0, "Q_15": 1.0, "O_15": 1.0, "city": "IRVING", "beds": 120.0, "SR_15": 2.0}, {"Diff_star": -1.0, "addr": "299 EAST RIVER ROAD", "SR_14": 2.0, "Q_14": 4.0, "name": "ST LUKE HEALTH SERVICES", "SF_14": 3.0, "SF_15": 3.0, "cnty": "Oswego", "st": "NY", "Zip": 13126.0, "O_14": 2.0, "Q_15": 1.0, "O_15": 1.0, "city": "OSWEGO", "beds": 200.0, "SR_15": 2.0}, {"Diff_star": 0.0, "addr": "50 MAINE AVENUE", "SR_14": 3.0, "Q_14": 5.0, "name": "ROCKVILLE SKILLED NURSING & REHABILITATION CENTER", "SF_14": 4.0, "SF_15": 4.0, "cnty": "Nassau", "st": "NY", "Zip": 11570.0, "O_14": 5.0, "Q_15": 5.0, "O_15": 5.0, "city": "ROCKVILLE CENTRE", "beds": 66.0, "SR_15": 3.0}, {"Diff_star": 0.0, "addr": "2720 SURF AVENUE", "SR_14": 3.0, "Q_14": 5.0, "name": "SAINTS JOACHIM & ANNE NURSING AND REHAB CTR", "SF_14": 3.0, "SF_15": 3.0, "cnty": "Kings", "st": "NY", "Zip": 11224.0, "O_14": 4.0, "Q_15": 5.0, "O_15": 4.0, "city": "BROOKLYN", "beds": 200.0, "SR_15": 3.0}, {"Diff_star": -2.0, "addr": "22 ROBERT R. KASIN WAY", "SR_14": 3.0, "Q_14": 3.0, "name": "ELANT AT FISHKILL INC", "SF_14": 4.0, "SF_15": 3.0, "cnty": "Dutchess", "st": "NY", "Zip": 12508.0, "O_14": 4.0, "Q_15": 1.0, "O_15": 2.0, "city": "BEACON", "beds": 160.0, "SR_15": 3.0}, {"Diff_star": -1.0, "addr": "936 WOODYCREST AVENUE", "SR_14": 4.0, "Q_14": 5.0, "name": "THE BRONX-LEBANON HIGHBRIDGE WOODYCREST CENTER", "SF_14": 3.0, "SF_15": 3.0, "cnty": "Bronx", "st": "NY", "Zip": 10452.0, "O_14": 5.0, "Q_15": 4.0, "O_15": 4.0, "city": "BRONX", "beds": 90.0, "SR_15": 4.0}, {"Diff_star": 0.0, "addr": "225 BENNETT ROAD", "SR_14": 3.0, "Q_14": 3.0, "name": "ELDERWOOD AT CHEEKTOWAGA", "SF_14": 3.0, "SF_15": 3.0, "cnty": "Erie", "st": "NY", "Zip": 14227.0, "O_14": 3.0, "Q_15": 2.0, "O_15": 3.0, "city": "CHEEKTOWAGA", "beds": 172.0, "SR_15": 3.0}, {"Diff_star": 1.0, "addr": "1265 FULTON AVENUE", "SR_14": 4.0, "Q_14": 4.0, "name": "BRONX LEBANON SPECIAL CARE CENTER", "SF_14": 4.0, "SF_15": 3.0, "cnty": "Bronx", "st": "NY", "Zip": 10456.0, "O_14": 4.0, "Q_15": 2.0, "O_15": 5.0, "city": "BRONX", "beds": 240.0, "SR_15": 5.0}, {"Diff_star": 0.0, "addr": "110 BEAVER DAM ROAD", "SR_14": 4.0, "Q_14": 5.0, "name": "BELLHAVEN NURSING & REHAB CENTER", "SF_14": 1.0, "SF_15": "", "cnty": "Suffolk", "st": "NY", "Zip": 11719.0, "O_14": 4.0, "Q_15": 5.0, "O_15": 4.0, "city": "BROOKHAVEN", "beds": 240.0, "SR_15": 3.0}, {"Diff_star": 0.0, "addr": "391 NORTH COUNTRY ROAD", "SR_14": 3.0, "Q_14": 5.0, "name": "SMITHTOWN CENTER FOR REHAB & NURSING CARE", "SF_14": 2.0, "SF_15": 2.0, "cnty": "Suffolk", "st": "NY", "Zip": 11787.0, "O_14": 4.0, "Q_15": 5.0, "O_15": 4.0, "city": "SMITHTOWN", "beds": 162.0, "SR_15": 3.0}, {"Diff_star": 0.0, "addr": "2699 WEHRLE DRIVE", "SR_14": 5.0, "Q_14": 5.0, "name": "HARRIS HILL NURSING FACILITY L L C", "SF_14": 4.0, "SF_15": 4.0, "cnty": "Erie", "st": "NY", "Zip": 14221.0, "O_14": 5.0, "Q_15": 5.0, "O_15": 5.0, "city": "WILLIAMSVILLE", "beds": 192.0, "SR_15": 5.0}, {"Diff_star": 0.0, "addr": "100 PATRIOTS ROAD", "SR_14": 4.0, "Q_14": 4.0, "name": "LONG ISLAND STATE VETERANS HOME", "SF_14": 4.0, "SF_15": 4.0, "cnty": "Suffolk", "st": "NY", "Zip": 11790.0, "O_14": 4.0, "Q_15": 3.0, "O_15": 4.0, "city": "STONYBROOK", "beds": 350.0, "SR_15": 4.0}, {"Diff_star": 0.0, "addr": "88 CALVARY DRIVE", "SR_14": 2.0, "Q_14": 5.0, "name": "NORWICH REHABILITATION & NURSING CENTER", "SF_14": 1.0, "SF_15": 1.0, "cnty": "Chenango", "st": "NY", "Zip": 13815.0, "O_14": 2.0, "Q_15": 5.0, "O_15": 2.0, "city": "NORWICH", "beds": 80.0, "SR_15": 2.0}, {"Diff_star": 0.0, "addr": "2920 TIBBITS AVENUE", "SR_14": 3.0, "Q_14": 5.0, "name": "EDDY HERITAGE HOUSE NURSING AND REHAB CTR", "SF_14": 4.0, "SF_15": 4.0, "cnty": "Rensselaer", "st": "NY", "Zip": 12180.0, "O_14": 5.0, "Q_15": 5.0, "O_15": 5.0, "city": "TROY", "beds": 122.0, "SR_15": 3.0}, {"Diff_star": 0.0, "addr": "300 BROADWAY AVENUE", "SR_14": 3.0, "Q_14": 5.0, "name": "SAYVILLE NURSING AND REHABILITATION CENTER", "SF_14": 1.0, "SF_15": 1.0, "cnty": "Suffolk", "st": "NY", "Zip": 11782.0, "O_14": 3.0, "Q_15": 5.0, "O_15": 3.0, "city": "SAYVILLE", "beds": 180.0, "SR_15": 3.0}, {"Diff_star": 0.0, "addr": "516 WEST 126TH STREET", "SR_14": 3.0, "Q_14": 5.0, "name": "ST MARYS CENTER INC", "SF_14": 4.0, "SF_15": 4.0, "cnty": "New York", "st": "NY", "Zip": 10027.0, "O_14": 5.0, "Q_15": 5.0, "O_15": 5.0, "city": "NEW YORK", "beds": 40.0, "SR_15": 3.0}, {"Diff_star": -2.0, "addr": "900 INTERVALE AVENUE", "SR_14": 3.0, "Q_14": 5.0, "name": "ST VINCENT DE PAUL RESIDENCE", "SF_14": 2.0, "SF_15": 1.0, "cnty": "Bronx", "st": "NY", "Zip": 10459.0, "O_14": 4.0, "Q_15": 5.0, "O_15": 2.0, "city": "BRONX", "beds": 200.0, "SR_15": 2.0}, {"Diff_star": -1.0, "addr": "4600 SOUTHWOOD HEIGHTS DRIVE", "SR_14": 4.0, "Q_14": 5.0, "name": "IROQUOIS NURSING HOME INC", "SF_14": 3.0, "SF_15": 3.0, "cnty": "Onondaga", "st": "NY", "Zip": 13078.0, "O_14": 5.0, "Q_15": 4.0, "O_15": 4.0, "city": "JAMESVILLE", "beds": 160.0, "SR_15": 4.0}, {"Diff_star": -1.0, "addr": "ONE COMMONS DRIVE", "SR_14": 4.0, "Q_14": 3.0, "name": "TEN BROECK COMMONS", "SF_14": 2.0, "SF_15": 2.0, "cnty": "Ulster", "st": "NY", "Zip": 12449.0, "O_14": 4.0, "Q_15": 1.0, "O_15": 3.0, "city": "LAKE KATRINE", "beds": 258.0, "SR_15": 4.0}, {"Diff_star": 0.0, "addr": "1 WHITTIER WAY", "SR_14": 1.0, "Q_14": 5.0, "name": "WHITTIER REHAB & SKILLED NURSING CENTER", "SF_14": 4.0, "SF_15": 4.0, "cnty": "Columbia", "st": "NY", "Zip": 12075.0, "O_14": 2.0, "Q_15": 3.0, "O_15": 2.0, "city": "GHENT", "beds": 120.0, "SR_15": 1.0}, {"Diff_star": 0.0, "addr": "2 MERCYCARE LANE", "SR_14": 2.0, "Q_14": 5.0, "name": "OUR LADY OF MERCY LIFE CENTER", "SF_14": 5.0, "SF_15": 5.0, "cnty": "Albany", "st": "NY", "Zip": 12084.0, "O_14": 4.0, "Q_15": 5.0, "O_15": 4.0, "city": "GUILDERLAND", "beds": 160.0, "SR_15": 2.0}, {"Diff_star": 0.0, "addr": "134 HOMER AVENUE", "SR_14": 2.0, "Q_14": 4.0, "name": "CORTLAND REGIONAL MEDICAL CENTER INC", "SF_14": 5.0, "SF_15": 5.0, "cnty": "Cortland", "st": "NY", "Zip": 13045.0, "O_14": 3.0, "Q_15": 4.0, "O_15": 3.0, "city": "CORTLAND", "beds": 80.0, "SR_15": 2.0}, {"Diff_star": 0.0, "addr": "700 ISLAND COTTAGE ROAD", "SR_14": 1.0, "Q_14": 4.0, "name": "EDNA TINA WILSON LIVING CENTER", "SF_14": 4.0, "SF_15": 4.0, "cnty": "Monroe", "st": "NY", "Zip": 14612.0, "O_14": 2.0, "Q_15": 3.0, "O_15": 2.0, "city": "ROCHESTER", "beds": 120.0, "SR_15": 1.0}, {"Diff_star": 0.0, "addr": "178 50 LINDEN BLVD", "SR_14": 2.0, "Q_14": 4.0, "name": "N Y S VETS HOME IN N Y C", "SF_14": 4.0, "SF_15": 4.0, "cnty": "Queens", "st": "NY", "Zip": 11434.0, "O_14": 3.0, "Q_15": 2.0, "O_15": 3.0, "city": "JAMAICA", "beds": 250.0, "SR_15": 2.0}, {"Diff_star": 0.0, "addr": "707 THROGS NECK EXPRESSWAY", "SR_14": 5.0, "Q_14": 5.0, "name": "THROGS NECK EXTENDED CARE FACILITY", "SF_14": 1.0, "SF_15": 1.0, "cnty": "Bronx", "st": "NY", "Zip": 10465.0, "O_14": 5.0, "Q_15": 5.0, "O_15": 5.0, "city": "BRONX", "beds": 205.0, "SR_15": 5.0}, {"Diff_star": 0.0, "addr": "91 TOMPKINS AVENUE", "SR_14": 1.0, "Q_14": 4.0, "name": "RICHMOND CENTER FOR REHAB AND SPECIALTY  H C", "SF_14": 4.0, "SF_15": 4.0, "cnty": "Richmond", "st": "NY", "Zip": 10304.0, "O_14": 2.0, "Q_15": 2.0, "O_15": 2.0, "city": "STATEN ISLAND", "beds": 300.0, "SR_15": 1.0}, {"Diff_star": 0.0, "addr": "1 ABELE DRIVE", "SR_14": 4.0, "Q_14": 5.0, "name": "SETON HEALTH AT SCHUYLER RIDGE RESIDENTIAL H C", "SF_14": 3.0, "SF_15": 3.0, "cnty": "Saratoga", "st": "NY", "Zip": 12065.0, "O_14": 5.0, "Q_15": 5.0, "O_15": 5.0, "city": "CLIFTON PARK", "beds": 120.0, "SR_15": 4.0}, {"Diff_star": -1.0, "addr": "2175 QUARRY RD", "SR_14": 3.0, "Q_14": 5.0, "name": "ST BARNABAS REHABILITATION & CONTINUING CARE CTR", "SF_14": 3.0, "SF_15": 3.0, "cnty": "Bronx", "st": "NY", "Zip": 10457.0, "O_14": 4.0, "Q_15": 4.0, "O_15": 3.0, "city": "BRONX", "beds": 199.0, "SR_15": 3.0}, {"Diff_star": 0.0, "addr": "327 EAST 17TH STREET", "SR_14": 4.0, "Q_14": 4.0, "name": "THE ROBERT MAPPLETHORPE AT RES TREATMENT FAC A N", "SF_14": 5.0, "SF_15": 5.0, "cnty": "New York", "st": "NY", "Zip": 10003.0, "O_14": 5.0, "Q_15": 4.0, "O_15": 5.0, "city": "NEW YORK", "beds": 28.0, "SR_15": 4.0}, {"Diff_star": -1.0, "addr": "6400 POWERS ROAD", "SR_14": 3.0, "Q_14": 5.0, "name": "FATHER BAKER MANOR", "SF_14": 4.0, "SF_15": 4.0, "cnty": "Erie", "st": "NY", "Zip": 14127.0, "O_14": 5.0, "Q_15": 4.0, "O_15": 4.0, "city": "ORCHARD PARK", "beds": 160.0, "SR_15": 3.0}, {"Diff_star": -1.0, "addr": "5901 LAC DE VILLE BLVD", "SR_14": 1.0, "Q_14": 3.0, "name": "THE HIGHLANDS AT BRIGHTON", "SF_14": 4.0, "SF_15": 4.0, "cnty": "Monroe", "st": "NY", "Zip": 14618.0, "O_14": 2.0, "Q_15": 1.0, "O_15": 1.0, "city": "ROCHESTER", "beds": 145.0, "SR_15": 1.0}, {"Diff_star": 0.0, "addr": "308 EAST 175 STREET", "SR_14": 5.0, "Q_14": 5.0, "name": "CASA PROMESA", "SF_14": 4.0, "SF_15": 4.0, "cnty": "Bronx", "st": "NY", "Zip": 10457.0, "O_14": 5.0, "Q_15": 5.0, "O_15": 5.0, "city": "BRONX", "beds": 108.0, "SR_15": 5.0}, {"Diff_star": -1.0, "addr": "45 RIVINGTON STREET", "SR_14": 4.0, "Q_14": 5.0, "name": "RIVINGTON HOUSE THE NICHOLAS A RANGO H C F", "SF_14": 4.0, "SF_15": "", "cnty": "New York", "st": "NY", "Zip": 10002.0, "O_14": 5.0, "Q_15": 4.0, "O_15": 4.0, "city": "NEW YORK", "beds": 219.0, "SR_15": 4.0}, {"Diff_star": 0.0, "addr": "78 OLD COUNTRY ROAD", "SR_14": 4.0, "Q_14": 5.0, "name": "WESTHAMPTON CARE CENTER", "SF_14": 2.0, "SF_15": 2.0, "cnty": "Suffolk", "st": "NY", "Zip": 11977.0, "O_14": 5.0, "Q_15": 5.0, "O_15": 5.0, "city": "WESTHAMPTON", "beds": 180.0, "SR_15": 4.0}, {"Diff_star": -1.0, "addr": "22 VAN DUZER PLACE", "SR_14": 4.0, "Q_14": 5.0, "name": "SCHERVIER PAVILION", "SF_14": 2.0, "SF_15": 2.0, "cnty": "Orange", "st": "NY", "Zip": 10990.0, "O_14": 5.0, "Q_15": 2.0, "O_15": 4.0, "city": "WARWICK", "beds": 120.0, "SR_15": 4.0}, {"Diff_star": 0.0, "addr": "20 PARK AVENUE", "SR_14": 3.0, "Q_14": 5.0, "name": "FINGER LAKES CENTER FOR LIVING", "SF_14": 4.0, "SF_15": 4.0, "cnty": "Cayuga", "st": "NY", "Zip": 13021.0, "O_14": 5.0, "Q_15": 5.0, "O_15": 5.0, "city": "AUBURN", "beds": 80.0, "SR_15": 3.0}, {"Diff_star": 0.0, "addr": "500 HAHNEMANN TRAIL", "SR_14": 4.0, "Q_14": 4.0, "name": "HIGHLANDS LIVING CENTER", "SF_14": 4.0, "SF_15": 4.0, "cnty": "Monroe", "st": "NY", "Zip": 14534.0, "O_14": 4.0, "Q_15": 2.0, "O_15": 4.0, "city": "PITTSFORD", "beds": 122.0, "SR_15": 4.0}, {"Diff_star": -1.0, "addr": "ONE GREENWICH STREET", "SR_14": 3.0, "Q_14": 5.0, "name": "NASSAU EXTENDED CARE FACILITY", "SF_14": 1.0, "SF_15": 1.0, "cnty": "Nassau", "st": "NY", "Zip": 11550.0, "O_14": 3.0, "Q_15": 4.0, "O_15": 2.0, "city": "HEMPSTEAD", "beds": 280.0, "SR_15": 3.0}, {"Diff_star": 0.0, "addr": "220 RICHMOND AVENUE", "SR_14": 4.0, "Q_14": 5.0, "name": "WESTERN N Y S VETERANS HOME", "SF_14": 5.0, "SF_15": 5.0, "cnty": "Genesee", "st": "NY", "Zip": 14020.0, "O_14": 5.0, "Q_15": 5.0, "O_15": 5.0, "city": "BATAVIA", "beds": 126.0, "SR_15": 4.0}, {"Diff_star": -1.0, "addr": "3 SUMMIT COURT", "SR_14": 4.0, "Q_14": 2.0, "name": "WINGATE AT DUTCHESS", "SF_14": 4.0, "SF_15": 4.0, "cnty": "Dutchess", "st": "NY", "Zip": 12524.0, "O_14": 4.0, "Q_15": 1.0, "O_15": 3.0, "city": "FISHKILL", "beds": 160.0, "SR_15": 4.0}, {"Diff_star": 0.0, "addr": "2600 NIAGARA FALLS BOULEVARD", "SR_14": 5.0, "Q_14": 4.0, "name": "ELDERWOOD AT WHEATFIELD", "SF_14": 3.0, "SF_15": 3.0, "cnty": "Niagara", "st": "NY", "Zip": 14304.0, "O_14": 5.0, "Q_15": 4.0, "O_15": 5.0, "city": "NIAGARA FALLS", "beds": 123.0, "SR_15": 5.0}, {"Diff_star": 0.0, "addr": "61 11 QUEENS BOULEVARD", "SR_14": 5.0, "Q_14": 5.0, "name": "QUEENS BLVD EXT CARE FACILITY", "SF_14": 4.0, "SF_15": 4.0, "cnty": "Queens", "st": "NY", "Zip": 11377.0, "O_14": 5.0, "Q_15": 4.0, "O_15": 5.0, "city": "WOODSIDE", "beds": 280.0, "SR_15": 5.0}, {"Diff_star": 0.0, "addr": "116 EAST 125TH ST", "SR_14": 4.0, "Q_14": 5.0, "name": "NORTHERN MANHATTAN REHAB AND NURSING CENTER", "SF_14": 1.0, "SF_15": 1.0, "cnty": "New York", "st": "NY", "Zip": 10035.0, "O_14": 4.0, "Q_15": 5.0, "O_15": 4.0, "city": "NEW YORK", "beds": 320.0, "SR_15": 4.0}, {"Diff_star": 0.0, "addr": "2230 NORTH TRIPHAMMER ROAD", "SR_14": 5.0, "Q_14": 4.0, "name": "KENDAL AT ITHACA", "SF_14": 5.0, "SF_15": 5.0, "cnty": "Tompkins", "st": "NY", "Zip": 14850.0, "O_14": 5.0, "Q_15": 3.0, "O_15": 5.0, "city": "ITHACA", "beds": 35.0, "SR_15": 5.0}, {"Diff_star": 0.0, "addr": "1445 KEMBLE STREET", "SR_14": 1.0, "Q_14": 4.0, "name": "FOCUS REHABILITATION AND NURSING CENTER AT UTICA", "SF_14": 3.0, "SF_15": 3.0, "cnty": "Oneida", "st": "NY", "Zip": 13501.0, "O_14": 1.0, "Q_15": 2.0, "O_15": 1.0, "city": "UTICA", "beds": 120.0, "SR_15": 1.0}, {"Diff_star": 0.0, "addr": "185 OLD BROADWAY", "SR_14": 3.0, "Q_14": 5.0, "name": "ANDRUS ON HUDSON", "SF_14": 2.0, "SF_15": 2.0, "cnty": "Westchester", "st": "NY", "Zip": 10706.0, "O_14": 4.0, "Q_15": 5.0, "O_15": 4.0, "city": "HASTINGS ON HUDSON", "beds": 197.0, "SR_15": 3.0}, {"Diff_star": -1.0, "addr": "320 WEST MERRICK ROAD", "SR_14": 4.0, "Q_14": 5.0, "name": "MEADOWBROOK CARE CENTER", "SF_14": 3.0, "SF_15": 3.0, "cnty": "Nassau", "st": "NY", "Zip": 11520.0, "O_14": 5.0, "Q_15": 4.0, "O_15": 4.0, "city": "FREEPORT", "beds": 280.0, "SR_15": 4.0}, {"Diff_star": -1.0, "addr": "101 THEALL ROAD", "SR_14": 4.0, "Q_14": 5.0, "name": "THE OSBORN", "SF_14": 4.0, "SF_15": 4.0, "cnty": "Westchester", "st": "NY", "Zip": 10580.0, "O_14": 5.0, "Q_15": 4.0, "O_15": 4.0, "city": "RYE", "beds": 84.0, "SR_15": 4.0}, {"Diff_star": 0.0, "addr": "755 HEMPSTEAD TURNPIKE", "SR_14": 3.0, "Q_14": 4.0, "name": "TOWNHOUSE CENTER FOR REHABILITATION &  NRSG", "SF_14": 1.0, "SF_15": 1.0, "cnty": "Nassau", "st": "NY", "Zip": 11553.0, "O_14": 2.0, "Q_15": 2.0, "O_15": 2.0, "city": "UNIONDALE", "beds": 280.0, "SR_15": 3.0}, {"Diff_star": 0.0, "addr": "33 23 UNION STREET", "SR_14": 4.0, "Q_14": 5.0, "name": "UNION PLAZA CARE CENTER", "SF_14": 1.0, "SF_15": 1.0, "cnty": "Queens", "st": "NY", "Zip": 11354.0, "O_14": 4.0, "Q_15": 5.0, "O_15": 4.0, "city": "FLUSHING", "beds": 280.0, "SR_15": 4.0}, {"Diff_star": 0.0, "addr": "1305 NOTTINGHAM ROAD", "SR_14": 2.0, "Q_14": 4.0, "name": "NOTTINGHAM R H C F", "SF_14": 4.0, "SF_15": 4.0, "cnty": "Onondaga", "st": "NY", "Zip": 13078.0, "O_14": 3.0, "Q_15": 4.0, "O_15": 3.0, "city": "JAMESVILLE", "beds": 40.0, "SR_15": 2.0}, {"Diff_star": 0.0, "addr": "1650 CHAMPLIN AVENUE", "SR_14": 1.0, "Q_14": 4.0, "name": "ST LUKES HOME", "SF_14": 3.0, "SF_15": 3.0, "cnty": "Oneida", "st": "NY", "Zip": 13504.0, "O_14": 1.0, "Q_15": 2.0, "O_15": 1.0, "city": "UTICA", "beds": 202.0, "SR_15": 1.0}, {"Diff_star": 0.0, "addr": "46 HARRIMAN DRIVE", "SR_14": 4.0, "Q_14": 3.0, "name": "GLEN ARDEN INC", "SF_14": 4.0, "SF_15": 3.0, "cnty": "Orange", "st": "NY", "Zip": 10924.0, "O_14": 4.0, "Q_15": 3.0, "O_15": 4.0, "city": "GOSHEN", "beds": 40.0, "SR_15": 4.0}, {"Diff_star": 0.0, "addr": "ONE WINGATE WAY", "SR_14": 3.0, "Q_14": 4.0, "name": "WINGATE AT ULSTER", "SF_14": 4.0, "SF_15": 4.0, "cnty": "Ulster", "st": "NY", "Zip": 12528.0, "O_14": 4.0, "Q_15": 2.0, "O_15": 4.0, "city": "HIGHLAND", "beds": 120.0, "SR_15": 4.0}, {"Diff_star": 0.0, "addr": "36 17 PARSONS BOULEVARD", "SR_14": 5.0, "Q_14": 5.0, "name": "DR WILLIAM O BENENSON REHABILITATION PAVILION", "SF_14": 3.0, "SF_15": 3.0, "cnty": "Queens", "st": "NY", "Zip": 11354.0, "O_14": 5.0, "Q_15": 3.0, "O_15": 5.0, "city": "FLUSHING", "beds": 302.0, "SR_15": 5.0}, {"Diff_star": 0.0, "addr": "594 ALBANY AVENUE", "SR_14": 4.0, "Q_14": 5.0, "name": "DR SUSAN SMITH MCKINNEY NRSG & REHAB CTR", "SF_14": 4.0, "SF_15": 4.0, "cnty": "Kings", "st": "NY", "Zip": 11203.0, "O_14": 5.0, "Q_15": 5.0, "O_15": 5.0, "city": "BROOKLYN", "beds": 320.0, "SR_15": 4.0}, {"Diff_star": 0.0, "addr": "67 SPRINGVALE ROAD", "SR_14": 2.0, "Q_14": 4.0, "name": "BETHEL NURSING AND REHAB CENTER", "SF_14": "", "SF_15": "", "cnty": "Westchester", "st": "NY", "Zip": 10520.0, "O_14": 2.0, "Q_15": 2.0, "O_15": 2.0, "city": "CROTON ON HUDSON", "beds": 200.0, "SR_15": 2.0}, {"Diff_star": 0.0, "addr": "800 FRONT STREET", "SR_14": 2.0, "Q_14": 5.0, "name": "HEMPSTEAD PARK NURSING HOME", "SF_14": 4.0, "SF_15": 4.0, "cnty": "Nassau", "st": "NY", "Zip": 11550.0, "O_14": 4.0, "Q_15": 5.0, "O_15": 4.0, "city": "HEMPSTEAD", "beds": 251.0, "SR_15": 2.0}, {"Diff_star": -1.0, "addr": "61 GRASSLANDS ROAD", "SR_14": 3.0, "Q_14": 5.0, "name": "HEBREW HOSPITAL HOME OF WESTCHESTER INC", "SF_14": 1.0, "SF_15": 1.0, "cnty": "Westchester", "st": "NY", "Zip": 10595.0, "O_14": 3.0, "Q_15": 4.0, "O_15": 2.0, "city": "VALHALLA", "beds": 160.0, "SR_15": 3.0}, {"Diff_star": -1.0, "addr": "965 DUTCHESS TURNPIKE", "SR_14": 4.0, "Q_14": 3.0, "name": "LUTHERAN CENTER AT POUGHKEEPSIE INC", "SF_14": 2.0, "SF_15": 2.0, "cnty": "Dutchess", "st": "NY", "Zip": 12603.0, "O_14": 4.0, "Q_15": 1.0, "O_15": 3.0, "city": "POUGHKEEPSIE", "beds": 160.0, "SR_15": 4.0}, {"Diff_star": -1.0, "addr": "2237 LINDEN BOULEVARD", "SR_14": 4.0, "Q_14": 5.0, "name": "LINDEN CENTER FOR NURSING AND REHABILITATION", "SF_14": 3.0, "SF_15": 3.0, "cnty": "Kings", "st": "NY", "Zip": 11207.0, "O_14": 5.0, "Q_15": 4.0, "O_15": 4.0, "city": "BROOKLYN", "beds": 280.0, "SR_15": 4.0}, {"Diff_star": 0.0, "addr": "325 NORTHERN BOULEVARD", "SR_14": 1.0, "Q_14": 4.0, "name": "HUDSON PARK REHABILITATION AND NURSING CENTER", "SF_14": 3.0, "SF_15": 3.0, "cnty": "Albany", "st": "NY", "Zip": 12204.0, "O_14": 1.0, "Q_15": 2.0, "O_15": 1.0, "city": "ALBANY", "beds": 200.0, "SR_15": 1.0}, {"Diff_star": 0.0, "addr": "100 17  23RD AVENUE", "SR_14": 4.0, "Q_14": 5.0, "name": "ELMHURST CARE CENTER INC", "SF_14": 3.0, "SF_15": 3.0, "cnty": "Queens", "st": "NY", "Zip": 11369.0, "O_14": 5.0, "Q_15": 5.0, "O_15": 5.0, "city": "EAST ELMHURST", "beds": 240.0, "SR_15": 4.0}, {"Diff_star": 0.0, "addr": "20 MANOR DRIVE", "SR_14": 2.0, "Q_14": 3.0, "name": "SENECA HILL MANOR INC", "SF_14": 2.0, "SF_15": 3.0, "cnty": "Oswego", "st": "NY", "Zip": 13126.0, "O_14": 2.0, "Q_15": 2.0, "O_15": 2.0, "city": "OSWEGO", "beds": 120.0, "SR_15": 2.0}, {"Diff_star": 0.0, "addr": "725 RENAISSANCE DRIVE", "SR_14": 4.0, "Q_14": 4.0, "name": "CANTERBURY WOODS", "SF_14": 4.0, "SF_15": 4.0, "cnty": "Erie", "st": "NY", "Zip": 14221.0, "O_14": 4.0, "Q_15": 2.0, "O_15": 4.0, "city": "WILLIAMSVILLE", "beds": 48.0, "SR_15": 4.0}, {"Diff_star": 0.0, "addr": "135 FRANKLIN AVENUE", "SR_14": 2.0, "Q_14": 5.0, "name": "GARDEN CARE CENTER", "SF_14": 1.0, "SF_15": 1.0, "cnty": "Nassau", "st": "NY", "Zip": 11010.0, "O_14": 2.0, "Q_15": 5.0, "O_15": 2.0, "city": "FRANKLIN SQUARE", "beds": 150.0, "SR_15": 2.0}, {"Diff_star": 0.0, "addr": "400 SOUTH SERVICE ROAD", "SR_14": 2.0, "Q_14": 5.0, "name": "HUNTINGTON HILLS CENTER FOR HEALTH AND REHAB", "SF_14": 3.0, "SF_15": 3.0, "cnty": "Suffolk", "st": "NY", "Zip": 11747.0, "O_14": 3.0, "Q_15": 5.0, "O_15": 3.0, "city": "MELVILLE", "beds": 320.0, "SR_15": 2.0}, {"Diff_star": 0.0, "addr": "425 NATIONAL BOULEVARD", "SR_14": 5.0, "Q_14": 5.0, "name": "PARK AVENUE EXTENDED CARE FACILITY", "SF_14": 1.0, "SF_15": 1.0, "cnty": "Nassau", "st": "NY", "Zip": 11561.0, "O_14": 5.0, "Q_15": 5.0, "O_15": 5.0, "city": "LONG BEACH", "beds": 240.0, "SR_15": 5.0}, {"Diff_star": 0.0, "addr": "70-05 35 AVENUE", "SR_14": 5.0, "Q_14": 5.0, "name": "REGAL HEIGHTS REHABILITATION AND HEALTH CARE CTR", "SF_14": 3.0, "SF_15": 3.0, "cnty": "Queens", "st": "NY", "Zip": 11372.0, "O_14": 5.0, "Q_15": 5.0, "O_15": 5.0, "city": "JACKSON HEIGHTS", "beds": 280.0, "SR_15": 5.0}, {"Diff_star": -1.0, "addr": "52 ROUTE 25A", "SR_14": 3.0, "Q_14": 5.0, "name": "ST CATHERINE OF SIENA", "SF_14": 4.0, "SF_15": 3.0, "cnty": "Suffolk", "st": "NY", "Zip": 11787.0, "O_14": 5.0, "Q_15": 5.0, "O_15": 4.0, "city": "SMITHTOWN", "beds": 240.0, "SR_15": 3.0}, {"Diff_star": 0.0, "addr": "142 AUDOBON AVENUE", "SR_14": 5.0, "Q_14": 5.0, "name": "INCARNATION CHILDRENS CENTER", "SF_14": 5.0, "SF_15": 5.0, "cnty": "New York", "st": "NY", "Zip": 10032.0, "O_14": 5.0, "Q_15": 5.0, "O_15": 5.0, "city": "NEW YORK", "beds": 21.0, "SR_15": 5.0}, {"Diff_star": 0.0, "addr": "51 N RT 9W", "SR_14": 5.0, "Q_14": 5.0, "name": "HELEN HAYES HOSPITAL RESIDENTIAL HEALTH CARE FAC", "SF_14": 5.0, "SF_15": 5.0, "cnty": "Rockland", "st": "NY", "Zip": 10993.0, "O_14": 5.0, "Q_15": 5.0, "O_15": 5.0, "city": "WEST HAVERSTRAW", "beds": 25.0, "SR_15": 5.0}, {"Diff_star": -1.0, "addr": "46 MT EBO ROAD NORTH", "SR_14": 3.0, "Q_14": 5.0, "name": "PUTNAM RIDGE", "SF_14": 3.0, "SF_15": 3.0, "cnty": "Putnam", "st": "NY", "Zip": 10509.0, "O_14": 4.0, "Q_15": 4.0, "O_15": 3.0, "city": "BREWSTER", "beds": 160.0, "SR_15": 3.0}, {"Diff_star": 0.0, "addr": "2150 ST PAUL STREET", "SR_14": 2.0, "Q_14": 4.0, "name": "BAIRD NURSING HOME", "SF_14": 3.0, "SF_15": 3.0, "cnty": "Monroe", "st": "NY", "Zip": 14621.0, "O_14": 2.0, "Q_15": 3.0, "O_15": 2.0, "city": "ROCHESTER", "beds": 28.0, "SR_15": 2.0}, {"Diff_star": -1.0, "addr": "48 CEDAR STREET", "SR_14": 4.0, "Q_14": 5.0, "name": "BUENA VIDA CONTINUING CARE", "SF_14": 3.0, "SF_15": 3.0, "cnty": "Kings", "st": "NY", "Zip": 11221.0, "O_14": 5.0, "Q_15": 4.0, "O_15": 4.0, "city": "BROOKLYN", "beds": 240.0, "SR_15": 4.0}, {"Diff_star": -1.0, "addr": "140 MAIN STREET", "SR_14": 2.0, "Q_14": 3.0, "name": "RIVER VALLEY CARE CENTER INC", "SF_14": 3.0, "SF_15": 3.0, "cnty": "Dutchess", "st": "NY", "Zip": 12601.0, "O_14": 2.0, "Q_15": 1.0, "O_15": 1.0, "city": "POUGHKEEPSIE", "beds": 160.0, "SR_15": 2.0}, {"Diff_star": 0.0, "addr": "10 HASTINGS DRIVE", "SR_14": 4.0, "Q_14": 3.0, "name": "WINGATE AT BEACON", "SF_14": 3.0, "SF_15": 3.0, "cnty": "Dutchess", "st": "NY", "Zip": 12508.0, "O_14": 4.0, "Q_15": 2.0, "O_15": 4.0, "city": "BEACON", "beds": 160.0, "SR_15": 4.0}, {"Diff_star": 0.0, "addr": "120 ODELL AVENUE", "SR_14": 3.0, "Q_14": 4.0, "name": "MICHAEL MALOTZ SKILLED NURSING PAVILLION", "SF_14": 3.0, "SF_15": 3.0, "cnty": "Westchester", "st": "NY", "Zip": 10701.0, "O_14": 3.0, "Q_15": 3.0, "O_15": 3.0, "city": "YONKERS", "beds": 120.0, "SR_15": 3.0}, {"Diff_star": 0.0, "addr": "27 HACKETT BLVD", "SR_14": 1.0, "Q_14": 5.0, "name": "ST MARGARETS CENTER", "SF_14": 5.0, "SF_15": 5.0, "cnty": "Albany", "st": "NY", "Zip": 12208.0, "O_14": 2.0, "Q_15": 5.0, "O_15": 2.0, "city": "ALBANY", "beds": 79.0, "SR_15": 1.0}, {"Diff_star": 0.0, "addr": "60 MERRICK AVENUE", "SR_14": 2.0, "Q_14": 5.0, "name": "FULTON COMMONS CARE INC", "SF_14": 1.0, "SF_15": 1.0, "cnty": "Nassau", "st": "NY", "Zip": 11554.0, "O_14": 2.0, "Q_15": 5.0, "O_15": 2.0, "city": "EAST MEADOW", "beds": 280.0, "SR_15": 2.0}, {"Diff_star": 0.0, "addr": "2090 ALBANY POST ROAD", "SR_14": 4.0, "Q_14": 5.0, "name": "N Y S VETS HOME AT MONTROSE", "SF_14": 5.0, "SF_15": 5.0, "cnty": "Westchester", "st": "NY", "Zip": 10548.0, "O_14": 5.0, "Q_15": 4.0, "O_15": 5.0, "city": "MONTROSE", "beds": 252.0, "SR_15": 4.0}, {"Diff_star": 0.0, "addr": "500 MATHER DRIVE", "SR_14": 4.0, "Q_14": 5.0, "name": "JEFFERSONS FERRY LIFE CARE CO", "SF_14": 4.0, "SF_15": 4.0, "cnty": "Suffolk", "st": "NY", "Zip": 11720.0, "O_14": 5.0, "Q_15": 5.0, "O_15": 5.0, "city": "SOUTH SETAUKET", "beds": 60.0, "SR_15": 4.0}, {"Diff_star": 0.0, "addr": "1031 MICHIGAN AVE", "SR_14": 1.0, "Q_14": 4.0, "name": "HIGHPOINTE ON MICHIGAN HEALTH CARE FACILITY", "SF_14": 4.0, "SF_15": 4.0, "cnty": "Erie", "st": "NY", "Zip": 14203.0, "O_14": 2.0, "Q_15": 2.0, "O_15": 2.0, "city": "BUFFALO", "beds": 300.0, "SR_15": 1.0}, {"Diff_star": -1.0, "addr": "5537 EXPRESSWAY DRIVE NORTH", "SR_14": 2.0, "Q_14": 5.0, "name": "ISLAND NURSING AND REHABILITATION CENTER INC", "SF_14": 4.0, "SF_15": 3.0, "cnty": "Suffolk", "st": "NY", "Zip": 11742.0, "O_14": 4.0, "Q_15": 5.0, "O_15": 3.0, "city": "HOLTSVILLE", "beds": 120.0, "SR_15": 2.0}, {"Diff_star": -1.0, "addr": "1725 BRENTWOOD ROAD", "SR_14": 4.0, "Q_14": 5.0, "name": "MARIA REGINA RESIDENCE INC", "SF_14": 4.0, "SF_15": 3.0, "cnty": "Suffolk", "st": "NY", "Zip": 11717.0, "O_14": 5.0, "Q_15": 3.0, "O_15": 4.0, "city": "BRENTWOOD", "beds": 188.0, "SR_15": 4.0}, {"Diff_star": -1.0, "addr": "26-13  21ST STREET", "SR_14": 5.0, "Q_14": 5.0, "name": "NEW YORK CENTER FOR REHAB AND NURSING", "SF_14": 3.0, "SF_15": 3.0, "cnty": "Queens", "st": "NY", "Zip": 11102.0, "O_14": 5.0, "Q_15": 4.0, "O_15": 4.0, "city": "ASTORIA", "beds": 280.0, "SR_15": 4.0}, {"Diff_star": -1.0, "addr": "305 LOCUST AVENUE", "SR_14": 2.0, "Q_14": 5.0, "name": "AFFINITY SKILLED LIVING AND REHABILITATION CTR", "SF_14": 2.0, "SF_15": 2.0, "cnty": "Suffolk", "st": "NY", "Zip": 11769.0, "O_14": 3.0, "Q_15": 4.0, "O_15": 2.0, "city": "OAKDALE", "beds": 280.0, "SR_15": 2.0}, {"Diff_star": 0.0, "addr": "3115 HORSEBLOCK ROAD", "SR_14": 1.0, "Q_14": 4.0, "name": "MEDFORD MULTICARE CENTER FOR LIVING", "SF_14": 1.0, "SF_15": 1.0, "cnty": "Suffolk", "st": "NY", "Zip": 11763.0, "O_14": 1.0, "Q_15": 3.0, "O_15": 1.0, "city": "MEDFORD", "beds": 32.0, "SR_15": 1.0}, {"Diff_star": 0.0, "addr": "1500 BRECKNOCK ROAD", "SR_14": 5.0, "Q_14": 5.0, "name": "PECONIC LANDING AT SOUTHOLD INC", "SF_14": 5.0, "SF_15": 5.0, "cnty": "Suffolk", "st": "NY", "Zip": 11944.0, "O_14": 5.0, "Q_15": 5.0, "O_15": 5.0, "city": "GREENPORT", "beds": 44.0, "SR_15": 5.0}, {"Diff_star": 1.0, "addr": "5285 LEWISTON ROAD", "SR_14": 3.0, "Q_14": 4.0, "name": "OUR LADY OF PEACE NURSING CARE RESIDENCE", "SF_14": 3.0, "SF_15": 3.0, "cnty": "Niagara", "st": "NY", "Zip": 14092.0, "O_14": 3.0, "Q_15": 3.0, "O_15": 4.0, "city": "LEWISTON", "beds": 250.0, "SR_15": 4.0}, {"Diff_star": 0.0, "addr": "55 GRASSLAND ROAD", "SR_14": 4.0, "Q_14": 5.0, "name": "WESTCHESTER MEADOWS", "SF_14": 5.0, "SF_15": 5.0, "cnty": "Westchester", "st": "NY", "Zip": 10595.0, "O_14": 5.0, "Q_15": 5.0, "O_15": 5.0, "city": "VALHALLA", "beds": 20.0, "SR_15": 4.0}, {"Diff_star": -1.0, "addr": "300 GRANT AVENUE", "SR_14": 4.0, "Q_14": 4.0, "name": "NORTHEAST CENTER FOR REHABILITATION & BRAIN INJURY", "SF_14": 2.0, "SF_15": 2.0, "cnty": "Ulster", "st": "NY", "Zip": 12449.0, "O_14": 4.0, "Q_15": 1.0, "O_15": 3.0, "city": "LAKE KATRINE", "beds": 280.0, "SR_15": 4.0}, {"Diff_star": 0.0, "addr": "155 DEAN STREET", "SR_14": 4.0, "Q_14": 4.0, "name": "HOPKINS CENTER FOR REHABILITATION AND HEALTHCARE", "SF_14": 1.0, "SF_15": 1.0, "cnty": "Kings", "st": "NY", "Zip": 11217.0, "O_14": 3.0, "Q_15": 3.0, "O_15": 3.0, "city": "BROOKLYN", "beds": 288.0, "SR_15": 4.0}, {"Diff_star": 0.0, "addr": "ONE KENDAL WAY", "SR_14": 4.0, "Q_14": 5.0, "name": "KENDAL ON HUDSON", "SF_14": 5.0, "SF_15": 5.0, "cnty": "Westchester", "st": "NY", "Zip": 10591.0, "O_14": 5.0, "Q_15": 5.0, "O_15": 5.0, "city": "SLEEPY HOLLOW", "beds": 42.0, "SR_15": 4.0}, {"Diff_star": 0.0, "addr": "2999 SCHURZ AVENUE", "SR_14": 4.0, "Q_14": 5.0, "name": "JEANNE JUGAN RESIDENCE", "SF_14": 4.0, "SF_15": 4.0, "cnty": "Bronx", "st": "NY", "Zip": 10465.0, "O_14": 5.0, "Q_15": 5.0, "O_15": 5.0, "city": "BRONX", "beds": 30.0, "SR_15": 4.0}, {"Diff_star": 0.0, "addr": "64 COUNTY ROAD 39", "SR_14": 2.0, "Q_14": 4.0, "name": "THE HAMPTONS CENTER FOR REHABILITATION AND NURSING", "SF_14": 2.0, "SF_15": 2.0, "cnty": "Suffolk", "st": "NY", "Zip": 11968.0, "O_14": 2.0, "Q_15": 2.0, "O_15": 2.0, "city": "SOUTH HAMPTON", "beds": 280.0, "SR_15": 2.0}, {"Diff_star": 1.0, "addr": "10-42 MITCHELL AVENUE", "SR_14": 4.0, "Q_14": 1.0, "name": "UNITED HEALTH SVS HOSP BINGHAMTON GEN T C U", "SF_14": 5.0, "SF_15": 5.0, "cnty": "Broome", "st": "NY", "Zip": 13903.0, "O_14": 4.0, "Q_15": 2.0, "O_15": 5.0, "city": "BINGHAMTON", "beds": 20.0, "SR_15": 4.0}, {"Diff_star": 0.0, "addr": "75 NORTH COUNTRY ROAD", "SR_14": 4.0, "Q_14": 5.0, "name": "JOHN T MATHER MEMORIAL HOSPITAL T C U", "SF_14": 5.0, "SF_15": 5.0, "cnty": "Suffolk", "st": "NY", "Zip": 11777.0, "O_14": 5.0, "Q_15": 5.0, "O_15": 5.0, "city": "PORT JEFFERSON", "beds": 16.0, "SR_15": 4.0}, {"Diff_star": 0.0, "addr": "ONE FOX RUN LANE", "SR_14": 1.0, "Q_14": 5.0, "name": "FOX RUN AT ORCHARD PARK", "SF_14": 4.0, "SF_15": 3.0, "cnty": "Erie", "st": "NY", "Zip": 14127.0, "O_14": 2.0, "Q_15": 5.0, "O_15": 2.0, "city": "ORCHARD PARK", "beds": 50.0, "SR_15": 1.0}, {"Diff_star": 0.0, "addr": "8900 VAN WYCK EXPRESSWAY", "SR_14": 5.0, "Q_14": 5.0, "name": "JAMAICA HOSPITAL T C U", "SF_14": 5.0, "SF_15": 5.0, "cnty": "Queens", "st": "NY", "Zip": 11418.0, "O_14": 5.0, "Q_15": 2.0, "O_15": 5.0, "city": "JAMAICA", "beds": 7.0, "SR_15": 5.0}, {"Diff_star": -2.0, "addr": "4988 STATE HWY 30", "SR_14": 2.0, "Q_14": 5.0, "name": "WILKINSON RESIDENTIAL HEALTH CARE FACILITY", "SF_14": 4.0, "SF_15": 3.0, "cnty": "Montgomery", "st": "NY", "Zip": 12010.0, "O_14": 4.0, "Q_15": 4.0, "O_15": 2.0, "city": "AMSTERDAM", "beds": 160.0, "SR_15": 2.0}, {"Diff_star": 0.0, "addr": "100 WOODLAND POND CIRCLE", "SR_14": 4.0, "Q_14": 5.0, "name": "WOODLAND POND AT NEW PALTZ", "SF_14": 4.0, "SF_15": 4.0, "cnty": "Ulster", "st": "NY", "Zip": 12561.0, "O_14": 5.0, "Q_15": 5.0, "O_15": 5.0, "city": "NEW PALTZ", "beds": 40.0, "SR_15": 4.0}, {"Diff_star": -1.0, "addr": "14 VILLAGE DRIVE", "SR_14": 2.0, "Q_14": 3.0, "name": "GOOD SHEPHERD VILLAGE AT ENDWELL", "SF_14": 4.0, "SF_15": 3.0, "cnty": "Broome", "st": "NY", "Zip": 13760.0, "O_14": 3.0, "Q_15": 2.0, "O_15": 2.0, "city": "ENDWELL", "beds": 32.0, "SR_15": 2.0}, {"Diff_star": 0.0, "addr": "40 AUTUMN DRIVE", "SR_14": 4.0, "Q_14": 5.0, "name": "EDDY VILLAGE GREEN AT BEVERWYCK", "SF_14": 5.0, "SF_15": 5.0, "cnty": "Albany", "st": "NY", "Zip": 12159.0, "O_14": 5.0, "Q_15": 5.0, "O_15": 5.0, "city": "SLINGERLANDS", "beds": 24.0, "SR_15": 4.0}, {"Diff_star": 0.0, "addr": "300 EAST OVERLOOK", "SR_14": 3.0, "Q_14": 4.0, "name": "THE AMSTERDAM AT HARBORSIDE", "SF_14": 4.0, "SF_15": 4.0, "cnty": "Nassau", "st": "NY", "Zip": 11050.0, "O_14": 4.0, "Q_15": 3.0, "O_15": 4.0, "city": "PORT WASHINGTON", "beds": 56.0, "SR_15": 3.0}, {"Diff_star": 0.0, "addr": "56-45 MAIN STREET", "SR_14": 5.0, "Q_14": 5.0, "name": "NEW YORK HOSPITIAL MED CTR T C U", "SF_14": 4.0, "SF_15": 4.0, "cnty": "Queens", "st": "NY", "Zip": 11355.0, "O_14": 5.0, "Q_15": 5.0, "O_15": 5.0, "city": "FLUSHING", "beds": 16.0, "SR_15": 5.0}, {"Diff_star": 0.0, "addr": "65 SONOMA DRIVE", "SR_14": 5.0, "Q_14": 4.0, "name": "ST JOHN'S PENFIELD HOMES CORPORATION", "SF_14": "", "SF_15": "", "cnty": "Monroe", "st": "NY", "Zip": 14450.0, "O_14": 5.0, "Q_15": 2.0, "O_15": 5.0, "city": "FAIRPORT", "beds": 20.0, "SR_15": 5.0}, {"Diff_star": 0.0, "addr": "45TH AVENUE AND PARSONS BOULEVARD", "SR_14": 5.0, "Q_14": 4.0, "name": "FLUSHING HOSPITAL MEDICAL CENTER T C U", "SF_14": "", "SF_15": "", "cnty": "Queens", "st": "NY", "Zip": 11355.0, "O_14": 5.0, "Q_15": 5.0, "O_15": 5.0, "city": "FLUSHING", "beds": 6.0, "SR_15": 5.0}, {"Diff_star": 0.0, "addr": "22691 CAMPUS DRIVE", "SR_14": 4.0, "Q_14": 4.0, "name": "SAMARITAN SENIOR VILLAGE, INC", "SF_14": "", "SF_15": "", "cnty": "Jefferson", "st": "NY", "Zip": 13601.0, "O_14": 4.0, "Q_15": 3.0, "O_15": 4.0, "city": "WATERTOWN", "beds": 168.0, "SR_15": 4.0}, {"Diff_star": 0.0, "addr": "462 GRIDER STREET", "SR_14": 5.0, "Q_14": 1.0, "name": "E C M C TRANSITIONAL CARE UNIT", "SF_14": 5.0, "SF_15": 5.0, "cnty": "Erie", "st": "NY", "Zip": 14215.0, "O_14": 4.0, "Q_15": 1.0, "O_15": 4.0, "city": "BUFFALO", "beds": 19.0, "SR_15": 5.0}, {"Diff_star": 0.0, "addr": "555 ST JOSEPH'S BOULEVARD", "SR_14": "", "Q_14": "", "name": "ST JOSEPH'S HOSPITAL  T C U", "SF_14": "", "SF_15": "", "cnty": "Chemung", "st": "NY", "Zip": 14902.0, "O_14": "", "Q_15": "", "O_15": "", "city": "ELMIRA", "beds": 26.0, "SR_15": ""}, {"Diff_star": 0.0, "addr": "4900 BROAD ROAD", "SR_14": "", "Q_14": "", "name": "UPSTATE UNIVERSITY HOSP AT COMM GENERAL T C U", "SF_14": "", "SF_15": "", "cnty": "Onondaga", "st": "NY", "Zip": 13215.0, "O_14": "", "Q_15": "", "O_15": "", "city": "SYRACUSE", "beds": 20.0, "SR_15": ""}, {"Diff_star": 0.0, "addr": "29 01 216 STREET", "SR_14": 4.0, "Q_14": 5.0, "name": "ST MARYS HOSPITAL FOR CHILDREN INC", "SF_14": "", "SF_15": "", "cnty": "Queens", "st": "NY", "Zip": 11360.0, "O_14": 5.0, "Q_15": 5.0, "O_15": 5.0, "city": "BAYSIDE", "beds": 97.0, "SR_15": 4.0}, {"Diff_star": 0.0, "addr": "300 CORPORATE BLVD SOUTH", "SR_14": 4.0, "Q_14": 5.0, "name": "ELIZABETH SETON PEDIATRIC CENTER", "SF_14": 5.0, "SF_15": 5.0, "cnty": "Westchester", "st": "NY", "Zip": 10701.0, "O_14": 5.0, "Q_15": 5.0, "O_15": 5.0, "city": "YONKERS", "beds": 137.0, "SR_15": 4.0}]