[{"Diff_star": 0.0, "addr": "105 BURGESS DRIVE", "SR_14": 4.0, "Q_14": 4.0, "name": "PASSAVANT RETIREMENT AND HEALT", "SF_14": 4.0, "SF_15": 4.0, "cnty": "Butler", "st": "PA", "Zip": 16063.0, "O_14": 4.0, "Q_15": 4.0, "O_15": 4.0, "city": "ZELIENOPLE", "beds": 102.0, "SR_15": 4.0}, {"Diff_star": -1.0, "addr": "520 FRIENDSHIP STREET", "SR_14": 2.0, "Q_14": 5.0, "name": "GOLDEN HILL NURSING AND REHAB", "SF_14": 2.0, "SF_15": 2.0, "cnty": "Lawrence", "st": "PA", "Zip": 16101.0, "O_14": 3.0, "Q_15": 4.0, "O_15": 2.0, "city": "NEW CASTLE", "beds": 204.0, "SR_15": 2.0}, {"Diff_star": 0.0, "addr": "1616 HUNTINGDON PIKE", "SR_14": 4.0, "Q_14": 4.0, "name": "ST JOSEPH'S MANOR (DBA ENTITY OF HRHS)", "SF_14": 3.0, "SF_15": 3.0, "cnty": "Montgomery", "st": "PA", "Zip": 19046.0, "O_14": 4.0, "Q_15": 3.0, "O_15": 4.0, "city": "MEADOWBROOK", "beds": 296.0, "SR_15": 4.0}, {"Diff_star": 0.0, "addr": "1660 EASTON ROAD", "SR_14": 4.0, "Q_14": 5.0, "name": "NESHAMINY MANOR HOME", "SF_14": 2.0, "SF_15": 2.0, "cnty": "Bucks", "st": "PA", "Zip": 18976.0, "O_14": 5.0, "Q_15": 5.0, "O_15": 5.0, "city": "WARRINGTON", "beds": 360.0, "SR_15": 4.0}, {"Diff_star": 0.0, "addr": "1050 BROADVIEW BOULEVARD", "SR_14": 2.0, "Q_14": 4.0, "name": "PLATINUM RIDGE CTR FOR REHAB & HEALING", "SF_14": 1.0, "SF_15": 1.0, "cnty": "Allegheny", "st": "PA", "Zip": 15014.0, "O_14": 1.0, "Q_15": 2.0, "O_15": 1.0, "city": "BRACKENRIDGE", "beds": 97.0, "SR_15": 2.0}, {"Diff_star": 0.0, "addr": "2075 SCOTLAND AVENUE", "SR_14": 5.0, "Q_14": 5.0, "name": "MENNO-HAVEN, INC.", "SF_14": 3.0, "SF_15": 3.0, "cnty": "Franklin", "st": "PA", "Zip": 17201.0, "O_14": 5.0, "Q_15": 5.0, "O_15": 5.0, "city": "CHAMBERSBURG", "beds": 152.0, "SR_15": 5.0}, {"Diff_star": 0.0, "addr": "2600 WEST RUN ROAD", "SR_14": 2.0, "Q_14": 3.0, "name": "ELDERCREST NURSING CENTER", "SF_14": 2.0, "SF_15": 2.0, "cnty": "Allegheny", "st": "PA", "Zip": 15120.0, "O_14": 2.0, "Q_15": 2.0, "O_15": 2.0, "city": "MUNHALL", "beds": 48.0, "SR_15": 2.0}, {"Diff_star": 0.0, "addr": "246 FRIENDSHIP CIRCLE", "SR_14": 1.0, "Q_14": 3.0, "name": "FRIENDSHIP RIDGE", "SF_14": 1.0, "SF_15": 1.0, "cnty": "Beaver", "st": "PA", "Zip": 15009.0, "O_14": 1.0, "Q_15": 1.0, "O_15": 1.0, "city": "BEAVER", "beds": 589.0, "SR_15": 1.0}, {"Diff_star": -1.0, "addr": "267 FREDERICK STREET", "SR_14": 1.0, "Q_14": 5.0, "name": "HANOVER HALL", "SF_14": 4.0, "SF_15": 3.0, "cnty": "York", "st": "PA", "Zip": 17331.0, "O_14": 2.0, "Q_15": 4.0, "O_15": 1.0, "city": "HANOVER", "beds": 152.0, "SR_15": 1.0}, {"Diff_star": 0.0, "addr": "601 ST JOHN STREET", "SR_14": 5.0, "Q_14": 4.0, "name": "GOOD SHEPHERD HOME RAKER CENTER", "SF_14": 5.0, "SF_15": 5.0, "cnty": "Lehigh", "st": "PA", "Zip": 18103.0, "O_14": 5.0, "Q_15": 3.0, "O_15": 5.0, "city": "ALLENTOWN", "beds": 99.0, "SR_15": 5.0}, {"Diff_star": 0.0, "addr": "845 GERMANTOWN PIKE", "SR_14": 5.0, "Q_14": 3.0, "name": "ARISTACARE AT MEADOW SPRINGS", "SF_14": 2.0, "SF_15": 2.0, "cnty": "Montgomery", "st": "PA", "Zip": 19462.0, "O_14": 5.0, "Q_15": 3.0, "O_15": 5.0, "city": "PLYMOUTH MEETING", "beds": 153.0, "SR_15": 5.0}, {"Diff_star": -1.0, "addr": "489 CASTLE SHANNON BLVD", "SR_14": 2.0, "Q_14": 5.0, "name": "BAPTIST HOMES OF WESTERN PENNSYLVANIA", "SF_14": 4.0, "SF_15": 4.0, "cnty": "Allegheny", "st": "PA", "Zip": 15234.0, "O_14": 4.0, "Q_15": 4.0, "O_15": 3.0, "city": "PITTSBURGH", "beds": 126.0, "SR_15": 2.0}, {"Diff_star": 0.0, "addr": "108 SOUTH MAIN STREET", "SR_14": 4.0, "Q_14": 5.0, "name": "PHOEBE RICHLAND HCC", "SF_14": 3.0, "SF_15": 3.0, "cnty": "Bucks", "st": "PA", "Zip": 18955.0, "O_14": 5.0, "Q_15": 5.0, "O_15": 5.0, "city": "RICHLANDTOWN", "beds": 143.0, "SR_15": 4.0}, {"Diff_star": 0.0, "addr": "2025 WIGHTMAN STREET", "SR_14": 1.0, "Q_14": 2.0, "name": "SQUIRREL HILL CTR FOR REHABILITATION AND HEALING", "SF_14": 2.0, "SF_15": 1.0, "cnty": "Allegheny", "st": "PA", "Zip": 15217.0, "O_14": 1.0, "Q_15": 1.0, "O_15": 1.0, "city": "PITTSBURGH", "beds": 178.0, "SR_15": 1.0}, {"Diff_star": 0.0, "addr": "24 CREE DRIVE", "SR_14": 3.0, "Q_14": 3.0, "name": "HAVEN SKILLED REHABILITATION AND NURSING", "SF_14": 4.0, "SF_15": 4.0, "cnty": "Clinton", "st": "PA", "Zip": 17745.0, "O_14": 4.0, "Q_15": 2.0, "O_15": 4.0, "city": "LOCK HAVEN", "beds": 90.0, "SR_15": 3.0}, {"Diff_star": -1.0, "addr": "249 WEST MCMURRAY ROAD", "SR_14": 3.0, "Q_14": 3.0, "name": "MCMURRAY HILLS MANOR", "SF_14": 1.0, "SF_15": 1.0, "cnty": "Washington", "st": "PA", "Zip": 15317.0, "O_14": 2.0, "Q_15": 1.0, "O_15": 1.0, "city": "MCMURRAY", "beds": 115.0, "SR_15": 3.0}, {"Diff_star": -1.0, "addr": "111 PERRYMONT ROAD", "SR_14": 2.0, "Q_14": 5.0, "name": "VINCENTIAN HOME", "SF_14": 4.0, "SF_15": 4.0, "cnty": "Allegheny", "st": "PA", "Zip": 15237.0, "O_14": 4.0, "Q_15": 4.0, "O_15": 3.0, "city": "PITTSBURGH", "beds": 180.0, "SR_15": 2.0}, {"Diff_star": -1.0, "addr": "2400 KINGSTON COURT", "SR_14": 1.0, "Q_14": 5.0, "name": "MANORCARE HEALTH SERVICES-KINGSTON COURT", "SF_14": 2.0, "SF_15": 2.0, "cnty": "York", "st": "PA", "Zip": 17402.0, "O_14": 2.0, "Q_15": 3.0, "O_15": 1.0, "city": "YORK", "beds": 151.0, "SR_15": 1.0}, {"Diff_star": 0.0, "addr": "3805 FIELD STREET", "SR_14": 1.0, "Q_14": 5.0, "name": "MANORCARE HEALTH SERVICES-ERIE", "SF_14": 2.0, "SF_15": 2.0, "cnty": "Erie", "st": "PA", "Zip": 16511.0, "O_14": 2.0, "Q_15": 5.0, "O_15": 2.0, "city": "ERIE", "beds": 120.0, "SR_15": 1.0}, {"Diff_star": 0.0, "addr": "607 EAST 26TH STREET", "SR_14": 4.0, "Q_14": 4.0, "name": "SAINT MARY'S EAST", "SF_14": 4.0, "SF_15": 3.0, "cnty": "Erie", "st": "PA", "Zip": 16504.0, "O_14": 4.0, "Q_15": 3.0, "O_15": 4.0, "city": "ERIE", "beds": 139.0, "SR_15": 4.0}, {"Diff_star": 2.0, "addr": "26 ANN STREET", "SR_14": 2.0, "Q_14": 3.0, "name": "OAKMONT CENTER FOR NURSING & REHABILITATION", "SF_14": 2.0, "SF_15": 3.0, "cnty": "Allegheny", "st": "PA", "Zip": 15139.0, "O_14": 2.0, "Q_15": 2.0, "O_15": 4.0, "city": "OAKMONT", "beds": 85.0, "SR_15": 4.0}, {"Diff_star": 0.0, "addr": "2050 TREVORTON ROAD", "SR_14": 1.0, "Q_14": 4.0, "name": "MOUNTAIN VIEW, A NURSING AND REHABILITATION CENTE", "SF_14": 2.0, "SF_15": 2.0, "cnty": "Northumberlnd", "st": "PA", "Zip": 17866.0, "O_14": 1.0, "Q_15": 2.0, "O_15": 1.0, "city": "COAL TOWNSHIP", "beds": 271.0, "SR_15": 1.0}, {"Diff_star": -1.0, "addr": "400 SOUTH MAIN STREET", "SR_14": 2.0, "Q_14": 5.0, "name": "GREENLEAF NURSING HOME AND CON", "SF_14": 2.0, "SF_15": 2.0, "cnty": "Bucks", "st": "PA", "Zip": 18901.0, "O_14": 3.0, "Q_15": 2.0, "O_15": 2.0, "city": "DOYLESTOWN", "beds": 130.0, "SR_15": 2.0}, {"Diff_star": 0.0, "addr": "1037 SOUTH LOGAN BOULEVARD", "SR_14": 4.0, "Q_14": 3.0, "name": "GARVEY MANOR", "SF_14": 4.0, "SF_15": 4.0, "cnty": "Blair", "st": "PA", "Zip": 16648.0, "O_14": 4.0, "Q_15": 3.0, "O_15": 4.0, "city": "HOLLIDAYSBURG", "beds": 132.0, "SR_15": 4.0}, {"Diff_star": 0.0, "addr": "146 MARPLE ROAD", "SR_14": 1.0, "Q_14": 4.0, "name": "BROOMALL PRESBYTERIAN VILLAGE", "SF_14": 3.0, "SF_15": 3.0, "cnty": "Delaware", "st": "PA", "Zip": 19008.0, "O_14": 1.0, "Q_15": 2.0, "O_15": 1.0, "city": "BROOMALL", "beds": 146.0, "SR_15": 1.0}, {"Diff_star": 0.0, "addr": "1050 SOUTH GEORGE STREET", "SR_14": 2.0, "Q_14": 4.0, "name": "REST HAVEN-YORK", "SF_14": 1.0, "SF_15": 1.0, "cnty": "York", "st": "PA", "Zip": 17403.0, "O_14": 1.0, "Q_15": 2.0, "O_15": 1.0, "city": "YORK", "beds": 159.0, "SR_15": 2.0}, {"Diff_star": -1.0, "addr": "448 OLD CLAIRTON ROAD", "SR_14": 2.0, "Q_14": 4.0, "name": "JEFFERSON HILLS MANOR", "SF_14": 4.0, "SF_15": 3.0, "cnty": "Allegheny", "st": "PA", "Zip": 15025.0, "O_14": 3.0, "Q_15": 2.0, "O_15": 2.0, "city": "CLAIRTON", "beds": 83.0, "SR_15": 2.0}, {"Diff_star": -1.0, "addr": "2741 BOULEVARD AVENUE", "SR_14": 1.0, "Q_14": 5.0, "name": "GREEN RIDGE CARE CENTER", "SF_14": 3.0, "SF_15": 3.0, "cnty": "Lackawanna", "st": "PA", "Zip": 18509.0, "O_14": 2.0, "Q_15": 4.0, "O_15": 1.0, "city": "SCRANTON", "beds": 95.0, "SR_15": 1.0}, {"Diff_star": 0.0, "addr": "550 SOUTH NEGLEY AVENUE", "SR_14": 1.0, "Q_14": 4.0, "name": "MANORCARE HEALTH SERVICES-PITTSBURGH", "SF_14": 2.0, "SF_15": 2.0, "cnty": "Allegheny", "st": "PA", "Zip": 15232.0, "O_14": 1.0, "Q_15": 4.0, "O_15": 1.0, "city": "PITTSBURGH", "beds": 208.0, "SR_15": 1.0}, {"Diff_star": 0.0, "addr": "1205 SOUTH 28TH STREET", "SR_14": 1.0, "Q_14": 2.0, "name": "SPRING CREEK REHABILITATION AND HEALTH CARE CENTER", "SF_14": 1.0, "SF_15": 1.0, "cnty": "Dauphin", "st": "PA", "Zip": 17111.0, "O_14": 1.0, "Q_15": 1.0, "O_15": 1.0, "city": "HARRISBURG", "beds": 404.0, "SR_15": 1.0}, {"Diff_star": 0.0, "addr": "2125 FAIRVIEW AVENUE", "SR_14": 2.0, "Q_14": 5.0, "name": "NEW EASTWOOD HEALTHCARE AND REHABILITATION CENTER", "SF_14": 4.0, "SF_15": 4.0, "cnty": "Northampton", "st": "PA", "Zip": 18042.0, "O_14": 4.0, "Q_15": 5.0, "O_15": 4.0, "city": "EASTON", "beds": 97.0, "SR_15": 2.0}, {"Diff_star": -1.0, "addr": "1113 NORTH EASTON ROAD", "SR_14": 3.0, "Q_14": 3.0, "name": "GARDEN SPRING CENTER", "SF_14": 2.0, "SF_15": 2.0, "cnty": "Montgomery", "st": "PA", "Zip": 19090.0, "O_14": 3.0, "Q_15": 1.0, "O_15": 2.0, "city": "WILLOW GROVE", "beds": 173.0, "SR_15": 3.0}, {"Diff_star": -1.0, "addr": "50 NORTH MALIN ROAD", "SR_14": 1.0, "Q_14": 5.0, "name": "BROOMALL REHABILITATION AND NURSING CENTER", "SF_14": 3.0, "SF_15": 3.0, "cnty": "Delaware", "st": "PA", "Zip": 19008.0, "O_14": 2.0, "Q_15": 4.0, "O_15": 1.0, "city": "BROOMALL", "beds": 298.0, "SR_15": 1.0}, {"Diff_star": -2.0, "addr": "1925 TURNER STREET", "SR_14": 3.0, "Q_14": 5.0, "name": "PHOEBE ALLENTOWN HEALTH CARE CENTER", "SF_14": 4.0, "SF_15": 3.0, "cnty": "Lehigh", "st": "PA", "Zip": 18104.0, "O_14": 5.0, "Q_15": 3.0, "O_15": 3.0, "city": "ALLENTOWN", "beds": 395.0, "SR_15": 3.0}, {"Diff_star": -1.0, "addr": "650 EDISON AVENUE", "SR_14": 4.0, "Q_14": 3.0, "name": "SOMERTON CENTER", "SF_14": 3.0, "SF_15": 3.0, "cnty": "Philadelphia", "st": "PA", "Zip": 19116.0, "O_14": 4.0, "Q_15": 2.0, "O_15": 3.0, "city": "PHILADELPHIA", "beds": 229.0, "SR_15": 3.0}, {"Diff_star": 0.0, "addr": "277 HOFFMAN AVENUE", "SR_14": 4.0, "Q_14": 4.0, "name": "CHURCH OF THE BRETHREN HOME", "SF_14": 4.0, "SF_15": 4.0, "cnty": "Somerset", "st": "PA", "Zip": 15963.0, "O_14": 4.0, "Q_15": 3.0, "O_15": 4.0, "city": "WINDBER", "beds": 134.0, "SR_15": 4.0}, {"Diff_star": -2.0, "addr": "R.R. 4, BOX 4000", "SR_14": 2.0, "Q_14": 5.0, "name": "MEADOW VIEW SENIOR LIVING CENT", "SF_14": 2.0, "SF_15": 2.0, "cnty": "Susquehanna", "st": "PA", "Zip": 18801.0, "O_14": 3.0, "Q_15": 4.0, "O_15": 1.0, "city": "MONTROSE", "beds": 63.0, "SR_15": 1.0}, {"Diff_star": 0.0, "addr": "1011 BERKS ROAD", "SR_14": 4.0, "Q_14": 4.0, "name": "BERKS HEIM NURSING & REHABILITATION", "SF_14": 3.0, "SF_15": 3.0, "cnty": "Berks", "st": "PA", "Zip": 19533.0, "O_14": 4.0, "Q_15": 3.0, "O_15": 4.0, "city": "LEESPORT", "beds": 420.0, "SR_15": 4.0}, {"Diff_star": 0.0, "addr": "773 EAST HAVERFORD ROAD", "SR_14": 2.0, "Q_14": 5.0, "name": "BRYN MAWR TERRACE, THE", "SF_14": 5.0, "SF_15": 5.0, "cnty": "Delaware", "st": "PA", "Zip": 19010.0, "O_14": 4.0, "Q_15": 5.0, "O_15": 4.0, "city": "BRYN MAWR", "beds": 120.0, "SR_15": 2.0}, {"Diff_star": -1.0, "addr": "151 KEEFER LANE", "SR_14": 2.0, "Q_14": 4.0, "name": "SAYRE HEALTH CARE CENTER", "SF_14": 4.0, "SF_15": 4.0, "cnty": "Bradford", "st": "PA", "Zip": 18840.0, "O_14": 3.0, "Q_15": 4.0, "O_15": 2.0, "city": "SAYRE", "beds": 50.0, "SR_15": 1.0}, {"Diff_star": 0.0, "addr": "105 MALTA DRIVE", "SR_14": 3.0, "Q_14": 4.0, "name": "MALTA HOME", "SF_14": 4.0, "SF_15": 4.0, "cnty": "Mifflin", "st": "PA", "Zip": 17029.0, "O_14": 4.0, "Q_15": 3.0, "O_15": 4.0, "city": "GRANVILLE", "beds": 40.0, "SR_15": 3.0}, {"Diff_star": -1.0, "addr": "1101 VINE STREET", "SR_14": 3.0, "Q_14": 4.0, "name": "JEWISH HOME OF EASTERN PENNSYL", "SF_14": 4.0, "SF_15": 3.0, "cnty": "Lackawanna", "st": "PA", "Zip": 18510.0, "O_14": 4.0, "Q_15": 2.0, "O_15": 3.0, "city": "SCRANTON", "beds": 173.0, "SR_15": 3.0}, {"Diff_star": 0.0, "addr": "516 ST. MARY'S VILLA ROAD", "SR_14": 2.0, "Q_14": 5.0, "name": "SAINT MARY'S VILLA NURSING HOM", "SF_14": 4.0, "SF_15": 4.0, "cnty": "Lackawanna", "st": "PA", "Zip": 18444.0, "O_14": 4.0, "Q_15": 5.0, "O_15": 4.0, "city": "MOSCOW", "beds": 112.0, "SR_15": 2.0}, {"Diff_star": 1.0, "addr": "1175 MOSSER ROAD", "SR_14": 3.0, "Q_14": 5.0, "name": "MOSSER NURSING HOME", "SF_14": 3.0, "SF_15": 2.0, "cnty": "Lehigh", "st": "PA", "Zip": 18087.0, "O_14": 4.0, "Q_15": 5.0, "O_15": 5.0, "city": "TREXLERTOWN", "beds": 60.0, "SR_15": 4.0}, {"Diff_star": -1.0, "addr": "BOX 128, 2990 CARLISLE PK", "SR_14": 1.0, "Q_14": 5.0, "name": "CROSS KEYS VILLAGE-BRETHREN HOME COMMUNITY, THE", "SF_14": 4.0, "SF_15": 3.0, "cnty": "Adams", "st": "PA", "Zip": 17350.0, "O_14": 2.0, "Q_15": 4.0, "O_15": 1.0, "city": "NEW OXFORD", "beds": 270.0, "SR_15": 1.0}, {"Diff_star": -1.0, "addr": "616 GOLF COURSE ROAD", "SR_14": 3.0, "Q_14": 3.0, "name": "BEAVER ELDER CARE AND REHAB", "SF_14": 4.0, "SF_15": 3.0, "cnty": "Beaver", "st": "PA", "Zip": 15001.0, "O_14": 4.0, "Q_15": 2.0, "O_15": 3.0, "city": "ALIQUIPPA", "beds": 67.0, "SR_15": 3.0}, {"Diff_star": 0.0, "addr": "2109 RED LION ROAD", "SR_14": 5.0, "Q_14": 4.0, "name": "OAKWOOD HEALTHCARE & REHABILITATION CENTER", "SF_14": 3.0, "SF_15": 3.0, "cnty": "Philadelphia", "st": "PA", "Zip": 19115.0, "O_14": 5.0, "Q_15": 3.0, "O_15": 5.0, "city": "PHILADELPHIA", "beds": 148.0, "SR_15": 5.0}, {"Diff_star": 0.0, "addr": "ONE SOUTH HOME AVENUE", "SR_14": 3.0, "Q_14": 5.0, "name": "LUTHERAN HOME AT TOPTON, THE", "SF_14": 2.0, "SF_15": 2.0, "cnty": "Berks", "st": "PA", "Zip": 19562.0, "O_14": 4.0, "Q_15": 5.0, "O_15": 4.0, "city": "TOPTON", "beds": 194.0, "SR_15": 3.0}, {"Diff_star": 0.0, "addr": "DONEGAL TOWNSHIP, BOX Q", "SR_14": 2.0, "Q_14": 4.0, "name": "CHICORA MEDICAL CENTER", "SF_14": "", "SF_15": "", "cnty": "Butler", "st": "PA", "Zip": 16025.0, "O_14": 2.0, "Q_15": 2.0, "O_15": 2.0, "city": "CHICORA", "beds": 114.0, "SR_15": 2.0}, {"Diff_star": 0.0, "addr": "2101 BELMONT AVENUE", "SR_14": 3.0, "Q_14": 5.0, "name": "SIMPSON HOUSE INC", "SF_14": 2.0, "SF_15": 2.0, "cnty": "Philadelphia", "st": "PA", "Zip": 19131.0, "O_14": 4.0, "Q_15": 5.0, "O_15": 4.0, "city": "PHILADELPHIA", "beds": 154.0, "SR_15": 3.0}, {"Diff_star": 0.0, "addr": "46 ERFORD ROAD", "SR_14": 1.0, "Q_14": 4.0, "name": "GOLDEN LIVINGCENTER-CAMP HILL", "SF_14": 2.0, "SF_15": 2.0, "cnty": "Cumberland", "st": "PA", "Zip": 17011.0, "O_14": 1.0, "Q_15": 4.0, "O_15": 1.0, "city": "CAMP HILL", "beds": 95.0, "SR_15": 1.0}, {"Diff_star": -1.0, "addr": "2600 BELMONT AVENUE", "SR_14": 3.0, "Q_14": 2.0, "name": "INGLIS HOUSE", "SF_14": 4.0, "SF_15": 3.0, "cnty": "Philadelphia", "st": "PA", "Zip": 19131.0, "O_14": 4.0, "Q_15": 2.0, "O_15": 3.0, "city": "PHILADELPHIA", "beds": 297.0, "SR_15": 3.0}, {"Diff_star": 0.0, "addr": "8015 LAWNDALE AVENUE", "SR_14": 5.0, "Q_14": 5.0, "name": "PENNYPACK CENTER", "SF_14": 4.0, "SF_15": 4.0, "cnty": "Philadelphia", "st": "PA", "Zip": 19111.0, "O_14": 5.0, "Q_15": 5.0, "O_15": 5.0, "city": "PHILADELPHIA", "beds": 54.0, "SR_15": 5.0}, {"Diff_star": 0.0, "addr": "500 EAST PHILADELPHIA AVENUE", "SR_14": 3.0, "Q_14": 5.0, "name": "MIFFLIN CENTER", "SF_14": 3.0, "SF_15": 3.0, "cnty": "Berks", "st": "PA", "Zip": 19607.0, "O_14": 4.0, "Q_15": 5.0, "O_15": 4.0, "city": "SHILLINGTON", "beds": 136.0, "SR_15": 3.0}, {"Diff_star": 0.0, "addr": "3625 NORTH PROGRESS AVE", "SR_14": 1.0, "Q_14": 4.0, "name": "GOLDEN LIVINGCENTER-BLUE RIDGE MOUNTAIN", "SF_14": 1.0, "SF_15": 1.0, "cnty": "Dauphin", "st": "PA", "Zip": 17110.0, "O_14": 1.0, "Q_15": 2.0, "O_15": 1.0, "city": "HARRISBURG", "beds": 95.0, "SR_15": 1.0}, {"Diff_star": 0.0, "addr": "310 FISK STREET", "SR_14": 3.0, "Q_14": 4.0, "name": "CANTERBURY PLACE", "SF_14": 3.0, "SF_15": 3.0, "cnty": "Allegheny", "st": "PA", "Zip": 15201.0, "O_14": 3.0, "Q_15": 3.0, "O_15": 3.0, "city": "PITTSBURGH", "beds": 80.0, "SR_15": 3.0}, {"Diff_star": -1.0, "addr": "1555 EAST END BOULEVARD PLAINS TWP", "SR_14": 1.0, "Q_14": 5.0, "name": "TIMBER RIDGE HEALTH CENTER", "SF_14": 2.0, "SF_15": 2.0, "cnty": "Luzerne", "st": "PA", "Zip": 18711.0, "O_14": 2.0, "Q_15": 4.0, "O_15": 1.0, "city": "WILKES BARRE", "beds": 180.0, "SR_15": 1.0}, {"Diff_star": 1.0, "addr": "3601 ISLAND AVE", "SR_14": 2.0, "Q_14": 4.0, "name": "WHITE CLIFF HEALTH AND REHABILITATION CENTER", "SF_14": 1.0, "SF_15": 3.0, "cnty": "Philadelphia", "st": "PA", "Zip": 19153.0, "O_14": 1.0, "Q_15": 3.0, "O_15": 2.0, "city": "PHILADELPHIA", "beds": 154.0, "SR_15": 2.0}, {"Diff_star": -1.0, "addr": "BOX 458, 223 PITTSBURGH ST", "SR_14": 3.0, "Q_14": 2.0, "name": "SAXONY HEALTH CENTER", "SF_14": 3.0, "SF_15": 3.0, "cnty": "Butler", "st": "PA", "Zip": 16056.0, "O_14": 3.0, "Q_15": 1.0, "O_15": 2.0, "city": "SAXONBURG", "beds": 68.0, "SR_15": 3.0}, {"Diff_star": -1.0, "addr": "P O BOX 928  500 WITTENBERG WAY", "SR_14": 3.0, "Q_14": 5.0, "name": "ST JOHN SPECIALTY CARE CENTER", "SF_14": 2.0, "SF_15": 2.0, "cnty": "Butler", "st": "PA", "Zip": 16046.0, "O_14": 4.0, "Q_15": 3.0, "O_15": 3.0, "city": "MARS", "beds": 300.0, "SR_15": 3.0}, {"Diff_star": 0.0, "addr": "1130 WEST CHESTER PIKE", "SR_14": 1.0, "Q_14": 4.0, "name": "PEMBROOKE HEALTH AND REHABILITATION CENTER", "SF_14": 3.0, "SF_15": 3.0, "cnty": "Chester", "st": "PA", "Zip": 19380.0, "O_14": 1.0, "Q_15": 2.0, "O_15": 1.0, "city": "WEST CHESTER", "beds": 180.0, "SR_15": 1.0}, {"Diff_star": -1.0, "addr": "7650 ROUTE 309", "SR_14": 3.0, "Q_14": 5.0, "name": "VALLEY MANOR NURSING AND REHAB", "SF_14": 1.0, "SF_15": 1.0, "cnty": "Lehigh", "st": "PA", "Zip": 18036.0, "O_14": 3.0, "Q_15": 3.0, "O_15": 2.0, "city": "COOPERSBURG", "beds": 180.0, "SR_15": 3.0}, {"Diff_star": -1.0, "addr": "970 COLONIAL AVENUE", "SR_14": 1.0, "Q_14": 5.0, "name": "COLONIAL MANOR NURSING HOME", "SF_14": 2.0, "SF_15": 2.0, "cnty": "York", "st": "PA", "Zip": 17403.0, "O_14": 2.0, "Q_15": 2.0, "O_15": 1.0, "city": "YORK", "beds": 270.0, "SR_15": 1.0}, {"Diff_star": 0.0, "addr": "803 NORTH WAHNETA ST", "SR_14": 4.0, "Q_14": 5.0, "name": "WESTMINSTER VILLAGE", "SF_14": 3.0, "SF_15": 3.0, "cnty": "Lehigh", "st": "PA", "Zip": 18103.0, "O_14": 5.0, "Q_15": 5.0, "O_15": 5.0, "city": "ALLENTOWN", "beds": 111.0, "SR_15": 4.0}, {"Diff_star": 0.0, "addr": "51 ROUTE 204", "SR_14": 1.0, "Q_14": 4.0, "name": "MANOR AT PENN VILLAGE, THE", "SF_14": 1.0, "SF_15": 1.0, "cnty": "Snyder", "st": "PA", "Zip": 17870.0, "O_14": 1.0, "Q_15": 2.0, "O_15": 1.0, "city": "SELINSGROVE", "beds": 159.0, "SR_15": 1.0}, {"Diff_star": 0.0, "addr": "2050 OLD WEST CHESTER PIKE", "SR_14": 4.0, "Q_14": 4.0, "name": "WESTGATE HILLS REHABILITATION AND NURSING CTR", "SF_14": 3.0, "SF_15": 3.0, "cnty": "Delaware", "st": "PA", "Zip": 19083.0, "O_14": 4.0, "Q_15": 3.0, "O_15": 4.0, "city": "HAVERTOWN", "beds": 110.0, "SR_15": 4.0}, {"Diff_star": 0.0, "addr": "1267 SOUTH HILL ROAD", "SR_14": 1.0, "Q_14": 4.0, "name": "ABINGTON CREST NURSING AND REHAB CTR", "SF_14": 3.0, "SF_15": 3.0, "cnty": "Erie", "st": "PA", "Zip": 16509.0, "O_14": 1.0, "Q_15": 3.0, "O_15": 1.0, "city": "ERIE", "beds": 80.0, "SR_15": 1.0}, {"Diff_star": -1.0, "addr": "32 SOUTH BETHLEHEM PIKE", "SR_14": 3.0, "Q_14": 5.0, "name": "AMBLER EXTENDED CARE CENTER", "SF_14": 3.0, "SF_15": 2.0, "cnty": "Montgomery", "st": "PA", "Zip": 19002.0, "O_14": 4.0, "Q_15": 4.0, "O_15": 3.0, "city": "AMBLER", "beds": 100.0, "SR_15": 3.0}, {"Diff_star": 0.0, "addr": "425 NORTH DUKE STREET", "SR_14": 1.0, "Q_14": 5.0, "name": "GOLDEN LIVINGCENTER-LANCASTER", "SF_14": 1.0, "SF_15": 1.0, "cnty": "Lancaster", "st": "PA", "Zip": 17602.0, "O_14": 2.0, "Q_15": 5.0, "O_15": 2.0, "city": "LANCASTER", "beds": 124.0, "SR_15": 1.0}, {"Diff_star": 0.0, "addr": "BOYD STREET", "SR_14": 5.0, "Q_14": 5.0, "name": "CORNWALL MANOR", "SF_14": 4.0, "SF_15": 4.0, "cnty": "Lebanon", "st": "PA", "Zip": 17016.0, "O_14": 5.0, "Q_15": 5.0, "O_15": 5.0, "city": "CORNWALL", "beds": 104.0, "SR_15": 5.0}, {"Diff_star": -1.0, "addr": "10400 ROOSEVELT AVENUE", "SR_14": 4.0, "Q_14": 5.0, "name": "ST JOHN NEUMANN CTR FOR REHAB & HEALTHCARE", "SF_14": 2.0, "SF_15": 3.0, "cnty": "Philadelphia", "st": "PA", "Zip": 19116.0, "O_14": 5.0, "Q_15": 3.0, "O_15": 4.0, "city": "PHILADELPHIA", "beds": 226.0, "SR_15": 4.0}, {"Diff_star": 0.0, "addr": "820 DURHAM ROAD   P.O. BOX 447", "SR_14": 5.0, "Q_14": 5.0, "name": "BUCKINGHAM VALLEY REHAB & NURSING CENTER", "SF_14": 2.0, "SF_15": 2.0, "cnty": "Bucks", "st": "PA", "Zip": 18912.0, "O_14": 5.0, "Q_15": 5.0, "O_15": 5.0, "city": "BUCKINGHAM", "beds": 130.0, "SR_15": 5.0}, {"Diff_star": 1.0, "addr": "35 ROSEMONT AVENUE", "SR_14": 2.0, "Q_14": 5.0, "name": "GOLDEN LIVINGCENTER-ROSEMONT", "SF_14": 2.0, "SF_15": 2.0, "cnty": "Delaware", "st": "PA", "Zip": 19010.0, "O_14": 3.0, "Q_15": 5.0, "O_15": 4.0, "city": "ROSEMONT", "beds": 76.0, "SR_15": 3.0}, {"Diff_star": -1.0, "addr": "2644 BRISTOL ROAD", "SR_14": 5.0, "Q_14": 2.0, "name": "FOX SUBACUTE CENTER", "SF_14": 4.0, "SF_15": 4.0, "cnty": "Bucks", "st": "PA", "Zip": 18976.0, "O_14": 5.0, "Q_15": 1.0, "O_15": 4.0, "city": "WARRINGTON", "beds": 60.0, "SR_15": 5.0}, {"Diff_star": 1.0, "addr": "520 NEW CASTLE STREET", "SR_14": 1.0, "Q_14": 4.0, "name": "OVERLOOK HEALTH AND REHABILITATION CENTER", "SF_14": 2.0, "SF_15": 2.0, "cnty": "Lawrence", "st": "PA", "Zip": 16142.0, "O_14": 1.0, "Q_15": 3.0, "O_15": 2.0, "city": "NEW WILMINGTON", "beds": 115.0, "SR_15": 2.0}, {"Diff_star": -1.0, "addr": "100 ABBEYVILLE ROAD", "SR_14": 1.0, "Q_14": 5.0, "name": "MANORCARE HEALTH SERVICES-LANCASTER", "SF_14": 2.0, "SF_15": 2.0, "cnty": "Lancaster", "st": "PA", "Zip": 17603.0, "O_14": 2.0, "Q_15": 4.0, "O_15": 1.0, "city": "LANCASTER", "beds": 172.0, "SR_15": 1.0}, {"Diff_star": 0.0, "addr": "4850 ZUCK ROAD", "SR_14": 3.0, "Q_14": 4.0, "name": "GOLDEN LIVINGCENTER-WALNUT CREEK", "SF_14": 4.0, "SF_15": 4.0, "cnty": "Erie", "st": "PA", "Zip": 16506.0, "O_14": 4.0, "Q_15": 3.0, "O_15": 4.0, "city": "ERIE", "beds": 115.0, "SR_15": 3.0}, {"Diff_star": 0.0, "addr": "43 CHURCH LANE", "SR_14": 2.0, "Q_14": 5.0, "name": "BROOMALL MANOR", "SF_14": 2.0, "SF_15": 2.0, "cnty": "Delaware", "st": "PA", "Zip": 19008.0, "O_14": 3.0, "Q_15": 5.0, "O_15": 3.0, "city": "BROOMALL", "beds": 123.0, "SR_15": 2.0}, {"Diff_star": -1.0, "addr": "815 CHESTER PIKE", "SR_14": 4.0, "Q_14": 5.0, "name": "PROSPECT PARK HEALTH AND REHABILITATION CENTER", "SF_14": 3.0, "SF_15": 3.0, "cnty": "Delaware", "st": "PA", "Zip": 19076.0, "O_14": 5.0, "Q_15": 3.0, "O_15": 4.0, "city": "PROSPECT PARK", "beds": 180.0, "SR_15": 4.0}, {"Diff_star": 0.0, "addr": "2829 LITITZ PIKE", "SR_14": 2.0, "Q_14": 5.0, "name": "LANCASHIRE HALL", "SF_14": 1.0, "SF_15": 1.0, "cnty": "Lancaster", "st": "PA", "Zip": 17601.0, "O_14": 2.0, "Q_15": 5.0, "O_15": 2.0, "city": "LANCASTER", "beds": 240.0, "SR_15": 2.0}, {"Diff_star": 0.0, "addr": "227 WEST 22ND STREET", "SR_14": 3.0, "Q_14": 4.0, "name": "SARAH REED SENIOR LIVING", "SF_14": 4.0, "SF_15": 4.0, "cnty": "Erie", "st": "PA", "Zip": 16502.0, "O_14": 4.0, "Q_15": 3.0, "O_15": 4.0, "city": "ERIE", "beds": 106.0, "SR_15": 3.0}, {"Diff_star": 0.0, "addr": "100 LITTLE ROAD", "SR_14": 3.0, "Q_14": 4.0, "name": "BELAIR HEALTH AND REHABILITATION CENTER", "SF_14": 4.0, "SF_15": 4.0, "cnty": "Westmoreland", "st": "PA", "Zip": 15068.0, "O_14": 4.0, "Q_15": 3.0, "O_15": 4.0, "city": "LOWER BURRELL", "beds": 103.0, "SR_15": 3.0}, {"Diff_star": 0.0, "addr": "253 TWINING FORD ROAD", "SR_14": 2.0, "Q_14": 4.0, "name": "RICHBORO REHABILITATION AND NURSING CENTER", "SF_14": 2.0, "SF_15": 2.0, "cnty": "Bucks", "st": "PA", "Zip": 18954.0, "O_14": 2.0, "Q_15": 3.0, "O_15": 2.0, "city": "RICHBORO", "beds": 82.0, "SR_15": 2.0}, {"Diff_star": 0.0, "addr": "136 DONAHOE MANOR ROAD", "SR_14": 3.0, "Q_14": 5.0, "name": "DONAHOE MANOR", "SF_14": 2.0, "SF_15": 2.0, "cnty": "Bedford", "st": "PA", "Zip": 15522.0, "O_14": 4.0, "Q_15": 5.0, "O_15": 4.0, "city": "BEDFORD", "beds": 72.0, "SR_15": 3.0}, {"Diff_star": -1.0, "addr": "770 POPLAR CHURCH ROAD", "SR_14": 1.0, "Q_14": 5.0, "name": "GOLDEN LIVINGCENTER-WEST SHORE", "SF_14": 3.0, "SF_15": 3.0, "cnty": "Cumberland", "st": "PA", "Zip": 17011.0, "O_14": 2.0, "Q_15": 4.0, "O_15": 1.0, "city": "CAMP HILL", "beds": 309.0, "SR_15": 1.0}, {"Diff_star": -1.0, "addr": "336 SOUTH WEST END AVENUE", "SR_14": 4.0, "Q_14": 4.0, "name": "HAMILTON ARMS CENTER", "SF_14": 3.0, "SF_15": 3.0, "cnty": "Lancaster", "st": "PA", "Zip": 17603.0, "O_14": 4.0, "Q_15": 1.0, "O_15": 3.0, "city": "LANCASTER", "beds": 94.0, "SR_15": 4.0}, {"Diff_star": -1.0, "addr": "220 S. FOURTH AVENUE", "SR_14": 3.0, "Q_14": 5.0, "name": "SPRUCE MANOR NURSING AND REHAB", "SF_14": 1.0, "SF_15": 1.0, "cnty": "Berks", "st": "PA", "Zip": 19611.0, "O_14": 3.0, "Q_15": 3.0, "O_15": 2.0, "city": "WEST READING", "beds": 184.0, "SR_15": 3.0}, {"Diff_star": 0.0, "addr": "2630 WOODLAND ROAD", "SR_14": 4.0, "Q_14": 4.0, "name": "BROOKSIDE HEALTHCARE & REHABILITATION CENTER", "SF_14": 2.0, "SF_15": 2.0, "cnty": "Montgomery", "st": "PA", "Zip": 19001.0, "O_14": 4.0, "Q_15": 3.0, "O_15": 4.0, "city": "ROSLYN", "beds": 120.0, "SR_15": 4.0}, {"Diff_star": 0.0, "addr": "1001 EAST SECOND STREET", "SR_14": 1.0, "Q_14": 4.0, "name": "CHARLES COLE MEMORIAL HOSPITAL", "SF_14": 5.0, "SF_15": 5.0, "cnty": "Potter", "st": "PA", "Zip": 16915.0, "O_14": 2.0, "Q_15": 3.0, "O_15": 2.0, "city": "COUDERSPORT", "beds": 49.0, "SR_15": 1.0}, {"Diff_star": 0.0, "addr": "500 CLARKSVILLE ROAD", "SR_14": 3.0, "Q_14": 4.0, "name": "NUGENT CONVALESCENT HOME", "SF_14": 3.0, "SF_15": 3.0, "cnty": "Mercer", "st": "PA", "Zip": 16148.0, "O_14": 3.0, "Q_15": 3.0, "O_15": 3.0, "city": "HERMITAGE", "beds": 105.0, "SR_15": 3.0}, {"Diff_star": 0.0, "addr": "3726 EAST STATE STREET", "SR_14": 2.0, "Q_14": 5.0, "name": "HOSPITALITY CARE CENTER OF HER", "SF_14": 5.0, "SF_15": 5.0, "cnty": "Mercer", "st": "PA", "Zip": 16148.0, "O_14": 4.0, "Q_15": 5.0, "O_15": 4.0, "city": "HERMITAGE", "beds": 33.0, "SR_15": 2.0}, {"Diff_star": 0.0, "addr": "1120 MEETINGHOUSE ROAD", "SR_14": 3.0, "Q_14": 4.0, "name": "FOULKEWAYS AT GWYNEDD", "SF_14": 5.0, "SF_15": 5.0, "cnty": "Montgomery", "st": "PA", "Zip": 19436.0, "O_14": 4.0, "Q_15": 3.0, "O_15": 4.0, "city": "GWYNEDD", "beds": 52.0, "SR_15": 3.0}, {"Diff_star": -1.0, "addr": "1000 EAST WYOMISSING BLVD", "SR_14": 3.0, "Q_14": 5.0, "name": "WYOMISSING HEALTH AND REHABILITATION CENTER", "SF_14": 3.0, "SF_15": 3.0, "cnty": "Berks", "st": "PA", "Zip": 19611.0, "O_14": 4.0, "Q_15": 4.0, "O_15": 3.0, "city": "READING", "beds": 103.0, "SR_15": 3.0}, {"Diff_star": -1.0, "addr": "700 S. CAYUGA AVENUE", "SR_14": 3.0, "Q_14": 5.0, "name": "GOLDEN LIVINGCENTER-HILLVIEW", "SF_14": 4.0, "SF_15": 4.0, "cnty": "Blair", "st": "PA", "Zip": 16602.0, "O_14": 5.0, "Q_15": 2.0, "O_15": 4.0, "city": "ALTOONA", "beds": 133.0, "SR_15": 3.0}, {"Diff_star": 0.0, "addr": "75 HICKLE STREET", "SR_14": 1.0, "Q_14": 4.0, "name": "LAUREL RIDGE CENTER", "SF_14": 2.0, "SF_15": 2.0, "cnty": "Fayette", "st": "PA", "Zip": 15401.0, "O_14": 1.0, "Q_15": 2.0, "O_15": 1.0, "city": "UNIONTOWN", "beds": 61.0, "SR_15": 1.0}, {"Diff_star": 0.0, "addr": "339 EAST JAMESTOWN ROAD", "SR_14": 4.0, "Q_14": 3.0, "name": "SAINT PAUL HOMES", "SF_14": 2.0, "SF_15": 2.0, "cnty": "Mercer", "st": "PA", "Zip": 16125.0, "O_14": 4.0, "Q_15": 2.0, "O_15": 4.0, "city": "GREENVILLE", "beds": 192.0, "SR_15": 4.0}, {"Diff_star": -1.0, "addr": "741 CHAMBERSBURG ROAD", "SR_14": 3.0, "Q_14": 5.0, "name": "GOLDEN LIVINGCENTER-GETTYSBURG", "SF_14": 2.0, "SF_15": 2.0, "cnty": "Adams", "st": "PA", "Zip": 17325.0, "O_14": 4.0, "Q_15": 4.0, "O_15": 3.0, "city": "GETTYSBURG", "beds": 102.0, "SR_15": 3.0}, {"Diff_star": 0.0, "addr": "555 SOUTH MAIN STREET", "SR_14": 3.0, "Q_14": 4.0, "name": "TRANSITIONS HEALTHCARE AUTUMN GROVE", "SF_14": 2.0, "SF_15": 2.0, "cnty": "Butler", "st": "PA", "Zip": 16038.0, "O_14": 3.0, "Q_15": 2.0, "O_15": 3.0, "city": "HARRISVILLE", "beds": 103.0, "SR_15": 3.0}, {"Diff_star": -2.0, "addr": "1548 SANS SOUCI PARKWAY", "SR_14": 3.0, "Q_14": 5.0, "name": "HAMPTON HOUSE", "SF_14": 2.0, "SF_15": 1.0, "cnty": "Luzerne", "st": "PA", "Zip": 18702.0, "O_14": 4.0, "Q_15": 5.0, "O_15": 2.0, "city": "WILKES BARRE", "beds": 104.0, "SR_15": 2.0}, {"Diff_star": 0.0, "addr": "1200 SPRING STREET", "SR_14": 3.0, "Q_14": 4.0, "name": "HOLY FAMILY MANOR", "SF_14": 3.0, "SF_15": 3.0, "cnty": "Northampton", "st": "PA", "Zip": 18018.0, "O_14": 3.0, "Q_15": 2.0, "O_15": 3.0, "city": "BETHLEHEM", "beds": 208.0, "SR_15": 3.0}, {"Diff_star": -1.0, "addr": "5609 FIFTH AVENUE", "SR_14": 4.0, "Q_14": 5.0, "name": "MANORCARE HEALTH SERVICES-SHADYSIDE", "SF_14": 3.0, "SF_15": 3.0, "cnty": "Allegheny", "st": "PA", "Zip": 15232.0, "O_14": 5.0, "Q_15": 3.0, "O_15": 4.0, "city": "PITTSBURGH", "beds": 150.0, "SR_15": 4.0}, {"Diff_star": 0.0, "addr": "2401 WEST MARKET STREET", "SR_14": 5.0, "Q_14": 5.0, "name": "GOLDEN LIVINGCENTER-YORK TERRACE", "SF_14": 2.0, "SF_15": 2.0, "cnty": "Schuylkill", "st": "PA", "Zip": 17901.0, "O_14": 5.0, "Q_15": 5.0, "O_15": 5.0, "city": "POTTSVILLE", "beds": 80.0, "SR_15": 5.0}, {"Diff_star": 0.0, "addr": "25 WEST FIFTH STREET", "SR_14": 1.0, "Q_14": 5.0, "name": "GOLDEN LIVINGCENTER-LANSDALE", "SF_14": 4.0, "SF_15": 3.0, "cnty": "Montgomery", "st": "PA", "Zip": 19446.0, "O_14": 2.0, "Q_15": 3.0, "O_15": 2.0, "city": "LANSDALE", "beds": 126.0, "SR_15": 2.0}, {"Diff_star": 0.0, "addr": "905 TOWER ROAD", "SR_14": 3.0, "Q_14": 5.0, "name": "SILVER LAKE CENTER", "SF_14": "", "SF_15": 2.0, "cnty": "Bucks", "st": "PA", "Zip": 19007.0, "O_14": 4.0, "Q_15": 5.0, "O_15": 4.0, "city": "BRISTOL", "beds": 174.0, "SR_15": 3.0}, {"Diff_star": 0.0, "addr": "2629 TRENTON ROAD", "SR_14": 3.0, "Q_14": 4.0, "name": "STATESMAN HEALTH AND REHAB CEN", "SF_14": 3.0, "SF_15": 3.0, "cnty": "Bucks", "st": "PA", "Zip": 19056.0, "O_14": 3.0, "Q_15": 2.0, "O_15": 3.0, "city": "LEVITTOWN", "beds": 101.0, "SR_15": 3.0}, {"Diff_star": 0.0, "addr": "10 HART PLACE", "SR_14": 1.0, "Q_14": 4.0, "name": "CARBONDALE NURSING AND REHABILITATION CENTER", "SF_14": 3.0, "SF_15": 3.0, "cnty": "Lackawanna", "st": "PA", "Zip": 18407.0, "O_14": 1.0, "Q_15": 3.0, "O_15": 1.0, "city": "CARBONDALE", "beds": 115.0, "SR_15": 1.0}, {"Diff_star": 0.0, "addr": "189 EAST TRESSLER BOULEVARD", "SR_14": 1.0, "Q_14": 4.0, "name": "BUFFALO VALLEY LUTHERAN VILLAG", "SF_14": 3.0, "SF_15": 3.0, "cnty": "Union", "st": "PA", "Zip": 17837.0, "O_14": 1.0, "Q_15": 2.0, "O_15": 1.0, "city": "LEWISBURG", "beds": 102.0, "SR_15": 1.0}, {"Diff_star": 0.0, "addr": "1521 WEST 54TH STREET", "SR_14": 3.0, "Q_14": 3.0, "name": "GOLDEN LIVINGCENTER-WESTERN RESERVE", "SF_14": 2.0, "SF_15": 2.0, "cnty": "Erie", "st": "PA", "Zip": 16509.0, "O_14": 3.0, "Q_15": 2.0, "O_15": 3.0, "city": "ERIE", "beds": 133.0, "SR_15": 3.0}, {"Diff_star": 0.0, "addr": "535 NORTH 17TH STREET", "SR_14": 5.0, "Q_14": 5.0, "name": "LIBERTY NURSING AND REHABILITATION CENTER", "SF_14": 2.0, "SF_15": 2.0, "cnty": "Lehigh", "st": "PA", "Zip": 18104.0, "O_14": 5.0, "Q_15": 4.0, "O_15": 5.0, "city": "ALLENTOWN", "beds": 146.0, "SR_15": 5.0}, {"Diff_star": 0.0, "addr": "1000 STACIE DRIVE", "SR_14": 1.0, "Q_14": 5.0, "name": "PAVILION AT ST LUKE VILLAGE, THE", "SF_14": 2.0, "SF_15": 2.0, "cnty": "Luzerne", "st": "PA", "Zip": 18201.0, "O_14": 2.0, "Q_15": 5.0, "O_15": 2.0, "city": "HAZLETON", "beds": 120.0, "SR_15": 1.0}, {"Diff_star": -1.0, "addr": "257 GEORGETOWN ROAD", "SR_14": 2.0, "Q_14": 2.0, "name": "BEAVER VALLEY NURSING AND REHA", "SF_14": 2.0, "SF_15": 2.0, "cnty": "Beaver", "st": "PA", "Zip": 15010.0, "O_14": 2.0, "Q_15": 1.0, "O_15": 1.0, "city": "BEAVER FALLS", "beds": 120.0, "SR_15": 2.0}, {"Diff_star": -1.0, "addr": "700 WALNUT BOTTOM ROAD", "SR_14": 3.0, "Q_14": 5.0, "name": "FOREST PARK HEALTH CENTER", "SF_14": 1.0, "SF_15": 1.0, "cnty": "Cumberland", "st": "PA", "Zip": 17013.0, "O_14": 3.0, "Q_15": 4.0, "O_15": 2.0, "city": "CARLISLE", "beds": 114.0, "SR_15": 3.0}, {"Diff_star": -1.0, "addr": "824 ADAMS AVENUE", "SR_14": 1.0, "Q_14": 5.0, "name": "GOLDEN LIVINGCENTER-SCRANTON", "SF_14": 1.0, "SF_15": 1.0, "cnty": "Lackawanna", "st": "PA", "Zip": 18510.0, "O_14": 2.0, "Q_15": 3.0, "O_15": 1.0, "city": "SCRANTON", "beds": 139.0, "SR_15": 1.0}, {"Diff_star": 0.0, "addr": "211 NORTH 12TH STREET", "SR_14": 2.0, "Q_14": 5.0, "name": "SUMMIT AT BLUE MOUNTAIN NURSING & REHAB CTR, THE", "SF_14": 4.0, "SF_15": 4.0, "cnty": "Carbon", "st": "PA", "Zip": 18235.0, "O_14": 4.0, "Q_15": 5.0, "O_15": 4.0, "city": "LEHIGHTON", "beds": 91.0, "SR_15": 2.0}, {"Diff_star": -1.0, "addr": "432 MAPLE STREET", "SR_14": 3.0, "Q_14": 5.0, "name": "GOLDEN LIVINGCENTER-DOYLESTOWN", "SF_14": 1.0, "SF_15": 1.0, "cnty": "Bucks", "st": "PA", "Zip": 18901.0, "O_14": 3.0, "Q_15": 3.0, "O_15": 2.0, "city": "DOYLESTOWN", "beds": 120.0, "SR_15": 3.0}, {"Diff_star": 0.0, "addr": "110 WEST WISSAHICKON AVE", "SR_14": 5.0, "Q_14": 4.0, "name": "SAINT JOSEPH VILLA", "SF_14": 5.0, "SF_15": 5.0, "cnty": "Montgomery", "st": "PA", "Zip": 19031.0, "O_14": 5.0, "Q_15": 4.0, "O_15": 5.0, "city": "FLOURTOWN", "beds": 106.0, "SR_15": 5.0}, {"Diff_star": -1.0, "addr": "763 JOHNSONBURG RD", "SR_14": 2.0, "Q_14": 3.0, "name": "PINECREST MANOR", "SF_14": "", "SF_15": "", "cnty": "Elk", "st": "PA", "Zip": 15857.0, "O_14": 2.0, "Q_15": 1.0, "O_15": 1.0, "city": "ST MARYS", "beds": 138.0, "SR_15": 2.0}, {"Diff_star": -1.0, "addr": "1412 LANSDOWNE AVENUE", "SR_14": 1.0, "Q_14": 5.0, "name": "ST FRANCIS CENTER FOR REHABILITATION & HEALTHCARE", "SF_14": 4.0, "SF_15": 3.0, "cnty": "Delaware", "st": "PA", "Zip": 19023.0, "O_14": 2.0, "Q_15": 4.0, "O_15": 1.0, "city": "DARBY", "beds": 273.0, "SR_15": 1.0}, {"Diff_star": -1.0, "addr": "3201 RIVER ROAD", "SR_14": 1.0, "Q_14": 4.0, "name": "RIVERWOODS", "SF_14": 4.0, "SF_15": 3.0, "cnty": "Union", "st": "PA", "Zip": 17837.0, "O_14": 2.0, "Q_15": 3.0, "O_15": 1.0, "city": "LEWISBURG", "beds": 226.0, "SR_15": 1.0}, {"Diff_star": 0.0, "addr": "833 SOUTH MAIN STREET", "SR_14": 1.0, "Q_14": 4.0, "name": "GOLDEN LIVINGCENTER-PHOENIXVILLE", "SF_14": 2.0, "SF_15": 2.0, "cnty": "Chester", "st": "PA", "Zip": 19460.0, "O_14": 1.0, "Q_15": 2.0, "O_15": 1.0, "city": "PHOENIXVILLE", "beds": 138.0, "SR_15": 1.0}, {"Diff_star": 0.0, "addr": "2872 TURNPIKE STREET", "SR_14": 1.0, "Q_14": 5.0, "name": "BARNES-KASSON COUNTY HOSPITAL", "SF_14": 3.0, "SF_15": 3.0, "cnty": "Susquehanna", "st": "PA", "Zip": 18847.0, "O_14": 2.0, "Q_15": 5.0, "O_15": 2.0, "city": "SUSQUEHANNA", "beds": 58.0, "SR_15": 1.0}, {"Diff_star": -1.0, "addr": "500 WEST LAUREL STREET", "SR_14": 2.0, "Q_14": 5.0, "name": "BROAD MOUNTAIN NURSING AND REH", "SF_14": 2.0, "SF_15": 2.0, "cnty": "Schuylkill", "st": "PA", "Zip": 17931.0, "O_14": 3.0, "Q_15": 4.0, "O_15": 2.0, "city": "FRACKVILLE", "beds": 129.0, "SR_15": 2.0}, {"Diff_star": 0.0, "addr": "221 EAST BROWN STREET", "SR_14": 1.0, "Q_14": 4.0, "name": "GOLDEN LIVINGCENTER-STROUD", "SF_14": 2.0, "SF_15": 2.0, "cnty": "Monroe", "st": "PA", "Zip": 18301.0, "O_14": 1.0, "Q_15": 3.0, "O_15": 1.0, "city": "EAST STROUDSBURG", "beds": 127.0, "SR_15": 1.0}, {"Diff_star": 0.0, "addr": "201 VILLAGE DRIVE", "SR_14": 4.0, "Q_14": 4.0, "name": "GOLDEN LIVINGCENTER-SOUTH HILLS", "SF_14": 2.0, "SF_15": 2.0, "cnty": "Washington", "st": "PA", "Zip": 15317.0, "O_14": 4.0, "Q_15": 2.0, "O_15": 4.0, "city": "CANONSBURG", "beds": 104.0, "SR_15": 4.0}, {"Diff_star": 0.0, "addr": "118 PLEASANT ACRES RD,RD7", "SR_14": 1.0, "Q_14": 4.0, "name": "PLEASANT ACRES NURSING AND REHAB CENTER", "SF_14": 4.0, "SF_15": 4.0, "cnty": "York", "st": "PA", "Zip": 17402.0, "O_14": 2.0, "Q_15": 2.0, "O_15": 2.0, "city": "YORK", "beds": 375.0, "SR_15": 1.0}, {"Diff_star": 0.0, "addr": "31 NORTH PARK AVE EXT", "SR_14": 1.0, "Q_14": 4.0, "name": "WESBURY UNITED METHODIST COMMU", "SF_14": 3.0, "SF_15": 3.0, "cnty": "Crawford", "st": "PA", "Zip": 16335.0, "O_14": 1.0, "Q_15": 2.0, "O_15": 1.0, "city": "MEADVILLE", "beds": 210.0, "SR_15": 1.0}, {"Diff_star": 0.0, "addr": "3300 LOGAN FERRY ROAD", "SR_14": 3.0, "Q_14": 4.0, "name": "GOLDEN LIVINGCENTER-MURRYSVILLE", "SF_14": 3.0, "SF_15": 3.0, "cnty": "Westmoreland", "st": "PA", "Zip": 15668.0, "O_14": 3.0, "Q_15": 2.0, "O_15": 3.0, "city": "MURRYSVILLE", "beds": 120.0, "SR_15": 3.0}, {"Diff_star": 0.0, "addr": "9209 RIDGE PIKE", "SR_14": 1.0, "Q_14": 4.0, "name": "THE RIDGE AT WHITEMARSH HEALTH AND REHABILITATION", "SF_14": 3.0, "SF_15": 3.0, "cnty": "Philadelphia", "st": "PA", "Zip": 19128.0, "O_14": 1.0, "Q_15": 2.0, "O_15": 1.0, "city": "WHITE MARSH", "beds": 244.0, "SR_15": 1.0}, {"Diff_star": 0.0, "addr": "WARM SPRINGS AVENUE", "SR_14": 4.0, "Q_14": 5.0, "name": "HUNTINGDON NURSING AND REHAB CENTER", "SF_14": 1.0, "SF_15": 1.0, "cnty": "Huntingdon", "st": "PA", "Zip": 16652.0, "O_14": 4.0, "Q_15": 5.0, "O_15": 4.0, "city": "HUNTINGDON", "beds": 93.0, "SR_15": 4.0}, {"Diff_star": 0.0, "addr": "147 OLD NEWPORT STREET", "SR_14": 1.0, "Q_14": 5.0, "name": "GUARDIAN ELDER CARE CENTER", "SF_14": 1.0, "SF_15": 1.0, "cnty": "Luzerne", "st": "PA", "Zip": 18634.0, "O_14": 2.0, "Q_15": 5.0, "O_15": 2.0, "city": "NANTICOKE", "beds": 110.0, "SR_15": 1.0}, {"Diff_star": 1.0, "addr": "9850 OLD PERRY HIGHWAY", "SR_14": 2.0, "Q_14": 5.0, "name": "WEXFORD HEALTHCARE CENTER", "SF_14": 3.0, "SF_15": 3.0, "cnty": "Allegheny", "st": "PA", "Zip": 15090.0, "O_14": 3.0, "Q_15": 5.0, "O_15": 4.0, "city": "WEXFORD", "beds": 182.0, "SR_15": 3.0}, {"Diff_star": 1.0, "addr": "99 BARCLAY STREET", "SR_14": 3.0, "Q_14": 4.0, "name": "CHANDLER HALL HEALTH SERVICES", "SF_14": 3.0, "SF_15": 4.0, "cnty": "Bucks", "st": "PA", "Zip": 18940.0, "O_14": 3.0, "Q_15": 4.0, "O_15": 4.0, "city": "NEWTOWN", "beds": 53.0, "SR_15": 3.0}, {"Diff_star": 0.0, "addr": "BOX 100", "SR_14": 3.0, "Q_14": 5.0, "name": "KENDAL AT LONGWOOD", "SF_14": 4.0, "SF_15": 4.0, "cnty": "Chester", "st": "PA", "Zip": 19348.0, "O_14": 5.0, "Q_15": 5.0, "O_15": 5.0, "city": "KENNETT SQUARE", "beds": 53.0, "SR_15": 3.0}, {"Diff_star": -1.0, "addr": "200 PAULINE DRIVE", "SR_14": 2.0, "Q_14": 5.0, "name": "MANORCARE HEALTH SERVICES-YORK SOUTH", "SF_14": 2.0, "SF_15": 2.0, "cnty": "York", "st": "PA", "Zip": 17402.0, "O_14": 3.0, "Q_15": 4.0, "O_15": 2.0, "city": "YORK", "beds": 151.0, "SR_15": 2.0}, {"Diff_star": -1.0, "addr": "956 RAILROAD AVENUE", "SR_14": 4.0, "Q_14": 5.0, "name": "BRYN MAWR EXTENDED CARE CENTER", "SF_14": 3.0, "SF_15": 3.0, "cnty": "Delaware", "st": "PA", "Zip": 19010.0, "O_14": 5.0, "Q_15": 4.0, "O_15": 4.0, "city": "BRYN MAWR", "beds": 160.0, "SR_15": 4.0}, {"Diff_star": -1.0, "addr": "680 LIONS HEALTH CAMP RD", "SR_14": 5.0, "Q_14": 5.0, "name": "SCENERY HILL MANOR", "SF_14": 2.0, "SF_15": 4.0, "cnty": "Indiana", "st": "PA", "Zip": 15701.0, "O_14": 5.0, "Q_15": 4.0, "O_15": 4.0, "city": "INDIANA", "beds": 56.0, "SR_15": 4.0}, {"Diff_star": 0.0, "addr": "360 WEST RUDDLE STREET", "SR_14": 2.0, "Q_14": 5.0, "name": "ST LUKE'S REHABILITATION AND NURSING CENTER", "SF_14": 3.0, "SF_15": 3.0, "cnty": "Schuylkill", "st": "PA", "Zip": 18218.0, "O_14": 3.0, "Q_15": 5.0, "O_15": 3.0, "city": "COALDALE", "beds": 48.0, "SR_15": 2.0}, {"Diff_star": 0.0, "addr": "350 NORTH ELEVENTH ST", "SR_14": 3.0, "Q_14": 4.0, "name": "SUNBURY COMMUNITY HEALTH AND REHABILITATION CENTER", "SF_14": 4.0, "SF_15": 4.0, "cnty": "Northumberlnd", "st": "PA", "Zip": 17801.0, "O_14": 4.0, "Q_15": 3.0, "O_15": 4.0, "city": "SUNBURY", "beds": 29.0, "SR_15": 3.0}, {"Diff_star": -1.0, "addr": "37 CENTRAL AVENUE", "SR_14": 2.0, "Q_14": 3.0, "name": "GREEN HOME, INC, THE", "SF_14": 4.0, "SF_15": 3.0, "cnty": "Tioga", "st": "PA", "Zip": 16901.0, "O_14": 3.0, "Q_15": 2.0, "O_15": 2.0, "city": "WELLSBORO", "beds": 120.0, "SR_15": 2.0}, {"Diff_star": -1.0, "addr": "OLD SCHUYLKILL ROAD AT ROUTE 724", "SR_14": 1.0, "Q_14": 5.0, "name": "MANATAWNY MANOR", "SF_14": "", "SF_15": 2.0, "cnty": "Montgomery", "st": "PA", "Zip": 19464.0, "O_14": 2.0, "Q_15": 4.0, "O_15": 1.0, "city": "POTTSTOWN", "beds": 133.0, "SR_15": 1.0}, {"Diff_star": 0.0, "addr": "1515 FAIRWAY", "SR_14": 2.0, "Q_14": 4.0, "name": "RYDAL PARK OF PHILADELPHIA PRS", "SF_14": 4.0, "SF_15": 4.0, "cnty": "Montgomery", "st": "PA", "Zip": 19046.0, "O_14": 3.0, "Q_15": 3.0, "O_15": 3.0, "city": "RYDAL", "beds": 114.0, "SR_15": 2.0}, {"Diff_star": -1.0, "addr": "200 S. MEADE STREET", "SR_14": 4.0, "Q_14": 5.0, "name": "LITTLE FLOWER MANOR OF DIOCESE", "SF_14": 1.0, "SF_15": 1.0, "cnty": "Luzerne", "st": "PA", "Zip": 18702.0, "O_14": 4.0, "Q_15": 4.0, "O_15": 3.0, "city": "WILKES BARRE", "beds": 133.0, "SR_15": 4.0}, {"Diff_star": 0.0, "addr": "300 WEST LEMON STREET", "SR_14": 3.0, "Q_14": 4.0, "name": "MORAVIAN MANOR", "SF_14": 4.0, "SF_15": 4.0, "cnty": "Lancaster", "st": "PA", "Zip": 17543.0, "O_14": 4.0, "Q_15": 2.0, "O_15": 4.0, "city": "LITITZ", "beds": 127.0, "SR_15": 3.0}, {"Diff_star": -1.0, "addr": "2499 ZERBE ROAD", "SR_14": 4.0, "Q_14": 5.0, "name": "ZERBE SISTERS NURSING CENTER,", "SF_14": 4.0, "SF_15": 4.0, "cnty": "Lancaster", "st": "PA", "Zip": 17555.0, "O_14": 5.0, "Q_15": 4.0, "O_15": 4.0, "city": "NARVON", "beds": 87.0, "SR_15": 4.0}, {"Diff_star": 0.0, "addr": "3001 LITITZ PIKE", "SR_14": 3.0, "Q_14": 5.0, "name": "BRETHREN VILLAGE", "SF_14": 4.0, "SF_15": 4.0, "cnty": "Lancaster", "st": "PA", "Zip": 17606.0, "O_14": 5.0, "Q_15": 5.0, "O_15": 5.0, "city": "LANCASTER", "beds": 120.0, "SR_15": 3.0}, {"Diff_star": 0.0, "addr": "3500 WEST CHESTER PIKE", "SR_14": 4.0, "Q_14": 5.0, "name": "WILLIAM HOOD DUNWOODY CARE CTR", "SF_14": 5.0, "SF_15": 5.0, "cnty": "Delaware", "st": "PA", "Zip": 19073.0, "O_14": 5.0, "Q_15": 5.0, "O_15": 5.0, "city": "NEWTOWN SQUARE", "beds": 81.0, "SR_15": 4.0}, {"Diff_star": -1.0, "addr": "600 W CHELTENHAM AVENUE", "SR_14": 2.0, "Q_14": 5.0, "name": "CHELTENHAM NURSING AND REHAB C", "SF_14": 1.0, "SF_15": 1.0, "cnty": "Montgomery", "st": "PA", "Zip": 19126.0, "O_14": 2.0, "Q_15": 4.0, "O_15": 1.0, "city": "PHILADELPHIA", "beds": 255.0, "SR_15": 2.0}, {"Diff_star": 0.0, "addr": "700 LEONARD STREET", "SR_14": 2.0, "Q_14": 4.0, "name": "MOUNTAIN LAUREL NRC", "SF_14": 1.0, "SF_15": 1.0, "cnty": "Clearfield", "st": "PA", "Zip": 16830.0, "O_14": 1.0, "Q_15": 1.0, "O_15": 1.0, "city": "CLEARFIELD", "beds": 240.0, "SR_15": 2.0}, {"Diff_star": -2.0, "addr": "30 WEST AVENUE", "SR_14": 2.0, "Q_14": 5.0, "name": "WAYNE CENTER", "SF_14": 4.0, "SF_15": 3.0, "cnty": "Chester", "st": "PA", "Zip": 19087.0, "O_14": 4.0, "Q_15": 4.0, "O_15": 2.0, "city": "WAYNE", "beds": 112.0, "SR_15": 2.0}, {"Diff_star": 0.0, "addr": "91 HOSPITAL DRIVE", "SR_14": 2.0, "Q_14": 3.0, "name": "MEMORIAL HOSPITAL INC SNU", "SF_14": 4.0, "SF_15": 4.0, "cnty": "Bradford", "st": "PA", "Zip": 18848.0, "O_14": 3.0, "Q_15": 2.0, "O_15": 3.0, "city": "TOWANDA", "beds": 68.0, "SR_15": 2.0}, {"Diff_star": 0.0, "addr": "8833 STENTON AVENUE", "SR_14": 1.0, "Q_14": 5.0, "name": "CHESTNUT HILL LODGE HEALTH AND REHAB CTR", "SF_14": 3.0, "SF_15": 3.0, "cnty": "Montgomery", "st": "PA", "Zip": 19038.0, "O_14": 2.0, "Q_15": 5.0, "O_15": 2.0, "city": "WYNDMOOR", "beds": 181.0, "SR_15": 1.0}, {"Diff_star": 1.0, "addr": "163 SUMMIT DRIVE", "SR_14": 2.0, "Q_14": 5.0, "name": "GOLDEN LIVINGCENTER-WILLIAM PENN", "SF_14": 1.0, "SF_15": 1.0, "cnty": "Mifflin", "st": "PA", "Zip": 17044.0, "O_14": 2.0, "Q_15": 5.0, "O_15": 3.0, "city": "LEWISTOWN", "beds": 121.0, "SR_15": 3.0}, {"Diff_star": -2.0, "addr": "625 ROBERT FULTON HIGHWAY", "SR_14": 2.0, "Q_14": 5.0, "name": "QUARRYVILLE PRESBYTERIAN RETIREMENT COMMUNITY", "SF_14": 4.0, "SF_15": 3.0, "cnty": "Lancaster", "st": "PA", "Zip": 17566.0, "O_14": 4.0, "Q_15": 4.0, "O_15": 2.0, "city": "QUARRYVILLE", "beds": 130.0, "SR_15": 2.0}, {"Diff_star": 0.0, "addr": "2990 HOLME AVENUE", "SR_14": 5.0, "Q_14": 5.0, "name": "IMMACULATEMARYCENTER FOR REHABILITATION&HEALTHCARE", "SF_14": 2.0, "SF_15": 2.0, "cnty": "Philadelphia", "st": "PA", "Zip": 19136.0, "O_14": 5.0, "Q_15": 4.0, "O_15": 5.0, "city": "PHILADELPHIA", "beds": 296.0, "SR_15": 5.0}, {"Diff_star": 0.0, "addr": "785 JOHNSONBURG ROAD", "SR_14": 4.0, "Q_14": 4.0, "name": "ELK HAVEN NURSING HOME", "SF_14": 2.0, "SF_15": 2.0, "cnty": "Elk", "st": "PA", "Zip": 15857.0, "O_14": 4.0, "Q_15": 2.0, "O_15": 4.0, "city": "SAINT MARYS", "beds": 120.0, "SR_15": 4.0}, {"Diff_star": 0.0, "addr": "8100 WASHINGTON LANE", "SR_14": 1.0, "Q_14": 4.0, "name": "HOPKINS CENTER", "SF_14": 2.0, "SF_15": 2.0, "cnty": "Montgomery", "st": "PA", "Zip": 19095.0, "O_14": 1.0, "Q_15": 2.0, "O_15": 1.0, "city": "WYNCOTE", "beds": 106.0, "SR_15": 1.0}, {"Diff_star": 0.0, "addr": "7 WEST PARK AVENUE", "SR_14": 3.0, "Q_14": 4.0, "name": "STONERIDGE TOWNE CENTRE", "SF_14": 4.0, "SF_15": 4.0, "cnty": "Lebanon", "st": "PA", "Zip": 17067.0, "O_14": 4.0, "Q_15": 2.0, "O_15": 4.0, "city": "MYERSTOWN", "beds": 152.0, "SR_15": 3.0}, {"Diff_star": -1.0, "addr": "PULASKI AND LEADER DRIVES", "SR_14": 2.0, "Q_14": 5.0, "name": "MANORCARE HEALTH SERVICES-POTTSVILLE", "SF_14": 1.0, "SF_15": 1.0, "cnty": "Schuylkill", "st": "PA", "Zip": 17901.0, "O_14": 2.0, "Q_15": 4.0, "O_15": 1.0, "city": "POTTSVILLE", "beds": 179.0, "SR_15": 2.0}, {"Diff_star": 0.0, "addr": "615 WYOMING AVENUE", "SR_14": 1.0, "Q_14": 3.0, "name": "RIVER RUN REHABILITATION AND NURSING CENTER", "SF_14": 2.0, "SF_15": 2.0, "cnty": "Luzerne", "st": "PA", "Zip": 18704.0, "O_14": 1.0, "Q_15": 2.0, "O_15": 1.0, "city": "KINGSTON", "beds": 145.0, "SR_15": 1.0}, {"Diff_star": -1.0, "addr": "205 EAST JOHNSON HIGHWAY", "SR_14": 4.0, "Q_14": 5.0, "name": "TOWNE MANOR WEST", "SF_14": 1.0, "SF_15": 1.0, "cnty": "Montgomery", "st": "PA", "Zip": 19401.0, "O_14": 4.0, "Q_15": 4.0, "O_15": 3.0, "city": "NORRISTOWN", "beds": 119.0, "SR_15": 4.0}, {"Diff_star": 0.0, "addr": "1020 NORTH UNION STREET", "SR_14": 1.0, "Q_14": 4.0, "name": "FREY VILLAGE", "SF_14": 4.0, "SF_15": 4.0, "cnty": "Dauphin", "st": "PA", "Zip": 17057.0, "O_14": 2.0, "Q_15": 4.0, "O_15": 2.0, "city": "MIDDLETOWN", "beds": 136.0, "SR_15": 1.0}, {"Diff_star": 0.0, "addr": "1070 STOUFFER AVENUE", "SR_14": 2.0, "Q_14": 5.0, "name": "MANORCARE HEALTH SERVICES-CHAMBERSBURG", "SF_14": 1.0, "SF_15": 1.0, "cnty": "Franklin", "st": "PA", "Zip": 17201.0, "O_14": 2.0, "Q_15": 5.0, "O_15": 2.0, "city": "CHAMBERSBURG", "beds": 210.0, "SR_15": 2.0}, {"Diff_star": 0.0, "addr": "502 ELIZABETH DRIVE", "SR_14": 3.0, "Q_14": 5.0, "name": "CALVARY FELLOWSHIP HOMES INC", "SF_14": 4.0, "SF_15": 4.0, "cnty": "Lancaster", "st": "PA", "Zip": 17601.0, "O_14": 5.0, "Q_15": 5.0, "O_15": 5.0, "city": "LANCASTER", "beds": 45.0, "SR_15": 3.0}, {"Diff_star": 0.0, "addr": "69 COTTAGE ROAD", "SR_14": 1.0, "Q_14": 4.0, "name": "LOCUST GROVE RETIREMENT VILLAGE", "SF_14": 2.0, "SF_15": 2.0, "cnty": "Juniata", "st": "PA", "Zip": 17058.0, "O_14": 1.0, "Q_15": 2.0, "O_15": 1.0, "city": "MIFFLIN", "beds": 104.0, "SR_15": 1.0}, {"Diff_star": 0.0, "addr": "425 BUTTONWOOD STREET", "SR_14": 4.0, "Q_14": 5.0, "name": "MANORCARE HEALTH SERVICES-WEST READING NORTH", "SF_14": 1.0, "SF_15": 1.0, "cnty": "Berks", "st": "PA", "Zip": 19611.0, "O_14": 4.0, "Q_15": 5.0, "O_15": 4.0, "city": "WEST READING", "beds": 176.0, "SR_15": 4.0}, {"Diff_star": -1.0, "addr": "1883 SHUMWAY HILL ROAD", "SR_14": 2.0, "Q_14": 5.0, "name": "BROAD ACRES HEALTH AND REHAB", "SF_14": 3.0, "SF_15": 3.0, "cnty": "Tioga", "st": "PA", "Zip": 16901.0, "O_14": 3.0, "Q_15": 4.0, "O_15": 2.0, "city": "WELLSBORO", "beds": 120.0, "SR_15": 2.0}, {"Diff_star": -1.0, "addr": "905 PENLLYN PIKE", "SR_14": 4.0, "Q_14": 4.0, "name": "SILVER STREAM CENTER", "SF_14": 2.0, "SF_15": 2.0, "cnty": "Montgomery", "st": "PA", "Zip": 19477.0, "O_14": 4.0, "Q_15": 1.0, "O_15": 3.0, "city": "SPRING HOUSE", "beds": 120.0, "SR_15": 4.0}, {"Diff_star": -1.0, "addr": "200 PLEASANT STREET", "SR_14": 2.0, "Q_14": 5.0, "name": "PAVILION AT BRMC, THE", "SF_14": 4.0, "SF_15": 4.0, "cnty": "Mc Kean", "st": "PA", "Zip": 16701.0, "O_14": 4.0, "Q_15": 4.0, "O_15": 3.0, "city": "BRADFORD", "beds": 95.0, "SR_15": 2.0}, {"Diff_star": 0.0, "addr": "110 EAST FOURTH STREET", "SR_14": 3.0, "Q_14": 4.0, "name": "GUY AND MARY FELT MANOR, INC", "SF_14": 4.0, "SF_15": 4.0, "cnty": "Cameron", "st": "PA", "Zip": 15834.0, "O_14": 4.0, "Q_15": 2.0, "O_15": 4.0, "city": "EMPORIUM", "beds": 40.0, "SR_15": 3.0}, {"Diff_star": 0.0, "addr": "23 ELLEN MEMORIAL LANE", "SR_14": 1.0, "Q_14": 2.0, "name": "ELLEN MEMORIAL HEALTH CARE CENTER", "SF_14": 2.0, "SF_15": 2.0, "cnty": "Wayne", "st": "PA", "Zip": 18431.0, "O_14": 1.0, "Q_15": 2.0, "O_15": 1.0, "city": "HONESDALE", "beds": 130.0, "SR_15": 1.0}, {"Diff_star": -1.0, "addr": "1008 THOMPSON STREET", "SR_14": 3.0, "Q_14": 5.0, "name": "MANORCARE HEALTH SERVICES-JERSEY SHORE", "SF_14": 1.0, "SF_15": 1.0, "cnty": "Lycoming", "st": "PA", "Zip": 17740.0, "O_14": 3.0, "Q_15": 3.0, "O_15": 2.0, "city": "JERSEY SHORE", "beds": 120.0, "SR_15": 3.0}, {"Diff_star": 0.0, "addr": "6950 GERMANTOWN AVENUE", "SR_14": 4.0, "Q_14": 5.0, "name": "GERMANTOWN HOME", "SF_14": 2.0, "SF_15": 2.0, "cnty": "Philadelphia", "st": "PA", "Zip": 19119.0, "O_14": 5.0, "Q_15": 5.0, "O_15": 5.0, "city": "PHILADELPHIA", "beds": 180.0, "SR_15": 4.0}, {"Diff_star": -1.0, "addr": "8300 WEST RIDGE ROAD", "SR_14": 2.0, "Q_14": 2.0, "name": "PLEASANT RIDGE MANOR EAST/WEST", "SF_14": 2.0, "SF_15": 2.0, "cnty": "Erie", "st": "PA", "Zip": 16417.0, "O_14": 2.0, "Q_15": 1.0, "O_15": 1.0, "city": "GIRARD", "beds": 388.0, "SR_15": 2.0}, {"Diff_star": -1.0, "addr": "205 WATER STREET", "SR_14": 5.0, "Q_14": 5.0, "name": "GOLDEN LIVINGCENTER-KINZUA", "SF_14": 1.0, "SF_15": 1.0, "cnty": "Warren", "st": "PA", "Zip": 16365.0, "O_14": 5.0, "Q_15": 3.0, "O_15": 4.0, "city": "WARREN", "beds": 106.0, "SR_15": 5.0}, {"Diff_star": 0.0, "addr": "300 LEADER DRIVE", "SR_14": 1.0, "Q_14": 5.0, "name": "MANORCARE HEALTH SERVICES-WILLIAMSPORT NORTH", "SF_14": 1.0, "SF_15": 1.0, "cnty": "Lycoming", "st": "PA", "Zip": 17701.0, "O_14": 2.0, "Q_15": 5.0, "O_15": 2.0, "city": "WILLIAMSPORT", "beds": 152.0, "SR_15": 1.0}, {"Diff_star": 0.0, "addr": "945 DUKE STREET", "SR_14": 4.0, "Q_14": 4.0, "name": "SPANG CREST MANOR", "SF_14": 4.0, "SF_15": 4.0, "cnty": "Lebanon", "st": "PA", "Zip": 17042.0, "O_14": 4.0, "Q_15": 3.0, "O_15": 4.0, "city": "LEBANON", "beds": 105.0, "SR_15": 4.0}, {"Diff_star": -1.0, "addr": "777 FERRY ROAD", "SR_14": 4.0, "Q_14": 5.0, "name": "PINE RUN HEALTH CENTER", "SF_14": 4.0, "SF_15": 4.0, "cnty": "Bucks", "st": "PA", "Zip": 18901.0, "O_14": 5.0, "Q_15": 4.0, "O_15": 4.0, "city": "DOYLESTOWN", "beds": 107.0, "SR_15": 4.0}, {"Diff_star": 0.0, "addr": "7 EAST LOCUST STREET", "SR_14": 1.0, "Q_14": 4.0, "name": "OXFORD MANOR HEALTH CENTER", "SF_14": 2.0, "SF_15": 2.0, "cnty": "Chester", "st": "PA", "Zip": 19363.0, "O_14": 1.0, "Q_15": 3.0, "O_15": 1.0, "city": "OXFORD", "beds": 137.0, "SR_15": 1.0}, {"Diff_star": 0.0, "addr": "313 COUNTY LINE ROAD", "SR_14": 3.0, "Q_14": 4.0, "name": "LUTHER WOODS CONVALESCENT CENT", "SF_14": 5.0, "SF_15": 5.0, "cnty": "Montgomery", "st": "PA", "Zip": 19040.0, "O_14": 4.0, "Q_15": 3.0, "O_15": 4.0, "city": "HATBORO", "beds": 140.0, "SR_15": 3.0}, {"Diff_star": 0.0, "addr": "151 GOODVIEW DRIVE", "SR_14": 2.0, "Q_14": 3.0, "name": "WEST HAVEN MANOR", "SF_14": 1.0, "SF_15": 1.0, "cnty": "Westmoreland", "st": "PA", "Zip": 15613.0, "O_14": 1.0, "Q_15": 1.0, "O_15": 1.0, "city": "APOLLO", "beds": 177.0, "SR_15": 2.0}, {"Diff_star": -1.0, "addr": "4000 LINGLESTOWN ROAD", "SR_14": 2.0, "Q_14": 4.0, "name": "JEWISH HOME OF GREATER HARRISB", "SF_14": 4.0, "SF_15": 3.0, "cnty": "Dauphin", "st": "PA", "Zip": 17112.0, "O_14": 3.0, "Q_15": 3.0, "O_15": 2.0, "city": "HARRISBURG", "beds": 138.0, "SR_15": 2.0}, {"Diff_star": 1.0, "addr": "276 GREEN AVE EXTENDED", "SR_14": 3.0, "Q_14": 3.0, "name": "OHESSON MANOR", "SF_14": 1.0, "SF_15": 4.0, "cnty": "Mifflin", "st": "PA", "Zip": 17044.0, "O_14": 2.0, "Q_15": 2.0, "O_15": 3.0, "city": "LEWISTOWN", "beds": 134.0, "SR_15": 2.0}, {"Diff_star": -1.0, "addr": "LANSDOWNE AND LINCOLN AVE", "SR_14": 2.0, "Q_14": 5.0, "name": "MANORCARE HEALTH SERVICES-YEADON", "SF_14": 2.0, "SF_15": 2.0, "cnty": "Delaware", "st": "PA", "Zip": 19050.0, "O_14": 3.0, "Q_15": 3.0, "O_15": 2.0, "city": "YEADON", "beds": 198.0, "SR_15": 2.0}, {"Diff_star": 0.0, "addr": "210 BIG SPRING ROAD", "SR_14": 2.0, "Q_14": 4.0, "name": "SWAIM HEALTH CENTER", "SF_14": 1.0, "SF_15": 1.0, "cnty": "Cumberland", "st": "PA", "Zip": 17241.0, "O_14": 1.0, "Q_15": 2.0, "O_15": 1.0, "city": "NEWVILLE", "beds": 79.0, "SR_15": 2.0}, {"Diff_star": -2.0, "addr": "6596 ORPHANAGE ROAD", "SR_14": 3.0, "Q_14": 5.0, "name": "QUINCY RETIREMENT COMMUNITY", "SF_14": 2.0, "SF_15": 3.0, "cnty": "Franklin", "st": "PA", "Zip": 17268.0, "O_14": 4.0, "Q_15": 4.0, "O_15": 2.0, "city": "WAYNESBORO", "beds": 134.0, "SR_15": 2.0}, {"Diff_star": -1.0, "addr": "1445 SYCAMORE ROAD", "SR_14": 1.0, "Q_14": 5.0, "name": "LOYALSOCK CREEK REHABILITATION AND NURSING CENTER", "SF_14": 1.0, "SF_15": 1.0, "cnty": "Lycoming", "st": "PA", "Zip": 17754.0, "O_14": 2.0, "Q_15": 3.0, "O_15": 1.0, "city": "MONTOURSVILLE", "beds": 133.0, "SR_15": 1.0}, {"Diff_star": -1.0, "addr": "100 LANCASTER AVENUE", "SR_14": 4.0, "Q_14": 5.0, "name": "SAUNDERS HOUSE", "SF_14": 4.0, "SF_15": 3.0, "cnty": "Montgomery", "st": "PA", "Zip": 19096.0, "O_14": 5.0, "Q_15": 4.0, "O_15": 4.0, "city": "WYNNEWOOD", "beds": 180.0, "SR_15": 4.0}, {"Diff_star": 0.0, "addr": "85 CHARITY PLACE", "SR_14": 3.0, "Q_14": 5.0, "name": "VALENCIA WOODS AT ST BARNABAS", "SF_14": 2.0, "SF_15": 2.0, "cnty": "Butler", "st": "PA", "Zip": 16059.0, "O_14": 4.0, "Q_15": 5.0, "O_15": 4.0, "city": "VALENCIA", "beds": 47.0, "SR_15": 3.0}, {"Diff_star": 0.0, "addr": "249 MAUS DRIVE", "SR_14": 1.0, "Q_14": 4.0, "name": "BRIARCLIFF PAVILION HEALTH AND REHABILITATION CENT", "SF_14": 2.0, "SF_15": 2.0, "cnty": "Westmoreland", "st": "PA", "Zip": 15642.0, "O_14": 1.0, "Q_15": 2.0, "O_15": 1.0, "city": "NORTH HUNTINGDON", "beds": 120.0, "SR_15": 1.0}, {"Diff_star": 0.0, "addr": "1695 LENAPE ROAD", "SR_14": 1.0, "Q_14": 4.0, "name": "POCOPSON HOME", "SF_14": 4.0, "SF_15": 4.0, "cnty": "Chester", "st": "PA", "Zip": 19382.0, "O_14": 2.0, "Q_15": 3.0, "O_15": 2.0, "city": "WEST CHESTER", "beds": 275.0, "SR_15": 1.0}, {"Diff_star": 0.0, "addr": "5225 WILSON LANE", "SR_14": 2.0, "Q_14": 5.0, "name": "BETHANY VILLAGE RETIREMENT CENTER", "SF_14": 4.0, "SF_15": 4.0, "cnty": "Cumberland", "st": "PA", "Zip": 17055.0, "O_14": 4.0, "Q_15": 5.0, "O_15": 4.0, "city": "MECHANICSBURG", "beds": 69.0, "SR_15": 2.0}, {"Diff_star": 0.0, "addr": "214 PEACH ORCHARD ROAD", "SR_14": 4.0, "Q_14": 4.0, "name": "FULTON COUNTY MEDICAL CENTER", "SF_14": 4.0, "SF_15": 3.0, "cnty": "Fulton", "st": "PA", "Zip": 17233.0, "O_14": 4.0, "Q_15": 3.0, "O_15": 4.0, "city": "MCCONNELLSBURG", "beds": 67.0, "SR_15": 4.0}, {"Diff_star": 0.0, "addr": "PO BOX 100 RT 926", "SR_14": 5.0, "Q_14": 5.0, "name": "CROSSLANDS", "SF_14": 5.0, "SF_15": 5.0, "cnty": "Chester", "st": "PA", "Zip": 19348.0, "O_14": 5.0, "Q_15": 5.0, "O_15": 5.0, "city": "KENNETT SQUARE", "beds": 60.0, "SR_15": 5.0}, {"Diff_star": -1.0, "addr": "58 NEITZ ROAD", "SR_14": 4.0, "Q_14": 5.0, "name": "NOTTINGHAM VILLAGE", "SF_14": 4.0, "SF_15": 4.0, "cnty": "Northumberlnd", "st": "PA", "Zip": 17857.0, "O_14": 5.0, "Q_15": 4.0, "O_15": 4.0, "city": "NORTHUMBERLAND", "beds": 121.0, "SR_15": 4.0}, {"Diff_star": 0.0, "addr": "700 BOWER HILL ROAD", "SR_14": 2.0, "Q_14": 4.0, "name": "ASBURY HEALTH CENTER", "SF_14": 4.0, "SF_15": 4.0, "cnty": "Allegheny", "st": "PA", "Zip": 15243.0, "O_14": 3.0, "Q_15": 3.0, "O_15": 3.0, "city": "PITTSBURGH", "beds": 139.0, "SR_15": 2.0}, {"Diff_star": -1.0, "addr": "951 WASHINGTON AVENUE", "SR_14": 4.0, "Q_14": 5.0, "name": "EPWORTH MANOR", "SF_14": 1.0, "SF_15": 1.0, "cnty": "Blair", "st": "PA", "Zip": 16686.0, "O_14": 4.0, "Q_15": 4.0, "O_15": 3.0, "city": "TYRONE", "beds": 102.0, "SR_15": 4.0}, {"Diff_star": 0.0, "addr": "235 LANCASTER AVENUE", "SR_14": 1.0, "Q_14": 4.0, "name": "DEVON MANOR", "SF_14": 5.0, "SF_15": 5.0, "cnty": "Chester", "st": "PA", "Zip": 19333.0, "O_14": 2.0, "Q_15": 4.0, "O_15": 2.0, "city": "DEVON", "beds": 131.0, "SR_15": 1.0}, {"Diff_star": -1.0, "addr": "800 KING RUSS ROAD", "SR_14": 1.0, "Q_14": 5.0, "name": "COLONIAL PARK CARE CENTER", "SF_14": 2.0, "SF_15": 2.0, "cnty": "Dauphin", "st": "PA", "Zip": 17109.0, "O_14": 2.0, "Q_15": 4.0, "O_15": 1.0, "city": "HARRISBURG", "beds": 198.0, "SR_15": 1.0}, {"Diff_star": 0.0, "addr": "101 LEADER DRIVE", "SR_14": 1.0, "Q_14": 5.0, "name": "MANORCARE HEALTH SERVICES-WILLIAMSPORT SOUTH", "SF_14": 1.0, "SF_15": 1.0, "cnty": "Lycoming", "st": "PA", "Zip": 17701.0, "O_14": 2.0, "Q_15": 5.0, "O_15": 2.0, "city": "WILLIAMSPORT", "beds": 16.0, "SR_15": 1.0}, {"Diff_star": -1.0, "addr": "200 SECOND AVENUE", "SR_14": 1.0, "Q_14": 5.0, "name": "MANORCARE HEALTH SERVICES-KINGSTON", "SF_14": "", "SF_15": "", "cnty": "Luzerne", "st": "PA", "Zip": 18704.0, "O_14": 2.0, "Q_15": 3.0, "O_15": 1.0, "city": "KINGSTON", "beds": 176.0, "SR_15": 1.0}, {"Diff_star": 0.0, "addr": "228 SIEMON DRIVE", "SR_14": 1.0, "Q_14": 3.0, "name": "SIEMONS' LAKEVIEW MANOR NURSING AND REHAB CTR", "SF_14": 1.0, "SF_15": 1.0, "cnty": "Somerset", "st": "PA", "Zip": 15501.0, "O_14": 1.0, "Q_15": 1.0, "O_15": 1.0, "city": "SOMERSET", "beds": 120.0, "SR_15": 2.0}, {"Diff_star": 0.0, "addr": "745 CHIQUES HILL ROAD", "SR_14": 1.0, "Q_14": 5.0, "name": "SUSQUEHANNA VALLEY NURSING & REHABILITATION CENTER", "SF_14": 3.0, "SF_15": 3.0, "cnty": "Lancaster", "st": "PA", "Zip": 17512.0, "O_14": 2.0, "Q_15": 5.0, "O_15": 2.0, "city": "COLUMBIA", "beds": 173.0, "SR_15": 1.0}, {"Diff_star": 0.0, "addr": "5416 EAST LAKE ROAD", "SR_14": 3.0, "Q_14": 5.0, "name": "BALL PAVILION, THE", "SF_14": 2.0, "SF_15": 2.0, "cnty": "Erie", "st": "PA", "Zip": 16511.0, "O_14": 4.0, "Q_15": 5.0, "O_15": 4.0, "city": "ERIE", "beds": 85.0, "SR_15": 3.0}, {"Diff_star": -1.0, "addr": "724 NORTH CHARLOTTE ST", "SR_14": 4.0, "Q_14": 5.0, "name": "MANORCARE HEALTH SERVICES-POTTSTOWN", "SF_14": 2.0, "SF_15": 2.0, "cnty": "Montgomery", "st": "PA", "Zip": 19464.0, "O_14": 5.0, "Q_15": 3.0, "O_15": 4.0, "city": "POTTSTOWN", "beds": 165.0, "SR_15": 4.0}, {"Diff_star": 0.0, "addr": "41 NEWPORT AVENUE", "SR_14": 1.0, "Q_14": 4.0, "name": "HARRISON SENIOR LIVING OF CHRISTIANA", "SF_14": 3.0, "SF_15": 3.0, "cnty": "Lancaster", "st": "PA", "Zip": 17509.0, "O_14": 1.0, "Q_15": 2.0, "O_15": 1.0, "city": "CHRISTIANA", "beds": 139.0, "SR_15": 1.0}, {"Diff_star": 0.0, "addr": "4114 SCHAPER AVENUE", "SR_14": 1.0, "Q_14": 4.0, "name": "PRESQUE ISLE REHAB & NURSING CENTER", "SF_14": 2.0, "SF_15": 2.0, "cnty": "Erie", "st": "PA", "Zip": 16508.0, "O_14": 1.0, "Q_15": 1.0, "O_15": 1.0, "city": "ERIE", "beds": 141.0, "SR_15": 1.0}, {"Diff_star": 0.0, "addr": "1020 SOUTH MAIN STREET", "SR_14": 4.0, "Q_14": 4.0, "name": "QUAKERTOWN CENTER", "SF_14": 2.0, "SF_15": 2.0, "cnty": "Bucks", "st": "PA", "Zip": 18951.0, "O_14": 4.0, "Q_15": 3.0, "O_15": 4.0, "city": "QUAKERTOWN", "beds": 138.0, "SR_15": 4.0}, {"Diff_star": 0.0, "addr": "400 SAINT LUKE DR", "SR_14": 3.0, "Q_14": 5.0, "name": "LUTHER ACRES MANOR", "SF_14": 4.0, "SF_15": 4.0, "cnty": "Lancaster", "st": "PA", "Zip": 17543.0, "O_14": 5.0, "Q_15": 5.0, "O_15": 5.0, "city": "LITITZ", "beds": 106.0, "SR_15": 3.0}, {"Diff_star": 0.0, "addr": "125 HOLLY ROAD", "SR_14": 4.0, "Q_14": 5.0, "name": "LAUREL CENTER", "SF_14": 3.0, "SF_15": 3.0, "cnty": "Berks", "st": "PA", "Zip": 19526.0, "O_14": 5.0, "Q_15": 5.0, "O_15": 5.0, "city": "HAMBURG", "beds": 130.0, "SR_15": 4.0}, {"Diff_star": 0.0, "addr": "252 BELMONT AVENUE", "SR_14": 4.0, "Q_14": 5.0, "name": "BRIARLEAF NURSING AND CONVAL C", "SF_14": 3.0, "SF_15": 3.0, "cnty": "Bucks", "st": "PA", "Zip": 18901.0, "O_14": 5.0, "Q_15": 5.0, "O_15": 5.0, "city": "DOYLESTOWN", "beds": 178.0, "SR_15": 4.0}, {"Diff_star": 0.0, "addr": "120 LAKESIDE DRIVE", "SR_14": 2.0, "Q_14": 4.0, "name": "SUGAR CREEK REST", "SF_14": 3.0, "SF_15": 3.0, "cnty": "Armstrong", "st": "PA", "Zip": 16262.0, "O_14": 2.0, "Q_15": 3.0, "O_15": 2.0, "city": "WORTHINGTON", "beds": 114.0, "SR_15": 2.0}, {"Diff_star": 0.0, "addr": "8401  ROOSEVELT BOULEVARD", "SR_14": 3.0, "Q_14": 5.0, "name": "EVANGELICAL MANOR", "SF_14": 2.0, "SF_15": 2.0, "cnty": "Philadelphia", "st": "PA", "Zip": 19152.0, "O_14": 4.0, "Q_15": 5.0, "O_15": 4.0, "city": "PHILADELPHIA", "beds": 120.0, "SR_15": 3.0}, {"Diff_star": 0.0, "addr": "108 TERRACE DRIVE", "SR_14": 1.0, "Q_14": 4.0, "name": "LACKAWANNA HEALTH AND REHAB CENTER", "SF_14": 2.0, "SF_15": 2.0, "cnty": "Lackawanna", "st": "PA", "Zip": 18447.0, "O_14": 1.0, "Q_15": 2.0, "O_15": 1.0, "city": "OLYPHANT", "beds": 272.0, "SR_15": 1.0}, {"Diff_star": -1.0, "addr": "401 UNIVERSITY DRIVE", "SR_14": 4.0, "Q_14": 5.0, "name": "REST HAVEN", "SF_14": 1.0, "SF_15": 1.0, "cnty": "Schuylkill", "st": "PA", "Zip": 17972.0, "O_14": 4.0, "Q_15": 3.0, "O_15": 3.0, "city": "SCHUYLKILL HAVEN", "beds": 142.0, "SR_15": 4.0}, {"Diff_star": 0.0, "addr": "2 MANOR BOULEVARD", "SR_14": 1.0, "Q_14": 2.0, "name": "BROOKLINE MANOR AND REHABILITATIVE SERVICES", "SF_14": 2.0, "SF_15": 2.0, "cnty": "Juniata", "st": "PA", "Zip": 17059.0, "O_14": 1.0, "Q_15": 1.0, "O_15": 1.0, "city": "MIFFLINTOWN", "beds": 85.0, "SR_15": 1.0}, {"Diff_star": 0.0, "addr": "801 EAST 16TH STREET", "SR_14": 1.0, "Q_14": 4.0, "name": "BERWICK RETIREMENT VILLAGE NRS", "SF_14": 3.0, "SF_15": 3.0, "cnty": "Columbia", "st": "PA", "Zip": 18603.0, "O_14": 1.0, "Q_15": 2.0, "O_15": 1.0, "city": "BERWICK", "beds": 240.0, "SR_15": 1.0}, {"Diff_star": 0.0, "addr": "208 PENNKNOLL ROAD", "SR_14": 1.0, "Q_14": 3.0, "name": "PENNKNOLL VILLAGE", "SF_14": 1.0, "SF_15": 1.0, "cnty": "Bedford", "st": "PA", "Zip": 15537.0, "O_14": 1.0, "Q_15": 1.0, "O_15": 1.0, "city": "EVERETT", "beds": 133.0, "SR_15": 1.0}, {"Diff_star": 0.0, "addr": "6655 FRANKSTOWN AVENUE", "SR_14": 1.0, "Q_14": 4.0, "name": "FORBES CENTER FOR REHAB AND HEALTHCARE LLC", "SF_14": 2.0, "SF_15": 1.0, "cnty": "Allegheny", "st": "PA", "Zip": 15206.0, "O_14": 1.0, "Q_15": 3.0, "O_15": 1.0, "city": "PITTSBURGH", "beds": 134.0, "SR_15": 1.0}, {"Diff_star": 0.0, "addr": "8301 ROOSEVELT BOULEVARD", "SR_14": 4.0, "Q_14": 4.0, "name": "DEER MEADOWS REHABILITATION CENTER", "SF_14": 4.0, "SF_15": 4.0, "cnty": "Philadelphia", "st": "PA", "Zip": 19152.0, "O_14": 4.0, "Q_15": 2.0, "O_15": 4.0, "city": "PHILADELPHIA", "beds": 206.0, "SR_15": 4.0}, {"Diff_star": 0.0, "addr": "213 EAST MAIN STREET", "SR_14": 1.0, "Q_14": 4.0, "name": "MANOR AT PERRY VILLAGE, THE", "SF_14": 1.0, "SF_15": 1.0, "cnty": "Perry", "st": "PA", "Zip": 17068.0, "O_14": 1.0, "Q_15": 3.0, "O_15": 1.0, "city": "NEW BLOOMFIELD", "beds": 123.0, "SR_15": 1.0}, {"Diff_star": -2.0, "addr": "916 HICKORY STREET", "SR_14": 3.0, "Q_14": 5.0, "name": "LUTHERAN HOME AT HOLLIDAYSBURG", "SF_14": 4.0, "SF_15": 3.0, "cnty": "Blair", "st": "PA", "Zip": 16648.0, "O_14": 5.0, "Q_15": 4.0, "O_15": 3.0, "city": "HOLLIDAYSBURG", "beds": 89.0, "SR_15": 3.0}, {"Diff_star": 0.0, "addr": "990 MEDICAL ROAD", "SR_14": 1.0, "Q_14": 5.0, "name": "MANOR AT SUSQUEHANNA VILLAGE,THE", "SF_14": 1.0, "SF_15": 1.0, "cnty": "Dauphin", "st": "PA", "Zip": 17061.0, "O_14": 2.0, "Q_15": 5.0, "O_15": 2.0, "city": "MILLERSBURG", "beds": 194.0, "SR_15": 1.0}, {"Diff_star": 0.0, "addr": "2021 WESTGATE DRIVE", "SR_14": 5.0, "Q_14": 5.0, "name": "MANORCARE HEALTH SERVICES-BETHLEHEM (2021)", "SF_14": 2.0, "SF_15": 2.0, "cnty": "Lehigh", "st": "PA", "Zip": 18017.0, "O_14": 5.0, "Q_15": 4.0, "O_15": 5.0, "city": "BETHLEHEM", "beds": 227.0, "SR_15": 5.0}, {"Diff_star": 0.0, "addr": "P O BOX 307", "SR_14": 2.0, "Q_14": 4.0, "name": "DUBOIS NURSING HOME", "SF_14": 4.0, "SF_15": 4.0, "cnty": "Clearfield", "st": "PA", "Zip": 15801.0, "O_14": 3.0, "Q_15": 3.0, "O_15": 3.0, "city": "DUBOIS", "beds": 140.0, "SR_15": 2.0}, {"Diff_star": -1.0, "addr": "333 NEWTOWN ROAD", "SR_14": 3.0, "Q_14": 5.0, "name": "MAJESTIC OAKS REHABILITATION AND NURSING CENTER", "SF_14": 2.0, "SF_15": 2.0, "cnty": "Bucks", "st": "PA", "Zip": 18974.0, "O_14": 4.0, "Q_15": 3.0, "O_15": 3.0, "city": "WARMINSTER", "beds": 180.0, "SR_15": 3.0}, {"Diff_star": 0.0, "addr": "280 MIDDLE HOLLAND ROAD", "SR_14": 3.0, "Q_14": 5.0, "name": "TWINING HALL", "SF_14": 4.0, "SF_15": 4.0, "cnty": "Bucks", "st": "PA", "Zip": 18966.0, "O_14": 5.0, "Q_15": 5.0, "O_15": 5.0, "city": "HOLLAND", "beds": 82.0, "SR_15": 3.0}, {"Diff_star": 0.0, "addr": "30 VIRGINIA DRIVE", "SR_14": 2.0, "Q_14": 5.0, "name": "GOLDEN LIVINGCENTER-TUNKHANNOCK", "SF_14": 2.0, "SF_15": 2.0, "cnty": "Wyoming", "st": "PA", "Zip": 18657.0, "O_14": 3.0, "Q_15": 5.0, "O_15": 3.0, "city": "TUNKHANNOCK", "beds": 124.0, "SR_15": 2.0}, {"Diff_star": -1.0, "addr": "350 OLD GILKESON ROAD", "SR_14": 3.0, "Q_14": 3.0, "name": "GOLDEN LIVINGCENTER-MT LEBANON", "SF_14": 2.0, "SF_15": 2.0, "cnty": "Allegheny", "st": "PA", "Zip": 15228.0, "O_14": 3.0, "Q_15": 1.0, "O_15": 2.0, "city": "PITTSBURGH", "beds": 121.0, "SR_15": 3.0}, {"Diff_star": -1.0, "addr": "2480 SOUTH GRAND BLVD", "SR_14": 3.0, "Q_14": 5.0, "name": "WESTMORELAND MANOR", "SF_14": 2.0, "SF_15": 2.0, "cnty": "Westmoreland", "st": "PA", "Zip": 15601.0, "O_14": 4.0, "Q_15": 3.0, "O_15": 3.0, "city": "GREENSBURG", "beds": 408.0, "SR_15": 3.0}, {"Diff_star": 0.0, "addr": "3120 HORSESHOE PIKE", "SR_14": 1.0, "Q_14": 5.0, "name": "HICKORY HOUSE NURSING HOME", "SF_14": 4.0, "SF_15": 4.0, "cnty": "Chester", "st": "PA", "Zip": 19344.0, "O_14": 2.0, "Q_15": 4.0, "O_15": 2.0, "city": "HONEY BROOK", "beds": 110.0, "SR_15": 1.0}, {"Diff_star": -1.0, "addr": "1200 GRUBB STREET", "SR_14": 4.0, "Q_14": 5.0, "name": "LEBANON VALLEY BRETHREN HOME", "SF_14": 4.0, "SF_15": 4.0, "cnty": "Lebanon", "st": "PA", "Zip": 17078.0, "O_14": 5.0, "Q_15": 3.0, "O_15": 4.0, "city": "PALMYRA", "beds": 100.0, "SR_15": 4.0}, {"Diff_star": 0.0, "addr": "200 LUTHER ROAD", "SR_14": 1.0, "Q_14": 5.0, "name": "BARBARA J. EGAN NURSING AND RE", "SF_14": 3.0, "SF_15": 3.0, "cnty": "York", "st": "PA", "Zip": 17361.0, "O_14": 2.0, "Q_15": 5.0, "O_15": 2.0, "city": "SHREWSBURY", "beds": 100.0, "SR_15": 1.0}, {"Diff_star": 0.0, "addr": "807 GOUCHER STREET", "SR_14": 3.0, "Q_14": 5.0, "name": "LUTHERAN HOME AT JOHNSTOWN, THE", "SF_14": 2.0, "SF_15": 2.0, "cnty": "Cambria", "st": "PA", "Zip": 15905.0, "O_14": 4.0, "Q_15": 5.0, "O_15": 4.0, "city": "JOHNSTOWN", "beds": 63.0, "SR_15": 3.0}, {"Diff_star": 0.0, "addr": "1700 MARKET STREET", "SR_14": 2.0, "Q_14": 5.0, "name": "MANORCARE HEALTH SERVICES-CAMP HILL", "SF_14": 1.0, "SF_15": 1.0, "cnty": "Cumberland", "st": "PA", "Zip": 17011.0, "O_14": 2.0, "Q_15": 5.0, "O_15": 2.0, "city": "CAMP HILL", "beds": 123.0, "SR_15": 2.0}, {"Diff_star": 0.0, "addr": "1770 BARLEY ROAD", "SR_14": 2.0, "Q_14": 5.0, "name": "MANORCARE HEALTH SERVICES-YORK NORTH", "SF_14": 2.0, "SF_15": 2.0, "cnty": "York", "st": "PA", "Zip": 17404.0, "O_14": 3.0, "Q_15": 5.0, "O_15": 3.0, "city": "YORK", "beds": 161.0, "SR_15": 2.0}, {"Diff_star": 2.0, "addr": "100 MOUNT ALLEN DRIVE", "SR_14": 1.0, "Q_14": 5.0, "name": "MESSIAH LIFEWAYS AT MESSIAH VILLAGE", "SF_14": 3.0, "SF_15": 4.0, "cnty": "Cumberland", "st": "PA", "Zip": 17055.0, "O_14": 2.0, "Q_15": 5.0, "O_15": 4.0, "city": "MECHANICSBURG", "beds": 184.0, "SR_15": 2.0}, {"Diff_star": -1.0, "addr": "2004 OLD ARCH ROAD", "SR_14": 3.0, "Q_14": 5.0, "name": "TOWNE MANOR EAST", "SF_14": 2.0, "SF_15": 2.0, "cnty": "Montgomery", "st": "PA", "Zip": 19401.0, "O_14": 4.0, "Q_15": 4.0, "O_15": 3.0, "city": "NORRISTOWN", "beds": 120.0, "SR_15": 3.0}, {"Diff_star": 0.0, "addr": "1001 PINE STREET", "SR_14": 1.0, "Q_14": 2.0, "name": "BUCKTAIL MEDICAL CENTER", "SF_14": 4.0, "SF_15": 4.0, "cnty": "Clinton", "st": "PA", "Zip": 17764.0, "O_14": 2.0, "Q_15": 2.0, "O_15": 2.0, "city": "RENOVO", "beds": 43.0, "SR_15": 1.0}, {"Diff_star": 0.0, "addr": "1104 WELSH ROAD", "SR_14": 3.0, "Q_14": 4.0, "name": "CHAPEL MANOR", "SF_14": 2.0, "SF_15": 2.0, "cnty": "Philadelphia", "st": "PA", "Zip": 19115.0, "O_14": 3.0, "Q_15": 2.0, "O_15": 3.0, "city": "PHILADELPHIA", "beds": 238.0, "SR_15": 3.0}, {"Diff_star": -1.0, "addr": "100 WEST QUEEN STREET", "SR_14": 2.0, "Q_14": 5.0, "name": "MANORCARE HEALTH SERVICES-DALLASTOWN", "SF_14": 2.0, "SF_15": 2.0, "cnty": "York", "st": "PA", "Zip": 17313.0, "O_14": 3.0, "Q_15": 3.0, "O_15": 2.0, "city": "DALLASTOWN", "beds": 202.0, "SR_15": 2.0}, {"Diff_star": -1.0, "addr": "1600 BLACK ROCK ROAD", "SR_14": 4.0, "Q_14": 5.0, "name": "PARKHOUSE NURSING AND REHABILITATION CENTER", "SF_14": 4.0, "SF_15": 3.0, "cnty": "Montgomery", "st": "PA", "Zip": 19468.0, "O_14": 5.0, "Q_15": 4.0, "O_15": 4.0, "city": "ROYERSFORD", "beds": 467.0, "SR_15": 4.0}, {"Diff_star": 0.0, "addr": "50 N. PENNSYLVANIA AVE.", "SR_14": 1.0, "Q_14": 4.0, "name": "GOLDEN LIVINGCENTER-SUMMIT", "SF_14": 2.0, "SF_15": 2.0, "cnty": "Luzerne", "st": "PA", "Zip": 18701.0, "O_14": 1.0, "Q_15": 2.0, "O_15": 1.0, "city": "WILKES BARRE", "beds": 120.0, "SR_15": 1.0}, {"Diff_star": -1.0, "addr": "14663 ROUTE 68", "SR_14": 4.0, "Q_14": 3.0, "name": "CLARVIEW NURSING AND REHAB CEN", "SF_14": 3.0, "SF_15": 3.0, "cnty": "Clarion", "st": "PA", "Zip": 16255.0, "O_14": 4.0, "Q_15": 1.0, "O_15": 3.0, "city": "SLIGO", "beds": 120.0, "SR_15": 4.0}, {"Diff_star": 0.0, "addr": "262 TOLL GATE ROAD", "SR_14": 4.0, "Q_14": 4.0, "name": "CRESTVIEW CENTER", "SF_14": 2.0, "SF_15": 2.0, "cnty": "Bucks", "st": "PA", "Zip": 19047.0, "O_14": 4.0, "Q_15": 3.0, "O_15": 4.0, "city": "LANGHORNE", "beds": 180.0, "SR_15": 4.0}, {"Diff_star": 0.0, "addr": "1100 WEST LONG AVENUE", "SR_14": 3.0, "Q_14": 4.0, "name": "CHRIST THE KING MANOR", "SF_14": 5.0, "SF_15": 5.0, "cnty": "Clearfield", "st": "PA", "Zip": 15801.0, "O_14": 4.0, "Q_15": 2.0, "O_15": 4.0, "city": "DUBOIS", "beds": 160.0, "SR_15": 3.0}, {"Diff_star": -1.0, "addr": "1001-11 WALLACE STREET", "SR_14": 4.0, "Q_14": 5.0, "name": "TUCKER HOUSE NURSING AND REHABILITATION CENTER", "SF_14": 1.0, "SF_15": 1.0, "cnty": "Philadelphia", "st": "PA", "Zip": 19123.0, "O_14": 4.0, "Q_15": 4.0, "O_15": 3.0, "city": "PHILADELPHIA", "beds": 180.0, "SR_15": 4.0}, {"Diff_star": 0.0, "addr": "P.O. BOX 50, BROOKMONT DR", "SR_14": 1.0, "Q_14": 4.0, "name": "BROOKMONT HEALTHCARE CENTER LLC", "SF_14": 1.0, "SF_15": 1.0, "cnty": "Monroe", "st": "PA", "Zip": 18330.0, "O_14": 1.0, "Q_15": 4.0, "O_15": 1.0, "city": "EFFORT", "beds": 119.0, "SR_15": 1.0}, {"Diff_star": 0.0, "addr": "1000 EVERGREEN AVENUE", "SR_14": 1.0, "Q_14": 4.0, "name": "WEATHERWOOD NURSING HOME AND REHAB CTR", "SF_14": 2.0, "SF_15": 2.0, "cnty": "Carbon", "st": "PA", "Zip": 18255.0, "O_14": 1.0, "Q_15": 2.0, "O_15": 1.0, "city": "WEATHERLY", "beds": 200.0, "SR_15": 1.0}, {"Diff_star": 0.0, "addr": "350 S. CEDARBROOK ROAD", "SR_14": 4.0, "Q_14": 4.0, "name": "CEDARBROOK NURSING HOMES", "SF_14": 4.0, "SF_15": 4.0, "cnty": "Lehigh", "st": "PA", "Zip": 18104.0, "O_14": 4.0, "Q_15": 2.0, "O_15": 4.0, "city": "ALLENTOWN", "beds": 670.0, "SR_15": 4.0}, {"Diff_star": -1.0, "addr": "264 ROUTE 6 & 209", "SR_14": 1.0, "Q_14": 5.0, "name": "MILFORD SENIOR CARE AND REHAB", "SF_14": 2.0, "SF_15": 2.0, "cnty": "Pike", "st": "PA", "Zip": 18337.0, "O_14": 2.0, "Q_15": 4.0, "O_15": 1.0, "city": "MILFORD", "beds": 80.0, "SR_15": 1.0}, {"Diff_star": -1.0, "addr": "600 EAST CATHEDRAL ROAD", "SR_14": 4.0, "Q_14": 5.0, "name": "CATHEDRAL VILLAGE", "SF_14": 4.0, "SF_15": 4.0, "cnty": "Philadelphia", "st": "PA", "Zip": 19128.0, "O_14": 5.0, "Q_15": 4.0, "O_15": 4.0, "city": "PHILADELPHIA", "beds": 133.0, "SR_15": 4.0}, {"Diff_star": -1.0, "addr": "320 SOUTH MARKET STREET", "SR_14": 2.0, "Q_14": 5.0, "name": "MANORCARE HEALTH SERVICES-ELIZABETHTOWN", "SF_14": 2.0, "SF_15": 2.0, "cnty": "Lancaster", "st": "PA", "Zip": 17022.0, "O_14": 3.0, "Q_15": 4.0, "O_15": 2.0, "city": "ELIZABETHTOWN", "beds": 73.0, "SR_15": 2.0}, {"Diff_star": 0.0, "addr": "265 SOUTH MCKEAN STREET", "SR_14": 5.0, "Q_14": 1.0, "name": "ARMSTRONG COUNTY HEALTH CENTER", "SF_14": 4.0, "SF_15": 3.0, "cnty": "Armstrong", "st": "PA", "Zip": 16201.0, "O_14": 4.0, "Q_15": 1.0, "O_15": 4.0, "city": "KITTANNING", "beds": 115.0, "SR_15": 5.0}, {"Diff_star": -2.0, "addr": "900 TUCK STREET", "SR_14": 3.0, "Q_14": 5.0, "name": "MANORCARE HEALTH SERVICES-LEBANON", "SF_14": 1.0, "SF_15": 1.0, "cnty": "Lebanon", "st": "PA", "Zip": 17042.0, "O_14": 3.0, "Q_15": 4.0, "O_15": 1.0, "city": "LEBANON", "beds": 159.0, "SR_15": 2.0}, {"Diff_star": 0.0, "addr": "ROUTE 413", "SR_14": 5.0, "Q_14": 5.0, "name": "PENNSWOOD VILLAGE", "SF_14": 5.0, "SF_15": 5.0, "cnty": "Bucks", "st": "PA", "Zip": 18940.0, "O_14": 5.0, "Q_15": 5.0, "O_15": 5.0, "city": "NEWTOWN", "beds": 53.0, "SR_15": 5.0}, {"Diff_star": 0.0, "addr": "2628 ELMWOOD AVENUE", "SR_14": 5.0, "Q_14": 4.0, "name": "ELMWOOD GARDENS", "SF_14": 4.0, "SF_15": 4.0, "cnty": "Erie", "st": "PA", "Zip": 16508.0, "O_14": 5.0, "Q_15": 2.0, "O_15": 5.0, "city": "ERIE", "beds": 51.0, "SR_15": 5.0}, {"Diff_star": 0.0, "addr": "1901 NORTH FIFTH STREET", "SR_14": 3.0, "Q_14": 5.0, "name": "HOMELAND CENTER", "SF_14": 4.0, "SF_15": 4.0, "cnty": "Dauphin", "st": "PA", "Zip": 17102.0, "O_14": 5.0, "Q_15": 5.0, "O_15": 5.0, "city": "HARRISBURG", "beds": 92.0, "SR_15": 3.0}, {"Diff_star": -1.0, "addr": "GRACEDALE AVENUE", "SR_14": 3.0, "Q_14": 4.0, "name": "GRACEDALE - NORTHAMPTON COUNTY", "SF_14": 3.0, "SF_15": 3.0, "cnty": "Northampton", "st": "PA", "Zip": 18064.0, "O_14": 3.0, "Q_15": 1.0, "O_15": 2.0, "city": "NAZARETH", "beds": 725.0, "SR_15": 3.0}, {"Diff_star": 0.0, "addr": "2125 ELIZABETH AVENUE", "SR_14": 3.0, "Q_14": 5.0, "name": "MANORCARE HEALTH SERVICES-LAURELDALE", "SF_14": 2.0, "SF_15": 2.0, "cnty": "Berks", "st": "PA", "Zip": 19605.0, "O_14": 4.0, "Q_15": 5.0, "O_15": 4.0, "city": "LAURELDALE", "beds": 198.0, "SR_15": 3.0}, {"Diff_star": 0.0, "addr": "GIRARD AND CORINTHIAN AVE", "SR_14": 5.0, "Q_14": 4.0, "name": "PHILADELPHIA NURSING HOME", "SF_14": 4.0, "SF_15": 4.0, "cnty": "Philadelphia", "st": "PA", "Zip": 19130.0, "O_14": 5.0, "Q_15": 3.0, "O_15": 5.0, "city": "PHILADELPHIA", "beds": 451.0, "SR_15": 5.0}, {"Diff_star": 0.0, "addr": "773 SUMNEYTOWN PIKE", "SR_14": 5.0, "Q_14": 5.0, "name": "GWYNEDD SQUARE CTR FOR NSG & C", "SF_14": 3.0, "SF_15": 3.0, "cnty": "Montgomery", "st": "PA", "Zip": 19446.0, "O_14": 5.0, "Q_15": 5.0, "O_15": 5.0, "city": "LANSDALE", "beds": 181.0, "SR_15": 5.0}, {"Diff_star": -1.0, "addr": "397 HEMLOCK DRIVE", "SR_14": 2.0, "Q_14": 5.0, "name": "MAHONING VALLEY NURSING AND RE", "SF_14": 2.0, "SF_15": 2.0, "cnty": "Carbon", "st": "PA", "Zip": 18235.0, "O_14": 3.0, "Q_15": 3.0, "O_15": 2.0, "city": "LEHIGHTON", "beds": 142.0, "SR_15": 2.0}, {"Diff_star": 0.0, "addr": "1245 CHURCH ROAD", "SR_14": 3.0, "Q_14": 5.0, "name": "HILLCREST CENTER", "SF_14": 4.0, "SF_15": 4.0, "cnty": "Montgomery", "st": "PA", "Zip": 19095.0, "O_14": 5.0, "Q_15": 5.0, "O_15": 5.0, "city": "WYNCOTE", "beds": 180.0, "SR_15": 3.0}, {"Diff_star": 0.0, "addr": "1040-52 MARKET STREET", "SR_14": 3.0, "Q_14": 4.0, "name": "GOLDEN LIVINGCENTER-MANSION", "SF_14": 2.0, "SF_15": 2.0, "cnty": "Northumberlnd", "st": "PA", "Zip": 17801.0, "O_14": 3.0, "Q_15": 2.0, "O_15": 3.0, "city": "SUNBURY", "beds": 70.0, "SR_15": 3.0}, {"Diff_star": -1.0, "addr": "550 EAST FURNANCE STREET", "SR_14": 4.0, "Q_14": 5.0, "name": "REGINA COMMUNITY NURSING CENTE", "SF_14": 4.0, "SF_15": 4.0, "cnty": "Montgomery", "st": "PA", "Zip": 19401.0, "O_14": 5.0, "Q_15": 4.0, "O_15": 4.0, "city": "NORRISTOWN", "beds": 121.0, "SR_15": 4.0}, {"Diff_star": 0.0, "addr": "463 NORTH HUNTER HWY", "SR_14": 3.0, "Q_14": 5.0, "name": "BUTLER VALLEY MANOR HEALTH AND REHABILITATION CENT", "SF_14": 2.0, "SF_15": 2.0, "cnty": "Luzerne", "st": "PA", "Zip": 18222.0, "O_14": 4.0, "Q_15": 5.0, "O_15": 4.0, "city": "DRUMS", "beds": 37.0, "SR_15": 3.0}, {"Diff_star": -1.0, "addr": "1526 LOMBARD STREET", "SR_14": 3.0, "Q_14": 5.0, "name": "POWERBACK REHABILITATION 1526 LOMBARD STREET", "SF_14": 3.0, "SF_15": 3.0, "cnty": "Philadelphia", "st": "PA", "Zip": 19146.0, "O_14": 4.0, "Q_15": 4.0, "O_15": 3.0, "city": "PHILADELPHIA", "beds": 150.0, "SR_15": 3.0}, {"Diff_star": 0.0, "addr": "640 WORTH STREET", "SR_14": 3.0, "Q_14": 4.0, "name": "CORRY MANOR", "SF_14": 1.0, "SF_15": 1.0, "cnty": "Erie", "st": "PA", "Zip": 16407.0, "O_14": 2.0, "Q_15": 2.0, "O_15": 2.0, "city": "CORRY", "beds": 121.0, "SR_15": 3.0}, {"Diff_star": -1.0, "addr": "238 STREET ROAD", "SR_14": 4.0, "Q_14": 5.0, "name": "WILLOWBROOKE COURT-SOUTHAMPTON", "SF_14": 4.0, "SF_15": 4.0, "cnty": "Bucks", "st": "PA", "Zip": 18966.0, "O_14": 5.0, "Q_15": 4.0, "O_15": 4.0, "city": "SOUTHAMPTON", "beds": 120.0, "SR_15": 4.0}, {"Diff_star": 0.0, "addr": "4227 MANOR DRIVE", "SR_14": 1.0, "Q_14": 3.0, "name": "PLEASANT VALLEY MANOR, INC", "SF_14": 2.0, "SF_15": 2.0, "cnty": "Monroe", "st": "PA", "Zip": 18360.0, "O_14": 1.0, "Q_15": 2.0, "O_15": 1.0, "city": "STROUDSBURG", "beds": 174.0, "SR_15": 1.0}, {"Diff_star": 0.0, "addr": "411 N. MIDDLETOWN ROAD", "SR_14": 4.0, "Q_14": 5.0, "name": "WILLOWBROOKE COURT-LIMA ESTATE", "SF_14": 5.0, "SF_15": 5.0, "cnty": "Delaware", "st": "PA", "Zip": 19037.0, "O_14": 5.0, "Q_15": 4.0, "O_15": 5.0, "city": "LIMA", "beds": 60.0, "SR_15": 4.0}, {"Diff_star": -1.0, "addr": "1404 GOLF PARK DRIVE", "SR_14": 2.0, "Q_14": 5.0, "name": "JULIA RIBAUDO EXTENDED CARE CENTER", "SF_14": 2.0, "SF_15": 2.0, "cnty": "Wayne", "st": "PA", "Zip": 18436.0, "O_14": 3.0, "Q_15": 5.0, "O_15": 2.0, "city": "LAKE ARIEL", "beds": 120.0, "SR_15": 1.0}, {"Diff_star": -1.0, "addr": "701 SLATE BELT BLVD, RD 3", "SR_14": 2.0, "Q_14": 5.0, "name": "SLATE BELT NURSING AND REHABILITATION CENTER", "SF_14": 2.0, "SF_15": 2.0, "cnty": "Northampton", "st": "PA", "Zip": 18013.0, "O_14": 3.0, "Q_15": 4.0, "O_15": 2.0, "city": "BANGOR", "beds": 126.0, "SR_15": 2.0}, {"Diff_star": 0.0, "addr": "728 NORRISTOWN ROAD", "SR_14": 5.0, "Q_14": 5.0, "name": "WILLOWBROOKE COURT-SPRING HOUS", "SF_14": 4.0, "SF_15": 4.0, "cnty": "Montgomery", "st": "PA", "Zip": 19002.0, "O_14": 5.0, "Q_15": 5.0, "O_15": 5.0, "city": "LOWER GWYNEDD", "beds": 96.0, "SR_15": 5.0}, {"Diff_star": 0.0, "addr": "735 SUSQUEHANNA ROAD", "SR_14": 5.0, "Q_14": 4.0, "name": "WILLOWBROOKE COURT-FORT WASH", "SF_14": 5.0, "SF_15": 5.0, "cnty": "Montgomery", "st": "PA", "Zip": 19034.0, "O_14": 5.0, "Q_15": 2.0, "O_15": 5.0, "city": "FORT WASHINGTON", "beds": 40.0, "SR_15": 5.0}, {"Diff_star": 0.0, "addr": "3250 STATE ROAD", "SR_14": 4.0, "Q_14": 4.0, "name": "ROCKHILL MENNONITE COMMUNITY", "SF_14": 4.0, "SF_15": 4.0, "cnty": "Bucks", "st": "PA", "Zip": 18960.0, "O_14": 4.0, "Q_15": 4.0, "O_15": 4.0, "city": "SELLERSVILLE", "beds": 90.0, "SR_15": 4.0}, {"Diff_star": -1.0, "addr": "11 MARTINS RUN", "SR_14": 2.0, "Q_14": 5.0, "name": "MEADOWS AT MARTINS RUN, THE", "SF_14": 5.0, "SF_15": 5.0, "cnty": "Delaware", "st": "PA", "Zip": 19063.0, "O_14": 4.0, "Q_15": 3.0, "O_15": 3.0, "city": "MEDIA", "beds": 60.0, "SR_15": 2.0}, {"Diff_star": -1.0, "addr": "44 DONALDSON ROAD", "SR_14": 4.0, "Q_14": 5.0, "name": "TREMONT HEALTH AND REHABILITAT", "SF_14": 1.0, "SF_15": 1.0, "cnty": "Schuylkill", "st": "PA", "Zip": 17981.0, "O_14": 4.0, "Q_15": 4.0, "O_15": 3.0, "city": "TREMONT", "beds": 180.0, "SR_15": 4.0}, {"Diff_star": -1.0, "addr": "227 SAND HILL ROAD", "SR_14": 2.0, "Q_14": 5.0, "name": "MOUNTAINVIEW SPECIALTY CARE CENTER", "SF_14": 2.0, "SF_15": 2.0, "cnty": "Westmoreland", "st": "PA", "Zip": 15601.0, "O_14": 3.0, "Q_15": 4.0, "O_15": 2.0, "city": "GREENSBURG", "beds": 137.0, "SR_15": 2.0}, {"Diff_star": -1.0, "addr": "10 VO TECH DRIVE", "SR_14": 3.0, "Q_14": 3.0, "name": "OAKWOOD HEIGHTS", "SF_14": 4.0, "SF_15": 3.0, "cnty": "Venango", "st": "PA", "Zip": 16301.0, "O_14": 4.0, "Q_15": 2.0, "O_15": 3.0, "city": "OIL CITY", "beds": 106.0, "SR_15": 3.0}, {"Diff_star": -1.0, "addr": "341 NORTH RAILROAD ST", "SR_14": 4.0, "Q_14": 3.0, "name": "PALMYRA HEALTH AND REHABILITATION CENTER", "SF_14": 2.0, "SF_15": 2.0, "cnty": "Lebanon", "st": "PA", "Zip": 17078.0, "O_14": 4.0, "Q_15": 1.0, "O_15": 3.0, "city": "PALMYRA", "beds": 39.0, "SR_15": 4.0}, {"Diff_star": 0.0, "addr": "660 NORTH BROAD STREET", "SR_14": 5.0, "Q_14": 4.0, "name": "ELM TERRACE GARDENS", "SF_14": 4.0, "SF_15": 4.0, "cnty": "Montgomery", "st": "PA", "Zip": 19446.0, "O_14": 5.0, "Q_15": 4.0, "O_15": 5.0, "city": "LANSDALE", "beds": 72.0, "SR_15": 5.0}, {"Diff_star": -1.0, "addr": "1390 CAMP HILL ROAD", "SR_14": 2.0, "Q_14": 4.0, "name": "DRESHER HILL HEALTH AND REHAB", "SF_14": 4.0, "SF_15": 3.0, "cnty": "Montgomery", "st": "PA", "Zip": 19034.0, "O_14": 3.0, "Q_15": 2.0, "O_15": 2.0, "city": "FORT WASHINGTON", "beds": 118.0, "SR_15": 2.0}, {"Diff_star": 0.0, "addr": "435 NORTH BROAD STREET", "SR_14": 5.0, "Q_14": 5.0, "name": "GROVE MANOR", "SF_14": 4.0, "SF_15": 3.0, "cnty": "Mercer", "st": "PA", "Zip": 16127.0, "O_14": 5.0, "Q_15": 5.0, "O_15": 5.0, "city": "GROVE CITY", "beds": 59.0, "SR_15": 5.0}, {"Diff_star": -1.0, "addr": "800 COURT ST, CIRCLE DRIVE", "SR_14": 1.0, "Q_14": 5.0, "name": "MANORCARE HEALTH SERVICES-SUNBURY", "SF_14": 1.0, "SF_15": 1.0, "cnty": "Northumberlnd", "st": "PA", "Zip": 17801.0, "O_14": 2.0, "Q_15": 4.0, "O_15": 1.0, "city": "SUNBURY", "beds": 126.0, "SR_15": 1.0}, {"Diff_star": 0.0, "addr": "301 VALLEY VIEW BOULEVARD", "SR_14": 1.0, "Q_14": 3.0, "name": "VALLEY VIEW HEALTH & REHABILITATION CENTER", "SF_14": 2.0, "SF_15": 2.0, "cnty": "Blair", "st": "PA", "Zip": 16602.0, "O_14": 1.0, "Q_15": 1.0, "O_15": 1.0, "city": "ALTOONA", "beds": 240.0, "SR_15": 1.0}, {"Diff_star": 0.0, "addr": "ALBERT EINSTEIN MED CTR", "SR_14": 4.0, "Q_14": 5.0, "name": "WILLOWCREST", "SF_14": 5.0, "SF_15": "", "cnty": "Philadelphia", "st": "PA", "Zip": 19141.0, "O_14": 5.0, "Q_15": 5.0, "O_15": 5.0, "city": "PHILADELPHIA", "beds": 52.0, "SR_15": 4.0}, {"Diff_star": 0.0, "addr": "999 WEST HARRISBURG PIKE", "SR_14": 1.0, "Q_14": 4.0, "name": "COURTYARD GARDENS NURSING AND REHAB CTR", "SF_14": 2.0, "SF_15": 2.0, "cnty": "Dauphin", "st": "PA", "Zip": 17057.0, "O_14": 1.0, "Q_15": 2.0, "O_15": 1.0, "city": "MIDDLETOWN", "beds": 102.0, "SR_15": 1.0}, {"Diff_star": 0.0, "addr": "283 EAST LANCASTER AVENUE", "SR_14": 1.0, "Q_14": 4.0, "name": "CHESTER VALLEY REHAB AND NURSING CENTER", "SF_14": 1.0, "SF_15": 1.0, "cnty": "Chester", "st": "PA", "Zip": 19355.0, "O_14": 1.0, "Q_15": 2.0, "O_15": 1.0, "city": "MALVERN", "beds": 184.0, "SR_15": 1.0}, {"Diff_star": 0.0, "addr": "200 VETERANS LANE", "SR_14": 1.0, "Q_14": 5.0, "name": "WESLEY ENHANCED LIVING - DOYLESTOWN", "SF_14": 4.0, "SF_15": 4.0, "cnty": "Bucks", "st": "PA", "Zip": 18901.0, "O_14": 2.0, "Q_15": 3.0, "O_15": 2.0, "city": "DOYLESTOWN", "beds": 60.0, "SR_15": 1.0}, {"Diff_star": 0.0, "addr": "350 MANOR AVENUE", "SR_14": 2.0, "Q_14": 4.0, "name": "LANGHORNE GARDENS REHAB AND NU", "SF_14": 3.0, "SF_15": 3.0, "cnty": "Bucks", "st": "PA", "Zip": 19047.0, "O_14": 2.0, "Q_15": 2.0, "O_15": 2.0, "city": "LANGHORNE", "beds": 120.0, "SR_15": 2.0}, {"Diff_star": 0.0, "addr": "715 HARBOR STREET", "SR_14": 3.0, "Q_14": 3.0, "name": "SILVER OAKS HEALTH AND REHABILITATION CENTER", "SF_14": 3.0, "SF_15": 3.0, "cnty": "Lawrence", "st": "PA", "Zip": 16101.0, "O_14": 3.0, "Q_15": 2.0, "O_15": 3.0, "city": "NEW CASTLE", "beds": 62.0, "SR_15": 3.0}, {"Diff_star": 0.0, "addr": "1401 IVY HILL ROAD", "SR_14": 4.0, "Q_14": 4.0, "name": "IVY HILL REHABILITATION AND NURSING CENTER", "SF_14": 1.0, "SF_15": 1.0, "cnty": "Philadelphia", "st": "PA", "Zip": 19150.0, "O_14": 3.0, "Q_15": 2.0, "O_15": 3.0, "city": "PHILADELPHIA", "beds": 145.0, "SR_15": 4.0}, {"Diff_star": 0.0, "addr": "200 JHF DRIVE", "SR_14": 1.0, "Q_14": 4.0, "name": "CHARLES M. MORRIS NURSING AND", "SF_14": 4.0, "SF_15": 4.0, "cnty": "Allegheny", "st": "PA", "Zip": 15217.0, "O_14": 2.0, "Q_15": 2.0, "O_15": 2.0, "city": "PITTSBURGH", "beds": 159.0, "SR_15": 1.0}, {"Diff_star": 0.0, "addr": "2029 WESTGATE DRIVE", "SR_14": 4.0, "Q_14": 5.0, "name": "MANORCARE HEALTH SERVICES-BETHLEHEM (2029)", "SF_14": 1.0, "SF_15": 1.0, "cnty": "Lehigh", "st": "PA", "Zip": 18017.0, "O_14": 4.0, "Q_15": 4.0, "O_15": 4.0, "city": "BETHLEHEM", "beds": 217.0, "SR_15": 5.0}, {"Diff_star": 0.0, "addr": "220 NEWRY STREET", "SR_14": 4.0, "Q_14": 5.0, "name": "PRESBYTERIAN HOMES-PRESBY", "SF_14": 4.0, "SF_15": 4.0, "cnty": "Blair", "st": "PA", "Zip": 16648.0, "O_14": 5.0, "Q_15": 5.0, "O_15": 5.0, "city": "HOLLIDAYSBURG", "beds": 67.0, "SR_15": 4.0}, {"Diff_star": -1.0, "addr": "100 DOGWOOD DRIVE", "SR_14": 3.0, "Q_14": 5.0, "name": "WINDY HILL VILLAGE OF PRESBYTERIAN HOMES", "SF_14": 2.0, "SF_15": 2.0, "cnty": "Centre", "st": "PA", "Zip": 16866.0, "O_14": 4.0, "Q_15": 4.0, "O_15": 3.0, "city": "PHILIPSBURG", "beds": 120.0, "SR_15": 3.0}, {"Diff_star": 0.0, "addr": "126 IRON BRIDGE ROAD", "SR_14": 5.0, "Q_14": 5.0, "name": "FAIR WINDS MANOR", "SF_14": 2.0, "SF_15": 2.0, "cnty": "Butler", "st": "PA", "Zip": 16055.0, "O_14": 5.0, "Q_15": 5.0, "O_15": 5.0, "city": "SARVER", "beds": 66.0, "SR_15": 5.0}, {"Diff_star": -3.0, "addr": "1018-20 OAK LANE AVENUE", "SR_14": 4.0, "Q_14": 4.0, "name": "MARWOOD REST HOME, INC", "SF_14": 4.0, "SF_15": 3.0, "cnty": "Montgomery", "st": "PA", "Zip": 19126.0, "O_14": 4.0, "Q_15": 4.0, "O_15": 1.0, "city": "PHILADELPHIA", "beds": 87.0, "SR_15": 1.0}, {"Diff_star": 0.0, "addr": "222 WEST EDISON AVENUE", "SR_14": 2.0, "Q_14": 4.0, "name": "EDISON MANOR NURSING & REHABILITATION CENTER", "SF_14": 3.0, "SF_15": 3.0, "cnty": "Lawrence", "st": "PA", "Zip": 16101.0, "O_14": 2.0, "Q_15": 4.0, "O_15": 2.0, "city": "NEW CASTLE", "beds": 118.0, "SR_15": 2.0}, {"Diff_star": -1.0, "addr": "7800 BUSTLETON AVENUE", "SR_14": 2.0, "Q_14": 5.0, "name": "GLENDALE UPTOWN HOME", "SF_14": 2.0, "SF_15": 2.0, "cnty": "Philadelphia", "st": "PA", "Zip": 19152.0, "O_14": 3.0, "Q_15": 4.0, "O_15": 2.0, "city": "PHILADELPHIA", "beds": 240.0, "SR_15": 2.0}, {"Diff_star": 0.0, "addr": "3876 SAXONBURG BOULEVARD", "SR_14": 1.0, "Q_14": 1.0, "name": "CONSULATE HEALTH CARE OF CHESWICK", "SF_14": 2.0, "SF_15": 2.0, "cnty": "Allegheny", "st": "PA", "Zip": 15024.0, "O_14": 1.0, "Q_15": 1.0, "O_15": 1.0, "city": "CHESWICK", "beds": 121.0, "SR_15": 1.0}, {"Diff_star": 0.0, "addr": "685 ANGELA DRIVE", "SR_14": 4.0, "Q_14": 5.0, "name": "SAINT ANNE HOME", "SF_14": 4.0, "SF_15": 3.0, "cnty": "Westmoreland", "st": "PA", "Zip": 15601.0, "O_14": 5.0, "Q_15": 5.0, "O_15": 5.0, "city": "GREENSBURG", "beds": 125.0, "SR_15": 4.0}, {"Diff_star": -1.0, "addr": "2600 NORTHAMPTON STREET", "SR_14": 4.0, "Q_14": 5.0, "name": "MANORCARE HEALTH SERVICES-EASTON", "SF_14": 1.0, "SF_15": 1.0, "cnty": "Northampton", "st": "PA", "Zip": 18045.0, "O_14": 4.0, "Q_15": 4.0, "O_15": 3.0, "city": "EASTON", "beds": 227.0, "SR_15": 4.0}, {"Diff_star": -1.0, "addr": "3000 WINDMILL ROAD", "SR_14": 4.0, "Q_14": 5.0, "name": "MANORCARE HEALTH SERVICES-SINKING SPRING", "SF_14": 1.0, "SF_15": 1.0, "cnty": "Berks", "st": "PA", "Zip": 19608.0, "O_14": 4.0, "Q_15": 4.0, "O_15": 3.0, "city": "SINKING SPRING", "beds": 214.0, "SR_15": 4.0}, {"Diff_star": 0.0, "addr": "185 SOUTH MOUNTAIN BOULEVARD", "SR_14": 2.0, "Q_14": 4.0, "name": "MOUNTAIN TOP SENIOR CARE AND REHAB CENTER", "SF_14": 2.0, "SF_15": 2.0, "cnty": "Luzerne", "st": "PA", "Zip": 18707.0, "O_14": 2.0, "Q_15": 2.0, "O_15": 2.0, "city": "MOUNTAIN TOP", "beds": 106.0, "SR_15": 2.0}, {"Diff_star": -1.0, "addr": "850 PAPERMILL ROAD", "SR_14": 2.0, "Q_14": 4.0, "name": "FAIRVIEW CARE CENTER OF PAPERMILL ROAD", "SF_14": 4.0, "SF_15": 3.0, "cnty": "Montgomery", "st": "PA", "Zip": 19038.0, "O_14": 3.0, "Q_15": 2.0, "O_15": 2.0, "city": "GLENSIDE", "beds": 129.0, "SR_15": 2.0}, {"Diff_star": 0.0, "addr": "100 NORMAN DRIVE", "SR_14": 5.0, "Q_14": 5.0, "name": "SHERWOOD OAKS", "SF_14": 5.0, "SF_15": 5.0, "cnty": "Butler", "st": "PA", "Zip": 16066.0, "O_14": 5.0, "Q_15": 5.0, "O_15": 5.0, "city": "CRANBERRY TOWNSHIP", "beds": 43.0, "SR_15": 5.0}, {"Diff_star": 0.0, "addr": "133 LAURELBROOKE DRIVE", "SR_14": 5.0, "Q_14": 4.0, "name": "DR ARTHUR CLIFTON MCKINLEY CTR", "SF_14": 2.0, "SF_15": 2.0, "cnty": "Jefferson", "st": "PA", "Zip": 15825.0, "O_14": 5.0, "Q_15": 2.0, "O_15": 5.0, "city": "BROOKVILLE", "beds": 90.0, "SR_15": 5.0}, {"Diff_star": 0.0, "addr": "66 CAREY SCHOOL ROAD", "SR_14": 2.0, "Q_14": 5.0, "name": "BETHLEN HM OF THE HUNGARIAN RF", "SF_14": 3.0, "SF_15": 3.0, "cnty": "Westmoreland", "st": "PA", "Zip": 15658.0, "O_14": 3.0, "Q_15": 5.0, "O_15": 3.0, "city": "LIGONIER", "beds": 96.0, "SR_15": 2.0}, {"Diff_star": 0.0, "addr": "915 DELAWARE STREET", "SR_14": 3.0, "Q_14": 4.0, "name": "FOREST CITY NURSING AND REHAB CENTER", "SF_14": 1.0, "SF_15": 1.0, "cnty": "Susquehanna", "st": "PA", "Zip": 18421.0, "O_14": 2.0, "Q_15": 2.0, "O_15": 2.0, "city": "FOREST CITY", "beds": 132.0, "SR_15": 3.0}, {"Diff_star": 0.0, "addr": "530 MACOBY STREET", "SR_14": 4.0, "Q_14": 5.0, "name": "PENNSBURG MANOR", "SF_14": 2.0, "SF_15": 2.0, "cnty": "Montgomery", "st": "PA", "Zip": 18073.0, "O_14": 5.0, "Q_15": 5.0, "O_15": 5.0, "city": "PENNSBURG", "beds": 120.0, "SR_15": 4.0}, {"Diff_star": 0.0, "addr": "101 E. WASHINGTON ST", "SR_14": 2.0, "Q_14": 5.0, "name": "SHENANDOAH MANOR NURSING CENTE", "SF_14": 1.0, "SF_15": 1.0, "cnty": "Schuylkill", "st": "PA", "Zip": 17976.0, "O_14": 2.0, "Q_15": 5.0, "O_15": 2.0, "city": "SHENANDOAH", "beds": 124.0, "SR_15": 2.0}, {"Diff_star": 0.0, "addr": "275 DOCK DRIVE", "SR_14": 4.0, "Q_14": 5.0, "name": "DOCK TERRACE", "SF_14": 4.0, "SF_15": 3.0, "cnty": "Montgomery", "st": "PA", "Zip": 19446.0, "O_14": 5.0, "Q_15": 5.0, "O_15": 5.0, "city": "LANSDALE", "beds": 72.0, "SR_15": 4.0}, {"Diff_star": 0.0, "addr": "2509 SOUTH FOURTH STREET", "SR_14": 5.0, "Q_14": 5.0, "name": "ST MONICA CENTER FOR REHABILITATION & HEALTHCARE", "SF_14": 3.0, "SF_15": 2.0, "cnty": "Philadelphia", "st": "PA", "Zip": 19148.0, "O_14": 5.0, "Q_15": 5.0, "O_15": 5.0, "city": "PHILADELPHIA", "beds": 180.0, "SR_15": 5.0}, {"Diff_star": -2.0, "addr": "1520 HARRISBURG PIKE", "SR_14": 3.0, "Q_14": 5.0, "name": "MENNONITE HOME, THE", "SF_14": 4.0, "SF_15": 3.0, "cnty": "Lancaster", "st": "PA", "Zip": 17601.0, "O_14": 5.0, "Q_15": 4.0, "O_15": 3.0, "city": "LANCASTER", "beds": 188.0, "SR_15": 3.0}, {"Diff_star": -1.0, "addr": "ONE MASONIC DRIVE", "SR_14": 2.0, "Q_14": 4.0, "name": "MASONIC VILLAGE AT ELIZABETHTOWN", "SF_14": 4.0, "SF_15": 3.0, "cnty": "Lancaster", "st": "PA", "Zip": 17022.0, "O_14": 3.0, "Q_15": 3.0, "O_15": 2.0, "city": "ELIZABETHTOWN", "beds": 453.0, "SR_15": 2.0}, {"Diff_star": 0.0, "addr": "2344 PERRYSVILLE AVENUE", "SR_14": 1.0, "Q_14": 3.0, "name": "REFORMED PRESBYTERIAN HOME", "SF_14": 3.0, "SF_15": 3.0, "cnty": "Allegheny", "st": "PA", "Zip": 15214.0, "O_14": 1.0, "Q_15": 2.0, "O_15": 1.0, "city": "PITTSBURGH", "beds": 58.0, "SR_15": 1.0}, {"Diff_star": 0.0, "addr": "1200 TEL HAI CIRCLE", "SR_14": 1.0, "Q_14": 5.0, "name": "TEL HAI RETIREMENT COMMUNITY", "SF_14": 4.0, "SF_15": 3.0, "cnty": "Chester", "st": "PA", "Zip": 19344.0, "O_14": 2.0, "Q_15": 5.0, "O_15": 2.0, "city": "HONEY BROOK", "beds": 139.0, "SR_15": 1.0}, {"Diff_star": 0.0, "addr": "429 SOUTH MARKET STREET", "SR_14": 2.0, "Q_14": 4.0, "name": "MORRISONS COVE HOME", "SF_14": 5.0, "SF_15": 5.0, "cnty": "Blair", "st": "PA", "Zip": 16662.0, "O_14": 3.0, "Q_15": 4.0, "O_15": 3.0, "city": "MARTINSBURG", "beds": 124.0, "SR_15": 2.0}, {"Diff_star": -1.0, "addr": "500 WEST HOSPITAL STREET", "SR_14": 1.0, "Q_14": 5.0, "name": "RIVERSIDE REHABILITATION AND NURSING CENTER", "SF_14": 1.0, "SF_15": 1.0, "cnty": "Lackawanna", "st": "PA", "Zip": 18517.0, "O_14": 2.0, "Q_15": 3.0, "O_15": 1.0, "city": "TAYLOR", "beds": 161.0, "SR_15": 1.0}, {"Diff_star": -1.0, "addr": "750 SCHOOLEY AVENUE", "SR_14": 2.0, "Q_14": 5.0, "name": "HIGHLAND MANOR REHABILITATION AND NURSING CENTER", "SF_14": 4.0, "SF_15": 2.0, "cnty": "Luzerne", "st": "PA", "Zip": 18643.0, "O_14": 4.0, "Q_15": 5.0, "O_15": 3.0, "city": "EXETER", "beds": 120.0, "SR_15": 2.0}, {"Diff_star": 0.0, "addr": "1000 MILL STREET", "SR_14": 1.0, "Q_14": 5.0, "name": "DUNMORE HEALTH CARE CENTER", "SF_14": 3.0, "SF_15": 3.0, "cnty": "Lackawanna", "st": "PA", "Zip": 18512.0, "O_14": 2.0, "Q_15": 4.0, "O_15": 2.0, "city": "DUNMORE", "beds": 92.0, "SR_15": 2.0}, {"Diff_star": 0.0, "addr": "1155 INDIAN SPRINGS ROAD", "SR_14": 2.0, "Q_14": 4.0, "name": "JULIA POUND CARE CENTER", "SF_14": 3.0, "SF_15": 3.0, "cnty": "Indiana", "st": "PA", "Zip": 15701.0, "O_14": 2.0, "Q_15": 2.0, "O_15": 2.0, "city": "INDIANA", "beds": 131.0, "SR_15": 2.0}, {"Diff_star": 0.0, "addr": "383 MOUNTAIN VIEW DRIVE", "SR_14": 4.0, "Q_14": 4.0, "name": "HILLSDALE REHABILITATION AND NURSING CENTER", "SF_14": 1.0, "SF_15": 1.0, "cnty": "Indiana", "st": "PA", "Zip": 15746.0, "O_14": 3.0, "Q_15": 2.0, "O_15": 3.0, "city": "HILLSDALE", "beds": 74.0, "SR_15": 4.0}, {"Diff_star": 0.0, "addr": "743 MAHONING STREET", "SR_14": 2.0, "Q_14": 4.0, "name": "MILTON NURSING AND REHABILITATION CENTER", "SF_14": 1.0, "SF_15": 1.0, "cnty": "Northumberlnd", "st": "PA", "Zip": 17847.0, "O_14": 1.0, "Q_15": 3.0, "O_15": 1.0, "city": "MILTON", "beds": 138.0, "SR_15": 2.0}, {"Diff_star": -2.0, "addr": "215 EAST WATER STREET", "SR_14": 2.0, "Q_14": 5.0, "name": "SUSQUEHANNA HEALTH SKILLED NURSING & REHABILITATIO", "SF_14": 4.0, "SF_15": 3.0, "cnty": "Lycoming", "st": "PA", "Zip": 17756.0, "O_14": 4.0, "Q_15": 4.0, "O_15": 2.0, "city": "MUNCY", "beds": 138.0, "SR_15": 2.0}, {"Diff_star": 0.0, "addr": "900 MANCHESTER ROAD", "SR_14": 2.0, "Q_14": 3.0, "name": "FAIRVIEW MANOR", "SF_14": 3.0, "SF_15": 3.0, "cnty": "Erie", "st": "PA", "Zip": 16415.0, "O_14": 2.0, "Q_15": 2.0, "O_15": 2.0, "city": "FAIRVIEW", "beds": 121.0, "SR_15": 2.0}, {"Diff_star": 0.0, "addr": "1320 MILL ROAD", "SR_14": 3.0, "Q_14": 5.0, "name": "BELLE HAVEN SKILLED NURSING AND REHABILITATION CEN", "SF_14": 3.0, "SF_15": 3.0, "cnty": "Bucks", "st": "PA", "Zip": 18951.0, "O_14": 4.0, "Q_15": 5.0, "O_15": 4.0, "city": "QUAKERTOWN", "beds": 59.0, "SR_15": 3.0}, {"Diff_star": 0.0, "addr": "400 LANCASTER AVENUE", "SR_14": 2.0, "Q_14": 4.0, "name": "DENVER HEALTH AND REHABILITATION CENTER", "SF_14": 3.0, "SF_15": 3.0, "cnty": "Lancaster", "st": "PA", "Zip": 17578.0, "O_14": 2.0, "Q_15": 3.0, "O_15": 2.0, "city": "STEVENS", "beds": 82.0, "SR_15": 2.0}, {"Diff_star": 0.0, "addr": "36 OLD HICKORY RIDGE RD", "SR_14": 4.0, "Q_14": 3.0, "name": "WASHINGTON COUNTY HEALTH CENTE", "SF_14": 4.0, "SF_15": 4.0, "cnty": "Washington", "st": "PA", "Zip": 15301.0, "O_14": 4.0, "Q_15": 2.0, "O_15": 4.0, "city": "WASHINGTON", "beds": 288.0, "SR_15": 4.0}, {"Diff_star": 0.0, "addr": "80 E. NORTHAMPTON STREET", "SR_14": 4.0, "Q_14": 4.0, "name": "ST LUKES VILLA", "SF_14": 2.0, "SF_15": 2.0, "cnty": "Luzerne", "st": "PA", "Zip": 18701.0, "O_14": 4.0, "Q_15": 4.0, "O_15": 4.0, "city": "WILKES BARRE", "beds": 50.0, "SR_15": 4.0}, {"Diff_star": -1.0, "addr": "403 HAZLE TOWNSHIP BOULEVARD", "SR_14": 1.0, "Q_14": 5.0, "name": "MOUNTAIN CITY NURSING AND REHABILITATION CENTER", "SF_14": 2.0, "SF_15": 2.0, "cnty": "Luzerne", "st": "PA", "Zip": 18202.0, "O_14": 2.0, "Q_15": 3.0, "O_15": 1.0, "city": "HAZLETON", "beds": 297.0, "SR_15": 1.0}, {"Diff_star": 0.0, "addr": "BUILDING #1", "SR_14": 5.0, "Q_14": 5.0, "name": "SOUTH MOUNTAIN RESTORATION CEN", "SF_14": 5.0, "SF_15": 5.0, "cnty": "Franklin", "st": "PA", "Zip": 17261.0, "O_14": 5.0, "Q_15": 5.0, "O_15": 5.0, "city": "SOUTH MOUNTAIN", "beds": 159.0, "SR_15": 5.0}, {"Diff_star": 0.0, "addr": "8850 BARNES LAKE ROAD", "SR_14": 2.0, "Q_14": 5.0, "name": "TRANSITIONS HEALTHCARE NORTH HUNTINGDON", "SF_14": 2.0, "SF_15": 2.0, "cnty": "Westmoreland", "st": "PA", "Zip": 15642.0, "O_14": 3.0, "Q_15": 5.0, "O_15": 3.0, "city": "NORTH HUNTINGDON", "beds": 120.0, "SR_15": 2.0}, {"Diff_star": -1.0, "addr": "15900 ROUTE 6", "SR_14": 1.0, "Q_14": 5.0, "name": "BRADFORD COUNTY MANOR", "SF_14": 2.0, "SF_15": 2.0, "cnty": "Bradford", "st": "PA", "Zip": 16947.0, "O_14": 2.0, "Q_15": 4.0, "O_15": 1.0, "city": "TROY", "beds": 200.0, "SR_15": 1.0}, {"Diff_star": -1.0, "addr": "4 EAST CENTER STREET", "SR_14": 2.0, "Q_14": 5.0, "name": "MEADOWS NURSING AND REHABILITATION CENTER", "SF_14": 4.0, "SF_15": 4.0, "cnty": "Luzerne", "st": "PA", "Zip": 18612.0, "O_14": 4.0, "Q_15": 4.0, "O_15": 3.0, "city": "DALLAS", "beds": 130.0, "SR_15": 2.0}, {"Diff_star": 0.0, "addr": "14714 PARK AVE EXTENSION", "SR_14": 1.0, "Q_14": 4.0, "name": "PARK AVENUE REHABILITATION AND NURSING CENTER", "SF_14": 1.0, "SF_15": 1.0, "cnty": "Crawford", "st": "PA", "Zip": 16335.0, "O_14": 1.0, "Q_15": 1.0, "O_15": 1.0, "city": "MEADVILLE", "beds": 173.0, "SR_15": 1.0}, {"Diff_star": -1.0, "addr": "2616 LOCUST GAP HIGHWAY", "SR_14": 1.0, "Q_14": 5.0, "name": "MOUNT CARMEL NURSING AND REHAB", "SF_14": 3.0, "SF_15": 3.0, "cnty": "Northumberlnd", "st": "PA", "Zip": 17851.0, "O_14": 2.0, "Q_15": 4.0, "O_15": 1.0, "city": "MT CARMEL", "beds": 121.0, "SR_15": 1.0}, {"Diff_star": 0.0, "addr": "125 SOUTH BROAD STREET", "SR_14": 2.0, "Q_14": 4.0, "name": "AUDUBON VILLA HEALTH AND REHABILITATION CENTER", "SF_14": 2.0, "SF_15": 2.0, "cnty": "Lancaster", "st": "PA", "Zip": 17543.0, "O_14": 2.0, "Q_15": 4.0, "O_15": 2.0, "city": "LITITZ", "beds": 42.0, "SR_15": 2.0}, {"Diff_star": 0.0, "addr": "800 HAUSMAN ROAD", "SR_14": 4.0, "Q_14": 4.0, "name": "LUTHER CREST NURSING FACILITY", "SF_14": 4.0, "SF_15": 3.0, "cnty": "Lehigh", "st": "PA", "Zip": 18104.0, "O_14": 4.0, "Q_15": 4.0, "O_15": 4.0, "city": "ALLENTOWN", "beds": 60.0, "SR_15": 4.0}, {"Diff_star": -1.0, "addr": "THIRD AVENUE EXTENSION", "SR_14": 4.0, "Q_14": 3.0, "name": "GOLDEN LIVINGCENTER-HAIDA", "SF_14": 2.0, "SF_15": 2.0, "cnty": "Cambria", "st": "PA", "Zip": 16646.0, "O_14": 4.0, "Q_15": 1.0, "O_15": 3.0, "city": "HASTINGS", "beds": 98.0, "SR_15": 4.0}, {"Diff_star": 0.0, "addr": "400 HILLCREST AVENUE", "SR_14": 1.0, "Q_14": 3.0, "name": "TRINITY LIVING CENTER", "SF_14": 3.0, "SF_15": 3.0, "cnty": "Mercer", "st": "PA", "Zip": 16127.0, "O_14": 1.0, "Q_15": 1.0, "O_15": 1.0, "city": "GROVE CITY", "beds": 109.0, "SR_15": 1.0}, {"Diff_star": -1.0, "addr": "1293 GRANDVIEW ROAD", "SR_14": 4.0, "Q_14": 5.0, "name": "GOLDEN LIVINGCENTER-OIL CITY", "SF_14": 2.0, "SF_15": 2.0, "cnty": "Venango", "st": "PA", "Zip": 16301.0, "O_14": 5.0, "Q_15": 2.0, "O_15": 4.0, "city": "OIL CITY", "beds": 95.0, "SR_15": 4.0}, {"Diff_star": -1.0, "addr": "2507 CHESTNUT STREET", "SR_14": 2.0, "Q_14": 5.0, "name": "THE BELVEDERE CENTER, GENESIS HEALTHCARE", "SF_14": "", "SF_15": "", "cnty": "Delaware", "st": "PA", "Zip": 19013.0, "O_14": 3.0, "Q_15": 4.0, "O_15": 2.0, "city": "CHESTER", "beds": 150.0, "SR_15": 2.0}, {"Diff_star": -1.0, "addr": "3590 WASHINGTON PIKE", "SR_14": 2.0, "Q_14": 5.0, "name": "COUNTRY MEADOWS OF SOUTH HILLS", "SF_14": 1.0, "SF_15": 1.0, "cnty": "Allegheny", "st": "PA", "Zip": 15017.0, "O_14": 2.0, "Q_15": 3.0, "O_15": 1.0, "city": "BRIDGEVILLE", "beds": 194.0, "SR_15": 2.0}, {"Diff_star": 0.0, "addr": "226 NORTH LINCOLN AVE", "SR_14": 4.0, "Q_14": 5.0, "name": "PICKERING MANOR HOME", "SF_14": 3.0, "SF_15": 3.0, "cnty": "Bucks", "st": "PA", "Zip": 18940.0, "O_14": 5.0, "Q_15": 5.0, "O_15": 5.0, "city": "NEWTOWN", "beds": 47.0, "SR_15": 4.0}, {"Diff_star": -1.0, "addr": "316 EAST MARKET STREET", "SR_14": 5.0, "Q_14": 3.0, "name": "BLOUGH HEALTH CARE CENTER INC", "SF_14": 4.0, "SF_15": 4.0, "cnty": "Northampton", "st": "PA", "Zip": 18018.0, "O_14": 5.0, "Q_15": 1.0, "O_15": 4.0, "city": "BETHLEHEM", "beds": 44.0, "SR_15": 5.0}, {"Diff_star": 0.0, "addr": "209 ROBERTS ROAD", "SR_14": 3.0, "Q_14": 5.0, "name": "WESLEY VILLAGE", "SF_14": 3.0, "SF_15": 3.0, "cnty": "Luzerne", "st": "PA", "Zip": 18640.0, "O_14": 4.0, "Q_15": 5.0, "O_15": 4.0, "city": "PITTSTON", "beds": 183.0, "SR_15": 3.0}, {"Diff_star": 0.0, "addr": "234 CORAOPOLIS ROAD", "SR_14": 2.0, "Q_14": 5.0, "name": "CARING HEIGHTS COMMUNITY CARE & REHAB CTR", "SF_14": 2.0, "SF_15": 2.0, "cnty": "Allegheny", "st": "PA", "Zip": 15108.0, "O_14": 3.0, "Q_15": 5.0, "O_15": 3.0, "city": "CORAOPOLIS", "beds": 120.0, "SR_15": 2.0}, {"Diff_star": -1.0, "addr": "119 INDUSTRIAL PARK ROAD", "SR_14": 3.0, "Q_14": 5.0, "name": "GREENSBURG CARE CENTER", "SF_14": 3.0, "SF_15": 3.0, "cnty": "Westmoreland", "st": "PA", "Zip": 15601.0, "O_14": 4.0, "Q_15": 3.0, "O_15": 3.0, "city": "GREENSBURG", "beds": 120.0, "SR_15": 3.0}, {"Diff_star": -1.0, "addr": "5827 MERIDIAN ROAD", "SR_14": 2.0, "Q_14": 5.0, "name": "ST BARNABAS NURSING HOME", "SF_14": 3.0, "SF_15": 3.0, "cnty": "Allegheny", "st": "PA", "Zip": 15044.0, "O_14": 3.0, "Q_15": 4.0, "O_15": 2.0, "city": "GIBSONIA", "beds": 172.0, "SR_15": 2.0}, {"Diff_star": 0.0, "addr": "110 MCINTYRE ROAD", "SR_14": 2.0, "Q_14": 4.0, "name": "JOHN J KANE REGIONAL CENTER-RO", "SF_14": 1.0, "SF_15": 1.0, "cnty": "Allegheny", "st": "PA", "Zip": 15237.0, "O_14": 1.0, "Q_15": 2.0, "O_15": 1.0, "city": "PITTSBURGH", "beds": 240.0, "SR_15": 2.0}, {"Diff_star": -1.0, "addr": "21158 PAINT BOULEVARD", "SR_14": 2.0, "Q_14": 5.0, "name": "GOLDEN LIVINGCENTER-SHIPPENVILLE", "SF_14": 3.0, "SF_15": 3.0, "cnty": "Clarion", "st": "PA", "Zip": 16254.0, "O_14": 3.0, "Q_15": 3.0, "O_15": 2.0, "city": "SHIPPENVILLE", "beds": 120.0, "SR_15": 2.0}, {"Diff_star": 0.0, "addr": "701 ROUSE AVENUE", "SR_14": 5.0, "Q_14": 5.0, "name": "ROUSE WARREN COUNTY HOME", "SF_14": 4.0, "SF_15": 3.0, "cnty": "Warren", "st": "PA", "Zip": 16371.0, "O_14": 5.0, "Q_15": 4.0, "O_15": 5.0, "city": "YOUNGSVILLE", "beds": 176.0, "SR_15": 5.0}, {"Diff_star": 0.0, "addr": "349 VOTECH DRIVE", "SR_14": 4.0, "Q_14": 5.0, "name": "GOLDEN LIVINGCENTER-RICHLAND", "SF_14": 2.0, "SF_15": 2.0, "cnty": "Cambria", "st": "PA", "Zip": 15904.0, "O_14": 5.0, "Q_15": 5.0, "O_15": 5.0, "city": "JOHNSTOWN", "beds": 97.0, "SR_15": 4.0}, {"Diff_star": 0.0, "addr": "1801 FOLKEMER CIRCLE", "SR_14": 1.0, "Q_14": 5.0, "name": "LUTHERAN NRSG AND REHAB CTR", "SF_14": 1.0, "SF_15": 1.0, "cnty": "York", "st": "PA", "Zip": 17404.0, "O_14": 2.0, "Q_15": 5.0, "O_15": 2.0, "city": "YORK", "beds": 104.0, "SR_15": 1.0}, {"Diff_star": 0.0, "addr": "201 FRANKLIN FARM LANE", "SR_14": 2.0, "Q_14": 4.0, "name": "FALLING SPRING NURSING AND REH", "SF_14": 1.0, "SF_15": 1.0, "cnty": "Franklin", "st": "PA", "Zip": 17201.0, "O_14": 1.0, "Q_15": 2.0, "O_15": 1.0, "city": "CHAMBERSBURG", "beds": 186.0, "SR_15": 2.0}, {"Diff_star": -1.0, "addr": "17350 OLD TURNPIKE ROAD", "SR_14": 3.0, "Q_14": 5.0, "name": "ROLLING HILLS MANOR", "SF_14": 2.0, "SF_15": 2.0, "cnty": "Union", "st": "PA", "Zip": 17845.0, "O_14": 4.0, "Q_15": 3.0, "O_15": 3.0, "city": "MILLMONT", "beds": 57.0, "SR_15": 3.0}, {"Diff_star": -2.0, "addr": "22 CREE DRIVE", "SR_14": 2.0, "Q_14": 5.0, "name": "SUSQUE VIEW HOME, INC", "SF_14": 4.0, "SF_15": 3.0, "cnty": "Clinton", "st": "PA", "Zip": 17745.0, "O_14": 4.0, "Q_15": 4.0, "O_15": 2.0, "city": "LOCK HAVEN", "beds": 146.0, "SR_15": 2.0}, {"Diff_star": 0.0, "addr": "300 KANE BOULEVARD", "SR_14": 2.0, "Q_14": 4.0, "name": "JOHN J KANE REGIONAL CENTER-SC", "SF_14": 3.0, "SF_15": 3.0, "cnty": "Allegheny", "st": "PA", "Zip": 15243.0, "O_14": 2.0, "Q_15": 2.0, "O_15": 2.0, "city": "PITTSBURGH", "beds": 314.0, "SR_15": 2.0}, {"Diff_star": 0.0, "addr": "411 1/2 W MAHONING STREET", "SR_14": 2.0, "Q_14": 4.0, "name": "MULBERRY SQUARE", "SF_14": 2.0, "SF_15": 2.0, "cnty": "Jefferson", "st": "PA", "Zip": 15767.0, "O_14": 2.0, "Q_15": 4.0, "O_15": 2.0, "city": "PUNXSUTAWNEY", "beds": 75.0, "SR_15": 2.0}, {"Diff_star": 0.0, "addr": "9108 STATE HIGHWAY 198", "SR_14": 2.0, "Q_14": 2.0, "name": "ROLLING FIELDS, INC", "SF_14": 2.0, "SF_15": 2.0, "cnty": "Crawford", "st": "PA", "Zip": 16406.0, "O_14": 2.0, "Q_15": 2.0, "O_15": 2.0, "city": "CONNEAUTVILLE", "beds": 181.0, "SR_15": 2.0}, {"Diff_star": -1.0, "addr": "951 BRODHEAD ROAD", "SR_14": 1.0, "Q_14": 5.0, "name": "WEST HILLS HEALTH AND REHABILITATION CENTER", "SF_14": 4.0, "SF_15": 3.0, "cnty": "Allegheny", "st": "PA", "Zip": 15108.0, "O_14": 2.0, "Q_15": 4.0, "O_15": 1.0, "city": "CORAOPOLIS", "beds": 150.0, "SR_15": 1.0}, {"Diff_star": -1.0, "addr": "701 LANSDALE AVENUE", "SR_14": 3.0, "Q_14": 5.0, "name": "ST MARY CENTER FOR REHABILITATION & HEALTHCARE", "SF_14": 4.0, "SF_15": 4.0, "cnty": "Montgomery", "st": "PA", "Zip": 19446.0, "O_14": 5.0, "Q_15": 4.0, "O_15": 4.0, "city": "LANSDALE", "beds": 120.0, "SR_15": 3.0}, {"Diff_star": -1.0, "addr": "49 WOODBINE LANE", "SR_14": 3.0, "Q_14": 5.0, "name": "GRANDVIEW HEALTH HOMES, INC", "SF_14": 1.0, "SF_15": 1.0, "cnty": "Montour", "st": "PA", "Zip": 17821.0, "O_14": 3.0, "Q_15": 4.0, "O_15": 2.0, "city": "DANVILLE", "beds": 172.0, "SR_15": 3.0}, {"Diff_star": -1.0, "addr": "107 CURRY ROAD", "SR_14": 3.0, "Q_14": 5.0, "name": "ROLLING MEADOWS", "SF_14": 3.0, "SF_15": 3.0, "cnty": "Greene", "st": "PA", "Zip": 15370.0, "O_14": 4.0, "Q_15": 4.0, "O_15": 3.0, "city": "WAYNESBURG", "beds": 121.0, "SR_15": 3.0}, {"Diff_star": 0.0, "addr": "2500 ADAMS AVENUE", "SR_14": 2.0, "Q_14": 4.0, "name": "HOLY FAMILY RESIDENCE", "SF_14": 4.0, "SF_15": 3.0, "cnty": "Lackawanna", "st": "PA", "Zip": 18509.0, "O_14": 3.0, "Q_15": 5.0, "O_15": 3.0, "city": "SCRANTON", "beds": 54.0, "SR_15": 2.0}, {"Diff_star": 0.0, "addr": "417 ROUTE 28", "SR_14": 3.0, "Q_14": 4.0, "name": "JEFFERSON MANOR HEALTH CENTER", "SF_14": 3.0, "SF_15": 3.0, "cnty": "Jefferson", "st": "PA", "Zip": 15825.0, "O_14": 3.0, "Q_15": 4.0, "O_15": 3.0, "city": "BROOKVILLE", "beds": 160.0, "SR_15": 3.0}, {"Diff_star": 1.0, "addr": "21 FAIRLANE ROAD", "SR_14": 2.0, "Q_14": 4.0, "name": "GOLDEN LIVINGCENTER-READING", "SF_14": 2.0, "SF_15": 2.0, "cnty": "Berks", "st": "PA", "Zip": 19606.0, "O_14": 2.0, "Q_15": 2.0, "O_15": 3.0, "city": "READING", "beds": 124.0, "SR_15": 3.0}, {"Diff_star": 0.0, "addr": "4712 CHESTER AVENUE", "SR_14": 5.0, "Q_14": 5.0, "name": "RENAISSANCE HEALTHCARE & REHABILITATION CENTER", "SF_14": 2.0, "SF_15": 2.0, "cnty": "Philadelphia", "st": "PA", "Zip": 19143.0, "O_14": 5.0, "Q_15": 4.0, "O_15": 5.0, "city": "PHILADELPHIA", "beds": 123.0, "SR_15": 5.0}, {"Diff_star": 0.0, "addr": "520 WEST MAIN STREET", "SR_14": 3.0, "Q_14": 4.0, "name": "MT MACRINA MANOR", "SF_14": 1.0, "SF_15": 1.0, "cnty": "Fayette", "st": "PA", "Zip": 15401.0, "O_14": 2.0, "Q_15": 2.0, "O_15": 2.0, "city": "UNIONTOWN", "beds": 139.0, "SR_15": 3.0}, {"Diff_star": 0.0, "addr": "722 FURNACE HILL PIKE", "SR_14": 3.0, "Q_14": 5.0, "name": "UNITED ZION RETIREMENT COMMUNI", "SF_14": 4.0, "SF_15": 4.0, "cnty": "Lancaster", "st": "PA", "Zip": 17543.0, "O_14": 5.0, "Q_15": 5.0, "O_15": 5.0, "city": "LITITZ", "beds": 59.0, "SR_15": 3.0}, {"Diff_star": 0.0, "addr": "1277 COUNTRY CLUB ROAD", "SR_14": 1.0, "Q_14": 2.0, "name": "HAVENCREST NURSING CENTER", "SF_14": 3.0, "SF_15": 1.0, "cnty": "Washington", "st": "PA", "Zip": 15063.0, "O_14": 1.0, "Q_15": 1.0, "O_15": 1.0, "city": "MONONGAHELA", "beds": 48.0, "SR_15": 1.0}, {"Diff_star": 0.0, "addr": "207 WEST SUMMIT AVENUE", "SR_14": 4.0, "Q_14": 5.0, "name": "SOUDERTON MENNONITE HOMES", "SF_14": 5.0, "SF_15": 4.0, "cnty": "Montgomery", "st": "PA", "Zip": 18964.0, "O_14": 5.0, "Q_15": 5.0, "O_15": 5.0, "city": "SOUDERTON", "beds": 71.0, "SR_15": 3.0}, {"Diff_star": 0.0, "addr": "1711 EAST BROAD STREET", "SR_14": 1.0, "Q_14": 4.0, "name": "MANOR AT ST LUKE VILLAGE,THE", "SF_14": 1.0, "SF_15": 1.0, "cnty": "Luzerne", "st": "PA", "Zip": 18201.0, "O_14": 1.0, "Q_15": 3.0, "O_15": 1.0, "city": "HAZLETON", "beds": 104.0, "SR_15": 1.0}, {"Diff_star": -1.0, "addr": "5300 CHESTER AVENUE", "SR_14": 5.0, "Q_14": 3.0, "name": "HOLY FAMILY HOME", "SF_14": 5.0, "SF_15": 5.0, "cnty": "Philadelphia", "st": "PA", "Zip": 19143.0, "O_14": 5.0, "Q_15": 1.0, "O_15": 4.0, "city": "PHILADELPHIA", "beds": 45.0, "SR_15": 5.0}, {"Diff_star": 0.0, "addr": "1000 MASONIC DRIVE", "SR_14": 4.0, "Q_14": 5.0, "name": "MASONIC VILLAGE AT SEWICKLEY", "SF_14": 4.0, "SF_15": 4.0, "cnty": "Allegheny", "st": "PA", "Zip": 15143.0, "O_14": 5.0, "Q_15": 5.0, "O_15": 5.0, "city": "SEWICKLEY", "beds": 128.0, "SR_15": 4.0}, {"Diff_star": -1.0, "addr": "100 NINTH STREET", "SR_14": 1.0, "Q_14": 3.0, "name": "JOHN J KANE REGIONAL CENTER-MC", "SF_14": 4.0, "SF_15": 4.0, "cnty": "Allegheny", "st": "PA", "Zip": 15132.0, "O_14": 2.0, "Q_15": 1.0, "O_15": 1.0, "city": "MCKEESPORT", "beds": 360.0, "SR_15": 1.0}, {"Diff_star": -1.0, "addr": "955 RIVERMONT DRIVE", "SR_14": 3.0, "Q_14": 4.0, "name": "JOHN J KANE REGIONAL CENTER-GL", "SF_14": 3.0, "SF_15": 3.0, "cnty": "Allegheny", "st": "PA", "Zip": 15207.0, "O_14": 3.0, "Q_15": 1.0, "O_15": 2.0, "city": "PITTSBURGH", "beds": 210.0, "SR_15": 3.0}, {"Diff_star": 0.0, "addr": "81 STURGES ROAD", "SR_14": 2.0, "Q_14": 5.0, "name": "MID-VALLEY HEALTH CARE CENTER", "SF_14": 2.0, "SF_15": 2.0, "cnty": "Lackawanna", "st": "PA", "Zip": 18452.0, "O_14": 3.0, "Q_15": 5.0, "O_15": 3.0, "city": "PECKVILLE", "beds": 38.0, "SR_15": 2.0}, {"Diff_star": 0.0, "addr": "419 WATERFORD STREET", "SR_14": 1.0, "Q_14": 2.0, "name": "EDINBORO MANOR", "SF_14": 3.0, "SF_15": 3.0, "cnty": "Erie", "st": "PA", "Zip": 16412.0, "O_14": 1.0, "Q_15": 1.0, "O_15": 1.0, "city": "EDINBORO", "beds": 121.0, "SR_15": 1.0}, {"Diff_star": 0.0, "addr": "827 GEORGES STATION ROAD", "SR_14": 3.0, "Q_14": 5.0, "name": "OAK HILL NURSING AND REHAB CEN", "SF_14": 5.0, "SF_15": 5.0, "cnty": "Westmoreland", "st": "PA", "Zip": 15601.0, "O_14": 5.0, "Q_15": 5.0, "O_15": 5.0, "city": "GREENSBURG", "beds": 48.0, "SR_15": 3.0}, {"Diff_star": 0.0, "addr": "1075 OLD HARRISBURG ROAD", "SR_14": 1.0, "Q_14": 5.0, "name": "GETTYSBURG LUTHERAN NURSING REHAB CTR,THE", "SF_14": 4.0, "SF_15": 3.0, "cnty": "Adams", "st": "PA", "Zip": 17325.0, "O_14": 2.0, "Q_15": 5.0, "O_15": 2.0, "city": "GETTYSBURG", "beds": 100.0, "SR_15": 1.0}, {"Diff_star": 0.0, "addr": "800 MAPLE AVENUE", "SR_14": 5.0, "Q_14": 5.0, "name": "PETER BECKER COMMUNITY", "SF_14": 4.0, "SF_15": 4.0, "cnty": "Montgomery", "st": "PA", "Zip": 19438.0, "O_14": 5.0, "Q_15": 5.0, "O_15": 5.0, "city": "HARLEYSVILLE", "beds": 72.0, "SR_15": 5.0}, {"Diff_star": -1.0, "addr": "682 PLEASANT DRIVE", "SR_14": 2.0, "Q_14": 5.0, "name": "WARREN MANOR", "SF_14": 3.0, "SF_15": 3.0, "cnty": "Warren", "st": "PA", "Zip": 16365.0, "O_14": 3.0, "Q_15": 3.0, "O_15": 2.0, "city": "WARREN", "beds": 121.0, "SR_15": 2.0}, {"Diff_star": 0.0, "addr": "395 EAST MIDDLE ROAD", "SR_14": 1.0, "Q_14": 5.0, "name": "BIRCHWOOD NURSING AND REHABILITATION CENTER", "SF_14": 1.0, "SF_15": 1.0, "cnty": "Luzerne", "st": "PA", "Zip": 18634.0, "O_14": 2.0, "Q_15": 5.0, "O_15": 2.0, "city": "NANTICOKE", "beds": 121.0, "SR_15": 1.0}, {"Diff_star": -1.0, "addr": "30 FOURTH AVENUE", "SR_14": 4.0, "Q_14": 1.0, "name": "RIDGEVIEW ELDER CARE REHAB", "SF_14": 1.0, "SF_15": 1.0, "cnty": "Clearfield", "st": "PA", "Zip": 16833.0, "O_14": 2.0, "Q_15": 1.0, "O_15": 1.0, "city": "CURWENSVILLE", "beds": 131.0, "SR_15": 3.0}, {"Diff_star": -1.0, "addr": "2400 MCGINLEY ROAD", "SR_14": 2.0, "Q_14": 3.0, "name": "WOODHAVEN CARE CENTER", "SF_14": 3.0, "SF_15": 3.0, "cnty": "Allegheny", "st": "PA", "Zip": 15146.0, "O_14": 2.0, "Q_15": 1.0, "O_15": 1.0, "city": "MONROEVILLE", "beds": 120.0, "SR_15": 2.0}, {"Diff_star": 0.0, "addr": "477 BONNIEVILLE ROAD", "SR_14": 2.0, "Q_14": 5.0, "name": "BONHAM NURSING CENTER", "SF_14": 2.0, "SF_15": 2.0, "cnty": "Columbia", "st": "PA", "Zip": 17878.0, "O_14": 3.0, "Q_15": 5.0, "O_15": 3.0, "city": "STILLWATER", "beds": 77.0, "SR_15": 2.0}, {"Diff_star": 0.0, "addr": "2849 BIG ROAD", "SR_14": 5.0, "Q_14": 5.0, "name": "FREDERICK LIVING - CEDARWOOD", "SF_14": 4.0, "SF_15": 4.0, "cnty": "Montgomery", "st": "PA", "Zip": 19435.0, "O_14": 5.0, "Q_15": 5.0, "O_15": 5.0, "city": "FREDERICK", "beds": 61.0, "SR_15": 5.0}, {"Diff_star": -3.0, "addr": "1000 CLAREMONT ROAD", "SR_14": 3.0, "Q_14": 5.0, "name": "CLAREMONT NRC OF CUMBERLAND CO", "SF_14": 4.0, "SF_15": 3.0, "cnty": "Cumberland", "st": "PA", "Zip": 17013.0, "O_14": 5.0, "Q_15": 4.0, "O_15": 2.0, "city": "CARLISLE", "beds": 290.0, "SR_15": 2.0}, {"Diff_star": -1.0, "addr": "201 HOSPITAL DRIVE", "SR_14": 4.0, "Q_14": 4.0, "name": "GOLDEN LIVINGCENTER-MEYERSDALE", "SF_14": 2.0, "SF_15": 1.0, "cnty": "Somerset", "st": "PA", "Zip": 15552.0, "O_14": 4.0, "Q_15": 2.0, "O_15": 3.0, "city": "MEYERSDALE", "beds": 99.0, "SR_15": 4.0}, {"Diff_star": 0.0, "addr": "2 FRANKLIN TOWN BLVD", "SR_14": 4.0, "Q_14": 4.0, "name": "SPRINGS AT THE WATERMARK, THE", "SF_14": 4.0, "SF_15": 3.0, "cnty": "Philadelphia", "st": "PA", "Zip": 19103.0, "O_14": 4.0, "Q_15": 3.0, "O_15": 4.0, "city": "PHILADELPHIA", "beds": 109.0, "SR_15": 4.0}, {"Diff_star": 0.0, "addr": "8000 TWIN SILO DRIVE", "SR_14": 4.0, "Q_14": 5.0, "name": "WILLOWBROOKE COURT-NORMANDY", "SF_14": 4.0, "SF_15": 4.0, "cnty": "Montgomery", "st": "PA", "Zip": 19422.0, "O_14": 5.0, "Q_15": 5.0, "O_15": 5.0, "city": "BLUE BELL", "beds": 73.0, "SR_15": 4.0}, {"Diff_star": -1.0, "addr": "2170 RHINE STREET", "SR_14": 2.0, "Q_14": 5.0, "name": "MANORCARE HEALTH SERVICES-NORTHSIDE", "SF_14": 2.0, "SF_15": 2.0, "cnty": "Allegheny", "st": "PA", "Zip": 15212.0, "O_14": 3.0, "Q_15": 3.0, "O_15": 2.0, "city": "PITTSBURGH", "beds": 100.0, "SR_15": 2.0}, {"Diff_star": 0.0, "addr": "4142 MONROEVILLE BLVD", "SR_14": 1.0, "Q_14": 3.0, "name": "GOLDEN LIVINGCENTER-MONROEVILLE", "SF_14": 2.0, "SF_15": 2.0, "cnty": "Allegheny", "st": "PA", "Zip": 15146.0, "O_14": 1.0, "Q_15": 1.0, "O_15": 1.0, "city": "MONROEVILLE", "beds": 120.0, "SR_15": 2.0}, {"Diff_star": -1.0, "addr": "835 SOUTH MAIN STREET", "SR_14": 3.0, "Q_14": 5.0, "name": "SOUTHMONT OF PRESBYTERIAN SENIORCARE", "SF_14": 3.0, "SF_15": 3.0, "cnty": "Washington", "st": "PA", "Zip": 15301.0, "O_14": 4.0, "Q_15": 4.0, "O_15": 3.0, "city": "WASHINGTON", "beds": 155.0, "SR_15": 3.0}, {"Diff_star": -1.0, "addr": "149 WEST 22ND STREET", "SR_14": 1.0, "Q_14": 5.0, "name": "VILLAGE AT LUTHER SQUARE, THE", "SF_14": 1.0, "SF_15": 1.0, "cnty": "Erie", "st": "PA", "Zip": 16502.0, "O_14": 2.0, "Q_15": 3.0, "O_15": 1.0, "city": "ERIE", "beds": 110.0, "SR_15": 1.0}, {"Diff_star": 0.0, "addr": "129 FRANKLIN AVENUE", "SR_14": 4.0, "Q_14": 4.0, "name": "GOLDEN LIVINGCENTER-UNIONTOWN", "SF_14": 2.0, "SF_15": 2.0, "cnty": "Fayette", "st": "PA", "Zip": 15401.0, "O_14": 4.0, "Q_15": 3.0, "O_15": 4.0, "city": "UNIONTOWN", "beds": 120.0, "SR_15": 4.0}, {"Diff_star": 0.0, "addr": "300 CENTER AVENUE", "SR_14": 2.0, "Q_14": 4.0, "name": "GOLDEN LIVINGCENTER-WAYNESBURG", "SF_14": 2.0, "SF_15": 2.0, "cnty": "Greene", "st": "PA", "Zip": 15370.0, "O_14": 2.0, "Q_15": 2.0, "O_15": 2.0, "city": "WAYNESBURG", "beds": 111.0, "SR_15": 2.0}, {"Diff_star": 0.0, "addr": "1000 WEST SOUTH STREET", "SR_14": 2.0, "Q_14": 5.0, "name": "SARAH A TODD MEMORIAL HOME", "SF_14": 4.0, "SF_15": 4.0, "cnty": "Cumberland", "st": "PA", "Zip": 17013.0, "O_14": 4.0, "Q_15": 5.0, "O_15": 4.0, "city": "CARLISLE", "beds": 117.0, "SR_15": 2.0}, {"Diff_star": 0.0, "addr": "1900 RAVINE ROAD", "SR_14": 1.0, "Q_14": 5.0, "name": "WILLIAMSPORT HOME, THE", "SF_14": 4.0, "SF_15": 4.0, "cnty": "Lycoming", "st": "PA", "Zip": 17701.0, "O_14": 2.0, "Q_15": 5.0, "O_15": 2.0, "city": "WILLIAMSPORT", "beds": 129.0, "SR_15": 1.0}, {"Diff_star": -1.0, "addr": "1198 W. WYLIE AVENUE", "SR_14": 4.0, "Q_14": 4.0, "name": "KADE HEALTH AND REHABILITATION CENTER", "SF_14": 2.0, "SF_15": 2.0, "cnty": "Washington", "st": "PA", "Zip": 15301.0, "O_14": 4.0, "Q_15": 1.0, "O_15": 3.0, "city": "WASHINGTON", "beds": 74.0, "SR_15": 4.0}, {"Diff_star": 0.0, "addr": "120 TREXLER AVENUE", "SR_14": 4.0, "Q_14": 5.0, "name": "KUTZTOWN MANOR", "SF_14": 2.0, "SF_15": 2.0, "cnty": "Berks", "st": "PA", "Zip": 19530.0, "O_14": 5.0, "Q_15": 5.0, "O_15": 5.0, "city": "KUTZTOWN", "beds": 140.0, "SR_15": 4.0}, {"Diff_star": 0.0, "addr": "200 BELLANN COURT", "SR_14": 5.0, "Q_14": 4.0, "name": "COUNTRYSIDE CHRISTIAN COMMUNITY", "SF_14": 4.0, "SF_15": 4.0, "cnty": "Lebanon", "st": "PA", "Zip": 17003.0, "O_14": 5.0, "Q_15": 3.0, "O_15": 5.0, "city": "ANNVILLE", "beds": 33.0, "SR_15": 5.0}, {"Diff_star": -2.0, "addr": "900 THIRD AVE", "SR_14": 3.0, "Q_14": 3.0, "name": "PROVIDENCE CARE CENTER", "SF_14": 4.0, "SF_15": 3.0, "cnty": "Beaver", "st": "PA", "Zip": 15010.0, "O_14": 4.0, "Q_15": 1.0, "O_15": 2.0, "city": "BEAVER FALLS", "beds": 180.0, "SR_15": 3.0}, {"Diff_star": -1.0, "addr": "918 MAIN STREET", "SR_14": 1.0, "Q_14": 5.0, "name": "HIGHLANDS CARE CENTER, THE", "SF_14": 1.0, "SF_15": 1.0, "cnty": "Sullivan", "st": "PA", "Zip": 18626.0, "O_14": 2.0, "Q_15": 3.0, "O_15": 1.0, "city": "LAPORTE", "beds": 120.0, "SR_15": 1.0}, {"Diff_star": 0.0, "addr": "134 MARWOOD ROAD", "SR_14": 4.0, "Q_14": 5.0, "name": "CONCORDIA LUTHERAN HEALTH AND HUMAN CARE", "SF_14": 3.0, "SF_15": 3.0, "cnty": "Butler", "st": "PA", "Zip": 16023.0, "O_14": 5.0, "Q_15": 5.0, "O_15": 5.0, "city": "CABOT", "beds": 142.0, "SR_15": 4.0}, {"Diff_star": 0.0, "addr": "115 SOUTH PROVIDENCE ROAD", "SR_14": 1.0, "Q_14": 5.0, "name": "MANORCARE HEALTH SERVICES - WALLINGFORD", "SF_14": 2.0, "SF_15": 2.0, "cnty": "Delaware", "st": "PA", "Zip": 19086.0, "O_14": 2.0, "Q_15": 5.0, "O_15": 2.0, "city": "WALLINGFORD", "beds": 198.0, "SR_15": 1.0}, {"Diff_star": 0.0, "addr": "4401 HAVERFORD AVENUE", "SR_14": 5.0, "Q_14": 4.0, "name": "ST IGNATIUS NURSING & REHAB CENTER", "SF_14": 3.0, "SF_15": 3.0, "cnty": "Philadelphia", "st": "PA", "Zip": 19104.0, "O_14": 5.0, "Q_15": 3.0, "O_15": 5.0, "city": "PHILADELPHIA", "beds": 176.0, "SR_15": 5.0}, {"Diff_star": -1.0, "addr": "7101 OLD YORK ROAD", "SR_14": 4.0, "Q_14": 5.0, "name": "YORK NURSING AND REHABILITATION CENTER", "SF_14": 1.0, "SF_15": 1.0, "cnty": "Montgomery", "st": "PA", "Zip": 19126.0, "O_14": 4.0, "Q_15": 4.0, "O_15": 3.0, "city": "OAK LANE", "beds": 240.0, "SR_15": 4.0}, {"Diff_star": 0.0, "addr": "1290 BOYCE ROAD", "SR_14": 4.0, "Q_14": 4.0, "name": "FRIENDSHIP VILLAGE OF SOUTH HI", "SF_14": 4.0, "SF_15": 3.0, "cnty": "Allegheny", "st": "PA", "Zip": 15241.0, "O_14": 4.0, "Q_15": 4.0, "O_15": 4.0, "city": "PITTSBURGH", "beds": 89.0, "SR_15": 4.0}, {"Diff_star": -1.0, "addr": "463 SPROUL ROAD", "SR_14": 4.0, "Q_14": 4.0, "name": "HARLEE MANOR", "SF_14": 5.0, "SF_15": 5.0, "cnty": "Delaware", "st": "PA", "Zip": 19064.0, "O_14": 5.0, "Q_15": 1.0, "O_15": 4.0, "city": "SPRINGFIELD", "beds": 100.0, "SR_15": 4.0}, {"Diff_star": -1.0, "addr": "440 NORTH RIVER STREET", "SR_14": 1.0, "Q_14": 5.0, "name": "RIVERSTREET MANOR", "SF_14": 2.0, "SF_15": 2.0, "cnty": "Luzerne", "st": "PA", "Zip": 18702.0, "O_14": 2.0, "Q_15": 4.0, "O_15": 1.0, "city": "WILKES-BARRE", "beds": 122.0, "SR_15": 1.0}, {"Diff_star": 0.0, "addr": "90 HUMBERT LANE", "SR_14": 2.0, "Q_14": 1.0, "name": "TRANSITIONS HEALTHCARE WASHINGTON PA", "SF_14": 1.0, "SF_15": 1.0, "cnty": "Washington", "st": "PA", "Zip": 15301.0, "O_14": 1.0, "Q_15": 1.0, "O_15": 1.0, "city": "WASHINGTON", "beds": 120.0, "SR_15": 2.0}, {"Diff_star": 0.0, "addr": "2200 HILL CHURCH-HOUSTON ROAD", "SR_14": 2.0, "Q_14": 4.0, "name": "GREENERY SPECIALTY CARE CENTER (OF CANONSBURG)", "SF_14": 2.0, "SF_15": 2.0, "cnty": "Washington", "st": "PA", "Zip": 15317.0, "O_14": 2.0, "Q_15": 2.0, "O_15": 2.0, "city": "CANONSBURG", "beds": 140.0, "SR_15": 2.0}, {"Diff_star": -1.0, "addr": "18889 CROGHAN PIKE", "SR_14": 3.0, "Q_14": 5.0, "name": "WOODLAND RETIREMENT COMMUNITY", "SF_14": 3.0, "SF_15": 3.0, "cnty": "Huntingdon", "st": "PA", "Zip": 17243.0, "O_14": 4.0, "Q_15": 4.0, "O_15": 3.0, "city": "ORBISONIA", "beds": 125.0, "SR_15": 3.0}, {"Diff_star": -1.0, "addr": "1200 BRAUN ROAD", "SR_14": 2.0, "Q_14": 5.0, "name": "MEADOWCREST NURSING CENTER", "SF_14": 3.0, "SF_15": 3.0, "cnty": "Allegheny", "st": "PA", "Zip": 15102.0, "O_14": 3.0, "Q_15": 4.0, "O_15": 2.0, "city": "BETHEL PARK", "beds": 50.0, "SR_15": 2.0}, {"Diff_star": -1.0, "addr": "1028 EAST SECOND STREET", "SR_14": 3.0, "Q_14": 5.0, "name": "SWEDEN VALLEY MANOR", "SF_14": 3.0, "SF_15": 3.0, "cnty": "Potter", "st": "PA", "Zip": 16915.0, "O_14": 4.0, "Q_15": 3.0, "O_15": 3.0, "city": "COUDERSPORT", "beds": 121.0, "SR_15": 3.0}, {"Diff_star": 0.0, "addr": "50 LANG MAID LANE", "SR_14": 2.0, "Q_14": 2.0, "name": "BRADFORD MANOR", "SF_14": 1.0, "SF_15": 1.0, "cnty": "Mc Kean", "st": "PA", "Zip": 16701.0, "O_14": 1.0, "Q_15": 1.0, "O_15": 1.0, "city": "BRADFORD", "beds": 115.0, "SR_15": 2.0}, {"Diff_star": -1.0, "addr": "100 EDELLA ROAD", "SR_14": 2.0, "Q_14": 5.0, "name": "ABINGTON MANOR", "SF_14": 4.0, "SF_15": 3.0, "cnty": "Lackawanna", "st": "PA", "Zip": 18411.0, "O_14": 4.0, "Q_15": 5.0, "O_15": 3.0, "city": "CLARKS SUMMIT", "beds": 120.0, "SR_15": 2.0}, {"Diff_star": 0.0, "addr": "1515 WAYNE AVENUE", "SR_14": 2.0, "Q_14": 4.0, "name": "BEACON RIDGE, A CHOICE COMM", "SF_14": 2.0, "SF_15": 2.0, "cnty": "Indiana", "st": "PA", "Zip": 15701.0, "O_14": 2.0, "Q_15": 3.0, "O_15": 2.0, "city": "INDIANA", "beds": 118.0, "SR_15": 2.0}, {"Diff_star": -1.0, "addr": "8580 VERREE ROAD", "SR_14": 3.0, "Q_14": 5.0, "name": "LAFAYETTE-REDEEMER, THE", "SF_14": 4.0, "SF_15": 4.0, "cnty": "Philadelphia", "st": "PA", "Zip": 19111.0, "O_14": 5.0, "Q_15": 4.0, "O_15": 4.0, "city": "PHILADELPHIA", "beds": 120.0, "SR_15": 3.0}, {"Diff_star": -2.0, "addr": "1118 WOODWARD DRIVE", "SR_14": 4.0, "Q_14": 5.0, "name": "HEMPFIELD MANOR", "SF_14": 3.0, "SF_15": 3.0, "cnty": "Westmoreland", "st": "PA", "Zip": 15601.0, "O_14": 5.0, "Q_15": 4.0, "O_15": 3.0, "city": "GREENSBURG", "beds": 120.0, "SR_15": 3.0}, {"Diff_star": 0.0, "addr": "101 EAST MOUNTAIN DRIVE", "SR_14": 2.0, "Q_14": 5.0, "name": "GOLDEN LIVINGCENTER-EAST MOUNTAIN", "SF_14": 2.0, "SF_15": 2.0, "cnty": "Luzerne", "st": "PA", "Zip": 18702.0, "O_14": 3.0, "Q_15": 5.0, "O_15": 3.0, "city": "WILKES-BARRE", "beds": 120.0, "SR_15": 2.0}, {"Diff_star": 0.0, "addr": "999 HEIDRICK STREET", "SR_14": 4.0, "Q_14": 4.0, "name": "GOLDEN LIVINGCENTER-CLARION", "SF_14": 2.0, "SF_15": 2.0, "cnty": "Clarion", "st": "PA", "Zip": 16214.0, "O_14": 4.0, "Q_15": 2.0, "O_15": 4.0, "city": "CLARION", "beds": 83.0, "SR_15": 4.0}, {"Diff_star": 0.0, "addr": "500 WASHINGTON STREET", "SR_14": 3.0, "Q_14": 4.0, "name": "PRAXIS ALZHEIMER'S FACILITY", "SF_14": 4.0, "SF_15": 4.0, "cnty": "Northampton", "st": "PA", "Zip": 18042.0, "O_14": 4.0, "Q_15": 2.0, "O_15": 4.0, "city": "EASTON", "beds": 115.0, "SR_15": 3.0}, {"Diff_star": 0.0, "addr": "300 EAST WINCHESTER AVE", "SR_14": 3.0, "Q_14": 5.0, "name": "ATTLEBORO NURSING AND REHAB CE", "SF_14": 5.0, "SF_15": 5.0, "cnty": "Bucks", "st": "PA", "Zip": 19047.0, "O_14": 5.0, "Q_15": 5.0, "O_15": 5.0, "city": "LANGHORNE", "beds": 179.0, "SR_15": 3.0}, {"Diff_star": -1.0, "addr": "265 E. TOWNSHIP LINE ROAD", "SR_14": 1.0, "Q_14": 4.0, "name": "ELKINS CREST HEALTH AND REHAB", "SF_14": 4.0, "SF_15": 3.0, "cnty": "Montgomery", "st": "PA", "Zip": 19027.0, "O_14": 2.0, "Q_15": 2.0, "O_15": 1.0, "city": "ELKINS PARK", "beds": 150.0, "SR_15": 1.0}, {"Diff_star": -2.0, "addr": "10 WEST AVENUE", "SR_14": 2.0, "Q_14": 5.0, "name": "CARLETON SENIOR CARE AND REHAB", "SF_14": 4.0, "SF_15": 3.0, "cnty": "Tioga", "st": "PA", "Zip": 16901.0, "O_14": 4.0, "Q_15": 4.0, "O_15": 2.0, "city": "WELLSBORO", "beds": 26.0, "SR_15": 2.0}, {"Diff_star": 0.0, "addr": "1215 HULTON ROAD", "SR_14": 4.0, "Q_14": 4.0, "name": "WILLOWS OF PRESBYTERIAN SENIOR", "SF_14": 4.0, "SF_15": 4.0, "cnty": "Allegheny", "st": "PA", "Zip": 15139.0, "O_14": 4.0, "Q_15": 3.0, "O_15": 4.0, "city": "OAKMONT", "beds": 200.0, "SR_15": 4.0}, {"Diff_star": 0.0, "addr": "6300 GREENE STREET", "SR_14": 4.0, "Q_14": 4.0, "name": "WESLEY  ENHANCED LIVING AT STAPELEY", "SF_14": "", "SF_15": "", "cnty": "Philadelphia", "st": "PA", "Zip": 19144.0, "O_14": 4.0, "Q_15": 3.0, "O_15": 4.0, "city": "PHILADELPHIA", "beds": 120.0, "SR_15": 4.0}, {"Diff_star": -1.0, "addr": "453 SOUTH MAIN ROAD", "SR_14": 3.0, "Q_14": 5.0, "name": "SMITH HEALTH CARE LTD", "SF_14": 2.0, "SF_15": 2.0, "cnty": "Luzerne", "st": "PA", "Zip": 18707.0, "O_14": 4.0, "Q_15": 3.0, "O_15": 3.0, "city": "MOUNTAIN TOP", "beds": 37.0, "SR_15": 3.0}, {"Diff_star": -1.0, "addr": "100 LYNWOOD AVENUE", "SR_14": 3.0, "Q_14": 5.0, "name": "LINWOOD NURSING AND REHABILITATION CENTER", "SF_14": 4.0, "SF_15": 4.0, "cnty": "Lackawanna", "st": "PA", "Zip": 18505.0, "O_14": 5.0, "Q_15": 3.0, "O_15": 4.0, "city": "SCRANTON", "beds": 102.0, "SR_15": 3.0}, {"Diff_star": 0.0, "addr": "1400 WAVERLY ROAD", "SR_14": 5.0, "Q_14": 4.0, "name": "WAVERLY HEIGHTS", "SF_14": 5.0, "SF_15": 5.0, "cnty": "Montgomery", "st": "PA", "Zip": 19035.0, "O_14": 5.0, "Q_15": 4.0, "O_15": 5.0, "city": "GLADWYNE", "beds": 49.0, "SR_15": 5.0}, {"Diff_star": -1.0, "addr": "100 EIGHTH AVENUE", "SR_14": 4.0, "Q_14": 3.0, "name": "RIVERSIDE CARE CENTER", "SF_14": 1.0, "SF_15": 1.0, "cnty": "Allegheny", "st": "PA", "Zip": 15132.0, "O_14": 3.0, "Q_15": 1.0, "O_15": 2.0, "city": "MCKEESPORT", "beds": 120.0, "SR_15": 4.0}, {"Diff_star": -1.0, "addr": "1800 VILLAGE CIRCLE", "SR_14": 2.0, "Q_14": 5.0, "name": "HOMESTEAD VILLAGE, INC", "SF_14": 5.0, "SF_15": 5.0, "cnty": "Lancaster", "st": "PA", "Zip": 17604.0, "O_14": 4.0, "Q_15": 4.0, "O_15": 3.0, "city": "LANCASTER", "beds": 60.0, "SR_15": 2.0}, {"Diff_star": 0.0, "addr": "6375 CHAMBERSBURG ROAD", "SR_14": 5.0, "Q_14": 5.0, "name": "LAUREL CARE NURSING AND REHAB", "SF_14": 3.0, "SF_15": 3.0, "cnty": "Franklin", "st": "PA", "Zip": 17222.0, "O_14": 5.0, "Q_15": 5.0, "O_15": 5.0, "city": "FAYETTEVILLE", "beds": 92.0, "SR_15": 5.0}, {"Diff_star": 0.0, "addr": "3609 CHESTNUT STREET", "SR_14": 3.0, "Q_14": 3.0, "name": "PENN CENTER FOR REHABILITATION", "SF_14": 2.0, "SF_15": 2.0, "cnty": "Philadelphia", "st": "PA", "Zip": 19104.0, "O_14": 3.0, "Q_15": 2.0, "O_15": 3.0, "city": "PHILADELPHIA", "beds": 124.0, "SR_15": 3.0}, {"Diff_star": 1.0, "addr": "601 SOUTH CHURCH STREET", "SR_14": 2.0, "Q_14": 4.0, "name": "HARMON HOUSE CARE CENTER", "SF_14": 1.0, "SF_15": 1.0, "cnty": "Westmoreland", "st": "PA", "Zip": 15666.0, "O_14": 1.0, "Q_15": 2.0, "O_15": 2.0, "city": "MOUNT PLEASANT", "beds": 109.0, "SR_15": 3.0}, {"Diff_star": -2.0, "addr": "PO BOX 680, S CHERRY ST", "SR_14": 3.0, "Q_14": 5.0, "name": "SNYDER MEMORIAL HEALTH CARE CE", "SF_14": 4.0, "SF_15": 3.0, "cnty": "Forest", "st": "PA", "Zip": 16239.0, "O_14": 5.0, "Q_15": 4.0, "O_15": 3.0, "city": "MARIENVILLE", "beds": 100.0, "SR_15": 3.0}, {"Diff_star": -1.0, "addr": "498 WASHINGTON STREET", "SR_14": 3.0, "Q_14": 4.0, "name": "EASTON HEALTH AND REHABILITATION CENTER", "SF_14": 1.0, "SF_15": 1.0, "cnty": "Northampton", "st": "PA", "Zip": 18042.0, "O_14": 2.0, "Q_15": 1.0, "O_15": 1.0, "city": "EASTON", "beds": 181.0, "SR_15": 3.0}, {"Diff_star": 0.0, "addr": "245 OLD LAKE ROAD", "SR_14": 1.0, "Q_14": 3.0, "name": "LAKESIDE HEALTH AND REHABILITATION CENTER", "SF_14": 3.0, "SF_15": 3.0, "cnty": "Luzerne", "st": "PA", "Zip": 18612.0, "O_14": 1.0, "Q_15": 2.0, "O_15": 1.0, "city": "DALLAS", "beds": 31.0, "SR_15": 1.0}, {"Diff_star": -2.0, "addr": "60 HIGHLAND ROAD", "SR_14": 3.0, "Q_14": 2.0, "name": "MANORCARE HEALTH SERVICES-BETHEL PARK", "SF_14": 4.0, "SF_15": 3.0, "cnty": "Allegheny", "st": "PA", "Zip": 15102.0, "O_14": 4.0, "Q_15": 1.0, "O_15": 2.0, "city": "BETHEL PARK", "beds": 160.0, "SR_15": 3.0}, {"Diff_star": 1.0, "addr": "5701 PHILLIPS AVENUE", "SR_14": 2.0, "Q_14": 4.0, "name": "UPMC HERITAGE PLACE", "SF_14": 4.0, "SF_15": 4.0, "cnty": "Allegheny", "st": "PA", "Zip": 15217.0, "O_14": 3.0, "Q_15": 3.0, "O_15": 4.0, "city": "PITTSBURGH", "beds": 145.0, "SR_15": 3.0}, {"Diff_star": 0.0, "addr": "867 YORK ROAD", "SR_14": 1.0, "Q_14": 5.0, "name": "GETTYSBURG CENTER", "SF_14": 4.0, "SF_15": 3.0, "cnty": "Adams", "st": "PA", "Zip": 17325.0, "O_14": 2.0, "Q_15": 5.0, "O_15": 2.0, "city": "GETTYSBURG", "beds": 118.0, "SR_15": 1.0}, {"Diff_star": 0.0, "addr": "2450 JOHN FRIES HIGHWAY", "SR_14": 3.0, "Q_14": 4.0, "name": "LIFEQUEST NURSING CENTER", "SF_14": 2.0, "SF_15": 2.0, "cnty": "Bucks", "st": "PA", "Zip": 18951.0, "O_14": 3.0, "Q_15": 4.0, "O_15": 3.0, "city": "QUAKERTOWN", "beds": 140.0, "SR_15": 3.0}, {"Diff_star": 0.0, "addr": "1343 WEST BALTIMORE PIKE", "SR_14": 1.0, "Q_14": 5.0, "name": "WILLOWBROOKE COURT-GRANITE", "SF_14": 4.0, "SF_15": 4.0, "cnty": "Delaware", "st": "PA", "Zip": 19063.0, "O_14": 2.0, "Q_15": 5.0, "O_15": 2.0, "city": "MEDIA", "beds": 82.0, "SR_15": 1.0}, {"Diff_star": 0.0, "addr": "9896 BUSTLETON AVENUE", "SR_14": 5.0, "Q_14": 5.0, "name": "PAUL'S RUN", "SF_14": 5.0, "SF_15": 5.0, "cnty": "Philadelphia", "st": "PA", "Zip": 19115.0, "O_14": 5.0, "Q_15": 5.0, "O_15": 5.0, "city": "PHILADELPHIA", "beds": 120.0, "SR_15": 5.0}, {"Diff_star": 0.0, "addr": "800 WEST MINER STREET", "SR_14": 2.0, "Q_14": 4.0, "name": "BRANDYWINE HALL", "SF_14": 1.0, "SF_15": 1.0, "cnty": "Chester", "st": "PA", "Zip": 19382.0, "O_14": 1.0, "Q_15": 3.0, "O_15": 1.0, "city": "WEST CHESTER", "beds": 180.0, "SR_15": 2.0}, {"Diff_star": 1.0, "addr": "U.S. ROUTE 1", "SR_14": 3.0, "Q_14": 3.0, "name": "RIDDLE MEMORIAL HOSP HB SNF", "SF_14": "", "SF_15": "", "cnty": "Delaware", "st": "PA", "Zip": 19063.0, "O_14": 3.0, "Q_15": 5.0, "O_15": 4.0, "city": "MEDIA", "beds": 23.0, "SR_15": 3.0}, {"Diff_star": 1.0, "addr": "500 LEWIS RUN ROAD", "SR_14": 1.0, "Q_14": 4.0, "name": "SOUTHWESTERN NURSING CARE CENTER", "SF_14": 3.0, "SF_15": 3.0, "cnty": "Allegheny", "st": "PA", "Zip": 15122.0, "O_14": 1.0, "Q_15": 2.0, "O_15": 2.0, "city": "PITTSBURGH", "beds": 118.0, "SR_15": 2.0}, {"Diff_star": -1.0, "addr": "1848 GREENTREE ROAD", "SR_14": 2.0, "Q_14": 5.0, "name": "MANORCARE HEALTH SERVICES-GREEN TREE", "SF_14": 3.0, "SF_15": 3.0, "cnty": "Allegheny", "st": "PA", "Zip": 15220.0, "O_14": 3.0, "Q_15": 4.0, "O_15": 2.0, "city": "PITTSBURGH", "beds": 180.0, "SR_15": 2.0}, {"Diff_star": -2.0, "addr": "1717 SKYLINE DRIVE", "SR_14": 2.0, "Q_14": 5.0, "name": "BALDWIN HEALTH CENTER", "SF_14": 2.0, "SF_15": 2.0, "cnty": "Allegheny", "st": "PA", "Zip": 15227.0, "O_14": 3.0, "Q_15": 4.0, "O_15": 1.0, "city": "PITTSBURGH", "beds": 200.0, "SR_15": 1.0}, {"Diff_star": -2.0, "addr": "940 WALNUT BOTTOM ROAD", "SR_14": 3.0, "Q_14": 5.0, "name": "MANORCARE HEALTH SERVICES-CARLISLE", "SF_14": 1.0, "SF_15": 2.0, "cnty": "Cumberland", "st": "PA", "Zip": 17013.0, "O_14": 3.0, "Q_15": 4.0, "O_15": 1.0, "city": "CARLISLE", "beds": 150.0, "SR_15": 1.0}, {"Diff_star": 0.0, "addr": "39TH AND MARKET STREETS", "SR_14": 4.0, "Q_14": 3.0, "name": "PRESBYTERIAN CTR FOR CONT CARE", "SF_14": 5.0, "SF_15": 5.0, "cnty": "Philadelphia", "st": "PA", "Zip": 19104.0, "O_14": 5.0, "Q_15": 5.0, "O_15": 5.0, "city": "PHILADELPHIA", "beds": 26.0, "SR_15": 4.0}, {"Diff_star": 0.0, "addr": "174 VIRGINIA AVENUE", "SR_14": 1.0, "Q_14": 4.0, "name": "ROCHESTER MANOR", "SF_14": 3.0, "SF_15": 3.0, "cnty": "Beaver", "st": "PA", "Zip": 15074.0, "O_14": 1.0, "Q_15": 1.0, "O_15": 1.0, "city": "ROCHESTER", "beds": 122.0, "SR_15": 1.0}, {"Diff_star": 0.0, "addr": "175 WEST NORTH STREET", "SR_14": 5.0, "Q_14": 5.0, "name": "MORAVIAN HALL SQUARE HEALTH AND WELLNESS CENTER", "SF_14": 5.0, "SF_15": 5.0, "cnty": "Northampton", "st": "PA", "Zip": 18064.0, "O_14": 5.0, "Q_15": 4.0, "O_15": 5.0, "city": "NAZARETH", "beds": 61.0, "SR_15": 5.0}, {"Diff_star": 0.0, "addr": "601 NORTH ITHAN AVENUE", "SR_14": 5.0, "Q_14": 5.0, "name": "BEAUMONT AT BRYN MAWR", "SF_14": 5.0, "SF_15": 5.0, "cnty": "Delaware", "st": "PA", "Zip": 19010.0, "O_14": 5.0, "Q_15": 5.0, "O_15": 5.0, "city": "BRYN MAWR", "beds": 46.0, "SR_15": 5.0}, {"Diff_star": 0.0, "addr": "740 E. STATE STREET", "SR_14": 5.0, "Q_14": 4.0, "name": "SHARON REGIONAL HEALTH SYSTEM TCU", "SF_14": 5.0, "SF_15": 5.0, "cnty": "Mercer", "st": "PA", "Zip": 16146.0, "O_14": 5.0, "Q_15": 2.0, "O_15": 5.0, "city": "SHARON", "beds": 38.0, "SR_15": 5.0}, {"Diff_star": 0.0, "addr": "1950 CLIFFSIDE DRIVE", "SR_14": 2.0, "Q_14": 4.0, "name": "JUNIPER VILLAGE AT BROOKLINE-REHABILITATION AND SK", "SF_14": 3.0, "SF_15": 3.0, "cnty": "Centre", "st": "PA", "Zip": 16801.0, "O_14": 2.0, "Q_15": 3.0, "O_15": 2.0, "city": "STATE COLLEGE", "beds": 116.0, "SR_15": 2.0}, {"Diff_star": 0.0, "addr": "146 EDGEHILL ROAD", "SR_14": 5.0, "Q_14": 5.0, "name": "EDGEHILL NURSING AND REHAB CEN", "SF_14": 3.0, "SF_15": 3.0, "cnty": "Montgomery", "st": "PA", "Zip": 19038.0, "O_14": 5.0, "Q_15": 3.0, "O_15": 5.0, "city": "GLENSIDE", "beds": 60.0, "SR_15": 5.0}, {"Diff_star": -1.0, "addr": "191 EVERGREEN MILL ROAD", "SR_14": 3.0, "Q_14": 5.0, "name": "EVERGREEN HEALTH AND REHABILITATION CENTER", "SF_14": 2.0, "SF_15": 2.0, "cnty": "Butler", "st": "PA", "Zip": 16037.0, "O_14": 4.0, "Q_15": 4.0, "O_15": 3.0, "city": "HARMONY", "beds": 115.0, "SR_15": 3.0}, {"Diff_star": -1.0, "addr": "1265 SOUTH CEDAR CREST BLVD", "SR_14": 3.0, "Q_14": 5.0, "name": "MANORCARE HEALTH SERVICES-ALLENTOWN", "SF_14": 2.0, "SF_15": 2.0, "cnty": "Lehigh", "st": "PA", "Zip": 18103.0, "O_14": 4.0, "Q_15": 4.0, "O_15": 3.0, "city": "ALLENTOWN", "beds": 166.0, "SR_15": 3.0}, {"Diff_star": 0.0, "addr": "1001 VALLEY FORGE ROAD", "SR_14": 4.0, "Q_14": 4.0, "name": "WILLOWBROOKE COURT AT BRITTANY", "SF_14": 4.0, "SF_15": 4.0, "cnty": "Montgomery", "st": "PA", "Zip": 19446.0, "O_14": 4.0, "Q_15": 3.0, "O_15": 4.0, "city": "LANSDALE", "beds": 92.0, "SR_15": 4.0}, {"Diff_star": 0.0, "addr": "3000 FELLOWSHIP DRIVE", "SR_14": 4.0, "Q_14": 5.0, "name": "FELLOWSHIP MANOR", "SF_14": 4.0, "SF_15": 4.0, "cnty": "Lehigh", "st": "PA", "Zip": 18052.0, "O_14": 5.0, "Q_15": 5.0, "O_15": 5.0, "city": "WHITEHALL", "beds": 121.0, "SR_15": 4.0}, {"Diff_star": 0.0, "addr": "7310 STENTON AVENUE", "SR_14": 2.0, "Q_14": 4.0, "name": "GOLDEN LIVINGCENTER-STENTON", "SF_14": 2.0, "SF_15": 2.0, "cnty": "Philadelphia", "st": "PA", "Zip": 19150.0, "O_14": 2.0, "Q_15": 2.0, "O_15": 2.0, "city": "PHILADELPHIA", "beds": 94.0, "SR_15": 2.0}, {"Diff_star": 0.0, "addr": "2695 WINCHESTER DRIVE", "SR_14": 1.0, "Q_14": 5.0, "name": "MARIAN MANOR CORPORATION", "SF_14": 4.0, "SF_15": 4.0, "cnty": "Allegheny", "st": "PA", "Zip": 15220.0, "O_14": 2.0, "Q_15": 5.0, "O_15": 2.0, "city": "PITTSBURGH", "beds": 154.0, "SR_15": 1.0}, {"Diff_star": -1.0, "addr": "1201 RURAL AVENUE", "SR_14": 1.0, "Q_14": 5.0, "name": "ROSE VIEW CENTER", "SF_14": 2.0, "SF_15": 2.0, "cnty": "Lycoming", "st": "PA", "Zip": 17701.0, "O_14": 2.0, "Q_15": 4.0, "O_15": 1.0, "city": "WILLIAMSPORT", "beds": 123.0, "SR_15": 1.0}, {"Diff_star": -1.0, "addr": "3205 SKIPPACK PIKE PO BOX 670", "SR_14": 3.0, "Q_14": 5.0, "name": "MEADOWOOD", "SF_14": 4.0, "SF_15": 4.0, "cnty": "Montgomery", "st": "PA", "Zip": 19490.0, "O_14": 5.0, "Q_15": 4.0, "O_15": 4.0, "city": "WORCESTER", "beds": 59.0, "SR_15": 3.0}, {"Diff_star": 0.0, "addr": "590 SOUTH FIFTH AVENUE", "SR_14": 4.0, "Q_14": 4.0, "name": "CEDAR HAVEN HEALTHCARE CENTER", "SF_14": 3.0, "SF_15": 3.0, "cnty": "Lebanon", "st": "PA", "Zip": 17042.0, "O_14": 4.0, "Q_15": 3.0, "O_15": 4.0, "city": "LEBANON", "beds": 324.0, "SR_15": 4.0}, {"Diff_star": 1.0, "addr": "300 WILLOW VALLEY LAKES DRIVE", "SR_14": 4.0, "Q_14": 4.0, "name": "LAKESIDE AT WILLOW VALLEY", "SF_14": 4.0, "SF_15": 3.0, "cnty": "Lancaster", "st": "PA", "Zip": 17584.0, "O_14": 4.0, "Q_15": 5.0, "O_15": 5.0, "city": "WILLOW STREET", "beds": 80.0, "SR_15": 4.0}, {"Diff_star": 0.0, "addr": "745 NORTH HIGHLAND AVENUE", "SR_14": 5.0, "Q_14": 3.0, "name": "HIGHLAND PARK CARE CENTER", "SF_14": 3.0, "SF_15": 3.0, "cnty": "Allegheny", "st": "PA", "Zip": 15206.0, "O_14": 5.0, "Q_15": 2.0, "O_15": 5.0, "city": "PITTSBURGH", "beds": 144.0, "SR_15": 5.0}, {"Diff_star": -1.0, "addr": "900 EAST KING STREET", "SR_14": 3.0, "Q_14": 5.0, "name": "CONESTOGA VIEW", "SF_14": 2.0, "SF_15": 2.0, "cnty": "Lancaster", "st": "PA", "Zip": 17602.0, "O_14": 4.0, "Q_15": 4.0, "O_15": 3.0, "city": "LANCASTER", "beds": 446.0, "SR_15": 3.0}, {"Diff_star": 0.0, "addr": "17083 ROUTE 6", "SR_14": 4.0, "Q_14": 3.0, "name": "SENA KEAN MANOR", "SF_14": 1.0, "SF_15": 1.0, "cnty": "Mc Kean", "st": "PA", "Zip": 16749.0, "O_14": 3.0, "Q_15": 2.0, "O_15": 3.0, "city": "SMETHPORT", "beds": 152.0, "SR_15": 4.0}, {"Diff_star": -1.0, "addr": "351 CAUSEWAY DRIVE", "SR_14": 2.0, "Q_14": 3.0, "name": "SUGAR CREEK STATION SKILLED NURSING AND REHABILITA", "SF_14": 3.0, "SF_15": 3.0, "cnty": "Venango", "st": "PA", "Zip": 16323.0, "O_14": 2.0, "Q_15": 1.0, "O_15": 1.0, "city": "FRANKLIN", "beds": 160.0, "SR_15": 2.0}, {"Diff_star": 0.0, "addr": "1675 SALTSBURG AVENUE", "SR_14": 4.0, "Q_14": 5.0, "name": "COMMUNITIES AT INDIAN HAVEN,", "SF_14": 3.0, "SF_15": 3.0, "cnty": "Indiana", "st": "PA", "Zip": 15701.0, "O_14": 5.0, "Q_15": 5.0, "O_15": 5.0, "city": "INDIANA", "beds": 108.0, "SR_15": 4.0}, {"Diff_star": 0.0, "addr": "502 EAST HOWARD STREET", "SR_14": 1.0, "Q_14": 3.0, "name": "CENTRE CREST", "SF_14": 3.0, "SF_15": 3.0, "cnty": "Centre", "st": "PA", "Zip": 16823.0, "O_14": 1.0, "Q_15": 1.0, "O_15": 1.0, "city": "BELLEFONTE", "beds": 240.0, "SR_15": 1.0}, {"Diff_star": 0.0, "addr": "340 N. MIDDLETOWN ROAD", "SR_14": 1.0, "Q_14": 5.0, "name": "FAIR ACRES GERIATRIC CENTER", "SF_14": 4.0, "SF_15": 4.0, "cnty": "Delaware", "st": "PA", "Zip": 19037.0, "O_14": 2.0, "Q_15": 3.0, "O_15": 2.0, "city": "LIMA", "beds": 908.0, "SR_15": 1.0}, {"Diff_star": -1.0, "addr": "184 BETHLEHEM PIKE", "SR_14": 4.0, "Q_14": 5.0, "name": "FAIRVIEW CARE CENTER OF BETHLEHEM PIKE", "SF_14": 4.0, "SF_15": 3.0, "cnty": "Philadelphia", "st": "PA", "Zip": 19118.0, "O_14": 5.0, "Q_15": 4.0, "O_15": 4.0, "city": "PHILADELPHIA", "beds": 176.0, "SR_15": 4.0}, {"Diff_star": 0.0, "addr": "113 WEST MCMURRAY ROAD", "SR_14": 3.0, "Q_14": 5.0, "name": "MANORCARE HEALTH SERVICES-PETERS TOWNSHIP", "SF_14": 3.0, "SF_15": 3.0, "cnty": "Washington", "st": "PA", "Zip": 15317.0, "O_14": 4.0, "Q_15": 5.0, "O_15": 4.0, "city": "MCMURRAY", "beds": 140.0, "SR_15": 3.0}, {"Diff_star": -1.0, "addr": "801 N. HANOVER STREET", "SR_14": 4.0, "Q_14": 5.0, "name": "CHURCH OF GOD HOME, INC", "SF_14": 4.0, "SF_15": 3.0, "cnty": "Cumberland", "st": "PA", "Zip": 17013.0, "O_14": 5.0, "Q_15": 4.0, "O_15": 4.0, "city": "CARLISLE", "beds": 109.0, "SR_15": 4.0}, {"Diff_star": 0.0, "addr": "102 CHANDRA DRIVE", "SR_14": 1.0, "Q_14": 4.0, "name": "STONEBRIDGE HEALTH AND REHAB C", "SF_14": 3.0, "SF_15": 3.0, "cnty": "Perry", "st": "PA", "Zip": 17020.0, "O_14": 1.0, "Q_15": 3.0, "O_15": 1.0, "city": "DUNCANNON", "beds": 60.0, "SR_15": 1.0}, {"Diff_star": 0.0, "addr": "544 NORTH PENRYN ROAD", "SR_14": 2.0, "Q_14": 5.0, "name": "PLEASANT VIEW RETIREMENT COMMUNITY", "SF_14": 4.0, "SF_15": 4.0, "cnty": "Lancaster", "st": "PA", "Zip": 17545.0, "O_14": 4.0, "Q_15": 5.0, "O_15": 4.0, "city": "MANHEIM", "beds": 133.0, "SR_15": 2.0}, {"Diff_star": 0.0, "addr": "4702 EAST MAIN STREET", "SR_14": 3.0, "Q_14": 4.0, "name": "VALLEY VIEW HAVEN, INC", "SF_14": 4.0, "SF_15": 4.0, "cnty": "Mifflin", "st": "PA", "Zip": 17004.0, "O_14": 4.0, "Q_15": 4.0, "O_15": 4.0, "city": "BELLEVILLE", "beds": 122.0, "SR_15": 3.0}, {"Diff_star": 0.0, "addr": "107 SUNNYVIEW CIRCLE", "SR_14": 3.0, "Q_14": 4.0, "name": "SUNNYVIEW NURSING AND REHABILITATION CENTER", "SF_14": 3.0, "SF_15": 3.0, "cnty": "Butler", "st": "PA", "Zip": 16001.0, "O_14": 3.0, "Q_15": 2.0, "O_15": 3.0, "city": "BUTLER", "beds": 220.0, "SR_15": 3.0}, {"Diff_star": -1.0, "addr": "5360 SALTSBURG ROAD", "SR_14": 2.0, "Q_14": 2.0, "name": "SENECA PLACE", "SF_14": 3.0, "SF_15": 3.0, "cnty": "Allegheny", "st": "PA", "Zip": 15147.0, "O_14": 2.0, "Q_15": 1.0, "O_15": 1.0, "city": "VERONA", "beds": 174.0, "SR_15": 2.0}, {"Diff_star": 0.0, "addr": "350 HAWS LANE", "SR_14": 4.0, "Q_14": 4.0, "name": "HARSTON HALL", "SF_14": 3.0, "SF_15": 3.0, "cnty": "Montgomery", "st": "PA", "Zip": 19031.0, "O_14": 4.0, "Q_15": 3.0, "O_15": 4.0, "city": "FLOURTOWN", "beds": 120.0, "SR_15": 4.0}, {"Diff_star": -1.0, "addr": "20 ORCHARD DRIVE", "SR_14": 4.0, "Q_14": 3.0, "name": "ORCHARD MANOR, INC", "SF_14": 4.0, "SF_15": 3.0, "cnty": "Mercer", "st": "PA", "Zip": 16127.0, "O_14": 4.0, "Q_15": 1.0, "O_15": 3.0, "city": "GROVE CITY", "beds": 121.0, "SR_15": 4.0}, {"Diff_star": -2.0, "addr": "2250 SHENANGO FREEWAY", "SR_14": 3.0, "Q_14": 3.0, "name": "JOHN XXIII HOME", "SF_14": 4.0, "SF_15": 3.0, "cnty": "Mercer", "st": "PA", "Zip": 16148.0, "O_14": 4.0, "Q_15": 1.0, "O_15": 2.0, "city": "HERMITAGE", "beds": 90.0, "SR_15": 3.0}, {"Diff_star": 0.0, "addr": "147 LAFAYETTE MANOR ROAD", "SR_14": 4.0, "Q_14": 4.0, "name": "LAFAYETTE MANOR, INC", "SF_14": 3.0, "SF_15": 3.0, "cnty": "Fayette", "st": "PA", "Zip": 15401.0, "O_14": 4.0, "Q_15": 3.0, "O_15": 4.0, "city": "UNIONTOWN", "beds": 98.0, "SR_15": 4.0}, {"Diff_star": 0.0, "addr": "640 BETHLEHEM PIKE", "SR_14": 4.0, "Q_14": 5.0, "name": "MANORCARE HEALTH SERVICES-LANSDALE", "SF_14": 2.0, "SF_15": 2.0, "cnty": "Montgomery", "st": "PA", "Zip": 18936.0, "O_14": 5.0, "Q_15": 5.0, "O_15": 5.0, "city": "MONTGOMERYVILLE", "beds": 170.0, "SR_15": 4.0}, {"Diff_star": 0.0, "addr": "1001 EAST OREGON ROAD", "SR_14": 3.0, "Q_14": 4.0, "name": "LANDIS HOMES", "SF_14": 4.0, "SF_15": 4.0, "cnty": "Lancaster", "st": "PA", "Zip": 17543.0, "O_14": 4.0, "Q_15": 3.0, "O_15": 4.0, "city": "LITITZ", "beds": 103.0, "SR_15": 3.0}, {"Diff_star": 0.0, "addr": "595 BIGLERVILLE ROAD", "SR_14": 3.0, "Q_14": 4.0, "name": "TRANSITIONS HEALTHCARE GETTYSBURG", "SF_14": 1.0, "SF_15": 1.0, "cnty": "Adams", "st": "PA", "Zip": 17325.0, "O_14": 2.0, "Q_15": 3.0, "O_15": 2.0, "city": "GETTYSBURG", "beds": 135.0, "SR_15": 3.0}, {"Diff_star": -1.0, "addr": "2000 CAMBRIDGE AVENUE", "SR_14": 4.0, "Q_14": 5.0, "name": "HIGHLANDS AT WYOMISSING", "SF_14": 4.0, "SF_15": 4.0, "cnty": "Berks", "st": "PA", "Zip": 19610.0, "O_14": 5.0, "Q_15": 3.0, "O_15": 4.0, "city": "WYOMISSING", "beds": 80.0, "SR_15": 4.0}, {"Diff_star": 0.0, "addr": "3300 DARBY ROAD", "SR_14": 3.0, "Q_14": 4.0, "name": "QUADRANGLE", "SF_14": 4.0, "SF_15": 4.0, "cnty": "Delaware", "st": "PA", "Zip": 19041.0, "O_14": 4.0, "Q_15": 4.0, "O_15": 4.0, "city": "HAVERFORD", "beds": 78.0, "SR_15": 3.0}, {"Diff_star": 0.0, "addr": "442 WALNUT BOTTOM ROAD", "SR_14": 2.0, "Q_14": 5.0, "name": "THORNWALD HOME", "SF_14": 4.0, "SF_15": 4.0, "cnty": "Cumberland", "st": "PA", "Zip": 17013.0, "O_14": 4.0, "Q_15": 5.0, "O_15": 4.0, "city": "CARLISLE", "beds": 83.0, "SR_15": 2.0}, {"Diff_star": 0.0, "addr": "12 LUTHERAN HOME DRIVE", "SR_14": 4.0, "Q_14": 5.0, "name": "LUTHERAN COMMUNITY AT TELFORD", "SF_14": 3.0, "SF_15": 3.0, "cnty": "Montgomery", "st": "PA", "Zip": 18969.0, "O_14": 5.0, "Q_15": 5.0, "O_15": 5.0, "city": "TELFORD", "beds": 75.0, "SR_15": 4.0}, {"Diff_star": 0.0, "addr": "333 WHEAT RIDGE DRIVE", "SR_14": 4.0, "Q_14": 5.0, "name": "FAIRMOUNT HOMES", "SF_14": 5.0, "SF_15": 5.0, "cnty": "Lancaster", "st": "PA", "Zip": 17522.0, "O_14": 5.0, "Q_15": 5.0, "O_15": 5.0, "city": "EPHRATA", "beds": 114.0, "SR_15": 4.0}, {"Diff_star": 0.0, "addr": "3952 COLUMBIA AVENUE", "SR_14": 3.0, "Q_14": 4.0, "name": "ST ANNE'S RETIREMENT COMMUNITY", "SF_14": 4.0, "SF_15": 4.0, "cnty": "Lancaster", "st": "PA", "Zip": 17512.0, "O_14": 4.0, "Q_15": 3.0, "O_15": 4.0, "city": "COLUMBIA", "beds": 119.0, "SR_15": 3.0}, {"Diff_star": 0.0, "addr": "100 WOODMONT ROAD", "SR_14": 2.0, "Q_14": 4.0, "name": "LAURELWOOD CARE CENTER", "SF_14": 3.0, "SF_15": 3.0, "cnty": "Cambria", "st": "PA", "Zip": 15905.0, "O_14": 2.0, "Q_15": 3.0, "O_15": 2.0, "city": "JOHNSTOWN", "beds": 120.0, "SR_15": 2.0}, {"Diff_star": -1.0, "addr": "470 MANOR AVE", "SR_14": 3.0, "Q_14": 5.0, "name": "ST MARTHA CENTER FOR REHABILITATION & HEALTHCARE", "SF_14": 3.0, "SF_15": 3.0, "cnty": "Chester", "st": "PA", "Zip": 19335.0, "O_14": 4.0, "Q_15": 3.0, "O_15": 3.0, "city": "DOWNINGTOWN", "beds": 120.0, "SR_15": 3.0}, {"Diff_star": 0.0, "addr": "100 HIGH POINT DRIVE", "SR_14": 1.0, "Q_14": 4.0, "name": "LUTHERAN HOME AT KANE, THE", "SF_14": 3.0, "SF_15": 3.0, "cnty": "Mc Kean", "st": "PA", "Zip": 16735.0, "O_14": 1.0, "Q_15": 2.0, "O_15": 1.0, "city": "KANE", "beds": 90.0, "SR_15": 1.0}, {"Diff_star": 0.0, "addr": "1480 OXFORD VALLEY ROAD", "SR_14": 3.0, "Q_14": 5.0, "name": "MANORCARE HEALTH SERVICES-OXFORD VALLEY", "SF_14": 4.0, "SF_15": 3.0, "cnty": "Bucks", "st": "PA", "Zip": 19067.0, "O_14": 5.0, "Q_15": 5.0, "O_15": 5.0, "city": "YARDLEY", "beds": 150.0, "SR_15": 4.0}, {"Diff_star": 0.0, "addr": "801 RIDGE PIKE", "SR_14": 4.0, "Q_14": 5.0, "name": "MASONIC VILLAGE AT LAFAYETTE HILL", "SF_14": 4.0, "SF_15": 4.0, "cnty": "Montgomery", "st": "PA", "Zip": 19444.0, "O_14": 5.0, "Q_15": 5.0, "O_15": 5.0, "city": "LAFAYETTE HILL", "beds": 60.0, "SR_15": 4.0}, {"Diff_star": 0.0, "addr": "6445 GERMANTOWN AVENUE", "SR_14": 4.0, "Q_14": 4.0, "name": "CARING HEART REHABILITATION AND NURSING CENTER", "SF_14": 1.0, "SF_15": 1.0, "cnty": "Philadelphia", "st": "PA", "Zip": 19119.0, "O_14": 3.0, "Q_15": 3.0, "O_15": 3.0, "city": "PHILADELPHIA", "beds": 269.0, "SR_15": 4.0}, {"Diff_star": 0.0, "addr": "1201 SPRINGFIELD ROAD", "SR_14": 5.0, "Q_14": 5.0, "name": "LITTLE FLOWER MANOR", "SF_14": 4.0, "SF_15": 4.0, "cnty": "Delaware", "st": "PA", "Zip": 19023.0, "O_14": 5.0, "Q_15": 3.0, "O_15": 5.0, "city": "DARBY", "beds": 127.0, "SR_15": 5.0}, {"Diff_star": -1.0, "addr": "300 BARR STREET", "SR_14": 3.0, "Q_14": 3.0, "name": "TOWNVIEW HEALTH AND REHABILITATION CENTER", "SF_14": 3.0, "SF_15": 3.0, "cnty": "Washington", "st": "PA", "Zip": 15317.0, "O_14": 3.0, "Q_15": 1.0, "O_15": 2.0, "city": "CANONSBURG", "beds": 118.0, "SR_15": 3.0}, {"Diff_star": -1.0, "addr": "600 SCHOOL HOUSE ROAD", "SR_14": 2.0, "Q_14": 5.0, "name": "EMMANUEL CENTER FOR NURSING", "SF_14": 3.0, "SF_15": 3.0, "cnty": "Montour", "st": "PA", "Zip": 17821.0, "O_14": 3.0, "Q_15": 3.0, "O_15": 2.0, "city": "DANVILLE", "beds": 90.0, "SR_15": 2.0}, {"Diff_star": 0.0, "addr": "245 EAST EIGHTH STREET", "SR_14": 1.0, "Q_14": 5.0, "name": "WATSONTOWN NURSING AND REHABILITATION CENTER", "SF_14": 3.0, "SF_15": 3.0, "cnty": "Northumberlnd", "st": "PA", "Zip": 17777.0, "O_14": 2.0, "Q_15": 5.0, "O_15": 2.0, "city": "WATSONTOWN", "beds": 125.0, "SR_15": 1.0}, {"Diff_star": -1.0, "addr": "1105 PERRY HIGHWAY", "SR_14": 2.0, "Q_14": 5.0, "name": "MANORCARE HEALTH SERVICES-NORTH HILLS", "SF_14": 4.0, "SF_15": 3.0, "cnty": "Allegheny", "st": "PA", "Zip": 15237.0, "O_14": 4.0, "Q_15": 4.0, "O_15": 3.0, "city": "PITTSBURGH", "beds": 200.0, "SR_15": 3.0}, {"Diff_star": 0.0, "addr": "3031 CHESTNUT HILL ROAD", "SR_14": 4.0, "Q_14": 4.0, "name": "COVENTRY MANOR HEALTH AND REHABILITATION CENTER", "SF_14": 2.0, "SF_15": 2.0, "cnty": "Montgomery", "st": "PA", "Zip": 19464.0, "O_14": 4.0, "Q_15": 3.0, "O_15": 4.0, "city": "POTTSTOWN", "beds": 41.0, "SR_15": 4.0}, {"Diff_star": 0.0, "addr": "429 MANOR DRIVE", "SR_14": 2.0, "Q_14": 4.0, "name": "CAMBRIA CARE CENTER", "SF_14": 3.0, "SF_15": 3.0, "cnty": "Cambria", "st": "PA", "Zip": 15931.0, "O_14": 2.0, "Q_15": 3.0, "O_15": 2.0, "city": "EBENSBURG", "beds": 301.0, "SR_15": 2.0}, {"Diff_star": 0.0, "addr": "1404 HAY STREET", "SR_14": 2.0, "Q_14": 4.0, "name": "MEADOW VIEW NURSING CENTER", "SF_14": 2.0, "SF_15": 2.0, "cnty": "Somerset", "st": "PA", "Zip": 15530.0, "O_14": 2.0, "Q_15": 3.0, "O_15": 2.0, "city": "BERLIN", "beds": 150.0, "SR_15": 2.0}, {"Diff_star": 0.0, "addr": "1000 SCHUYLKILL MANOR RD", "SR_14": 5.0, "Q_14": 4.0, "name": "SCHUYLKILL CENTER", "SF_14": 1.0, "SF_15": 1.0, "cnty": "Schuylkill", "st": "PA", "Zip": 17901.0, "O_14": 4.0, "Q_15": 4.0, "O_15": 4.0, "city": "POTTSVILLE", "beds": 190.0, "SR_15": 5.0}, {"Diff_star": 0.0, "addr": "550 EAST MAIN STREET", "SR_14": 5.0, "Q_14": 4.0, "name": "LEBANON VALLEY HOME THE", "SF_14": 4.0, "SF_15": 4.0, "cnty": "Lebanon", "st": "PA", "Zip": 17003.0, "O_14": 5.0, "Q_15": 3.0, "O_15": 5.0, "city": "ANNVILLE", "beds": 55.0, "SR_15": 5.0}, {"Diff_star": 0.0, "addr": "535 GRADYVILLE ROAD", "SR_14": 1.0, "Q_14": 4.0, "name": "HCC AT WHITE HORSE VILLAGE", "SF_14": 5.0, "SF_15": 5.0, "cnty": "Delaware", "st": "PA", "Zip": 19073.0, "O_14": 2.0, "Q_15": 5.0, "O_15": 2.0, "city": "NEWTOWN SQUARE", "beds": 59.0, "SR_15": 1.0}, {"Diff_star": -1.0, "addr": "600 WEST VALLEY FORGE ROAD", "SR_14": 2.0, "Q_14": 5.0, "name": "MANORCARE HEALTH SERVICES-KING OF PRUSSIA", "SF_14": 4.0, "SF_15": 3.0, "cnty": "Montgomery", "st": "PA", "Zip": 19406.0, "O_14": 4.0, "Q_15": 5.0, "O_15": 3.0, "city": "KING OF PRUSSIA", "beds": 150.0, "SR_15": 2.0}, {"Diff_star": 0.0, "addr": "500 E. MARYLYN AVENUE", "SR_14": 3.0, "Q_14": 5.0, "name": "FOXDALE VILLAGE", "SF_14": 4.0, "SF_15": 4.0, "cnty": "Centre", "st": "PA", "Zip": 16801.0, "O_14": 5.0, "Q_15": 5.0, "O_15": 5.0, "city": "STATE COLLEGE", "beds": 46.0, "SR_15": 3.0}, {"Diff_star": -1.0, "addr": "495 WEST PATRIOT STREET", "SR_14": 3.0, "Q_14": 4.0, "name": "PATRIOT, A CHOICE COMMUNITY THE", "SF_14": 4.0, "SF_15": 3.0, "cnty": "Somerset", "st": "PA", "Zip": 15501.0, "O_14": 4.0, "Q_15": 1.0, "O_15": 3.0, "city": "SOMERSET", "beds": 100.0, "SR_15": 4.0}, {"Diff_star": 0.0, "addr": "5300 STANTON AVENUE", "SR_14": 3.0, "Q_14": 5.0, "name": "VINCENTIAN DE MARILLAC", "SF_14": 3.0, "SF_15": 3.0, "cnty": "Allegheny", "st": "PA", "Zip": 15206.0, "O_14": 4.0, "Q_15": 5.0, "O_15": 4.0, "city": "PITTSBURGH", "beds": 50.0, "SR_15": 3.0}, {"Diff_star": -1.0, "addr": "9501 STATE ROAD", "SR_14": 2.0, "Q_14": 5.0, "name": "RIVER'S EDGE NURSING AND REHAB", "SF_14": 1.0, "SF_15": 1.0, "cnty": "Philadelphia", "st": "PA", "Zip": 19114.0, "O_14": 2.0, "Q_15": 4.0, "O_15": 1.0, "city": "PHILADELPHIA", "beds": 120.0, "SR_15": 2.0}, {"Diff_star": 0.0, "addr": "141 HEISEY AVENUE", "SR_14": 3.0, "Q_14": 4.0, "name": "RHEEMS NURSING AND REHABILITATION CENTER", "SF_14": 2.0, "SF_15": 2.0, "cnty": "Lancaster", "st": "PA", "Zip": 17022.0, "O_14": 3.0, "Q_15": 4.0, "O_15": 3.0, "city": "ELIZABETHTOWN", "beds": 45.0, "SR_15": 3.0}, {"Diff_star": -1.0, "addr": "5 SAINT FRANCIS WAY", "SR_14": 2.0, "Q_14": 5.0, "name": "CRANBERRY PLACE", "SF_14": 4.0, "SF_15": 4.0, "cnty": "Butler", "st": "PA", "Zip": 16066.0, "O_14": 4.0, "Q_15": 4.0, "O_15": 3.0, "city": "CRANBERRY TOWNSHIP", "beds": 150.0, "SR_15": 2.0}, {"Diff_star": 0.0, "addr": "2880 HORSESHOE PIKE  PO BOX 137", "SR_14": 4.0, "Q_14": 4.0, "name": "TWIN OAKS HEALTH AND REHABILITATION CENTER", "SF_14": 3.0, "SF_15": 3.0, "cnty": "Lebanon", "st": "PA", "Zip": 17078.0, "O_14": 4.0, "Q_15": 2.0, "O_15": 4.0, "city": "PALMYRA", "beds": 53.0, "SR_15": 4.0}, {"Diff_star": 0.0, "addr": "251 STENTON AVENUE", "SR_14": 4.0, "Q_14": 4.0, "name": "FOX SUBACUTE AT CLARA BURKE", "SF_14": 3.0, "SF_15": 3.0, "cnty": "Montgomery", "st": "PA", "Zip": 19462.0, "O_14": 4.0, "Q_15": 3.0, "O_15": 4.0, "city": "PLYMOUTH MEETING", "beds": 60.0, "SR_15": 4.0}, {"Diff_star": 0.0, "addr": "700 NORTH FRANKLIN", "SR_14": 3.0, "Q_14": 5.0, "name": "BARCLAY FRIENDS", "SF_14": 5.0, "SF_15": 5.0, "cnty": "Chester", "st": "PA", "Zip": 19380.0, "O_14": 5.0, "Q_15": 5.0, "O_15": 5.0, "city": "WEST CHESTER", "beds": 96.0, "SR_15": 3.0}, {"Diff_star": 0.0, "addr": "P O BOX 370, LAKE STREET", "SR_14": 3.0, "Q_14": 5.0, "name": "MERCY CENTER NURSING UNIT INC", "SF_14": 3.0, "SF_15": 3.0, "cnty": "Luzerne", "st": "PA", "Zip": 18612.0, "O_14": 4.0, "Q_15": 5.0, "O_15": 4.0, "city": "DALLAS", "beds": 59.0, "SR_15": 3.0}, {"Diff_star": 0.0, "addr": "890 WEATHERWOOD LANE", "SR_14": 3.0, "Q_14": 4.0, "name": "REHAB & NURSING CTR GREATER PITTSBURG", "SF_14": 4.0, "SF_15": 4.0, "cnty": "Westmoreland", "st": "PA", "Zip": 15601.0, "O_14": 4.0, "Q_15": 3.0, "O_15": 4.0, "city": "GREENSBURG", "beds": 120.0, "SR_15": 3.0}, {"Diff_star": -1.0, "addr": "6400 GREENE STREET", "SR_14": 4.0, "Q_14": 5.0, "name": "CLIVEDEN NURSING AND REHABILITATION CENTER", "SF_14": 3.0, "SF_15": 3.0, "cnty": "Philadelphia", "st": "PA", "Zip": 19119.0, "O_14": 5.0, "Q_15": 4.0, "O_15": 4.0, "city": "PHILADELPHIA", "beds": 180.0, "SR_15": 4.0}, {"Diff_star": -2.0, "addr": "20881 STATE HIGHWAY 198", "SR_14": 2.0, "Q_14": 2.0, "name": "CRAWFORD COUNTY CARE CENTER", "SF_14": 4.0, "SF_15": 3.0, "cnty": "Crawford", "st": "PA", "Zip": 16433.0, "O_14": 3.0, "Q_15": 1.0, "O_15": 1.0, "city": "SAEGERTOWN", "beds": 157.0, "SR_15": 2.0}, {"Diff_star": 0.0, "addr": "99 BETHANY ROAD", "SR_14": 1.0, "Q_14": 5.0, "name": "EPHRATA MANOR", "SF_14": 4.0, "SF_15": 4.0, "cnty": "Lancaster", "st": "PA", "Zip": 17522.0, "O_14": 2.0, "Q_15": 5.0, "O_15": 2.0, "city": "EPHRATA", "beds": 120.0, "SR_15": 1.0}, {"Diff_star": 0.0, "addr": "535 MCFARLAND ROAD", "SR_14": 1.0, "Q_14": 2.0, "name": "LOYALHANNA CARE CENTER", "SF_14": 2.0, "SF_15": 2.0, "cnty": "Westmoreland", "st": "PA", "Zip": 15650.0, "O_14": 1.0, "Q_15": 1.0, "O_15": 1.0, "city": "LATROBE", "beds": 120.0, "SR_15": 2.0}, {"Diff_star": 0.0, "addr": "1648 HUNTINGDON PIKE", "SR_14": 5.0, "Q_14": 2.0, "name": "HRH TRANSITIONAL CARE UNIT(A D/B/A ENTITY OF HRHS)", "SF_14": 3.0, "SF_15": 3.0, "cnty": "Montgomery", "st": "PA", "Zip": 19046.0, "O_14": 5.0, "Q_15": 3.0, "O_15": 5.0, "city": "MEADOWBROOK", "beds": 21.0, "SR_15": 5.0}, {"Diff_star": 0.0, "addr": "3200 BENSALEM BOULEVARD", "SR_14": 5.0, "Q_14": 5.0, "name": "WOOD RIVER VILLAGE", "SF_14": 5.0, "SF_15": 5.0, "cnty": "Bucks", "st": "PA", "Zip": 19020.0, "O_14": 5.0, "Q_15": 5.0, "O_15": 5.0, "city": "BENSALEM", "beds": 17.0, "SR_15": 5.0}, {"Diff_star": 0.0, "addr": "125 W SCHOOLHOUSE LANE", "SR_14": 2.0, "Q_14": 5.0, "name": "MAPLEWOOD NURSING AND REHAB  CENTER", "SF_14": 1.0, "SF_15": 1.0, "cnty": "Philadelphia", "st": "PA", "Zip": 19144.0, "O_14": 2.0, "Q_15": 4.0, "O_15": 2.0, "city": "PHILADELPHIA", "beds": 180.0, "SR_15": 3.0}, {"Diff_star": 0.0, "addr": "15 WEST WILLOW STREET", "SR_14": 3.0, "Q_14": 3.0, "name": "LAKEVIEW SENIOR CARE AND LIVIN", "SF_14": 2.0, "SF_15": 2.0, "cnty": "Mc Kean", "st": "PA", "Zip": 16749.0, "O_14": 3.0, "Q_15": 2.0, "O_15": 3.0, "city": "SMETHPORT", "beds": 34.0, "SR_15": 3.0}, {"Diff_star": 0.0, "addr": "450 WAUPELANI DRIVE", "SR_14": 1.0, "Q_14": 2.0, "name": "HEARTHSIDE REHABILITATION AND NURSING CENTER, THE", "SF_14": 1.0, "SF_15": 1.0, "cnty": "Centre", "st": "PA", "Zip": 16801.0, "O_14": 1.0, "Q_15": 1.0, "O_15": 1.0, "city": "STATE COLLEGE", "beds": 157.0, "SR_15": 1.0}, {"Diff_star": -1.0, "addr": "911 EAST BRADY STREET", "SR_14": 5.0, "Q_14": 2.0, "name": "BUTLER MEMORIAL HOSP TCF", "SF_14": 5.0, "SF_15": 5.0, "cnty": "Butler", "st": "PA", "Zip": 16001.0, "O_14": 5.0, "Q_15": 1.0, "O_15": 4.0, "city": "BUTLER", "beds": 25.0, "SR_15": 5.0}, {"Diff_star": -1.0, "addr": "252 MAIN STREET", "SR_14": 4.0, "Q_14": 3.0, "name": "SOUTH FAYETTE NURSING CENTER", "SF_14": 3.0, "SF_15": 3.0, "cnty": "Fayette", "st": "PA", "Zip": 15459.0, "O_14": 4.0, "Q_15": 1.0, "O_15": 3.0, "city": "MARKLEYSBURG", "beds": 60.0, "SR_15": 4.0}, {"Diff_star": 0.0, "addr": "P.O. BOX 320,  48 HAVEN LANE", "SR_14": 1.0, "Q_14": 4.0, "name": "MILLVILLE HEALTH AND REHABILITATION CENTER", "SF_14": 3.0, "SF_15": 3.0, "cnty": "Columbia", "st": "PA", "Zip": 17846.0, "O_14": 1.0, "Q_15": 1.0, "O_15": 1.0, "city": "MILLVILLE", "beds": 110.0, "SR_15": 1.0}, {"Diff_star": 0.0, "addr": "800 ELSIE STREET", "SR_14": 3.0, "Q_14": 4.0, "name": "LGAR HEALTH AND REHABILITATION", "SF_14": 2.0, "SF_15": 2.0, "cnty": "Allegheny", "st": "PA", "Zip": 15145.0, "O_14": 3.0, "Q_15": 2.0, "O_15": 3.0, "city": "TURTLE CREEK", "beds": 120.0, "SR_15": 3.0}, {"Diff_star": -1.0, "addr": "149 LAFAYETTE AVENUE", "SR_14": 2.0, "Q_14": 5.0, "name": "HOMETOWN NURSING AND REHAB CEN", "SF_14": 4.0, "SF_15": 3.0, "cnty": "Schuylkill", "st": "PA", "Zip": 18252.0, "O_14": 4.0, "Q_15": 5.0, "O_15": 3.0, "city": "TAMAQUA", "beds": 150.0, "SR_15": 2.0}, {"Diff_star": 0.0, "addr": "1 LONGSDORF WAY", "SR_14": 1.0, "Q_14": 5.0, "name": "CUMBERLAND CROSSINGS RETIREMENT COMMUNITY", "SF_14": 2.0, "SF_15": 2.0, "cnty": "Cumberland", "st": "PA", "Zip": 17013.0, "O_14": 2.0, "Q_15": 5.0, "O_15": 2.0, "city": "CARLISLE", "beds": 58.0, "SR_15": 1.0}, {"Diff_star": 1.0, "addr": "90 MAIN STREET", "SR_14": 3.0, "Q_14": 5.0, "name": "HIGHLAND VIEW HEALTH CARE", "SF_14": 2.0, "SF_15": 3.0, "cnty": "Jefferson", "st": "PA", "Zip": 15824.0, "O_14": 4.0, "Q_15": 5.0, "O_15": 5.0, "city": "BROCKWAY", "beds": 50.0, "SR_15": 4.0}, {"Diff_star": 0.0, "addr": "1000 ORWIGSBURG MANOR DR", "SR_14": 3.0, "Q_14": 4.0, "name": "ORWIGSBURG CENTER", "SF_14": 3.0, "SF_15": 3.0, "cnty": "Schuylkill", "st": "PA", "Zip": 17961.0, "O_14": 3.0, "Q_15": 2.0, "O_15": 3.0, "city": "ORWIGSBURG", "beds": 130.0, "SR_15": 3.0}, {"Diff_star": 0.0, "addr": "8221 LAMOR ROAD", "SR_14": 3.0, "Q_14": 4.0, "name": "COUNTRYSIDE CONVAL HOME LTD PA", "SF_14": "", "SF_15": "", "cnty": "Mercer", "st": "PA", "Zip": 16137.0, "O_14": 3.0, "Q_15": 4.0, "O_15": 3.0, "city": "MERCER", "beds": 48.0, "SR_15": 3.0}, {"Diff_star": -1.0, "addr": "1 HEIDELBERG DRIVE", "SR_14": 3.0, "Q_14": 5.0, "name": "PHOEBE BERKS HEALTH CARE CENTE", "SF_14": 4.0, "SF_15": 4.0, "cnty": "Berks", "st": "PA", "Zip": 19565.0, "O_14": 5.0, "Q_15": 4.0, "O_15": 4.0, "city": "WERNERSVILLE", "beds": 120.0, "SR_15": 3.0}, {"Diff_star": 0.0, "addr": "2309 STAFFORD AVENUE", "SR_14": 2.0, "Q_14": 5.0, "name": "MOUNTAIN VIEW CARE CENTER", "SF_14": 4.0, "SF_15": 4.0, "cnty": "Lackawanna", "st": "PA", "Zip": 18505.0, "O_14": 4.0, "Q_15": 5.0, "O_15": 4.0, "city": "SCRANTON", "beds": 180.0, "SR_15": 2.0}, {"Diff_star": 0.0, "addr": "500 ROUTE 909", "SR_14": 3.0, "Q_14": 5.0, "name": "LONGWOOD AT OAKMONT", "SF_14": 4.0, "SF_15": 4.0, "cnty": "Allegheny", "st": "PA", "Zip": 15147.0, "O_14": 5.0, "Q_15": 5.0, "O_15": 5.0, "city": "VERONA", "beds": 60.0, "SR_15": 3.0}, {"Diff_star": 0.0, "addr": "909 WEST STREET", "SR_14": 2.0, "Q_14": 3.0, "name": "VILLAGE AT PENNWOOD", "SF_14": 3.0, "SF_15": 3.0, "cnty": "Allegheny", "st": "PA", "Zip": 15221.0, "O_14": 2.0, "Q_15": 2.0, "O_15": 2.0, "city": "PITTSBURGH", "beds": 126.0, "SR_15": 2.0}, {"Diff_star": 0.0, "addr": "1211 WILMINGTON AVENUE", "SR_14": 4.0, "Q_14": 3.0, "name": "JAMESON MEMORIAL HOSPITAL TCU", "SF_14": 5.0, "SF_15": 5.0, "cnty": "Lawrence", "st": "PA", "Zip": 16105.0, "O_14": 5.0, "Q_15": 2.0, "O_15": 5.0, "city": "NEW CASTLE", "beds": 20.0, "SR_15": 4.0}, {"Diff_star": 0.0, "addr": "ONE NOLTE DRIVE", "SR_14": 2.0, "Q_14": 3.0, "name": "SNU ARMSTRONG CO MEMORIAL HOSP", "SF_14": 5.0, "SF_15": 5.0, "cnty": "Armstrong", "st": "PA", "Zip": 16201.0, "O_14": 3.0, "Q_15": 3.0, "O_15": 3.0, "city": "KITTANNING", "beds": 17.0, "SR_15": 2.0}, {"Diff_star": 0.0, "addr": "2000 CAMBRIDGE DRIVE", "SR_14": 5.0, "Q_14": 4.0, "name": "LAUREL VIEW VILLAGE", "SF_14": 4.0, "SF_15": 4.0, "cnty": "Somerset", "st": "PA", "Zip": 15928.0, "O_14": 5.0, "Q_15": 3.0, "O_15": 5.0, "city": "DAVIDSVILLE", "beds": 60.0, "SR_15": 5.0}, {"Diff_star": 0.0, "addr": "576 FRED ROGERS DRIVE", "SR_14": 1.0, "Q_14": 4.0, "name": "LATROBE HEALTH AND REHABILITATION CENTER", "SF_14": 2.0, "SF_15": 2.0, "cnty": "Westmoreland", "st": "PA", "Zip": 15650.0, "O_14": 1.0, "Q_15": 2.0, "O_15": 1.0, "city": "LATROBE", "beds": 107.0, "SR_15": 1.0}, {"Diff_star": -1.0, "addr": "6212 WALNUT STREET", "SR_14": 4.0, "Q_14": 5.0, "name": "CARE PAVILION NURSING AND REHABILITATION CENTER", "SF_14": 1.0, "SF_15": 1.0, "cnty": "Philadelphia", "st": "PA", "Zip": 19139.0, "O_14": 4.0, "Q_15": 4.0, "O_15": 3.0, "city": "PHILADELPHIA", "beds": 396.0, "SR_15": 4.0}, {"Diff_star": 0.0, "addr": "1034 GROVE STREET", "SR_14": 5.0, "Q_14": 1.0, "name": "MEADVILLE MEDICAL CTR TCU", "SF_14": 5.0, "SF_15": 5.0, "cnty": "Crawford", "st": "PA", "Zip": 16335.0, "O_14": 4.0, "Q_15": 1.0, "O_15": 4.0, "city": "MEADVILLE", "beds": 32.0, "SR_15": 5.0}, {"Diff_star": 0.0, "addr": "2140 WARRENSVILLE ROAD", "SR_14": 1.0, "Q_14": 5.0, "name": "VALLEY VIEW NURSING CENTER", "SF_14": 4.0, "SF_15": 2.0, "cnty": "Lycoming", "st": "PA", "Zip": 17754.0, "O_14": 2.0, "Q_15": 5.0, "O_15": 2.0, "city": "MONTOURSVILLE", "beds": 173.0, "SR_15": 1.0}, {"Diff_star": 0.0, "addr": "437 GIVLER DRIVE", "SR_14": 5.0, "Q_14": 4.0, "name": "HOMEWOOD AT MARTINSBURG PA INC", "SF_14": 4.0, "SF_15": 3.0, "cnty": "Blair", "st": "PA", "Zip": 16662.0, "O_14": 5.0, "Q_15": 4.0, "O_15": 5.0, "city": "MARTINSBURG", "beds": 129.0, "SR_15": 5.0}, {"Diff_star": 0.0, "addr": "425 WESTMINSTER AVENUE", "SR_14": 3.0, "Q_14": 5.0, "name": "HOMEWOOD AT PLUM CREEK", "SF_14": 5.0, "SF_15": 5.0, "cnty": "York", "st": "PA", "Zip": 17331.0, "O_14": 5.0, "Q_15": 5.0, "O_15": 5.0, "city": "HANOVER", "beds": 120.0, "SR_15": 3.0}, {"Diff_star": 0.0, "addr": "200 BERWICK ROAD", "SR_14": 1.0, "Q_14": 4.0, "name": "ORANGEVILLE HEALTH AND REHABILITATION CENTER", "SF_14": 3.0, "SF_15": 3.0, "cnty": "Columbia", "st": "PA", "Zip": 17859.0, "O_14": 1.0, "Q_15": 2.0, "O_15": 1.0, "city": "ORANGEVILLE", "beds": 120.0, "SR_15": 1.0}, {"Diff_star": -1.0, "addr": "81 DILLON DRIVE", "SR_14": 4.0, "Q_14": 5.0, "name": "GOLDEN LIVINGCENTER-TITUSVILLE", "SF_14": 2.0, "SF_15": 2.0, "cnty": "Crawford", "st": "PA", "Zip": 16354.0, "O_14": 5.0, "Q_15": 4.0, "O_15": 4.0, "city": "TITUSVILLE", "beds": 77.0, "SR_15": 4.0}, {"Diff_star": -1.0, "addr": "1700 NORMANDIE DRIVE", "SR_14": 1.0, "Q_14": 5.0, "name": "NORMANDIE RIDGE", "SF_14": 4.0, "SF_15": 3.0, "cnty": "York", "st": "PA", "Zip": 17404.0, "O_14": 2.0, "Q_15": 4.0, "O_15": 1.0, "city": "YORK", "beds": 64.0, "SR_15": 1.0}, {"Diff_star": 0.0, "addr": "194 SWINDERMAN ROAD", "SR_14": 3.0, "Q_14": 5.0, "name": "NORTH HILLS HEALTH AND REHABILITATION CENTER", "SF_14": 4.0, "SF_15": 3.0, "cnty": "Allegheny", "st": "PA", "Zip": 15090.0, "O_14": 5.0, "Q_15": 5.0, "O_15": 5.0, "city": "WEXFORD", "beds": 55.0, "SR_15": 4.0}, {"Diff_star": -1.0, "addr": "225 EVERGREEN ROAD", "SR_14": 3.0, "Q_14": 5.0, "name": "SANATOGA CENTER", "SF_14": 3.0, "SF_15": 3.0, "cnty": "Montgomery", "st": "PA", "Zip": 19464.0, "O_14": 4.0, "Q_15": 4.0, "O_15": 3.0, "city": "POTTSTOWN", "beds": 130.0, "SR_15": 3.0}, {"Diff_star": 0.0, "addr": "702 THIRD AVENUE", "SR_14": 1.0, "Q_14": 5.0, "name": "KINGSTON HEALTH CARE CENTER", "SF_14": 4.0, "SF_15": 4.0, "cnty": "Luzerne", "st": "PA", "Zip": 18704.0, "O_14": 2.0, "Q_15": 3.0, "O_15": 2.0, "city": "KINGSTON", "beds": 65.0, "SR_15": 1.0}, {"Diff_star": -1.0, "addr": "5253 NATIONAL PIKE", "SR_14": 4.0, "Q_14": 3.0, "name": "HENRY CLAY VILLA, LP", "SF_14": 4.0, "SF_15": 3.0, "cnty": "Fayette", "st": "PA", "Zip": 15459.0, "O_14": 4.0, "Q_15": 1.0, "O_15": 3.0, "city": "MARKLEYSBURG", "beds": 74.0, "SR_15": 4.0}, {"Diff_star": 0.0, "addr": "2301 EDINBORO ROAD", "SR_14": 4.0, "Q_14": 4.0, "name": "FORESTVIEW", "SF_14": 5.0, "SF_15": 5.0, "cnty": "Erie", "st": "PA", "Zip": 16509.0, "O_14": 5.0, "Q_15": 4.0, "O_15": 5.0, "city": "ERIE", "beds": 80.0, "SR_15": 4.0}, {"Diff_star": 0.0, "addr": "100 SAINT FRANCIS DRIVE", "SR_14": 3.0, "Q_14": 4.0, "name": "BRADFORD ECUMENICAL HOME, INC", "SF_14": 4.0, "SF_15": 4.0, "cnty": "Mc Kean", "st": "PA", "Zip": 16701.0, "O_14": 4.0, "Q_15": 3.0, "O_15": 4.0, "city": "BRADFORD", "beds": 100.0, "SR_15": 3.0}, {"Diff_star": -1.0, "addr": "5865 ROUTE 154", "SR_14": 2.0, "Q_14": 5.0, "name": "DARWAY ELDER CARE REHABILITATION CENTER", "SF_14": 1.0, "SF_15": 1.0, "cnty": "Sullivan", "st": "PA", "Zip": 18616.0, "O_14": 2.0, "Q_15": 3.0, "O_15": 1.0, "city": "FORKSVILLE", "beds": 67.0, "SR_15": 2.0}, {"Diff_star": -1.0, "addr": "2751 DEKALB PIKE", "SR_14": 1.0, "Q_14": 5.0, "name": "SUBURBAN WOODS HEALTH AND REHA", "SF_14": 4.0, "SF_15": 3.0, "cnty": "Montgomery", "st": "PA", "Zip": 19401.0, "O_14": 2.0, "Q_15": 3.0, "O_15": 1.0, "city": "NORRISTOWN", "beds": 120.0, "SR_15": 1.0}, {"Diff_star": -1.0, "addr": "3430 HUNTINGDON PIKE", "SR_14": 4.0, "Q_14": 5.0, "name": "MANORCARE HEALTH SERVICES-HUNTINGDON VALLEY", "SF_14": 2.0, "SF_15": 2.0, "cnty": "Montgomery", "st": "PA", "Zip": 19006.0, "O_14": 5.0, "Q_15": 3.0, "O_15": 4.0, "city": "HUNTINGDON VALLEY", "beds": 130.0, "SR_15": 4.0}, {"Diff_star": 0.0, "addr": "25 COVE ROAD", "SR_14": 4.0, "Q_14": 4.0, "name": "KINKORA PYTHIAN HOME", "SF_14": 3.0, "SF_15": 3.0, "cnty": "Perry", "st": "PA", "Zip": 17020.0, "O_14": 4.0, "Q_15": 4.0, "O_15": 4.0, "city": "DUNCANNON", "beds": 60.0, "SR_15": 4.0}, {"Diff_star": -1.0, "addr": "2335 MADISON AVENUE", "SR_14": 4.0, "Q_14": 5.0, "name": "KIRKLAND VILLAGE", "SF_14": 4.0, "SF_15": 4.0, "cnty": "Northampton", "st": "PA", "Zip": 18017.0, "O_14": 5.0, "Q_15": 4.0, "O_15": 4.0, "city": "BETHLEHEM", "beds": 60.0, "SR_15": 4.0}, {"Diff_star": -1.0, "addr": "549 BALTIMORE PIKE", "SR_14": 3.0, "Q_14": 5.0, "name": "BRINTON MANOR", "SF_14": 4.0, "SF_15": 4.0, "cnty": "Delaware", "st": "PA", "Zip": 19342.0, "O_14": 5.0, "Q_15": 3.0, "O_15": 4.0, "city": "GLEN MILLS", "beds": 92.0, "SR_15": 3.0}, {"Diff_star": 0.0, "addr": "55 SOUTH SECOND STREET", "SR_14": 4.0, "Q_14": 4.0, "name": "SHOOK HOME THE", "SF_14": 4.0, "SF_15": 4.0, "cnty": "Franklin", "st": "PA", "Zip": 17201.0, "O_14": 4.0, "Q_15": 2.0, "O_15": 4.0, "city": "CHAMBERSBURG", "beds": 65.0, "SR_15": 4.0}, {"Diff_star": 0.0, "addr": "250 NORTH BETHLEHEM PIKE", "SR_14": 4.0, "Q_14": 4.0, "name": "ARTMAN LUTHERAN HOME", "SF_14": 4.0, "SF_15": 3.0, "cnty": "Montgomery", "st": "PA", "Zip": 19002.0, "O_14": 4.0, "Q_15": 2.0, "O_15": 4.0, "city": "AMBLER", "beds": 61.0, "SR_15": 4.0}, {"Diff_star": 0.0, "addr": "770 S. HANOVER STREET", "SR_14": 2.0, "Q_14": 5.0, "name": "CHAPEL POINTE AT CARLISLE", "SF_14": 4.0, "SF_15": 4.0, "cnty": "Cumberland", "st": "PA", "Zip": 17013.0, "O_14": 4.0, "Q_15": 5.0, "O_15": 4.0, "city": "CARLISLE", "beds": 59.0, "SR_15": 2.0}, {"Diff_star": 0.0, "addr": "1500 FIFTH AVENUE", "SR_14": 4.0, "Q_14": 1.0, "name": "UPMC MCKEESPORT LONG TERM CARE", "SF_14": 5.0, "SF_15": 5.0, "cnty": "Allegheny", "st": "PA", "Zip": 15132.0, "O_14": 4.0, "Q_15": 1.0, "O_15": 4.0, "city": "MCKEESPORT", "beds": 24.0, "SR_15": 4.0}, {"Diff_star": 0.0, "addr": "421 CHEW STREET", "SR_14": 3.0, "Q_14": 5.0, "name": "SACRED HEART HOSPITAL TCF", "SF_14": 4.0, "SF_15": 4.0, "cnty": "Lehigh", "st": "PA", "Zip": 18102.0, "O_14": 5.0, "Q_15": 5.0, "O_15": 5.0, "city": "ALLENTOWN", "beds": 22.0, "SR_15": 3.0}, {"Diff_star": 0.0, "addr": "450 EAST LINCOLN AVENUE", "SR_14": 5.0, "Q_14": 5.0, "name": "STONERIDGE POPULAR RUN", "SF_14": 3.0, "SF_15": 3.0, "cnty": "Lebanon", "st": "PA", "Zip": 17067.0, "O_14": 5.0, "Q_15": 5.0, "O_15": 5.0, "city": "MYERSTOWN", "beds": 60.0, "SR_15": 5.0}, {"Diff_star": 0.0, "addr": "200 PENNSYLVANIA AVENUE", "SR_14": 1.0, "Q_14": 5.0, "name": "RIDGEVIEW HEALTHCARE & REHAB CENTER LLC", "SF_14": 2.0, "SF_15": 2.0, "cnty": "Schuylkill", "st": "PA", "Zip": 17976.0, "O_14": 2.0, "Q_15": 5.0, "O_15": 2.0, "city": "SHENANDOAH", "beds": 111.0, "SR_15": 1.0}, {"Diff_star": 0.0, "addr": "746 JEFFERSON AVENUE", "SR_14": 1.0, "Q_14": 3.0, "name": "SPIRIT OF MERCY SKILLED NURSING CENTER", "SF_14": 4.0, "SF_15": 4.0, "cnty": "Lackawanna", "st": "PA", "Zip": 18501.0, "O_14": 2.0, "Q_15": 2.0, "O_15": 2.0, "city": "SCRANTON", "beds": 22.0, "SR_15": 1.0}, {"Diff_star": 0.0, "addr": "WILLOW AT FOURTH ST POB 1282", "SR_14": 4.0, "Q_14": 3.0, "name": "ROTHERMEL L CAPLAN TCU", "SF_14": 4.0, "SF_15": 4.0, "cnty": "Lebanon", "st": "PA", "Zip": 17046.0, "O_14": 4.0, "Q_15": 3.0, "O_15": 4.0, "city": "LEBANON", "beds": 19.0, "SR_15": 4.0}, {"Diff_star": -1.0, "addr": "37 WOODLANDS DRIVE", "SR_14": 2.0, "Q_14": 5.0, "name": "WAYNE WOODLANDS MANOR", "SF_14": 3.0, "SF_15": 3.0, "cnty": "Wayne", "st": "PA", "Zip": 18472.0, "O_14": 3.0, "Q_15": 4.0, "O_15": 2.0, "city": "WAYMART", "beds": 121.0, "SR_15": 2.0}, {"Diff_star": -1.0, "addr": "5501 PERKIOMEN AVENUE", "SR_14": 4.0, "Q_14": 5.0, "name": "BERKSHIRE CENTER", "SF_14": 2.0, "SF_15": 2.0, "cnty": "Berks", "st": "PA", "Zip": 19606.0, "O_14": 5.0, "Q_15": 3.0, "O_15": 4.0, "city": "READING", "beds": 130.0, "SR_15": 4.0}, {"Diff_star": 0.0, "addr": "1718 SPRING CREEK ROAD", "SR_14": 5.0, "Q_14": 5.0, "name": "LEHIGH CENTER", "SF_14": 4.0, "SF_15": 3.0, "cnty": "Lehigh", "st": "PA", "Zip": 18062.0, "O_14": 5.0, "Q_15": 5.0, "O_15": 5.0, "city": "MACUNGIE", "beds": 128.0, "SR_15": 5.0}, {"Diff_star": 0.0, "addr": "2802 PAPERMILL ROAD", "SR_14": 5.0, "Q_14": 4.0, "name": "TRANSITIONAL SUB-ACUTE UNIT", "SF_14": 5.0, "SF_15": 5.0, "cnty": "Berks", "st": "PA", "Zip": 19610.0, "O_14": 5.0, "Q_15": 3.0, "O_15": 5.0, "city": "WYOMISSING", "beds": 50.0, "SR_15": 5.0}, {"Diff_star": 0.0, "addr": "1425 PHILADELPHIA AVENUE", "SR_14": 5.0, "Q_14": 5.0, "name": "PENN HALL AT MENNO-HAVEN", "SF_14": 3.0, "SF_15": 3.0, "cnty": "Franklin", "st": "PA", "Zip": 17201.0, "O_14": 5.0, "Q_15": 5.0, "O_15": 5.0, "city": "CHAMBERSBURG", "beds": 60.0, "SR_15": 5.0}, {"Diff_star": 0.0, "addr": "540 COAL VALLEY ROAD", "SR_14": 1.0, "Q_14": 4.0, "name": "LAWSON NURSING HOME, INC.", "SF_14": 3.0, "SF_15": 3.0, "cnty": "Allegheny", "st": "PA", "Zip": 15025.0, "O_14": 1.0, "Q_15": 4.0, "O_15": 1.0, "city": "JEFFERSON HILLS", "beds": 50.0, "SR_15": 1.0}, {"Diff_star": 0.0, "addr": "4400 WEST GIRARD AVENUE", "SR_14": 3.0, "Q_14": 5.0, "name": "CENTENNIAL HEALTHCARE AND REHABILITATION CENTER", "SF_14": 1.0, "SF_15": 1.0, "cnty": "Philadelphia", "st": "PA", "Zip": 19104.0, "O_14": 3.0, "Q_15": 5.0, "O_15": 3.0, "city": "PHILADELPHIA", "beds": 180.0, "SR_15": 3.0}, {"Diff_star": 0.0, "addr": "17TH & CHEW STS", "SR_14": 4.0, "Q_14": 3.0, "name": "LEHIGH VALLEY HOSPITAL TSU", "SF_14": 5.0, "SF_15": 5.0, "cnty": "Lehigh", "st": "PA", "Zip": 18105.0, "O_14": 5.0, "Q_15": 2.0, "O_15": 5.0, "city": "ALLENTOWN", "beds": 52.0, "SR_15": 4.0}, {"Diff_star": 0.0, "addr": "1194 NAAMANS CREEK ROAD", "SR_14": 2.0, "Q_14": 4.0, "name": "NAAMANS CREEK COUNTRY MANOR", "SF_14": 3.0, "SF_15": 3.0, "cnty": "Delaware", "st": "PA", "Zip": 19061.0, "O_14": 2.0, "Q_15": 3.0, "O_15": 2.0, "city": "BOOTHWYN", "beds": 90.0, "SR_15": 2.0}, {"Diff_star": -1.0, "addr": "3298 RIDGE ROAD", "SR_14": 2.0, "Q_14": 5.0, "name": "BALANCED CARE, BLOOMSBURG", "SF_14": 2.0, "SF_15": 2.0, "cnty": "Columbia", "st": "PA", "Zip": 17815.0, "O_14": 3.0, "Q_15": 4.0, "O_15": 2.0, "city": "BLOOMSBURG", "beds": 66.0, "SR_15": 2.0}, {"Diff_star": 0.0, "addr": "675 WILLOW VALLEY SQUARE", "SR_14": 4.0, "Q_14": 4.0, "name": "WILLOW VALLEY COMMUNITIES", "SF_14": 4.0, "SF_15": 4.0, "cnty": "Lancaster", "st": "PA", "Zip": 17602.0, "O_14": 4.0, "Q_15": 3.0, "O_15": 4.0, "city": "LANCASTER", "beds": 203.0, "SR_15": 4.0}, {"Diff_star": 0.0, "addr": "103 N. THIRTEENTH STREET", "SR_14": 1.0, "Q_14": 2.0, "name": "CARING PLACE, THE", "SF_14": "", "SF_15": "", "cnty": "Venango", "st": "PA", "Zip": 16323.0, "O_14": 1.0, "Q_15": 2.0, "O_15": 1.0, "city": "FRANKLIN", "beds": 100.0, "SR_15": 1.0}, {"Diff_star": 0.0, "addr": "700 E GILHAM ST", "SR_14": 3.0, "Q_14": 5.0, "name": "PHILADELPHIA PROTESTANT HOME", "SF_14": 4.0, "SF_15": 4.0, "cnty": "Philadelphia", "st": "PA", "Zip": 19111.0, "O_14": 5.0, "Q_15": 5.0, "O_15": 5.0, "city": "PHILADELPHIA", "beds": 126.0, "SR_15": 4.0}, {"Diff_star": 0.0, "addr": "121 WALNUT BOTTOM ROAD", "SR_14": 4.0, "Q_14": 4.0, "name": "SHIPPENSBURG HEALTH CARE CENTE", "SF_14": 2.0, "SF_15": 2.0, "cnty": "Cumberland", "st": "PA", "Zip": 17257.0, "O_14": 4.0, "Q_15": 3.0, "O_15": 4.0, "city": "SHIPPENSBURG", "beds": 125.0, "SR_15": 4.0}, {"Diff_star": 0.0, "addr": "100 FAIRFIELD DRIVE", "SR_14": 5.0, "Q_14": 3.0, "name": "UPMC NORTHWEST TRANSITIONAL CARE UNIT", "SF_14": 5.0, "SF_15": 5.0, "cnty": "Venango", "st": "PA", "Zip": 16346.0, "O_14": 5.0, "Q_15": 2.0, "O_15": 5.0, "city": "SENECA", "beds": 16.0, "SR_15": 5.0}, {"Diff_star": -1.0, "addr": "1048 W BALTIMORE AVENUE", "SR_14": 2.0, "Q_14": 5.0, "name": "MONTICELLO HOUSE", "SF_14": 5.0, "SF_15": 5.0, "cnty": "Delaware", "st": "PA", "Zip": 19063.0, "O_14": 4.0, "Q_15": 4.0, "O_15": 3.0, "city": "MEDIA", "beds": 86.0, "SR_15": 2.0}, {"Diff_star": 0.0, "addr": "410 TERRACE DRIVE", "SR_14": 2.0, "Q_14": 4.0, "name": "CHERRY TREE NURSING CENTER", "SF_14": 4.0, "SF_15": 4.0, "cnty": "Fayette", "st": "PA", "Zip": 15401.0, "O_14": 3.0, "Q_15": 3.0, "O_15": 3.0, "city": "UNIONTOWN", "beds": 120.0, "SR_15": 2.0}, {"Diff_star": 0.0, "addr": "2100 NORTH 49TH STREET", "SR_14": 5.0, "Q_14": 5.0, "name": "KEARSLEY REHABILITATION AND NURSING CENTER", "SF_14": 4.0, "SF_15": 4.0, "cnty": "Philadelphia", "st": "PA", "Zip": 19131.0, "O_14": 5.0, "Q_15": 5.0, "O_15": 5.0, "city": "PHILADELPHIA", "beds": 84.0, "SR_15": 5.0}, {"Diff_star": 0.0, "addr": "45 NORTH SCOTT STREET", "SR_14": 1.0, "Q_14": 3.0, "name": "CREEKSIDE HEALTH AND REHABILITATION CENTER", "SF_14": 3.0, "SF_15": 3.0, "cnty": "Lackawanna", "st": "PA", "Zip": 18407.0, "O_14": 1.0, "Q_15": 1.0, "O_15": 1.0, "city": "CARBONDALE", "beds": 81.0, "SR_15": 1.0}, {"Diff_star": -1.0, "addr": "1020 GREEN AVENUE", "SR_14": 5.0, "Q_14": 4.0, "name": "ALTOONA CENTER FOR NURSING CARE", "SF_14": 1.0, "SF_15": 1.0, "cnty": "Blair", "st": "PA", "Zip": 16601.0, "O_14": 4.0, "Q_15": 1.0, "O_15": 3.0, "city": "ALTOONA", "beds": 120.0, "SR_15": 5.0}, {"Diff_star": -1.0, "addr": "120 KITTANNING CARE DRIVE", "SR_14": 5.0, "Q_14": 4.0, "name": "KITTANNING CARE CENTER", "SF_14": 2.0, "SF_15": 2.0, "cnty": "Armstrong", "st": "PA", "Zip": 16201.0, "O_14": 5.0, "Q_15": 1.0, "O_15": 4.0, "city": "KITTANNING", "beds": 120.0, "SR_15": 5.0}, {"Diff_star": 0.0, "addr": "4200 HOSPITAL ROAD", "SR_14": 1.0, "Q_14": 1.0, "name": "GEISINGER-SHAMOKIN AREA COMMUNITY HOSPITAL SNF", "SF_14": 5.0, "SF_15": 5.0, "cnty": "Northumberlnd", "st": "PA", "Zip": 17866.0, "O_14": 1.0, "Q_15": 1.0, "O_15": 1.0, "city": "COAL RUN", "beds": 15.0, "SR_15": 1.0}, {"Diff_star": -1.0, "addr": "600 SOUTH WYCOMBE AVE", "SR_14": 2.0, "Q_14": 5.0, "name": "MANORCARE HEALTH SERVICES-MERCY FI", "SF_14": 2.0, "SF_15": 2.0, "cnty": "Delaware", "st": "PA", "Zip": 19050.0, "O_14": 3.0, "Q_15": 4.0, "O_15": 2.0, "city": "YEADON", "beds": 129.0, "SR_15": 2.0}, {"Diff_star": 0.0, "addr": "631 NORTH BROAD ST", "SR_14": 4.0, "Q_14": 1.0, "name": "GROVE CITY MEDICAL CENTER TCC", "SF_14": 5.0, "SF_15": 5.0, "cnty": "Mercer", "st": "PA", "Zip": 16127.0, "O_14": 4.0, "Q_15": 1.0, "O_15": 4.0, "city": "GROVE CITY", "beds": 18.0, "SR_15": 4.0}, {"Diff_star": 0.0, "addr": "6351 WEST LAKE ROAD", "SR_14": 3.0, "Q_14": 5.0, "name": "MANCHESTER COMMONS", "SF_14": 4.0, "SF_15": 4.0, "cnty": "Erie", "st": "PA", "Zip": 16505.0, "O_14": 5.0, "Q_15": 5.0, "O_15": 5.0, "city": "ERIE", "beds": 78.0, "SR_15": 3.0}, {"Diff_star": -1.0, "addr": "998 SOUTH RUSSELL STREET", "SR_14": 3.0, "Q_14": 5.0, "name": "MISERICORDIA NURSING & REHABILITATION CENTER", "SF_14": 4.0, "SF_15": 3.0, "cnty": "York", "st": "PA", "Zip": 17402.0, "O_14": 5.0, "Q_15": 5.0, "O_15": 4.0, "city": "YORK", "beds": 50.0, "SR_15": 3.0}, {"Diff_star": 0.0, "addr": "100 LANCASTER AVENUE", "SR_14": 5.0, "Q_14": 5.0, "name": "LANKENAU HOSPITAL TCC", "SF_14": 4.0, "SF_15": 4.0, "cnty": "Montgomery", "st": "PA", "Zip": 19096.0, "O_14": 5.0, "Q_15": 5.0, "O_15": 5.0, "city": "WYNNEWOOD", "beds": 22.0, "SR_15": 5.0}, {"Diff_star": 0.0, "addr": "2601 HOLME AVENUE", "SR_14": 4.0, "Q_14": 5.0, "name": "TCU AT NAZARETH HOSPITAL, THE", "SF_14": 4.0, "SF_15": 4.0, "cnty": "Philadelphia", "st": "PA", "Zip": 19152.0, "O_14": 5.0, "Q_15": 5.0, "O_15": 5.0, "city": "PHILA", "beds": 28.0, "SR_15": 4.0}, {"Diff_star": 0.0, "addr": "885 MACBETH DRIVE", "SR_14": 3.0, "Q_14": 3.0, "name": "MANORCARE HEALTH SERVICES-MONROEVILLE", "SF_14": 2.0, "SF_15": 2.0, "cnty": "Allegheny", "st": "PA", "Zip": 15146.0, "O_14": 3.0, "Q_15": 2.0, "O_15": 3.0, "city": "MONROEVILLE", "beds": 120.0, "SR_15": 3.0}, {"Diff_star": 0.0, "addr": "1700 PINE STREET", "SR_14": 5.0, "Q_14": 4.0, "name": "POWERBACK REHABILITATION 1700 PINE STREET", "SF_14": 4.0, "SF_15": 4.0, "cnty": "Montgomery", "st": "PA", "Zip": 19401.0, "O_14": 5.0, "Q_15": 4.0, "O_15": 5.0, "city": "NORRISTOWN", "beds": 99.0, "SR_15": 5.0}, {"Diff_star": 0.0, "addr": "360 WESTMINSTER DRIVE", "SR_14": 4.0, "Q_14": 5.0, "name": "WESTMINSTER WOODS AT HUNTINGDO", "SF_14": 2.0, "SF_15": 2.0, "cnty": "Huntingdon", "st": "PA", "Zip": 16652.0, "O_14": 5.0, "Q_15": 5.0, "O_15": 5.0, "city": "HUNTINGDON", "beds": 64.0, "SR_15": 4.0}, {"Diff_star": 0.0, "addr": "3485 DAVISVILLE ROAD", "SR_14": 5.0, "Q_14": 5.0, "name": "POWERBACK REHABILITATION 3485 DAVISVILLE ROAD", "SF_14": 4.0, "SF_15": 4.0, "cnty": "Montgomery", "st": "PA", "Zip": 19040.0, "O_14": 5.0, "Q_15": 4.0, "O_15": 5.0, "city": "HATBORO", "beds": 109.0, "SR_15": 5.0}, {"Diff_star": 0.0, "addr": "6 GARDEN CENTER DRIVE", "SR_14": 2.0, "Q_14": 4.0, "name": "REDSTONE HIGHLANDS HEALTH CARE", "SF_14": 4.0, "SF_15": 4.0, "cnty": "Westmoreland", "st": "PA", "Zip": 15601.0, "O_14": 3.0, "Q_15": 3.0, "O_15": 3.0, "city": "GREENSBURG", "beds": 77.0, "SR_15": 2.0}, {"Diff_star": 0.0, "addr": "1896 LEITHSVILLE ROAD", "SR_14": 2.0, "Q_14": 4.0, "name": "WESTON REHABILITATION & NURSING CENTER", "SF_14": 4.0, "SF_15": 4.0, "cnty": "Northampton", "st": "PA", "Zip": 18055.0, "O_14": 3.0, "Q_15": 2.0, "O_15": 3.0, "city": "HELLERTOWN", "beds": 49.0, "SR_15": 2.0}, {"Diff_star": 0.0, "addr": "1030 STATE STREET", "SR_14": 4.0, "Q_14": 4.0, "name": "VILLA SAINT JOSEPH OF BADEN IN", "SF_14": 4.0, "SF_15": 3.0, "cnty": "Beaver", "st": "PA", "Zip": 15005.0, "O_14": 4.0, "Q_15": 3.0, "O_15": 4.0, "city": "BADEN", "beds": 120.0, "SR_15": 4.0}, {"Diff_star": 0.0, "addr": "900 PORTER AVENUE", "SR_14": 3.0, "Q_14": 5.0, "name": "SCOTTDALE MANOR REHABILITATION", "SF_14": 2.0, "SF_15": 2.0, "cnty": "Westmoreland", "st": "PA", "Zip": 15683.0, "O_14": 4.0, "Q_15": 5.0, "O_15": 4.0, "city": "SCOTTDALE", "beds": 35.0, "SR_15": 3.0}, {"Diff_star": 0.0, "addr": "200 LOTHROP STREET", "SR_14": 4.0, "Q_14": 3.0, "name": "UPMC TCU", "SF_14": 4.0, "SF_15": 4.0, "cnty": "Allegheny", "st": "PA", "Zip": 15213.0, "O_14": 4.0, "Q_15": 3.0, "O_15": 4.0, "city": "PITTSBURGH", "beds": 30.0, "SR_15": 4.0}, {"Diff_star": -1.0, "addr": "715 FREEPORT ROAD", "SR_14": 3.0, "Q_14": 5.0, "name": "HARMAR VILLAGE CARE CENTER", "SF_14": 2.0, "SF_15": 2.0, "cnty": "Allegheny", "st": "PA", "Zip": 15024.0, "O_14": 4.0, "Q_15": 3.0, "O_15": 3.0, "city": "CHESWICK", "beds": 130.0, "SR_15": 3.0}, {"Diff_star": 0.0, "addr": "3349 WILMINGTON ROAD", "SR_14": 3.0, "Q_14": 1.0, "name": "JAMESON CARE CENTER", "SF_14": 2.0, "SF_15": 2.0, "cnty": "Lawrence", "st": "PA", "Zip": 16105.0, "O_14": 2.0, "Q_15": 1.0, "O_15": 2.0, "city": "NEW CASTLE", "beds": 78.0, "SR_15": 3.0}, {"Diff_star": 0.0, "addr": "4025 GREEN POND ROAD", "SR_14": 5.0, "Q_14": 5.0, "name": "COUNTRY MEADOWS NURSING CENTER OF BETHLEHEM", "SF_14": 4.0, "SF_15": 4.0, "cnty": "Northampton", "st": "PA", "Zip": 18020.0, "O_14": 5.0, "Q_15": 2.0, "O_15": 5.0, "city": "BETHLEHEM", "beds": 70.0, "SR_15": 5.0}, {"Diff_star": 0.0, "addr": "850 NORRISTOWN ROAD", "SR_14": 5.0, "Q_14": 5.0, "name": "MASONIC VILLAGE AT WARMINSTER", "SF_14": 4.0, "SF_15": 4.0, "cnty": "Bucks", "st": "PA", "Zip": 18974.0, "O_14": 5.0, "Q_15": 4.0, "O_15": 5.0, "city": "WARMINSTER", "beds": 28.0, "SR_15": 5.0}, {"Diff_star": 0.0, "addr": "2020 ADER ROAD", "SR_14": 2.0, "Q_14": 4.0, "name": "WILLIAM PENN CARE CENTER", "SF_14": 2.0, "SF_15": 2.0, "cnty": "Westmoreland", "st": "PA", "Zip": 15644.0, "O_14": 2.0, "Q_15": 3.0, "O_15": 2.0, "city": "JEANNETTE", "beds": 155.0, "SR_15": 2.0}, {"Diff_star": 0.0, "addr": "745 GREENVILLE ROAD", "SR_14": 2.0, "Q_14": 4.0, "name": "AVALON SPRINGS NURSING CENTER", "SF_14": 2.0, "SF_15": 2.0, "cnty": "Mercer", "st": "PA", "Zip": 16137.0, "O_14": 2.0, "Q_15": 3.0, "O_15": 2.0, "city": "MERCER", "beds": 100.0, "SR_15": 2.0}, {"Diff_star": 0.0, "addr": "4363 NORTHERN PIKE", "SR_14": 2.0, "Q_14": 4.0, "name": "CONCORDIA AT THE CEDARS", "SF_14": 5.0, "SF_15": 5.0, "cnty": "Allegheny", "st": "PA", "Zip": 15146.0, "O_14": 3.0, "Q_15": 4.0, "O_15": 3.0, "city": "MONROEVILLE", "beds": 59.0, "SR_15": 2.0}, {"Diff_star": 0.0, "addr": "35 FREEDOM BOULEVARD", "SR_14": 3.0, "Q_14": 4.0, "name": "INN AT FREEDOM VILLAGE,THE", "SF_14": 4.0, "SF_15": 4.0, "cnty": "Chester", "st": "PA", "Zip": 19320.0, "O_14": 4.0, "Q_15": 4.0, "O_15": 4.0, "city": "WEST BRANDYWINE", "beds": 60.0, "SR_15": 3.0}, {"Diff_star": 0.0, "addr": "1000 SETON DRIVE", "SR_14": 4.0, "Q_14": 5.0, "name": "SETON MANOR INC", "SF_14": 3.0, "SF_15": 3.0, "cnty": "Schuylkill", "st": "PA", "Zip": 17961.0, "O_14": 5.0, "Q_15": 5.0, "O_15": 5.0, "city": "ORWIGSBURG", "beds": 120.0, "SR_15": 4.0}, {"Diff_star": 0.0, "addr": "2050 BARLEY ROAD", "SR_14": 2.0, "Q_14": 5.0, "name": "MARGARET E. MOUL HOME", "SF_14": 4.0, "SF_15": 4.0, "cnty": "York", "st": "PA", "Zip": 17404.0, "O_14": 4.0, "Q_15": 5.0, "O_15": 4.0, "city": "YORK", "beds": 82.0, "SR_15": 2.0}, {"Diff_star": -1.0, "addr": "211 EAST FIRST STREET", "SR_14": 2.0, "Q_14": 5.0, "name": "GEISINGER-BLOOMSBURG HEALTH CARE CENTER", "SF_14": 3.0, "SF_15": 3.0, "cnty": "Columbia", "st": "PA", "Zip": 17815.0, "O_14": 3.0, "Q_15": 4.0, "O_15": 2.0, "city": "BLOOMSBURG", "beds": 149.0, "SR_15": 2.0}, {"Diff_star": 0.0, "addr": "505 WEYMAN ROAD", "SR_14": 4.0, "Q_14": 4.0, "name": "MANORCARE HEALTH SERVICES-WHITEHALL BOROUGH", "SF_14": 4.0, "SF_15": 3.0, "cnty": "Allegheny", "st": "PA", "Zip": 15236.0, "O_14": 4.0, "Q_15": 3.0, "O_15": 4.0, "city": "PITTSBURGH", "beds": 166.0, "SR_15": 4.0}, {"Diff_star": 0.0, "addr": "3746 CEDAR RIDGE ROAD", "SR_14": 5.0, "Q_14": 5.0, "name": "CONCORDIA AT REBECCA RESIDENCE", "SF_14": 4.0, "SF_15": 3.0, "cnty": "Allegheny", "st": "PA", "Zip": 15101.0, "O_14": 5.0, "Q_15": 4.0, "O_15": 5.0, "city": "ALLISON PARK", "beds": 60.0, "SR_15": 5.0}, {"Diff_star": 0.0, "addr": "207 OTTAWA STREET", "SR_14": 3.0, "Q_14": 5.0, "name": "ARBUTUS PARK MANOR", "SF_14": 4.0, "SF_15": 4.0, "cnty": "Cambria", "st": "PA", "Zip": 15904.0, "O_14": 5.0, "Q_15": 5.0, "O_15": 5.0, "city": "JOHNSTOWN", "beds": 141.0, "SR_15": 4.0}, {"Diff_star": 0.0, "addr": "8410 ROOSEVELT BLVD", "SR_14": 4.0, "Q_14": 4.0, "name": "ANGELA JANE PAVILION", "SF_14": 4.0, "SF_15": 3.0, "cnty": "Philadelphia", "st": "PA", "Zip": 19152.0, "O_14": 4.0, "Q_15": 2.0, "O_15": 4.0, "city": "PHILADELPHIA", "beds": 49.0, "SR_15": 4.0}, {"Diff_star": 0.0, "addr": "959 EAST STATE STREET", "SR_14": 1.0, "Q_14": 4.0, "name": "CLEPPER MANOR", "SF_14": 2.0, "SF_15": 2.0, "cnty": "Mercer", "st": "PA", "Zip": 16146.0, "O_14": 1.0, "Q_15": 2.0, "O_15": 1.0, "city": "SHARON", "beds": 54.0, "SR_15": 1.0}, {"Diff_star": -1.0, "addr": "5515 PEACH STREET", "SR_14": 3.0, "Q_14": 3.0, "name": "MILLCREEK MANOR", "SF_14": 4.0, "SF_15": 4.0, "cnty": "Erie", "st": "PA", "Zip": 16509.0, "O_14": 4.0, "Q_15": 1.0, "O_15": 3.0, "city": "ERIE", "beds": 50.0, "SR_15": 3.0}, {"Diff_star": -1.0, "addr": "100 TANDEM VILLAGE ROAD", "SR_14": 2.0, "Q_14": 2.0, "name": "CONSULATE HEALTH CARE OF NORTH STRABANE", "SF_14": 3.0, "SF_15": 3.0, "cnty": "Washington", "st": "PA", "Zip": 15317.0, "O_14": 2.0, "Q_15": 1.0, "O_15": 1.0, "city": "CANONSBURG", "beds": 62.0, "SR_15": 2.0}, {"Diff_star": 0.0, "addr": "303 SMALLACOMBE DRIVE", "SR_14": 3.0, "Q_14": 4.0, "name": "ALLIED SERVICES SKILLED NURSING CENTER", "SF_14": 3.0, "SF_15": 3.0, "cnty": "Lackawanna", "st": "PA", "Zip": 18501.0, "O_14": 3.0, "Q_15": 2.0, "O_15": 3.0, "city": "SCRANTON", "beds": 371.0, "SR_15": 3.0}, {"Diff_star": -1.0, "addr": "3410 W. PITTSBURGH RD", "SR_14": 3.0, "Q_14": 5.0, "name": "AVALON NURSING CENTER", "SF_14": 3.0, "SF_15": 3.0, "cnty": "Lawrence", "st": "PA", "Zip": 16101.0, "O_14": 4.0, "Q_15": 4.0, "O_15": 3.0, "city": "NEW CASTLE", "beds": 83.0, "SR_15": 3.0}, {"Diff_star": -1.0, "addr": "4001 FORD ROAD", "SR_14": 3.0, "Q_14": 5.0, "name": "BALA NURSING AND RETIREMENT CE", "SF_14": 1.0, "SF_15": 1.0, "cnty": "Philadelphia", "st": "PA", "Zip": 19131.0, "O_14": 3.0, "Q_15": 3.0, "O_15": 2.0, "city": "PHILADELPHIA", "beds": 180.0, "SR_15": 3.0}, {"Diff_star": 0.0, "addr": "4100 FREEMANSBURG AVENUE", "SR_14": 4.0, "Q_14": 5.0, "name": "OLD ORCHARD HEALTH CARE CENTER", "SF_14": 3.0, "SF_15": 3.0, "cnty": "Northampton", "st": "PA", "Zip": 18045.0, "O_14": 5.0, "Q_15": 5.0, "O_15": 5.0, "city": "EASTON", "beds": 180.0, "SR_15": 4.0}, {"Diff_star": 0.0, "addr": "1425 HORSHAM ROAD", "SR_14": 4.0, "Q_14": 5.0, "name": "ABRAMSON RESIDENCE", "SF_14": 4.0, "SF_15": 4.0, "cnty": "Montgomery", "st": "PA", "Zip": 19454.0, "O_14": 5.0, "Q_15": 5.0, "O_15": 5.0, "city": "NORTH WALES", "beds": 324.0, "SR_15": 4.0}, {"Diff_star": 0.0, "addr": "433 S KINZER AVENUE", "SR_14": 2.0, "Q_14": 4.0, "name": "GARDEN SPOT VILLAGE", "SF_14": 5.0, "SF_15": 5.0, "cnty": "Lancaster", "st": "PA", "Zip": 17557.0, "O_14": 3.0, "Q_15": 2.0, "O_15": 3.0, "city": "NEW HOLLAND", "beds": 73.0, "SR_15": 2.0}, {"Diff_star": -1.0, "addr": "404 EAST HARFORD STREET", "SR_14": 2.0, "Q_14": 5.0, "name": "BELLE REVE HEALTH CARE CENTER", "SF_14": 3.0, "SF_15": 3.0, "cnty": "Pike", "st": "PA", "Zip": 18337.0, "O_14": 3.0, "Q_15": 3.0, "O_15": 2.0, "city": "MILFORD", "beds": 30.0, "SR_15": 2.0}, {"Diff_star": -1.0, "addr": "4855 WEST RIDGE ROAD", "SR_14": 3.0, "Q_14": 4.0, "name": "SAINT MARY'S AT ASBURY RIDGE", "SF_14": 4.0, "SF_15": 3.0, "cnty": "Erie", "st": "PA", "Zip": 16506.0, "O_14": 4.0, "Q_15": 4.0, "O_15": 3.0, "city": "ERIE", "beds": 80.0, "SR_15": 3.0}, {"Diff_star": 0.0, "addr": "1615 EAST BOOT ROAD  EAST GOSHEN", "SR_14": 1.0, "Q_14": 5.0, "name": "BELLINGHAM PARK LANE", "SF_14": 4.0, "SF_15": 4.0, "cnty": "Chester", "st": "PA", "Zip": 19380.0, "O_14": 2.0, "Q_15": 4.0, "O_15": 2.0, "city": "WEST CHESTER", "beds": 64.0, "SR_15": 1.0}, {"Diff_star": -1.0, "addr": "318 SOUTH ORANGE STREET", "SR_14": 1.0, "Q_14": 5.0, "name": "STERLING HEALTH CARE AND REHAB CENTER", "SF_14": 2.0, "SF_15": 2.0, "cnty": "Delaware", "st": "PA", "Zip": 19063.0, "O_14": 2.0, "Q_15": 4.0, "O_15": 1.0, "city": "MEDIA", "beds": 164.0, "SR_15": 1.0}, {"Diff_star": 0.0, "addr": "200 STOOPS DRIVE", "SR_14": 3.0, "Q_14": 4.0, "name": "MON VALLEY CARE CENTER", "SF_14": 4.0, "SF_15": 4.0, "cnty": "Washington", "st": "PA", "Zip": 15063.0, "O_14": 4.0, "Q_15": 2.0, "O_15": 4.0, "city": "MONONGAHELA", "beds": 60.0, "SR_15": 3.0}, {"Diff_star": -1.0, "addr": "200 TAYLORSVILLE MOUNTAIN ROAD", "SR_14": 2.0, "Q_14": 5.0, "name": "FRIENDLY NURSING HOME - PITMAN", "SF_14": 4.0, "SF_15": 4.0, "cnty": "Schuylkill", "st": "PA", "Zip": 17964.0, "O_14": 4.0, "Q_15": 4.0, "O_15": 3.0, "city": "PITMAN", "beds": 48.0, "SR_15": 2.0}, {"Diff_star": 0.0, "addr": "4112 SPRING HILL ROAD", "SR_14": 2.0, "Q_14": 3.0, "name": "MAPLE WINDS CARE CENTER", "SF_14": 2.0, "SF_15": 2.0, "cnty": "Cambria", "st": "PA", "Zip": 15946.0, "O_14": 2.0, "Q_15": 2.0, "O_15": 2.0, "city": "PORTAGE", "beds": 50.0, "SR_15": 2.0}, {"Diff_star": 0.0, "addr": "1300 BOWER HILL ROAD", "SR_14": 1.0, "Q_14": 5.0, "name": "CONCORDIA OF THE SOUTH HILLS", "SF_14": 5.0, "SF_15": 5.0, "cnty": "Allegheny", "st": "PA", "Zip": 15243.0, "O_14": 2.0, "Q_15": 5.0, "O_15": 2.0, "city": "PITTSBURGH", "beds": 46.0, "SR_15": 1.0}, {"Diff_star": -1.0, "addr": "200 SYCAMORE DRIVE", "SR_14": 3.0, "Q_14": 5.0, "name": "PRESTON RESIDENCE", "SF_14": 4.0, "SF_15": 3.0, "cnty": "Chester", "st": "PA", "Zip": 19390.0, "O_14": 5.0, "Q_15": 5.0, "O_15": 4.0, "city": "WEST GROVE", "beds": 38.0, "SR_15": 3.0}, {"Diff_star": 0.0, "addr": "260 LION'S HILL ROAD", "SR_14": 2.0, "Q_14": 5.0, "name": "VILLAGE AT PENN STATE,  THE", "SF_14": 5.0, "SF_15": 5.0, "cnty": "Centre", "st": "PA", "Zip": 16803.0, "O_14": 4.0, "Q_15": 5.0, "O_15": 4.0, "city": "STATE COLLEGE", "beds": 27.0, "SR_15": 2.0}, {"Diff_star": 0.0, "addr": "PO BOX 248, 631 MAIN STREET", "SR_14": 2.0, "Q_14": 4.0, "name": "RICHFIELD SENIOR LIVING AND REHABILITATION CENTER", "SF_14": 1.0, "SF_15": 1.0, "cnty": "Juniata", "st": "PA", "Zip": 17086.0, "O_14": 1.0, "Q_15": 1.0, "O_15": 1.0, "city": "RICHFIELD", "beds": 40.0, "SR_15": 2.0}, {"Diff_star": 0.0, "addr": "2933 MCCARTHY STREET", "SR_14": 2.0, "Q_14": 5.0, "name": "SCRANTON HEALTH CARE CENTER", "SF_14": 2.0, "SF_15": 2.0, "cnty": "Lackawanna", "st": "PA", "Zip": 18505.0, "O_14": 3.0, "Q_15": 5.0, "O_15": 3.0, "city": "SCRANTON", "beds": 44.0, "SR_15": 2.0}, {"Diff_star": 0.0, "addr": "634 EAST BROAD STREET", "SR_14": 3.0, "Q_14": 4.0, "name": "MORAVIAN VILLAGE OF BETHLEHEM", "SF_14": 5.0, "SF_15": 5.0, "cnty": "Northampton", "st": "PA", "Zip": 18018.0, "O_14": 4.0, "Q_15": 3.0, "O_15": 4.0, "city": "BETHLEHEM", "beds": 118.0, "SR_15": 3.0}, {"Diff_star": 0.0, "addr": "300 HALKET STREET", "SR_14": 3.0, "Q_14": 4.0, "name": "UPMC MAGEE-WOMENS HOSPITAL TCU", "SF_14": 5.0, "SF_15": 5.0, "cnty": "Allegheny", "st": "PA", "Zip": 15213.0, "O_14": 4.0, "Q_15": 3.0, "O_15": 4.0, "city": "PITTSBURGH", "beds": 20.0, "SR_15": 3.0}, {"Diff_star": 0.0, "addr": "105 MORTON AVENUE", "SR_14": 4.0, "Q_14": 1.0, "name": "CONNER-WILLIAMS NURSING HOME", "SF_14": 3.0, "SF_15": 3.0, "cnty": "Delaware", "st": "PA", "Zip": 19078.0, "O_14": 3.0, "Q_15": 1.0, "O_15": 3.0, "city": "RIDLEY PARK", "beds": 50.0, "SR_15": 4.0}, {"Diff_star": 0.0, "addr": "6000 SHANNONDELL DRIVE", "SR_14": 4.0, "Q_14": 5.0, "name": "MEADOWS AT SHANNONDELL,THE", "SF_14": 4.0, "SF_15": 5.0, "cnty": "Montgomery", "st": "PA", "Zip": 19403.0, "O_14": 5.0, "Q_15": 5.0, "O_15": 5.0, "city": "AUDUBON", "beds": 60.0, "SR_15": 4.0}, {"Diff_star": 0.0, "addr": "320 MAIN STREET", "SR_14": 4.0, "Q_14": 5.0, "name": "CONEMAUGH MEMORIAL MEDICAL CENTER TCU", "SF_14": 5.0, "SF_15": 5.0, "cnty": "Cambria", "st": "PA", "Zip": 15901.0, "O_14": 5.0, "Q_15": 5.0, "O_15": 5.0, "city": "JOHNSTOWN", "beds": 30.0, "SR_15": 4.0}, {"Diff_star": -1.0, "addr": "238 SOUTH MARKET STREET", "SR_14": 4.0, "Q_14": 5.0, "name": "SHENANGO PRESBYTERIAN SENIORCARE", "SF_14": 4.0, "SF_15": 4.0, "cnty": "Lawrence", "st": "PA", "Zip": 16142.0, "O_14": 5.0, "Q_15": 3.0, "O_15": 4.0, "city": "NEW WILMINGTON", "beds": 25.0, "SR_15": 4.0}, {"Diff_star": 0.0, "addr": "725 PAUL STREET", "SR_14": 5.0, "Q_14": 3.0, "name": "HAVEN CONVALESCENT HOME, INC", "SF_14": 3.0, "SF_15": 3.0, "cnty": "Lawrence", "st": "PA", "Zip": 16101.0, "O_14": 5.0, "Q_15": 2.0, "O_15": 5.0, "city": "NEW CASTLE", "beds": 91.0, "SR_15": 5.0}, {"Diff_star": 0.0, "addr": "16000 ANN'S CHOICE WAY", "SR_14": 5.0, "Q_14": 5.0, "name": "ANN'S CHOICE", "SF_14": 5.0, "SF_15": 5.0, "cnty": "Bucks", "st": "PA", "Zip": 18974.0, "O_14": 5.0, "Q_15": 5.0, "O_15": 5.0, "city": "WARMINSTER", "beds": 88.0, "SR_15": 5.0}, {"Diff_star": 0.0, "addr": "2855 SCHOENERSVILLE ROAD", "SR_14": 4.0, "Q_14": 5.0, "name": "GOOD SHEPHERD HOME-BETHLEHEM", "SF_14": 5.0, "SF_15": 5.0, "cnty": "Lehigh", "st": "PA", "Zip": 18017.0, "O_14": 5.0, "Q_15": 3.0, "O_15": 5.0, "city": "BETHLEHEM", "beds": 60.0, "SR_15": 4.0}, {"Diff_star": 0.0, "addr": "150 MUNDY STREET", "SR_14": 2.0, "Q_14": 5.0, "name": "HEINZ TRANSITIONAL REHABILITATION UNIT", "SF_14": 3.0, "SF_15": 3.0, "cnty": "Luzerne", "st": "PA", "Zip": 18702.0, "O_14": 3.0, "Q_15": 5.0, "O_15": 3.0, "city": "WILKES-BARRE", "beds": 25.0, "SR_15": 2.0}, {"Diff_star": 0.0, "addr": "2100 UTZ TERRACE", "SR_14": 4.0, "Q_14": 5.0, "name": "SKILLED CARE CENTER AT UTZ TERRACE", "SF_14": 4.0, "SF_15": 4.0, "cnty": "York", "st": "PA", "Zip": 17331.0, "O_14": 5.0, "Q_15": 5.0, "O_15": 5.0, "city": "HANOVER", "beds": 40.0, "SR_15": 4.0}, {"Diff_star": 0.0, "addr": "44 SOUTH MARKET STREET", "SR_14": 1.0, "Q_14": 5.0, "name": "KEPLER CENTER FOR NURSING AND REHABILITATION", "SF_14": 4.0, "SF_15": 4.0, "cnty": "Dauphin", "st": "PA", "Zip": 17023.0, "O_14": 2.0, "Q_15": 4.0, "O_15": 2.0, "city": "ELIZABETHVILLE", "beds": 40.0, "SR_15": 1.0}, {"Diff_star": 0.0, "addr": "4000 FOX HOUND DRIVE", "SR_14": 5.0, "Q_14": 5.0, "name": "HEALTH CENTER AT THE HILL AT WHITEMARSH, THE", "SF_14": 5.0, "SF_15": 5.0, "cnty": "Montgomery", "st": "PA", "Zip": 19444.0, "O_14": 5.0, "Q_15": 5.0, "O_15": 5.0, "city": "LAFAYETTE HILL", "beds": 60.0, "SR_15": 5.0}, {"Diff_star": 0.0, "addr": "315 EAST LONDON GROVE ROAD", "SR_14": 1.0, "Q_14": 5.0, "name": "TWIN PINES HEALTH CARE CENTER", "SF_14": 4.0, "SF_15": 4.0, "cnty": "Chester", "st": "PA", "Zip": 19390.0, "O_14": 2.0, "Q_15": 4.0, "O_15": 2.0, "city": "WEST GROVE", "beds": 120.0, "SR_15": 1.0}, {"Diff_star": 0.0, "addr": "8601 STENTON AVENUE", "SR_14": 1.0, "Q_14": 4.0, "name": "WYNDMOOR HILLS HEALTH CARE & REHAB CENTER", "SF_14": 4.0, "SF_15": 4.0, "cnty": "Montgomery", "st": "PA", "Zip": 19038.0, "O_14": 2.0, "Q_15": 2.0, "O_15": 2.0, "city": "WYNDMOOR", "beds": 77.0, "SR_15": 1.0}, {"Diff_star": 0.0, "addr": "1028 BENTON AVENUE", "SR_14": 4.0, "Q_14": 4.0, "name": "LITTLE SISTERS OF THE POOR", "SF_14": 5.0, "SF_15": 5.0, "cnty": "Allegheny", "st": "PA", "Zip": 15212.0, "O_14": 5.0, "Q_15": 4.0, "O_15": 5.0, "city": "PITTSBURGH", "beds": 48.0, "SR_15": 4.0}, {"Diff_star": 0.0, "addr": "1361 EAST BOOT ROAD", "SR_14": 3.0, "Q_14": 5.0, "name": "WELLINGTON TERRACE", "SF_14": 5.0, "SF_15": 4.0, "cnty": "Chester", "st": "PA", "Zip": 19380.0, "O_14": 5.0, "Q_15": 5.0, "O_15": 5.0, "city": "WEST CHESTER", "beds": 40.0, "SR_15": 4.0}, {"Diff_star": 2.0, "addr": "3026 MOUNT HOPE HOME ROAD", "SR_14": 2.0, "Q_14": 5.0, "name": "MT HOPE NAZARENE RETIREMENT COMMUNITY", "SF_14": 3.0, "SF_15": 4.0, "cnty": "Lancaster", "st": "PA", "Zip": 17545.0, "O_14": 3.0, "Q_15": 5.0, "O_15": 5.0, "city": "MANHEIM", "beds": 50.0, "SR_15": 4.0}, {"Diff_star": 0.0, "addr": "208 FERNBROOK AVENUE", "SR_14": 5.0, "Q_14": 4.0, "name": "PHOEBE WYNCOTE", "SF_14": 4.0, "SF_15": 4.0, "cnty": "Montgomery", "st": "PA", "Zip": 19095.0, "O_14": 5.0, "Q_15": 2.0, "O_15": 5.0, "city": "WYNCOTE", "beds": 58.0, "SR_15": 5.0}, {"Diff_star": 0.0, "addr": "5515 PEACH STREET", "SR_14": 3.0, "Q_14": 3.0, "name": "MILLCREEK COMMUNITY HOSPITAL TRANSITIONAL CARE", "SF_14": 5.0, "SF_15": 5.0, "cnty": "Erie", "st": "PA", "Zip": 16509.0, "O_14": 4.0, "Q_15": 3.0, "O_15": 4.0, "city": "ERIE", "beds": 24.0, "SR_15": 3.0}, {"Diff_star": -1.0, "addr": "120 SOUTH FILBERT ST", "SR_14": 1.0, "Q_14": 2.0, "name": "FOX SUBACUTE AT MECHANICSBURG", "SF_14": 4.0, "SF_15": 4.0, "cnty": "Cumberland", "st": "PA", "Zip": 17055.0, "O_14": 2.0, "Q_15": 1.0, "O_15": 1.0, "city": "MECHANICSBURG", "beds": 44.0, "SR_15": 1.0}, {"Diff_star": 0.0, "addr": "500 MARIS GROVE WAY", "SR_14": 2.0, "Q_14": 4.0, "name": "CONTINUING CARE  AT MARIS GROVE", "SF_14": 4.0, "SF_15": 4.0, "cnty": "Delaware", "st": "PA", "Zip": 19342.0, "O_14": 3.0, "Q_15": 3.0, "O_15": 3.0, "city": "GLEN MILLS", "beds": 66.0, "SR_15": 2.0}, {"Diff_star": 0.0, "addr": "200 ADAMS AVE", "SR_14": 5.0, "Q_14": 5.0, "name": "PROVIDENCE POINT HEALTHCARE RESIDENCE", "SF_14": 5.0, "SF_15": 5.0, "cnty": "Allegheny", "st": "PA", "Zip": 15243.0, "O_14": 5.0, "Q_15": 5.0, "O_15": 5.0, "city": "PITTSBURGH", "beds": 63.0, "SR_15": 5.0}, {"Diff_star": 0.0, "addr": "1 SHEPHERD'S WAY SUITE 100", "SR_14": 4.0, "Q_14": 3.0, "name": "CHRIST'S HOME RETIREMENT CENTE", "SF_14": 5.0, "SF_15": 5.0, "cnty": "Bucks", "st": "PA", "Zip": 18974.0, "O_14": 5.0, "Q_15": 2.0, "O_15": 5.0, "city": "WARMINSTER", "beds": 48.0, "SR_15": 4.0}, {"Diff_star": -1.0, "addr": "3000 BALFOUR CIRCLE", "SR_14": 4.0, "Q_14": 5.0, "name": "POWERBACK REHABILITATION PHOENIXVILLE", "SF_14": 5.0, "SF_15": 5.0, "cnty": "Chester", "st": "PA", "Zip": 19460.0, "O_14": 5.0, "Q_15": 2.0, "O_15": 4.0, "city": "PHOENIXVILLE", "beds": 22.0, "SR_15": 3.0}, {"Diff_star": 1.0, "addr": "420 SOUTH JACKSON STREET", "SR_14": 4.0, "Q_14": 3.0, "name": "SCHUYLKILL MEDICAL CENTER-SOUTH JACKSON STREET TCU", "SF_14": 4.0, "SF_15": 4.0, "cnty": "Schuylkill", "st": "PA", "Zip": 17901.0, "O_14": 4.0, "Q_15": 5.0, "O_15": 5.0, "city": "POTTSVILLE", "beds": 11.0, "SR_15": 4.0}, {"Diff_star": -1.0, "addr": "604 OAK STREET", "SR_14": 3.0, "Q_14": 5.0, "name": "MAPLE FARM", "SF_14": 4.0, "SF_15": 4.0, "cnty": "Lancaster", "st": "PA", "Zip": 17501.0, "O_14": 5.0, "Q_15": 4.0, "O_15": 4.0, "city": "AKRON", "beds": 46.0, "SR_15": 3.0}, {"Diff_star": 0.0, "addr": "ONE PENN BOULEVARD", "SR_14": 2.0, "Q_14": 4.0, "name": "WILLOW TERRACE", "SF_14": 1.0, "SF_15": 1.0, "cnty": "Philadelphia", "st": "PA", "Zip": 19144.0, "O_14": 1.0, "Q_15": 2.0, "O_15": 1.0, "city": "PHILADELPHIA", "beds": 180.0, "SR_15": 2.0}, {"Diff_star": 0.0, "addr": "370 WHITE STONE CORNER ROAD", "SR_14": 1.0, "Q_14": 4.0, "name": "WHITESTONE CARE CENTER", "SF_14": 3.0, "SF_15": 3.0, "cnty": "Monroe", "st": "PA", "Zip": 18360.0, "O_14": 1.0, "Q_15": 3.0, "O_15": 1.0, "city": "STROUDSBURG", "beds": 90.0, "SR_15": 1.0}, {"Diff_star": 0.0, "addr": "100 S JACKSON AVE", "SR_14": 2.0, "Q_14": 4.0, "name": "LIFECARE HOSPITALS OF PITTSBURGH SNF UNIT", "SF_14": 4.0, "SF_15": 4.0, "cnty": "Allegheny", "st": "PA", "Zip": 15202.0, "O_14": 3.0, "Q_15": 4.0, "O_15": 3.0, "city": "PITTSBURGH", "beds": 40.0, "SR_15": 2.0}, {"Diff_star": 0.0, "addr": "787 GOUCHER STREET", "SR_14": 2.0, "Q_14": 3.0, "name": "PRESBYTERIAN HOME OF GREATER JOHNSTOWN", "SF_14": 4.0, "SF_15": 4.0, "cnty": "Cambria", "st": "PA", "Zip": 15905.0, "O_14": 3.0, "Q_15": 2.0, "O_15": 3.0, "city": "JOHNSTOWN", "beds": 41.0, "SR_15": 2.0}, {"Diff_star": 0.0, "addr": "707 SHEPERDSTOWN RD", "SR_14": 2.0, "Q_14": 3.0, "name": "VIBRA REHABILITATION CENTER", "SF_14": 2.0, "SF_15": 2.0, "cnty": "Cumberland", "st": "PA", "Zip": 17055.0, "O_14": 2.0, "Q_15": 2.0, "O_15": 2.0, "city": "MECHANICSBURG", "beds": 48.0, "SR_15": 2.0}, {"Diff_star": 0.0, "addr": "1135 WEST CHOCOLATE AVENUE 2ND FLOOR", "SR_14": "", "Q_14": "", "name": "PENN STATE HERSHEY TRANSITIONAL CARE", "SF_14": "", "SF_15": "", "cnty": "Dauphin", "st": "PA", "Zip": 17036.0, "O_14": "", "Q_15": "", "O_15": "", "city": "HUMMELSTOWN", "beds": 22.0, "SR_15": ""}, {"Diff_star": 0.0, "addr": "475 MORGAN HIGHWAY", "SR_14": "", "Q_14": "", "name": "ALLIED SEVICES TRANSITIONAL REHAB UNIT", "SF_14": "", "SF_15": "", "cnty": "Lackawanna", "st": "PA", "Zip": 18508.0, "O_14": "", "Q_15": "", "O_15": "", "city": "SCRANTON", "beds": 55.0, "SR_15": ""}, {"Diff_star": 0.0, "addr": "401 PENN AVENUE", "SR_14": 1.0, "Q_14": 5.0, "name": "GINO J MERLI VETERANS CENTER", "SF_14": 4.0, "SF_15": 4.0, "cnty": "Lackawanna", "st": "PA", "Zip": 18503.0, "O_14": 2.0, "Q_15": 4.0, "O_15": 2.0, "city": "SCRANTON", "beds": 196.0, "SR_15": 1.0}, {"Diff_star": 0.0, "addr": "PO BOX 6239", "SR_14": 4.0, "Q_14": 4.0, "name": "PENNSYLVANIA SOLDIERS AND SAILORS HOME", "SF_14": 5.0, "SF_15": 5.0, "cnty": "Erie", "st": "PA", "Zip": 16512.0, "O_14": 5.0, "Q_15": 2.0, "O_15": 5.0, "city": "ERIE", "beds": 107.0, "SR_15": 4.0}, {"Diff_star": 0.0, "addr": "ONE VETERANS DRIVE", "SR_14": 1.0, "Q_14": 5.0, "name": "SOUTHEASTERN PENNSYLVANIA VETERAN'S CENTER", "SF_14": 4.0, "SF_15": 4.0, "cnty": "Chester", "st": "PA", "Zip": 19475.0, "O_14": 2.0, "Q_15": 4.0, "O_15": 2.0, "city": "SPRING CITY", "beds": 184.0, "SR_15": 1.0}, {"Diff_star": 0.0, "addr": "2701 SOUTHAMPTON RD", "SR_14": 4.0, "Q_14": 5.0, "name": "DELAWARE VALLEY VETERAN'S HOME", "SF_14": 5.0, "SF_15": 5.0, "cnty": "Philadelphia", "st": "PA", "Zip": 19154.0, "O_14": 5.0, "Q_15": 5.0, "O_15": 5.0, "city": "PHILADELPHIA", "beds": 130.0, "SR_15": 4.0}, {"Diff_star": 0.0, "addr": "PO BOX 319", "SR_14": 3.0, "Q_14": 4.0, "name": "HOLLIDAYSBURG VETERANS HOME", "SF_14": 5.0, "SF_15": 5.0, "cnty": "Blair", "st": "PA", "Zip": 16648.0, "O_14": 4.0, "Q_15": 2.0, "O_15": 4.0, "city": "HOLLIDAYSBURG", "beds": 339.0, "SR_15": 3.0}, {"Diff_star": 1.0, "addr": "7060 HIGHLAND DRIVE", "SR_14": 3.0, "Q_14": 4.0, "name": "SOUTHWESTERN VETERANS CENTER", "SF_14": 4.0, "SF_15": 5.0, "cnty": "Allegheny", "st": "PA", "Zip": 15206.0, "O_14": 4.0, "Q_15": 4.0, "O_15": 5.0, "city": "PITTSBURGH", "beds": 204.0, "SR_15": 4.0}, {"Diff_star": 0.0, "addr": "200 SOUTH MAIN STREET", "SR_14": "", "Q_14": "", "name": "ASHTON HEALTHCARE", "SF_14": "", "SF_15": "", "cnty": "Bradford", "st": "PA", "Zip": 18810.0, "O_14": "", "Q_15": "", "O_15": "", "city": "ATHENS", "beds": 121.0, "SR_15": ""}]