[{"Diff_star": -1.0, "addr": "200 WAMPANOAG TRAIL", "SR_14": 2.0, "Q_14": 5.0, "name": "HATTIE IDE CHAFFEE HOME", "SF_14": 4.0, "SF_15": 4.0, "cnty": "Providence", "st": "RI", "Zip": 2914.0, "O_14": 4.0, "Q_15": 4.0, "O_15": 3.0, "city": "EAST PROVIDENCE", "beds": 60.0, "SR_15": 2.0}, {"Diff_star": 0.0, "addr": "79 BEACH STREET", "SR_14": 3.0, "Q_14": 5.0, "name": "WESTERLY NURSING HOME INC", "SF_14": 4.0, "SF_15": 4.0, "cnty": "Washington", "st": "RI", "Zip": 2891.0, "O_14": 5.0, "Q_15": 5.0, "O_15": 5.0, "city": "WESTERLY", "beds": 66.0, "SR_15": 3.0}, {"Diff_star": 0.0, "addr": "100 WAMPANOAG TRAIL", "SR_14": 4.0, "Q_14": 5.0, "name": "CHESTNUT TERRACE NURSING & REHABILITATION CENTER", "SF_14": 5.0, "SF_15": 5.0, "cnty": "Providence", "st": "RI", "Zip": 2915.0, "O_14": 5.0, "Q_15": 3.0, "O_15": 5.0, "city": "RIVERSIDE", "beds": 57.0, "SR_15": 4.0}, {"Diff_star": 0.0, "addr": "1139 MAIN AVENUE", "SR_14": 3.0, "Q_14": 5.0, "name": "GREENWOOD CARE AND REHABILITATION CENTER", "SF_14": 4.0, "SF_15": 4.0, "cnty": "Kent", "st": "RI", "Zip": 2886.0, "O_14": 5.0, "Q_15": 5.0, "O_15": 5.0, "city": "WARWICK", "beds": 130.0, "SR_15": 3.0}, {"Diff_star": 0.0, "addr": "660 COMMONWEALTH AVENUE", "SR_14": 5.0, "Q_14": 4.0, "name": "KENT REGENCY CENTER", "SF_14": 4.0, "SF_15": 3.0, "cnty": "Kent", "st": "RI", "Zip": 2886.0, "O_14": 5.0, "Q_15": 2.0, "O_15": 5.0, "city": "WARWICK", "beds": 153.0, "SR_15": 5.0}, {"Diff_star": 0.0, "addr": "1 SAINT ELIZABETH WAY", "SR_14": 4.0, "Q_14": 4.0, "name": "SAINT ELIZABETH HOME, EAST GREENWICH", "SF_14": 5.0, "SF_15": 5.0, "cnty": "Kent", "st": "RI", "Zip": 2818.0, "O_14": 5.0, "Q_15": 4.0, "O_15": 5.0, "city": "EAST GREENWICH", "beds": 120.0, "SR_15": 4.0}, {"Diff_star": 0.0, "addr": "49 OLD POCASSET ROAD", "SR_14": 5.0, "Q_14": 5.0, "name": "BRIARCLIFFE MANOR", "SF_14": 4.0, "SF_15": 4.0, "cnty": "Providence", "st": "RI", "Zip": 2919.0, "O_14": 5.0, "Q_15": 5.0, "O_15": 5.0, "city": "JOHNSTON", "beds": 122.0, "SR_15": 5.0}, {"Diff_star": 0.0, "addr": "54 BARKER AVENUE", "SR_14": 5.0, "Q_14": 5.0, "name": "GRACE BARKER NURSING CENTER INC.", "SF_14": 2.0, "SF_15": 2.0, "cnty": "Bristol", "st": "RI", "Zip": 2885.0, "O_14": 5.0, "Q_15": 4.0, "O_15": 5.0, "city": "WARREN", "beds": 86.0, "SR_15": 5.0}, {"Diff_star": 0.0, "addr": "79 WATCH HILL ROAD", "SR_14": 3.0, "Q_14": 4.0, "name": "APPLE REHAB WATCH HILL", "SF_14": 3.0, "SF_15": 3.0, "cnty": "Washington", "st": "RI", "Zip": 2891.0, "O_14": 3.0, "Q_15": 3.0, "O_15": 3.0, "city": "WESTERLY", "beds": 60.0, "SR_15": 3.0}, {"Diff_star": 0.0, "addr": "100 CHAMBERS STREET", "SR_14": 4.0, "Q_14": 3.0, "name": "GRANDVIEW CENTER", "SF_14": 2.0, "SF_15": 2.0, "cnty": "Providence", "st": "RI", "Zip": 2864.0, "O_14": 4.0, "Q_15": 2.0, "O_15": 4.0, "city": "CUMBERLAND", "beds": 72.0, "SR_15": 4.0}, {"Diff_star": 0.0, "addr": "83 CORONA STREET", "SR_14": 5.0, "Q_14": 5.0, "name": "SUNNY VIEW NURSING HOME", "SF_14": 3.0, "SF_15": 3.0, "cnty": "Kent", "st": "RI", "Zip": 2886.0, "O_14": 5.0, "Q_15": 5.0, "O_15": 5.0, "city": "WARWICK", "beds": 57.0, "SR_15": 5.0}, {"Diff_star": 0.0, "addr": "66 BENEFIT STREET", "SR_14": 5.0, "Q_14": 4.0, "name": "HALLWORTH HOUSE", "SF_14": 4.0, "SF_15": 4.0, "cnty": "Providence", "st": "RI", "Zip": 2904.0, "O_14": 5.0, "Q_15": 3.0, "O_15": 5.0, "city": "PROVIDENCE", "beds": 57.0, "SR_15": 5.0}, {"Diff_star": 0.0, "addr": "544 PLEASANT STREET", "SR_14": 1.0, "Q_14": 5.0, "name": "OAK HILL HEALTH & REHABILITATION CENTER", "SF_14": 4.0, "SF_15": 4.0, "cnty": "Providence", "st": "RI", "Zip": 2860.0, "O_14": 2.0, "Q_15": 5.0, "O_15": 2.0, "city": "PAWTUCKET", "beds": 129.0, "SR_15": 1.0}, {"Diff_star": -1.0, "addr": "109 WEST SHORE ROAD", "SR_14": 2.0, "Q_14": 5.0, "name": "WEST SHORE HEALTH CENTER", "SF_14": 2.0, "SF_15": 2.0, "cnty": "Kent", "st": "RI", "Zip": 2889.0, "O_14": 3.0, "Q_15": 4.0, "O_15": 2.0, "city": "WARWICK", "beds": 145.0, "SR_15": 2.0}, {"Diff_star": -1.0, "addr": "100 SMITHFIELD ROAD", "SR_14": 3.0, "Q_14": 4.0, "name": "GOLDEN CREST NURSING CENTRE", "SF_14": 4.0, "SF_15": 4.0, "cnty": "Providence", "st": "RI", "Zip": 2904.0, "O_14": 4.0, "Q_15": 3.0, "O_15": 3.0, "city": "NORTH PROVIDENCE", "beds": 152.0, "SR_15": 2.0}, {"Diff_star": -1.0, "addr": "7 CREEK LANE", "SR_14": 4.0, "Q_14": 5.0, "name": "SILVER CREEK MANOR", "SF_14": 4.0, "SF_15": 3.0, "cnty": "Bristol", "st": "RI", "Zip": 2809.0, "O_14": 5.0, "Q_15": 4.0, "O_15": 4.0, "city": "BRISTOL", "beds": 128.0, "SR_15": 4.0}, {"Diff_star": -1.0, "addr": "125 SCITUATE AVENUE", "SR_14": 3.0, "Q_14": 5.0, "name": "CEDAR CREST NURSING CENTRE INC", "SF_14": 4.0, "SF_15": 4.0, "cnty": "Providence", "st": "RI", "Zip": 2920.0, "O_14": 5.0, "Q_15": 4.0, "O_15": 4.0, "city": "CRANSTON", "beds": 156.0, "SR_15": 3.0}, {"Diff_star": 0.0, "addr": "398 BELLEVUE AVENUE", "SR_14": 3.0, "Q_14": 4.0, "name": "HEATHERWOOD REHABILITATION & HEALTH CARE CENTER", "SF_14": 3.0, "SF_15": 3.0, "cnty": "Newport", "st": "RI", "Zip": 2840.0, "O_14": 3.0, "Q_15": 3.0, "O_15": 3.0, "city": "NEWPORT", "beds": 114.0, "SR_15": 3.0}, {"Diff_star": -2.0, "addr": "333 GREEN END AVENUE", "SR_14": 2.0, "Q_14": 5.0, "name": "GRAND ISLANDER CENTER", "SF_14": 4.0, "SF_15": 3.0, "cnty": "Newport", "st": "RI", "Zip": 2842.0, "O_14": 4.0, "Q_15": 3.0, "O_15": 2.0, "city": "MIDDLETOWN", "beds": 146.0, "SR_15": 2.0}, {"Diff_star": 0.0, "addr": "610 SMITHFIELD ROAD", "SR_14": 3.0, "Q_14": 5.0, "name": "HOPKINS MANOR LTD", "SF_14": 4.0, "SF_15": 4.0, "cnty": "Providence", "st": "RI", "Zip": 2904.0, "O_14": 5.0, "Q_15": 5.0, "O_15": 5.0, "city": "NORTH PROVIDENCE", "beds": 200.0, "SR_15": 3.0}, {"Diff_star": 0.0, "addr": "31 PARADE STREET", "SR_14": 2.0, "Q_14": 4.0, "name": "PARK VIEW NURSING HOME", "SF_14": 5.0, "SF_15": 5.0, "cnty": "Providence", "st": "RI", "Zip": 2909.0, "O_14": 3.0, "Q_15": 5.0, "O_15": 3.0, "city": "PROVIDENCE", "beds": 66.0, "SR_15": 2.0}, {"Diff_star": -1.0, "addr": "135 DODGE STREET", "SR_14": 1.0, "Q_14": 5.0, "name": "BANNISTER HOUSE INC", "SF_14": 3.0, "SF_15": 3.0, "cnty": "Providence", "st": "RI", "Zip": 2907.0, "O_14": 2.0, "Q_15": 4.0, "O_15": 1.0, "city": "PROVIDENCE", "beds": 95.0, "SR_15": 1.0}, {"Diff_star": -1.0, "addr": "80 DOUGLAS PIKE", "SR_14": 1.0, "Q_14": 5.0, "name": "HERITAGE HILLS NURSING & REHABILITATION CENTER", "SF_14": 3.0, "SF_15": 3.0, "cnty": "Providence", "st": "RI", "Zip": 2917.0, "O_14": 2.0, "Q_15": 4.0, "O_15": 1.0, "city": "SMITHFIELD", "beds": 95.0, "SR_15": 1.0}, {"Diff_star": 0.0, "addr": "193 FOREST AVENUE", "SR_14": 4.0, "Q_14": 5.0, "name": "FOREST FARM HEALTH CARE CENTER", "SF_14": 4.0, "SF_15": 4.0, "cnty": "Newport", "st": "RI", "Zip": 2842.0, "O_14": 5.0, "Q_15": 5.0, "O_15": 5.0, "city": "MIDDLETOWN", "beds": 50.0, "SR_15": 4.0}, {"Diff_star": -1.0, "addr": "262 POPLAR STREET", "SR_14": 3.0, "Q_14": 5.0, "name": "WOONSOCKET HEALTH CENTRE", "SF_14": 4.0, "SF_15": 4.0, "cnty": "Providence", "st": "RI", "Zip": 2895.0, "O_14": 5.0, "Q_15": 3.0, "O_15": 4.0, "city": "WOONSOCKET", "beds": 150.0, "SR_15": 3.0}, {"Diff_star": 0.0, "addr": "1275 SOUTH BROADWAY", "SR_14": 3.0, "Q_14": 4.0, "name": "WATERVIEW VILLA REHABILITATION & HEALTH CARE CENTE", "SF_14": 3.0, "SF_15": 3.0, "cnty": "Providence", "st": "RI", "Zip": 2914.0, "O_14": 3.0, "Q_15": 2.0, "O_15": 3.0, "city": "EAST PROVIDENCE", "beds": 132.0, "SR_15": 3.0}, {"Diff_star": -1.0, "addr": "303 RHODES AVENUE", "SR_14": 1.0, "Q_14": 3.0, "name": "FRIENDLY HOME INC, THE", "SF_14": 4.0, "SF_15": 3.0, "cnty": "Providence", "st": "RI", "Zip": 2895.0, "O_14": 2.0, "Q_15": 1.0, "O_15": 1.0, "city": "WOONSOCKET", "beds": 126.0, "SR_15": 1.0}, {"Diff_star": 0.0, "addr": "14 ROCK AVENUE", "SR_14": 5.0, "Q_14": 5.0, "name": "OVERLOOK NURSING & REHABILITATION CENTER", "SF_14": 4.0, "SF_15": 4.0, "cnty": "Providence", "st": "RI", "Zip": 2859.0, "O_14": 5.0, "Q_15": 5.0, "O_15": 5.0, "city": "PASCOAG", "beds": 100.0, "SR_15": 5.0}, {"Diff_star": -1.0, "addr": "180 LOG ROAD", "SR_14": 1.0, "Q_14": 3.0, "name": "HEBERT NURSING HOME", "SF_14": 4.0, "SF_15": 4.0, "cnty": "Providence", "st": "RI", "Zip": 2917.0, "O_14": 2.0, "Q_15": 1.0, "O_15": 1.0, "city": "SMITHFIELD", "beds": 133.0, "SR_15": 1.0}, {"Diff_star": -1.0, "addr": "1 DAWN HILL", "SR_14": 2.0, "Q_14": 5.0, "name": "SAINT ELIZABETH MANOR, EAST BAY", "SF_14": 5.0, "SF_15": 5.0, "cnty": "Bristol", "st": "RI", "Zip": 2809.0, "O_14": 4.0, "Q_15": 4.0, "O_15": 3.0, "city": "BRISTOL", "beds": 133.0, "SR_15": 2.0}, {"Diff_star": 0.0, "addr": "1811 BROAD STREET", "SR_14": 3.0, "Q_14": 5.0, "name": "SCANDINAVIAN HOME INC", "SF_14": 5.0, "SF_15": 5.0, "cnty": "Providence", "st": "RI", "Zip": 2905.0, "O_14": 5.0, "Q_15": 5.0, "O_15": 5.0, "city": "CRANSTON", "beds": 74.0, "SR_15": 3.0}, {"Diff_star": -1.0, "addr": "100 RANDALL STREET", "SR_14": 1.0, "Q_14": 5.0, "name": "CHARLESGATE NURSING CENTER", "SF_14": 1.0, "SF_15": 1.0, "cnty": "Providence", "st": "RI", "Zip": 2904.0, "O_14": 2.0, "Q_15": 4.0, "O_15": 1.0, "city": "PROVIDENCE", "beds": 140.0, "SR_15": 1.0}, {"Diff_star": 0.0, "addr": "2 CHERRY HILL ROAD", "SR_14": 2.0, "Q_14": 4.0, "name": "CHERRY HILL MANOR", "SF_14": 4.0, "SF_15": 4.0, "cnty": "Providence", "st": "RI", "Zip": 2919.0, "O_14": 3.0, "Q_15": 4.0, "O_15": 3.0, "city": "JOHNSTON", "beds": 170.0, "SR_15": 2.0}, {"Diff_star": 0.0, "addr": "2115 SOUTH COUNTY TRAIL, PO BOX 307", "SR_14": 5.0, "Q_14": 5.0, "name": "SOUTH KINGSTOWN  NURSING & REHABILITATION CENTER", "SF_14": 3.0, "SF_15": 3.0, "cnty": "Washington", "st": "RI", "Zip": 2892.0, "O_14": 5.0, "Q_15": 4.0, "O_15": 5.0, "city": "WEST KINGSTON", "beds": 112.0, "SR_15": 5.0}, {"Diff_star": -1.0, "addr": "1 EVERGREEN DRIVE", "SR_14": 2.0, "Q_14": 3.0, "name": "EVERGREEN HOUSE HEALTH CENTER", "SF_14": 4.0, "SF_15": 4.0, "cnty": "Providence", "st": "RI", "Zip": 2914.0, "O_14": 3.0, "Q_15": 1.0, "O_15": 2.0, "city": "EAST PROVIDENCE", "beds": 160.0, "SR_15": 2.0}, {"Diff_star": 0.0, "addr": "981 KINGSTOWN ROAD", "SR_14": 3.0, "Q_14": 5.0, "name": "SCALLOP SHELL NURSING & REHABILITATION CENTER", "SF_14": 4.0, "SF_15": 4.0, "cnty": "Washington", "st": "RI", "Zip": 2883.0, "O_14": 5.0, "Q_15": 5.0, "O_15": 5.0, "city": "SOUTH KINGSTOWN", "beds": 80.0, "SR_15": 3.0}, {"Diff_star": -1.0, "addr": "135 TRIPPS LANE", "SR_14": 2.0, "Q_14": 5.0, "name": "ORCHARD VIEW MANOR NURSING & REHABILITATION CENTER", "SF_14": 4.0, "SF_15": 3.0, "cnty": "Providence", "st": "RI", "Zip": 2915.0, "O_14": 4.0, "Q_15": 5.0, "O_15": 3.0, "city": "EAST PROVIDENCE", "beds": 166.0, "SR_15": 2.0}, {"Diff_star": 0.0, "addr": "57 STOKES STREET", "SR_14": 4.0, "Q_14": 5.0, "name": "AVALON NURSING HOME", "SF_14": 4.0, "SF_15": 4.0, "cnty": "Kent", "st": "RI", "Zip": 2889.0, "O_14": 5.0, "Q_15": 5.0, "O_15": 5.0, "city": "WARWICK", "beds": 31.0, "SR_15": 4.0}, {"Diff_star": 0.0, "addr": "4000 POST ROAD", "SR_14": 4.0, "Q_14": 5.0, "name": "BRENTWOOD NURSING HOME", "SF_14": 2.0, "SF_15": 2.0, "cnty": "Kent", "st": "RI", "Zip": 2886.0, "O_14": 5.0, "Q_15": 5.0, "O_15": 5.0, "city": "WARWICK", "beds": 96.0, "SR_15": 4.0}, {"Diff_star": -1.0, "addr": "80 MORGAN AVENUE", "SR_14": 1.0, "Q_14": 5.0, "name": "MORGAN HEALTH CENTER", "SF_14": 3.0, "SF_15": 3.0, "cnty": "Providence", "st": "RI", "Zip": 2919.0, "O_14": 2.0, "Q_15": 4.0, "O_15": 1.0, "city": "JOHNSTON", "beds": 120.0, "SR_15": 1.0}, {"Diff_star": 0.0, "addr": "860 NORTH QUIDESSET ROAD", "SR_14": 4.0, "Q_14": 5.0, "name": "SCALABRINI VILLA", "SF_14": 3.0, "SF_15": 3.0, "cnty": "Washington", "st": "RI", "Zip": 2852.0, "O_14": 5.0, "Q_15": 5.0, "O_15": 5.0, "city": "NORTH KINGSTOWN", "beds": 120.0, "SR_15": 4.0}, {"Diff_star": -1.0, "addr": "70 GILL AVENUE", "SR_14": 1.0, "Q_14": 4.0, "name": "PAWTUCKET SKILLED NURSING & REHABILITATION", "SF_14": 4.0, "SF_15": 3.0, "cnty": "Providence", "st": "RI", "Zip": 2861.0, "O_14": 2.0, "Q_15": 2.0, "O_15": 1.0, "city": "PAWTUCKET", "beds": 154.0, "SR_15": 1.0}, {"Diff_star": 0.0, "addr": "575 SEVEN MILE ROAD", "SR_14": 1.0, "Q_14": 5.0, "name": "CRA-MAR MEADOWS", "SF_14": 3.0, "SF_15": 3.0, "cnty": "Providence", "st": "RI", "Zip": 2920.0, "O_14": 2.0, "Q_15": 5.0, "O_15": 2.0, "city": "CRANSTON", "beds": 41.0, "SR_15": 1.0}, {"Diff_star": 0.0, "addr": "239 LEGRIS AVENUE", "SR_14": 3.0, "Q_14": 5.0, "name": "WEST VIEW HEALTH CARE CENTER", "SF_14": 4.0, "SF_15": 4.0, "cnty": "Kent", "st": "RI", "Zip": 2893.0, "O_14": 5.0, "Q_15": 5.0, "O_15": 5.0, "city": "WEST WARWICK", "beds": 120.0, "SR_15": 3.0}, {"Diff_star": 0.0, "addr": "642 METACOM AVENUE", "SR_14": 4.0, "Q_14": 4.0, "name": "WARREN SKILLED NURSING & REHABILITATION", "SF_14": 4.0, "SF_15": 4.0, "cnty": "Bristol", "st": "RI", "Zip": 2885.0, "O_14": 4.0, "Q_15": 3.0, "O_15": 4.0, "city": "WARREN", "beds": 63.0, "SR_15": 4.0}, {"Diff_star": 0.0, "addr": "568 CHILD STREET", "SR_14": 4.0, "Q_14": 4.0, "name": "CRESTWOOD NURSING & CONV HOME INC", "SF_14": 3.0, "SF_15": 3.0, "cnty": "Bristol", "st": "RI", "Zip": 2885.0, "O_14": 4.0, "Q_15": 2.0, "O_15": 4.0, "city": "WARREN", "beds": 76.0, "SR_15": 4.0}, {"Diff_star": 0.0, "addr": "RTE 4, 740 OAK HILL ROAD", "SR_14": 2.0, "Q_14": 5.0, "name": "SOUTH COUNTY NURSING & SUBACUTE CENTER INC", "SF_14": 4.0, "SF_15": 4.0, "cnty": "Washington", "st": "RI", "Zip": 2852.0, "O_14": 4.0, "Q_15": 5.0, "O_15": 4.0, "city": "NORTH KINGSTOWN", "beds": 120.0, "SR_15": 2.0}, {"Diff_star": -1.0, "addr": "225 ELMWOOD AVENUE", "SR_14": 3.0, "Q_14": 5.0, "name": "ELMWOOD HEALTH CENTER", "SF_14": 3.0, "SF_15": 3.0, "cnty": "Providence", "st": "RI", "Zip": 2907.0, "O_14": 4.0, "Q_15": 3.0, "O_15": 3.0, "city": "PROVIDENCE", "beds": 70.0, "SR_15": 3.0}, {"Diff_star": 0.0, "addr": "964 MAIN STREET", "SR_14": 5.0, "Q_14": 4.0, "name": "JEANNE JUGAN RESIDENCE- LITTLE SISTERS OF THE POOR", "SF_14": 5.0, "SF_15": 5.0, "cnty": "Providence", "st": "RI", "Zip": 2860.0, "O_14": 5.0, "Q_15": 4.0, "O_15": 5.0, "city": "PAWTUCKET", "beds": 44.0, "SR_15": 5.0}, {"Diff_star": 1.0, "addr": "70 HARRISON AVENUE", "SR_14": 3.0, "Q_14": 4.0, "name": "VILLAGE HOUSE CONVALESCENT HOME INC", "SF_14": 2.0, "SF_15": 2.0, "cnty": "Newport", "st": "RI", "Zip": 2840.0, "O_14": 3.0, "Q_15": 3.0, "O_15": 4.0, "city": "NEWPORT", "beds": 95.0, "SR_15": 4.0}, {"Diff_star": -1.0, "addr": "30 SAYLES HILL ROAD", "SR_14": 4.0, "Q_14": 5.0, "name": "HOLIDAY RETIREMENT HOME INC", "SF_14": 4.0, "SF_15": 4.0, "cnty": "Providence", "st": "RI", "Zip": 2838.0, "O_14": 5.0, "Q_15": 4.0, "O_15": 4.0, "city": "MANVILLE", "beds": 170.0, "SR_15": 4.0}, {"Diff_star": 0.0, "addr": "600 VALLEY ROAD", "SR_14": 4.0, "Q_14": 4.0, "name": "JOHN CLARKE RETIREMENT CTR, THE", "SF_14": 4.0, "SF_15": 4.0, "cnty": "Newport", "st": "RI", "Zip": 2842.0, "O_14": 4.0, "Q_15": 2.0, "O_15": 4.0, "city": "MIDDLETOWN", "beds": 60.0, "SR_15": 4.0}, {"Diff_star": 0.0, "addr": "10 WOODLAND DRIVE", "SR_14": 2.0, "Q_14": 4.0, "name": "COVENTRY SKILLED NURSING & REHABILITATION", "SF_14": 4.0, "SF_15": 4.0, "cnty": "Kent", "st": "RI", "Zip": 2816.0, "O_14": 3.0, "Q_15": 3.0, "O_15": 3.0, "city": "COVENTRY", "beds": 210.0, "SR_15": 2.0}, {"Diff_star": -2.0, "addr": "4 ST JOSEPH STREET", "SR_14": 3.0, "Q_14": 5.0, "name": "TRINITY HEALTH AND REHABILITATION CENTER", "SF_14": 4.0, "SF_15": 3.0, "cnty": "Providence", "st": "RI", "Zip": 2895.0, "O_14": 5.0, "Q_15": 4.0, "O_15": 3.0, "city": "WOONSOCKET", "beds": 185.0, "SR_15": 3.0}, {"Diff_star": -1.0, "addr": "181 DAVIS DRIVE", "SR_14": 4.0, "Q_14": 5.0, "name": "BAYBERRY COMMONS", "SF_14": 3.0, "SF_15": 3.0, "cnty": "Providence", "st": "RI", "Zip": 2859.0, "O_14": 5.0, "Q_15": 3.0, "O_15": 4.0, "city": "PASCOAG", "beds": 110.0, "SR_15": 4.0}, {"Diff_star": 0.0, "addr": "280 HIGH STREET", "SR_14": 2.0, "Q_14": 4.0, "name": "WESTERLY HEALTH CENTER", "SF_14": 2.0, "SF_15": 2.0, "cnty": "Washington", "st": "RI", "Zip": 2891.0, "O_14": 2.0, "Q_15": 2.0, "O_15": 2.0, "city": "WESTERLY", "beds": 106.0, "SR_15": 2.0}, {"Diff_star": 0.0, "addr": "546 MAIN STREET", "SR_14": 1.0, "Q_14": 3.0, "name": "RIVERVIEW HEALTHCARE COMMUNITY", "SF_14": 2.0, "SF_15": 2.0, "cnty": "Kent", "st": "RI", "Zip": 2816.0, "O_14": 1.0, "Q_15": 1.0, "O_15": 1.0, "city": "COVENTRY", "beds": 190.0, "SR_15": 1.0}, {"Diff_star": -1.0, "addr": "198 WATERMAN AVENUE", "SR_14": 3.0, "Q_14": 5.0, "name": "EASTGATE NURSING & REHABILITATION CENTER", "SF_14": 4.0, "SF_15": 4.0, "cnty": "Providence", "st": "RI", "Zip": 2914.0, "O_14": 5.0, "Q_15": 4.0, "O_15": 4.0, "city": "EAST PROVIDENCE", "beds": 68.0, "SR_15": 3.0}, {"Diff_star": 0.0, "addr": "50 MAUDE STREET", "SR_14": 1.0, "Q_14": 5.0, "name": "ELMHURST EXTENDED CARE FACILITY", "SF_14": 4.0, "SF_15": 4.0, "cnty": "Providence", "st": "RI", "Zip": 2908.0, "O_14": 2.0, "Q_15": 5.0, "O_15": 2.0, "city": "PROVIDENCE", "beds": 206.0, "SR_15": 1.0}, {"Diff_star": 0.0, "addr": "15 SUMNER BROWN ROAD", "SR_14": 3.0, "Q_14": 5.0, "name": "MOUNT ST RITA HEALTH CENTRE", "SF_14": 5.0, "SF_15": 5.0, "cnty": "Providence", "st": "RI", "Zip": 2864.0, "O_14": 5.0, "Q_15": 5.0, "O_15": 5.0, "city": "CUMBERLAND", "beds": 98.0, "SR_15": 3.0}, {"Diff_star": 0.0, "addr": "171 PLEASANT VIEW AVENUE", "SR_14": 1.0, "Q_14": 4.0, "name": "NORTH BAY RETIREMENT LIVING", "SF_14": 4.0, "SF_15": 4.0, "cnty": "Providence", "st": "RI", "Zip": 2917.0, "O_14": 2.0, "Q_15": 3.0, "O_15": 2.0, "city": "SMITHFIELD", "beds": 60.0, "SR_15": 1.0}, {"Diff_star": -1.0, "addr": "735 PUTNAM PIKE", "SR_14": 1.0, "Q_14": 2.0, "name": "GREENVILLE SKILLED NURSING & REHABILITATION", "SF_14": 4.0, "SF_15": 4.0, "cnty": "Providence", "st": "RI", "Zip": 2828.0, "O_14": 2.0, "Q_15": 1.0, "O_15": 1.0, "city": "GREENVILLE", "beds": 131.0, "SR_15": 1.0}, {"Diff_star": 0.0, "addr": "557 WEAVER HILL ROAD", "SR_14": 4.0, "Q_14": 4.0, "name": "ALPINE NURSING HOME INC", "SF_14": 4.0, "SF_15": 4.0, "cnty": "Kent", "st": "RI", "Zip": 2816.0, "O_14": 4.0, "Q_15": 3.0, "O_15": 4.0, "city": "COVENTRY", "beds": 60.0, "SR_15": 4.0}, {"Diff_star": 0.0, "addr": "30 ALEXANDER AVENUE", "SR_14": 5.0, "Q_14": 4.0, "name": "LINN HEALTH CARE CENTER", "SF_14": 4.0, "SF_15": 4.0, "cnty": "Providence", "st": "RI", "Zip": 2914.0, "O_14": 5.0, "Q_15": 4.0, "O_15": 5.0, "city": "EAST PROVIDENCE", "beds": 84.0, "SR_15": 5.0}, {"Diff_star": -2.0, "addr": "100 BORDEN STREET", "SR_14": 2.0, "Q_14": 4.0, "name": "STEERE HOUSE NURSING & REHABILITATION CENTER", "SF_14": 4.0, "SF_15": 1.0, "cnty": "Providence", "st": "RI", "Zip": 2903.0, "O_14": 3.0, "Q_15": 2.0, "O_15": 1.0, "city": "PROVIDENCE", "beds": 120.0, "SR_15": 2.0}, {"Diff_star": 0.0, "addr": "60 MENDON ROAD", "SR_14": 4.0, "Q_14": 5.0, "name": "BALLOU HOME FOR THE AGED", "SF_14": 5.0, "SF_15": 5.0, "cnty": "Providence", "st": "RI", "Zip": 2895.0, "O_14": 5.0, "Q_15": 5.0, "O_15": 5.0, "city": "WOONSOCKET", "beds": 43.0, "SR_15": 5.0}, {"Diff_star": 0.0, "addr": "111 SOUTH ANGELL STREET", "SR_14": 2.0, "Q_14": 4.0, "name": "BETHANY HOME OF RHODE ISLAND", "SF_14": 5.0, "SF_15": 5.0, "cnty": "Providence", "st": "RI", "Zip": 2906.0, "O_14": 3.0, "Q_15": 4.0, "O_15": 3.0, "city": "PROVIDENCE", "beds": 33.0, "SR_15": 2.0}, {"Diff_star": 0.0, "addr": "104 CLAY STREET", "SR_14": 3.0, "Q_14": 5.0, "name": "MANSION NURSING AND REHABILITATION CENTER", "SF_14": 4.0, "SF_15": 4.0, "cnty": "Providence", "st": "RI", "Zip": 2863.0, "O_14": 5.0, "Q_15": 5.0, "O_15": 5.0, "city": "CENTRAL FALLS", "beds": 62.0, "SR_15": 3.0}, {"Diff_star": 1.0, "addr": "833 BROADWAY", "SR_14": 1.0, "Q_14": 5.0, "name": "HARRIS HEALTH CENTER, LLC", "SF_14": 4.0, "SF_15": 3.0, "cnty": "Providence", "st": "RI", "Zip": 2914.0, "O_14": 2.0, "Q_15": 5.0, "O_15": 3.0, "city": "EAST PROVIDENCE", "beds": 31.0, "SR_15": 2.0}, {"Diff_star": 0.0, "addr": "999 SOUTH MAIN STREET", "SR_14": 1.0, "Q_14": 2.0, "name": "PINE GROVE HEALTH CENTER", "SF_14": 2.0, "SF_15": 2.0, "cnty": "Providence", "st": "RI", "Zip": 2859.0, "O_14": 1.0, "Q_15": 1.0, "O_15": 1.0, "city": "PASCOAG", "beds": 71.0, "SR_15": 1.0}, {"Diff_star": 0.0, "addr": "25 ROBERTS WAY", "SR_14": 4.0, "Q_14": 4.0, "name": "ROBERTS HEALTH CENTRE INC", "SF_14": 4.0, "SF_15": 4.0, "cnty": "Washington", "st": "RI", "Zip": 2852.0, "O_14": 4.0, "Q_15": 4.0, "O_15": 4.0, "city": "NORTH KINGSTOWN", "beds": 66.0, "SR_15": 4.0}, {"Diff_star": 0.0, "addr": "2052 PLAINFIELD PIKE", "SR_14": 5.0, "Q_14": 5.0, "name": "WOODPECKER HILL HEALTH CENTER", "SF_14": 4.0, "SF_15": 3.0, "cnty": "Kent", "st": "RI", "Zip": 2827.0, "O_14": 5.0, "Q_15": 5.0, "O_15": 5.0, "city": "GREENE", "beds": 41.0, "SR_15": 5.0}, {"Diff_star": -1.0, "addr": "10 RHODES AVENUE", "SR_14": 2.0, "Q_14": 3.0, "name": "ST ANTOINE RESIDENCE", "SF_14": 4.0, "SF_15": 4.0, "cnty": "Providence", "st": "RI", "Zip": 2896.0, "O_14": 3.0, "Q_15": 1.0, "O_15": 2.0, "city": "NORTH SMITHFIELD", "beds": 260.0, "SR_15": 2.0}, {"Diff_star": -1.0, "addr": "415 GARDNER ROAD", "SR_14": 2.0, "Q_14": 2.0, "name": "SHADY ACRES INC", "SF_14": 4.0, "SF_15": 4.0, "cnty": "Washington", "st": "RI", "Zip": 2892.0, "O_14": 3.0, "Q_15": 1.0, "O_15": 2.0, "city": "WEST KINGSTON", "beds": 55.0, "SR_15": 2.0}, {"Diff_star": 0.0, "addr": "60 EBEN BROWN LANE", "SR_14": 2.0, "Q_14": 5.0, "name": "HARRIS HEALTH CARE CENTER-NORTH", "SF_14": 4.0, "SF_15": 4.0, "cnty": "Providence", "st": "RI", "Zip": 2863.0, "O_14": 4.0, "Q_15": 5.0, "O_15": 4.0, "city": "CENTRAL FALLS", "beds": 32.0, "SR_15": 2.0}, {"Diff_star": -1.0, "addr": "560 CUMBERLAND HILL ROAD", "SR_14": 2.0, "Q_14": 5.0, "name": "OAKLAND GROVE HEALTH CARE CENTER", "SF_14": 3.0, "SF_15": 3.0, "cnty": "Providence", "st": "RI", "Zip": 2895.0, "O_14": 3.0, "Q_15": 4.0, "O_15": 2.0, "city": "WOONSOCKET", "beds": 172.0, "SR_15": 2.0}, {"Diff_star": -1.0, "addr": "309 SPRING STREET", "SR_14": 2.0, "Q_14": 5.0, "name": "ST CLARE HOME", "SF_14": 5.0, "SF_15": 5.0, "cnty": "Newport", "st": "RI", "Zip": 2840.0, "O_14": 4.0, "Q_15": 4.0, "O_15": 3.0, "city": "NEWPORT", "beds": 47.0, "SR_15": 2.0}, {"Diff_star": -1.0, "addr": "500 WATERFRONT DRIVE", "SR_14": 5.0, "Q_14": 4.0, "name": "TOCKWOTTON ON THE WATERFRONT", "SF_14": 5.0, "SF_15": 5.0, "cnty": "Providence", "st": "RI", "Zip": 2914.0, "O_14": 5.0, "Q_15": 2.0, "O_15": 4.0, "city": "EAST PROVIDENCE", "beds": 52.0, "SR_15": 3.0}, {"Diff_star": 0.0, "addr": "47 EAST KILLINGLY ROAD", "SR_14": 3.0, "Q_14": 4.0, "name": "NANCY ANN NURSING HOME, INC.", "SF_14": 5.0, "SF_15": 5.0, "cnty": "Providence", "st": "RI", "Zip": 2825.0, "O_14": 4.0, "Q_15": 2.0, "O_15": 4.0, "city": "FOSTER", "beds": 20.0, "SR_15": 3.0}, {"Diff_star": 0.0, "addr": "455 DOUGLAS AVENUE", "SR_14": 2.0, "Q_14": 4.0, "name": "BERKSHIRE PLACE", "SF_14": 4.0, "SF_15": 4.0, "cnty": "Providence", "st": "RI", "Zip": 2908.0, "O_14": 3.0, "Q_15": 2.0, "O_15": 3.0, "city": "PROVIDENCE", "beds": 210.0, "SR_15": 2.0}, {"Diff_star": 0.0, "addr": "161 POST ROAD", "SR_14": 3.0, "Q_14": 4.0, "name": "APPLE REHAB CLIPPER", "SF_14": 3.0, "SF_15": 3.0, "cnty": "Washington", "st": "RI", "Zip": 2891.0, "O_14": 3.0, "Q_15": 3.0, "O_15": 3.0, "city": "WESTERLY", "beds": 60.0, "SR_15": 3.0}, {"Diff_star": 0.0, "addr": "20 AUSTIN AVENUE", "SR_14": 1.0, "Q_14": 4.0, "name": "CORTLAND PLACE", "SF_14": 4.0, "SF_15": 4.0, "cnty": "Providence", "st": "RI", "Zip": 2828.0, "O_14": 2.0, "Q_15": 4.0, "O_15": 2.0, "city": "GREENVILLE", "beds": 80.0, "SR_15": 1.0}, {"Diff_star": -1.0, "addr": "353 BLACKSTONE BOULEVARD", "SR_14": 4.0, "Q_14": 5.0, "name": "EPOCH SENIOR HEALTH CARE ON BLACKSTONE BOULEVARD", "SF_14": 3.0, "SF_15": 3.0, "cnty": "Providence", "st": "RI", "Zip": 2906.0, "O_14": 5.0, "Q_15": 2.0, "O_15": 4.0, "city": "PROVIDENCE", "beds": 55.0, "SR_15": 4.0}, {"Diff_star": 0.0, "addr": "99 HILLSIDE AVENUE", "SR_14": 5.0, "Q_14": 5.0, "name": "SUMMIT COMMONS REHABILITATION & HEALTH CARE CENTER", "SF_14": 3.0, "SF_15": 3.0, "cnty": "Providence", "st": "RI", "Zip": 2906.0, "O_14": 5.0, "Q_15": 5.0, "O_15": 5.0, "city": "PROVIDENCE", "beds": 130.0, "SR_15": 5.0}]