[{"Diff_star": -1.0, "addr": "43 STARR FARM RD", "SR_14": 1.0, "Q_14": 4.0, "name": "KINDRED TRANSITIONAL CARE & REHAB BIRCHWOOD TER", "SF_14": 4.0, "SF_15": 4.0, "cnty": "Chittenden", "st": "VT", "Zip": 5408.0, "O_14": 2.0, "Q_15": 1.0, "O_15": 1.0, "city": "BURLINGTON", "beds": 144.0, "SR_15": 1.0}, {"Diff_star": 0.0, "addr": "61 GREENWAY DRIVE", "SR_14": 3.0, "Q_14": 4.0, "name": "VERNON GREEN NURSING HOME", "SF_14": 4.0, "SF_15": 4.0, "cnty": "Windham", "st": "VT", "Zip": 5354.0, "O_14": 4.0, "Q_15": 3.0, "O_15": 4.0, "city": "VERNON", "beds": 60.0, "SR_15": 3.0}, {"Diff_star": 0.0, "addr": "1200 CHRISTIAN STREET", "SR_14": 3.0, "Q_14": 4.0, "name": "BROOKSIDE HEALTH AND REHABILITATION", "SF_14": 4.0, "SF_15": 4.0, "cnty": "Windsor", "st": "VT", "Zip": 5001.0, "O_14": 4.0, "Q_15": 4.0, "O_15": 4.0, "city": "WHITE RIVER JUNCTION", "beds": 67.0, "SR_15": 3.0}, {"Diff_star": 0.0, "addr": "9 HAYWOOD AVENUE", "SR_14": 3.0, "Q_14": 4.0, "name": "MOUNTAIN VIEW CENTER GENESIS HEALTHCARE", "SF_14": 4.0, "SF_15": 4.0, "cnty": "Rutland", "st": "VT", "Zip": 5701.0, "O_14": 4.0, "Q_15": 2.0, "O_15": 4.0, "city": "RUTLAND", "beds": 158.0, "SR_15": 3.0}, {"Diff_star": -2.0, "addr": "300 PEARL STREET", "SR_14": 2.0, "Q_14": 3.0, "name": "BURLINGTON HEALTH & REHAB", "SF_14": 4.0, "SF_15": 3.0, "cnty": "Chittenden", "st": "VT", "Zip": 5401.0, "O_14": 3.0, "Q_15": 1.0, "O_15": 1.0, "city": "BURLINGTON", "beds": 126.0, "SR_15": 2.0}, {"Diff_star": 0.0, "addr": "30 PORTER DRIVE", "SR_14": 3.0, "Q_14": 4.0, "name": "HELEN PORTER HEALTHCARE & REHAB", "SF_14": 5.0, "SF_15": 5.0, "cnty": "Addison", "st": "VT", "Zip": 5753.0, "O_14": 4.0, "Q_15": 3.0, "O_15": 4.0, "city": "MIDDLEBURY", "beds": 105.0, "SR_15": 3.0}, {"Diff_star": 0.0, "addr": "99 ALLEN STREET", "SR_14": 4.0, "Q_14": 5.0, "name": "THE PINES AT RUTLAND CENTER FOR NURSING AND REHABI", "SF_14": 4.0, "SF_15": 4.0, "cnty": "Rutland", "st": "VT", "Zip": 5701.0, "O_14": 5.0, "Q_15": 5.0, "O_15": 5.0, "city": "RUTLAND", "beds": 125.0, "SR_15": 4.0}, {"Diff_star": 0.0, "addr": "1248 HOSPITAL DRIVE", "SR_14": 2.0, "Q_14": 4.0, "name": "ST JOHNSBURY HEALTH & REHAB", "SF_14": 4.0, "SF_15": 4.0, "cnty": "Caledonia", "st": "VT", "Zip": 5819.0, "O_14": 3.0, "Q_15": 3.0, "O_15": 3.0, "city": "SAINT JOHNSBURY", "beds": 110.0, "SR_15": 2.0}, {"Diff_star": 0.0, "addr": "98 HOSPITALITY DRIVE", "SR_14": 1.0, "Q_14": 4.0, "name": "BERLIN HEALTH & REHAB CTR", "SF_14": 4.0, "SF_15": 4.0, "cnty": "Washington", "st": "VT", "Zip": 5641.0, "O_14": 2.0, "Q_15": 3.0, "O_15": 2.0, "city": "BARRE", "beds": 141.0, "SR_15": 1.0}, {"Diff_star": -1.0, "addr": "596 SHELDON ROAD", "SR_14": 2.0, "Q_14": 3.0, "name": "SAINT ALBANS HEALTHCARE AND REHABILITATION CENTER", "SF_14": 2.0, "SF_15": 2.0, "cnty": "Franklin", "st": "VT", "Zip": 5478.0, "O_14": 2.0, "Q_15": 1.0, "O_15": 1.0, "city": "SAINT ALBANS", "beds": 115.0, "SR_15": 2.0}, {"Diff_star": 0.0, "addr": "187 OAK GROVE AVENUE", "SR_14": 3.0, "Q_14": 5.0, "name": "PINE HEIGHTS AT BRATTLEBORO CENTER FOR NURSING & R", "SF_14": 3.0, "SF_15": 3.0, "cnty": "Windham", "st": "VT", "Zip": 5301.0, "O_14": 4.0, "Q_15": 5.0, "O_15": 4.0, "city": "BRATTLEBORO", "beds": 80.0, "SR_15": 3.0}, {"Diff_star": -1.0, "addr": "105 CHESTER RD", "SR_14": 3.0, "Q_14": 5.0, "name": "SPRINGFIELD HEALTH & REHAB", "SF_14": 4.0, "SF_15": 4.0, "cnty": "Windsor", "st": "VT", "Zip": 5156.0, "O_14": 5.0, "Q_15": 4.0, "O_15": 4.0, "city": "SPRINGFIELD", "beds": 102.0, "SR_15": 3.0}, {"Diff_star": 0.0, "addr": "148 PROUTY DRIVE", "SR_14": 2.0, "Q_14": 4.0, "name": "NEWPORT HEALTH CARE CENTER", "SF_14": 3.0, "SF_15": 3.0, "cnty": "Orleans", "st": "VT", "Zip": 5855.0, "O_14": 2.0, "Q_15": 2.0, "O_15": 2.0, "city": "NEWPORT", "beds": 50.0, "SR_15": 2.0}, {"Diff_star": 0.0, "addr": "2 BLACKBERRY LANE", "SR_14": 2.0, "Q_14": 3.0, "name": "BENNINGTON HEALTH & REHAB", "SF_14": 4.0, "SF_15": 4.0, "cnty": "Bennington", "st": "VT", "Zip": 5201.0, "O_14": 3.0, "Q_15": 3.0, "O_15": 3.0, "city": "BENNINGTON", "beds": 100.0, "SR_15": 2.0}, {"Diff_star": 0.0, "addr": "160 HOSPITAL DRIVE", "SR_14": 1.0, "Q_14": 4.0, "name": "CENTERS FOR LIVING AND REHAB", "SF_14": 4.0, "SF_15": 4.0, "cnty": "Bennington", "st": "VT", "Zip": 5201.0, "O_14": 2.0, "Q_15": 2.0, "O_15": 2.0, "city": "BENNINGTON", "beds": 150.0, "SR_15": 1.0}, {"Diff_star": 0.0, "addr": "98 STARR FARM RD", "SR_14": 1.0, "Q_14": 4.0, "name": "STARR FARM NURSING CENTER", "SF_14": 3.0, "SF_15": 3.0, "cnty": "Chittenden", "st": "VT", "Zip": 5408.0, "O_14": 1.0, "Q_15": 2.0, "O_15": 1.0, "city": "BURLINGTON", "beds": 150.0, "SR_15": 1.0}, {"Diff_star": -1.0, "addr": "325 NORTH STREET", "SR_14": 1.0, "Q_14": 4.0, "name": "VERMONT VETERANS' HOME", "SF_14": 5.0, "SF_15": 5.0, "cnty": "Bennington", "st": "VT", "Zip": 5201.0, "O_14": 2.0, "Q_15": 1.0, "O_15": 1.0, "city": "BENNINGTON", "beds": 177.0, "SR_15": 1.0}, {"Diff_star": 0.0, "addr": "312 CRESCENT BLVD", "SR_14": 2.0, "Q_14": 5.0, "name": "CRESCENT MANOR CARE CTRS", "SF_14": 4.0, "SF_15": 4.0, "cnty": "Bennington", "st": "VT", "Zip": 5201.0, "O_14": 4.0, "Q_15": 5.0, "O_15": 4.0, "city": "BENNINGTON", "beds": 90.0, "SR_15": 2.0}, {"Diff_star": -1.0, "addr": "3086 GLOVER STREET", "SR_14": 4.0, "Q_14": 5.0, "name": "UNION HOUSE NURSING HOME", "SF_14": 4.0, "SF_15": 4.0, "cnty": "Orleans", "st": "VT", "Zip": 5839.0, "O_14": 5.0, "Q_15": 4.0, "O_15": 4.0, "city": "GLOVER", "beds": 44.0, "SR_15": 4.0}, {"Diff_star": 0.0, "addr": "378 PROSPECT STREET", "SR_14": 1.0, "Q_14": 4.0, "name": "ROWAN COURT HEALTH & REHAB", "SF_14": 3.0, "SF_15": 3.0, "cnty": "Washington", "st": "VT", "Zip": 5641.0, "O_14": 1.0, "Q_15": 2.0, "O_15": 1.0, "city": "BARRE", "beds": 96.0, "SR_15": 1.0}, {"Diff_star": 0.0, "addr": "46 NICHOLS STREET", "SR_14": 2.0, "Q_14": 4.0, "name": "RUTLAND HEALTHCARE AND REHABILITATION CENTER", "SF_14": 4.0, "SF_15": 4.0, "cnty": "Rutland", "st": "VT", "Zip": 5701.0, "O_14": 3.0, "Q_15": 2.0, "O_15": 3.0, "city": "RUTLAND", "beds": 123.0, "SR_15": 2.0}, {"Diff_star": 0.0, "addr": "475 ETHAN ALLEN AVENUE", "SR_14": 2.0, "Q_14": 3.0, "name": "GREEN MOUNTAIN NURSING AND REHABILITATION", "SF_14": 4.0, "SF_15": 4.0, "cnty": "Chittenden", "st": "VT", "Zip": 5446.0, "O_14": 3.0, "Q_15": 2.0, "O_15": 3.0, "city": "COLCHESTER", "beds": 73.0, "SR_15": 2.0}, {"Diff_star": 0.0, "addr": "60 MAPLE LANE", "SR_14": 3.0, "Q_14": 4.0, "name": "MAPLE LANE NURSING HOME", "SF_14": 4.0, "SF_15": 4.0, "cnty": "Orleans", "st": "VT", "Zip": 5822.0, "O_14": 4.0, "Q_15": 4.0, "O_15": 4.0, "city": "BARTON", "beds": 71.0, "SR_15": 3.0}, {"Diff_star": 0.0, "addr": "47 MAGGIE'S POND ROAD", "SR_14": 4.0, "Q_14": 4.0, "name": "GREENSBORO NURSING HOME", "SF_14": 4.0, "SF_15": 4.0, "cnty": "Orleans", "st": "VT", "Zip": 5841.0, "O_14": 4.0, "Q_15": 4.0, "O_15": 4.0, "city": "GREENSBORO", "beds": 30.0, "SR_15": 4.0}, {"Diff_star": 0.0, "addr": "601 RED VILLAGE ROAD", "SR_14": 4.0, "Q_14": 5.0, "name": "PINES REHAB & HEALTH CTR", "SF_14": 4.0, "SF_15": 4.0, "cnty": "Caledonia", "st": "VT", "Zip": 5851.0, "O_14": 5.0, "Q_15": 5.0, "O_15": 5.0, "city": "LYNDONVILLE", "beds": 60.0, "SR_15": 4.0}, {"Diff_star": 0.0, "addr": "P.O. BOX 550", "SR_14": 5.0, "Q_14": 3.0, "name": "WOODRIDGE NURSING HOME", "SF_14": 5.0, "SF_15": 5.0, "cnty": "Washington", "st": "VT", "Zip": 5641.0, "O_14": 5.0, "Q_15": 2.0, "O_15": 5.0, "city": "BARRE", "beds": 153.0, "SR_15": 4.0}, {"Diff_star": 0.0, "addr": "49 CEDAR HILL DRIVE", "SR_14": 5.0, "Q_14": 4.0, "name": "CEDAR HILL HEALTH CARE CENTER", "SF_14": 4.0, "SF_15": 4.0, "cnty": "Windsor", "st": "VT", "Zip": 5089.0, "O_14": 5.0, "Q_15": 2.0, "O_15": 5.0, "city": "WINDSOR", "beds": 39.0, "SR_15": 5.0}, {"Diff_star": 0.0, "addr": "110 FAIRFAX ROAD", "SR_14": 4.0, "Q_14": 5.0, "name": "FRANKLIN COUNTY REHAB CENTER LLC", "SF_14": 4.0, "SF_15": 4.0, "cnty": "Franklin", "st": "VT", "Zip": 5478.0, "O_14": 5.0, "Q_15": 5.0, "O_15": 5.0, "city": "ST ALBANS", "beds": 64.0, "SR_15": 4.0}, {"Diff_star": 0.0, "addr": "PO BOX 24", "SR_14": 4.0, "Q_14": 5.0, "name": "DERBY GREEN NURSING HOME", "SF_14": 4.0, "SF_15": 4.0, "cnty": "Orleans", "st": "VT", "Zip": 5829.0, "O_14": 5.0, "Q_15": 5.0, "O_15": 5.0, "city": "DERBY", "beds": 23.0, "SR_15": 4.0}, {"Diff_star": 0.0, "addr": "35 BEL-AIRE DRIVE", "SR_14": 5.0, "Q_14": 4.0, "name": "BELAIRE QUALITY CENTER", "SF_14": 3.0, "SF_15": 3.0, "cnty": "Orleans", "st": "VT", "Zip": 5855.0, "O_14": 5.0, "Q_15": 4.0, "O_15": 5.0, "city": "NEWPORT", "beds": 44.0, "SR_15": 5.0}, {"Diff_star": 0.0, "addr": "80 MAPLE STREET", "SR_14": 1.0, "Q_14": 5.0, "name": "THOMPSON HOUSE NURSING HOME", "SF_14": 4.0, "SF_15": 3.0, "cnty": "Windham", "st": "VT", "Zip": 5302.0, "O_14": 2.0, "Q_15": 5.0, "O_15": 2.0, "city": "BRATTLEBORO", "beds": 43.0, "SR_15": 1.0}, {"Diff_star": 0.0, "addr": "8 GILL TERRACE", "SR_14": 3.0, "Q_14": 5.0, "name": "GILL ODD FELLOWS HOME", "SF_14": 4.0, "SF_15": 4.0, "cnty": "Windsor", "st": "VT", "Zip": 5149.0, "O_14": 5.0, "Q_15": 5.0, "O_15": 5.0, "city": "LUDLOW", "beds": 46.0, "SR_15": 3.0}, {"Diff_star": 0.0, "addr": "71 RICHARDSON AVE", "SR_14": 4.0, "Q_14": 5.0, "name": "MAYO HEALTHCARE INC.", "SF_14": 4.0, "SF_15": 4.0, "cnty": "Washington", "st": "VT", "Zip": 5663.0, "O_14": 5.0, "Q_15": 5.0, "O_15": 5.0, "city": "NORTHFIELD", "beds": 50.0, "SR_15": 4.0}, {"Diff_star": 0.0, "addr": "7 FOREST HILL DRIVE", "SR_14": 1.0, "Q_14": 3.0, "name": "REDSTONE VILLA", "SF_14": 5.0, "SF_15": 5.0, "cnty": "Franklin", "st": "VT", "Zip": 5478.0, "O_14": 2.0, "Q_15": 1.0, "O_15": 2.0, "city": "ST ALBANS", "beds": 30.0, "SR_15": 2.0}, {"Diff_star": 0.0, "addr": "200 WAKE ROBIN DRIVE", "SR_14": 5.0, "Q_14": 4.0, "name": "WAKE ROBIN-LINDEN NURSING HOME", "SF_14": 5.0, "SF_15": 5.0, "cnty": "Chittenden", "st": "VT", "Zip": 5482.0, "O_14": 5.0, "Q_15": 5.0, "O_15": 5.0, "city": "SHELBURNE", "beds": 33.0, "SR_15": 5.0}, {"Diff_star": 0.0, "addr": "577 WASHINGTON HIGHWAY", "SR_14": 4.0, "Q_14": 4.0, "name": "THE MANOR, INC", "SF_14": 5.0, "SF_15": 5.0, "cnty": "Lamoille", "st": "VT", "Zip": 5661.0, "O_14": 5.0, "Q_15": 4.0, "O_15": 5.0, "city": "MORRISVILLE", "beds": 72.0, "SR_15": 4.0}, {"Diff_star": 0.0, "addr": "44 SOUTH MAIN STREET", "SR_14": 5.0, "Q_14": 4.0, "name": "MENIG EXTENDED CARE", "SF_14": 5.0, "SF_15": 5.0, "cnty": "Orange", "st": "VT", "Zip": 5060.0, "O_14": 5.0, "Q_15": 3.0, "O_15": 5.0, "city": "RANDOLPH", "beds": 30.0, "SR_15": 5.0}]