[{"Diff_star": 0.0, "addr": "805 FRONT STREET", "SR_14": 4.0, "Q_14": 5.0, "name": "ISSAQUAH NURSING AND REHABILITATION CENTER", "SF_14": 5.0, "SF_15": 5.0, "cnty": "King", "st": "WA", "Zip": 98027.0, "O_14": 5.0, "Q_15": 5.0, "O_15": 5.0, "city": "ISSAQUAH", "beds": 140.0, "SR_15": 4.0}, {"Diff_star": 0.0, "addr": "1250 NORTHEAST 145TH STREET", "SR_14": 5.0, "Q_14": 5.0, "name": "PARK RIDGE CARE CENTER", "SF_14": 4.0, "SF_15": 4.0, "cnty": "King", "st": "WA", "Zip": 98155.0, "O_14": 5.0, "Q_15": 5.0, "O_15": 5.0, "city": "SEATTLE", "beds": 115.0, "SR_15": 5.0}, {"Diff_star": -1.0, "addr": "206 SOUTH TENTH AVENUE", "SR_14": 1.0, "Q_14": 5.0, "name": "GARDEN VILLAGE", "SF_14": 4.0, "SF_15": 3.0, "cnty": "Yakima", "st": "WA", "Zip": 98902.0, "O_14": 2.0, "Q_15": 3.0, "O_15": 1.0, "city": "YAKIMA", "beds": 104.0, "SR_15": 1.0}, {"Diff_star": 0.0, "addr": "920 ANDERSON DRIVE", "SR_14": 2.0, "Q_14": 4.0, "name": "GRAYS HARBOR HEALTH & REHABILITATION CENTER", "SF_14": 4.0, "SF_15": 4.0, "cnty": "Grays Harbor", "st": "WA", "Zip": 98520.0, "O_14": 3.0, "Q_15": 3.0, "O_15": 3.0, "city": "ABERDEEN", "beds": 105.0, "SR_15": 2.0}, {"Diff_star": 0.0, "addr": "2821 SOUTH WALDEN STREET", "SR_14": 3.0, "Q_14": 5.0, "name": "WASHINGTON CENTER FOR COMPREHE", "SF_14": 4.0, "SF_15": 4.0, "cnty": "King", "st": "WA", "Zip": 98144.0, "O_14": 5.0, "Q_15": 5.0, "O_15": 5.0, "city": "SEATTLE", "beds": 165.0, "SR_15": 3.0}, {"Diff_star": 0.0, "addr": "6021 NORTH LIDGERWOOD", "SR_14": 2.0, "Q_14": 5.0, "name": "FRANKLIN HILLS HEALTH & REHAB CENTER", "SF_14": 3.0, "SF_15": 3.0, "cnty": "Spokane", "st": "WA", "Zip": 99207.0, "O_14": 3.0, "Q_15": 5.0, "O_15": 3.0, "city": "SPOKANE", "beds": 100.0, "SR_15": 2.0}, {"Diff_star": 0.0, "addr": "6720 EAST GREEN LAKE WAY NORTH", "SR_14": 1.0, "Q_14": 4.0, "name": "HEARTHSTONE, THE", "SF_14": 5.0, "SF_15": 5.0, "cnty": "King", "st": "WA", "Zip": 98103.0, "O_14": 2.0, "Q_15": 5.0, "O_15": 2.0, "city": "SEATTLE", "beds": 44.0, "SR_15": 1.0}, {"Diff_star": 0.0, "addr": "EAST 2903 25TH AVENUE", "SR_14": 3.0, "Q_14": 4.0, "name": "ROCKWOOD SOUTH HILL", "SF_14": 5.0, "SF_15": 4.0, "cnty": "Spokane", "st": "WA", "Zip": 99223.0, "O_14": 4.0, "Q_15": 3.0, "O_15": 4.0, "city": "SPOKANE", "beds": 45.0, "SR_15": 3.0}, {"Diff_star": 0.0, "addr": "820 NORTHWEST 95TH STREET", "SR_14": 1.0, "Q_14": 4.0, "name": "BALLARD  CENTER", "SF_14": 4.0, "SF_15": 4.0, "cnty": "King", "st": "WA", "Zip": 98117.0, "O_14": 2.0, "Q_15": 2.0, "O_15": 2.0, "city": "SEATTLE", "beds": 142.0, "SR_15": 1.0}, {"Diff_star": 0.0, "addr": "1600 SLEATER KINNEY ROAD SE", "SR_14": 5.0, "Q_14": 5.0, "name": "PANORAMA CITY CONV & REHAB CTR", "SF_14": 5.0, "SF_15": 5.0, "cnty": "Thurston", "st": "WA", "Zip": 98503.0, "O_14": 5.0, "Q_15": 5.0, "O_15": 5.0, "city": "LACEY", "beds": 155.0, "SR_15": 5.0}, {"Diff_star": -1.0, "addr": "19301 KINGS GARDEN DRIVE NORTH", "SR_14": 2.0, "Q_14": 5.0, "name": "CRISTWOOD NURSING AND REHABILITATION", "SF_14": 4.0, "SF_15": 4.0, "cnty": "King", "st": "WA", "Zip": 98133.0, "O_14": 4.0, "Q_15": 4.0, "O_15": 3.0, "city": "SEATTLE", "beds": 176.0, "SR_15": 2.0}, {"Diff_star": -1.0, "addr": "44 GOETHALS DRIVE", "SR_14": 2.0, "Q_14": 4.0, "name": "LIFE CARE CENTER OF RICHLAND", "SF_14": 4.0, "SF_15": 3.0, "cnty": "Benton", "st": "WA", "Zip": 99352.0, "O_14": 3.0, "Q_15": 4.0, "O_15": 2.0, "city": "RICHLAND", "beds": 89.0, "SR_15": 2.0}, {"Diff_star": 0.0, "addr": "1710 PLAZA WAY", "SR_14": 3.0, "Q_14": 4.0, "name": "PARK MANOR REHABILITATION CTR", "SF_14": 5.0, "SF_15": 5.0, "cnty": "Walla Walla", "st": "WA", "Zip": 99362.0, "O_14": 4.0, "Q_15": 3.0, "O_15": 4.0, "city": "WALLA WALLA", "beds": 99.0, "SR_15": 3.0}, {"Diff_star": 0.0, "addr": "420 SOUTHEAST MYRA ROAD", "SR_14": 1.0, "Q_14": 4.0, "name": "REGENCY AT THE PARK", "SF_14": 5.0, "SF_15": 5.0, "cnty": "Walla Walla", "st": "WA", "Zip": 99324.0, "O_14": 2.0, "Q_15": 3.0, "O_15": 2.0, "city": "COLLEGE PLACE", "beds": 106.0, "SR_15": 1.0}, {"Diff_star": -1.0, "addr": "1508 WEST SEVENTH AVENUE", "SR_14": 1.0, "Q_14": 2.0, "name": "LIFE CARE CENTER OF KENNEWICK", "SF_14": 4.0, "SF_15": 4.0, "cnty": "Benton", "st": "WA", "Zip": 99336.0, "O_14": 2.0, "Q_15": 1.0, "O_15": 1.0, "city": "KENNEWICK", "beds": 136.0, "SR_15": 1.0}, {"Diff_star": 0.0, "addr": "3035 CHERRY STREET", "SR_14": 4.0, "Q_14": 5.0, "name": "PACIFIC CARE AND REHABILITATION", "SF_14": 4.0, "SF_15": 3.0, "cnty": "Grays Harbor", "st": "WA", "Zip": 98550.0, "O_14": 5.0, "Q_15": 5.0, "O_15": 5.0, "city": "HOQUIAM", "beds": 109.0, "SR_15": 4.0}, {"Diff_star": 0.0, "addr": "505 NORTH 40TH AVENUE", "SR_14": 2.0, "Q_14": 4.0, "name": "CRESCENT HEALTH CARE, INC", "SF_14": 4.0, "SF_15": 4.0, "cnty": "Yakima", "st": "WA", "Zip": 98908.0, "O_14": 3.0, "Q_15": 3.0, "O_15": 3.0, "city": "YAKIMA", "beds": 85.0, "SR_15": 2.0}, {"Diff_star": 1.0, "addr": "710 NORTH 39TH AVENUE", "SR_14": 2.0, "Q_14": 4.0, "name": "LANDMARK CARE AND REHABILITATION", "SF_14": 5.0, "SF_15": 5.0, "cnty": "Yakima", "st": "WA", "Zip": 98902.0, "O_14": 3.0, "Q_15": 3.0, "O_15": 4.0, "city": "YAKIMA", "beds": 93.0, "SR_15": 3.0}, {"Diff_star": 0.0, "addr": "2726 ALDERWOOD AVENUE", "SR_14": 2.0, "Q_14": 4.0, "name": "ALDERWOOD PARK HEALTH AND REHABILITATION", "SF_14": 1.0, "SF_15": 1.0, "cnty": "Whatcom", "st": "WA", "Zip": 98225.0, "O_14": 1.0, "Q_15": 3.0, "O_15": 1.0, "city": "BELLINGHAM", "beds": 102.0, "SR_15": 2.0}, {"Diff_star": 0.0, "addr": "4755 SOUTH 48TH", "SR_14": 4.0, "Q_14": 4.0, "name": "ORCHARD PARK HEALTH & REHAB CENTER", "SF_14": 4.0, "SF_15": 3.0, "cnty": "Pierce", "st": "WA", "Zip": 98409.0, "O_14": 4.0, "Q_15": 3.0, "O_15": 4.0, "city": "TACOMA", "beds": 147.0, "SR_15": 4.0}, {"Diff_star": 0.0, "addr": "802 WEST THIRD STREET", "SR_14": 1.0, "Q_14": 4.0, "name": "TOPPENISH NURSING & REHAB CENTER", "SF_14": 2.0, "SF_15": 2.0, "cnty": "Yakima", "st": "WA", "Zip": 98948.0, "O_14": 1.0, "Q_15": 2.0, "O_15": 1.0, "city": "TOPPENISH", "beds": 75.0, "SR_15": 1.0}, {"Diff_star": 0.0, "addr": "1530 JAMES STREET", "SR_14": 2.0, "Q_14": 4.0, "name": "SHUKSAN HEALTHCARE CENTER", "SF_14": 4.0, "SF_15": 4.0, "cnty": "Whatcom", "st": "WA", "Zip": 98225.0, "O_14": 3.0, "Q_15": 3.0, "O_15": 3.0, "city": "BELLINGHAM", "beds": 52.0, "SR_15": 2.0}, {"Diff_star": 0.0, "addr": "EAST 17121 EIGHTH AVENUE", "SR_14": 3.0, "Q_14": 4.0, "name": "GOOD SAMARITAN SOCIETY - SPOKANE VALLEY", "SF_14": 4.0, "SF_15": 4.0, "cnty": "Spokane", "st": "WA", "Zip": 99016.0, "O_14": 4.0, "Q_15": 4.0, "O_15": 4.0, "city": "SPOKANE VALLEY", "beds": 97.0, "SR_15": 3.0}, {"Diff_star": -2.0, "addr": "414 S UNIVERSITY RD", "SR_14": 2.0, "Q_14": 5.0, "name": "GARDENS ON UNIVERSITY, THE", "SF_14": 5.0, "SF_15": 3.0, "cnty": "Spokane", "st": "WA", "Zip": 99206.0, "O_14": 4.0, "Q_15": 5.0, "O_15": 2.0, "city": "SPOKANE", "beds": 124.0, "SR_15": 1.0}, {"Diff_star": -1.0, "addr": "2701 CLARE AVENUE", "SR_14": 2.0, "Q_14": 5.0, "name": "BREMERTON HEALTH AND REHABILITATION CENTER", "SF_14": 2.0, "SF_15": 2.0, "cnty": "Kitsap", "st": "WA", "Zip": 98310.0, "O_14": 3.0, "Q_15": 4.0, "O_15": 2.0, "city": "BREMERTON", "beds": 125.0, "SR_15": 2.0}, {"Diff_star": 2.0, "addr": "2004 N 22ND AVENUE", "SR_14": 1.0, "Q_14": 5.0, "name": "AVALON HEALTH & REHABILITATION CENTER - PASCO", "SF_14": 5.0, "SF_15": 5.0, "cnty": "Franklin", "st": "WA", "Zip": 99301.0, "O_14": 2.0, "Q_15": 5.0, "O_15": 4.0, "city": "PASCO", "beds": 108.0, "SR_15": 2.0}, {"Diff_star": -2.0, "addr": "650 WEST HEMLOCK ST", "SR_14": 3.0, "Q_14": 5.0, "name": "SEQUIM HEALTH & REHABILITATION", "SF_14": 4.0, "SF_15": 3.0, "cnty": "Clallam", "st": "WA", "Zip": 98382.0, "O_14": 5.0, "Q_15": 3.0, "O_15": 3.0, "city": "SEQUIM", "beds": 100.0, "SR_15": 3.0}, {"Diff_star": 0.0, "addr": "2400 SAMISH WAY", "SR_14": 4.0, "Q_14": 4.0, "name": "HIGHLAND HEALTH AND REHABILITATION", "SF_14": 3.0, "SF_15": 3.0, "cnty": "Whatcom", "st": "WA", "Zip": 98225.0, "O_14": 4.0, "Q_15": 2.0, "O_15": 4.0, "city": "BELLINGHAM", "beds": 44.0, "SR_15": 4.0}, {"Diff_star": -1.0, "addr": "817 PIONEER AVENUE", "SR_14": 2.0, "Q_14": 2.0, "name": "CASHMERE CONVALESCENT CENTER", "SF_14": 5.0, "SF_15": 5.0, "cnty": "Chelan", "st": "WA", "Zip": 98815.0, "O_14": 3.0, "Q_15": 1.0, "O_15": 2.0, "city": "CASHMERE", "beds": 65.0, "SR_15": 2.0}, {"Diff_star": 0.0, "addr": "2102 SOUTH 96TH STREET", "SR_14": 1.0, "Q_14": 3.0, "name": "TACOMA NURSING AND REHABILITATION CENTER", "SF_14": 3.0, "SF_15": 3.0, "cnty": "Pierce", "st": "WA", "Zip": 98444.0, "O_14": 1.0, "Q_15": 1.0, "O_15": 1.0, "city": "TACOMA", "beds": 150.0, "SR_15": 1.0}, {"Diff_star": -1.0, "addr": "7900 WILLOWS ROAD NORTHEAST", "SR_14": 2.0, "Q_14": 4.0, "name": "REDMOND CARE AND REHABILITATION CENTER", "SF_14": 4.0, "SF_15": 3.0, "cnty": "King", "st": "WA", "Zip": 98052.0, "O_14": 3.0, "Q_15": 3.0, "O_15": 2.0, "city": "REDMOND", "beds": 139.0, "SR_15": 2.0}, {"Diff_star": 0.0, "addr": "4831 35TH AVENUE SOUTHWEST", "SR_14": 3.0, "Q_14": 4.0, "name": "PROVIDENCE MOUNT ST VINCENT", "SF_14": 4.0, "SF_15": 4.0, "cnty": "King", "st": "WA", "Zip": 98126.0, "O_14": 4.0, "Q_15": 3.0, "O_15": 4.0, "city": "SEATTLE", "beds": 215.0, "SR_15": 3.0}, {"Diff_star": -1.0, "addr": "7411 PACIFIC AVENUE", "SR_14": 2.0, "Q_14": 4.0, "name": "AVAMERE HERITAGE REHABILITATION OF TACOMA", "SF_14": 4.0, "SF_15": 3.0, "cnty": "Pierce", "st": "WA", "Zip": 98408.0, "O_14": 3.0, "Q_15": 2.0, "O_15": 2.0, "city": "TACOMA", "beds": 89.0, "SR_15": 2.0}, {"Diff_star": 0.0, "addr": "1116 E LAURIDSEN BOULEVARD", "SR_14": 1.0, "Q_14": 5.0, "name": "CRESTWOOD HEALTH AND REHABILITATION CENTER", "SF_14": 3.0, "SF_15": 2.0, "cnty": "Clallam", "st": "WA", "Zip": 98362.0, "O_14": 2.0, "Q_15": 5.0, "O_15": 2.0, "city": "PORT ANGELES", "beds": 101.0, "SR_15": 1.0}, {"Diff_star": 0.0, "addr": "1045 SOUTH 308TH STREET", "SR_14": 2.0, "Q_14": 5.0, "name": "LIFE CARE CENTER OF FEDERAL WAY", "SF_14": 3.0, "SF_15": 3.0, "cnty": "King", "st": "WA", "Zip": 98003.0, "O_14": 3.0, "Q_15": 5.0, "O_15": 3.0, "city": "FEDERAL WAY", "beds": 157.0, "SR_15": 2.0}, {"Diff_star": -1.0, "addr": "2830  I  STREET NORTHEAST", "SR_14": 1.0, "Q_14": 5.0, "name": "NORTH AUBURN REHAB & HEALTH CENTER", "SF_14": 2.0, "SF_15": 2.0, "cnty": "King", "st": "WA", "Zip": 98002.0, "O_14": 2.0, "Q_15": 4.0, "O_15": 1.0, "city": "AUBURN", "beds": 125.0, "SR_15": 1.0}, {"Diff_star": 0.0, "addr": "4430 TALBOT ROAD SOUTH", "SR_14": 1.0, "Q_14": 4.0, "name": "TALBOT CENTER FOR REHAB & HEAL", "SF_14": 4.0, "SF_15": 4.0, "cnty": "King", "st": "WA", "Zip": 98055.0, "O_14": 2.0, "Q_15": 3.0, "O_15": 2.0, "city": "RENTON", "beds": 136.0, "SR_15": 1.0}, {"Diff_star": 0.0, "addr": "2717 DEXTER AVENUE NORTH", "SR_14": 4.0, "Q_14": 4.0, "name": "QUEEN ANNE HEALTHCARE", "SF_14": 3.0, "SF_15": 3.0, "cnty": "King", "st": "WA", "Zip": 98109.0, "O_14": 4.0, "Q_15": 3.0, "O_15": 4.0, "city": "SEATTLE", "beds": 120.0, "SR_15": 4.0}, {"Diff_star": -1.0, "addr": "400 EAST 33RD STREET", "SR_14": 1.0, "Q_14": 5.0, "name": "KINDRED TRANSITIONAL CARE & REHAB CTR VANCOUVER", "SF_14": 2.0, "SF_15": 2.0, "cnty": "Clark", "st": "WA", "Zip": 98663.0, "O_14": 2.0, "Q_15": 4.0, "O_15": 1.0, "city": "VANCOUVER", "beds": 98.0, "SR_15": 1.0}, {"Diff_star": 0.0, "addr": "2031 POTTERY AVENUE", "SR_14": 4.0, "Q_14": 5.0, "name": "LIFE CARE CENTER OF PORT ORCHARD", "SF_14": 4.0, "SF_15": 4.0, "cnty": "Kitsap", "st": "WA", "Zip": 98366.0, "O_14": 5.0, "Q_15": 5.0, "O_15": 5.0, "city": "PORT ORCHARD", "beds": 125.0, "SR_15": 4.0}, {"Diff_star": 1.0, "addr": "516 23RD AVE SE", "SR_14": 1.0, "Q_14": 4.0, "name": "PUYALLUP NURSING AND REHABILITATION CENTER", "SF_14": 3.0, "SF_15": 3.0, "cnty": "Pierce", "st": "WA", "Zip": 98372.0, "O_14": 1.0, "Q_15": 3.0, "O_15": 2.0, "city": "PUYALLUP", "beds": 96.0, "SR_15": 2.0}, {"Diff_star": 0.0, "addr": "16357 AURORA AVENUE NORTH", "SR_14": 2.0, "Q_14": 4.0, "name": "KINDRED NURSING AND REHABILITATION - ARDEN", "SF_14": 3.0, "SF_15": 3.0, "cnty": "King", "st": "WA", "Zip": 98133.0, "O_14": 2.0, "Q_15": 2.0, "O_15": 2.0, "city": "SEATTLE", "beds": 90.0, "SR_15": 2.0}, {"Diff_star": 0.0, "addr": "1105 27TH STREET", "SR_14": 3.0, "Q_14": 3.0, "name": "FIDALGO CARE CENTER", "SF_14": 4.0, "SF_15": 4.0, "cnty": "Skagit", "st": "WA", "Zip": 98221.0, "O_14": 4.0, "Q_15": 2.0, "O_15": 4.0, "city": "ANACORTES", "beds": 44.0, "SR_15": 3.0}, {"Diff_star": 0.0, "addr": "2051 POTTERY AVENUE", "SR_14": 4.0, "Q_14": 3.0, "name": "STAFFORD HEALTHCARE AT RIDGEMONT", "SF_14": 5.0, "SF_15": 5.0, "cnty": "Kitsap", "st": "WA", "Zip": 98366.0, "O_14": 5.0, "Q_15": 3.0, "O_15": 5.0, "city": "PORT ORCHARD", "beds": 96.0, "SR_15": 4.0}, {"Diff_star": 0.0, "addr": "1200 BIRCHWOOD AVENUE", "SR_14": 1.0, "Q_14": 5.0, "name": "AVAMERE BELLINGHAM HEALTH CARE & REHAB SERVICES", "SF_14": 4.0, "SF_15": 4.0, "cnty": "Whatcom", "st": "WA", "Zip": 98225.0, "O_14": 2.0, "Q_15": 4.0, "O_15": 2.0, "city": "BELLINGHAM", "beds": 84.0, "SR_15": 1.0}, {"Diff_star": 0.0, "addr": "721 OTIS AVENUE", "SR_14": 1.0, "Q_14": 3.0, "name": "PRESTIGE CARE & REHABILITATION - SUNNYSIDE", "SF_14": 4.0, "SF_15": 4.0, "cnty": "Yakima", "st": "WA", "Zip": 98944.0, "O_14": 2.0, "Q_15": 2.0, "O_15": 2.0, "city": "SUNNYSIDE", "beds": 80.0, "SR_15": 1.0}, {"Diff_star": -1.0, "addr": "2430 NORTH 13TH STREET", "SR_14": 2.0, "Q_14": 5.0, "name": "FIR LANE HEALTH AND REHAB CTR", "SF_14": 4.0, "SF_15": 4.0, "cnty": "Mason", "st": "WA", "Zip": 98584.0, "O_14": 4.0, "Q_15": 4.0, "O_15": 3.0, "city": "SHELTON", "beds": 135.0, "SR_15": 2.0}, {"Diff_star": 0.0, "addr": "310 FOURTH STREET", "SR_14": 2.0, "Q_14": 4.0, "name": "WOODLAND CONVALESCENT CENTER", "SF_14": 3.0, "SF_15": 3.0, "cnty": "Cowlitz", "st": "WA", "Zip": 98674.0, "O_14": 2.0, "Q_15": 3.0, "O_15": 2.0, "city": "WOODLAND", "beds": 62.0, "SR_15": 2.0}, {"Diff_star": -1.0, "addr": "21400 72ND AVENUE WEST", "SR_14": 2.0, "Q_14": 3.0, "name": "ALDERCREST HEALTH & REHAB CENTER", "SF_14": 4.0, "SF_15": 3.0, "cnty": "Snohomish", "st": "WA", "Zip": 98026.0, "O_14": 3.0, "Q_15": 2.0, "O_15": 2.0, "city": "EDMONDS", "beds": 128.0, "SR_15": 2.0}, {"Diff_star": -1.0, "addr": "3919 SOUTH 19TH STREET", "SR_14": 1.0, "Q_14": 2.0, "name": "PARK ROSE CARE CENTER", "SF_14": 4.0, "SF_15": 3.0, "cnty": "Pierce", "st": "WA", "Zip": 98405.0, "O_14": 2.0, "Q_15": 2.0, "O_15": 1.0, "city": "TACOMA", "beds": 139.0, "SR_15": 1.0}, {"Diff_star": 0.0, "addr": "140 SOUTH MARION AVENUE", "SR_14": 3.0, "Q_14": 4.0, "name": "FOREST RIDGE HEALTH & REHAB", "SF_14": 3.0, "SF_15": 3.0, "cnty": "Kitsap", "st": "WA", "Zip": 98312.0, "O_14": 3.0, "Q_15": 3.0, "O_15": 3.0, "city": "BREMERTON", "beds": 98.0, "SR_15": 3.0}, {"Diff_star": 0.0, "addr": "430 LILLY ROAD NORTHEAST", "SR_14": 1.0, "Q_14": 5.0, "name": "EVERGREEN NURSING & REHAB CENTER", "SF_14": 4.0, "SF_15": 4.0, "cnty": "Thurston", "st": "WA", "Zip": 98506.0, "O_14": 2.0, "Q_15": 4.0, "O_15": 2.0, "city": "OLYMPIA", "beds": 135.0, "SR_15": 1.0}, {"Diff_star": 0.0, "addr": "NORTHWEST 1310 DEANE", "SR_14": 4.0, "Q_14": 5.0, "name": "AVALON CARE CENTER - PULLMAN", "SF_14": 4.0, "SF_15": 3.0, "cnty": "Whitman", "st": "WA", "Zip": 99163.0, "O_14": 5.0, "Q_15": 5.0, "O_15": 5.0, "city": "PULLMAN", "beds": 48.0, "SR_15": 4.0}, {"Diff_star": -1.0, "addr": "1150 WEST FAIRVIEW ROAD", "SR_14": 4.0, "Q_14": 5.0, "name": "WHITMAN HEALTH & REHAB CENTER", "SF_14": 4.0, "SF_15": 4.0, "cnty": "Whitman", "st": "WA", "Zip": 99111.0, "O_14": 5.0, "Q_15": 3.0, "O_15": 4.0, "city": "COLFAX", "beds": 55.0, "SR_15": 4.0}, {"Diff_star": 0.0, "addr": "1031 SOUTHWEST 130TH STREET", "SR_14": 5.0, "Q_14": 5.0, "name": "BURIEN NURSING AND REHABILITATION CENTER", "SF_14": 5.0, "SF_15": 5.0, "cnty": "King", "st": "WA", "Zip": 98146.0, "O_14": 5.0, "Q_15": 5.0, "O_15": 5.0, "city": "BURIEN", "beds": 140.0, "SR_15": 5.0}, {"Diff_star": -1.0, "addr": "1505 SOUTHEAST CARPENTER ROAD", "SR_14": 3.0, "Q_14": 5.0, "name": "ROO-LAN HEALTHCARE CENTER", "SF_14": 2.0, "SF_15": 2.0, "cnty": "Thurston", "st": "WA", "Zip": 98503.0, "O_14": 4.0, "Q_15": 3.0, "O_15": 3.0, "city": "LACEY", "beds": 96.0, "SR_15": 3.0}, {"Diff_star": 0.0, "addr": "495 NORTH THIRTEENTH STREET", "SR_14": 5.0, "Q_14": 5.0, "name": "AVALON CARE CENTER - OTHELLO LLC", "SF_14": 4.0, "SF_15": 4.0, "cnty": "Adams", "st": "WA", "Zip": 99344.0, "O_14": 5.0, "Q_15": 5.0, "O_15": 5.0, "city": "OTHELLO", "beds": 39.0, "SR_15": 5.0}, {"Diff_star": -1.0, "addr": "3600 EAST HARTSON AVENUE", "SR_14": 3.0, "Q_14": 3.0, "name": "ALDERWOOD MANOR", "SF_14": 4.0, "SF_15": 4.0, "cnty": "Spokane", "st": "WA", "Zip": 99202.0, "O_14": 4.0, "Q_15": 1.0, "O_15": 3.0, "city": "SPOKANE", "beds": 85.0, "SR_15": 3.0}, {"Diff_star": -1.0, "addr": "8507 NORTHEAST 8TH WAY", "SR_14": 4.0, "Q_14": 4.0, "name": "FORT VANCOUVER CONVALESCENT CENTER", "SF_14": 5.0, "SF_15": 5.0, "cnty": "Clark", "st": "WA", "Zip": 98664.0, "O_14": 5.0, "Q_15": 1.0, "O_15": 4.0, "city": "VANCOUVER", "beds": 92.0, "SR_15": 4.0}, {"Diff_star": -1.0, "addr": "817 EAST PLUM STREET", "SR_14": 2.0, "Q_14": 4.0, "name": "LAKE RIDGE CENTER", "SF_14": 4.0, "SF_15": 4.0, "cnty": "Grant", "st": "WA", "Zip": 98837.0, "O_14": 3.0, "Q_15": 1.0, "O_15": 2.0, "city": "MOSES LAKE", "beds": 74.0, "SR_15": 2.0}, {"Diff_star": 0.0, "addr": "2818 NORTHEAST 145TH STREET", "SR_14": 2.0, "Q_14": 4.0, "name": "SHORELINE HEALTH AND REHABILITATION CENTER", "SF_14": 5.0, "SF_15": 5.0, "cnty": "King", "st": "WA", "Zip": 98155.0, "O_14": 3.0, "Q_15": 2.0, "O_15": 3.0, "city": "SEATTLE", "beds": 102.0, "SR_15": 2.0}, {"Diff_star": 0.0, "addr": "1050 E MOUNTAIN VIEW", "SR_14": 1.0, "Q_14": 5.0, "name": "PRESTIGE POST-ACUTE & REHAB CTR - KITTITAS VALLLEY", "SF_14": 4.0, "SF_15": 4.0, "cnty": "Kittitas", "st": "WA", "Zip": 98926.0, "O_14": 2.0, "Q_15": 5.0, "O_15": 2.0, "city": "ELLENSBURG", "beds": 74.0, "SR_15": 1.0}, {"Diff_star": 0.0, "addr": "3625 EAST B STREET", "SR_14": 2.0, "Q_14": 4.0, "name": "AVAMERE SKILLED NURSING OF TACOMA", "SF_14": 4.0, "SF_15": 4.0, "cnty": "Pierce", "st": "WA", "Zip": 98404.0, "O_14": 3.0, "Q_15": 2.0, "O_15": 3.0, "city": "TACOMA", "beds": 102.0, "SR_15": 2.0}, {"Diff_star": 0.0, "addr": "209 NORTH AHTANUM AVENUE", "SR_14": 5.0, "Q_14": 3.0, "name": "EMERALD CARE", "SF_14": 4.0, "SF_15": 4.0, "cnty": "Yakima", "st": "WA", "Zip": 98951.0, "O_14": 5.0, "Q_15": 2.0, "O_15": 5.0, "city": "WAPATO", "beds": 82.0, "SR_15": 5.0}, {"Diff_star": 0.0, "addr": "1015 NORTH GARRISON ROAD", "SR_14": 1.0, "Q_14": 4.0, "name": "PACIFIC SPECIALTY & REHAB CARE", "SF_14": 4.0, "SF_15": 4.0, "cnty": "Clark", "st": "WA", "Zip": 98664.0, "O_14": 2.0, "Q_15": 2.0, "O_15": 2.0, "city": "VANCOUVER", "beds": 104.0, "SR_15": 1.0}, {"Diff_star": 0.0, "addr": "1703 CALIFORNIA AVENUE SOUTHWEST", "SR_14": 5.0, "Q_14": 5.0, "name": "PARK WEST CARE CENTER", "SF_14": 4.0, "SF_15": 5.0, "cnty": "King", "st": "WA", "Zip": 98116.0, "O_14": 5.0, "Q_15": 5.0, "O_15": 5.0, "city": "SEATTLE", "beds": 139.0, "SR_15": 5.0}, {"Diff_star": 0.0, "addr": "8407 STEILACOOM BLVD SOUTHWEST", "SR_14": 1.0, "Q_14": 4.0, "name": "AVAMERE GEORGIAN HOUSE OF LAKEWOOD", "SF_14": 4.0, "SF_15": 4.0, "cnty": "Pierce", "st": "WA", "Zip": 98498.0, "O_14": 2.0, "Q_15": 2.0, "O_15": 2.0, "city": "TACOMA", "beds": 73.0, "SR_15": 1.0}, {"Diff_star": 0.0, "addr": "2120 EAST DIVISION STREET", "SR_14": 1.0, "Q_14": 5.0, "name": "LIFE CARE CENTER OF MOUNT VERNON", "SF_14": 4.0, "SF_15": 3.0, "cnty": "Skagit", "st": "WA", "Zip": 98273.0, "O_14": 2.0, "Q_15": 5.0, "O_15": 2.0, "city": "MOUNT VERNON", "beds": 121.0, "SR_15": 1.0}, {"Diff_star": 0.0, "addr": "740 NE DALLAS STREET", "SR_14": 4.0, "Q_14": 4.0, "name": "PRESTIGE CARE & REHABILITATION - CAMAS", "SF_14": 4.0, "SF_15": 4.0, "cnty": "Clark", "st": "WA", "Zip": 98607.0, "O_14": 4.0, "Q_15": 2.0, "O_15": 4.0, "city": "CAMAS", "beds": 83.0, "SR_15": 4.0}, {"Diff_star": 0.0, "addr": "1000 EAST ELEP STREET", "SR_14": 3.0, "Q_14": 4.0, "name": "PRESTIGE CARE & REHABILITATION - PINEWOOD TERRACE", "SF_14": 3.0, "SF_15": 3.0, "cnty": "Stevens", "st": "WA", "Zip": 99114.0, "O_14": 3.0, "Q_15": 2.0, "O_15": 3.0, "city": "COLVILLE", "beds": 92.0, "SR_15": 3.0}, {"Diff_star": 0.0, "addr": "1500 3RD AVENUE", "SR_14": 4.0, "Q_14": 5.0, "name": "FRONTIER REHAB & EXTENDED CARE", "SF_14": 4.0, "SF_15": 4.0, "cnty": "Cowlitz", "st": "WA", "Zip": 98632.0, "O_14": 5.0, "Q_15": 5.0, "O_15": 5.0, "city": "LONGVIEW", "beds": 140.0, "SR_15": 4.0}, {"Diff_star": 0.0, "addr": "13333 GREENWOOD AVENUE NORTH", "SR_14": 1.0, "Q_14": 3.0, "name": "HEALTH AND REHABILITATION OF NORTH SEATTLE", "SF_14": 4.0, "SF_15": 4.0, "cnty": "King", "st": "WA", "Zip": 98133.0, "O_14": 2.0, "Q_15": 2.0, "O_15": 2.0, "city": "SEATTLE", "beds": 151.0, "SR_15": 1.0}, {"Diff_star": -1.0, "addr": "80 SOUTHWEST SECOND STREET", "SR_14": 1.0, "Q_14": 5.0, "name": "RENTON NURSING AND REHABILITATION CENTER", "SF_14": 2.0, "SF_15": 2.0, "cnty": "King", "st": "WA", "Zip": 98057.0, "O_14": 2.0, "Q_15": 4.0, "O_15": 1.0, "city": "RENTON", "beds": 99.0, "SR_15": 1.0}, {"Diff_star": -1.0, "addr": "506 SOUTH JACKSON", "SR_14": 4.0, "Q_14": 4.0, "name": "LIFE CARE CENTER OF RITZVILLE", "SF_14": 5.0, "SF_15": 5.0, "cnty": "Adams", "st": "WA", "Zip": 99169.0, "O_14": 5.0, "Q_15": 4.0, "O_15": 4.0, "city": "RITZVILLE", "beds": 50.0, "SR_15": 3.0}, {"Diff_star": 0.0, "addr": "1242 ELEVENTH STREET", "SR_14": 2.0, "Q_14": 5.0, "name": "PRESTIGE CARE & REHABILITATION - CLARKSTON", "SF_14": 4.0, "SF_15": 4.0, "cnty": "Asotin", "st": "WA", "Zip": 99403.0, "O_14": 4.0, "Q_15": 5.0, "O_15": 4.0, "city": "CLARKSTON", "beds": 90.0, "SR_15": 2.0}, {"Diff_star": -1.0, "addr": "1506 RADIO ROAD", "SR_14": 2.0, "Q_14": 2.0, "name": "ROYAL VISTA NURSING & REHAB", "SF_14": 4.0, "SF_15": 4.0, "cnty": "Kittitas", "st": "WA", "Zip": 98926.0, "O_14": 3.0, "Q_15": 1.0, "O_15": 2.0, "city": "ELLENSBURG", "beds": 67.0, "SR_15": 2.0}, {"Diff_star": -1.0, "addr": "910 16TH AVENUE", "SR_14": 4.0, "Q_14": 3.0, "name": "PARK ROYAL HEALTH & REHAB CENTER", "SF_14": 5.0, "SF_15": 5.0, "cnty": "Cowlitz", "st": "WA", "Zip": 98632.0, "O_14": 5.0, "Q_15": 1.0, "O_15": 4.0, "city": "LONGVIEW", "beds": 50.0, "SR_15": 4.0}, {"Diff_star": 0.0, "addr": "5601 S ORCHARD STREET", "SR_14": 4.0, "Q_14": 5.0, "name": "MANOR CARE OF TACOMA WA, LLC", "SF_14": 3.0, "SF_15": 3.0, "cnty": "Pierce", "st": "WA", "Zip": 98409.0, "O_14": 5.0, "Q_15": 5.0, "O_15": 5.0, "city": "TACOMA", "beds": 124.0, "SR_15": 4.0}, {"Diff_star": 0.0, "addr": "560 LEBO BOULEVARD", "SR_14": 4.0, "Q_14": 4.0, "name": "STAFFORD HEALTHCARE AT BELMONT", "SF_14": 5.0, "SF_15": 5.0, "cnty": "Kitsap", "st": "WA", "Zip": 98310.0, "O_14": 5.0, "Q_15": 4.0, "O_15": 5.0, "city": "BREMERTON", "beds": 102.0, "SR_15": 4.0}, {"Diff_star": 0.0, "addr": "1841 EAST UPRIVER DRIVE", "SR_14": 3.0, "Q_14": 4.0, "name": "RIVERVIEW LUTHERAN CARE CENTER", "SF_14": 4.0, "SF_15": 4.0, "cnty": "Spokane", "st": "WA", "Zip": 99207.0, "O_14": 4.0, "Q_15": 3.0, "O_15": 4.0, "city": "SPOKANE", "beds": 75.0, "SR_15": 3.0}, {"Diff_star": -1.0, "addr": "128 BEACON HILL DRIVE", "SR_14": 3.0, "Q_14": 5.0, "name": "BEACON HILL REHABILITATION", "SF_14": 3.0, "SF_15": 3.0, "cnty": "Cowlitz", "st": "WA", "Zip": 98632.0, "O_14": 4.0, "Q_15": 4.0, "O_15": 3.0, "city": "LONGVIEW", "beds": 67.0, "SR_15": 3.0}, {"Diff_star": -1.0, "addr": "3121 SQUALICUM PARKWAY", "SR_14": 4.0, "Q_14": 5.0, "name": "ST FRANCIS OF BELLINGHAM", "SF_14": 4.0, "SF_15": 3.0, "cnty": "Whatcom", "st": "WA", "Zip": 98225.0, "O_14": 5.0, "Q_15": 3.0, "O_15": 4.0, "city": "BELLINGHAM", "beds": 120.0, "SR_15": 4.0}, {"Diff_star": 0.0, "addr": "4001 CAPITOL MALL DR SOUTHWEST", "SR_14": 1.0, "Q_14": 4.0, "name": "PUGET SOUND HEALTHCARE CENTER", "SF_14": 4.0, "SF_15": 4.0, "cnty": "Thurston", "st": "WA", "Zip": 98502.0, "O_14": 2.0, "Q_15": 4.0, "O_15": 2.0, "city": "OLYMPIA", "beds": 108.0, "SR_15": 1.0}, {"Diff_star": 0.0, "addr": "901 SHUMWAY RD", "SR_14": 4.0, "Q_14": 5.0, "name": "REGENCY OMAK", "SF_14": 4.0, "SF_15": 4.0, "cnty": "Okanogan", "st": "WA", "Zip": 98841.0, "O_14": 5.0, "Q_15": 5.0, "O_15": 5.0, "city": "OMAK", "beds": 56.0, "SR_15": 4.0}, {"Diff_star": -1.0, "addr": "920 12TH AVENUE SOUTHEAST", "SR_14": 2.0, "Q_14": 3.0, "name": "RAINIER REHABILITATION", "SF_14": 3.0, "SF_15": 3.0, "cnty": "Pierce", "st": "WA", "Zip": 98372.0, "O_14": 2.0, "Q_15": 1.0, "O_15": 1.0, "city": "PUYALLUP", "beds": 117.0, "SR_15": 2.0}, {"Diff_star": 0.0, "addr": "751 KEARNEY STREET", "SR_14": 2.0, "Q_14": 5.0, "name": "LIFE CARE CENTER OF PORT TOWNSEND", "SF_14": 4.0, "SF_15": 4.0, "cnty": "Jefferson", "st": "WA", "Zip": 98368.0, "O_14": 4.0, "Q_15": 5.0, "O_15": 4.0, "city": "PORT TOWNSEND", "beds": 94.0, "SR_15": 2.0}, {"Diff_star": -1.0, "addr": "311 NORTHEAST 3RD STREET", "SR_14": 1.0, "Q_14": 2.0, "name": "CAREAGE OF WHIDBEY", "SF_14": 4.0, "SF_15": 4.0, "cnty": "Island", "st": "WA", "Zip": 98239.0, "O_14": 2.0, "Q_15": 1.0, "O_15": 1.0, "city": "COUPEVILLE", "beds": 112.0, "SR_15": 1.0}, {"Diff_star": 0.0, "addr": "555 16TH AVENUE", "SR_14": 2.0, "Q_14": 5.0, "name": "SEATTLE MEDICAL POST ACUTE CARE", "SF_14": 3.0, "SF_15": 3.0, "cnty": "King", "st": "WA", "Zip": 98122.0, "O_14": 3.0, "Q_15": 5.0, "O_15": 3.0, "city": "SEATTLE", "beds": 103.0, "SR_15": 2.0}, {"Diff_star": -1.0, "addr": "32300 FIRST AVENUE SOUTH", "SR_14": 2.0, "Q_14": 4.0, "name": "HALLMARK MANOR", "SF_14": 4.0, "SF_15": 4.0, "cnty": "King", "st": "WA", "Zip": 98003.0, "O_14": 3.0, "Q_15": 4.0, "O_15": 2.0, "city": "FEDERAL WAY", "beds": 147.0, "SR_15": 1.0}, {"Diff_star": -1.0, "addr": "300 SOUTH 18TH STREET", "SR_14": 3.0, "Q_14": 4.0, "name": "MIRA VISTA CARE CENTER", "SF_14": 4.0, "SF_15": 3.0, "cnty": "Skagit", "st": "WA", "Zip": 98273.0, "O_14": 4.0, "Q_15": 2.0, "O_15": 3.0, "city": "MOUNT VERNON", "beds": 94.0, "SR_15": 3.0}, {"Diff_star": 0.0, "addr": "1462 WEST STATE ROUTE 20", "SR_14": 4.0, "Q_14": 4.0, "name": "LIFE CARE CENTER OF SKAGIT VAL", "SF_14": 4.0, "SF_15": 4.0, "cnty": "Skagit", "st": "WA", "Zip": 98284.0, "O_14": 4.0, "Q_15": 3.0, "O_15": 4.0, "city": "SEDRO WOOLLEY", "beds": 150.0, "SR_15": 4.0}, {"Diff_star": 0.0, "addr": "3701 188TH STREET SOUTHWEST", "SR_14": 5.0, "Q_14": 4.0, "name": "MANOR CARE HEALTH SERVICES", "SF_14": 4.0, "SF_15": 4.0, "cnty": "Snohomish", "st": "WA", "Zip": 98037.0, "O_14": 5.0, "Q_15": 5.0, "O_15": 5.0, "city": "LYNNWOOD", "beds": 113.0, "SR_15": 5.0}, {"Diff_star": 0.0, "addr": "1100 EAST NELSON ROAD", "SR_14": 3.0, "Q_14": 5.0, "name": "COLUMBIA CREST CENTER", "SF_14": 4.0, "SF_15": 4.0, "cnty": "Grant", "st": "WA", "Zip": 98837.0, "O_14": 5.0, "Q_15": 5.0, "O_15": 5.0, "city": "MOSES LAKE", "beds": 111.0, "SR_15": 3.0}, {"Diff_star": 0.0, "addr": "NORTH 6025 ASSEMBLY", "SR_14": 3.0, "Q_14": 5.0, "name": "MANOR CARE HEALTH SERVICES-SPO", "SF_14": 3.0, "SF_15": 3.0, "cnty": "Spokane", "st": "WA", "Zip": 99205.0, "O_14": 4.0, "Q_15": 4.0, "O_15": 4.0, "city": "SPOKANE", "beds": 125.0, "SR_15": 4.0}, {"Diff_star": -1.0, "addr": "511 10TH AVENUE SOUTHEAST", "SR_14": 2.0, "Q_14": 5.0, "name": "LIFE CARE CENTER OF PUYALLUP", "SF_14": 4.0, "SF_15": 4.0, "cnty": "Pierce", "st": "WA", "Zip": 98372.0, "O_14": 4.0, "Q_15": 4.0, "O_15": 3.0, "city": "PUYALLUP", "beds": 202.0, "SR_15": 2.0}, {"Diff_star": 0.0, "addr": "835 MADISON AVENUE NORTH", "SR_14": 3.0, "Q_14": 5.0, "name": "ISLAND HEALTH & REHAB CENTER", "SF_14": 4.0, "SF_15": 4.0, "cnty": "Kitsap", "st": "WA", "Zip": 98110.0, "O_14": 5.0, "Q_15": 5.0, "O_15": 5.0, "city": "BAINBRIDGE ISLAND", "beds": 69.0, "SR_15": 3.0}, {"Diff_star": -1.0, "addr": "1649 EAST 72ND", "SR_14": 3.0, "Q_14": 4.0, "name": "HEARTWOOD EXTENDED HEALTHCARE", "SF_14": 4.0, "SF_15": 3.0, "cnty": "Pierce", "st": "WA", "Zip": 98404.0, "O_14": 4.0, "Q_15": 4.0, "O_15": 3.0, "city": "TACOMA", "beds": 120.0, "SR_15": 3.0}, {"Diff_star": 1.0, "addr": "1000 5TH AVENUE SOUTH", "SR_14": 2.0, "Q_14": 4.0, "name": "AVAMERE OLYMPIC REHABILITATION OF SEQUIM", "SF_14": 4.0, "SF_15": 4.0, "cnty": "Clallam", "st": "WA", "Zip": 98382.0, "O_14": 3.0, "Q_15": 3.0, "O_15": 4.0, "city": "SEQUIM", "beds": 125.0, "SR_15": 3.0}, {"Diff_star": 0.0, "addr": "151 BUENA VISTA DRIVE", "SR_14": 3.0, "Q_14": 4.0, "name": "BUENA VISTA", "SF_14": 4.0, "SF_15": 4.0, "cnty": "Stevens", "st": "WA", "Zip": 99114.0, "O_14": 4.0, "Q_15": 3.0, "O_15": 4.0, "city": "COLVILLE", "beds": 40.0, "SR_15": 3.0}, {"Diff_star": 0.0, "addr": "510 NORTH PARKWAY", "SR_14": 1.0, "Q_14": 4.0, "name": "VICTORY HEALTH & REHAB OF BATTLE GROUND LLC", "SF_14": 3.0, "SF_15": 3.0, "cnty": "Clark", "st": "WA", "Zip": 98604.0, "O_14": 1.0, "Q_15": 2.0, "O_15": 1.0, "city": "BATTLE GROUND", "beds": 83.0, "SR_15": 1.0}, {"Diff_star": -1.0, "addr": "660 SPRING STREET", "SR_14": 2.0, "Q_14": 5.0, "name": "LIFE CARE CENTER OF THE SAN JUAN ISLANDS", "SF_14": 4.0, "SF_15": 3.0, "cnty": "San Juan", "st": "WA", "Zip": 98250.0, "O_14": 4.0, "Q_15": 5.0, "O_15": 3.0, "city": "FRIDAY HARBOR", "beds": 85.0, "SR_15": 2.0}, {"Diff_star": 0.0, "addr": "10101 NORTHEAST 120TH STREET", "SR_14": 4.0, "Q_14": 5.0, "name": "LIFE CARE CENTER OF KIRKLAND", "SF_14": 4.0, "SF_15": 4.0, "cnty": "King", "st": "WA", "Zip": 98034.0, "O_14": 5.0, "Q_15": 5.0, "O_15": 5.0, "city": "KIRKLAND", "beds": 190.0, "SR_15": 4.0}, {"Diff_star": 0.0, "addr": "800 10TH STREET", "SR_14": 2.0, "Q_14": 5.0, "name": "SNOHOMISH HEALTH AND REHABILITATION", "SF_14": 3.0, "SF_15": 3.0, "cnty": "Snohomish", "st": "WA", "Zip": 98290.0, "O_14": 3.0, "Q_15": 5.0, "O_15": 3.0, "city": "SNOHOMISH", "beds": 91.0, "SR_15": 2.0}, {"Diff_star": -2.0, "addr": "219 CEDAR AVENUE SOUTH", "SR_14": 2.0, "Q_14": 2.0, "name": "MOUNT SI TRANSITIONAL HEALTH CENTER", "SF_14": 4.0, "SF_15": 3.0, "cnty": "King", "st": "WA", "Zip": 98045.0, "O_14": 3.0, "Q_15": 1.0, "O_15": 1.0, "city": "NORTH BEND", "beds": 64.0, "SR_15": 2.0}, {"Diff_star": 0.0, "addr": "5220 NORTHEAST HAZEL DELL AVENUE", "SR_14": 3.0, "Q_14": 5.0, "name": "DISCOVERY NURSING & REHAB OF VANCOUVER", "SF_14": 4.0, "SF_15": 4.0, "cnty": "Clark", "st": "WA", "Zip": 98663.0, "O_14": 5.0, "Q_15": 5.0, "O_15": 5.0, "city": "VANCOUVER", "beds": 89.0, "SR_15": 3.0}, {"Diff_star": 0.0, "addr": "502 29TH STREET SOUTHEAST", "SR_14": 2.0, "Q_14": 4.0, "name": "CANTERBURY HOUSE", "SF_14": 3.0, "SF_15": 3.0, "cnty": "King", "st": "WA", "Zip": 98002.0, "O_14": 2.0, "Q_15": 3.0, "O_15": 2.0, "city": "AUBURN", "beds": 100.0, "SR_15": 2.0}, {"Diff_star": 0.0, "addr": "2219 NORTH 6TH STREET", "SR_14": 2.0, "Q_14": 5.0, "name": "CHENEY CARE CENTER", "SF_14": 4.0, "SF_15": 4.0, "cnty": "Spokane", "st": "WA", "Zip": 99004.0, "O_14": 4.0, "Q_15": 5.0, "O_15": 4.0, "city": "CHENEY", "beds": 54.0, "SR_15": 2.0}, {"Diff_star": 0.0, "addr": "11411 BRIDGEPORT WAY", "SR_14": 1.0, "Q_14": 3.0, "name": "KINDRED TRANSITIONAL CARE & REHAB CENTER- LAKEWOOD", "SF_14": 3.0, "SF_15": 3.0, "cnty": "Pierce", "st": "WA", "Zip": 98499.0, "O_14": 1.0, "Q_15": 2.0, "O_15": 1.0, "city": "TACOMA", "beds": 80.0, "SR_15": 1.0}, {"Diff_star": -1.0, "addr": "702 NORTH 16TH AVENUE", "SR_14": 4.0, "Q_14": 5.0, "name": "GOOD SAMARITAN HEALTH CARE CTR", "SF_14": 4.0, "SF_15": 4.0, "cnty": "Yakima", "st": "WA", "Zip": 98902.0, "O_14": 5.0, "Q_15": 4.0, "O_15": 4.0, "city": "YAKIMA", "beds": 105.0, "SR_15": 4.0}, {"Diff_star": 0.0, "addr": "1100 JACKSON STREET", "SR_14": 4.0, "Q_14": 5.0, "name": "WILLAPA HARBOR HEALTH AND REHAB", "SF_14": 4.0, "SF_15": 4.0, "cnty": "Pacific", "st": "WA", "Zip": 98577.0, "O_14": 5.0, "Q_15": 5.0, "O_15": 5.0, "city": "RAYMOND", "beds": 60.0, "SR_15": 4.0}, {"Diff_star": 0.0, "addr": "1355 WEST MAIN STREET", "SR_14": 5.0, "Q_14": 4.0, "name": "REGENCY CARE CENTER AT MONROE", "SF_14": 4.0, "SF_15": 4.0, "cnty": "Snohomish", "st": "WA", "Zip": 98272.0, "O_14": 5.0, "Q_15": 3.0, "O_15": 5.0, "city": "MONROE", "beds": 92.0, "SR_15": 5.0}, {"Diff_star": -1.0, "addr": "620 SOUTH HAZEL STREET", "SR_14": 3.0, "Q_14": 4.0, "name": "ARLINGTON HEALTH AND REHABILITATION", "SF_14": 4.0, "SF_15": 3.0, "cnty": "Snohomish", "st": "WA", "Zip": 98223.0, "O_14": 4.0, "Q_15": 3.0, "O_15": 3.0, "city": "ARLINGTON", "beds": 76.0, "SR_15": 3.0}, {"Diff_star": 0.0, "addr": "500 EAST WEBSTER", "SR_14": 3.0, "Q_14": 3.0, "name": "PROVIDENCE ST JOSEPH HOSPITAL", "SF_14": 4.0, "SF_15": 4.0, "cnty": "Stevens", "st": "WA", "Zip": 99109.0, "O_14": 4.0, "Q_15": 2.0, "O_15": 4.0, "city": "CHEWELAH", "beds": 40.0, "SR_15": 3.0}, {"Diff_star": 0.0, "addr": "414 - 17TH SOUTHEAST", "SR_14": 1.0, "Q_14": 4.0, "name": "REGENCY AUBURN LLC", "SF_14": 4.0, "SF_15": 4.0, "cnty": "King", "st": "WA", "Zip": 98002.0, "O_14": 2.0, "Q_15": 2.0, "O_15": 2.0, "city": "AUBURN", "beds": 96.0, "SR_15": 1.0}, {"Diff_star": -1.0, "addr": "1305 ALEXANDER", "SR_14": 1.0, "Q_14": 5.0, "name": "RIVERSIDE NURSING & REHAB CTR", "SF_14": 3.0, "SF_15": 3.0, "cnty": "Lewis", "st": "WA", "Zip": 98531.0, "O_14": 2.0, "Q_15": 3.0, "O_15": 1.0, "city": "CENTRALIA", "beds": 91.0, "SR_15": 1.0}, {"Diff_star": 0.0, "addr": "917 7TH AVENUE", "SR_14": 2.0, "Q_14": 4.0, "name": "AMERICANA HEALTH & REHAB CTR", "SF_14": 4.0, "SF_15": 4.0, "cnty": "Cowlitz", "st": "WA", "Zip": 98632.0, "O_14": 3.0, "Q_15": 4.0, "O_15": 3.0, "city": "LONGVIEW", "beds": 74.0, "SR_15": 2.0}, {"Diff_star": -1.0, "addr": "5129 HILLTOP ROAD", "SR_14": 1.0, "Q_14": 3.0, "name": "FOREST VIEW TRANSITIONAL HEALTH CENTER", "SF_14": 5.0, "SF_15": 5.0, "cnty": "Snohomish", "st": "WA", "Zip": 98203.0, "O_14": 2.0, "Q_15": 1.0, "O_15": 1.0, "city": "EVERETT", "beds": 70.0, "SR_15": 1.0}, {"Diff_star": 0.0, "addr": "4007 TIETON DRIVE", "SR_14": 4.0, "Q_14": 4.0, "name": "WILLOW SPRINGS CARE AND REHABILITATION", "SF_14": 4.0, "SF_15": 4.0, "cnty": "Yakima", "st": "WA", "Zip": 98908.0, "O_14": 4.0, "Q_15": 2.0, "O_15": 4.0, "city": "YAKIMA", "beds": 75.0, "SR_15": 4.0}, {"Diff_star": 0.0, "addr": "1224 EAST WESTVIEW COURT", "SR_14": 3.0, "Q_14": 4.0, "name": "REGENCY AT NORTHPOINTE", "SF_14": 4.0, "SF_15": 4.0, "cnty": "Spokane", "st": "WA", "Zip": 99218.0, "O_14": 4.0, "Q_15": 3.0, "O_15": 4.0, "city": "SPOKANE", "beds": 120.0, "SR_15": 3.0}, {"Diff_star": 0.0, "addr": "919-109TH AVENUE NORTHEAST", "SR_14": 1.0, "Q_14": 5.0, "name": "SPRINGS AT PACIFIC REGENT, THE", "SF_14": 5.0, "SF_15": 5.0, "cnty": "King", "st": "WA", "Zip": 98004.0, "O_14": 2.0, "Q_15": 5.0, "O_15": 2.0, "city": "BELLEVUE", "beds": 54.0, "SR_15": 1.0}, {"Diff_star": 0.0, "addr": "2702 SOUTH ELY", "SR_14": 4.0, "Q_14": 5.0, "name": "CANYON LAKES RESTORATIVE AND REHABILITATION CENTER", "SF_14": 4.0, "SF_15": 4.0, "cnty": "Benton", "st": "WA", "Zip": 99337.0, "O_14": 5.0, "Q_15": 5.0, "O_15": 5.0, "city": "KENNEWICK", "beds": 53.0, "SR_15": 4.0}, {"Diff_star": -1.0, "addr": "917 SOUTH SCHEUBER ROAD", "SR_14": 1.0, "Q_14": 5.0, "name": "PRESTIGE POST-ACUTE AND REHAB CENTER - LIBERTY", "SF_14": 4.0, "SF_15": 3.0, "cnty": "Lewis", "st": "WA", "Zip": 98531.0, "O_14": 2.0, "Q_15": 4.0, "O_15": 1.0, "city": "CENTRALIA", "beds": 128.0, "SR_15": 1.0}, {"Diff_star": 0.0, "addr": "2905 CONNELLY AVENUE", "SR_14": 3.0, "Q_14": 4.0, "name": "MT BAKER CARE CENTER", "SF_14": 4.0, "SF_15": 4.0, "cnty": "Whatcom", "st": "WA", "Zip": 98225.0, "O_14": 4.0, "Q_15": 3.0, "O_15": 4.0, "city": "BELLINGHAM", "beds": 70.0, "SR_15": 3.0}, {"Diff_star": 0.0, "addr": "12509 GREENWOOD AVENUE NORTH", "SR_14": 4.0, "Q_14": 4.0, "name": "IDA CULVER HOUSE BROADVIEW NCC", "SF_14": 5.0, "SF_15": 5.0, "cnty": "King", "st": "WA", "Zip": 98133.0, "O_14": 5.0, "Q_15": 2.0, "O_15": 5.0, "city": "SEATTLE", "beds": 74.0, "SR_15": 4.0}, {"Diff_star": 0.0, "addr": "1036 EAST VICTORIA AVENUE", "SR_14": 4.0, "Q_14": 5.0, "name": "PRESTIGE CARE & REHABILITATION - BURLINGTON", "SF_14": 4.0, "SF_15": 4.0, "cnty": "Skagit", "st": "WA", "Zip": 98233.0, "O_14": 5.0, "Q_15": 5.0, "O_15": 5.0, "city": "BURLINGTON", "beds": 49.0, "SR_15": 4.0}, {"Diff_star": 0.0, "addr": "7411 NORTH NEVADA", "SR_14": 4.0, "Q_14": 4.0, "name": "ROYAL PARK HEALTH AND REHABILITATION", "SF_14": 4.0, "SF_15": 4.0, "cnty": "Spokane", "st": "WA", "Zip": 99208.0, "O_14": 4.0, "Q_15": 4.0, "O_15": 4.0, "city": "SPOKANE", "beds": 164.0, "SR_15": 4.0}, {"Diff_star": 0.0, "addr": "911 21ST STREET", "SR_14": 4.0, "Q_14": 3.0, "name": "SAN JUAN REHAB AND CARE CENTER", "SF_14": 4.0, "SF_15": 4.0, "cnty": "Skagit", "st": "WA", "Zip": 98221.0, "O_14": 4.0, "Q_15": 2.0, "O_15": 4.0, "city": "ANACORTES", "beds": 52.0, "SR_15": 4.0}, {"Diff_star": -1.0, "addr": "726 NORTH MARKESON", "SR_14": 1.0, "Q_14": 3.0, "name": "REGENCY MANOR", "SF_14": 4.0, "SF_15": 3.0, "cnty": "Chelan", "st": "WA", "Zip": 98816.0, "O_14": 2.0, "Q_15": 2.0, "O_15": 1.0, "city": "CHELAN", "beds": 55.0, "SR_15": 1.0}, {"Diff_star": -1.0, "addr": "14820 EAST FOURTH", "SR_14": 3.0, "Q_14": 5.0, "name": "SULLIVAN PARK CARE CENTER", "SF_14": 3.0, "SF_15": 3.0, "cnty": "Spokane", "st": "WA", "Zip": 99216.0, "O_14": 4.0, "Q_15": 3.0, "O_15": 3.0, "city": "SPOKANE", "beds": 125.0, "SR_15": 3.0}, {"Diff_star": 0.0, "addr": "1821 GROVE STREET", "SR_14": 3.0, "Q_14": 4.0, "name": "MARYSVILLE CARE CENTER", "SF_14": 4.0, "SF_15": 4.0, "cnty": "Snohomish", "st": "WA", "Zip": 98270.0, "O_14": 4.0, "Q_15": 4.0, "O_15": 4.0, "city": "MARYSVILLE", "beds": 19.0, "SR_15": 3.0}, {"Diff_star": -1.0, "addr": "3333 ENSIGN ROAD NORTHEAST", "SR_14": 3.0, "Q_14": 5.0, "name": "PROVIDENCE MOTHER JOSEPH CARE", "SF_14": 4.0, "SF_15": 4.0, "cnty": "Thurston", "st": "WA", "Zip": 98506.0, "O_14": 5.0, "Q_15": 5.0, "O_15": 4.0, "city": "OLYMPIA", "beds": 152.0, "SR_15": 2.0}, {"Diff_star": 0.0, "addr": "801 SOUTHEAST PARK CREST AVENUE", "SR_14": 5.0, "Q_14": 5.0, "name": "CASCADE PARK CARE CENTER", "SF_14": 4.0, "SF_15": 4.0, "cnty": "Clark", "st": "WA", "Zip": 98683.0, "O_14": 5.0, "Q_15": 5.0, "O_15": 5.0, "city": "VANCOUVER", "beds": 88.0, "SR_15": 5.0}, {"Diff_star": 0.0, "addr": "127 SECOND AVENUE SOUTHWEST", "SR_14": 5.0, "Q_14": 5.0, "name": "MCKAY HEALTHCARE & REHAB CTR", "SF_14": 3.0, "SF_15": 3.0, "cnty": "Grant", "st": "WA", "Zip": 98851.0, "O_14": 5.0, "Q_15": 4.0, "O_15": 5.0, "city": "SOAP LAKE", "beds": 42.0, "SR_15": 5.0}, {"Diff_star": 0.0, "addr": "4680 CORDATA PARKWAY", "SR_14": 3.0, "Q_14": 2.0, "name": "NORTH CASCADES HEALTH AND REHABILITATION CENTER", "SF_14": 3.0, "SF_15": 3.0, "cnty": "Whatcom", "st": "WA", "Zip": 98226.0, "O_14": 3.0, "Q_15": 2.0, "O_15": 3.0, "city": "BELLINGHAM", "beds": 122.0, "SR_15": 3.0}, {"Diff_star": 0.0, "addr": "456 C STREET", "SR_14": 3.0, "Q_14": 5.0, "name": "STAFHOLT GOOD SAMARITAN CENTER", "SF_14": 5.0, "SF_15": 5.0, "cnty": "Whatcom", "st": "WA", "Zip": 98230.0, "O_14": 5.0, "Q_15": 5.0, "O_15": 5.0, "city": "BLAINE", "beds": 57.0, "SR_15": 3.0}, {"Diff_star": 0.0, "addr": "15333 VASHON HIGHWAY SOUTHWEST", "SR_14": 3.0, "Q_14": 5.0, "name": "VASHON COMMUNITY CARE CENTER", "SF_14": 4.0, "SF_15": 4.0, "cnty": "King", "st": "WA", "Zip": 98070.0, "O_14": 5.0, "Q_15": 5.0, "O_15": 5.0, "city": "VASHON", "beds": 30.0, "SR_15": 3.0}, {"Diff_star": 0.0, "addr": "2323 JENSEN STREET", "SR_14": 1.0, "Q_14": 4.0, "name": "ENUMCLAW HEALTH & REHAB CENTER", "SF_14": 3.0, "SF_15": 3.0, "cnty": "King", "st": "WA", "Zip": 98022.0, "O_14": 1.0, "Q_15": 3.0, "O_15": 1.0, "city": "ENUMCLAW", "beds": 92.0, "SR_15": 1.0}, {"Diff_star": -1.0, "addr": "308 WEST EMMA", "SR_14": 3.0, "Q_14": 5.0, "name": "PRESTIGE CARE & REHABILITATION - PARKSIDE", "SF_14": 3.0, "SF_15": 3.0, "cnty": "Yakima", "st": "WA", "Zip": 98903.0, "O_14": 4.0, "Q_15": 3.0, "O_15": 3.0, "city": "UNION GAP", "beds": 88.0, "SR_15": 3.0}, {"Diff_star": 0.0, "addr": "2235 LAKE HEIGHTS DRIVE", "SR_14": 4.0, "Q_14": 4.0, "name": "BETHANY AT SILVER LAKE", "SF_14": 4.0, "SF_15": 4.0, "cnty": "Snohomish", "st": "WA", "Zip": 98208.0, "O_14": 4.0, "Q_15": 4.0, "O_15": 4.0, "city": "EVERETT", "beds": 120.0, "SR_15": 4.0}, {"Diff_star": 0.0, "addr": "916 PACIFIC AVENUE 3RD-5TH FLOORS", "SR_14": 2.0, "Q_14": 3.0, "name": "BETHANY AT PACIFIC", "SF_14": 4.0, "SF_15": 4.0, "cnty": "Snohomish", "st": "WA", "Zip": 98201.0, "O_14": 3.0, "Q_15": 3.0, "O_15": 3.0, "city": "EVERETT", "beds": 111.0, "SR_15": 2.0}, {"Diff_star": 0.0, "addr": "20420 MARINE DRIVE NORTHWEST", "SR_14": 4.0, "Q_14": 4.0, "name": "WARM BEACH HEALTH CARE CENTER", "SF_14": 4.0, "SF_15": 4.0, "cnty": "Snohomish", "st": "WA", "Zip": 98292.0, "O_14": 4.0, "Q_15": 4.0, "O_15": 4.0, "city": "STANWOOD", "beds": 81.0, "SR_15": 4.0}, {"Diff_star": 0.0, "addr": "855 AARON DRIVE", "SR_14": 4.0, "Q_14": 4.0, "name": "CHRISTIAN HEALTH CARE CENTER", "SF_14": 4.0, "SF_15": 4.0, "cnty": "Whatcom", "st": "WA", "Zip": 98264.0, "O_14": 4.0, "Q_15": 2.0, "O_15": 4.0, "city": "LYNDEN", "beds": 142.0, "SR_15": 4.0}, {"Diff_star": 0.0, "addr": "5925 47TH AVENUE NE", "SR_14": 4.0, "Q_14": 5.0, "name": "MOUNTAIN VIEW REHABILITATION AND CARE CENTER", "SF_14": 4.0, "SF_15": 4.0, "cnty": "Snohomish", "st": "WA", "Zip": 98270.0, "O_14": 5.0, "Q_15": 5.0, "O_15": 5.0, "city": "MARYSVILLE", "beds": 82.0, "SR_15": 4.0}, {"Diff_star": 0.0, "addr": "3801 SUMMITVIEW AVENUE", "SR_14": 4.0, "Q_14": 3.0, "name": "SUMMITVIEW HEALTHCARE CENTER", "SF_14": 4.0, "SF_15": 4.0, "cnty": "Yakima", "st": "WA", "Zip": 98902.0, "O_14": 4.0, "Q_15": 3.0, "O_15": 4.0, "city": "YAKIMA", "beds": 78.0, "SR_15": 4.0}, {"Diff_star": 1.0, "addr": "203 WEST NACHES AVENUE", "SR_14": 3.0, "Q_14": 4.0, "name": "SELAH CARE AND REHABILITATION", "SF_14": 3.0, "SF_15": 4.0, "cnty": "Yakima", "st": "WA", "Zip": 98942.0, "O_14": 3.0, "Q_15": 2.0, "O_15": 4.0, "city": "SELAH", "beds": 39.0, "SR_15": 4.0}, {"Diff_star": -2.0, "addr": "EAST 10410 NINTH AVENUE", "SR_14": 5.0, "Q_14": 3.0, "name": "SUNSHINE GARDENS", "SF_14": 4.0, "SF_15": 4.0, "cnty": "Spokane", "st": "WA", "Zip": 99206.0, "O_14": 5.0, "Q_15": 1.0, "O_15": 3.0, "city": "SPOKANE", "beds": 84.0, "SR_15": 4.0}, {"Diff_star": -3.0, "addr": "PO BOX 150", "SR_14": 4.0, "Q_14": 4.0, "name": "COLVILLE TRIBAL CONVALESCENT C", "SF_14": 4.0, "SF_15": 3.0, "cnty": "Okanogan", "st": "WA", "Zip": 99155.0, "O_14": 4.0, "Q_15": 4.0, "O_15": 1.0, "city": "NESPELEM", "beds": 44.0, "SR_15": 1.0}, {"Diff_star": 0.0, "addr": "625 OKANOGAN", "SR_14": 2.0, "Q_14": 4.0, "name": "COLONIAL VISTA CARE CENTERS", "SF_14": 5.0, "SF_15": 5.0, "cnty": "Chelan", "st": "WA", "Zip": 98801.0, "O_14": 3.0, "Q_15": 4.0, "O_15": 3.0, "city": "WENATCHEE", "beds": 100.0, "SR_15": 2.0}, {"Diff_star": 0.0, "addr": "17 EAST 8TH AVENUE", "SR_14": 1.0, "Q_14": 5.0, "name": "PROVIDENCE ST JOSEPH CARE CENTER", "SF_14": 5.0, "SF_15": 5.0, "cnty": "Spokane", "st": "WA", "Zip": 99202.0, "O_14": 2.0, "Q_15": 5.0, "O_15": 2.0, "city": "SPOKANE", "beds": 162.0, "SR_15": 1.0}, {"Diff_star": 0.0, "addr": "330 NORTH MADISON", "SR_14": 2.0, "Q_14": 4.0, "name": "TEKOA CARE CENTER", "SF_14": 2.0, "SF_15": 2.0, "cnty": "Whitman", "st": "WA", "Zip": 99033.0, "O_14": 2.0, "Q_15": 2.0, "O_15": 2.0, "city": "TEKOA", "beds": 65.0, "SR_15": 2.0}, {"Diff_star": 0.0, "addr": "13023 GREENWOOD AVENUE NORTH", "SR_14": 1.0, "Q_14": 4.0, "name": "FOSS HOME & VILLAGE", "SF_14": 4.0, "SF_15": 4.0, "cnty": "King", "st": "WA", "Zip": 98133.0, "O_14": 2.0, "Q_15": 3.0, "O_15": 2.0, "city": "SEATTLE", "beds": 211.0, "SR_15": 1.0}, {"Diff_star": 0.0, "addr": "3540 NORTHEAST 110TH STREET", "SR_14": 2.0, "Q_14": 4.0, "name": "SAINT ANNE NURSING AND REHABILITATION CENTER", "SF_14": 3.0, "SF_15": 3.0, "cnty": "King", "st": "WA", "Zip": 98125.0, "O_14": 2.0, "Q_15": 3.0, "O_15": 2.0, "city": "SEATTLE", "beds": 47.0, "SR_15": 2.0}, {"Diff_star": -1.0, "addr": "3725 PROVIDENCE POINT DRIVE SOUTHEAST", "SR_14": 2.0, "Q_14": 2.0, "name": "PROVIDENCE MARIANWOOD", "SF_14": 4.0, "SF_15": 4.0, "cnty": "King", "st": "WA", "Zip": 98029.0, "O_14": 3.0, "Q_15": 1.0, "O_15": 2.0, "city": "ISSAQUAH", "beds": 117.0, "SR_15": 2.0}, {"Diff_star": 0.0, "addr": "534 BOYER AVENUE", "SR_14": 3.0, "Q_14": 4.0, "name": "WASHINGTON ODD FELLOWS HOME", "SF_14": 4.0, "SF_15": 4.0, "cnty": "Walla Walla", "st": "WA", "Zip": 99362.0, "O_14": 4.0, "Q_15": 3.0, "O_15": 4.0, "city": "WALLA WALLA", "beds": 117.0, "SR_15": 3.0}, {"Diff_star": 0.0, "addr": "714 WEST PINE STREET", "SR_14": 1.0, "Q_14": 4.0, "name": "NEWPORT COMMUNITY HOSPITAL LTC", "SF_14": 4.0, "SF_15": 4.0, "cnty": "Pend Oreille", "st": "WA", "Zip": 99156.0, "O_14": 2.0, "Q_15": 4.0, "O_15": 2.0, "city": "NEWPORT", "beds": 50.0, "SR_15": 1.0}, {"Diff_star": 1.0, "addr": "1509 HARRISON AVENUE", "SR_14": 4.0, "Q_14": 4.0, "name": "SHARON CARE CENTER", "SF_14": 4.0, "SF_15": 4.0, "cnty": "Lewis", "st": "WA", "Zip": 98531.0, "O_14": 4.0, "Q_15": 5.0, "O_15": 5.0, "city": "CENTRALIA", "beds": 42.0, "SR_15": 4.0}, {"Diff_star": 0.0, "addr": "100 RIVER PLAZA", "SR_14": 5.0, "Q_14": 2.0, "name": "HARMONY HOUSE HEALTH CARE CTR", "SF_14": 4.0, "SF_15": 4.0, "cnty": "Okanogan", "st": "WA", "Zip": 98812.0, "O_14": 5.0, "Q_15": 2.0, "O_15": 5.0, "city": "BREWSTER", "beds": 54.0, "SR_15": 5.0}, {"Diff_star": 0.0, "addr": "707 -  228TH SOUTHWEST", "SR_14": 3.0, "Q_14": 4.0, "name": "BOTHELL HEALTH CARE", "SF_14": 4.0, "SF_15": 4.0, "cnty": "Snohomish", "st": "WA", "Zip": 98021.0, "O_14": 4.0, "Q_15": 2.0, "O_15": 4.0, "city": "BOTHELL", "beds": 99.0, "SR_15": 3.0}, {"Diff_star": -1.0, "addr": "5821 188TH SOUTHWEST", "SR_14": 2.0, "Q_14": 5.0, "name": "EMERALD HILLS REHABILITATION AND SKILLED NURSING", "SF_14": 4.0, "SF_15": 4.0, "cnty": "Snohomish", "st": "WA", "Zip": 98037.0, "O_14": 4.0, "Q_15": 4.0, "O_15": 3.0, "city": "LYNNWOOD", "beds": 67.0, "SR_15": 2.0}, {"Diff_star": -1.0, "addr": "1301 N HIGHLANDS PARKWAY", "SR_14": 2.0, "Q_14": 5.0, "name": "TACOMA LUTHERAN HOME", "SF_14": 4.0, "SF_15": 4.0, "cnty": "Pierce", "st": "WA", "Zip": 98406.0, "O_14": 4.0, "Q_15": 3.0, "O_15": 3.0, "city": "TACOMA", "beds": 189.0, "SR_15": 2.0}, {"Diff_star": 0.0, "addr": "3309 45TH STREET COURT NORTHWEST", "SR_14": 5.0, "Q_14": 5.0, "name": "MANOR CARE OF GIG HARBOR WA, LLC", "SF_14": 4.0, "SF_15": 4.0, "cnty": "Pierce", "st": "WA", "Zip": 98335.0, "O_14": 5.0, "Q_15": 4.0, "O_15": 5.0, "city": "GIG HARBOR", "beds": 120.0, "SR_15": 5.0}, {"Diff_star": 0.0, "addr": "1012 SOUTH 3RD STREET", "SR_14": 3.0, "Q_14": 3.0, "name": "BOOKER REST HOME ANNEX", "SF_14": 5.0, "SF_15": 5.0, "cnty": "Columbia", "st": "WA", "Zip": 99328.0, "O_14": 4.0, "Q_15": 2.0, "O_15": 4.0, "city": "DAYTON", "beds": 34.0, "SR_15": 3.0}, {"Diff_star": 0.0, "addr": "1601 EAST YESLER WAY", "SR_14": 3.0, "Q_14": 5.0, "name": "SEATTLE KEIRO", "SF_14": 4.0, "SF_15": 4.0, "cnty": "King", "st": "WA", "Zip": 98122.0, "O_14": 5.0, "Q_15": 5.0, "O_15": 5.0, "city": "SEATTLE", "beds": 150.0, "SR_15": 3.0}, {"Diff_star": -1.0, "addr": "11 WEST ALOHA STREET", "SR_14": 3.0, "Q_14": 2.0, "name": "BAYVIEW MANOR", "SF_14": 4.0, "SF_15": 4.0, "cnty": "King", "st": "WA", "Zip": 98119.0, "O_14": 4.0, "Q_15": 1.0, "O_15": 3.0, "city": "SEATTLE", "beds": 50.0, "SR_15": 3.0}, {"Diff_star": -1.0, "addr": "N 1812 WALL STREET", "SR_14": 5.0, "Q_14": 2.0, "name": "NORTH CENTRAL CARE AND REHABILITATION", "SF_14": 5.0, "SF_15": 5.0, "cnty": "Spokane", "st": "WA", "Zip": 99205.0, "O_14": 5.0, "Q_15": 1.0, "O_15": 4.0, "city": "SPOKANE", "beds": 101.0, "SR_15": 5.0}, {"Diff_star": 0.0, "addr": "7500 SEWARD PARK AVENUE SOUTH", "SR_14": 4.0, "Q_14": 5.0, "name": "CAROLINE KLINE GALLAND HOME", "SF_14": 5.0, "SF_15": 5.0, "cnty": "King", "st": "WA", "Zip": 98118.0, "O_14": 5.0, "Q_15": 4.0, "O_15": 5.0, "city": "SEATTLE", "beds": 205.0, "SR_15": 4.0}, {"Diff_star": -1.0, "addr": "10861 NE MANITOU PARK BLVD", "SR_14": 2.0, "Q_14": 5.0, "name": "MESSENGER HOUSE CARE CENTER", "SF_14": 4.0, "SF_15": 3.0, "cnty": "Kitsap", "st": "WA", "Zip": 98110.0, "O_14": 4.0, "Q_15": 5.0, "O_15": 3.0, "city": "BAINBRIDGE ISLAND", "beds": 96.0, "SR_15": 2.0}, {"Diff_star": 0.0, "addr": "4416 SOUTH BRANDON STREET", "SR_14": 4.0, "Q_14": 5.0, "name": "KIN ON HEALTH CARE CENTER", "SF_14": 4.0, "SF_15": 3.0, "cnty": "King", "st": "WA", "Zip": 98118.0, "O_14": 5.0, "Q_15": 5.0, "O_15": 5.0, "city": "SEATTLE", "beds": 100.0, "SR_15": 4.0}, {"Diff_star": 0.0, "addr": "22 W 1ST STREET", "SR_14": 5.0, "Q_14": 5.0, "name": "NORTH VALLEY HOSPITAL", "SF_14": 4.0, "SF_15": 4.0, "cnty": "Okanogan", "st": "WA", "Zip": 98855.0, "O_14": 5.0, "Q_15": 5.0, "O_15": 5.0, "city": "TONASKET", "beds": 42.0, "SR_15": 5.0}, {"Diff_star": 0.0, "addr": "23620 MARINE VIEW DRIVE SOUTH", "SR_14": 2.0, "Q_14": 5.0, "name": "JUDSON PARK HEALTH CENTER", "SF_14": 4.0, "SF_15": 4.0, "cnty": "King", "st": "WA", "Zip": 98198.0, "O_14": 4.0, "Q_15": 5.0, "O_15": 4.0, "city": "DES MOINES", "beds": 96.0, "SR_15": 2.0}, {"Diff_star": 0.0, "addr": "P O BOX 370", "SR_14": 3.0, "Q_14": 4.0, "name": "NISQUALLY VALLEY CARE CENTER", "SF_14": 4.0, "SF_15": 4.0, "cnty": "Pierce", "st": "WA", "Zip": 98558.0, "O_14": 4.0, "Q_15": 3.0, "O_15": 4.0, "city": "MCKENNA", "beds": 63.0, "SR_15": 3.0}, {"Diff_star": -1.0, "addr": "17127 15TH AVENUE NORTHEAST", "SR_14": 2.0, "Q_14": 5.0, "name": "ANDERSON HOUSE", "SF_14": 4.0, "SF_15": 4.0, "cnty": "King", "st": "WA", "Zip": 98155.0, "O_14": 4.0, "Q_15": 3.0, "O_15": 3.0, "city": "SEATTLE", "beds": 69.0, "SR_15": 2.0}, {"Diff_star": 0.0, "addr": "2520 MADISON", "SR_14": 4.0, "Q_14": 5.0, "name": "SUNRISE VIEW CONVALESCENT CTR", "SF_14": 4.0, "SF_15": 4.0, "cnty": "Snohomish", "st": "WA", "Zip": 98203.0, "O_14": 5.0, "Q_15": 5.0, "O_15": 5.0, "city": "EVERETT", "beds": 59.0, "SR_15": 4.0}, {"Diff_star": 0.0, "addr": "9901 272ND PLACE NORTHWEST", "SR_14": 4.0, "Q_14": 5.0, "name": "JOSEPHINE SUNSET HOME", "SF_14": 4.0, "SF_15": 4.0, "cnty": "Snohomish", "st": "WA", "Zip": 98292.0, "O_14": 5.0, "Q_15": 5.0, "O_15": 5.0, "city": "STANWOOD", "beds": 160.0, "SR_15": 4.0}, {"Diff_star": -1.0, "addr": "7125 FAUNTLEROY WAY SOUTHWEST", "SR_14": 3.0, "Q_14": 5.0, "name": "KENNEY, THE", "SF_14": 5.0, "SF_15": 5.0, "cnty": "King", "st": "WA", "Zip": 98136.0, "O_14": 5.0, "Q_15": 3.0, "O_15": 4.0, "city": "SEATTLE", "beds": 20.0, "SR_15": 3.0}, {"Diff_star": 0.0, "addr": "1705 TERRACE", "SR_14": 3.0, "Q_14": 5.0, "name": "DELTA REHABILITATION CENTER", "SF_14": 4.0, "SF_15": 4.0, "cnty": "Snohomish", "st": "WA", "Zip": 98290.0, "O_14": 5.0, "Q_15": 5.0, "O_15": 5.0, "city": "SNOHOMISH", "beds": 125.0, "SR_15": 3.0}, {"Diff_star": 0.0, "addr": "715 9TH AVENUE", "SR_14": 4.0, "Q_14": 3.0, "name": "THE TERRACES AT SKYLINE", "SF_14": 4.0, "SF_15": 4.0, "cnty": "King", "st": "WA", "Zip": 98104.0, "O_14": 4.0, "Q_15": 3.0, "O_15": 4.0, "city": "SEATTLE", "beds": 34.0, "SR_15": 4.0}, {"Diff_star": 0.0, "addr": "4700 PHINNEY AVENUE NORTH", "SR_14": 5.0, "Q_14": 5.0, "name": "COLUMBIA LUTHERAN HOME", "SF_14": 3.0, "SF_15": 3.0, "cnty": "King", "st": "WA", "Zip": 98103.0, "O_14": 5.0, "Q_15": 5.0, "O_15": 5.0, "city": "SEATTLE", "beds": 116.0, "SR_15": 5.0}, {"Diff_star": 0.0, "addr": "5520 BRIDGEPORT WAY WEST", "SR_14": 3.0, "Q_14": 4.0, "name": "UNIVERSITY PLACE CARE CENTER", "SF_14": 4.0, "SF_15": 4.0, "cnty": "Pierce", "st": "WA", "Zip": 98467.0, "O_14": 4.0, "Q_15": 4.0, "O_15": 4.0, "city": "UNIVERSITY PLACE", "beds": 120.0, "SR_15": 3.0}, {"Diff_star": 0.0, "addr": "19160 FRONT STREET NORTHEAST", "SR_14": 2.0, "Q_14": 4.0, "name": "MARTHA AND MARY HEALTH SERVICE", "SF_14": 5.0, "SF_15": 5.0, "cnty": "Kitsap", "st": "WA", "Zip": 98370.0, "O_14": 3.0, "Q_15": 2.0, "O_15": 3.0, "city": "POULSBO", "beds": 190.0, "SR_15": 2.0}, {"Diff_star": -1.0, "addr": "1122 SOUTH 216TH STREET", "SR_14": 2.0, "Q_14": 5.0, "name": "WESLEY HOMES HEALTH CENTER", "SF_14": 4.0, "SF_15": 3.0, "cnty": "King", "st": "WA", "Zip": 98198.0, "O_14": 4.0, "Q_15": 5.0, "O_15": 3.0, "city": "DES MOINES", "beds": 148.0, "SR_15": 2.0}, {"Diff_star": 0.0, "addr": "2720 EAST MADISON", "SR_14": 4.0, "Q_14": 1.0, "name": "BAILEY-BOUSHAY HOUSE", "SF_14": 5.0, "SF_15": 5.0, "cnty": "King", "st": "WA", "Zip": 98112.0, "O_14": 4.0, "Q_15": 1.0, "O_15": 4.0, "city": "SEATTLE", "beds": 35.0, "SR_15": 4.0}, {"Diff_star": 0.0, "addr": "10901 - 176TH CIRCLE NORTHEAST", "SR_14": 5.0, "Q_14": 5.0, "name": "CORWIN CENTER AT EMERALD HEIGHTS", "SF_14": 4.0, "SF_15": 4.0, "cnty": "King", "st": "WA", "Zip": 98052.0, "O_14": 5.0, "Q_15": 5.0, "O_15": 5.0, "city": "REDMOND", "beds": 61.0, "SR_15": 5.0}, {"Diff_star": 0.0, "addr": "6220 SOUTH ALASKA STREET", "SR_14": 2.0, "Q_14": 4.0, "name": "ALASKA GARDENS HEALTH AND REHABILITATION", "SF_14": 2.0, "SF_15": 2.0, "cnty": "Pierce", "st": "WA", "Zip": 98408.0, "O_14": 2.0, "Q_15": 2.0, "O_15": 2.0, "city": "TACOMA", "beds": 123.0, "SR_15": 2.0}, {"Diff_star": 0.0, "addr": "2321 SCHOLD PLACE NORTHWEST", "SR_14": 5.0, "Q_14": 4.0, "name": "NORTHWOODS LODGE", "SF_14": 5.0, "SF_15": 5.0, "cnty": "Kitsap", "st": "WA", "Zip": 98383.0, "O_14": 5.0, "Q_15": 3.0, "O_15": 5.0, "city": "SILVERDALE", "beds": 47.0, "SR_15": 5.0}, {"Diff_star": 0.0, "addr": "400 - 29TH STREET NORTHEAST", "SR_14": 3.0, "Q_14": 4.0, "name": "LINDEN GROVE HEALTH CARE CTR", "SF_14": 2.0, "SF_15": 2.0, "cnty": "Pierce", "st": "WA", "Zip": 98373.0, "O_14": 3.0, "Q_15": 3.0, "O_15": 3.0, "city": "PUYALLUP", "beds": 130.0, "SR_15": 3.0}, {"Diff_star": 0.0, "addr": "19235 - 15TH AVENUE NORTHWEST", "SR_14": 3.0, "Q_14": 2.0, "name": "RICHMOND BEACH REHAB", "SF_14": 3.0, "SF_15": 3.0, "cnty": "King", "st": "WA", "Zip": 98177.0, "O_14": 3.0, "Q_15": 2.0, "O_15": 3.0, "city": "SEATTLE", "beds": 140.0, "SR_15": 3.0}, {"Diff_star": 0.0, "addr": "1040 SOUTH HENDERSON STREET", "SR_14": 1.0, "Q_14": 4.0, "name": "SEA MAR COMMUNITY CARE CENTER", "SF_14": 4.0, "SF_15": 4.0, "cnty": "King", "st": "WA", "Zip": 98108.0, "O_14": 2.0, "Q_15": 2.0, "O_15": 2.0, "city": "SEATTLE", "beds": 100.0, "SR_15": 1.0}, {"Diff_star": -1.0, "addr": "1919  112TH STREET SOUTHWEST", "SR_14": 1.0, "Q_14": 4.0, "name": "EVERETT CENTER", "SF_14": 4.0, "SF_15": 3.0, "cnty": "Snohomish", "st": "WA", "Zip": 98204.0, "O_14": 2.0, "Q_15": 3.0, "O_15": 1.0, "city": "EVERETT", "beds": 100.0, "SR_15": 1.0}, {"Diff_star": 0.0, "addr": "1630 43RD AVENUE EAST", "SR_14": 4.0, "Q_14": 5.0, "name": "PARK SHORE", "SF_14": 5.0, "SF_15": 5.0, "cnty": "King", "st": "WA", "Zip": 98112.0, "O_14": 5.0, "Q_15": 4.0, "O_15": 5.0, "city": "SEATTLE", "beds": 28.0, "SR_15": 4.0}, {"Diff_star": -1.0, "addr": "9827 NORTH NEVADA", "SR_14": 3.0, "Q_14": 4.0, "name": "AVALON CARE CENTER AT NORTHPOINTE", "SF_14": 4.0, "SF_15": 3.0, "cnty": "Spokane", "st": "WA", "Zip": 99218.0, "O_14": 4.0, "Q_15": 2.0, "O_15": 3.0, "city": "SPOKANE", "beds": 119.0, "SR_15": 3.0}, {"Diff_star": 0.0, "addr": "2929 SOUTH WATERFORD DRIVE", "SR_14": 5.0, "Q_14": 5.0, "name": "TOUCHMARK ON SOUTH HILL NURSING", "SF_14": 3.0, "SF_15": 3.0, "cnty": "Spokane", "st": "WA", "Zip": 99203.0, "O_14": 5.0, "Q_15": 5.0, "O_15": 5.0, "city": "SPOKANE", "beds": 57.0, "SR_15": 5.0}, {"Diff_star": 0.0, "addr": "2909 14TH AVENUE NORTHWEST", "SR_14": 5.0, "Q_14": 5.0, "name": "COTTESMORE OF LIFE CARE", "SF_14": 4.0, "SF_15": 4.0, "cnty": "Pierce", "st": "WA", "Zip": 98335.0, "O_14": 5.0, "Q_15": 5.0, "O_15": 5.0, "city": "GIG HARBOR", "beds": 108.0, "SR_15": 5.0}, {"Diff_star": 0.0, "addr": "2424 156TH AVENUE NORTHEAST", "SR_14": 4.0, "Q_14": 4.0, "name": "MISSION HEALTHCARE AT BELLEVUE", "SF_14": 4.0, "SF_15": 4.0, "cnty": "King", "st": "WA", "Zip": 98007.0, "O_14": 4.0, "Q_15": 2.0, "O_15": 4.0, "city": "BELLEVUE", "beds": 129.0, "SR_15": 4.0}, {"Diff_star": 0.0, "addr": "800 NORTH MEDCALF", "SR_14": 1.0, "Q_14": 2.0, "name": "MONTESANO HEALTH & REHAB CENTER", "SF_14": "", "SF_15": "", "cnty": "Grays Harbor", "st": "WA", "Zip": 98563.0, "O_14": 1.0, "Q_15": 1.0, "O_15": 1.0, "city": "MONTESANO", "beds": 94.0, "SR_15": 1.0}, {"Diff_star": 0.0, "addr": "9107 FORTUNA DRIVE", "SR_14": 3.0, "Q_14": 5.0, "name": "COVENANT SHORES HEALTH CENTER", "SF_14": 4.0, "SF_15": 4.0, "cnty": "King", "st": "WA", "Zip": 98040.0, "O_14": 5.0, "Q_15": 5.0, "O_15": 5.0, "city": "MERCER ISLAND", "beds": 43.0, "SR_15": 3.0}, {"Diff_star": -1.0, "addr": "916 PACIFIC AVENUE  - 6TH FLOOR", "SR_14": 3.0, "Q_14": 5.0, "name": "EVERETT TRANSITIONAL CARE SERV", "SF_14": 5.0, "SF_15": 5.0, "cnty": "Snohomish", "st": "WA", "Zip": 98201.0, "O_14": 5.0, "Q_15": 4.0, "O_15": 4.0, "city": "EVERETT", "beds": 31.0, "SR_15": 3.0}, {"Diff_star": 1.0, "addr": "153 JOHNS COURT", "SR_14": 3.0, "Q_14": 3.0, "name": "SHELTON HEALTH & REHAB CENTER", "SF_14": 3.0, "SF_15": 3.0, "cnty": "Mason", "st": "WA", "Zip": 98584.0, "O_14": 3.0, "Q_15": 2.0, "O_15": 4.0, "city": "SHELTON", "beds": 76.0, "SR_15": 4.0}, {"Diff_star": 0.0, "addr": "101 EAST HAWTHORNE ROAD", "SR_14": 3.0, "Q_14": 3.0, "name": "ROCKWOOD AT HAWTHORNE", "SF_14": 5.0, "SF_15": 5.0, "cnty": "Spokane", "st": "WA", "Zip": 99218.0, "O_14": 4.0, "Q_15": 2.0, "O_15": 4.0, "city": "SPOKANE", "beds": 20.0, "SR_15": 3.0}, {"Diff_star": 0.0, "addr": "222 EAST FIFTH", "SR_14": 4.0, "Q_14": 3.0, "name": "SPOKANE VETERANS HOME", "SF_14": 4.0, "SF_15": 4.0, "cnty": "Spokane", "st": "WA", "Zip": 99202.0, "O_14": 4.0, "Q_15": 2.0, "O_15": 4.0, "city": "SPOKANE", "beds": 100.0, "SR_15": 4.0}, {"Diff_star": 0.0, "addr": "135 SOUTH 336TH STREET", "SR_14": 2.0, "Q_14": 5.0, "name": "AVALON CARE CENTER -  FEDERAL WAY", "SF_14": 3.0, "SF_15": 3.0, "cnty": "King", "st": "WA", "Zip": 98003.0, "O_14": 3.0, "Q_15": 5.0, "O_15": 3.0, "city": "FEDERAL WAY", "beds": 120.0, "SR_15": 2.0}, {"Diff_star": 0.0, "addr": "2611 SOUTH DEARBORN", "SR_14": 1.0, "Q_14": 5.0, "name": "LEON SULLIVAN HEALTH CARE CENTER", "SF_14": 4.0, "SF_15": 4.0, "cnty": "King", "st": "WA", "Zip": 98144.0, "O_14": 2.0, "Q_15": 4.0, "O_15": 2.0, "city": "SEATTLE", "beds": 165.0, "SR_15": 1.0}, {"Diff_star": -1.0, "addr": "491 SOUTH 338TH STREET", "SR_14": 3.0, "Q_14": 5.0, "name": "GARDEN TERRACE ALZHEIMER'S CENTER OF EXCELLENCE", "SF_14": 4.0, "SF_15": 4.0, "cnty": "King", "st": "WA", "Zip": 98003.0, "O_14": 5.0, "Q_15": 4.0, "O_15": 4.0, "city": "FEDERAL WAY", "beds": 70.0, "SR_15": 3.0}, {"Diff_star": 0.0, "addr": "2800 SOUTH 224TH STREET,", "SR_14": 3.0, "Q_14": 5.0, "name": "STAFFORD HEALTHCARE", "SF_14": 5.0, "SF_15": 5.0, "cnty": "King", "st": "WA", "Zip": 98198.0, "O_14": 5.0, "Q_15": 5.0, "O_15": 5.0, "city": "DES MOINES", "beds": 165.0, "SR_15": 3.0}, {"Diff_star": 0.0, "addr": "1745 PIKE AVENUE", "SR_14": 1.0, "Q_14": 5.0, "name": "RICHLAND REHABILITATION CENTER", "SF_14": 4.0, "SF_15": 4.0, "cnty": "Benton", "st": "WA", "Zip": 99352.0, "O_14": 2.0, "Q_15": 5.0, "O_15": 2.0, "city": "RICHLAND", "beds": 71.0, "SR_15": 1.0}, {"Diff_star": 0.0, "addr": "1811 EAST 22ND AVENUE", "SR_14": 1.0, "Q_14": 2.0, "name": "OLYMPIA MANOR", "SF_14": 4.0, "SF_15": 4.0, "cnty": "Thurston", "st": "WA", "Zip": 98501.0, "O_14": 2.0, "Q_15": 2.0, "O_15": 2.0, "city": "OLYMPIA", "beds": 28.0, "SR_15": 1.0}, {"Diff_star": 0.0, "addr": "1301 ORTING - KAPOWSIN HIGHWAY", "SR_14": 4.0, "Q_14": 4.0, "name": "WASHINGTON SOLDIERS HOME", "SF_14": 4.0, "SF_15": 4.0, "cnty": "Pierce", "st": "WA", "Zip": 98360.0, "O_14": 4.0, "Q_15": 2.0, "O_15": 4.0, "city": "ORTING", "beds": 97.0, "SR_15": 4.0}, {"Diff_star": -1.0, "addr": "1141 BEACH DRIVE", "SR_14": 3.0, "Q_14": 4.0, "name": "WASHINGTON VETERAN HOME-RETSIL", "SF_14": 5.0, "SF_15": 5.0, "cnty": "Kitsap", "st": "WA", "Zip": 98378.0, "O_14": 4.0, "Q_15": 1.0, "O_15": 3.0, "city": "RETSIL", "beds": 240.0, "SR_15": 3.0}, {"Diff_star": 0.0, "addr": "100 TIMBER RIDGE WAY NW", "SR_14": 5.0, "Q_14": 5.0, "name": "BRIARWOOD AT TIMBER RIDGE", "SF_14": 5.0, "SF_15": 5.0, "cnty": "King", "st": "WA", "Zip": 98027.0, "O_14": 5.0, "Q_15": 5.0, "O_15": 5.0, "city": "ISSAQUAH", "beds": 36.0, "SR_15": 5.0}, {"Diff_star": -1.0, "addr": "22410 BENSON ROAD SE", "SR_14": 4.0, "Q_14": 5.0, "name": "BENSON HEIGHTS REHABILITATION CENTER", "SF_14": 4.0, "SF_15": 3.0, "cnty": "King", "st": "WA", "Zip": 98031.0, "O_14": 5.0, "Q_15": 4.0, "O_15": 4.0, "city": "KENT", "beds": 91.0, "SR_15": 4.0}, {"Diff_star": 0.0, "addr": "116 FAIRVIEW AVENUE N", "SR_14": 5.0, "Q_14": 5.0, "name": "MIRABELLA SEATTLE", "SF_14": 5.0, "SF_15": 5.0, "cnty": "King", "st": "WA", "Zip": 98109.0, "O_14": 5.0, "Q_15": 5.0, "O_15": 5.0, "city": "SEATTLE", "beds": 42.0, "SR_15": 5.0}, {"Diff_star": -2.0, "addr": "10631 8TH AVE NE", "SR_14": 3.0, "Q_14": 5.0, "name": "KINDRED SEATTLE - NORTHGATE", "SF_14": 5.0, "SF_15": 5.0, "cnty": "King", "st": "WA", "Zip": 98125.0, "O_14": 5.0, "Q_15": 4.0, "O_15": 3.0, "city": "SEATTLE", "beds": 30.0, "SR_15": 2.0}, {"Diff_star": 0.0, "addr": "2811 NE 139TH STREET", "SR_14": 4.0, "Q_14": 5.0, "name": "MANORCARE HEALTH SERVICES - SALMON CREEK", "SF_14": 2.0, "SF_15": 2.0, "cnty": "Clark", "st": "WA", "Zip": 98686.0, "O_14": 5.0, "Q_15": 5.0, "O_15": 5.0, "city": "VANCOUVER", "beds": 120.0, "SR_15": 4.0}, {"Diff_star": -1.0, "addr": "1201 SOUTH MILLER STREET", "SR_14": 5.0, "Q_14": 3.0, "name": "CENTRAL WASHINGTON HOSPITAL TRANSITIONAL CARE UNIT", "SF_14": 5.0, "SF_15": 5.0, "cnty": "Chelan", "st": "WA", "Zip": 98801.0, "O_14": 5.0, "Q_15": 1.0, "O_15": 4.0, "city": "WENATCHEE", "beds": 22.0, "SR_15": 5.0}, {"Diff_star": 0.0, "addr": "1334 TERRY AVE", "SR_14": 4.0, "Q_14": 5.0, "name": "KINDRED SEATTLE - FIRST HILL", "SF_14": 5.0, "SF_15": 5.0, "cnty": "King", "st": "WA", "Zip": 98101.0, "O_14": 5.0, "Q_15": 5.0, "O_15": 5.0, "city": "SEATTLE", "beds": 23.0, "SR_15": 4.0}, {"Diff_star": 1.0, "addr": "4524 INTELCO LOOP SE", "SR_14": 1.0, "Q_14": 5.0, "name": "MANORCARE HEALTH SERVICES - LACEY", "SF_14": 5.0, "SF_15": 3.0, "cnty": "Thurston", "st": "WA", "Zip": 98503.0, "O_14": 2.0, "Q_15": 5.0, "O_15": 3.0, "city": "LACEY", "beds": 120.0, "SR_15": 2.0}, {"Diff_star": 0.0, "addr": "530 BOGACHIEL WAY", "SR_14": 5.0, "Q_14": 5.0, "name": "FORKS COMMUNITY HOSPITAL, LTCU", "SF_14": 5.0, "SF_15": 5.0, "cnty": "Clallam", "st": "WA", "Zip": 98331.0, "O_14": 5.0, "Q_15": 5.0, "O_15": 5.0, "city": "FORKS", "beds": 20.0, "SR_15": 5.0}, {"Diff_star": 0.0, "addr": "200 NAT WASHINGTON WAY", "SR_14": 4.0, "Q_14": 5.0, "name": "COLUMBIA BASIN HOSPITAL", "SF_14": "", "SF_15": "", "cnty": "Grant", "st": "WA", "Zip": 98823.0, "O_14": 5.0, "Q_15": 5.0, "O_15": 5.0, "city": "EPHRATA", "beds": 50.0, "SR_15": 4.0}, {"Diff_star": 1.0, "addr": "15230-15TH NORTHEAST", "SR_14": 3.0, "Q_14": 5.0, "name": "FIRCREST SCHOOL, PAT N", "SF_14": "", "SF_15": "", "cnty": "King", "st": "WA", "Zip": 98155.0, "O_14": 4.0, "Q_15": 5.0, "O_15": 5.0, "city": "SEATTLE", "beds": 93.0, "SR_15": 4.0}, {"Diff_star": 0.0, "addr": "609 SPEYERS ROAD", "SR_14": 4.0, "Q_14": 5.0, "name": "YAKIMA VALLEY SCHOOL", "SF_14": 5.0, "SF_15": 5.0, "cnty": "Yakima", "st": "WA", "Zip": 98942.0, "O_14": 5.0, "Q_15": 5.0, "O_15": 5.0, "city": "SELAH", "beds": 160.0, "SR_15": 4.0}, {"Diff_star": -1.0, "addr": "STATE HIGHWAY 902 & SALNAVE ROAD", "SR_14": 2.0, "Q_14": 5.0, "name": "LAKELAND VILLAGE NURSING FACILITY", "SF_14": "", "SF_15": "", "cnty": "Spokane", "st": "WA", "Zip": 99022.0, "O_14": 3.0, "Q_15": 4.0, "O_15": 2.0, "city": "MEDICAL LAKE", "beds": 93.0, "SR_15": 2.0}]