[{"Diff_star": 1.0, "addr": "1900 LOVERING AVENUE", "SR_14": 4.0, "Q_14": 4.0, "name": "KENTMERE REHABILITATION AND HEALTHCARE CENTER", "SF_14": 4.0, "SF_15": 4.0, "cnty": "New Castle", "st": "DE", "Zip": 19806.0, "O_14": 4.0, "Q_15": 5.0, "O_15": 5.0, "city": "WILMINGTON", "beds": 106.0, "SR_15": 4.0}, {"Diff_star": 0.0, "addr": "2801 W. 6TH STREET", "SR_14": 4.0, "Q_14": 5.0, "name": "PARKVIEW NURSING", "SF_14": 2.0, "SF_15": 4.0, "cnty": "New Castle", "st": "DE", "Zip": 19805.0, "O_14": 5.0, "Q_15": 5.0, "O_15": 5.0, "city": "WILMINGTON", "beds": 150.0, "SR_15": 4.0}, {"Diff_star": 0.0, "addr": "4830 KENNETT PIKE", "SR_14": 5.0, "Q_14": 5.0, "name": "WILLOWBROOKE COURT AT COUNTRY HOUSE", "SF_14": 5.0, "SF_15": 5.0, "cnty": "New Castle", "st": "DE", "Zip": 19807.0, "O_14": 5.0, "Q_15": 5.0, "O_15": 5.0, "city": "WILMINGTON", "beds": 60.0, "SR_15": 5.0}, {"Diff_star": 0.0, "addr": "505 GREENBANK ROAD", "SR_14": 3.0, "Q_14": 4.0, "name": "BRANDYWINE NURSING & REHABILITATION CENTER", "SF_14": 5.0, "SF_15": 5.0, "cnty": "New Castle", "st": "DE", "Zip": 19808.0, "O_14": 4.0, "Q_15": 3.0, "O_15": 4.0, "city": "WILMINGTON", "beds": 169.0, "SR_15": 3.0}, {"Diff_star": -1.0, "addr": "6525 LANCASTER PIKE", "SR_14": 1.0, "Q_14": 5.0, "name": "REGAL HEIGHTS HEALTHCARE & REHAB CENTER", "SF_14": 3.0, "SF_15": 3.0, "cnty": "New Castle", "st": "DE", "Zip": 19707.0, "O_14": 2.0, "Q_15": 3.0, "O_15": 1.0, "city": "HOCKESSIN", "beds": 172.0, "SR_15": 1.0}, {"Diff_star": 0.0, "addr": "1001 MIDDLEFORD ROAD", "SR_14": 4.0, "Q_14": 5.0, "name": "WILLOWBROOKE COURT AT MANOR HOUSE", "SF_14": 5.0, "SF_15": 5.0, "cnty": "Sussex", "st": "DE", "Zip": 19973.0, "O_14": 5.0, "Q_15": 5.0, "O_15": 5.0, "city": "SEAFORD", "beds": 60.0, "SR_15": 4.0}, {"Diff_star": -1.0, "addr": "700 MARVEL ROAD", "SR_14": 3.0, "Q_14": 5.0, "name": "MILFORD CENTER", "SF_14": 3.0, "SF_15": 3.0, "cnty": "Sussex", "st": "DE", "Zip": 19963.0, "O_14": 4.0, "Q_15": 3.0, "O_15": 3.0, "city": "MILFORD", "beds": 136.0, "SR_15": 3.0}, {"Diff_star": 0.0, "addr": "801 N. BROOM STREET", "SR_14": 2.0, "Q_14": 5.0, "name": "REGENCY HEALTHCARE & REHAB CENTER", "SF_14": 4.0, "SF_15": 4.0, "cnty": "New Castle", "st": "DE", "Zip": 19806.0, "O_14": 4.0, "Q_15": 5.0, "O_15": 4.0, "city": "WILMINGTON", "beds": 100.0, "SR_15": 2.0}, {"Diff_star": -1.0, "addr": "810 SOUTH BROOM STREET", "SR_14": 1.0, "Q_14": 5.0, "name": "HILLSIDE CENTER", "SF_14": 3.0, "SF_15": 3.0, "cnty": "New Castle", "st": "DE", "Zip": 19805.0, "O_14": 2.0, "Q_15": 4.0, "O_15": 1.0, "city": "WILMINGTON", "beds": 106.0, "SR_15": 1.0}, {"Diff_star": 0.0, "addr": "1100 NORMAN ESKRIDGE HIGHWAY", "SR_14": 3.0, "Q_14": 4.0, "name": "SEAFORD CENTER", "SF_14": 4.0, "SF_15": 4.0, "cnty": "Sussex", "st": "DE", "Zip": 19973.0, "O_14": 4.0, "Q_15": 4.0, "O_15": 4.0, "city": "SEAFORD", "beds": 124.0, "SR_15": 3.0}, {"Diff_star": 0.0, "addr": "726 LOVEVILLE ROAD", "SR_14": 4.0, "Q_14": 5.0, "name": "WILLOWBROOKE COURT AT COKESBURY VILLAGE", "SF_14": 5.0, "SF_15": 5.0, "cnty": "New Castle", "st": "DE", "Zip": 19707.0, "O_14": 5.0, "Q_15": 5.0, "O_15": 5.0, "city": "HOCKESSIN", "beds": 45.0, "SR_15": 4.0}, {"Diff_star": 0.0, "addr": "889 SOUTH LITTLE CREEK ROAD", "SR_14": 4.0, "Q_14": 4.0, "name": "COURTLAND MANOR", "SF_14": 5.0, "SF_15": 5.0, "cnty": "Kent", "st": "DE", "Zip": 19901.0, "O_14": 5.0, "Q_15": 3.0, "O_15": 5.0, "city": "DOVER", "beds": 70.0, "SR_15": 4.0}, {"Diff_star": -1.0, "addr": "3034 SOUTH DUPONT HIGHWAY", "SR_14": 1.0, "Q_14": 4.0, "name": "PINNACLE REHABILITATION & HEALTH CENTER", "SF_14": 4.0, "SF_15": 4.0, "cnty": "Kent", "st": "DE", "Zip": 19977.0, "O_14": 2.0, "Q_15": 1.0, "O_15": 1.0, "city": "SMYRNA", "beds": 151.0, "SR_15": 1.0}, {"Diff_star": 0.0, "addr": "255 POSSUM PARK ROAD", "SR_14": 4.0, "Q_14": 5.0, "name": "MILLCROFT", "SF_14": 4.0, "SF_15": 3.0, "cnty": "New Castle", "st": "DE", "Zip": 19711.0, "O_14": 5.0, "Q_15": 5.0, "O_15": 5.0, "city": "NEWARK", "beds": 110.0, "SR_15": 4.0}, {"Diff_star": 0.0, "addr": "3000 NEWPORT GAP PIKE", "SR_14": 2.0, "Q_14": 4.0, "name": "EMILY P. BISSELL HOSPITAL", "SF_14": 5.0, "SF_15": 5.0, "cnty": "New Castle", "st": "DE", "Zip": 19808.0, "O_14": 3.0, "Q_15": 3.0, "O_15": 3.0, "city": "WILMINGTON", "beds": 85.0, "SR_15": 2.0}, {"Diff_star": -1.0, "addr": "4949 OGLETOWN-STANTON ROAD", "SR_14": 4.0, "Q_14": 5.0, "name": "CHURCHMAN VILLAGE", "SF_14": 4.0, "SF_15": 4.0, "cnty": "New Castle", "st": "DE", "Zip": 19713.0, "O_14": 5.0, "Q_15": 4.0, "O_15": 4.0, "city": "NEWARK", "beds": 101.0, "SR_15": 4.0}, {"Diff_star": 0.0, "addr": "4031 KENNETT PIKE", "SR_14": 5.0, "Q_14": 4.0, "name": "STONEGATES", "SF_14": 5.0, "SF_15": 5.0, "cnty": "New Castle", "st": "DE", "Zip": 19807.0, "O_14": 5.0, "Q_15": 4.0, "O_15": 5.0, "city": "GREENVILLE", "beds": 49.0, "SR_15": 5.0}, {"Diff_star": 0.0, "addr": "1080 SILVER LAKE BLVD", "SR_14": 3.0, "Q_14": 4.0, "name": "SILVER LAKE CENTER", "SF_14": 4.0, "SF_15": 4.0, "cnty": "Kent", "st": "DE", "Zip": 19904.0, "O_14": 4.0, "Q_15": 3.0, "O_15": 4.0, "city": "DOVER", "beds": 120.0, "SR_15": 3.0}, {"Diff_star": -2.0, "addr": "700 FOULK ROAD", "SR_14": 2.0, "Q_14": 5.0, "name": "MANORCARE HEALTH SERVICES - WILMINGTON", "SF_14": 4.0, "SF_15": 4.0, "cnty": "New Castle", "st": "DE", "Zip": 19803.0, "O_14": 4.0, "Q_15": 5.0, "O_15": 2.0, "city": "WILMINGTON", "beds": 138.0, "SR_15": 1.0}, {"Diff_star": -1.0, "addr": "110 W. NORTH STREET", "SR_14": 3.0, "Q_14": 5.0, "name": "HARRISON SENIOR LIVING OF GEORGETOWN, LLC", "SF_14": 4.0, "SF_15": 4.0, "cnty": "Sussex", "st": "DE", "Zip": 19947.0, "O_14": 5.0, "Q_15": 3.0, "O_15": 4.0, "city": "GEORGETOWN", "beds": 139.0, "SR_15": 3.0}, {"Diff_star": -1.0, "addr": "2723 SHIPLEY ROAD", "SR_14": 2.0, "Q_14": 5.0, "name": "SHIPLEY MANOR", "SF_14": 4.0, "SF_15": 3.0, "cnty": "New Castle", "st": "DE", "Zip": 19810.0, "O_14": 4.0, "Q_15": 5.0, "O_15": 3.0, "city": "WILMINGTON", "beds": 82.0, "SR_15": 2.0}, {"Diff_star": 0.0, "addr": "1175 MCKEE ROAD", "SR_14": 4.0, "Q_14": 5.0, "name": "WESTMINSTER VILLAGE HEALTH", "SF_14": 4.0, "SF_15": 4.0, "cnty": "Kent", "st": "DE", "Zip": 19904.0, "O_14": 5.0, "Q_15": 5.0, "O_15": 5.0, "city": "DOVER", "beds": 61.0, "SR_15": 4.0}, {"Diff_star": -1.0, "addr": "5651 LIMESTONE ROAD", "SR_14": 2.0, "Q_14": 5.0, "name": "MANORCARE HEALTH  SERVICES - PIKE CREEK", "SF_14": 4.0, "SF_15": 4.0, "cnty": "New Castle", "st": "DE", "Zip": 19808.0, "O_14": 4.0, "Q_15": 4.0, "O_15": 3.0, "city": "WILMINGTON", "beds": 167.0, "SR_15": 2.0}, {"Diff_star": 0.0, "addr": "301 OCEAN VIEW BLVD", "SR_14": 1.0, "Q_14": 5.0, "name": "HARBOR HEALTHCARE & REHAB CTR", "SF_14": 4.0, "SF_15": 4.0, "cnty": "Sussex", "st": "DE", "Zip": 19958.0, "O_14": 2.0, "Q_15": 3.0, "O_15": 2.0, "city": "LEWES", "beds": 179.0, "SR_15": 1.0}, {"Diff_star": -1.0, "addr": "100 SUNNYSIDE ROAD", "SR_14": 2.0, "Q_14": 5.0, "name": "DELAWARE HOSPITAL F/T CHRONICALLY ILL (DHCI)", "SF_14": 5.0, "SF_15": 5.0, "cnty": "Kent", "st": "DE", "Zip": 19977.0, "O_14": 4.0, "Q_15": 3.0, "O_15": 3.0, "city": "SMYRNA", "beds": 175.0, "SR_15": 2.0}, {"Diff_star": -1.0, "addr": "1912 MARSH ROAD", "SR_14": 1.0, "Q_14": 5.0, "name": "FORWOOD MANOR", "SF_14": 2.0, "SF_15": 2.0, "cnty": "New Castle", "st": "DE", "Zip": 19810.0, "O_14": 2.0, "Q_15": 4.0, "O_15": 1.0, "city": "WILMINGTON", "beds": 72.0, "SR_15": 1.0}, {"Diff_star": 0.0, "addr": "231 SOUTH WASHINGTON STREET", "SR_14": 4.0, "Q_14": 3.0, "name": "ATLANTIC SHORES REHABILITATION & HEALTH CENTER", "SF_14": 4.0, "SF_15": 3.0, "cnty": "Sussex", "st": "DE", "Zip": 19966.0, "O_14": 4.0, "Q_15": 2.0, "O_15": 4.0, "city": "MILLSBORO", "beds": 181.0, "SR_15": 4.0}, {"Diff_star": 0.0, "addr": "32 BUENA VISTA DRIVE", "SR_14": 2.0, "Q_14": 4.0, "name": "ARBORS AT NEW CASTLE", "SF_14": 3.0, "SF_15": 3.0, "cnty": "New Castle", "st": "DE", "Zip": 19720.0, "O_14": 2.0, "Q_15": 3.0, "O_15": 2.0, "city": "NEW CASTLE", "beds": 120.0, "SR_15": 2.0}, {"Diff_star": 0.0, "addr": "715 E. KING STREET", "SR_14": 2.0, "Q_14": 4.0, "name": "LOFLAND PARK CENTER", "SF_14": 4.0, "SF_15": 4.0, "cnty": "Sussex", "st": "DE", "Zip": 19973.0, "O_14": 3.0, "Q_15": 3.0, "O_15": 3.0, "city": "SEAFORD", "beds": 110.0, "SR_15": 2.0}, {"Diff_star": -1.0, "addr": "101 E. DELAWARE AVENUE", "SR_14": 1.0, "Q_14": 5.0, "name": "DELMAR NURSING & REHABILITATION CENTER", "SF_14": 1.0, "SF_15": 1.0, "cnty": "Sussex", "st": "DE", "Zip": 19940.0, "O_14": 2.0, "Q_15": 3.0, "O_15": 1.0, "city": "DELMAR", "beds": 109.0, "SR_15": 1.0}, {"Diff_star": 0.0, "addr": "100 ST. CLAIRE DRIVE", "SR_14": 2.0, "Q_14": 5.0, "name": "BRACKENVILLE CENTER", "SF_14": 5.0, "SF_15": 5.0, "cnty": "New Castle", "st": "DE", "Zip": 19707.0, "O_14": 4.0, "Q_15": 5.0, "O_15": 4.0, "city": "HOCKESSIN", "beds": 104.0, "SR_15": 2.0}, {"Diff_star": 0.0, "addr": "704 RIVER ROAD", "SR_14": 2.0, "Q_14": 2.0, "name": "MILTON & HATTIE KUTZ HOME", "SF_14": 4.0, "SF_15": 4.0, "cnty": "New Castle", "st": "DE", "Zip": 19809.0, "O_14": 3.0, "Q_15": 1.0, "O_15": 3.0, "city": "WILMINGTON", "beds": 90.0, "SR_15": 3.0}, {"Diff_star": 0.0, "addr": "1101 GILPIN AVENUE", "SR_14": 2.0, "Q_14": 4.0, "name": "GILPIN HALL", "SF_14": 4.0, "SF_15": 4.0, "cnty": "New Castle", "st": "DE", "Zip": 19806.0, "O_14": 3.0, "Q_15": 3.0, "O_15": 3.0, "city": "WILMINGTON", "beds": 96.0, "SR_15": 2.0}, {"Diff_star": -1.0, "addr": "1225 WALKER ROAD", "SR_14": 4.0, "Q_14": 5.0, "name": "CADIA REHABILITATION CAPITOL", "SF_14": 4.0, "SF_15": 4.0, "cnty": "Kent", "st": "DE", "Zip": 19901.0, "O_14": 5.0, "Q_15": 4.0, "O_15": 4.0, "city": "DOVER", "beds": 120.0, "SR_15": 4.0}, {"Diff_star": 0.0, "addr": "500 SOUTH BROAD STREET", "SR_14": 4.0, "Q_14": 5.0, "name": "CADIA REHABILITATION BROADMEADOW", "SF_14": 4.0, "SF_15": 4.0, "cnty": "New Castle", "st": "DE", "Zip": 19709.0, "O_14": 5.0, "Q_15": 5.0, "O_15": 5.0, "city": "MIDDLETOWN", "beds": 120.0, "SR_15": 4.0}, {"Diff_star": 0.0, "addr": "100 DELAWARE VETERAN'S DRIVE", "SR_14": 3.0, "Q_14": 4.0, "name": "DELAWARE VETERANS HOME", "SF_14": 5.0, "SF_15": 5.0, "cnty": "Sussex", "st": "DE", "Zip": 19963.0, "O_14": 4.0, "Q_15": 4.0, "O_15": 4.0, "city": "MILFORD", "beds": 150.0, "SR_15": 3.0}, {"Diff_star": 0.0, "addr": "26002 JOHN J WILLIAMS HIGHWAY", "SR_14": 2.0, "Q_14": 5.0, "name": "CADIA REHABILITATION RENAISSANCE", "SF_14": 4.0, "SF_15": 4.0, "cnty": "Sussex", "st": "DE", "Zip": 19966.0, "O_14": 4.0, "Q_15": 5.0, "O_15": 4.0, "city": "MILLSBORO", "beds": 130.0, "SR_15": 2.0}, {"Diff_star": 0.0, "addr": "17028 CADBURY CIRCLE", "SR_14": 4.0, "Q_14": 5.0, "name": "CADBURY AT LEWES", "SF_14": 5.0, "SF_15": 5.0, "cnty": "Sussex", "st": "DE", "Zip": 19958.0, "O_14": 5.0, "Q_15": 5.0, "O_15": 5.0, "city": "LEWES", "beds": 40.0, "SR_15": 4.0}, {"Diff_star": 0.0, "addr": "3540 THREE LITTLE BAKERS BLVD", "SR_14": 3.0, "Q_14": 4.0, "name": "CADIA REHABILITATION PIKE CREEK", "SF_14": 4.0, "SF_15": 4.0, "cnty": "New Castle", "st": "DE", "Zip": 19808.0, "O_14": 4.0, "Q_15": 2.0, "O_15": 4.0, "city": "WILMINGTON", "beds": 130.0, "SR_15": 3.0}, {"Diff_star": 0.0, "addr": "4800 LANCASTER PIKE", "SR_14": 5.0, "Q_14": 5.0, "name": "WESTON SENIOR LIVING CENTER AT HIGHFIELD", "SF_14": 5.0, "SF_15": 5.0, "cnty": "New Castle", "st": "DE", "Zip": 19807.0, "O_14": 5.0, "Q_15": 5.0, "O_15": 5.0, "city": "WILMINGTON", "beds": 25.0, "SR_15": 5.0}, {"Diff_star": 0.0, "addr": "3322 SILVERSIDE ROAD", "SR_14": 3.0, "Q_14": 4.0, "name": "CADIA REHABILITATION SILVERSIDE", "SF_14": 4.0, "SF_15": 4.0, "cnty": "New Castle", "st": "DE", "Zip": 19810.0, "O_14": 4.0, "Q_15": 3.0, "O_15": 4.0, "city": "WILMINGTON", "beds": 120.0, "SR_15": 3.0}, {"Diff_star": 0.0, "addr": "185 SALEM CHURCH ROAD", "SR_14": 5.0, "Q_14": 5.0, "name": "JEANNE JUGAN RESIDENCE", "SF_14": 5.0, "SF_15": 5.0, "cnty": "New Castle", "st": "DE", "Zip": 19713.0, "O_14": 5.0, "Q_15": 5.0, "O_15": 5.0, "city": "NEWARK", "beds": 40.0, "SR_15": 5.0}, {"Diff_star": 0.0, "addr": "1212 FOULK ROAD", "SR_14": 3.0, "Q_14": "", "name": "FIVE STAR FOULK MANOR NORTH LLC", "SF_14": 5.0, "SF_15": 5.0, "cnty": "New Castle", "st": "DE", "Zip": 19803.0, "O_14": 4.0, "Q_15": "", "O_15": 4.0, "city": "WILMINGTON", "beds": 46.0, "SR_15": 3.0}, {"Diff_star": 0.0, "addr": "11 INDEPENDENCE WAY", "SR_14": 5.0, "Q_14": 5.0, "name": "EXCEPTIONAL CARE FOR CHILDREN", "SF_14": 5.0, "SF_15": 5.0, "cnty": "New Castle", "st": "DE", "Zip": 19713.0, "O_14": 5.0, "Q_15": 5.0, "O_15": 5.0, "city": "NEWARK", "beds": 35.0, "SR_15": 5.0}, {"Diff_star": 0.0, "addr": "254 WEST MAIN STREET", "SR_14": 1.0, "Q_14": 4.0, "name": "NEWARK MANOR NURSING HOME", "SF_14": 4.0, "SF_15": 4.0, "cnty": "New Castle", "st": "DE", "Zip": 19711.0, "O_14": 2.0, "Q_15": 4.0, "O_15": 2.0, "city": "NEWARK", "beds": 67.0, "SR_15": 1.0}, {"Diff_star": 0.0, "addr": "248 KENT AVE", "SR_14": 3.0, "Q_14": 5.0, "name": "GOVERNOR BACON HEALTH CENTER", "SF_14": 5.0, "SF_15": 5.0, "cnty": "New Castle", "st": "DE", "Zip": 19706.0, "O_14": 5.0, "Q_15": 5.0, "O_15": 5.0, "city": "DELAWARE CITY", "beds": 86.0, "SR_15": 3.0}]