[{"Diff_star": 0.0, "addr": "1819 CLIFTON ROAD, N.E.", "SR_14": 5.0, "Q_14": 5.0, "name": "A.G. RHODES HOME WESLEY WOODS", "SF_14": 2.0, "SF_15": 2.0, "cnty": "De Kalb", "st": "GA", "Zip": 30329.0, "O_14": 5.0, "Q_15": 5.0, "O_15": 5.0, "city": "ATLANTA", "beds": 150.0, "SR_15": 5.0}, {"Diff_star": 0.0, "addr": "2001 SOUTH LEE STREET", "SR_14": 3.0, "Q_14": 4.0, "name": "MAGNOLIA MANOR METHODIST NSG C", "SF_14": 1.0, "SF_15": 1.0, "cnty": "Sumter", "st": "GA", "Zip": 31709.0, "O_14": 2.0, "Q_15": 3.0, "O_15": 2.0, "city": "AMERICUS", "beds": 238.0, "SR_15": 3.0}, {"Diff_star": 0.0, "addr": "1865 BOLD SPRINGS ROAD", "SR_14": 2.0, "Q_14": 5.0, "name": "PARK PLACE NURSING FACILITY", "SF_14": 2.0, "SF_15": 2.0, "cnty": "Walton", "st": "GA", "Zip": 30655.0, "O_14": 3.0, "Q_15": 5.0, "O_15": 3.0, "city": "MONROE", "beds": 165.0, "SR_15": 2.0}, {"Diff_star": 0.0, "addr": "2787 NORTH DECATUR ROAD", "SR_14": 3.0, "Q_14": 5.0, "name": "GOLDEN LIVINGCENTER - DECATUR", "SF_14": 1.0, "SF_15": 1.0, "cnty": "De Kalb", "st": "GA", "Zip": 30033.0, "O_14": 3.0, "Q_15": 5.0, "O_15": 3.0, "city": "DECATUR", "beds": 73.0, "SR_15": 3.0}, {"Diff_star": 0.0, "addr": "2200 OLD HAMILTON PLACE NE", "SR_14": 4.0, "Q_14": 4.0, "name": "BELL MINOR HOME, THE", "SF_14": 1.0, "SF_15": 1.0, "cnty": "Hall", "st": "GA", "Zip": 30507.0, "O_14": 3.0, "Q_15": 2.0, "O_15": 3.0, "city": "GAINESVILLE", "beds": 104.0, "SR_15": 4.0}, {"Diff_star": 0.0, "addr": "3150 HOWELL MILL ROAD N.W.", "SR_14": 5.0, "Q_14": 5.0, "name": "WILLIAM BREMAN JEWISH HOME, THE", "SF_14": 4.0, "SF_15": 3.0, "cnty": "Fulton", "st": "GA", "Zip": 30327.0, "O_14": 5.0, "Q_15": 4.0, "O_15": 5.0, "city": "ATLANTA", "beds": 96.0, "SR_15": 5.0}, {"Diff_star": -1.0, "addr": "4115 GLENWOOD RD", "SR_14": 2.0, "Q_14": 5.0, "name": "GOLDEN LIVINGCENTER - GLENWOOD", "SF_14": 3.0, "SF_15": 3.0, "cnty": "De Kalb", "st": "GA", "Zip": 30032.0, "O_14": 3.0, "Q_15": 4.0, "O_15": 2.0, "city": "DECATUR", "beds": 225.0, "SR_15": 2.0}, {"Diff_star": -1.0, "addr": "206 GRACE ST", "SR_14": 3.0, "Q_14": 2.0, "name": "MILLER NURSING HOME", "SF_14": 4.0, "SF_15": 4.0, "cnty": "Miller", "st": "GA", "Zip": 39837.0, "O_14": 4.0, "Q_15": 1.0, "O_15": 3.0, "city": "COLQUITT", "beds": 97.0, "SR_15": 3.0}, {"Diff_star": -1.0, "addr": "100 GROSS CRESCENT CIRCLE", "SR_14": 5.0, "Q_14": 2.0, "name": "HUTCHESON MED CTR SUBACUTE UNI", "SF_14": 1.0, "SF_15": 1.0, "cnty": "Catoosa", "st": "GA", "Zip": 30742.0, "O_14": 4.0, "Q_15": 1.0, "O_15": 3.0, "city": "FORT OGLETHORPE", "beds": 125.0, "SR_15": 5.0}, {"Diff_star": 0.0, "addr": "1600 ANTHONY ROAD", "SR_14": 3.0, "Q_14": 4.0, "name": "GOLDEN LIVINGCENTER - AUGUSTA", "SF_14": 2.0, "SF_15": 2.0, "cnty": "Richmond", "st": "GA", "Zip": 30907.0, "O_14": 3.0, "Q_15": 3.0, "O_15": 3.0, "city": "AUGUSTA", "beds": 99.0, "SR_15": 3.0}, {"Diff_star": -1.0, "addr": "2000 WARM SPRINGS RD", "SR_14": 3.0, "Q_14": 5.0, "name": "MAGNOLIA MANOR OF COLUMBUS NURSING CENTER - WEST", "SF_14": 4.0, "SF_15": 4.0, "cnty": "Muscogee", "st": "GA", "Zip": 31904.0, "O_14": 5.0, "Q_15": 4.0, "O_15": 4.0, "city": "COLUMBUS", "beds": 166.0, "SR_15": 3.0}, {"Diff_star": -1.0, "addr": "545 COOK STREET", "SR_14": 3.0, "Q_14": 5.0, "name": "BROWN HEALTH AND REHABILITATION", "SF_14": 1.0, "SF_15": 1.0, "cnty": "Franklin", "st": "GA", "Zip": 30662.0, "O_14": 3.0, "Q_15": 3.0, "O_15": 2.0, "city": "ROYSTON", "beds": 144.0, "SR_15": 3.0}, {"Diff_star": -1.0, "addr": "HIGHWAY 441 NORTH, BOX 37", "SR_14": 4.0, "Q_14": 3.0, "name": "HABERSHAM HOME", "SF_14": 3.0, "SF_15": 3.0, "cnty": "Habersham", "st": "GA", "Zip": 30535.0, "O_14": 4.0, "Q_15": 1.0, "O_15": 3.0, "city": "DEMOREST", "beds": 84.0, "SR_15": 4.0}, {"Diff_star": -1.0, "addr": "1425 MCFARLAND AVE", "SR_14": 2.0, "Q_14": 5.0, "name": "NHC HEALTHCARE ROSSVILLE", "SF_14": 4.0, "SF_15": 3.0, "cnty": "Walker", "st": "GA", "Zip": 30741.0, "O_14": 4.0, "Q_15": 5.0, "O_15": 3.0, "city": "ROSSVILLE", "beds": 112.0, "SR_15": 2.0}, {"Diff_star": 0.0, "addr": "459 HIGHWAY 119 S", "SR_14": 4.0, "Q_14": 4.0, "name": "EFFINGHAM CO EXTENDED CARE FAC", "SF_14": 4.0, "SF_15": 3.0, "cnty": "Effingham", "st": "GA", "Zip": 31329.0, "O_14": 4.0, "Q_15": 3.0, "O_15": 4.0, "city": "SPRINGFIELD", "beds": 105.0, "SR_15": 4.0}, {"Diff_star": 0.0, "addr": "54 PEACHTREE PARK DRIVE N.E.", "SR_14": 2.0, "Q_14": 5.0, "name": "SIGNATURE HEALTHCARE OF BUCKHEAD", "SF_14": 2.0, "SF_15": 2.0, "cnty": "Fulton", "st": "GA", "Zip": 30309.0, "O_14": 3.0, "Q_15": 5.0, "O_15": 3.0, "city": "ATLANTA", "beds": 179.0, "SR_15": 2.0}, {"Diff_star": -1.0, "addr": "26 TOWER RD", "SR_14": 2.0, "Q_14": 5.0, "name": "SIGNATURE HEALTHCARE AT TOWER ROAD", "SF_14": 1.0, "SF_15": 1.0, "cnty": "Cobb", "st": "GA", "Zip": 30060.0, "O_14": 2.0, "Q_15": 2.0, "O_15": 1.0, "city": "MARIETTA", "beds": 138.0, "SR_15": 2.0}, {"Diff_star": 0.0, "addr": "815 EAST 63 STREET", "SR_14": 1.0, "Q_14": 4.0, "name": "SIGNATURE HEALTHCARE OF SAVANNAH", "SF_14": 2.0, "SF_15": 2.0, "cnty": "Chatham", "st": "GA", "Zip": 31405.0, "O_14": 1.0, "Q_15": 4.0, "O_15": 1.0, "city": "SAVANNAH", "beds": 120.0, "SR_15": 1.0}, {"Diff_star": 0.0, "addr": "2010 WARM SPRINGS RD", "SR_14": 2.0, "Q_14": 5.0, "name": "MAGNOLIA MANOR OF COLUMBUS NURSING CENTER - EAST", "SF_14": 4.0, "SF_15": 4.0, "cnty": "Muscogee", "st": "GA", "Zip": 31904.0, "O_14": 4.0, "Q_15": 5.0, "O_15": 4.0, "city": "COLUMBUS", "beds": 210.0, "SR_15": 2.0}, {"Diff_star": -1.0, "addr": "2920 PHARR COURT SOUTH NW", "SR_14": 3.0, "Q_14": 4.0, "name": "NURSE CARE OF BUCKHEAD", "SF_14": 4.0, "SF_15": 3.0, "cnty": "Fulton", "st": "GA", "Zip": 30305.0, "O_14": 4.0, "Q_15": 2.0, "O_15": 3.0, "city": "ATLANTA", "beds": 220.0, "SR_15": 3.0}, {"Diff_star": 0.0, "addr": "11800 ABERCORN STREET", "SR_14": 1.0, "Q_14": 3.0, "name": "ABERCORN REHABILITATION CENTER", "SF_14": 2.0, "SF_15": 2.0, "cnty": "Chatham", "st": "GA", "Zip": 31419.0, "O_14": 1.0, "Q_15": 2.0, "O_15": 1.0, "city": "SAVANNAH", "beds": 100.0, "SR_15": 1.0}, {"Diff_star": -1.0, "addr": "244 EAST BROAD STREET", "SR_14": 4.0, "Q_14": 2.0, "name": "NEWNAN HEALTH AND REHABILITATION", "SF_14": 3.0, "SF_15": 3.0, "cnty": "Coweta", "st": "GA", "Zip": 30263.0, "O_14": 4.0, "Q_15": 1.0, "O_15": 3.0, "city": "NEWNAN", "beds": 143.0, "SR_15": 4.0}, {"Diff_star": 0.0, "addr": "315 UPPER RIVERDALE ROAD", "SR_14": 2.0, "Q_14": 5.0, "name": "RIVERDALE CENTER", "SF_14": 1.0, "SF_15": 1.0, "cnty": "Clayton", "st": "GA", "Zip": 30274.0, "O_14": 2.0, "Q_15": 5.0, "O_15": 2.0, "city": "RIVERDALE", "beds": 152.0, "SR_15": 2.0}, {"Diff_star": -1.0, "addr": "2130 ANDERSON MILL RD", "SR_14": 2.0, "Q_14": 5.0, "name": "ANDERSON MILL HEALTH AND REHABILITATION CENTER", "SF_14": 3.0, "SF_15": 3.0, "cnty": "Cobb", "st": "GA", "Zip": 30106.0, "O_14": 3.0, "Q_15": 4.0, "O_15": 2.0, "city": "AUSTELL", "beds": 170.0, "SR_15": 2.0}, {"Diff_star": 0.0, "addr": "7150 MANOR RD", "SR_14": 1.0, "Q_14": 3.0, "name": "MUSCOGEE MANOR & REHAB CENTER", "SF_14": 2.0, "SF_15": 2.0, "cnty": "Muscogee", "st": "GA", "Zip": 31907.0, "O_14": 1.0, "Q_15": 1.0, "O_15": 1.0, "city": "COLUMBUS", "beds": 242.0, "SR_15": 1.0}, {"Diff_star": 0.0, "addr": "1227 WEST WHEELER PARKWAY", "SR_14": 3.0, "Q_14": 3.0, "name": "KENTWOOD NURSING FACILITY", "SF_14": 3.0, "SF_15": 3.0, "cnty": "Richmond", "st": "GA", "Zip": 30909.0, "O_14": 3.0, "Q_15": 2.0, "O_15": 3.0, "city": "AUGUSTA", "beds": 80.0, "SR_15": 3.0}, {"Diff_star": -1.0, "addr": "2021 SCOTT ROAD", "SR_14": 1.0, "Q_14": 5.0, "name": "AMARA HEALTH CARE & REHAB", "SF_14": "", "SF_15": "", "cnty": "Richmond", "st": "GA", "Zip": 30906.0, "O_14": 2.0, "Q_15": 3.0, "O_15": 1.0, "city": "AUGUSTA", "beds": 213.0, "SR_15": 1.0}, {"Diff_star": 1.0, "addr": "811 KENNESAW AVENUE", "SR_14": 4.0, "Q_14": 5.0, "name": "SIGNATURE HEALTHCARE OF MARIETTA", "SF_14": 1.0, "SF_15": 3.0, "cnty": "Cobb", "st": "GA", "Zip": 30060.0, "O_14": 4.0, "Q_15": 5.0, "O_15": 5.0, "city": "MARIETTA", "beds": 154.0, "SR_15": 4.0}, {"Diff_star": 0.0, "addr": "2722 NORTH DECATUR ROAD", "SR_14": 4.0, "Q_14": 5.0, "name": "MANOR CARE REHABILITATION CENTER - DECATUR", "SF_14": 1.0, "SF_15": 1.0, "cnty": "De Kalb", "st": "GA", "Zip": 30033.0, "O_14": 4.0, "Q_15": 5.0, "O_15": 4.0, "city": "DECATUR", "beds": 140.0, "SR_15": 4.0}, {"Diff_star": -2.0, "addr": "600 WEST MEMORIAL DRIVE", "SR_14": 3.0, "Q_14": 5.0, "name": "WELLSTAR PAULDING NURSING CTR", "SF_14": 4.0, "SF_15": 3.0, "cnty": "Paulding", "st": "GA", "Zip": 30132.0, "O_14": 5.0, "Q_15": 4.0, "O_15": 3.0, "city": "DALLAS", "beds": 182.0, "SR_15": 3.0}, {"Diff_star": -1.0, "addr": "163 EAST TOLLISON STREET", "SR_14": 2.0, "Q_14": 3.0, "name": "APPLING NURSING AND REHABILITATION PAVILION", "SF_14": 4.0, "SF_15": 4.0, "cnty": "Appling", "st": "GA", "Zip": 31513.0, "O_14": 3.0, "Q_15": 1.0, "O_15": 2.0, "city": "BAXLEY", "beds": 101.0, "SR_15": 2.0}, {"Diff_star": -2.0, "addr": "265 TURNER STREET", "SR_14": 2.0, "Q_14": 3.0, "name": "CALHOUN NURSING HOME", "SF_14": 4.0, "SF_15": 3.0, "cnty": "Calhoun", "st": "GA", "Zip": 39846.0, "O_14": 3.0, "Q_15": 1.0, "O_15": 1.0, "city": "EDISON", "beds": 60.0, "SR_15": 2.0}, {"Diff_star": 0.0, "addr": "1600 RIVERSIDE AVE", "SR_14": 1.0, "Q_14": 5.0, "name": "SATILLA CARE CENTER", "SF_14": 4.0, "SF_15": 3.0, "cnty": "Ware", "st": "GA", "Zip": 31501.0, "O_14": 2.0, "Q_15": 5.0, "O_15": 2.0, "city": "WAYCROSS", "beds": 174.0, "SR_15": 1.0}, {"Diff_star": 0.0, "addr": "37 SOUTH ELLIS STREET", "SR_14": 1.0, "Q_14": 5.0, "name": "MITCHELL COUNTY NURSING HOMES", "SF_14": 2.0, "SF_15": 2.0, "cnty": "Mitchell", "st": "GA", "Zip": 31730.0, "O_14": 2.0, "Q_15": 5.0, "O_15": 2.0, "city": "CAMILLA", "beds": 156.0, "SR_15": 1.0}, {"Diff_star": -1.0, "addr": "5470 MERIDIAN MARK ROAD, BLDG E", "SR_14": 3.0, "Q_14": 5.0, "name": "GOLDEN LIVINGCENTER - DUNWOODY", "SF_14": 3.0, "SF_15": 3.0, "cnty": "Fulton", "st": "GA", "Zip": 30342.0, "O_14": 4.0, "Q_15": 5.0, "O_15": 3.0, "city": "ATLANTA", "beds": 240.0, "SR_15": 2.0}, {"Diff_star": 0.0, "addr": "11740 COLUMBIA ROAD", "SR_14": 2.0, "Q_14": 3.0, "name": "EARLY MEMORIAL NURSING HOME", "SF_14": 2.0, "SF_15": 2.0, "cnty": "Early", "st": "GA", "Zip": 39823.0, "O_14": 2.0, "Q_15": 2.0, "O_15": 2.0, "city": "BLAKELY", "beds": 127.0, "SR_15": 2.0}, {"Diff_star": 0.0, "addr": "321 RANDOLPH STREET", "SR_14": 1.0, "Q_14": 3.0, "name": "JOE-ANNE BURGIN NURSING HOME", "SF_14": 1.0, "SF_15": 1.0, "cnty": "Randolph", "st": "GA", "Zip": 39840.0, "O_14": 1.0, "Q_15": 3.0, "O_15": 1.0, "city": "CUTHBERT", "beds": 80.0, "SR_15": 1.0}, {"Diff_star": -1.0, "addr": "4028 HWY 5", "SR_14": 3.0, "Q_14": 2.0, "name": "DOUGLASVILLE NURSING AND REHABILITATION CENTER", "SF_14": 2.0, "SF_15": 2.0, "cnty": "Douglas", "st": "GA", "Zip": 30135.0, "O_14": 3.0, "Q_15": 1.0, "O_15": 2.0, "city": "DOUGLASVILLE", "beds": 246.0, "SR_15": 3.0}, {"Diff_star": 0.0, "addr": "350 BOULVARD, S.E.", "SR_14": 5.0, "Q_14": 5.0, "name": "A.G. RHODES HOME, INC, THE", "SF_14": 2.0, "SF_15": 2.0, "cnty": "Fulton", "st": "GA", "Zip": 30312.0, "O_14": 5.0, "Q_15": 5.0, "O_15": 5.0, "city": "ATLANTA", "beds": 138.0, "SR_15": 5.0}, {"Diff_star": -1.0, "addr": "50 SAINE DRIVE SW", "SR_14": 3.0, "Q_14": 5.0, "name": "PRUITTHEALTH - MARIETTA", "SF_14": 1.0, "SF_15": 1.0, "cnty": "Cobb", "st": "GA", "Zip": 30008.0, "O_14": 3.0, "Q_15": 4.0, "O_15": 2.0, "city": "MARIETTA", "beds": 119.0, "SR_15": 3.0}, {"Diff_star": 0.0, "addr": "200 MEDICAL DRIVE", "SR_14": 3.0, "Q_14": 4.0, "name": "FLORENCE HAND HOME", "SF_14": 4.0, "SF_15": 4.0, "cnty": "Troup", "st": "GA", "Zip": 30240.0, "O_14": 4.0, "Q_15": 3.0, "O_15": 4.0, "city": "LAGRANGE", "beds": 150.0, "SR_15": 3.0}, {"Diff_star": 0.0, "addr": "3450 NEW HIGH SHOALS RD", "SR_14": 5.0, "Q_14": 4.0, "name": "HIGH SHOALS HEALTH AND REHABILITATION", "SF_14": 5.0, "SF_15": 5.0, "cnty": "Oconee", "st": "GA", "Zip": 30645.0, "O_14": 5.0, "Q_15": 4.0, "O_15": 5.0, "city": "HIGH SHOALS", "beds": 100.0, "SR_15": 5.0}, {"Diff_star": 0.0, "addr": "102 HOSPITAL DRIVE", "SR_14": 4.0, "Q_14": 3.0, "name": "CHATSWORTH HEALTH CARE CENTER", "SF_14": 2.0, "SF_15": 2.0, "cnty": "Murray", "st": "GA", "Zip": 30705.0, "O_14": 4.0, "Q_15": 2.0, "O_15": 4.0, "city": "CHATSWORTH", "beds": 120.0, "SR_15": 4.0}, {"Diff_star": 0.0, "addr": "4360 JOHNSON FERRY PLACE", "SR_14": 5.0, "Q_14": 5.0, "name": "MANOR CARE REHABILITATION CENTER - MARIETTA", "SF_14": 2.0, "SF_15": 2.0, "cnty": "Cobb", "st": "GA", "Zip": 30068.0, "O_14": 5.0, "Q_15": 5.0, "O_15": 5.0, "city": "MARIETTA", "beds": 117.0, "SR_15": 5.0}, {"Diff_star": -1.0, "addr": "1170 CHULIO ROAD", "SR_14": 4.0, "Q_14": 5.0, "name": "CHULIO HILLS HEALTH AND REHAB", "SF_14": 1.0, "SF_15": 1.0, "cnty": "Floyd", "st": "GA", "Zip": 30161.0, "O_14": 4.0, "Q_15": 4.0, "O_15": 3.0, "city": "ROME", "beds": 100.0, "SR_15": 4.0}, {"Diff_star": 0.0, "addr": "2255 ANTHONY ROAD", "SR_14": 2.0, "Q_14": 4.0, "name": "PRUITTHEALTH - MACON", "SF_14": 3.0, "SF_15": 3.0, "cnty": "Bibb", "st": "GA", "Zip": 31204.0, "O_14": 2.0, "Q_15": 4.0, "O_15": 2.0, "city": "MACON", "beds": 228.0, "SR_15": 2.0}, {"Diff_star": -1.0, "addr": "2430 PAOLI ROAD", "SR_14": 4.0, "Q_14": 5.0, "name": "COMER HEALTH AND REHABILITATION", "SF_14": 2.0, "SF_15": 2.0, "cnty": "Madison", "st": "GA", "Zip": 30629.0, "O_14": 5.0, "Q_15": 3.0, "O_15": 4.0, "city": "COMER", "beds": 116.0, "SR_15": 4.0}, {"Diff_star": 0.0, "addr": "3235 DEANS BRIDGE ROAD", "SR_14": 4.0, "Q_14": 5.0, "name": "PLACE AT DEANS BRIDGE, THE", "SF_14": 1.0, "SF_15": 3.0, "cnty": "Richmond", "st": "GA", "Zip": 30906.0, "O_14": 4.0, "Q_15": 4.0, "O_15": 4.0, "city": "AUGUSTA", "beds": 100.0, "SR_15": 4.0}, {"Diff_star": 0.0, "addr": "3618 J DEWEY GRAY CIRCLE", "SR_14": 1.0, "Q_14": 4.0, "name": "GOLDEN LIVINGCENTER - WINDERMERE", "SF_14": 1.0, "SF_15": 1.0, "cnty": "Richmond", "st": "GA", "Zip": 30909.0, "O_14": 1.0, "Q_15": 2.0, "O_15": 1.0, "city": "AUGUSTA", "beds": 120.0, "SR_15": 1.0}, {"Diff_star": 0.0, "addr": "508 SOUTH ROGERS STREET", "SR_14": 4.0, "Q_14": 5.0, "name": "PLACE AT POOLER, THE", "SF_14": 3.0, "SF_15": 3.0, "cnty": "Chatham", "st": "GA", "Zip": 31322.0, "O_14": 5.0, "Q_15": 5.0, "O_15": 5.0, "city": "POOLER", "beds": 122.0, "SR_15": 4.0}, {"Diff_star": 0.0, "addr": "820 STEVENS CREEK ROAD", "SR_14": 5.0, "Q_14": 4.0, "name": "STEVENS PARK HEALTH AND REHABILITATION CENTER, LLC", "SF_14": 4.0, "SF_15": 4.0, "cnty": "Richmond", "st": "GA", "Zip": 30907.0, "O_14": 5.0, "Q_15": 2.0, "O_15": 5.0, "city": "AUGUSTA", "beds": 50.0, "SR_15": 5.0}, {"Diff_star": 0.0, "addr": "343 PLANTATION WAY", "SR_14": 4.0, "Q_14": 5.0, "name": "ZEBULON PARK HEALTH AND REHABILITATION", "SF_14": 3.0, "SF_15": 3.0, "cnty": "Bibb", "st": "GA", "Zip": 31210.0, "O_14": 5.0, "Q_15": 5.0, "O_15": 5.0, "city": "MACON", "beds": 66.0, "SR_15": 4.0}, {"Diff_star": 0.0, "addr": "3747 PEACHTREE ROAD, NE", "SR_14": 5.0, "Q_14": 4.0, "name": "LENBROOK", "SF_14": 4.0, "SF_15": 4.0, "cnty": "De Kalb", "st": "GA", "Zip": 30319.0, "O_14": 5.0, "Q_15": 3.0, "O_15": 5.0, "city": "ATLANTA", "beds": 60.0, "SR_15": 5.0}, {"Diff_star": 0.0, "addr": "178 WEST CAMPBELLTON STREET", "SR_14": 2.0, "Q_14": 4.0, "name": "FAIRBURN HEALTH CARE CTR, INC", "SF_14": 4.0, "SF_15": 4.0, "cnty": "Fulton", "st": "GA", "Zip": 30213.0, "O_14": 3.0, "Q_15": 4.0, "O_15": 3.0, "city": "FAIRBURN", "beds": 120.0, "SR_15": 2.0}, {"Diff_star": 0.0, "addr": "205 ROADRUNNER BOULEVARD", "SR_14": 5.0, "Q_14": 4.0, "name": "PRUITTHEALTH - LAFAYETTE", "SF_14": 4.0, "SF_15": 4.0, "cnty": "Walker", "st": "GA", "Zip": 30728.0, "O_14": 5.0, "Q_15": 4.0, "O_15": 5.0, "city": "LAFAYETTE", "beds": 100.0, "SR_15": 5.0}, {"Diff_star": -1.0, "addr": "409 PLEASANT HOME ROAD", "SR_14": 3.0, "Q_14": 5.0, "name": "PLACE AT MARTINEZ, THE", "SF_14": "", "SF_15": "", "cnty": "Richmond", "st": "GA", "Zip": 30907.0, "O_14": 4.0, "Q_15": 3.0, "O_15": 3.0, "city": "AUGUSTA", "beds": 100.0, "SR_15": 3.0}, {"Diff_star": 0.0, "addr": "3535 ASHTON WOODS DRIVE NE", "SR_14": 4.0, "Q_14": 5.0, "name": "PRUITTHEALTH - BROOKHAVEN", "SF_14": 2.0, "SF_15": 2.0, "cnty": "De Kalb", "st": "GA", "Zip": 30319.0, "O_14": 5.0, "Q_15": 5.0, "O_15": 5.0, "city": "ATLANTA", "beds": 157.0, "SR_15": 4.0}, {"Diff_star": 0.0, "addr": "1700 MULKEY RD", "SR_14": 4.0, "Q_14": 5.0, "name": "PRUITTHEALTH - AUSTELL", "SF_14": 3.0, "SF_15": 3.0, "cnty": "Cobb", "st": "GA", "Zip": 30106.0, "O_14": 5.0, "Q_15": 5.0, "O_15": 5.0, "city": "AUSTELL", "beds": 124.0, "SR_15": 4.0}, {"Diff_star": -1.0, "addr": "505 NORTH FIFTH  AVENUE", "SR_14": 5.0, "Q_14": 3.0, "name": "FIFTH AVENUE HEALTH CARE", "SF_14": 3.0, "SF_15": 3.0, "cnty": "Floyd", "st": "GA", "Zip": 30165.0, "O_14": 5.0, "Q_15": 1.0, "O_15": 4.0, "city": "ROME", "beds": 100.0, "SR_15": 5.0}, {"Diff_star": 0.0, "addr": "813 ATLANTA HIGHWAY", "SR_14": 4.0, "Q_14": 4.0, "name": "WARRENTON HEALTH AND REHABILITATION", "SF_14": 1.0, "SF_15": 1.0, "cnty": "Warren", "st": "GA", "Zip": 30828.0, "O_14": 3.0, "Q_15": 4.0, "O_15": 3.0, "city": "WARRENTON", "beds": 110.0, "SR_15": 4.0}, {"Diff_star": -1.0, "addr": "3888 LAVISTA ROAD", "SR_14": 3.0, "Q_14": 5.0, "name": "GOLDEN LIVINGCENTER - BRIARWOOD", "SF_14": 3.0, "SF_15": 3.0, "cnty": "De Kalb", "st": "GA", "Zip": 30084.0, "O_14": 4.0, "Q_15": 3.0, "O_15": 3.0, "city": "TUCKER", "beds": 100.0, "SR_15": 3.0}, {"Diff_star": 0.0, "addr": "1155  WEST COLLEGE STREET", "SR_14": 3.0, "Q_14": 5.0, "name": "BAINBRIDGE HEALTH AND REHAB", "SF_14": 1.0, "SF_15": 1.0, "cnty": "Decatur", "st": "GA", "Zip": 39819.0, "O_14": 3.0, "Q_15": 5.0, "O_15": 3.0, "city": "BAINBRIDGE", "beds": 100.0, "SR_15": 3.0}, {"Diff_star": 0.0, "addr": "112 HOSPITAL DRIVE", "SR_14": 4.0, "Q_14": 3.0, "name": "PRUITTHEALTH - WASHINGTON", "SF_14": 3.0, "SF_15": 3.0, "cnty": "Wilkes", "st": "GA", "Zip": 30673.0, "O_14": 4.0, "Q_15": 2.0, "O_15": 4.0, "city": "WASHINGTON", "beds": 47.0, "SR_15": 4.0}, {"Diff_star": 0.0, "addr": "3003 VETERANS PARKWAY S", "SR_14": 4.0, "Q_14": 4.0, "name": "PRUITTHEALTH - MAGNOLIA MANOR", "SF_14": 3.0, "SF_15": 3.0, "cnty": "Colquitt", "st": "GA", "Zip": 31788.0, "O_14": 4.0, "Q_15": 3.0, "O_15": 4.0, "city": "MOULTRIE", "beds": 100.0, "SR_15": 4.0}, {"Diff_star": -1.0, "addr": "4595 CANTRELL ROAD", "SR_14": 2.0, "Q_14": 5.0, "name": "WILLOWWOOD NURSING CENTER", "SF_14": 1.0, "SF_15": 1.0, "cnty": "Hall", "st": "GA", "Zip": 30542.0, "O_14": 2.0, "Q_15": 4.0, "O_15": 1.0, "city": "FLOWERY BRANCH", "beds": 100.0, "SR_15": 2.0}, {"Diff_star": 0.0, "addr": "310 AVENUE F", "SR_14": 4.0, "Q_14": 5.0, "name": "GOLDEN LIVINGCENTER - THOMASTON", "SF_14": 1.0, "SF_15": 1.0, "cnty": "Upson", "st": "GA", "Zip": 30286.0, "O_14": 4.0, "Q_15": 5.0, "O_15": 4.0, "city": "THOMASTON", "beds": 119.0, "SR_15": 4.0}, {"Diff_star": -1.0, "addr": "404 KING SPRINGS VILLAGE PKWY", "SR_14": 1.0, "Q_14": 5.0, "name": "DELMAR GARDENS OF SMYRNA", "SF_14": 2.0, "SF_15": 2.0, "cnty": "Cobb", "st": "GA", "Zip": 30082.0, "O_14": 2.0, "Q_15": 4.0, "O_15": 1.0, "city": "SMYRNA", "beds": 120.0, "SR_15": 1.0}, {"Diff_star": -1.0, "addr": "2541 MILLEDGEVILLE ROAD", "SR_14": 2.0, "Q_14": 3.0, "name": "PRUITTHEALTH - AUGUSTA", "SF_14": 2.0, "SF_15": 2.0, "cnty": "Richmond", "st": "GA", "Zip": 30904.0, "O_14": 2.0, "Q_15": 1.0, "O_15": 1.0, "city": "AUGUSTA", "beds": 100.0, "SR_15": 2.0}, {"Diff_star": 0.0, "addr": "561 UNIVERSITY DRIVE", "SR_14": 1.0, "Q_14": 5.0, "name": "UNIVERSITY EXTENDED CARE/WESTW", "SF_14": 4.0, "SF_15": 4.0, "cnty": "Columbia", "st": "GA", "Zip": 30809.0, "O_14": 2.0, "Q_15": 5.0, "O_15": 2.0, "city": "EVANS", "beds": 149.0, "SR_15": 1.0}, {"Diff_star": -1.0, "addr": "201 POPLAR STREET", "SR_14": 5.0, "Q_14": 5.0, "name": "MIONA GERIATRIC & DEMENTIA CENTER", "SF_14": 1.0, "SF_15": 1.0, "cnty": "Macon", "st": "GA", "Zip": 31041.0, "O_14": 5.0, "Q_15": 4.0, "O_15": 4.0, "city": "IDEAL", "beds": 88.0, "SR_15": 5.0}, {"Diff_star": 0.0, "addr": "12825 WHITE BLUFF ROAD", "SR_14": 3.0, "Q_14": 5.0, "name": "PRUITTHEALTH - SAVANNAH", "SF_14": 3.0, "SF_15": 3.0, "cnty": "Chatham", "st": "GA", "Zip": 31419.0, "O_14": 4.0, "Q_15": 5.0, "O_15": 4.0, "city": "SAVANNAH", "beds": 120.0, "SR_15": 3.0}, {"Diff_star": 0.0, "addr": "1387 HIGHWAY 41 NORTH", "SR_14": 4.0, "Q_14": 4.0, "name": "CALHOUN HEALTH CARE CTR, INC", "SF_14": 4.0, "SF_15": 3.0, "cnty": "Gordon", "st": "GA", "Zip": 30701.0, "O_14": 4.0, "Q_15": 2.0, "O_15": 4.0, "city": "CALHOUN", "beds": 100.0, "SR_15": 4.0}, {"Diff_star": 0.0, "addr": "1110 BURLEYSON DRIVE", "SR_14": 5.0, "Q_14": 5.0, "name": "RIDGEWOOD MANOR HEALTH AND REHABILITATION", "SF_14": 2.0, "SF_15": 2.0, "cnty": "Whitfield", "st": "GA", "Zip": 30720.0, "O_14": 5.0, "Q_15": 4.0, "O_15": 5.0, "city": "DALTON", "beds": 102.0, "SR_15": 5.0}, {"Diff_star": 0.0, "addr": "405 LAUREL AVE.", "SR_14": 2.0, "Q_14": 4.0, "name": "BERRIEN NURSING CENTER", "SF_14": 1.0, "SF_15": 1.0, "cnty": "Berrien", "st": "GA", "Zip": 31639.0, "O_14": 1.0, "Q_15": 4.0, "O_15": 1.0, "city": "NASHVILLE", "beds": 108.0, "SR_15": 2.0}, {"Diff_star": -1.0, "addr": "633 FALLS ROAD", "SR_14": 3.0, "Q_14": 5.0, "name": "PRUITTHEALTH - TOCCOA", "SF_14": 1.0, "SF_15": 1.0, "cnty": "Stephens", "st": "GA", "Zip": 30577.0, "O_14": 3.0, "Q_15": 4.0, "O_15": 2.0, "city": "TOCCOA", "beds": 181.0, "SR_15": 3.0}, {"Diff_star": 0.0, "addr": "529 BOLINGREEN DRIVE", "SR_14": 2.0, "Q_14": 5.0, "name": "BOLINGREEN HEALTH AND REHABILITATION", "SF_14": 1.0, "SF_15": 1.0, "cnty": "Monroe", "st": "GA", "Zip": 31210.0, "O_14": 2.0, "Q_15": 5.0, "O_15": 2.0, "city": "MACON", "beds": 121.0, "SR_15": 2.0}, {"Diff_star": 0.0, "addr": "3850 SAFEHAVEN DRIVE", "SR_14": 2.0, "Q_14": 5.0, "name": "LIFE CARE CENTER OF GWINNETT", "SF_14": 2.0, "SF_15": 2.0, "cnty": "Gwinnett", "st": "GA", "Zip": 30044.0, "O_14": 3.0, "Q_15": 5.0, "O_15": 3.0, "city": "LAWRENCEVILLE", "beds": 163.0, "SR_15": 2.0}, {"Diff_star": 0.0, "addr": "809 SOUTH BROAD ST", "SR_14": 2.0, "Q_14": 4.0, "name": "ETOWAH LANDING", "SF_14": 3.0, "SF_15": 3.0, "cnty": "Floyd", "st": "GA", "Zip": 30161.0, "O_14": 2.0, "Q_15": 3.0, "O_15": 2.0, "city": "ROME", "beds": 100.0, "SR_15": 2.0}, {"Diff_star": 0.0, "addr": "3100 CLUB DRIVE", "SR_14": 3.0, "Q_14": 5.0, "name": "DELMAR GARDENS OF GWINNETT", "SF_14": 3.0, "SF_15": 3.0, "cnty": "Gwinnett", "st": "GA", "Zip": 30044.0, "O_14": 4.0, "Q_15": 5.0, "O_15": 4.0, "city": "LAWRENCEVILLE", "beds": 67.0, "SR_15": 3.0}, {"Diff_star": 0.0, "addr": "1911 5TH AVENUE", "SR_14": 1.0, "Q_14": 3.0, "name": "HAMILTON HOUSE NURSING AND REHABILITATION CENTER", "SF_14": 3.0, "SF_15": 3.0, "cnty": "Muscogee", "st": "GA", "Zip": 31907.0, "O_14": 1.0, "Q_15": 1.0, "O_15": 1.0, "city": "COLUMBUS", "beds": 128.0, "SR_15": 1.0}, {"Diff_star": 0.0, "addr": "101 OLD TALBOTTON  RD", "SR_14": 5.0, "Q_14": 5.0, "name": "RIVERSIDE HEALTH AND REHABILITATION", "SF_14": 3.0, "SF_15": 3.0, "cnty": "Upson", "st": "GA", "Zip": 30286.0, "O_14": 5.0, "Q_15": 5.0, "O_15": 5.0, "city": "THOMASTON", "beds": 73.0, "SR_15": 5.0}, {"Diff_star": 0.0, "addr": "2111 WEST POINT ROAD", "SR_14": 3.0, "Q_14": 4.0, "name": "LAGRANGE NURSING & REHAB CENTER", "SF_14": 1.0, "SF_15": 1.0, "cnty": "Troup", "st": "GA", "Zip": 30240.0, "O_14": 2.0, "Q_15": 3.0, "O_15": 2.0, "city": "LAGRANGE", "beds": 138.0, "SR_15": 3.0}, {"Diff_star": 0.0, "addr": "300 INDUSTRIAL BLVD", "SR_14": 1.0, "Q_14": 4.0, "name": "DUBLINAIR HEALTH & REHAB", "SF_14": 2.0, "SF_15": 2.0, "cnty": "Laurens", "st": "GA", "Zip": 31040.0, "O_14": 1.0, "Q_15": 3.0, "O_15": 1.0, "city": "DUBLIN", "beds": 149.0, "SR_15": 1.0}, {"Diff_star": 0.0, "addr": "107 RIDGEVIEW DR", "SR_14": 4.0, "Q_14": 5.0, "name": "OCONEE HEALTH AND REHABILITATION", "SF_14": 3.0, "SF_15": 3.0, "cnty": "Washington", "st": "GA", "Zip": 31067.0, "O_14": 5.0, "Q_15": 5.0, "O_15": 5.0, "city": "OCONEE", "beds": 50.0, "SR_15": 4.0}, {"Diff_star": 0.0, "addr": "2249 COLLEGE STREET, NORTH", "SR_14": 4.0, "Q_14": 5.0, "name": "TREUTLEN COUNTY HEALTH AND REHABILITATION", "SF_14": 2.0, "SF_15": 2.0, "cnty": "Treutlen", "st": "GA", "Zip": 30457.0, "O_14": 5.0, "Q_15": 5.0, "O_15": 5.0, "city": "SOPERTON", "beds": 50.0, "SR_15": 4.0}, {"Diff_star": 3.0, "addr": "110 BRANDYWINE BOULEVARD", "SR_14": 1.0, "Q_14": 5.0, "name": "KINDRED TRANSITIONAL CARE AND REHAB - LAFAYETTE", "SF_14": 3.0, "SF_15": 3.0, "cnty": "Fayette", "st": "GA", "Zip": 30214.0, "O_14": 2.0, "Q_15": 5.0, "O_15": 5.0, "city": "FAYETTEVILLE", "beds": 179.0, "SR_15": 4.0}, {"Diff_star": 0.0, "addr": "115 BRENTWOOD DRIVE", "SR_14": 2.0, "Q_14": 4.0, "name": "BRENTWOOD HEALTH AND REHABILITATION", "SF_14": 2.0, "SF_15": 2.0, "cnty": "Burke", "st": "GA", "Zip": 30830.0, "O_14": 2.0, "Q_15": 2.0, "O_15": 2.0, "city": "WAYNESBORO", "beds": 103.0, "SR_15": 2.0}, {"Diff_star": -1.0, "addr": "505 COLISEUM DRIVE", "SR_14": 3.0, "Q_14": 2.0, "name": "LAUREL BAYE HEALTHCARE OF MACON", "SF_14": 1.0, "SF_15": 1.0, "cnty": "Bibb", "st": "GA", "Zip": 31217.0, "O_14": 2.0, "Q_15": 1.0, "O_15": 1.0, "city": "MACON", "beds": 100.0, "SR_15": 3.0}, {"Diff_star": -1.0, "addr": "1345 REDMOND ROAD", "SR_14": 4.0, "Q_14": 5.0, "name": "GOLDEN LIVINGCENTER - ROME", "SF_14": 2.0, "SF_15": 2.0, "cnty": "Floyd", "st": "GA", "Zip": 30165.0, "O_14": 5.0, "Q_15": 4.0, "O_15": 4.0, "city": "ROME", "beds": 100.0, "SR_15": 4.0}, {"Diff_star": -1.0, "addr": "506 SUMTER ST", "SR_14": 3.0, "Q_14": 4.0, "name": "MONTEZUMA HEALTH CARE CENTER", "SF_14": 4.0, "SF_15": 3.0, "cnty": "Macon", "st": "GA", "Zip": 31063.0, "O_14": 4.0, "Q_15": 2.0, "O_15": 3.0, "city": "MONTEZUMA", "beds": 100.0, "SR_15": 3.0}, {"Diff_star": 0.0, "addr": "511 MT. PLEASANT ROAD", "SR_14": 2.0, "Q_14": 5.0, "name": "THOMSON HEALTH AND REHABILITATION", "SF_14": 2.0, "SF_15": 2.0, "cnty": "Mc Duffie", "st": "GA", "Zip": 30824.0, "O_14": 3.0, "Q_15": 5.0, "O_15": 3.0, "city": "THOMSON", "beds": 150.0, "SR_15": 2.0}, {"Diff_star": -1.0, "addr": "2327 NORTH HIGHWAY 27", "SR_14": 1.0, "Q_14": 3.0, "name": "CARROLLTON NURSING & REHAB CTR", "SF_14": 4.0, "SF_15": 3.0, "cnty": "Carroll", "st": "GA", "Zip": 30117.0, "O_14": 2.0, "Q_15": 3.0, "O_15": 1.0, "city": "CARROLLTON", "beds": 159.0, "SR_15": 1.0}, {"Diff_star": -1.0, "addr": "652 FERNCREST DRIVE", "SR_14": 4.0, "Q_14": 5.0, "name": "HERITAGE INN OF SANDERSVILLE HEALTH AND REHAB", "SF_14": 1.0, "SF_15": 1.0, "cnty": "Washington", "st": "GA", "Zip": 31082.0, "O_14": 4.0, "Q_15": 3.0, "O_15": 3.0, "city": "SANDERSVILLE", "beds": 60.0, "SR_15": 4.0}, {"Diff_star": 0.0, "addr": "410 EAST NORTHSIDE DRIVE", "SR_14": 3.0, "Q_14": 4.0, "name": "PRUITTHEALTH - LAKEHAVEN", "SF_14": 2.0, "SF_15": 2.0, "cnty": "Lowndes", "st": "GA", "Zip": 31602.0, "O_14": 3.0, "Q_15": 2.0, "O_15": 3.0, "city": "VALDOSTA", "beds": 90.0, "SR_15": 3.0}, {"Diff_star": 0.0, "addr": "1102 BURLEYSON  ROAD", "SR_14": 5.0, "Q_14": 4.0, "name": "WOOD DALE HEALTH AND REHABILITATION", "SF_14": 2.0, "SF_15": 2.0, "cnty": "Whitfield", "st": "GA", "Zip": 30720.0, "O_14": 5.0, "Q_15": 2.0, "O_15": 5.0, "city": "DALTON", "beds": 82.0, "SR_15": 5.0}, {"Diff_star": 0.0, "addr": "5100 WEST ST NW", "SR_14": 4.0, "Q_14": 4.0, "name": "RIVERSIDE HEALTH CARE CENTER", "SF_14": 1.0, "SF_15": 1.0, "cnty": "Newton", "st": "GA", "Zip": 30014.0, "O_14": 3.0, "Q_15": 2.0, "O_15": 3.0, "city": "COVINGTON", "beds": 159.0, "SR_15": 4.0}, {"Diff_star": 0.0, "addr": "606 SIMMONS ST", "SR_14": 2.0, "Q_14": 5.0, "name": "SOUTHLAND HEALTHCARE AND REHAB CENTER", "SF_14": 1.0, "SF_15": 1.0, "cnty": "Laurens", "st": "GA", "Zip": 31040.0, "O_14": 2.0, "Q_15": 5.0, "O_15": 2.0, "city": "DUBLIN", "beds": 130.0, "SR_15": 2.0}, {"Diff_star": 0.0, "addr": "2501 NORTH ASHLEY STREET", "SR_14": 5.0, "Q_14": 5.0, "name": "PRUITTHEALTH - VALDOSTA", "SF_14": 2.0, "SF_15": 2.0, "cnty": "Lowndes", "st": "GA", "Zip": 31602.0, "O_14": 5.0, "Q_15": 5.0, "O_15": 5.0, "city": "VALDOSTA", "beds": 98.0, "SR_15": 5.0}, {"Diff_star": 0.0, "addr": "4796 HIGHWAY 42 NORTH", "SR_14": 4.0, "Q_14": 4.0, "name": "PRUITTHEALTH - MONROE", "SF_14": 2.0, "SF_15": 2.0, "cnty": "Monroe", "st": "GA", "Zip": 31029.0, "O_14": 4.0, "Q_15": 2.0, "O_15": 4.0, "city": "FORSYTH", "beds": 83.0, "SR_15": 4.0}, {"Diff_star": 0.0, "addr": "148 CASON ROAD", "SR_14": 4.0, "Q_14": 1.0, "name": "CEDAR SPRINGS HEALTH AND REHAB", "SF_14": 1.0, "SF_15": 1.0, "cnty": "Polk", "st": "GA", "Zip": 30125.0, "O_14": 2.0, "Q_15": 1.0, "O_15": 2.0, "city": "CEDARTOWN", "beds": 116.0, "SR_15": 4.0}, {"Diff_star": 1.0, "addr": "11744 HIGHWAY 22 E", "SR_14": 3.0, "Q_14": 5.0, "name": "SPARTA HEALTH AND REHABILITATION", "SF_14": 2.0, "SF_15": 3.0, "cnty": "Hancock", "st": "GA", "Zip": 31087.0, "O_14": 4.0, "Q_15": 5.0, "O_15": 5.0, "city": "SPARTA", "beds": 81.0, "SR_15": 4.0}, {"Diff_star": 0.0, "addr": "921 OLD NEWNAN ROAD", "SR_14": 4.0, "Q_14": 4.0, "name": "OAKS - CARROLLTON SKILLED NURSING, THE", "SF_14": 4.0, "SF_15": 4.0, "cnty": "Carroll", "st": "GA", "Zip": 30117.0, "O_14": 4.0, "Q_15": 3.0, "O_15": 4.0, "city": "CARROLLTON", "beds": 42.0, "SR_15": 4.0}, {"Diff_star": 0.0, "addr": "415 PENDLETON PLACE", "SR_14": 5.0, "Q_14": 4.0, "name": "PRUITTHEALTH - CRESTWOOD", "SF_14": 1.0, "SF_15": 1.0, "cnty": "Lowndes", "st": "GA", "Zip": 31602.0, "O_14": 4.0, "Q_15": 2.0, "O_15": 4.0, "city": "VALDOSTA", "beds": 79.0, "SR_15": 5.0}, {"Diff_star": 0.0, "addr": "181 OXLEY DRIVE", "SR_14": 4.0, "Q_14": 4.0, "name": "OXLEY PARK HEALTH AND REHABILITATION", "SF_14": 1.0, "SF_15": 1.0, "cnty": "Toombs", "st": "GA", "Zip": 30436.0, "O_14": 3.0, "Q_15": 4.0, "O_15": 3.0, "city": "LYONS", "beds": 144.0, "SR_15": 4.0}, {"Diff_star": -1.0, "addr": "2795 FINNEY CIRCLE", "SR_14": 1.0, "Q_14": 3.0, "name": "PRUITTHEALTH - EASTSIDE", "SF_14": 5.0, "SF_15": 5.0, "cnty": "Bibb", "st": "GA", "Zip": 31217.0, "O_14": 2.0, "Q_15": 1.0, "O_15": 1.0, "city": "MACON", "beds": 130.0, "SR_15": 1.0}, {"Diff_star": 0.0, "addr": "205 PEACH ORCHARD ROAD", "SR_14": 3.0, "Q_14": 4.0, "name": "OAKS - SCENIC VIEW SKILLED NURSING, THE", "SF_14": 3.0, "SF_15": 3.0, "cnty": "Habersham", "st": "GA", "Zip": 30511.0, "O_14": 3.0, "Q_15": 3.0, "O_15": 3.0, "city": "BALDWIN", "beds": 148.0, "SR_15": 3.0}, {"Diff_star": 0.0, "addr": "6190 PEAKE ROAD", "SR_14": 1.0, "Q_14": 5.0, "name": "PRUITTHEALTH - PEAKE", "SF_14": 2.0, "SF_15": 2.0, "cnty": "Bibb", "st": "GA", "Zip": 31220.0, "O_14": 2.0, "Q_15": 5.0, "O_15": 2.0, "city": "MACON", "beds": 122.0, "SR_15": 1.0}, {"Diff_star": 0.0, "addr": "12 CHATEAU DRIVE", "SR_14": 5.0, "Q_14": 5.0, "name": "WINTHROP HEALTH AND REHABILITATION", "SF_14": 3.0, "SF_15": 3.0, "cnty": "Floyd", "st": "GA", "Zip": 30161.0, "O_14": 5.0, "Q_15": 5.0, "O_15": 5.0, "city": "ROME", "beds": 100.0, "SR_15": 5.0}, {"Diff_star": 0.0, "addr": "125 QUIET OAKS DRIVE", "SR_14": 4.0, "Q_14": 4.0, "name": "QUIET OAKS HEALTH CARE CENTER", "SF_14": 2.0, "SF_15": 2.0, "cnty": "Oglethorpe", "st": "GA", "Zip": 30630.0, "O_14": 4.0, "Q_15": 3.0, "O_15": 4.0, "city": "CRAWFORD", "beds": 61.0, "SR_15": 4.0}, {"Diff_star": 0.0, "addr": "60 PROVIDENCE STREET, PO BOX 86", "SR_14": 4.0, "Q_14": 4.0, "name": "PROVIDENCE OF SPARTA HEALTH AND REHABILITATION", "SF_14": 1.0, "SF_15": 1.0, "cnty": "Hancock", "st": "GA", "Zip": 31087.0, "O_14": 3.0, "Q_15": 4.0, "O_15": 3.0, "city": "SPARTA", "beds": 71.0, "SR_15": 4.0}, {"Diff_star": -1.0, "addr": "651 RHODES DRIVE", "SR_14": 1.0, "Q_14": 5.0, "name": "PRUITTHEALTH - SPRING VALLEY", "SF_14": 3.0, "SF_15": 3.0, "cnty": "Elbert", "st": "GA", "Zip": 30635.0, "O_14": 2.0, "Q_15": 4.0, "O_15": 1.0, "city": "ELBERTON", "beds": 60.0, "SR_15": 1.0}, {"Diff_star": -1.0, "addr": "1115 PROFESSIONAL BLVD", "SR_14": 3.0, "Q_14": 3.0, "name": "QUINTON MEM HC & REHAB CENTER", "SF_14": 1.0, "SF_15": 1.0, "cnty": "Whitfield", "st": "GA", "Zip": 30720.0, "O_14": 2.0, "Q_15": 1.0, "O_15": 1.0, "city": "DALTON", "beds": 120.0, "SR_15": 3.0}, {"Diff_star": -1.0, "addr": "93 HIGHWAY 19", "SR_14": 3.0, "Q_14": 2.0, "name": "LUMBER CITY NURSING & REHABILITATION CENTER", "SF_14": 1.0, "SF_15": 1.0, "cnty": "Telfair", "st": "GA", "Zip": 31549.0, "O_14": 2.0, "Q_15": 1.0, "O_15": 1.0, "city": "LUMBER CITY", "beds": 86.0, "SR_15": 3.0}, {"Diff_star": -1.0, "addr": "608 WEST COURT STREET", "SR_14": 3.0, "Q_14": 3.0, "name": "WRIGHTSVILLE NURSING HOME", "SF_14": 2.0, "SF_15": 2.0, "cnty": "Johnson", "st": "GA", "Zip": 31096.0, "O_14": 3.0, "Q_15": 1.0, "O_15": 2.0, "city": "WRIGHTSVILLE", "beds": 94.0, "SR_15": 3.0}, {"Diff_star": -1.0, "addr": "1067 BATTLEFIELD PARKWAY", "SR_14": 3.0, "Q_14": 3.0, "name": "PRUITTHEALTH - FORT OGLETHORPE", "SF_14": 3.0, "SF_15": 3.0, "cnty": "Catoosa", "st": "GA", "Zip": 30742.0, "O_14": 3.0, "Q_15": 1.0, "O_15": 2.0, "city": "FORT OGLETHORPE", "beds": 120.0, "SR_15": 3.0}, {"Diff_star": 0.0, "addr": "2560 FLINTRIDGE ROAD", "SR_14": 4.0, "Q_14": 4.0, "name": "OAKS - LIMESTONE, THE", "SF_14": 3.0, "SF_15": 3.0, "cnty": "Hall", "st": "GA", "Zip": 30501.0, "O_14": 4.0, "Q_15": 3.0, "O_15": 4.0, "city": "GAINESVILLE", "beds": 104.0, "SR_15": 4.0}, {"Diff_star": 0.0, "addr": "475 WASHINGTON AVENUE", "SR_14": 1.0, "Q_14": 5.0, "name": "PLEASANT VIEW NURSING CENTER", "SF_14": 1.0, "SF_15": 1.0, "cnty": "Candler", "st": "GA", "Zip": 30439.0, "O_14": 2.0, "Q_15": 5.0, "O_15": 2.0, "city": "METTER", "beds": 120.0, "SR_15": 1.0}, {"Diff_star": 0.0, "addr": "1451 NEWTON DRIVE", "SR_14": 2.0, "Q_14": 3.0, "name": "GOLDEN LIVINGCENTER - TIFTON", "SF_14": 1.0, "SF_15": 1.0, "cnty": "Tift", "st": "GA", "Zip": 31794.0, "O_14": 1.0, "Q_15": 1.0, "O_15": 1.0, "city": "TIFTON", "beds": 100.0, "SR_15": 1.0}, {"Diff_star": 0.0, "addr": "113 SPRING VALLEY DRIVE", "SR_14": 1.0, "Q_14": 3.0, "name": "JEFFERSONVILLE HEALTH & REHAB", "SF_14": 1.0, "SF_15": 1.0, "cnty": "Twiggs", "st": "GA", "Zip": 31044.0, "O_14": 1.0, "Q_15": 1.0, "O_15": 1.0, "city": "JEFFERSONVILLE", "beds": 131.0, "SR_15": 1.0}, {"Diff_star": -1.0, "addr": "1090 W ORANGE ST", "SR_14": 4.0, "Q_14": 5.0, "name": "GOLDEN LIVINGCENTER - JESUP", "SF_14": 3.0, "SF_15": 3.0, "cnty": "Wayne", "st": "GA", "Zip": 31545.0, "O_14": 5.0, "Q_15": 4.0, "O_15": 4.0, "city": "JESUP", "beds": 90.0, "SR_15": 4.0}, {"Diff_star": 0.0, "addr": "521 CABINESS ROAD", "SR_14": 4.0, "Q_14": 5.0, "name": "PRUITTHEALTH - FORSYTH", "SF_14": 3.0, "SF_15": 3.0, "cnty": "Monroe", "st": "GA", "Zip": 31029.0, "O_14": 5.0, "Q_15": 5.0, "O_15": 5.0, "city": "FORSYTH", "beds": 72.0, "SR_15": 4.0}, {"Diff_star": -1.0, "addr": "490 KATHWOOD DR", "SR_14": 3.0, "Q_14": 5.0, "name": "OAKS - ATHENS SKILLED NURSING, THE", "SF_14": 5.0, "SF_15": 5.0, "cnty": "Clarke", "st": "GA", "Zip": 30607.0, "O_14": 5.0, "Q_15": 4.0, "O_15": 4.0, "city": "ATHENS", "beds": 120.0, "SR_15": 3.0}, {"Diff_star": -1.0, "addr": "105 ARNOLD MILL ROAD", "SR_14": 3.0, "Q_14": 5.0, "name": "WOODSTOCK NURSING & REHAB CTR", "SF_14": 2.0, "SF_15": 2.0, "cnty": "Cherokee", "st": "GA", "Zip": 30188.0, "O_14": 4.0, "Q_15": 4.0, "O_15": 3.0, "city": "WOODSTOCK", "beds": 171.0, "SR_15": 3.0}, {"Diff_star": -1.0, "addr": "1109 GREEN STREET", "SR_14": 3.0, "Q_14": 3.0, "name": "ROSWELL NURSING & REHAB CENTER", "SF_14": 4.0, "SF_15": 3.0, "cnty": "Fulton", "st": "GA", "Zip": 30075.0, "O_14": 4.0, "Q_15": 2.0, "O_15": 3.0, "city": "ROSWELL", "beds": 268.0, "SR_15": 3.0}, {"Diff_star": 0.0, "addr": "125 SAMARITAN DRIVE", "SR_14": 3.0, "Q_14": 4.0, "name": "CHESTNUT RIDGE NSG & REHAB CTR", "SF_14": 1.0, "SF_15": 1.0, "cnty": "Forsyth", "st": "GA", "Zip": 30040.0, "O_14": 2.0, "Q_15": 2.0, "O_15": 2.0, "city": "CUMMING", "beds": 150.0, "SR_15": 3.0}, {"Diff_star": -1.0, "addr": "6698 WASHINGTON ROAD", "SR_14": 3.0, "Q_14": 5.0, "name": "LAKE CROSSING HEALTH CENTER", "SF_14": 3.0, "SF_15": 3.0, "cnty": "Columbia", "st": "GA", "Zip": 30802.0, "O_14": 4.0, "Q_15": 4.0, "O_15": 3.0, "city": "APPLING", "beds": 100.0, "SR_15": 3.0}, {"Diff_star": 0.0, "addr": "120 SKYLINE DRIVE", "SR_14": 2.0, "Q_14": 5.0, "name": "THOMASVILLE HEALTH & REHAB, LLC", "SF_14": 1.0, "SF_15": 1.0, "cnty": "Thomas", "st": "GA", "Zip": 31757.0, "O_14": 2.0, "Q_15": 5.0, "O_15": 2.0, "city": "THOMASVILLE", "beds": 52.0, "SR_15": 2.0}, {"Diff_star": 0.0, "addr": "960  HIGHLAND AVENUE", "SR_14": 5.0, "Q_14": 4.0, "name": "OAKVIEW HEALTH AND REHABILITATION", "SF_14": 3.0, "SF_15": 3.0, "cnty": "Chattooga", "st": "GA", "Zip": 30747.0, "O_14": 5.0, "Q_15": 3.0, "O_15": 5.0, "city": "SUMMERVILLE", "beds": 151.0, "SR_15": 5.0}, {"Diff_star": 0.0, "addr": "1106 NORTH 4TH STREET", "SR_14": 1.0, "Q_14": 4.0, "name": "CORDELE HEALTH AND REHABILITATION", "SF_14": 4.0, "SF_15": 4.0, "cnty": "Crisp", "st": "GA", "Zip": 31015.0, "O_14": 2.0, "Q_15": 3.0, "O_15": 2.0, "city": "CORDELE", "beds": 100.0, "SR_15": 1.0}, {"Diff_star": -1.0, "addr": "500 STANLEY STREET", "SR_14": 3.0, "Q_14": 3.0, "name": "SUMMERHILL ELDERLIVING HOME & CARE", "SF_14": 3.0, "SF_15": 3.0, "cnty": "Houston", "st": "GA", "Zip": 31069.0, "O_14": 3.0, "Q_15": 1.0, "O_15": 2.0, "city": "PERRY", "beds": 160.0, "SR_15": 3.0}, {"Diff_star": -1.0, "addr": "315 FIELD STREET", "SR_14": 5.0, "Q_14": 5.0, "name": "HARALSON NSG & REHAB CENTER", "SF_14": 1.0, "SF_15": 1.0, "cnty": "Haralson", "st": "GA", "Zip": 30110.0, "O_14": 5.0, "Q_15": 4.0, "O_15": 4.0, "city": "BREMEN", "beds": 120.0, "SR_15": 5.0}, {"Diff_star": -1.0, "addr": "94 CADE STREET", "SR_14": 2.0, "Q_14": 4.0, "name": "HARTWELL HEALTH AND REHABILITATION", "SF_14": 4.0, "SF_15": 3.0, "cnty": "Hart", "st": "GA", "Zip": 30643.0, "O_14": 3.0, "Q_15": 3.0, "O_15": 2.0, "city": "HARTWELL", "beds": 92.0, "SR_15": 2.0}, {"Diff_star": 0.0, "addr": "225 PHILPOT STREET", "SR_14": 3.0, "Q_14": 4.0, "name": "CEDAR VALLEY NSG & REHAB CTR", "SF_14": 3.0, "SF_15": 3.0, "cnty": "Polk", "st": "GA", "Zip": 30125.0, "O_14": 3.0, "Q_15": 3.0, "O_15": 3.0, "city": "CEDARTOWN", "beds": 100.0, "SR_15": 3.0}, {"Diff_star": 0.0, "addr": "156 PINE KNOLL DRIVE", "SR_14": 5.0, "Q_14": 4.0, "name": "PINE KNOLL NURSING & REHAB CTR", "SF_14": 4.0, "SF_15": 3.0, "cnty": "Carroll", "st": "GA", "Zip": 30117.0, "O_14": 5.0, "Q_15": 2.0, "O_15": 5.0, "city": "CARROLLTON", "beds": 122.0, "SR_15": 5.0}, {"Diff_star": -1.0, "addr": "946 VETERANS PARKWAY", "SR_14": 3.0, "Q_14": 5.0, "name": "HERITAGE INN OF BARNESVILLE HEALTH AND REHAB", "SF_14": 2.0, "SF_15": 2.0, "cnty": "Lamar", "st": "GA", "Zip": 30204.0, "O_14": 4.0, "Q_15": 4.0, "O_15": 3.0, "city": "BARNESVILLE", "beds": 117.0, "SR_15": 3.0}, {"Diff_star": 0.0, "addr": "261 FAIRVIEW AVENUE", "SR_14": 5.0, "Q_14": 4.0, "name": "HART CARE CENTER", "SF_14": 3.0, "SF_15": 3.0, "cnty": "Hart", "st": "GA", "Zip": 30643.0, "O_14": 5.0, "Q_15": 2.0, "O_15": 5.0, "city": "HARTWELL", "beds": 117.0, "SR_15": 5.0}, {"Diff_star": 0.0, "addr": "800 PATTERSON RD", "SR_14": 5.0, "Q_14": 4.0, "name": "PRUITTHEALTH - SHEPHERD HILLS", "SF_14": 3.0, "SF_15": 3.0, "cnty": "Walker", "st": "GA", "Zip": 30728.0, "O_14": 5.0, "Q_15": 3.0, "O_15": 5.0, "city": "LA FAYETTE", "beds": 112.0, "SR_15": 5.0}, {"Diff_star": -1.0, "addr": "210 MAIN STREET", "SR_14": 3.0, "Q_14": 5.0, "name": "PRUITTHEALTH - TOOMSBORO", "SF_14": 2.0, "SF_15": 2.0, "cnty": "Wilkinson", "st": "GA", "Zip": 31090.0, "O_14": 4.0, "Q_15": 4.0, "O_15": 3.0, "city": "TOOMSBORO", "beds": 62.0, "SR_15": 3.0}, {"Diff_star": 0.0, "addr": "2036 SOUTH MAIN STREET", "SR_14": 2.0, "Q_14": 5.0, "name": "MADISON HEALTH AND REHAB", "SF_14": 2.0, "SF_15": 2.0, "cnty": "Morgan", "st": "GA", "Zip": 30650.0, "O_14": 3.0, "Q_15": 5.0, "O_15": 3.0, "city": "MADISON", "beds": 67.0, "SR_15": 2.0}, {"Diff_star": -1.0, "addr": "7 ROSEWOOD AVENUE", "SR_14": 1.0, "Q_14": 5.0, "name": "OCEANSIDE HEALTH & REHAB", "SF_14": 1.0, "SF_15": 1.0, "cnty": "Chatham", "st": "GA", "Zip": 31328.0, "O_14": 2.0, "Q_15": 4.0, "O_15": 1.0, "city": "TYBEE ISLAND", "beds": 85.0, "SR_15": 1.0}, {"Diff_star": 0.0, "addr": "151 WISDOM ROAD", "SR_14": 4.0, "Q_14": 5.0, "name": "SOUTHLAND HEALTH AND REHABILITATION", "SF_14": 2.0, "SF_15": 2.0, "cnty": "Fayette", "st": "GA", "Zip": 30269.0, "O_14": 5.0, "Q_15": 5.0, "O_15": 5.0, "city": "PEACHTREE CITY", "beds": 155.0, "SR_15": 4.0}, {"Diff_star": -1.0, "addr": "196 NORTH DIXIE AVENUE", "SR_14": 4.0, "Q_14": 5.0, "name": "TOWNSEND PARK HEALTH AND REHABILITATION", "SF_14": 1.0, "SF_15": 1.0, "cnty": "Bartow", "st": "GA", "Zip": 30120.0, "O_14": 4.0, "Q_15": 4.0, "O_15": 3.0, "city": "CARTERSVILLE", "beds": 124.0, "SR_15": 4.0}, {"Diff_star": 0.0, "addr": "198 HAMPTON STREET", "SR_14": 4.0, "Q_14": 3.0, "name": "WESTBURY HEALTH AND REHABILITATION CTR - MCDONOUGH", "SF_14": 2.0, "SF_15": 2.0, "cnty": "Henry", "st": "GA", "Zip": 30253.0, "O_14": 4.0, "Q_15": 2.0, "O_15": 4.0, "city": "MCDONOUGH", "beds": 210.0, "SR_15": 4.0}, {"Diff_star": 0.0, "addr": "156 DOLLY STREET", "SR_14": 4.0, "Q_14": 4.0, "name": "GRAY HEALTH AND REHABILITATION", "SF_14": 1.0, "SF_15": 1.0, "cnty": "Jones", "st": "GA", "Zip": 31032.0, "O_14": 3.0, "Q_15": 2.0, "O_15": 3.0, "city": "GRAY", "beds": 58.0, "SR_15": 4.0}, {"Diff_star": 0.0, "addr": "180 EPPS BRIDGE RD", "SR_14": 1.0, "Q_14": 1.0, "name": "UNIVERSITY NURSING & REHAB CTR", "SF_14": 1.0, "SF_15": 1.0, "cnty": "Clarke", "st": "GA", "Zip": 30606.0, "O_14": 1.0, "Q_15": 1.0, "O_15": 1.0, "city": "ATHENS", "beds": 122.0, "SR_15": 1.0}, {"Diff_star": -1.0, "addr": "9908 OUIDA STREET", "SR_14": 5.0, "Q_14": 4.0, "name": "PRUITTHEALTH - BLUE RIDGE", "SF_14": 2.0, "SF_15": 2.0, "cnty": "Fannin", "st": "GA", "Zip": 30513.0, "O_14": 5.0, "Q_15": 3.0, "O_15": 4.0, "city": "BLUE RIDGE", "beds": 101.0, "SR_15": 4.0}, {"Diff_star": 0.0, "addr": "1420 MILSTEAD ROAD", "SR_14": 4.0, "Q_14": 4.0, "name": "WESTBURY HEALTH & REHABILITATION CENTER - CONYERS", "SF_14": 3.0, "SF_15": 3.0, "cnty": "Rockdale", "st": "GA", "Zip": 30012.0, "O_14": 4.0, "Q_15": 3.0, "O_15": 4.0, "city": "CONYERS", "beds": 173.0, "SR_15": 4.0}, {"Diff_star": 0.0, "addr": "815 LEGION DRIVE", "SR_14": 2.0, "Q_14": 4.0, "name": "HEART OF GEORGIA NURSING HOME", "SF_14": "", "SF_15": "", "cnty": "Dodge", "st": "GA", "Zip": 31023.0, "O_14": 2.0, "Q_15": 3.0, "O_15": 2.0, "city": "EASTMAN", "beds": 100.0, "SR_15": 2.0}, {"Diff_star": -1.0, "addr": "2816 EVANS MILL ROAD", "SR_14": 3.0, "Q_14": 5.0, "name": "TRADITIONS HEALTH AND REHABILITATION", "SF_14": 3.0, "SF_15": 3.0, "cnty": "De Kalb", "st": "GA", "Zip": 30058.0, "O_14": 4.0, "Q_15": 3.0, "O_15": 3.0, "city": "LITHONIA", "beds": 182.0, "SR_15": 3.0}, {"Diff_star": 0.0, "addr": "747 MONTICELLO HIGHWAY", "SR_14": 4.0, "Q_14": 4.0, "name": "LYNN HAVEN HEALTH AND REHABILITATION", "SF_14": 1.0, "SF_15": 1.0, "cnty": "Jones", "st": "GA", "Zip": 31032.0, "O_14": 3.0, "Q_15": 2.0, "O_15": 3.0, "city": "GRAY", "beds": 104.0, "SR_15": 4.0}, {"Diff_star": 0.0, "addr": "325 ALLEN MEMORIAL DRIVE SW", "SR_14": 2.0, "Q_14": 5.0, "name": "CHAPLINWOOD NURSING HOME", "SF_14": 1.0, "SF_15": 1.0, "cnty": "Baldwin", "st": "GA", "Zip": 31061.0, "O_14": 2.0, "Q_15": 5.0, "O_15": 2.0, "city": "MILLEDGEVILLE", "beds": 100.0, "SR_15": 2.0}, {"Diff_star": 0.0, "addr": "910 TALBOTTON RD", "SR_14": 1.0, "Q_14": 4.0, "name": "AZALEA TRACE NURSING CENTER", "SF_14": 2.0, "SF_15": 2.0, "cnty": "Muscogee", "st": "GA", "Zip": 31904.0, "O_14": 1.0, "Q_15": 2.0, "O_15": 1.0, "city": "COLUMBUS", "beds": 110.0, "SR_15": 1.0}, {"Diff_star": 0.0, "addr": "601 SIXTH STREET", "SR_14": 1.0, "Q_14": 4.0, "name": "BRYANT HEALTH AND REHABILITATION CENTER", "SF_14": 2.0, "SF_15": 2.0, "cnty": "Bleckley", "st": "GA", "Zip": 31014.0, "O_14": 1.0, "Q_15": 4.0, "O_15": 1.0, "city": "COCHRAN", "beds": 75.0, "SR_15": 1.0}, {"Diff_star": 0.0, "addr": "10629  U.S. HIGHWAY 19 SOUTH", "SR_14": 1.0, "Q_14": 3.0, "name": "GLENN-MOR NURSING HOME", "SF_14": 1.0, "SF_15": 1.0, "cnty": "Thomas", "st": "GA", "Zip": 31792.0, "O_14": 1.0, "Q_15": 1.0, "O_15": 1.0, "city": "THOMASVILLE", "beds": 64.0, "SR_15": 1.0}, {"Diff_star": 0.0, "addr": "124 OVERBY DRIVE", "SR_14": 4.0, "Q_14": 3.0, "name": "FOUR COUNTY HEALTH AND REHABILITATION", "SF_14": 1.0, "SF_15": 1.0, "cnty": "Stewart", "st": "GA", "Zip": 31825.0, "O_14": 3.0, "Q_15": 2.0, "O_15": 3.0, "city": "RICHLAND", "beds": 85.0, "SR_15": 4.0}, {"Diff_star": -1.0, "addr": "304  FIFTH  AVENUE", "SR_14": 2.0, "Q_14": 5.0, "name": "EAST LAKE ARBOR", "SF_14": 2.0, "SF_15": 2.0, "cnty": "De Kalb", "st": "GA", "Zip": 30030.0, "O_14": 3.0, "Q_15": 4.0, "O_15": 2.0, "city": "DECATUR", "beds": 103.0, "SR_15": 2.0}, {"Diff_star": 0.0, "addr": "1159 GEORGIA  AVE. S.E.", "SR_14": 3.0, "Q_14": 4.0, "name": "DAWSON HEALTH AND REHABILITATION", "SF_14": 1.0, "SF_15": 1.0, "cnty": "Terrell", "st": "GA", "Zip": 39842.0, "O_14": 2.0, "Q_15": 4.0, "O_15": 2.0, "city": "DAWSON", "beds": 74.0, "SR_15": 3.0}, {"Diff_star": -1.0, "addr": "1011 SOUTH GREEN STREET", "SR_14": 2.0, "Q_14": 5.0, "name": "PROVIDENCE HEALTHCARE OF THOMASTON", "SF_14": 1.0, "SF_15": 1.0, "cnty": "Upson", "st": "GA", "Zip": 30286.0, "O_14": 2.0, "Q_15": 4.0, "O_15": 1.0, "city": "THOMASTON", "beds": 110.0, "SR_15": 2.0}, {"Diff_star": 0.0, "addr": "4373 HOUSTON AVE.", "SR_14": 3.0, "Q_14": 4.0, "name": "GOODWILL HEALTH AND REHAB", "SF_14": 1.0, "SF_15": 1.0, "cnty": "Bibb", "st": "GA", "Zip": 31206.0, "O_14": 2.0, "Q_15": 3.0, "O_15": 2.0, "city": "MACON", "beds": 172.0, "SR_15": 3.0}, {"Diff_star": -1.0, "addr": "2020 BEVERLY ROAD NE", "SR_14": 1.0, "Q_14": 3.0, "name": "NEW HORIZONS LIMESTONE", "SF_14": 4.0, "SF_15": 3.0, "cnty": "Hall", "st": "GA", "Zip": 30501.0, "O_14": 2.0, "Q_15": 1.0, "O_15": 1.0, "city": "GAINESVILLE", "beds": 271.0, "SR_15": 1.0}, {"Diff_star": 0.0, "addr": "1321 WASHINGTON HIGHWAY", "SR_14": 5.0, "Q_14": 5.0, "name": "GREENE POINT HEALTH AND REHABILITATION", "SF_14": 2.0, "SF_15": 2.0, "cnty": "Greene", "st": "GA", "Zip": 30669.0, "O_14": 5.0, "Q_15": 5.0, "O_15": 5.0, "city": "UNION POINT", "beds": 71.0, "SR_15": 5.0}, {"Diff_star": 0.0, "addr": "2000 EAST-WEST CONNECTOR", "SR_14": 5.0, "Q_14": 5.0, "name": "PRESBYTERIAN VILLAGE", "SF_14": 4.0, "SF_15": 3.0, "cnty": "Cobb", "st": "GA", "Zip": 30106.0, "O_14": 5.0, "Q_15": 3.0, "O_15": 5.0, "city": "AUSTELL", "beds": 107.0, "SR_15": 5.0}, {"Diff_star": 0.0, "addr": "441 INDUSTRIAL BLVD", "SR_14": 4.0, "Q_14": 5.0, "name": "PRUITTHEALTH - ASHBURN", "SF_14": 3.0, "SF_15": 3.0, "cnty": "Turner", "st": "GA", "Zip": 31714.0, "O_14": 5.0, "Q_15": 5.0, "O_15": 5.0, "city": "ASHBURN", "beds": 76.0, "SR_15": 4.0}, {"Diff_star": 0.0, "addr": "2403 BATTLEFIELD PKWY", "SR_14": 3.0, "Q_14": 4.0, "name": "NHC HEALTHCARE FT OGLETHORPE", "SF_14": 1.0, "SF_15": 1.0, "cnty": "Catoosa", "st": "GA", "Zip": 30742.0, "O_14": 2.0, "Q_15": 4.0, "O_15": 2.0, "city": "FORT OGLETHORPE", "beds": 135.0, "SR_15": 3.0}, {"Diff_star": -1.0, "addr": "1104 SOUTH FIRST AVE.", "SR_14": 2.0, "Q_14": 3.0, "name": "MCRAE MANOR NURSING HOME", "SF_14": 2.0, "SF_15": 2.0, "cnty": "Telfair", "st": "GA", "Zip": 31055.0, "O_14": 2.0, "Q_15": 1.0, "O_15": 1.0, "city": "MC RAE", "beds": 133.0, "SR_15": 2.0}, {"Diff_star": -1.0, "addr": "1634 TELFAIR ST", "SR_14": 2.0, "Q_14": 5.0, "name": "SHAMROCK NURSING & REHAB CTR", "SF_14": 2.0, "SF_15": 2.0, "cnty": "Laurens", "st": "GA", "Zip": 31021.0, "O_14": 3.0, "Q_15": 4.0, "O_15": 2.0, "city": "DUBLIN", "beds": 105.0, "SR_15": 2.0}, {"Diff_star": -1.0, "addr": "1211 SILOAM ROAD", "SR_14": 4.0, "Q_14": 5.0, "name": "BOSWELL-PARKER HEALTH AND REHABILITATION", "SF_14": 3.0, "SF_15": 3.0, "cnty": "Greene", "st": "GA", "Zip": 30642.0, "O_14": 5.0, "Q_15": 4.0, "O_15": 4.0, "city": "GREENSBORO", "beds": 29.0, "SR_15": 4.0}, {"Diff_star": -1.0, "addr": "1901 WEST SCREVEN STREET", "SR_14": 3.0, "Q_14": 5.0, "name": "PRESBYTERIAN HOME, QUITMAN, IN", "SF_14": 3.0, "SF_15": 3.0, "cnty": "Brooks", "st": "GA", "Zip": 31643.0, "O_14": 4.0, "Q_15": 3.0, "O_15": 3.0, "city": "QUITMAN", "beds": 188.0, "SR_15": 3.0}, {"Diff_star": 0.0, "addr": "930 SOUTH BROAD ST.", "SR_14": 3.0, "Q_14": 4.0, "name": "GOLDEN LIVINGCENTER - THOMASVILLE", "SF_14": 1.0, "SF_15": 1.0, "cnty": "Thomas", "st": "GA", "Zip": 31792.0, "O_14": 2.0, "Q_15": 4.0, "O_15": 2.0, "city": "THOMASVILLE", "beds": 68.0, "SR_15": 3.0}, {"Diff_star": 0.0, "addr": "618 GENNETT DRIVE", "SR_14": 4.0, "Q_14": 1.0, "name": "GRANDVIEW HEALTH CARE CENTER", "SF_14": 3.0, "SF_15": 3.0, "cnty": "Pickens", "st": "GA", "Zip": 30143.0, "O_14": 3.0, "Q_15": 1.0, "O_15": 3.0, "city": "JASPER", "beds": 60.0, "SR_15": 4.0}, {"Diff_star": -1.0, "addr": "3100 SAVANNAH HIGHWAY", "SR_14": 3.0, "Q_14": 5.0, "name": "JESUP HEALTH AND REHAB", "SF_14": 1.0, "SF_15": 1.0, "cnty": "Wayne", "st": "GA", "Zip": 31545.0, "O_14": 3.0, "Q_15": 3.0, "O_15": 2.0, "city": "JESUP", "beds": 72.0, "SR_15": 3.0}, {"Diff_star": -1.0, "addr": "1500 S JOHNSON FERRY ROAD", "SR_14": 1.0, "Q_14": 5.0, "name": "NORTHEAST ATLANTA HEALTH AND REHABILITATION CENTER", "SF_14": 1.0, "SF_15": 1.0, "cnty": "De Kalb", "st": "GA", "Zip": 30319.0, "O_14": 2.0, "Q_15": 3.0, "O_15": 1.0, "city": "ATLANTA", "beds": 165.0, "SR_15": 1.0}, {"Diff_star": -1.0, "addr": "233 SUNSET CIRCLE", "SR_14": 2.0, "Q_14": 5.0, "name": "PRUITTHEALTH - MOULTRIE", "SF_14": 3.0, "SF_15": 3.0, "cnty": "Colquitt", "st": "GA", "Zip": 31768.0, "O_14": 3.0, "Q_15": 4.0, "O_15": 2.0, "city": "MOULTRIE", "beds": 68.0, "SR_15": 2.0}, {"Diff_star": 0.0, "addr": "7560 BUTNER ROAD", "SR_14": 4.0, "Q_14": 5.0, "name": "PRUITTHEALTH - FAIRBURN", "SF_14": 4.0, "SF_15": 3.0, "cnty": "Fulton", "st": "GA", "Zip": 30213.0, "O_14": 5.0, "Q_15": 5.0, "O_15": 5.0, "city": "FAIRBURN", "beds": 82.0, "SR_15": 4.0}, {"Diff_star": 0.0, "addr": "165 SOUTH BROAD STREET", "SR_14": 4.0, "Q_14": 5.0, "name": "TAYLOR COUNTY HEALTH AND REHABILITATION", "SF_14": 2.0, "SF_15": 2.0, "cnty": "Taylor", "st": "GA", "Zip": 31006.0, "O_14": 5.0, "Q_15": 5.0, "O_15": 5.0, "city": "BUTLER", "beds": 78.0, "SR_15": 4.0}, {"Diff_star": 0.0, "addr": "150 HOSPITAL CIRCLE N.W.", "SR_14": 4.0, "Q_14": 5.0, "name": "BRIAN CENTER HEALTH & REHABILITATION/CANTON", "SF_14": 3.0, "SF_15": 3.0, "cnty": "Cherokee", "st": "GA", "Zip": 30114.0, "O_14": 5.0, "Q_15": 5.0, "O_15": 5.0, "city": "CANTON", "beds": 100.0, "SR_15": 4.0}, {"Diff_star": 0.0, "addr": "960 HAWTHORNE AVENUE", "SR_14": 3.0, "Q_14": 4.0, "name": "PRUITTHEALTH - ATHENS HERITAGE", "SF_14": 4.0, "SF_15": 4.0, "cnty": "Clarke", "st": "GA", "Zip": 30606.0, "O_14": 4.0, "Q_15": 3.0, "O_15": 4.0, "city": "ATHENS", "beds": 104.0, "SR_15": 3.0}, {"Diff_star": 0.0, "addr": "2645 WHITING STREET N.W.", "SR_14": 3.0, "Q_14": 4.0, "name": "PRUITTHEALTH - WEST ATLANTA", "SF_14": 3.0, "SF_15": 3.0, "cnty": "Fulton", "st": "GA", "Zip": 30318.0, "O_14": 3.0, "Q_15": 3.0, "O_15": 3.0, "city": "ATLANTA", "beds": 120.0, "SR_15": 3.0}, {"Diff_star": 0.0, "addr": "301 S0UTH BAKER STREET", "SR_14": 4.0, "Q_14": 4.0, "name": "TWIN OAKS CONVALESCENT CENTER", "SF_14": 4.0, "SF_15": 3.0, "cnty": "Bacon", "st": "GA", "Zip": 31510.0, "O_14": 4.0, "Q_15": 4.0, "O_15": 4.0, "city": "ALMA", "beds": 88.0, "SR_15": 4.0}, {"Diff_star": 0.0, "addr": "1780 OLD HIGHWAY 41", "SR_14": 4.0, "Q_14": 4.0, "name": "ROSS MEMORIAL HEALTH CARE CTR", "SF_14": 2.0, "SF_15": 2.0, "cnty": "Cobb", "st": "GA", "Zip": 30152.0, "O_14": 4.0, "Q_15": 3.0, "O_15": 4.0, "city": "KENNESAW", "beds": 100.0, "SR_15": 4.0}, {"Diff_star": -1.0, "addr": "788 INDIAN TRAIL ROAD", "SR_14": 2.0, "Q_14": 5.0, "name": "PRUITTHEALTH - LILBURN", "SF_14": 2.0, "SF_15": 2.0, "cnty": "Gwinnett", "st": "GA", "Zip": 30047.0, "O_14": 3.0, "Q_15": 4.0, "O_15": 2.0, "city": "LILBURN", "beds": 152.0, "SR_15": 2.0}, {"Diff_star": -1.0, "addr": "3311 LEE STREET", "SR_14": 2.0, "Q_14": 3.0, "name": "SEARS MANOR NURSING HOME", "SF_14": 3.0, "SF_15": 3.0, "cnty": "Glynn", "st": "GA", "Zip": 31521.0, "O_14": 2.0, "Q_15": 1.0, "O_15": 1.0, "city": "BRUNSWICK", "beds": 100.0, "SR_15": 2.0}, {"Diff_star": 0.0, "addr": "900 WYLIE ROAD", "SR_14": 5.0, "Q_14": 5.0, "name": "A.G. RHODES HOME, INC - COBB", "SF_14": 2.0, "SF_15": 2.0, "cnty": "Cobb", "st": "GA", "Zip": 30067.0, "O_14": 5.0, "Q_15": 5.0, "O_15": 5.0, "city": "MARIETTA", "beds": 130.0, "SR_15": 5.0}, {"Diff_star": 0.0, "addr": "1321 PULASKI SCHOOL ROAD", "SR_14": 3.0, "Q_14": 4.0, "name": "ORCHARD HEALTH AND REHABILITATION", "SF_14": 3.0, "SF_15": 3.0, "cnty": "Candler", "st": "GA", "Zip": 30451.0, "O_14": 3.0, "Q_15": 3.0, "O_15": 3.0, "city": "PULASKI", "beds": 89.0, "SR_15": 3.0}, {"Diff_star": 0.0, "addr": "420 MYTLE DRIVE", "SR_14": 3.0, "Q_14": 5.0, "name": "ROBERTA HEALTH AND REHAB", "SF_14": 1.0, "SF_15": 1.0, "cnty": "Crawford", "st": "GA", "Zip": 31078.0, "O_14": 3.0, "Q_15": 5.0, "O_15": 3.0, "city": "ROBERTA", "beds": 100.0, "SR_15": 3.0}, {"Diff_star": 0.0, "addr": "4275 OWENS ROAD", "SR_14": 5.0, "Q_14": 5.0, "name": "BRANDON WILDE PAVILION", "SF_14": 4.0, "SF_15": 4.0, "cnty": "Columbia", "st": "GA", "Zip": 30809.0, "O_14": 5.0, "Q_15": 4.0, "O_15": 5.0, "city": "EVANS", "beds": 65.0, "SR_15": 5.0}, {"Diff_star": -1.0, "addr": "2800 SPRINGDALE ROAD", "SR_14": 3.0, "Q_14": 4.0, "name": "CRESTVIEW HEALTH & REHAB CTR", "SF_14": 2.0, "SF_15": 2.0, "cnty": "Fulton", "st": "GA", "Zip": 30315.0, "O_14": 3.0, "Q_15": 1.0, "O_15": 2.0, "city": "ATLANTA", "beds": 388.0, "SR_15": 3.0}, {"Diff_star": -1.0, "addr": "120 SPRING STREET", "SR_14": 5.0, "Q_14": 4.0, "name": "AVALON HEALTH AND REHABILITATION", "SF_14": 1.0, "SF_15": 1.0, "cnty": "Coweta", "st": "GA", "Zip": 30263.0, "O_14": 4.0, "Q_15": 3.0, "O_15": 3.0, "city": "NEWNAN", "beds": 117.0, "SR_15": 4.0}, {"Diff_star": 0.0, "addr": "619 NORTHSIDE DRIVE", "SR_14": 4.0, "Q_14": 4.0, "name": "PRUITTHEALTH - GRIFFIN", "SF_14": 2.0, "SF_15": 2.0, "cnty": "Spalding", "st": "GA", "Zip": 30223.0, "O_14": 4.0, "Q_15": 3.0, "O_15": 4.0, "city": "GRIFFIN", "beds": 69.0, "SR_15": 4.0}, {"Diff_star": 0.0, "addr": "528 HUNTER STREET", "SR_14": 4.0, "Q_14": 3.0, "name": "ROCKMART NURSING & REHAB CTR", "SF_14": 1.0, "SF_15": 1.0, "cnty": "Polk", "st": "GA", "Zip": 30153.0, "O_14": 3.0, "Q_15": 2.0, "O_15": 3.0, "city": "ROCKMART", "beds": 73.0, "SR_15": 4.0}, {"Diff_star": 0.0, "addr": "1000 BRIARCLIFF ROAD", "SR_14": 1.0, "Q_14": 4.0, "name": "BRIARCLIFF HAVEN HEALTHCARE AND REHAB CENTER", "SF_14": 2.0, "SF_15": 2.0, "cnty": "De Kalb", "st": "GA", "Zip": 30306.0, "O_14": 1.0, "Q_15": 3.0, "O_15": 1.0, "city": "ATLANTA", "beds": 128.0, "SR_15": 1.0}, {"Diff_star": -1.0, "addr": "671 NORTH CHEROKEE ROAD", "SR_14": 2.0, "Q_14": 5.0, "name": "SOCIAL CIRCLE NSG & REHAB CTR", "SF_14": 4.0, "SF_15": 4.0, "cnty": "Walton", "st": "GA", "Zip": 30025.0, "O_14": 4.0, "Q_15": 4.0, "O_15": 3.0, "city": "SOCIAL CIRCLE", "beds": 65.0, "SR_15": 2.0}, {"Diff_star": 1.0, "addr": "856 HIGHWAY 1 SOUTH", "SR_14": 3.0, "Q_14": 4.0, "name": "PRUITTHEALTH - SWAINSBORO", "SF_14": 3.0, "SF_15": 3.0, "cnty": "Emanuel", "st": "GA", "Zip": 30401.0, "O_14": 3.0, "Q_15": 4.0, "O_15": 4.0, "city": "SWAINSBORO", "beds": 103.0, "SR_15": 4.0}, {"Diff_star": 0.0, "addr": "2040 COLONIAL DRIVE", "SR_14": 2.0, "Q_14": 5.0, "name": "AZALEALAND NURSING HOME", "SF_14": 3.0, "SF_15": 3.0, "cnty": "Chatham", "st": "GA", "Zip": 31406.0, "O_14": 3.0, "Q_15": 5.0, "O_15": 3.0, "city": "SAVANNAH", "beds": 107.0, "SR_15": 2.0}, {"Diff_star": 0.0, "addr": "2055 REX ROAD", "SR_14": 2.0, "Q_14": 5.0, "name": "LAKE CITY NURSING AND REHABILITATION CENTER LLC", "SF_14": 1.0, "SF_15": 1.0, "cnty": "Clayton", "st": "GA", "Zip": 30260.0, "O_14": 2.0, "Q_15": 5.0, "O_15": 2.0, "city": "LAKE CITY", "beds": 242.0, "SR_15": 1.0}, {"Diff_star": -1.0, "addr": "263 E MAY STREET", "SR_14": 2.0, "Q_14": 2.0, "name": "WINDER HEALTH CARE & REHAB CTR", "SF_14": 2.0, "SF_15": 2.0, "cnty": "Barrow", "st": "GA", "Zip": 30680.0, "O_14": 2.0, "Q_15": 1.0, "O_15": 1.0, "city": "WINDER", "beds": 163.0, "SR_15": 2.0}, {"Diff_star": 0.0, "addr": "415 AIRPORT ROAD", "SR_14": 3.0, "Q_14": 3.0, "name": "RENAISSANCE CENTER", "SF_14": 1.0, "SF_15": 1.0, "cnty": "Spalding", "st": "GA", "Zip": 30223.0, "O_14": 2.0, "Q_15": 2.0, "O_15": 2.0, "city": "GRIFFIN", "beds": 148.0, "SR_15": 3.0}, {"Diff_star": -1.0, "addr": "3460 POWDER SPRINGS ROAD", "SR_14": 4.0, "Q_14": 4.0, "name": "POWDER SPRINGS NURSING & REHAB CENTER", "SF_14": 1.0, "SF_15": 1.0, "cnty": "Cobb", "st": "GA", "Zip": 30127.0, "O_14": 3.0, "Q_15": 1.0, "O_15": 2.0, "city": "POWDER SPRINGS", "beds": 208.0, "SR_15": 4.0}, {"Diff_star": -1.0, "addr": "239 ARROWHEAD BOULEVARD", "SR_14": 1.0, "Q_14": 5.0, "name": "ARROWHEAD HEALTH AND REHAB", "SF_14": 3.0, "SF_15": 3.0, "cnty": "Clayton", "st": "GA", "Zip": 30236.0, "O_14": 2.0, "Q_15": 4.0, "O_15": 1.0, "city": "JONESBORO", "beds": 116.0, "SR_15": 1.0}, {"Diff_star": 0.0, "addr": "211 MATHIS AVENUE", "SR_14": 1.0, "Q_14": 5.0, "name": "TWIN VIEW HEALTH AND REHAB", "SF_14": 1.0, "SF_15": 1.0, "cnty": "Emanuel", "st": "GA", "Zip": 30471.0, "O_14": 2.0, "Q_15": 5.0, "O_15": 2.0, "city": "TWIN CITY", "beds": 110.0, "SR_15": 1.0}, {"Diff_star": 0.0, "addr": "402 E. BAY ST", "SR_14": 3.0, "Q_14": 3.0, "name": "CROSSVIEW CARE CENTER", "SF_14": 5.0, "SF_15": 5.0, "cnty": "Wilcox", "st": "GA", "Zip": 31071.0, "O_14": 4.0, "Q_15": 2.0, "O_15": 4.0, "city": "PINEVIEW", "beds": 102.0, "SR_15": 3.0}, {"Diff_star": -1.0, "addr": "1821 ANDERSON AVENUE NW", "SR_14": 1.0, "Q_14": 5.0, "name": "SADIE G. MAYS HEALTH & REHABILITATION CENTER", "SF_14": 3.0, "SF_15": 3.0, "cnty": "Fulton", "st": "GA", "Zip": 30314.0, "O_14": 2.0, "Q_15": 4.0, "O_15": 1.0, "city": "ATLANTA", "beds": 206.0, "SR_15": 1.0}, {"Diff_star": -2.0, "addr": "22 MAPLE RIDGE DRIVE S.E.", "SR_14": 2.0, "Q_14": 5.0, "name": "MAPLE RIDGE HEALTH CARE CENTER", "SF_14": 4.0, "SF_15": 3.0, "cnty": "Bartow", "st": "GA", "Zip": 30120.0, "O_14": 4.0, "Q_15": 4.0, "O_15": 2.0, "city": "CARTERSVILLE", "beds": 74.0, "SR_15": 2.0}, {"Diff_star": 0.0, "addr": "411 PINE STREET", "SR_14": 3.0, "Q_14": 4.0, "name": "SYL-VIEW HEALTH CARE CENTER", "SF_14": 1.0, "SF_15": 1.0, "cnty": "Screven", "st": "GA", "Zip": 30467.0, "O_14": 2.0, "Q_15": 2.0, "O_15": 2.0, "city": "SYLVANIA", "beds": 128.0, "SR_15": 3.0}, {"Diff_star": 0.0, "addr": "2650 HIGHWAY 138 SE", "SR_14": 1.0, "Q_14": 5.0, "name": "JONESBORO NURSING AND REHABILITATION CENTER", "SF_14": 1.0, "SF_15": 1.0, "cnty": "Clayton", "st": "GA", "Zip": 30236.0, "O_14": 2.0, "Q_15": 5.0, "O_15": 2.0, "city": "JONESBORO", "beds": 129.0, "SR_15": 1.0}, {"Diff_star": 0.0, "addr": "ONE SAVANNAH SQUARE DRIVE", "SR_14": 2.0, "Q_14": 4.0, "name": "SAVANNAH SQUARE HEALTH CENTER", "SF_14": 3.0, "SF_15": 3.0, "cnty": "Chatham", "st": "GA", "Zip": 31406.0, "O_14": 2.0, "Q_15": 4.0, "O_15": 2.0, "city": "SAVANNAH", "beds": 40.0, "SR_15": 2.0}, {"Diff_star": 0.0, "addr": "1000 DORSET ROAD", "SR_14": 3.0, "Q_14": 3.0, "name": "WESTVIEW NURSING & REHABILITATION CENTER", "SF_14": 1.0, "SF_15": 1.0, "cnty": "Chatham", "st": "GA", "Zip": 31407.0, "O_14": 2.0, "Q_15": 2.0, "O_15": 2.0, "city": "PORT WENTWORTH", "beds": 101.0, "SR_15": 3.0}, {"Diff_star": 0.0, "addr": "225 HOSPITAL STREET", "SR_14": 3.0, "Q_14": 5.0, "name": "LILLIAN G CARTER HEALTH AND REHABILITATION", "SF_14": 2.0, "SF_15": 2.0, "cnty": "Sumter", "st": "GA", "Zip": 31780.0, "O_14": 4.0, "Q_15": 5.0, "O_15": 4.0, "city": "PLAINS", "beds": 100.0, "SR_15": 3.0}, {"Diff_star": 0.0, "addr": "2775 CASTLEBERRY ROAD", "SR_14": 4.0, "Q_14": 5.0, "name": "CUMMING NURSING CENTER", "SF_14": 4.0, "SF_15": 4.0, "cnty": "Forsyth", "st": "GA", "Zip": 30041.0, "O_14": 5.0, "Q_15": 5.0, "O_15": 5.0, "city": "CUMMING", "beds": 87.0, "SR_15": 4.0}, {"Diff_star": -1.0, "addr": "801 ELBERTA RD", "SR_14": 3.0, "Q_14": 5.0, "name": "PEACHBELT HEALTH & REHAB CTR", "SF_14": 1.0, "SF_15": 1.0, "cnty": "Houston", "st": "GA", "Zip": 31093.0, "O_14": 3.0, "Q_15": 3.0, "O_15": 2.0, "city": "WARNER ROBINS", "beds": 106.0, "SR_15": 3.0}, {"Diff_star": -1.0, "addr": "652 COASTAL HIGHWAY 17 NORTH", "SR_14": 1.0, "Q_14": 5.0, "name": "WOODLANDS HEALTH CARE", "SF_14": 1.0, "SF_15": 1.0, "cnty": "Liberty", "st": "GA", "Zip": 31320.0, "O_14": 2.0, "Q_15": 4.0, "O_15": 1.0, "city": "MIDWAY", "beds": 169.0, "SR_15": 1.0}, {"Diff_star": 0.0, "addr": "2708 LEE STREET", "SR_14": 5.0, "Q_14": 5.0, "name": "GRACEMORE NURSING AND REHAB", "SF_14": 4.0, "SF_15": 4.0, "cnty": "Glynn", "st": "GA", "Zip": 31520.0, "O_14": 5.0, "Q_15": 5.0, "O_15": 5.0, "city": "BRUNSWICK", "beds": 60.0, "SR_15": 5.0}, {"Diff_star": 0.0, "addr": "2801 FELTON DRIVE", "SR_14": 1.0, "Q_14": 5.0, "name": "BONTERRA NURSING CENTER", "SF_14": 2.0, "SF_15": 2.0, "cnty": "Fulton", "st": "GA", "Zip": 30344.0, "O_14": 2.0, "Q_15": 5.0, "O_15": 2.0, "city": "EAST POINT", "beds": 118.0, "SR_15": 1.0}, {"Diff_star": 0.0, "addr": "3235 NEWMAN ROAD", "SR_14": 2.0, "Q_14": 4.0, "name": "BRIGHTMOOR HEALTH CARE, INC", "SF_14": 4.0, "SF_15": 4.0, "cnty": "Spalding", "st": "GA", "Zip": 30224.0, "O_14": 3.0, "Q_15": 2.0, "O_15": 3.0, "city": "GRIFFIN", "beds": 133.0, "SR_15": 2.0}, {"Diff_star": 0.0, "addr": "1234 HIGHWAY 301 SOUTH", "SR_14": 3.0, "Q_14": 3.0, "name": "DADE HEALTH AND REHAB", "SF_14": 3.0, "SF_15": 3.0, "cnty": "Dade", "st": "GA", "Zip": 30752.0, "O_14": 3.0, "Q_15": 3.0, "O_15": 3.0, "city": "TRENTON", "beds": 71.0, "SR_15": 3.0}, {"Diff_star": 0.0, "addr": "161 FRIENDSHIP ROAD", "SR_14": 5.0, "Q_14": 4.0, "name": "FRIENDSHIP HEALTH AND REHAB", "SF_14": 1.0, "SF_15": 1.0, "cnty": "White", "st": "GA", "Zip": 30528.0, "O_14": 4.0, "Q_15": 2.0, "O_15": 4.0, "city": "CLEVELAND", "beds": 89.0, "SR_15": 5.0}, {"Diff_star": 0.0, "addr": "3201 WESTMORELAND ROAD", "SR_14": 1.0, "Q_14": 4.0, "name": "GATEWAY HEALTH AND REHAB", "SF_14": 1.0, "SF_15": 1.0, "cnty": "White", "st": "GA", "Zip": 30528.0, "O_14": 1.0, "Q_15": 4.0, "O_15": 1.0, "city": "CLEVELAND", "beds": 60.0, "SR_15": 1.0}, {"Diff_star": 0.0, "addr": "4608 LAWRENCEVILLE HIGHWAY", "SR_14": 1.0, "Q_14": 4.0, "name": "MEADOWBROOK HEALTH AND REHAB", "SF_14": 2.0, "SF_15": 2.0, "cnty": "De Kalb", "st": "GA", "Zip": 30084.0, "O_14": 1.0, "Q_15": 2.0, "O_15": 1.0, "city": "TUCKER", "beds": 144.0, "SR_15": 1.0}, {"Diff_star": 0.0, "addr": "413 PENDLETON PLACE", "SR_14": 3.0, "Q_14": 4.0, "name": "PRUITTHEALTH - HOLLY HILL", "SF_14": 2.0, "SF_15": 2.0, "cnty": "Lowndes", "st": "GA", "Zip": 31602.0, "O_14": 3.0, "Q_15": 3.0, "O_15": 3.0, "city": "VALDOSTA", "beds": 100.0, "SR_15": 3.0}, {"Diff_star": -1.0, "addr": "922 MCDONOUGH ROAD", "SR_14": 2.0, "Q_14": 5.0, "name": "WESTBURY MEDICAL CARE HOME INC", "SF_14": 2.0, "SF_15": 2.0, "cnty": "Butts", "st": "GA", "Zip": 30233.0, "O_14": 3.0, "Q_15": 4.0, "O_15": 2.0, "city": "JACKSON", "beds": 196.0, "SR_15": 2.0}, {"Diff_star": 0.0, "addr": "712 PATTERSON STREET", "SR_14": 1.0, "Q_14": 5.0, "name": "PINEHILL NURSING CENTER", "SF_14": 1.0, "SF_15": 1.0, "cnty": "Dooly", "st": "GA", "Zip": 31007.0, "O_14": 2.0, "Q_15": 5.0, "O_15": 2.0, "city": "BYROMVILLE", "beds": 102.0, "SR_15": 1.0}, {"Diff_star": -1.0, "addr": "5160 SPRING VIEW AVENUE", "SR_14": 1.0, "Q_14": 4.0, "name": "ROSEMONT AT STONE MOUNTAIN", "SF_14": 4.0, "SF_15": 3.0, "cnty": "De Kalb", "st": "GA", "Zip": 30083.0, "O_14": 2.0, "Q_15": 2.0, "O_15": 1.0, "city": "STONE MOUNTAIN", "beds": 149.0, "SR_15": 1.0}, {"Diff_star": -1.0, "addr": "5131 WARM SPRINGS RD", "SR_14": 3.0, "Q_14": 5.0, "name": "RIVER TOWNE CENTER", "SF_14": 1.0, "SF_15": 1.0, "cnty": "Muscogee", "st": "GA", "Zip": 31909.0, "O_14": 3.0, "Q_15": 3.0, "O_15": 2.0, "city": "COLUMBUS", "beds": 210.0, "SR_15": 3.0}, {"Diff_star": -1.0, "addr": "902 BLACKSHEAR ROAD", "SR_14": 3.0, "Q_14": 4.0, "name": "CRISP REGIONAL NSG & REHAB CTR", "SF_14": 4.0, "SF_15": 3.0, "cnty": "Crisp", "st": "GA", "Zip": 31015.0, "O_14": 4.0, "Q_15": 3.0, "O_15": 3.0, "city": "CORDELE", "beds": 143.0, "SR_15": 3.0}, {"Diff_star": 0.0, "addr": "2850 SPRINGDALE ROAD SW", "SR_14": 3.0, "Q_14": 4.0, "name": "FOX GLOVE CENTER", "SF_14": 3.0, "SF_15": 3.0, "cnty": "Fulton", "st": "GA", "Zip": 30315.0, "O_14": 3.0, "Q_15": 4.0, "O_15": 3.0, "city": "ATLANTA", "beds": 109.0, "SR_15": 3.0}, {"Diff_star": -1.0, "addr": "804 SOUTH BROAD STREET BOX 1959", "SR_14": 4.0, "Q_14": 2.0, "name": "CAMELLIA GARDENS OF LIFE CARE", "SF_14": 4.0, "SF_15": 3.0, "cnty": "Thomas", "st": "GA", "Zip": 31792.0, "O_14": 4.0, "Q_15": 1.0, "O_15": 3.0, "city": "THOMASVILLE", "beds": 83.0, "SR_15": 4.0}, {"Diff_star": 0.0, "addr": "78 OPAL STREET", "SR_14": 5.0, "Q_14": 5.0, "name": "CARTERSVILLE HEIGHTS", "SF_14": 3.0, "SF_15": 3.0, "cnty": "Bartow", "st": "GA", "Zip": 30120.0, "O_14": 5.0, "Q_15": 5.0, "O_15": 5.0, "city": "CARTERSVILLE", "beds": 118.0, "SR_15": 5.0}, {"Diff_star": 0.0, "addr": "7300 LESTER ROAD", "SR_14": 4.0, "Q_14": 5.0, "name": "CHRISTIAN CITY REHABILITATION CENTER", "SF_14": 4.0, "SF_15": 4.0, "cnty": "Fulton", "st": "GA", "Zip": 30291.0, "O_14": 5.0, "Q_15": 5.0, "O_15": 5.0, "city": "UNION CITY", "beds": 200.0, "SR_15": 4.0}, {"Diff_star": -1.0, "addr": "142 MEMORIAL DRIVE", "SR_14": 1.0, "Q_14": 5.0, "name": "TATTNALL HEALTHCARE CENTER", "SF_14": 1.0, "SF_15": 1.0, "cnty": "Tattnall", "st": "GA", "Zip": 30453.0, "O_14": 2.0, "Q_15": 3.0, "O_15": 1.0, "city": "REIDSVILLE", "beds": 92.0, "SR_15": 1.0}, {"Diff_star": 0.0, "addr": "119 OAKVIEW STREET", "SR_14": 2.0, "Q_14": 4.0, "name": "OAK VIEW HOME, INC", "SF_14": 1.0, "SF_15": 1.0, "cnty": "Harris", "st": "GA", "Zip": 31831.0, "O_14": 1.0, "Q_15": 3.0, "O_15": 1.0, "city": "WAVERLY HALL", "beds": 100.0, "SR_15": 2.0}, {"Diff_star": 0.0, "addr": "1311 WEST CHERRY STREET", "SR_14": 3.0, "Q_14": 4.0, "name": "ALTAMAHA HEALTHCARE CENTER", "SF_14": 1.0, "SF_15": 1.0, "cnty": "Wayne", "st": "GA", "Zip": 31545.0, "O_14": 2.0, "Q_15": 3.0, "O_15": 2.0, "city": "JESUP", "beds": 62.0, "SR_15": 3.0}, {"Diff_star": -1.0, "addr": "313 ALLEN MEMORIAL DRIVE,SW", "SR_14": 4.0, "Q_14": 5.0, "name": "GREEN ACRES HEALTH AND REHABILITATION", "SF_14": 1.0, "SF_15": 1.0, "cnty": "Baldwin", "st": "GA", "Zip": 31061.0, "O_14": 4.0, "Q_15": 4.0, "O_15": 3.0, "city": "MILLEDGEVILLE", "beds": 98.0, "SR_15": 4.0}, {"Diff_star": 0.0, "addr": "1765 TEMPLE AVENUE", "SR_14": 3.0, "Q_14": 4.0, "name": "COLLEGE PARK HEALTH CARE CTR", "SF_14": 1.0, "SF_15": 1.0, "cnty": "Fulton", "st": "GA", "Zip": 30337.0, "O_14": 2.0, "Q_15": 3.0, "O_15": 2.0, "city": "COLLEGE PARK", "beds": 100.0, "SR_15": 3.0}, {"Diff_star": 0.0, "addr": "1480 SANDTOWN ROAD", "SR_14": 2.0, "Q_14": 3.0, "name": "AUTUMN BREEZE HEALTH CARE CTR", "SF_14": 1.0, "SF_15": 1.0, "cnty": "Cobb", "st": "GA", "Zip": 30008.0, "O_14": 1.0, "Q_15": 2.0, "O_15": 1.0, "city": "MARIETTA", "beds": 109.0, "SR_15": 2.0}, {"Diff_star": 0.0, "addr": "2255 FREDERICA ROAD", "SR_14": 1.0, "Q_14": 4.0, "name": "MAGNOLIA MANOR OF ST SIMONS REHAB & NURSING CENTER", "SF_14": 2.0, "SF_15": 2.0, "cnty": "Glynn", "st": "GA", "Zip": 31522.0, "O_14": 1.0, "Q_15": 2.0, "O_15": 1.0, "city": "SAINT SIMONS ISLAND", "beds": 125.0, "SR_15": 1.0}, {"Diff_star": 0.0, "addr": "1280 MAULDIN ROAD NE", "SR_14": 5.0, "Q_14": 5.0, "name": "GORDON HEALTH AND REHABILITATION", "SF_14": 3.0, "SF_15": 3.0, "cnty": "Gordon", "st": "GA", "Zip": 30703.0, "O_14": 5.0, "Q_15": 5.0, "O_15": 5.0, "city": "CALHOUN", "beds": 117.0, "SR_15": 5.0}, {"Diff_star": 0.0, "addr": "460 AUBURN AVENUE N.E.", "SR_14": 4.0, "Q_14": 5.0, "name": "LEGACY NURSING & REHABILITATION CENTER", "SF_14": 2.0, "SF_15": 2.0, "cnty": "Fulton", "st": "GA", "Zip": 30312.0, "O_14": 5.0, "Q_15": 5.0, "O_15": 5.0, "city": "ATLANTA", "beds": 186.0, "SR_15": 4.0}, {"Diff_star": 0.0, "addr": "277 COMMERCE STREET", "SR_14": 1.0, "Q_14": 5.0, "name": "PINEWOOD MANOR NURSING HOME & REHABILITATION CNTR", "SF_14": 4.0, "SF_15": 4.0, "cnty": "Pulaski", "st": "GA", "Zip": 31036.0, "O_14": 2.0, "Q_15": 3.0, "O_15": 2.0, "city": "HAWKINSVILLE", "beds": 102.0, "SR_15": 1.0}, {"Diff_star": 0.0, "addr": "144 DEPOT STREET", "SR_14": 5.0, "Q_14": 4.0, "name": "SOUTHERN TRADITIONS", "SF_14": 3.0, "SF_15": 3.0, "cnty": "Haralson", "st": "GA", "Zip": 30113.0, "O_14": 5.0, "Q_15": 2.0, "O_15": 5.0, "city": "BUCHANAN", "beds": 60.0, "SR_15": 5.0}, {"Diff_star": 0.0, "addr": "4148 CARROLL STREET", "SR_14": 1.0, "Q_14": 5.0, "name": "PRUITTHEALTH - COVINGTON", "SF_14": 2.0, "SF_15": 2.0, "cnty": "Newton", "st": "GA", "Zip": 30015.0, "O_14": 2.0, "Q_15": 5.0, "O_15": 2.0, "city": "COVINGTON", "beds": 71.0, "SR_15": 1.0}, {"Diff_star": -1.0, "addr": "233 CARROLLTON  STREET", "SR_14": 3.0, "Q_14": 3.0, "name": "COUNTRYSIDE HEALTH CENTER", "SF_14": 1.0, "SF_15": 1.0, "cnty": "Haralson", "st": "GA", "Zip": 30113.0, "O_14": 2.0, "Q_15": 1.0, "O_15": 1.0, "city": "BUCHANAN", "beds": 62.0, "SR_15": 3.0}, {"Diff_star": -1.0, "addr": "12884 CLEVELAND STREET WEST", "SR_14": 4.0, "Q_14": 3.0, "name": "BAYVIEW NURSING HOME", "SF_14": 3.0, "SF_15": 3.0, "cnty": "Brantley", "st": "GA", "Zip": 31553.0, "O_14": 4.0, "Q_15": 1.0, "O_15": 3.0, "city": "NAHUNTA", "beds": 63.0, "SR_15": 4.0}, {"Diff_star": -1.0, "addr": "125 SPARTA HIGHWAY 16 EAST", "SR_14": 3.0, "Q_14": 3.0, "name": "EATONTON HEALTH AND REHABILITATION", "SF_14": 2.0, "SF_15": 2.0, "cnty": "Putnam", "st": "GA", "Zip": 31024.0, "O_14": 3.0, "Q_15": 1.0, "O_15": 2.0, "city": "EATONTON", "beds": 104.0, "SR_15": 3.0}, {"Diff_star": 0.0, "addr": "2165 IDLEWOOD ROAD", "SR_14": 1.0, "Q_14": 5.0, "name": "GRACE HEALTHCARE OF TUCKER", "SF_14": 1.0, "SF_15": 1.0, "cnty": "De Kalb", "st": "GA", "Zip": 30084.0, "O_14": 2.0, "Q_15": 5.0, "O_15": 2.0, "city": "TUCKER", "beds": 136.0, "SR_15": 1.0}, {"Diff_star": -1.0, "addr": "307 JONES MILL ROAD", "SR_14": 4.0, "Q_14": 4.0, "name": "HERITAGE INN HEALTH AND REHABILITATION", "SF_14": 1.0, "SF_15": 1.0, "cnty": "Bulloch", "st": "GA", "Zip": 30458.0, "O_14": 3.0, "Q_15": 1.0, "O_15": 2.0, "city": "STATESBORO", "beds": 92.0, "SR_15": 4.0}, {"Diff_star": -1.0, "addr": "700 EAST LONG STREET", "SR_14": 3.0, "Q_14": 3.0, "name": "CAMELLIA HEALTH & REHABILITATION", "SF_14": 2.0, "SF_15": 2.0, "cnty": "Evans", "st": "GA", "Zip": 30417.0, "O_14": 3.0, "Q_15": 1.0, "O_15": 2.0, "city": "CLAXTON", "beds": 87.0, "SR_15": 3.0}, {"Diff_star": 0.0, "addr": "349 GENEVA ROAD", "SR_14": 2.0, "Q_14": 4.0, "name": "MAGNOLIA MANOR OF MARION COUNTY", "SF_14": 1.0, "SF_15": 1.0, "cnty": "Marion", "st": "GA", "Zip": 31803.0, "O_14": 1.0, "Q_15": 4.0, "O_15": 1.0, "city": "BUENA VISTA", "beds": 70.0, "SR_15": 2.0}, {"Diff_star": 0.0, "addr": "2451 PEACHTREE INDUSTRIAL BLVD", "SR_14": 2.0, "Q_14": 4.0, "name": "PRUITTHEALTH - LANIER", "SF_14": 1.0, "SF_15": 1.0, "cnty": "Gwinnett", "st": "GA", "Zip": 30518.0, "O_14": 1.0, "Q_15": 4.0, "O_15": 1.0, "city": "BUFORD", "beds": 117.0, "SR_15": 2.0}, {"Diff_star": 0.0, "addr": "101 STOCKYARD ROAD", "SR_14": 2.0, "Q_14": 4.0, "name": "WESTWOOD NURSING CENTER", "SF_14": 1.0, "SF_15": 1.0, "cnty": "Bulloch", "st": "GA", "Zip": 30458.0, "O_14": 1.0, "Q_15": 4.0, "O_15": 1.0, "city": "STATESBORO", "beds": 60.0, "SR_15": 2.0}, {"Diff_star": 0.0, "addr": "5995 SPRING STREET", "SR_14": 5.0, "Q_14": 4.0, "name": "WARM SPRINGS MEDICAL CENTER NURSING HOME", "SF_14": 3.0, "SF_15": 3.0, "cnty": "Meriwether", "st": "GA", "Zip": 31830.0, "O_14": 5.0, "Q_15": 4.0, "O_15": 5.0, "city": "WARM SPRINGS", "beds": 79.0, "SR_15": 5.0}, {"Diff_star": 0.0, "addr": "226 SOUTH COLLEGE STREET", "SR_14": 2.0, "Q_14": 3.0, "name": "BROWN'S HEALTH & REHAB CENTER", "SF_14": 1.0, "SF_15": 1.0, "cnty": "Bulloch", "st": "GA", "Zip": 30458.0, "O_14": 1.0, "Q_15": 2.0, "O_15": 1.0, "city": "STATESBORO", "beds": 63.0, "SR_15": 2.0}, {"Diff_star": 0.0, "addr": "1910 DOROTHY STREET", "SR_14": 3.0, "Q_14": 4.0, "name": "WAYCROSS HEALTH AND REHABILITATION", "SF_14": 3.0, "SF_15": 3.0, "cnty": "Ware", "st": "GA", "Zip": 31501.0, "O_14": 3.0, "Q_15": 2.0, "O_15": 3.0, "city": "WAYCROSS", "beds": 92.0, "SR_15": 3.0}, {"Diff_star": -1.0, "addr": "321 HOSPITAL ROAD", "SR_14": 4.0, "Q_14": 2.0, "name": "CANTON NURSING CENTER", "SF_14": 2.0, "SF_15": 2.0, "cnty": "Cherokee", "st": "GA", "Zip": 30114.0, "O_14": 4.0, "Q_15": 1.0, "O_15": 3.0, "city": "CANTON", "beds": 100.0, "SR_15": 4.0}, {"Diff_star": 0.0, "addr": "433 NORTH MCGRIFF STREET", "SR_14": 2.0, "Q_14": 2.0, "name": "PINEWOOD NURSING CENTER", "SF_14": 1.0, "SF_15": 1.0, "cnty": "Grady", "st": "GA", "Zip": 39897.0, "O_14": 1.0, "Q_15": 1.0, "O_15": 1.0, "city": "WHIGHAM", "beds": 142.0, "SR_15": 2.0}, {"Diff_star": 0.0, "addr": "209 WEST HUDSON STREET", "SR_14": 2.0, "Q_14": 4.0, "name": "PRUITTHEALTH - OCILLA", "SF_14": 1.0, "SF_15": 1.0, "cnty": "Irwin", "st": "GA", "Zip": 31774.0, "O_14": 1.0, "Q_15": 4.0, "O_15": 1.0, "city": "OCILLA", "beds": 83.0, "SR_15": 2.0}, {"Diff_star": 0.0, "addr": "5353 REYNOLDS STREET", "SR_14": 4.0, "Q_14": 3.0, "name": "CANDLER SKILLED NURSING UNIT", "SF_14": 4.0, "SF_15": 4.0, "cnty": "Chatham", "st": "GA", "Zip": 31405.0, "O_14": 4.0, "Q_15": 4.0, "O_15": 4.0, "city": "SAVANNAH", "beds": 11.0, "SR_15": 4.0}, {"Diff_star": 0.0, "addr": "1310 WEST  GORDON STREET", "SR_14": 4.0, "Q_14": 3.0, "name": "SHADY ACRES HEALTH AND REHABILITATION", "SF_14": 3.0, "SF_15": 3.0, "cnty": "Coffee", "st": "GA", "Zip": 31533.0, "O_14": 4.0, "Q_15": 2.0, "O_15": 4.0, "city": "DOUGLAS", "beds": 168.0, "SR_15": 4.0}, {"Diff_star": -1.0, "addr": "1601 ELBERTA ROAD", "SR_14": 1.0, "Q_14": 5.0, "name": "WARNER ROBINS REHABILITATION CENTER", "SF_14": 1.0, "SF_15": 1.0, "cnty": "Houston", "st": "GA", "Zip": 31088.0, "O_14": 2.0, "Q_15": 4.0, "O_15": 1.0, "city": "WARNER ROBINS", "beds": 126.0, "SR_15": 1.0}, {"Diff_star": -1.0, "addr": "434 BEALL SPRINGS ROAD", "SR_14": 3.0, "Q_14": 4.0, "name": "GIBSON HEALTH AND REHABILITATION", "SF_14": 1.0, "SF_15": 1.0, "cnty": "Glascock", "st": "GA", "Zip": 30810.0, "O_14": 2.0, "Q_15": 4.0, "O_15": 1.0, "city": "GIBSON", "beds": 104.0, "SR_15": 2.0}, {"Diff_star": 0.0, "addr": "214 MAIN STREET", "SR_14": 3.0, "Q_14": 5.0, "name": "LEE COUNTY HEALTH AND REHABILITATION", "SF_14": 1.0, "SF_15": 1.0, "cnty": "Lee", "st": "GA", "Zip": 31763.0, "O_14": 3.0, "Q_15": 5.0, "O_15": 3.0, "city": "LEESBURG", "beds": 60.0, "SR_15": 3.0}, {"Diff_star": -1.0, "addr": "2650 CARSWELL AVE", "SR_14": 4.0, "Q_14": 5.0, "name": "BAPTIST VILLAGE, INC.", "SF_14": 4.0, "SF_15": 4.0, "cnty": "Ware", "st": "GA", "Zip": 31502.0, "O_14": 5.0, "Q_15": 3.0, "O_15": 4.0, "city": "WAYCROSS", "beds": 254.0, "SR_15": 4.0}, {"Diff_star": 0.0, "addr": "360 SOUTH RIVER ROAD", "SR_14": 4.0, "Q_14": 4.0, "name": "PRUITTHEALTH - FRANKLIN", "SF_14": 2.0, "SF_15": 2.0, "cnty": "Heard", "st": "GA", "Zip": 30217.0, "O_14": 4.0, "Q_15": 4.0, "O_15": 4.0, "city": "FRANKLIN", "beds": 78.0, "SR_15": 4.0}, {"Diff_star": 0.0, "addr": "185 BOWEN'S MILL HIGHWAY", "SR_14": 4.0, "Q_14": 3.0, "name": "PRUITTHEALTH - FITZGERALD", "SF_14": 3.0, "SF_15": 3.0, "cnty": "Ben Hill", "st": "GA", "Zip": 31750.0, "O_14": 4.0, "Q_15": 3.0, "O_15": 4.0, "city": "FITZGERALD", "beds": 78.0, "SR_15": 4.0}, {"Diff_star": 0.0, "addr": "405 S COLLEGE ST", "SR_14": 1.0, "Q_14": 4.0, "name": "EAGLE HEALTH & REHABILITATION", "SF_14": 3.0, "SF_15": 3.0, "cnty": "Bulloch", "st": "GA", "Zip": 30458.0, "O_14": 1.0, "Q_15": 3.0, "O_15": 1.0, "city": "STATESBORO", "beds": 99.0, "SR_15": 1.0}, {"Diff_star": 0.0, "addr": "721 NORTH VETERANS BLVD", "SR_14": 1.0, "Q_14": 3.0, "name": "GLENVUE HEALTH AND REHABILITATION", "SF_14": 3.0, "SF_15": 3.0, "cnty": "Tattnall", "st": "GA", "Zip": 30427.0, "O_14": 1.0, "Q_15": 1.0, "O_15": 1.0, "city": "GLENNVILLE", "beds": 160.0, "SR_15": 1.0}, {"Diff_star": -1.0, "addr": "127 CARTER ST", "SR_14": 2.0, "Q_14": 3.0, "name": "BRYAN COUNTY HLTH & REHAB CTR", "SF_14": 2.0, "SF_15": 2.0, "cnty": "Bryan", "st": "GA", "Zip": 31324.0, "O_14": 2.0, "Q_15": 1.0, "O_15": 1.0, "city": "RICHMOND HILL", "beds": 100.0, "SR_15": 2.0}, {"Diff_star": 0.0, "addr": "556 CHESTER HIGHWAY", "SR_14": 2.0, "Q_14": 4.0, "name": "EASTMAN HEALTHCARE & REHAB", "SF_14": 1.0, "SF_15": 1.0, "cnty": "Dodge", "st": "GA", "Zip": 31023.0, "O_14": 1.0, "Q_15": 3.0, "O_15": 1.0, "city": "EASTMAN", "beds": 100.0, "SR_15": 2.0}, {"Diff_star": 0.0, "addr": "206 MAIN STREET EAST", "SR_14": 2.0, "Q_14": 4.0, "name": "ABBEVILLE HEALTHCARE & REHAB", "SF_14": 2.0, "SF_15": 2.0, "cnty": "Wilcox", "st": "GA", "Zip": 31001.0, "O_14": 2.0, "Q_15": 2.0, "O_15": 2.0, "city": "ABBEVILLE", "beds": 101.0, "SR_15": 2.0}, {"Diff_star": 0.0, "addr": "3223 FALLIGANT AVENUE", "SR_14": 2.0, "Q_14": 4.0, "name": "TARA AT THUNDERBOLT NSG & REHA", "SF_14": 2.0, "SF_15": 2.0, "cnty": "Chatham", "st": "GA", "Zip": 31404.0, "O_14": 2.0, "Q_15": 3.0, "O_15": 2.0, "city": "THUNDERBOLT", "beds": 134.0, "SR_15": 2.0}, {"Diff_star": 0.0, "addr": "223 W.THIRD AVENUE", "SR_14": 1.0, "Q_14": 3.0, "name": "WYNFIELD PARK HEALTH AND REHABILITATION", "SF_14": 1.0, "SF_15": 1.0, "cnty": "Dougherty", "st": "GA", "Zip": 31701.0, "O_14": 1.0, "Q_15": 2.0, "O_15": 1.0, "city": "ALBANY", "beds": 252.0, "SR_15": 1.0}, {"Diff_star": -1.0, "addr": "180 BURKETT FERRY ROAD", "SR_14": 1.0, "Q_14": 5.0, "name": "HAZELHURST CENTER", "SF_14": 1.0, "SF_15": 1.0, "cnty": "Jeff Davis", "st": "GA", "Zip": 31539.0, "O_14": 2.0, "Q_15": 3.0, "O_15": 1.0, "city": "HAZLEHURST", "beds": 73.0, "SR_15": 1.0}, {"Diff_star": -1.0, "addr": "777 NURSING HOME ROAD", "SR_14": 4.0, "Q_14": 3.0, "name": "OAKS NURSING HOME, INC, THE", "SF_14": 2.0, "SF_15": 2.0, "cnty": "Macon", "st": "GA", "Zip": 31057.0, "O_14": 4.0, "Q_15": 1.0, "O_15": 3.0, "city": "MARSHALLVILLE", "beds": 60.0, "SR_15": 4.0}, {"Diff_star": 0.0, "addr": "1904 PALMYRA ROAD", "SR_14": 2.0, "Q_14": 4.0, "name": "PRUITTHEALTH - PALMYRA", "SF_14": 3.0, "SF_15": 3.0, "cnty": "Dougherty", "st": "GA", "Zip": 31702.0, "O_14": 2.0, "Q_15": 2.0, "O_15": 2.0, "city": "ALBANY", "beds": 250.0, "SR_15": 2.0}, {"Diff_star": 0.0, "addr": "104 MONK STREET", "SR_14": 2.0, "Q_14": 4.0, "name": "PRUITTHEALTH - SYLVESTER", "SF_14": 3.0, "SF_15": 3.0, "cnty": "Worth", "st": "GA", "Zip": 31791.0, "O_14": 2.0, "Q_15": 2.0, "O_15": 2.0, "city": "SYLVESTER", "beds": 117.0, "SR_15": 2.0}, {"Diff_star": -1.0, "addr": "36261 NORTH OKEFENOKEE DRIVE", "SR_14": 1.0, "Q_14": 5.0, "name": "FOLKSTON PARK", "SF_14": 1.0, "SF_15": 1.0, "cnty": "Charlton", "st": "GA", "Zip": 31537.0, "O_14": 2.0, "Q_15": 4.0, "O_15": 1.0, "city": "FOLKSTON", "beds": 92.0, "SR_15": 1.0}, {"Diff_star": -1.0, "addr": "165 WINSTON DRIVE", "SR_14": 2.0, "Q_14": 5.0, "name": "PRUITTHEALTH - GRANDVIEW", "SF_14": 1.0, "SF_15": 1.0, "cnty": "Clarke", "st": "GA", "Zip": 30607.0, "O_14": 2.0, "Q_15": 4.0, "O_15": 1.0, "city": "ATHENS", "beds": 100.0, "SR_15": 2.0}, {"Diff_star": -1.0, "addr": "26 VAN HORNE STREET", "SR_14": 2.0, "Q_14": 5.0, "name": "SAVANNAH BEACH HEALTH & REHAB", "SF_14": 4.0, "SF_15": 3.0, "cnty": "Chatham", "st": "GA", "Zip": 31328.0, "O_14": 4.0, "Q_15": 5.0, "O_15": 3.0, "city": "TYBEE ISLAND", "beds": 50.0, "SR_15": 2.0}, {"Diff_star": 0.0, "addr": "390 SWEAT STREET", "SR_14": 1.0, "Q_14": 4.0, "name": "CLINCH HEALTHCARE CENTER", "SF_14": 1.0, "SF_15": 1.0, "cnty": "Clinch", "st": "GA", "Zip": 31634.0, "O_14": 1.0, "Q_15": 1.0, "O_15": 1.0, "city": "HOMERVILLE", "beds": 92.0, "SR_15": 1.0}, {"Diff_star": 0.0, "addr": "3051 WHITESIDE ROAD", "SR_14": 1.0, "Q_14": 4.0, "name": "PORTER FIELD HEALTH & REHAB CENTER LLC", "SF_14": 1.0, "SF_15": 1.0, "cnty": "Bibb", "st": "GA", "Zip": 31216.0, "O_14": 1.0, "Q_15": 2.0, "O_15": 1.0, "city": "MACON", "beds": 143.0, "SR_15": 1.0}, {"Diff_star": 0.0, "addr": "2455 OAK GROVE CHURCH ROAD", "SR_14": 4.0, "Q_14": 3.0, "name": "CARROLLTON MANOR, INCORPORATED", "SF_14": 1.0, "SF_15": 1.0, "cnty": "Carroll", "st": "GA", "Zip": 30117.0, "O_14": 3.0, "Q_15": 2.0, "O_15": 3.0, "city": "CARROLLTON", "beds": 100.0, "SR_15": 4.0}, {"Diff_star": 0.0, "addr": "11705 MERCY BOULEVARD", "SR_14": 4.0, "Q_14": 3.0, "name": "ST JOSEPH'S TRANSITIONAL CARE UNIT", "SF_14": "", "SF_15": "", "cnty": "Chatham", "st": "GA", "Zip": 31419.0, "O_14": 4.0, "Q_15": 2.0, "O_15": 4.0, "city": "SAVANNAH", "beds": 11.0, "SR_15": 4.0}, {"Diff_star": 0.0, "addr": "6711 LAROCHE AVENUE", "SR_14": 1.0, "Q_14": 3.0, "name": "RIVERVIEW HEALTH & REHAB CTR", "SF_14": 1.0, "SF_15": 3.0, "cnty": "Chatham", "st": "GA", "Zip": 31406.0, "O_14": 1.0, "Q_15": 1.0, "O_15": 1.0, "city": "SAVANNAH", "beds": 284.0, "SR_15": 2.0}, {"Diff_star": -1.0, "addr": "300 CEDAR ROAD", "SR_14": 4.0, "Q_14": 3.0, "name": "AZALEA HEALTH AND REHABILITATION", "SF_14": 2.0, "SF_15": 2.0, "cnty": "Candler", "st": "GA", "Zip": 30439.0, "O_14": 4.0, "Q_15": 1.0, "O_15": 3.0, "city": "METTER", "beds": 89.0, "SR_15": 4.0}, {"Diff_star": -1.0, "addr": "3000 LENORA CHURCH DRIVE", "SR_14": 3.0, "Q_14": 5.0, "name": "SCEPTER HEALTH & REHAB OF SNELLVILLE,  LLC", "SF_14": 2.0, "SF_15": 2.0, "cnty": "Gwinnett", "st": "GA", "Zip": 30078.0, "O_14": 4.0, "Q_15": 3.0, "O_15": 3.0, "city": "SNELLVILLE", "beds": 167.0, "SR_15": 3.0}, {"Diff_star": -1.0, "addr": "1005 HWY. 88 NORTH", "SR_14": 1.0, "Q_14": 5.0, "name": "KEYSVILLE NURSING HOME & REHAB CENTER", "SF_14": 2.0, "SF_15": 2.0, "cnty": "Burke", "st": "GA", "Zip": 30816.0, "O_14": 2.0, "Q_15": 4.0, "O_15": 1.0, "city": "KEYSVILLE", "beds": 64.0, "SR_15": 1.0}, {"Diff_star": 0.0, "addr": "650 PROFESSIONAL DRIVE", "SR_14": 4.0, "Q_14": 5.0, "name": "GWINNETT EXTENDED CARE CENTER", "SF_14": 4.0, "SF_15": 3.0, "cnty": "Gwinnett", "st": "GA", "Zip": 30046.0, "O_14": 5.0, "Q_15": 5.0, "O_15": 5.0, "city": "LAWRENCEVILLE", "beds": 89.0, "SR_15": 4.0}, {"Diff_star": 0.0, "addr": "3200 PANTHERSVILLE ROAD", "SR_14": 2.0, "Q_14": 4.0, "name": "PRUITTHEALTH - DECATUR", "SF_14": 4.0, "SF_15": 4.0, "cnty": "De Kalb", "st": "GA", "Zip": 30034.0, "O_14": 3.0, "Q_15": 4.0, "O_15": 3.0, "city": "DECATUR", "beds": 146.0, "SR_15": 2.0}, {"Diff_star": 0.0, "addr": "821 NORTH COBB ST", "SR_14": 4.0, "Q_14": 5.0, "name": "OCONEE REG MC SKILLED NSG UNIT", "SF_14": 5.0, "SF_15": 5.0, "cnty": "Baldwin", "st": "GA", "Zip": 31061.0, "O_14": 5.0, "Q_15": 5.0, "O_15": 5.0, "city": "MILLEDGEVILLE", "beds": 15.0, "SR_15": 4.0}, {"Diff_star": -1.0, "addr": "604 BLUEBIRD BOULEVARD", "SR_14": 3.0, "Q_14": 3.0, "name": "FORT VALLEY HEALTH AND REHAB", "SF_14": 1.0, "SF_15": 1.0, "cnty": "Peach", "st": "GA", "Zip": 31030.0, "O_14": 2.0, "Q_15": 1.0, "O_15": 1.0, "city": "FORT VALLEY", "beds": 75.0, "SR_15": 3.0}, {"Diff_star": 0.0, "addr": "3520 KENNETH DRIVE", "SR_14": 5.0, "Q_14": 5.0, "name": "CHERRY BLOSSOM HEALTH AND REHABILITATION", "SF_14": 2.0, "SF_15": 2.0, "cnty": "Bibb", "st": "GA", "Zip": 31206.0, "O_14": 5.0, "Q_15": 5.0, "O_15": 5.0, "city": "MACON", "beds": 82.0, "SR_15": 5.0}, {"Diff_star": 0.0, "addr": "176 LINCOLN AVE", "SR_14": 2.0, "Q_14": 4.0, "name": "LIFE CARE CENTER", "SF_14": 1.0, "SF_15": 1.0, "cnty": "Ben Hill", "st": "GA", "Zip": 31750.0, "O_14": 1.0, "Q_15": 2.0, "O_15": 1.0, "city": "FITZGERALD", "beds": 167.0, "SR_15": 2.0}, {"Diff_star": 0.0, "addr": "706 NORTH PARRISH AVE .", "SR_14": 1.0, "Q_14": 4.0, "name": "COOK SENIOR LIVING CENTER", "SF_14": 3.0, "SF_15": 3.0, "cnty": "Cook", "st": "GA", "Zip": 31620.0, "O_14": 1.0, "Q_15": 2.0, "O_15": 1.0, "city": "ADEL", "beds": 95.0, "SR_15": 1.0}, {"Diff_star": 0.0, "addr": "3020 JEFFERSONVILLE ROAD", "SR_14": 3.0, "Q_14": 4.0, "name": "EASTVIEW NURSING CENTER", "SF_14": 1.0, "SF_15": 1.0, "cnty": "Bibb", "st": "GA", "Zip": 31217.0, "O_14": 2.0, "Q_15": 3.0, "O_15": 2.0, "city": "MACON", "beds": 92.0, "SR_15": 3.0}, {"Diff_star": 0.0, "addr": "419 ELBERTA ROAD", "SR_14": 4.0, "Q_14": 4.0, "name": "ELBERTA HEALTH CARE", "SF_14": 2.0, "SF_15": 2.0, "cnty": "Houston", "st": "GA", "Zip": 31093.0, "O_14": 4.0, "Q_15": 2.0, "O_15": 4.0, "city": "WARNER ROBINS", "beds": 66.0, "SR_15": 4.0}, {"Diff_star": -1.0, "addr": "99 HILLHAVEN RD.", "SR_14": 3.0, "Q_14": 5.0, "name": "PRUITTHEALTH - GREENVILLE", "SF_14": 3.0, "SF_15": 3.0, "cnty": "Meriwether", "st": "GA", "Zip": 30222.0, "O_14": 4.0, "Q_15": 3.0, "O_15": 3.0, "city": "GREENVILLE", "beds": 113.0, "SR_15": 3.0}, {"Diff_star": 0.0, "addr": "210 COLLINS INDUSTRIAL WAY", "SR_14": 2.0, "Q_14": 5.0, "name": "LIFE CARE CTR OF LAWRENCEVILLE", "SF_14": 1.0, "SF_15": 1.0, "cnty": "Gwinnett", "st": "GA", "Zip": 30045.0, "O_14": 2.0, "Q_15": 5.0, "O_15": 2.0, "city": "LAWRENCEVILLE", "beds": 125.0, "SR_15": 2.0}, {"Diff_star": 0.0, "addr": "613 ROSELANE STREET", "SR_14": 2.0, "Q_14": 4.0, "name": "GOLDEN LIVINGCENTER - KENNESTONE", "SF_14": 3.0, "SF_15": 3.0, "cnty": "Cobb", "st": "GA", "Zip": 30064.0, "O_14": 2.0, "Q_15": 4.0, "O_15": 2.0, "city": "MARIETTA", "beds": 137.0, "SR_15": 2.0}, {"Diff_star": -1.0, "addr": "1212 BROADRICK DRIVE", "SR_14": 5.0, "Q_14": 3.0, "name": "REGENCY PARK HEALTH AND REHABILITATION", "SF_14": 4.0, "SF_15": 4.0, "cnty": "Whitfield", "st": "GA", "Zip": 30720.0, "O_14": 5.0, "Q_15": 1.0, "O_15": 4.0, "city": "DALTON", "beds": 100.0, "SR_15": 5.0}, {"Diff_star": 0.0, "addr": "128 COASTAL MANOR DRIVE SE", "SR_14": 4.0, "Q_14": 4.0, "name": "COASTAL MANOR", "SF_14": 2.0, "SF_15": 2.0, "cnty": "Long", "st": "GA", "Zip": 31316.0, "O_14": 4.0, "Q_15": 2.0, "O_15": 4.0, "city": "LUDOWICI", "beds": 108.0, "SR_15": 4.0}, {"Diff_star": -1.0, "addr": "101 COBBLESTONE TRACE, SE", "SR_14": 4.0, "Q_14": 3.0, "name": "AGAPE HEALTH & REHAB OF MOULTRIE, LLC", "SF_14": 2.0, "SF_15": 2.0, "cnty": "Colquitt", "st": "GA", "Zip": 31768.0, "O_14": 4.0, "Q_15": 1.0, "O_15": 3.0, "city": "MOULTRIE", "beds": 59.0, "SR_15": 4.0}, {"Diff_star": 0.0, "addr": "2709 S MAIN STREET", "SR_14": 5.0, "Q_14": 5.0, "name": "PRUITTHEALTH - SUNRISE", "SF_14": 2.0, "SF_15": 2.0, "cnty": "Colquitt", "st": "GA", "Zip": 31768.0, "O_14": 5.0, "Q_15": 3.0, "O_15": 5.0, "city": "MOULTRIE", "beds": 60.0, "SR_15": 5.0}, {"Diff_star": 0.0, "addr": "1510 RENIASSANCE DRIVE", "SR_14": 5.0, "Q_14": 4.0, "name": "ROCKDALE HEALTHCARE CENTER", "SF_14": 1.0, "SF_15": 1.0, "cnty": "Rockdale", "st": "GA", "Zip": 30012.0, "O_14": 4.0, "Q_15": 2.0, "O_15": 4.0, "city": "CONYERS", "beds": 102.0, "SR_15": 5.0}, {"Diff_star": 0.0, "addr": "12 SMITH LANE", "SR_14": 3.0, "Q_14": 4.0, "name": "SCOTT HEALTH & REHABILITATION", "SF_14": 1.0, "SF_15": 1.0, "cnty": "Johnson", "st": "GA", "Zip": 31002.0, "O_14": 2.0, "Q_15": 2.0, "O_15": 2.0, "city": "ADRIAN", "beds": 59.0, "SR_15": 3.0}, {"Diff_star": 0.0, "addr": "2122 CUMMING ROAD", "SR_14": 1.0, "Q_14": 3.0, "name": "PRUITTHEALTH - AUGUSTA HILLS", "SF_14": 3.0, "SF_15": 3.0, "cnty": "Richmond", "st": "GA", "Zip": 30904.0, "O_14": 1.0, "Q_15": 2.0, "O_15": 1.0, "city": "AUGUSTA", "beds": 126.0, "SR_15": 1.0}, {"Diff_star": 0.0, "addr": "1050 HOSPITAL DRIVE", "SR_14": 5.0, "Q_14": 5.0, "name": "LAUREL PARK AT HENRY MED CTR", "SF_14": 4.0, "SF_15": 4.0, "cnty": "Henry", "st": "GA", "Zip": 30281.0, "O_14": 5.0, "Q_15": 4.0, "O_15": 5.0, "city": "STOCKBRIDGE", "beds": 89.0, "SR_15": 5.0}, {"Diff_star": -1.0, "addr": "560 ST CHARLES AVE, NE", "SR_14": 3.0, "Q_14": 5.0, "name": "WESTMINSTER COMMONS", "SF_14": 1.0, "SF_15": 1.0, "cnty": "Fulton", "st": "GA", "Zip": 30308.0, "O_14": 3.0, "Q_15": 4.0, "O_15": 2.0, "city": "ATLANTA", "beds": 90.0, "SR_15": 3.0}, {"Diff_star": 0.0, "addr": "898 COLLEGE ST", "SR_14": 3.0, "Q_14": 3.0, "name": "RETREAT, THE", "SF_14": 4.0, "SF_15": 4.0, "cnty": "Jasper", "st": "GA", "Zip": 31064.0, "O_14": 4.0, "Q_15": 2.0, "O_15": 4.0, "city": "MONTICELLO", "beds": 55.0, "SR_15": 3.0}, {"Diff_star": -1.0, "addr": "2002 TIFT AVENUE NORTH", "SR_14": 2.0, "Q_14": 5.0, "name": "REHABILITATION CENTER OF SOUTH GEORGIA", "SF_14": 3.0, "SF_15": 3.0, "cnty": "Tift", "st": "GA", "Zip": 31794.0, "O_14": 3.0, "Q_15": 4.0, "O_15": 2.0, "city": "TIFTON", "beds": 178.0, "SR_15": 2.0}, {"Diff_star": -1.0, "addr": "1350 EAST CHURCH STREET", "SR_14": 3.0, "Q_14": 5.0, "name": "PRUITTHEALTH - JASPER", "SF_14": 2.0, "SF_15": 2.0, "cnty": "Pickens", "st": "GA", "Zip": 30143.0, "O_14": 4.0, "Q_15": 4.0, "O_15": 3.0, "city": "JASPER", "beds": 60.0, "SR_15": 3.0}, {"Diff_star": -1.0, "addr": "10200 U.S. HWY 1 SOUTH", "SR_14": 2.0, "Q_14": 5.0, "name": "VERO HEALTH AND REHAB OF WADLEY", "SF_14": 1.0, "SF_15": 1.0, "cnty": "Jefferson", "st": "GA", "Zip": 30477.0, "O_14": 2.0, "Q_15": 3.0, "O_15": 1.0, "city": "WADLEY", "beds": 98.0, "SR_15": 2.0}, {"Diff_star": 0.0, "addr": "5300 ZEBULON ROAD", "SR_14": 4.0, "Q_14": 5.0, "name": "CARLYLE PLACE", "SF_14": 1.0, "SF_15": 1.0, "cnty": "Bibb", "st": "GA", "Zip": 31210.0, "O_14": 4.0, "Q_15": 5.0, "O_15": 4.0, "city": "MACON", "beds": 40.0, "SR_15": 4.0}, {"Diff_star": 0.0, "addr": "310 HIGHWAY #1 BYPASS", "SR_14": 4.0, "Q_14": 5.0, "name": "PRUITTHEALTH - OLD CAPITOL", "SF_14": 2.0, "SF_15": 2.0, "cnty": "Jefferson", "st": "GA", "Zip": 30434.0, "O_14": 5.0, "Q_15": 5.0, "O_15": 5.0, "city": "LOUISVILLE", "beds": 143.0, "SR_15": 4.0}, {"Diff_star": 0.0, "addr": "1833 CLIFTON ROAD, NE", "SR_14": 4.0, "Q_14": 5.0, "name": "BUDD TERRACE AT WESLEY WOODS", "SF_14": 4.0, "SF_15": 4.0, "cnty": "De Kalb", "st": "GA", "Zip": 30329.0, "O_14": 5.0, "Q_15": 5.0, "O_15": 5.0, "city": "ATLANTA", "beds": 250.0, "SR_15": 4.0}, {"Diff_star": -1.0, "addr": "1362 SOUTH MAIN STREET", "SR_14": 4.0, "Q_14": 2.0, "name": "GILMER NURSING HOME", "SF_14": 1.0, "SF_15": 1.0, "cnty": "Gilmer", "st": "GA", "Zip": 30540.0, "O_14": 3.0, "Q_15": 1.0, "O_15": 2.0, "city": "ELLIJAY", "beds": 100.0, "SR_15": 4.0}, {"Diff_star": 0.0, "addr": "805 DILWORTH STREET", "SR_14": 4.0, "Q_14": 4.0, "name": "SENIOR CARE CENTER - ST MARYS", "SF_14": 4.0, "SF_15": 3.0, "cnty": "Camden", "st": "GA", "Zip": 31558.0, "O_14": 4.0, "Q_15": 4.0, "O_15": 4.0, "city": "SAINT MARYS", "beds": 78.0, "SR_15": 4.0}, {"Diff_star": -1.0, "addr": "1043 LONGSTREET ROAD", "SR_14": 2.0, "Q_14": 5.0, "name": "HEARDMONT NURSING HOME", "SF_14": 3.0, "SF_15": 3.0, "cnty": "Elbert", "st": "GA", "Zip": 30635.0, "O_14": 3.0, "Q_15": 2.0, "O_15": 2.0, "city": "ELBERTON", "beds": 60.0, "SR_15": 2.0}, {"Diff_star": 0.0, "addr": "2117 DOCTOR WARD ROAD", "SR_14": 3.0, "Q_14": 4.0, "name": "NANCY HART NURSING CENTER", "SF_14": 1.0, "SF_15": 1.0, "cnty": "Elbert", "st": "GA", "Zip": 30635.0, "O_14": 2.0, "Q_15": 4.0, "O_15": 2.0, "city": "ELBERTON", "beds": 67.0, "SR_15": 3.0}, {"Diff_star": 0.0, "addr": "4145 MISTY MORNING WAY", "SR_14": 1.0, "Q_14": 4.0, "name": "WILLOWBROOKE COURT AT LANIER VILLAGE ESTATES", "SF_14": 4.0, "SF_15": 4.0, "cnty": "Hall", "st": "GA", "Zip": 30506.0, "O_14": 2.0, "Q_15": 4.0, "O_15": 2.0, "city": "GAINESVILLE", "beds": 60.0, "SR_15": 1.0}, {"Diff_star": -1.0, "addr": "547 WARWOMAN ROAD", "SR_14": 2.0, "Q_14": 5.0, "name": "MOUNTAIN VIEW HEALTH CARE", "SF_14": 1.0, "SF_15": 1.0, "cnty": "Rabun", "st": "GA", "Zip": 30525.0, "O_14": 2.0, "Q_15": 3.0, "O_15": 1.0, "city": "CLAYTON", "beds": 117.0, "SR_15": 2.0}, {"Diff_star": 0.0, "addr": "222 MOORE DRIVE", "SR_14": 4.0, "Q_14": 3.0, "name": "GOLD CITY CONVALESCENT CENTER", "SF_14": 1.0, "SF_15": 1.0, "cnty": "Lumpkin", "st": "GA", "Zip": 30533.0, "O_14": 3.0, "Q_15": 2.0, "O_15": 3.0, "city": "DAHLONEGA", "beds": 102.0, "SR_15": 4.0}, {"Diff_star": 0.0, "addr": "3500 ANNANDALE LANE", "SR_14": 5.0, "Q_14": 5.0, "name": "D SCOTT HUDGENS CENTER FOR SKILLED NURSING, THE", "SF_14": 4.0, "SF_15": 4.0, "cnty": "Gwinnett", "st": "GA", "Zip": 30024.0, "O_14": 5.0, "Q_15": 5.0, "O_15": 5.0, "city": "SUWANEE", "beds": 32.0, "SR_15": 5.0}, {"Diff_star": 0.0, "addr": "501 EAST MCCARTY ST", "SR_14": 1.0, "Q_14": 5.0, "name": "SMITH MEDICAL NURSING CARE CTR", "SF_14": 2.0, "SF_15": 2.0, "cnty": "Washington", "st": "GA", "Zip": 31082.0, "O_14": 2.0, "Q_15": 5.0, "O_15": 2.0, "city": "SANDERSVILLE", "beds": 56.0, "SR_15": 1.0}, {"Diff_star": 0.0, "addr": "1509 CEDAR AVE", "SR_14": 2.0, "Q_14": 3.0, "name": "MEDICAL MANAGEMENT HEALTH AND REHAB CENTER", "SF_14": 1.0, "SF_15": 1.0, "cnty": "Bibb", "st": "GA", "Zip": 31204.0, "O_14": 1.0, "Q_15": 1.0, "O_15": 1.0, "city": "MACON", "beds": 100.0, "SR_15": 2.0}, {"Diff_star": 0.0, "addr": "185 HILL STREET", "SR_14": 2.0, "Q_14": 3.0, "name": "MOLENA HEALTH & REHAB", "SF_14": 1.0, "SF_15": 1.0, "cnty": "Pike", "st": "GA", "Zip": 30258.0, "O_14": 1.0, "Q_15": 1.0, "O_15": 1.0, "city": "MOLENA", "beds": 64.0, "SR_15": 2.0}, {"Diff_star": 0.0, "addr": "500 SPRINGHOUSE CIRCLE", "SR_14": 4.0, "Q_14": 5.0, "name": "PARK SPRINGS HEALTH CENTER", "SF_14": 4.0, "SF_15": 4.0, "cnty": "De Kalb", "st": "GA", "Zip": 30087.0, "O_14": 5.0, "Q_15": 5.0, "O_15": 5.0, "city": "STONE MOUNTAIN", "beds": 42.0, "SR_15": 4.0}, {"Diff_star": 0.0, "addr": "164 NURSING HOME CIRCLE", "SR_14": 3.0, "Q_14": 4.0, "name": "UNION COUNTY NURSING HOME", "SF_14": 4.0, "SF_15": 3.0, "cnty": "Union", "st": "GA", "Zip": 30512.0, "O_14": 4.0, "Q_15": 2.0, "O_15": 4.0, "city": "BLAIRSVILLE", "beds": 150.0, "SR_15": 4.0}, {"Diff_star": 0.0, "addr": "101 HARTFORD ROAD, WEST", "SR_14": 2.0, "Q_14": 5.0, "name": "FORT GAINES HEALTH AND REHAB", "SF_14": 1.0, "SF_15": 1.0, "cnty": "Clay", "st": "GA", "Zip": 39851.0, "O_14": 2.0, "Q_15": 5.0, "O_15": 2.0, "city": "FORT GAINES", "beds": 60.0, "SR_15": 2.0}, {"Diff_star": 0.0, "addr": "2631 NORTH DRUID HILLS ROAD N E", "SR_14": 3.0, "Q_14": 4.0, "name": "FOUNTAINVIEW CTR FOR ALZHEIMER", "SF_14": 3.0, "SF_15": 3.0, "cnty": "De Kalb", "st": "GA", "Zip": 30329.0, "O_14": 3.0, "Q_15": 3.0, "O_15": 3.0, "city": "ATLANTA", "beds": 120.0, "SR_15": 3.0}, {"Diff_star": 0.0, "addr": "466 SOUTH GRAY STREET", "SR_14": 3.0, "Q_14": 5.0, "name": "PRUITTHEALTH - BETHANY", "SF_14": 2.0, "SF_15": 2.0, "cnty": "Jenkins", "st": "GA", "Zip": 30442.0, "O_14": 4.0, "Q_15": 5.0, "O_15": 4.0, "city": "MILLEN", "beds": 100.0, "SR_15": 3.0}, {"Diff_star": 0.0, "addr": "386 BELAIRE DRIVE", "SR_14": 5.0, "Q_14": 5.0, "name": "CHATUGE REGIONAL NURSING HOME", "SF_14": 4.0, "SF_15": 3.0, "cnty": "Towns", "st": "GA", "Zip": 30546.0, "O_14": 5.0, "Q_15": 4.0, "O_15": 5.0, "city": "HIAWASSEE", "beds": 112.0, "SR_15": 5.0}, {"Diff_star": -1.0, "addr": "610 SPARTA ROAD", "SR_14": 4.0, "Q_14": 2.0, "name": "WASHINGTON CO EXTENDED CARE FA", "SF_14": "", "SF_15": "", "cnty": "Washington", "st": "GA", "Zip": 31082.0, "O_14": 4.0, "Q_15": 1.0, "O_15": 3.0, "city": "SANDERSVILLE", "beds": 60.0, "SR_15": 4.0}, {"Diff_star": -2.0, "addr": "303 NORTH 5TH AVENUE", "SR_14": 3.0, "Q_14": 3.0, "name": "GLENWOOD HEALTHCARE", "SF_14": 4.0, "SF_15": 3.0, "cnty": "Wheeler", "st": "GA", "Zip": 30428.0, "O_14": 4.0, "Q_15": 1.0, "O_15": 2.0, "city": "GLENWOOD", "beds": 50.0, "SR_15": 3.0}, {"Diff_star": 0.0, "addr": "117 KITE ROAD", "SR_14": 2.0, "Q_14": 3.0, "name": "EMANUEL COUNTY NURSING HOME", "SF_14": 4.0, "SF_15": 4.0, "cnty": "Emanuel", "st": "GA", "Zip": 30401.0, "O_14": 3.0, "Q_15": 2.0, "O_15": 3.0, "city": "SWAINSBORO", "beds": 49.0, "SR_15": 2.0}, {"Diff_star": -1.0, "addr": "1305 EAST NORTH STREET", "SR_14": 4.0, "Q_14": 5.0, "name": "OAKS - BETHANY SKILLED NURSING, THE", "SF_14": 2.0, "SF_15": 2.0, "cnty": "Toombs", "st": "GA", "Zip": 30475.0, "O_14": 5.0, "Q_15": 4.0, "O_15": 4.0, "city": "VIDALIA", "beds": 168.0, "SR_15": 4.0}, {"Diff_star": 0.0, "addr": "184 PIN HOOK ROAD", "SR_14": 4.0, "Q_14": 4.0, "name": "WILDWOOD HEALTH CARE INC", "SF_14": 3.0, "SF_15": 3.0, "cnty": "Pickens", "st": "GA", "Zip": 30175.0, "O_14": 4.0, "Q_15": 2.0, "O_15": 4.0, "city": "TALKING ROCK", "beds": 44.0, "SR_15": 4.0}, {"Diff_star": 0.0, "addr": "120 W. THIGPEN AVE.", "SR_14": 1.0, "Q_14": 2.0, "name": "SGMC LAKELAND VILLA", "SF_14": 4.0, "SF_15": 4.0, "cnty": "Lanier", "st": "GA", "Zip": 31635.0, "O_14": 2.0, "Q_15": 3.0, "O_15": 2.0, "city": "LAKELAND", "beds": 62.0, "SR_15": 1.0}, {"Diff_star": -1.0, "addr": "2470 HWY 41 N", "SR_14": 4.0, "Q_14": 2.0, "name": "CHURCH HOME REHABILITATION AND HEALTHCARE", "SF_14": 4.0, "SF_15": 4.0, "cnty": "Houston", "st": "GA", "Zip": 31030.0, "O_14": 4.0, "Q_15": 1.0, "O_15": 3.0, "city": "FORT VALLEY", "beds": 75.0, "SR_15": 4.0}, {"Diff_star": -1.0, "addr": "1400 HOGANSVILLE ROAD", "SR_14": 4.0, "Q_14": 2.0, "name": "TWIN FOUNTAINS HOME", "SF_14": 3.0, "SF_15": 3.0, "cnty": "Troup", "st": "GA", "Zip": 30240.0, "O_14": 4.0, "Q_15": 1.0, "O_15": 3.0, "city": "LAGRANGE", "beds": 116.0, "SR_15": 4.0}, {"Diff_star": 0.0, "addr": "880 RIDGEWAY ROAD", "SR_14": 3.0, "Q_14": 4.0, "name": "HILL HAVEN NURSING HOME", "SF_14": 2.0, "SF_15": 2.0, "cnty": "Jackson", "st": "GA", "Zip": 30529.0, "O_14": 3.0, "Q_15": 3.0, "O_15": 3.0, "city": "COMMERCE", "beds": 70.0, "SR_15": 3.0}, {"Diff_star": 1.0, "addr": "1500 EAST SHOTWELL STREET", "SR_14": 1.0, "Q_14": 4.0, "name": "MEMORIAL MANOR NURSING HOME", "SF_14": 1.0, "SF_15": 2.0, "cnty": "Decatur", "st": "GA", "Zip": 39819.0, "O_14": 1.0, "Q_15": 3.0, "O_15": 2.0, "city": "BAINBRIDGE", "beds": 107.0, "SR_15": 2.0}, {"Diff_star": -1.0, "addr": "100 FLORENCE STREET", "SR_14": 2.0, "Q_14": 2.0, "name": "SEMINOLE MANOR NURSING HOME", "SF_14": 4.0, "SF_15": 3.0, "cnty": "Seminole", "st": "GA", "Zip": 39845.0, "O_14": 3.0, "Q_15": 2.0, "O_15": 2.0, "city": "DONALSONVILLE", "beds": 75.0, "SR_15": 2.0}, {"Diff_star": -1.0, "addr": "710 NORTH IRWIN AVENUE", "SR_14": 2.0, "Q_14": 5.0, "name": "PALEMON GASKINS MEM NSG HOME", "SF_14": 3.0, "SF_15": 3.0, "cnty": "Irwin", "st": "GA", "Zip": 31774.0, "O_14": 3.0, "Q_15": 3.0, "O_15": 2.0, "city": "OCILLA", "beds": 30.0, "SR_15": 2.0}, {"Diff_star": 0.0, "addr": "100 MEDICAL CENTER DRIVE", "SR_14": 1.0, "Q_14": 2.0, "name": "NORTHRIDGE HEALTH AND REHABILITATION", "SF_14": 3.0, "SF_15": 3.0, "cnty": "Jackson", "st": "GA", "Zip": 30529.0, "O_14": 1.0, "Q_15": 1.0, "O_15": 1.0, "city": "COMMERCE", "beds": 167.0, "SR_15": 1.0}, {"Diff_star": 0.0, "addr": "95 SKIDAWAY ISLAND PARK ROAD", "SR_14": 3.0, "Q_14": 4.0, "name": "OAKS HEALTH CTR AT THE MARSHES OF SKIDAWAY ISLAND", "SF_14": 5.0, "SF_15": 5.0, "cnty": "Chatham", "st": "GA", "Zip": 31411.0, "O_14": 4.0, "Q_15": 4.0, "O_15": 4.0, "city": "SAVANNAH", "beds": 28.0, "SR_15": 3.0}, {"Diff_star": 0.0, "addr": "200 SPRING HARBOR DRIVE", "SR_14": 3.0, "Q_14": 5.0, "name": "SPRING HARBOR AT GREEN ISLAND", "SF_14": 5.0, "SF_15": 5.0, "cnty": "Muscogee", "st": "GA", "Zip": 31904.0, "O_14": 5.0, "Q_15": 5.0, "O_15": 5.0, "city": "COLUMBUS", "beds": 40.0, "SR_15": 3.0}, {"Diff_star": 0.0, "addr": "1980 ARROW STREET, SW", "SR_14": 4.0, "Q_14": 4.0, "name": "RELIABLE HEALTH & REHAB AT LAKEWOOD", "SF_14": 4.0, "SF_15": 4.0, "cnty": "Fulton", "st": "GA", "Zip": 30310.0, "O_14": 4.0, "Q_15": 2.0, "O_15": 4.0, "city": "ATLANTA", "beds": 100.0, "SR_15": 4.0}, {"Diff_star": -1.0, "addr": "111 RENEGAR WAY", "SR_14": 1.0, "Q_14": 5.0, "name": "MARSH'S EDGE", "SF_14": 4.0, "SF_15": 3.0, "cnty": "Glynn", "st": "GA", "Zip": 31522.0, "O_14": 2.0, "Q_15": 1.0, "O_15": 1.0, "city": "SAINT SIMONS ISLAND", "beds": 20.0, "SR_15": 1.0}, {"Diff_star": -1.0, "addr": "2 THREE MILE ROAD NE", "SR_14": 5.0, "Q_14": 5.0, "name": "PRUITTHEALTH - ROME", "SF_14": 1.0, "SF_15": 1.0, "cnty": "Floyd", "st": "GA", "Zip": 30165.0, "O_14": 5.0, "Q_15": 3.0, "O_15": 4.0, "city": "ROME", "beds": 100.0, "SR_15": 5.0}, {"Diff_star": 0.0, "addr": "139 MORAN LAKE ROAD, NE", "SR_14": 2.0, "Q_14": 4.0, "name": "EVERGREEN HEALTH & REHABILITATION CENTER", "SF_14": 3.0, "SF_15": 3.0, "cnty": "Floyd", "st": "GA", "Zip": 30161.0, "O_14": 2.0, "Q_15": 3.0, "O_15": 2.0, "city": "ROME", "beds": 100.0, "SR_15": 2.0}, {"Diff_star": -1.0, "addr": "2611 WILDWOOD DRIVE", "SR_14": 2.0, "Q_14": 5.0, "name": "SOUTHEAST GEORGIA HEALTH SYSTEM - SENIOR CARE CTR", "SF_14": 3.0, "SF_15": 3.0, "cnty": "Glynn", "st": "GA", "Zip": 31520.0, "O_14": 3.0, "Q_15": 3.0, "O_15": 2.0, "city": "BRUNSWICK", "beds": 200.0, "SR_15": 2.0}, {"Diff_star": -1.0, "addr": "450 NEWNAN LAKES BLVD", "SR_14": 3.0, "Q_14": 2.0, "name": "ANSLEY PARK HEALTH AND REHABILITATION", "SF_14": 4.0, "SF_15": 4.0, "cnty": "Coweta", "st": "GA", "Zip": 30263.0, "O_14": 4.0, "Q_15": 1.0, "O_15": 3.0, "city": "NEWNAN", "beds": 66.0, "SR_15": 3.0}, {"Diff_star": 0.0, "addr": "601 NORTH HOLT PARKWAY", "SR_14": "", "Q_14": "", "name": "SALUDE - THE ART OF RECOVERY", "SF_14": "", "SF_15": "", "cnty": "Gwinnett", "st": "GA", "Zip": 30024.0, "O_14": "", "Q_15": "", "O_15": "", "city": "SUWANEE", "beds": 64.0, "SR_15": ""}, {"Diff_star": 0.0, "addr": "2020 MCGEE ROAD", "SR_14": 3.0, "Q_14": 3.0, "name": "NEW LONDON HEALTH CENTER", "SF_14": 1.0, "SF_15": 1.0, "cnty": "Gwinnett", "st": "GA", "Zip": 30078.0, "O_14": 2.0, "Q_15": 2.0, "O_15": 2.0, "city": "SNELLVILLE", "beds": 144.0, "SR_15": 3.0}, {"Diff_star": 0.0, "addr": "3073 PANTHERSVILLE RD, SNF BLDG. #17", "SR_14": 1.0, "Q_14": 5.0, "name": "GEORGIA REGIONAL ATLANTA LTC", "SF_14": "", "SF_15": "", "cnty": "De Kalb", "st": "GA", "Zip": 30034.0, "O_14": 2.0, "Q_15": 5.0, "O_15": 2.0, "city": "DECATUR", "beds": 66.0, "SR_15": 1.0}, {"Diff_star": 1.0, "addr": "100 MYRTLE BLVD., EAST CENTRAL REG HOSP", "SR_14": 2.0, "Q_14": 4.0, "name": "GRACEWOOD NSG FACILITY(UNIT 9)", "SF_14": 4.0, "SF_15": 4.0, "cnty": "Richmond", "st": "GA", "Zip": 30812.0, "O_14": 3.0, "Q_15": 5.0, "O_15": 4.0, "city": "GRACEWOOD", "beds": 56.0, "SR_15": 2.0}, {"Diff_star": 0.0, "addr": "CENTRAL STATE HOSPITAL", "SR_14": 2.0, "Q_14": 5.0, "name": "JAMES B CRAIG CENTER", "SF_14": "", "SF_15": "", "cnty": "Baldwin", "st": "GA", "Zip": 31062.0, "O_14": 3.0, "Q_15": 5.0, "O_15": 3.0, "city": "MILLEDGEVILLE", "beds": 255.0, "SR_15": 2.0}]