[{"Diff_star": 0.0, "addr": "900 POLK BOULEVARD", "SR_14": 2.0, "Q_14": 4.0, "name": "IOWA JEWISH SENIOR LIFE CENTER", "SF_14": 5.0, "SF_15": 5.0, "cnty": "Polk", "st": "IA", "Zip": 50312.0, "O_14": 3.0, "Q_15": 2.0, "O_15": 3.0, "city": "DES MOINES", "beds": 72.0, "SR_15": 2.0}, {"Diff_star": 0.0, "addr": "1940 FIRST AVENUE NE", "SR_14": 3.0, "Q_14": 5.0, "name": "MANORCARE HEALTH SERVICES", "SF_14": 1.0, "SF_15": 1.0, "cnty": "Linn", "st": "IA", "Zip": 52402.0, "O_14": 3.0, "Q_15": 5.0, "O_15": 3.0, "city": "CEDAR RAPIDS", "beds": 105.0, "SR_15": 3.0}, {"Diff_star": 0.0, "addr": "602 ELEVENTH STREET", "SR_14": 4.0, "Q_14": 5.0, "name": "CHAUTAUQUA GUEST HOME #2", "SF_14": 4.0, "SF_15": 3.0, "cnty": "Floyd", "st": "IA", "Zip": 50616.0, "O_14": 5.0, "Q_15": 5.0, "O_15": 5.0, "city": "CHARLES CITY", "beds": 61.0, "SR_15": 4.0}, {"Diff_star": 0.0, "addr": "1 OAKNOLL CT", "SR_14": 3.0, "Q_14": 5.0, "name": "OAKNOLL RETIREMENT RESIDENCE", "SF_14": 5.0, "SF_15": 5.0, "cnty": "Johnson", "st": "IA", "Zip": 52240.0, "O_14": 5.0, "Q_15": 5.0, "O_15": 5.0, "city": "IOWA CITY", "beds": 48.0, "SR_15": 3.0}, {"Diff_star": 0.0, "addr": "815 EAST LOCUST STREET", "SR_14": 1.0, "Q_14": 4.0, "name": "MANORCARE HEALTH SERVICES", "SF_14": 3.0, "SF_15": 3.0, "cnty": "Scott", "st": "IA", "Zip": 52803.0, "O_14": 1.0, "Q_15": 4.0, "O_15": 1.0, "city": "DAVENPORT", "beds": 105.0, "SR_15": 1.0}, {"Diff_star": 0.0, "addr": "201 WEST RIDGEWAY AVENUE", "SR_14": 1.0, "Q_14": 4.0, "name": "MANORCARE HEALTH SERVICES", "SF_14": 2.0, "SF_15": 2.0, "cnty": "Black Hawk", "st": "IA", "Zip": 50701.0, "O_14": 1.0, "Q_15": 3.0, "O_15": 1.0, "city": "WATERLOO", "beds": 97.0, "SR_15": 1.0}, {"Diff_star": -1.0, "addr": "701 TENTH STREET SE", "SR_14": 5.0, "Q_14": 2.0, "name": "MERCY MEDICAL CENTER", "SF_14": "", "SF_15": "", "cnty": "Linn", "st": "IA", "Zip": 52403.0, "O_14": 5.0, "Q_15": 1.0, "O_15": 4.0, "city": "CEDAR RAPIDS", "beds": 21.0, "SR_15": 5.0}, {"Diff_star": 0.0, "addr": "4130 NORTHWEST BOULEVARD", "SR_14": 1.0, "Q_14": 4.0, "name": "RIDGECREST VILLAGE", "SF_14": 4.0, "SF_15": 4.0, "cnty": "Scott", "st": "IA", "Zip": 52806.0, "O_14": 2.0, "Q_15": 4.0, "O_15": 2.0, "city": "DAVENPORT", "beds": 137.0, "SR_15": 1.0}, {"Diff_star": -1.0, "addr": "302 SECOND STREET NE", "SR_14": 1.0, "Q_14": 5.0, "name": "GOOD SHEPHERD HEALTH CENTER", "SF_14": 4.0, "SF_15": 3.0, "cnty": "Cerro Gordo", "st": "IA", "Zip": 50401.0, "O_14": 2.0, "Q_15": 3.0, "O_15": 1.0, "city": "MASON CITY", "beds": 210.0, "SR_15": 1.0}, {"Diff_star": -2.0, "addr": "600 PARK LANE", "SR_14": 2.0, "Q_14": 5.0, "name": "FRIENDSHIP VILLAGE RETIREMENT", "SF_14": 4.0, "SF_15": 3.0, "cnty": "Black Hawk", "st": "IA", "Zip": 50702.0, "O_14": 4.0, "Q_15": 4.0, "O_15": 2.0, "city": "WATERLOO", "beds": 72.0, "SR_15": 2.0}, {"Diff_star": 0.0, "addr": "1409 WEST MAIN STREET", "SR_14": 3.0, "Q_14": 5.0, "name": "SHADY OAKS CARE CENTER", "SF_14": 3.0, "SF_15": 3.0, "cnty": "Calhoun", "st": "IA", "Zip": 51449.0, "O_14": 4.0, "Q_15": 5.0, "O_15": 4.0, "city": "LAKE CITY", "beds": 80.0, "SR_15": 3.0}, {"Diff_star": 0.0, "addr": "901 WEST THIRD STREET", "SR_14": 3.0, "Q_14": 5.0, "name": "MANORCARE HEALTH SERVICES", "SF_14": 2.0, "SF_15": "", "cnty": "Dubuque", "st": "IA", "Zip": 52001.0, "O_14": 4.0, "Q_15": 4.0, "O_15": 4.0, "city": "DUBUQUE", "beds": 99.0, "SR_15": 4.0}, {"Diff_star": 0.0, "addr": "1221 S GEAR STREET", "SR_14": 2.0, "Q_14": 4.0, "name": "GREAT RIVER KLEIN CENTER", "SF_14": 5.0, "SF_15": 5.0, "cnty": "Des Moines", "st": "IA", "Zip": 52655.0, "O_14": 3.0, "Q_15": 4.0, "O_15": 3.0, "city": "WEST BURLINGTON", "beds": 165.0, "SR_15": 2.0}, {"Diff_star": 0.0, "addr": "250 MERCY DRIVE", "SR_14": 5.0, "Q_14": 3.0, "name": "MERCY MEDICAL CENTER-DUBUQUE", "SF_14": "", "SF_15": "", "cnty": "Dubuque", "st": "IA", "Zip": 52001.0, "O_14": 5.0, "Q_15": 2.0, "O_15": 5.0, "city": "DUBUQUE", "beds": 29.0, "SR_15": 5.0}, {"Diff_star": 0.0, "addr": "613 WEST NORTH STREET", "SR_14": 1.0, "Q_14": 3.0, "name": "MADRID HOME FOR THE AGED", "SF_14": 4.0, "SF_15": 4.0, "cnty": "Boone", "st": "IA", "Zip": 50156.0, "O_14": 2.0, "Q_15": 2.0, "O_15": 2.0, "city": "MADRID", "beds": 155.0, "SR_15": 1.0}, {"Diff_star": -2.0, "addr": "638 SOUTH BLUFF BOULEVARD", "SR_14": 2.0, "Q_14": 5.0, "name": "MERCY LIVING CENTER SOUTH", "SF_14": 4.0, "SF_15": 3.0, "cnty": "Clinton", "st": "IA", "Zip": 52732.0, "O_14": 4.0, "Q_15": 4.0, "O_15": 2.0, "city": "CLINTON", "beds": 97.0, "SR_15": 2.0}, {"Diff_star": 0.0, "addr": "700 EAST UNIVERSITY", "SR_14": 3.0, "Q_14": 3.0, "name": "IOWA LUTHERAN HOSPITAL", "SF_14": 4.0, "SF_15": 4.0, "cnty": "Polk", "st": "IA", "Zip": 50316.0, "O_14": 4.0, "Q_15": 3.0, "O_15": 4.0, "city": "DES MOINES", "beds": 16.0, "SR_15": 3.0}, {"Diff_star": 0.0, "addr": "313 ELKADER STREET", "SR_14": 4.0, "Q_14": 1.0, "name": "STRAWBERRY POINT LUTHERAN HOME", "SF_14": 4.0, "SF_15": 4.0, "cnty": "Clayton", "st": "IA", "Zip": 52076.0, "O_14": 3.0, "Q_15": 1.0, "O_15": 3.0, "city": "STRAWBERRY POINT", "beds": 58.0, "SR_15": 4.0}, {"Diff_star": 0.0, "addr": "500 EAST MARKET STREET", "SR_14": 4.0, "Q_14": 4.0, "name": "MERCY HOSPITAL", "SF_14": 5.0, "SF_15": 5.0, "cnty": "Johnson", "st": "IA", "Zip": 52240.0, "O_14": 5.0, "Q_15": 5.0, "O_15": 5.0, "city": "IOWA CITY", "beds": 16.0, "SR_15": 4.0}, {"Diff_star": -1.0, "addr": "206 PORT NEAL ROAD", "SR_14": 2.0, "Q_14": 4.0, "name": "EMBASSY HEALTHCARE COMMUNITY", "SF_14": 3.0, "SF_15": 3.0, "cnty": "Woodbury", "st": "IA", "Zip": 51054.0, "O_14": 2.0, "Q_15": 3.0, "O_15": 1.0, "city": "SERGEANT BLUFF", "beds": 60.0, "SR_15": 1.0}, {"Diff_star": -1.0, "addr": "6701 JERSEY RIDGE ROAD", "SR_14": 3.0, "Q_14": 5.0, "name": "KAHL HOME FOR THE AGED & INFIRMED", "SF_14": 5.0, "SF_15": 5.0, "cnty": "Scott", "st": "IA", "Zip": 52807.0, "O_14": 5.0, "Q_15": 4.0, "O_15": 4.0, "city": "DAVENPORT", "beds": 135.0, "SR_15": 3.0}, {"Diff_star": -1.0, "addr": "401 SOUTH VAN BUREN", "SR_14": 3.0, "Q_14": 2.0, "name": "HENRY COUNTY HEALTH CENTER", "SF_14": 4.0, "SF_15": 3.0, "cnty": "Henry", "st": "IA", "Zip": 52641.0, "O_14": 4.0, "Q_15": 2.0, "O_15": 3.0, "city": "MOUNT PLEASANT", "beds": 49.0, "SR_15": 3.0}, {"Diff_star": 0.0, "addr": "3000 EAST WILLIS AVENUE", "SR_14": 2.0, "Q_14": 4.0, "name": "ROWLEY MEMORIAL MASONIC HOME", "SF_14": 4.0, "SF_15": 4.0, "cnty": "Dallas", "st": "IA", "Zip": 50220.0, "O_14": 3.0, "Q_15": 3.0, "O_15": 3.0, "city": "PERRY", "beds": 57.0, "SR_15": 2.0}, {"Diff_star": 0.0, "addr": "500 MESSENGER ROAD", "SR_14": 1.0, "Q_14": 3.0, "name": "LEXINGTON SQUARE", "SF_14": 2.0, "SF_15": 2.0, "cnty": "Lee", "st": "IA", "Zip": 52632.0, "O_14": 1.0, "Q_15": 1.0, "O_15": 1.0, "city": "KEOKUK", "beds": 126.0, "SR_15": 1.0}, {"Diff_star": -1.0, "addr": "2950 WEST SHAULIS ROAD", "SR_14": 4.0, "Q_14": 2.0, "name": "HARMONY HOUSE HEALTH CARE CENT", "SF_14": 4.0, "SF_15": 4.0, "cnty": "Black Hawk", "st": "IA", "Zip": 50701.0, "O_14": 4.0, "Q_15": 1.0, "O_15": 3.0, "city": "WATERLOO", "beds": 70.0, "SR_15": 4.0}, {"Diff_star": -1.0, "addr": "2027 COLLEGE AVENUE", "SR_14": 3.0, "Q_14": 5.0, "name": "SALEM LUTHERAN HOME", "SF_14": 4.0, "SF_15": 3.0, "cnty": "Shelby", "st": "IA", "Zip": 51531.0, "O_14": 5.0, "Q_15": 5.0, "O_15": 4.0, "city": "ELK HORN", "beds": 74.0, "SR_15": 3.0}, {"Diff_star": 0.0, "addr": "728 14TH AVENUE NORTH", "SR_14": 1.0, "Q_14": 4.0, "name": "FORT DODGE HEALTH AND REHABILITATION", "SF_14": 4.0, "SF_15": 4.0, "cnty": "Webster", "st": "IA", "Zip": 50501.0, "O_14": 2.0, "Q_15": 3.0, "O_15": 2.0, "city": "FORT DODGE", "beds": 65.0, "SR_15": 1.0}, {"Diff_star": 1.0, "addr": "1400 7TH AVENUE SE", "SR_14": 3.0, "Q_14": 4.0, "name": "SIOUX CENTER COMM HSP & HEALTH", "SF_14": 5.0, "SF_15": 5.0, "cnty": "Sioux", "st": "IA", "Zip": 51250.0, "O_14": 4.0, "Q_15": 4.0, "O_15": 5.0, "city": "SIOUX CENTER", "beds": 69.0, "SR_15": 4.0}, {"Diff_star": 0.0, "addr": "600 MANOR DRIVE", "SR_14": 4.0, "Q_14": 4.0, "name": "WESTRIDGE QUALITY CARE & REHAB", "SF_14": 3.0, "SF_15": 3.0, "cnty": "Page", "st": "IA", "Zip": 51632.0, "O_14": 4.0, "Q_15": 4.0, "O_15": 4.0, "city": "CLARINDA", "beds": 70.0, "SR_15": 4.0}, {"Diff_star": 0.0, "addr": "1800 INDIAN HILLS DRIVE", "SR_14": 1.0, "Q_14": 3.0, "name": "TOUCHSTONE LIVING CENTER", "SF_14": 4.0, "SF_15": 4.0, "cnty": "Woodbury", "st": "IA", "Zip": 51104.0, "O_14": 2.0, "Q_15": 2.0, "O_15": 2.0, "city": "SIOUX CITY", "beds": 135.0, "SR_15": 1.0}, {"Diff_star": 1.0, "addr": "200 SEVENTH AVENUE SW", "SR_14": 1.0, "Q_14": 4.0, "name": "ALTOONA NURSING AND REHABILITATION CENTER", "SF_14": 3.0, "SF_15": 3.0, "cnty": "Polk", "st": "IA", "Zip": 50009.0, "O_14": 1.0, "Q_15": 3.0, "O_15": 2.0, "city": "ALTOONA", "beds": 106.0, "SR_15": 2.0}, {"Diff_star": 1.0, "addr": "715 SW ANKENY ROAD", "SR_14": 5.0, "Q_14": 1.0, "name": "ON WITH LIFE", "SF_14": "", "SF_15": "", "cnty": "Polk", "st": "IA", "Zip": 50023.0, "O_14": 4.0, "Q_15": 2.0, "O_15": 5.0, "city": "ANKENY", "beds": 26.0, "SR_15": 5.0}, {"Diff_star": 1.0, "addr": "2001 HEATH STREET", "SR_14": 2.0, "Q_14": 4.0, "name": "NORTHCREST SPECIALTY CARE", "SF_14": 3.0, "SF_15": 3.0, "cnty": "Black Hawk", "st": "IA", "Zip": 50703.0, "O_14": 2.0, "Q_15": 2.0, "O_15": 3.0, "city": "WATERLOO", "beds": 94.0, "SR_15": 3.0}, {"Diff_star": -1.0, "addr": "1203 NORTH E STREET", "SR_14": 3.0, "Q_14": 3.0, "name": "THE VILLAGE", "SF_14": 4.0, "SF_15": 4.0, "cnty": "Warren", "st": "IA", "Zip": 50125.0, "O_14": 4.0, "Q_15": 1.0, "O_15": 3.0, "city": "INDIANOLA", "beds": 54.0, "SR_15": 3.0}, {"Diff_star": 0.0, "addr": "700 WAVERLY ROAD", "SR_14": 2.0, "Q_14": 3.0, "name": "GOOD SAMARITAN SOCIETY - DAVENPORT", "SF_14": 4.0, "SF_15": 4.0, "cnty": "Scott", "st": "IA", "Zip": 52804.0, "O_14": 3.0, "Q_15": 3.0, "O_15": 3.0, "city": "DAVENPORT", "beds": 190.0, "SR_15": 2.0}, {"Diff_star": 0.0, "addr": "1002 WEST WASHINGTON AVENUE", "SR_14": 2.0, "Q_14": 4.0, "name": "POLK CITY NURSING & REHABILITATION CENTER", "SF_14": 3.0, "SF_15": 3.0, "cnty": "Polk", "st": "IA", "Zip": 50226.0, "O_14": 2.0, "Q_15": 4.0, "O_15": 2.0, "city": "POLK CITY", "beds": 68.0, "SR_15": 2.0}, {"Diff_star": -2.0, "addr": "455 31ST STREET", "SR_14": 2.0, "Q_14": 2.0, "name": "WILLOW GARDENS CARE CENTER", "SF_14": 4.0, "SF_15": 4.0, "cnty": "Linn", "st": "IA", "Zip": 52302.0, "O_14": 3.0, "Q_15": 1.0, "O_15": 1.0, "city": "MARION", "beds": 91.0, "SR_15": 1.0}, {"Diff_star": 0.0, "addr": "605 GREENWOOD DRIVE", "SR_14": 4.0, "Q_14": 3.0, "name": "BRIARWOOD HEALTHCARE CENTER", "SF_14": 5.0, "SF_15": 5.0, "cnty": "Johnson", "st": "IA", "Zip": 52246.0, "O_14": 5.0, "Q_15": 3.0, "O_15": 5.0, "city": "IOWA CITY", "beds": 64.0, "SR_15": 4.0}, {"Diff_star": 0.0, "addr": "830 SOUTH FIFTH STREET", "SR_14": 3.0, "Q_14": 5.0, "name": "OSAGE REHAB AND HEALTH CARE CENTER", "SF_14": 4.0, "SF_15": 4.0, "cnty": "Mitchell", "st": "IA", "Zip": 50461.0, "O_14": 5.0, "Q_15": 5.0, "O_15": 5.0, "city": "OSAGE", "beds": 50.0, "SR_15": 3.0}, {"Diff_star": 0.0, "addr": "2121 WEST 19TH STREET", "SR_14": 1.0, "Q_14": 3.0, "name": "CASA DE PAZ HEALTH CARE CENTER", "SF_14": 2.0, "SF_15": 2.0, "cnty": "Woodbury", "st": "IA", "Zip": 51103.0, "O_14": 1.0, "Q_15": 2.0, "O_15": 1.0, "city": "SIOUX CITY", "beds": 71.0, "SR_15": 1.0}, {"Diff_star": 0.0, "addr": "5608 SW NINTH STREET", "SR_14": 2.0, "Q_14": 5.0, "name": "GENESIS SENIOR LIVING CENTER", "SF_14": 2.0, "SF_15": 2.0, "cnty": "Polk", "st": "IA", "Zip": 50315.0, "O_14": 3.0, "Q_15": 5.0, "O_15": 3.0, "city": "DES MOINES", "beds": 80.0, "SR_15": 2.0}, {"Diff_star": 0.0, "addr": "201 EIGHTH AVENUE SE", "SR_14": 4.0, "Q_14": 4.0, "name": "MERCY HOSPITAL OF THE FRANCISCAN SISTERS", "SF_14": 4.0, "SF_15": 4.0, "cnty": "Fayette", "st": "IA", "Zip": 50662.0, "O_14": 4.0, "Q_15": 4.0, "O_15": 4.0, "city": "OELWEIN", "beds": 39.0, "SR_15": 4.0}, {"Diff_star": 0.0, "addr": "231 NORTH EIGHTH AVENUE WEST", "SR_14": 3.0, "Q_14": 5.0, "name": "COMMUNITY MEMORIAL HEALTH CENTER", "SF_14": 5.0, "SF_15": 5.0, "cnty": "Obrien", "st": "IA", "Zip": 51346.0, "O_14": 5.0, "Q_15": 5.0, "O_15": 5.0, "city": "HARTLEY", "beds": 68.0, "SR_15": 3.0}, {"Diff_star": 0.0, "addr": "FOUR OHIO STREET", "SR_14": 2.0, "Q_14": 4.0, "name": "AASE HAUGEN HOME", "SF_14": 4.0, "SF_15": 4.0, "cnty": "Winneshiek", "st": "IA", "Zip": 52101.0, "O_14": 3.0, "Q_15": 3.0, "O_15": 3.0, "city": "DECORAH", "beds": 99.0, "SR_15": 2.0}, {"Diff_star": -1.0, "addr": "921 SUNSET DRIVE", "SR_14": 4.0, "Q_14": 5.0, "name": "NORWALK NURSING AND REHABILITATION CENTER", "SF_14": 4.0, "SF_15": 4.0, "cnty": "Warren", "st": "IA", "Zip": 50211.0, "O_14": 5.0, "Q_15": 4.0, "O_15": 4.0, "city": "NORWALK", "beds": 51.0, "SR_15": 4.0}, {"Diff_star": 0.0, "addr": "801 SOUTH DES MOINES STREET", "SR_14": 3.0, "Q_14": 5.0, "name": "ODEBOLT NURSING & REHAB CENTER", "SF_14": 3.0, "SF_15": 3.0, "cnty": "Sac", "st": "IA", "Zip": 51458.0, "O_14": 4.0, "Q_15": 5.0, "O_15": 4.0, "city": "ODEBOLT", "beds": 46.0, "SR_15": 3.0}, {"Diff_star": 0.0, "addr": "703 SOUTH UNION", "SR_14": 2.0, "Q_14": 4.0, "name": "ROCK RAPIDS HEALTH CENTRE", "SF_14": 3.0, "SF_15": 3.0, "cnty": "Lyon", "st": "IA", "Zip": 51246.0, "O_14": 2.0, "Q_15": 4.0, "O_15": 2.0, "city": "ROCK RAPIDS", "beds": 44.0, "SR_15": 2.0}, {"Diff_star": 0.0, "addr": "910 NORTH EISENHOWER AVENUE", "SR_14": 3.0, "Q_14": 4.0, "name": "MERCY HEALTH SERVICES- IOWA CORP", "SF_14": "", "SF_15": "", "cnty": "Cerro Gordo", "st": "IA", "Zip": 50401.0, "O_14": 3.0, "Q_15": 4.0, "O_15": 3.0, "city": "MASON CITY", "beds": 22.0, "SR_15": 3.0}, {"Diff_star": 1.0, "addr": "1600 SUMMIT STREET", "SR_14": 1.0, "Q_14": 5.0, "name": "RED OAK HEALTHCARE COMMUNITY", "SF_14": 4.0, "SF_15": 4.0, "cnty": "Montgomery", "st": "IA", "Zip": 51566.0, "O_14": 2.0, "Q_15": 4.0, "O_15": 3.0, "city": "RED OAK", "beds": 58.0, "SR_15": 2.0}, {"Diff_star": 0.0, "addr": "708 SOUTH JEFFERSON PO BOX 319", "SR_14": 1.0, "Q_14": 4.0, "name": "GOOD SAMARITAN SOCIETY - INDIANOLA", "SF_14": 3.0, "SF_15": 3.0, "cnty": "Warren", "st": "IA", "Zip": 50125.0, "O_14": 1.0, "Q_15": 4.0, "O_15": 1.0, "city": "INDIANOLA", "beds": 131.0, "SR_15": 1.0}, {"Diff_star": 0.0, "addr": "201 HALL STREET", "SR_14": 3.0, "Q_14": 5.0, "name": "GOOD SAMARITAN SOCIETY - WEST UNION", "SF_14": 3.0, "SF_15": 3.0, "cnty": "Fayette", "st": "IA", "Zip": 52175.0, "O_14": 4.0, "Q_15": 5.0, "O_15": 4.0, "city": "WEST UNION", "beds": 71.0, "SR_15": 3.0}, {"Diff_star": 0.0, "addr": "1015 WEST SUMMIT", "SR_14": 2.0, "Q_14": 4.0, "name": "WEST BRIDGE CARE & REHABILITATION", "SF_14": 2.0, "SF_15": 2.0, "cnty": "Madison", "st": "IA", "Zip": 50273.0, "O_14": 2.0, "Q_15": 2.0, "O_15": 2.0, "city": "WINTERSET", "beds": 70.0, "SR_15": 2.0}, {"Diff_star": 0.0, "addr": "202 NORTH CENTRAL AVENUE", "SR_14": 4.0, "Q_14": 4.0, "name": "GOOD SAMARITAN SOCIETY - VILLISCA", "SF_14": 4.0, "SF_15": 4.0, "cnty": "Montgomery", "st": "IA", "Zip": 50864.0, "O_14": 4.0, "Q_15": 3.0, "O_15": 4.0, "city": "VILLISCA", "beds": 46.0, "SR_15": 4.0}, {"Diff_star": -1.0, "addr": "412 WEST KENNEDY STREET", "SR_14": 3.0, "Q_14": 3.0, "name": "GOOD SAMARITAN SOCIETY - ALGONA", "SF_14": 4.0, "SF_15": 3.0, "cnty": "Kossuth", "st": "IA", "Zip": 50511.0, "O_14": 4.0, "Q_15": 2.0, "O_15": 3.0, "city": "ALGONA", "beds": 90.0, "SR_15": 3.0}, {"Diff_star": 0.0, "addr": "201 ALIX AVENUE", "SR_14": 2.0, "Q_14": 4.0, "name": "GOOD SAMARITAN SOCIETY - RED OAK", "SF_14": 4.0, "SF_15": 4.0, "cnty": "Montgomery", "st": "IA", "Zip": 51566.0, "O_14": 3.0, "Q_15": 3.0, "O_15": 3.0, "city": "RED OAK", "beds": 88.0, "SR_15": 2.0}, {"Diff_star": 0.0, "addr": "1646 FIFTH AVENUE NORTH", "SR_14": 2.0, "Q_14": 4.0, "name": "GOOD SAMARITAN SOCIETY - ESTHERVILLE", "SF_14": 4.0, "SF_15": 4.0, "cnty": "Emmet", "st": "IA", "Zip": 51334.0, "O_14": 3.0, "Q_15": 3.0, "O_15": 3.0, "city": "ESTHERVILLE", "beds": 90.0, "SR_15": 2.0}, {"Diff_star": -1.0, "addr": "1403 HARRISON ROAD", "SR_14": 4.0, "Q_14": 5.0, "name": "DUNLAP NURSING & REHAB CENTER", "SF_14": 3.0, "SF_15": 3.0, "cnty": "Harrison", "st": "IA", "Zip": 51529.0, "O_14": 5.0, "Q_15": 3.0, "O_15": 4.0, "city": "DUNLAP", "beds": 57.0, "SR_15": 4.0}, {"Diff_star": 0.0, "addr": "508 2ND STREET NE", "SR_14": 3.0, "Q_14": 5.0, "name": "GRANDVIEW HEALTH CARE CENTER", "SF_14": 4.0, "SF_15": 4.0, "cnty": "Webster", "st": "IA", "Zip": 50530.0, "O_14": 5.0, "Q_15": 5.0, "O_15": 5.0, "city": "DAYTON", "beds": 48.0, "SR_15": 3.0}, {"Diff_star": 0.0, "addr": "1728 WEST EIGHTH STREET", "SR_14": 1.0, "Q_14": 5.0, "name": "CEDAR FALLS HEALTH CARE CENTER", "SF_14": 4.0, "SF_15": 4.0, "cnty": "Black Hawk", "st": "IA", "Zip": 50613.0, "O_14": 2.0, "Q_15": 4.0, "O_15": 2.0, "city": "CEDAR FALLS", "beds": 82.0, "SR_15": 1.0}, {"Diff_star": 0.0, "addr": "3661 ROCHESTER AVENUE", "SR_14": 2.0, "Q_14": 4.0, "name": "IOWA CITY REHAB & HEALTH CARE", "SF_14": 3.0, "SF_15": 3.0, "cnty": "Johnson", "st": "IA", "Zip": 52245.0, "O_14": 2.0, "Q_15": 3.0, "O_15": 2.0, "city": "IOWA CITY", "beds": 89.0, "SR_15": 2.0}, {"Diff_star": -1.0, "addr": "1001 COTTONWOOD DRIVE", "SR_14": 2.0, "Q_14": 2.0, "name": "CRESTON NURSING & REHAB CENTER", "SF_14": 2.0, "SF_15": 2.0, "cnty": "Union", "st": "IA", "Zip": 50801.0, "O_14": 2.0, "Q_15": 1.0, "O_15": 1.0, "city": "CRESTON", "beds": 74.0, "SR_15": 2.0}, {"Diff_star": 0.0, "addr": "1600 MCPHERSON", "SR_14": 1.0, "Q_14": 3.0, "name": "REGENCY REHAB AND SKILLED NURSING", "SF_14": 4.0, "SF_15": 4.0, "cnty": "Pottawattamie", "st": "IA", "Zip": 51503.0, "O_14": 2.0, "Q_15": 2.0, "O_15": 2.0, "city": "COUNCIL BLUFFS", "beds": 130.0, "SR_15": 1.0}, {"Diff_star": -1.0, "addr": "2401 EAST EIGHTH STREET", "SR_14": 1.0, "Q_14": 5.0, "name": "UNION PARK HEALTH SERVICES", "SF_14": 3.0, "SF_15": 3.0, "cnty": "Polk", "st": "IA", "Zip": 50316.0, "O_14": 2.0, "Q_15": 4.0, "O_15": 1.0, "city": "DES MOINES", "beds": 81.0, "SR_15": 1.0}, {"Diff_star": -1.0, "addr": "314 SOUTH ELM  STREET", "SR_14": 1.0, "Q_14": 4.0, "name": "WESTMONT HEALTHCARE COMMUNITY", "SF_14": 4.0, "SF_15": 3.0, "cnty": "Harrison", "st": "IA", "Zip": 51546.0, "O_14": 2.0, "Q_15": 2.0, "O_15": 1.0, "city": "LOGAN", "beds": 46.0, "SR_15": 1.0}, {"Diff_star": 0.0, "addr": "819 COUNTRY LANE ROAD", "SR_14": 1.0, "Q_14": 3.0, "name": "GOOD SAMARITAN SOCIETY - VAN BUREN", "SF_14": 3.0, "SF_15": 3.0, "cnty": "Van Buren", "st": "IA", "Zip": 52565.0, "O_14": 1.0, "Q_15": 1.0, "O_15": 1.0, "city": "KEOSAUQUA", "beds": 66.0, "SR_15": 1.0}, {"Diff_star": 0.0, "addr": "1140 LINCOLN STREET NE", "SR_14": 2.0, "Q_14": 4.0, "name": "GOOD SAMARITAN SOCIETY - LEMARS", "SF_14": 4.0, "SF_15": 4.0, "cnty": "Plymouth", "st": "IA", "Zip": 51031.0, "O_14": 3.0, "Q_15": 4.0, "O_15": 3.0, "city": "LE MARS", "beds": 65.0, "SR_15": 2.0}, {"Diff_star": 0.0, "addr": "600 MORNINGSIDE AVENUE", "SR_14": 3.0, "Q_14": 5.0, "name": "MORNINGSIDE HEALTHCARE COMMUNITY", "SF_14": 2.0, "SF_15": 2.0, "cnty": "Ida", "st": "IA", "Zip": 51445.0, "O_14": 4.0, "Q_15": 5.0, "O_15": 4.0, "city": "IDA GROVE", "beds": 64.0, "SR_15": 3.0}, {"Diff_star": 0.0, "addr": "505 WEST SECOND STREET", "SR_14": 2.0, "Q_14": 4.0, "name": "GOOD SAMARITAN SOCIETY - HOLSTEIN", "SF_14": 4.0, "SF_15": 4.0, "cnty": "Ida", "st": "IA", "Zip": 51025.0, "O_14": 3.0, "Q_15": 3.0, "O_15": 3.0, "city": "HOLSTEIN", "beds": 60.0, "SR_15": 2.0}, {"Diff_star": -1.0, "addr": "2001 KENNEDY STREET", "SR_14": 1.0, "Q_14": 3.0, "name": "GRANGER NURSING & REHABILITATION CENTER", "SF_14": 4.0, "SF_15": 4.0, "cnty": "Dallas", "st": "IA", "Zip": 50109.0, "O_14": 2.0, "Q_15": 1.0, "O_15": 1.0, "city": "GRANGER", "beds": 67.0, "SR_15": 1.0}, {"Diff_star": 0.0, "addr": "309 WEST MERLE HIBBS BOULEVARD", "SR_14": 5.0, "Q_14": 4.0, "name": "SOUTHRIDGE NURSING & REHAB CEN", "SF_14": 4.0, "SF_15": 4.0, "cnty": "Marshall", "st": "IA", "Zip": 50158.0, "O_14": 5.0, "Q_15": 5.0, "O_15": 5.0, "city": "MARSHALLTOWN", "beds": 82.0, "SR_15": 5.0}, {"Diff_star": 0.0, "addr": "701 EAST FOURTH STREET", "SR_14": 5.0, "Q_14": 4.0, "name": "GOOD SAMARITAN SOCIETY - SAINT ANSGAR", "SF_14": 4.0, "SF_15": 3.0, "cnty": "Mitchell", "st": "IA", "Zip": 50472.0, "O_14": 5.0, "Q_15": 4.0, "O_15": 5.0, "city": "SAINT ANSGAR", "beds": 46.0, "SR_15": 5.0}, {"Diff_star": 1.0, "addr": "2035 WEST CHESTER AVENUE", "SR_14": 2.0, "Q_14": 4.0, "name": "GOOD SAMARITAN SOCIETY - OTTUMWA", "SF_14": 4.0, "SF_15": 4.0, "cnty": "Wapello", "st": "IA", "Zip": 52501.0, "O_14": 3.0, "Q_15": 3.0, "O_15": 4.0, "city": "OTTUMWA", "beds": 146.0, "SR_15": 3.0}, {"Diff_star": 0.0, "addr": "606 SOUTH SEVENTH STREET", "SR_14": 4.0, "Q_14": 5.0, "name": "GOOD SAMARITAN SOCIETY - FOREST CITY", "SF_14": 2.0, "SF_15": 2.0, "cnty": "Winnebago", "st": "IA", "Zip": 50436.0, "O_14": 5.0, "Q_15": 5.0, "O_15": 5.0, "city": "FOREST CITY", "beds": 56.0, "SR_15": 4.0}, {"Diff_star": 0.0, "addr": "2200 OAKDALE ROAD", "SR_14": 4.0, "Q_14": 4.0, "name": "LANTERN PARK NURSING CENTER", "SF_14": 1.0, "SF_15": 1.0, "cnty": "Johnson", "st": "IA", "Zip": 52241.0, "O_14": 3.0, "Q_15": 2.0, "O_15": 3.0, "city": "CORALVILLE", "beds": 90.0, "SR_15": 4.0}, {"Diff_star": 0.0, "addr": "1010 SOUTH UNION", "SR_14": 4.0, "Q_14": 5.0, "name": "LYON MANOR NURSING & REHAB CTR", "SF_14": 3.0, "SF_15": 3.0, "cnty": "Lyon", "st": "IA", "Zip": 51246.0, "O_14": 5.0, "Q_15": 5.0, "O_15": 5.0, "city": "ROCK RAPIDS", "beds": 49.0, "SR_15": 4.0}, {"Diff_star": 0.0, "addr": "404 JEFFERSON", "SR_14": 5.0, "Q_14": 4.0, "name": "PELLA REGIONAL HEALTH CENTER", "SF_14": "", "SF_15": "", "cnty": "Marion", "st": "IA", "Zip": 50219.0, "O_14": 5.0, "Q_15": 3.0, "O_15": 5.0, "city": "PELLA", "beds": 15.0, "SR_15": 5.0}, {"Diff_star": 0.0, "addr": "1000 HILLCREST DRIVE", "SR_14": 3.0, "Q_14": 5.0, "name": "CARING ACRES NURSING & REHAB CENTER", "SF_14": 4.0, "SF_15": 4.0, "cnty": "Cass", "st": "IA", "Zip": 50020.0, "O_14": 5.0, "Q_15": 5.0, "O_15": 5.0, "city": "ANITA", "beds": 46.0, "SR_15": 3.0}, {"Diff_star": 0.0, "addr": "801 28TH AVENUE NORTH", "SR_14": 1.0, "Q_14": 5.0, "name": "EAGLE POINT NURSING & REHAB CE", "SF_14": 3.0, "SF_15": 3.0, "cnty": "Clinton", "st": "IA", "Zip": 52732.0, "O_14": 2.0, "Q_15": 5.0, "O_15": 2.0, "city": "CLINTON", "beds": 150.0, "SR_15": 1.0}, {"Diff_star": 0.0, "addr": "304 EAST VETERANS ROAD", "SR_14": 3.0, "Q_14": 5.0, "name": "LAURENS CARE CENTER", "SF_14": 5.0, "SF_15": 5.0, "cnty": "Pocahontas", "st": "IA", "Zip": 50554.0, "O_14": 5.0, "Q_15": 5.0, "O_15": 5.0, "city": "LAURENS", "beds": 38.0, "SR_15": 3.0}, {"Diff_star": -1.0, "addr": "608 PRAIRIE STREET", "SR_14": 3.0, "Q_14": 3.0, "name": "PRAIRIE RIDGE CARE & REHABILIT", "SF_14": 3.0, "SF_15": 3.0, "cnty": "Des Moines", "st": "IA", "Zip": 52637.0, "O_14": 3.0, "Q_15": 1.0, "O_15": 2.0, "city": "MEDIAPOLIS", "beds": 62.0, "SR_15": 3.0}, {"Diff_star": 0.0, "addr": "745 EAST SOUTH STREET", "SR_14": 4.0, "Q_14": 3.0, "name": "CORYDON NURSING & REHAB CENTER", "SF_14": 2.0, "SF_15": 2.0, "cnty": "Wayne", "st": "IA", "Zip": 50060.0, "O_14": 4.0, "Q_15": 4.0, "O_15": 4.0, "city": "CORYDON", "beds": 71.0, "SR_15": 4.0}, {"Diff_star": 0.0, "addr": "1977 ALBIA ROAD", "SR_14": 3.0, "Q_14": 4.0, "name": "RIDGEWOOD NURSING & REHAB CENT", "SF_14": 2.0, "SF_15": 2.0, "cnty": "Wapello", "st": "IA", "Zip": 52501.0, "O_14": 3.0, "Q_15": 4.0, "O_15": 3.0, "city": "OTTUMWA", "beds": 70.0, "SR_15": 3.0}, {"Diff_star": 0.0, "addr": "1504 EAST SOUTH STREET", "SR_14": 5.0, "Q_14": 4.0, "name": "MOUNT AYR HEALTH CARE CENTER", "SF_14": 1.0, "SF_15": 1.0, "cnty": "Ringgold", "st": "IA", "Zip": 50854.0, "O_14": 4.0, "Q_15": 4.0, "O_15": 4.0, "city": "MOUNT AYR", "beds": 46.0, "SR_15": 5.0}, {"Diff_star": -1.0, "addr": "1208 EAST CROSS STREET", "SR_14": 4.0, "Q_14": 5.0, "name": "CENTERVILLE NURSING & REHAB CE", "SF_14": 2.0, "SF_15": 2.0, "cnty": "Appanoose", "st": "IA", "Zip": 52544.0, "O_14": 5.0, "Q_15": 4.0, "O_15": 4.0, "city": "CENTERVILLE", "beds": 67.0, "SR_15": 4.0}, {"Diff_star": 0.0, "addr": "601 E SOUTH STREET", "SR_14": 3.0, "Q_14": 2.0, "name": "MANLY NURSING & REHAB CENTER", "SF_14": 4.0, "SF_15": 4.0, "cnty": "Worth", "st": "IA", "Zip": 50456.0, "O_14": 4.0, "Q_15": 2.0, "O_15": 4.0, "city": "MANLY", "beds": 50.0, "SR_15": 3.0}, {"Diff_star": -1.0, "addr": "1702 41ST STREET", "SR_14": 2.0, "Q_14": 4.0, "name": "FORT MADISON HEALTH CENTER", "SF_14": 3.0, "SF_15": 3.0, "cnty": "Lee", "st": "IA", "Zip": 52627.0, "O_14": 2.0, "Q_15": 3.0, "O_15": 1.0, "city": "FORT MADISON", "beds": 90.0, "SR_15": 1.0}, {"Diff_star": 0.0, "addr": "2935 KAUFMANN AVENUE", "SR_14": 2.0, "Q_14": 4.0, "name": "DUBUQUE NURSING & REHAB CENTER", "SF_14": 1.0, "SF_15": 1.0, "cnty": "Dubuque", "st": "IA", "Zip": 52001.0, "O_14": 1.0, "Q_15": 3.0, "O_15": 1.0, "city": "DUBUQUE", "beds": 98.0, "SR_15": 2.0}, {"Diff_star": -2.0, "addr": "737 NORTH HIGHWAY", "SR_14": 2.0, "Q_14": 2.0, "name": "OAKLAND MANOR", "SF_14": 4.0, "SF_15": 3.0, "cnty": "Pottawattamie", "st": "IA", "Zip": 51560.0, "O_14": 3.0, "Q_15": 1.0, "O_15": 1.0, "city": "OAKLAND", "beds": 61.0, "SR_15": 1.0}, {"Diff_star": 0.0, "addr": "500  EAST VALLEY DRIVE", "SR_14": 3.0, "Q_14": 5.0, "name": "REGENCY PARK NURSING & REHAB CENTER OF CARROLL", "SF_14": 3.0, "SF_15": 3.0, "cnty": "Carroll", "st": "IA", "Zip": 51401.0, "O_14": 4.0, "Q_15": 5.0, "O_15": 4.0, "city": "CARROLL", "beds": 51.0, "SR_15": 3.0}, {"Diff_star": 0.0, "addr": "714 DIVISION", "SR_14": 2.0, "Q_14": 4.0, "name": "FRIENDSHIP HOME ASSOCIATION", "SF_14": 4.0, "SF_15": 4.0, "cnty": "Audubon", "st": "IA", "Zip": 50025.0, "O_14": 3.0, "Q_15": 4.0, "O_15": 3.0, "city": "AUDUBON", "beds": 64.0, "SR_15": 2.0}, {"Diff_star": 0.0, "addr": "100 RAM ROAD", "SR_14": 2.0, "Q_14": 4.0, "name": "REGENCY PARK NURSING & REHAB CENTER OF JEFFERSON", "SF_14": 3.0, "SF_15": 3.0, "cnty": "Greene", "st": "IA", "Zip": 50129.0, "O_14": 2.0, "Q_15": 2.0, "O_15": 2.0, "city": "JEFFERSON", "beds": 68.0, "SR_15": 2.0}, {"Diff_star": 0.0, "addr": "516 THIRTEENTH STREET", "SR_14": 1.0, "Q_14": 5.0, "name": "PARKVIEW MANOR", "SF_14": 4.0, "SF_15": 3.0, "cnty": "Washington", "st": "IA", "Zip": 52356.0, "O_14": 2.0, "Q_15": 5.0, "O_15": 2.0, "city": "WELLMAN", "beds": 62.0, "SR_15": 1.0}, {"Diff_star": 0.0, "addr": "111 EAST VAN BUREN", "SR_14": 4.0, "Q_14": 4.0, "name": "LENOX CARE CENTER", "SF_14": 4.0, "SF_15": 4.0, "cnty": "Taylor", "st": "IA", "Zip": 50851.0, "O_14": 4.0, "Q_15": 3.0, "O_15": 4.0, "city": "LENOX", "beds": 50.0, "SR_15": 4.0}, {"Diff_star": 0.0, "addr": "1402 MAIN STREET", "SR_14": 5.0, "Q_14": 3.0, "name": "GOOD SAMARITAN SOCIETY - MANSON", "SF_14": 4.0, "SF_15": 4.0, "cnty": "Calhoun", "st": "IA", "Zip": 50563.0, "O_14": 5.0, "Q_15": 2.0, "O_15": 5.0, "city": "MANSON", "beds": 42.0, "SR_15": 5.0}, {"Diff_star": -1.0, "addr": "326 SUMMERSET BOX 38", "SR_14": 3.0, "Q_14": 5.0, "name": "GOOD SAMARITAN SOCIETY - FONTANELLE", "SF_14": 4.0, "SF_15": 3.0, "cnty": "Adair", "st": "IA", "Zip": 50846.0, "O_14": 5.0, "Q_15": 5.0, "O_15": 4.0, "city": "FONTANELLE", "beds": 46.0, "SR_15": 3.0}, {"Diff_star": 0.0, "addr": "1202 RIDGE ROAD", "SR_14": 2.0, "Q_14": 5.0, "name": "DENISON CARE CENTER", "SF_14": 3.0, "SF_15": 3.0, "cnty": "Crawford", "st": "IA", "Zip": 51442.0, "O_14": 3.0, "Q_15": 5.0, "O_15": 3.0, "city": "DENISON", "beds": 50.0, "SR_15": 2.0}, {"Diff_star": 0.0, "addr": "400 HARDIN DRIVE", "SR_14": 4.0, "Q_14": 4.0, "name": "GOOD SAMARITAN SOCIETY - POSTVILLE", "SF_14": 3.0, "SF_15": 3.0, "cnty": "Allamakee", "st": "IA", "Zip": 52162.0, "O_14": 4.0, "Q_15": 4.0, "O_15": 4.0, "city": "POSTVILLE", "beds": 59.0, "SR_15": 4.0}, {"Diff_star": 0.0, "addr": "21 EAST MAIN STREET", "SR_14": 5.0, "Q_14": 5.0, "name": "GOOD SAMARITAN SOCIETY - WAUKON", "SF_14": 5.0, "SF_15": 5.0, "cnty": "Allamakee", "st": "IA", "Zip": 52172.0, "O_14": 5.0, "Q_15": 4.0, "O_15": 5.0, "city": "WAUKON", "beds": 84.0, "SR_15": 5.0}, {"Diff_star": 0.0, "addr": "102 EAST J AVENUE", "SR_14": 3.0, "Q_14": 5.0, "name": "GRUNDY CARE CENTER", "SF_14": 4.0, "SF_15": 4.0, "cnty": "Grundy", "st": "IA", "Zip": 50638.0, "O_14": 5.0, "Q_15": 5.0, "O_15": 5.0, "city": "GRUNDY CENTER", "beds": 40.0, "SR_15": 3.0}, {"Diff_star": -1.0, "addr": "302 NINTH STREET", "SR_14": 2.0, "Q_14": 5.0, "name": "CHAUTAUQUA GUEST HOME #3", "SF_14": 1.0, "SF_15": 1.0, "cnty": "Floyd", "st": "IA", "Zip": 50616.0, "O_14": 2.0, "Q_15": 3.0, "O_15": 1.0, "city": "CHARLES CITY", "beds": 65.0, "SR_15": 2.0}, {"Diff_star": -1.0, "addr": "2121 AVENUE L", "SR_14": 2.0, "Q_14": 2.0, "name": "HILLCREST HEALTH CARE CENTER", "SF_14": 3.0, "SF_15": 3.0, "cnty": "Sioux", "st": "IA", "Zip": 51023.0, "O_14": 2.0, "Q_15": 1.0, "O_15": 1.0, "city": "HAWARDEN", "beds": 64.0, "SR_15": 2.0}, {"Diff_star": 0.0, "addr": "324 FIRST AVENUE NORTH", "SR_14": 2.0, "Q_14": 4.0, "name": "GOOD SAMARITAN SOCIETY - GEORGE", "SF_14": 3.0, "SF_15": 3.0, "cnty": "Lyon", "st": "IA", "Zip": 51237.0, "O_14": 2.0, "Q_15": 4.0, "O_15": 2.0, "city": "GEORGE", "beds": 45.0, "SR_15": 2.0}, {"Diff_star": 0.0, "addr": "309 RAILROAD STREET", "SR_14": 2.0, "Q_14": 5.0, "name": "PLEASANT ACRES CARE CENTER", "SF_14": 3.0, "SF_15": 3.0, "cnty": "Sioux", "st": "IA", "Zip": 51239.0, "O_14": 3.0, "Q_15": 5.0, "O_15": 3.0, "city": "HULL", "beds": 50.0, "SR_15": 2.0}, {"Diff_star": 0.0, "addr": "415 WEST HIGHWAY 7", "SR_14": 2.0, "Q_14": 5.0, "name": "GOOD SAMARITAN SOCIETY - NEWELL", "SF_14": 3.0, "SF_15": 3.0, "cnty": "Buena Vista", "st": "IA", "Zip": 50568.0, "O_14": 3.0, "Q_15": 5.0, "O_15": 3.0, "city": "NEWELL", "beds": 45.0, "SR_15": 2.0}, {"Diff_star": 0.0, "addr": "2651 ST FRANCIS DRIVE", "SR_14": 1.0, "Q_14": 4.0, "name": "RAVENWOOD NURSING & REHAB CENTER", "SF_14": 4.0, "SF_15": 4.0, "cnty": "Black Hawk", "st": "IA", "Zip": 50702.0, "O_14": 2.0, "Q_15": 2.0, "O_15": 2.0, "city": "WATERLOO", "beds": 196.0, "SR_15": 1.0}, {"Diff_star": 0.0, "addr": "203 S W LORRAINE", "SR_14": 1.0, "Q_14": 4.0, "name": "WESTVIEW ACRES CARE CENTER", "SF_14": 4.0, "SF_15": 4.0, "cnty": "Decatur", "st": "IA", "Zip": 50144.0, "O_14": 2.0, "Q_15": 3.0, "O_15": 2.0, "city": "LEON", "beds": 67.0, "SR_15": 1.0}, {"Diff_star": 0.0, "addr": "805 EAST MAIN", "SR_14": 2.0, "Q_14": 4.0, "name": "PANORA NURSING & REHAB CENTER", "SF_14": 3.0, "SF_15": 3.0, "cnty": "Guthrie", "st": "IA", "Zip": 50216.0, "O_14": 2.0, "Q_15": 3.0, "O_15": 2.0, "city": "PANORA", "beds": 91.0, "SR_15": 2.0}, {"Diff_star": -1.0, "addr": "511 EAST CENTER", "SR_14": 1.0, "Q_14": 2.0, "name": "OAKVIEW, INC.", "SF_14": 4.0, "SF_15": 4.0, "cnty": "Grundy", "st": "IA", "Zip": 50621.0, "O_14": 2.0, "Q_15": 1.0, "O_15": 1.0, "city": "CONRAD", "beds": 46.0, "SR_15": 1.0}, {"Diff_star": -1.0, "addr": "680 COLE STREET", "SR_14": 1.0, "Q_14": 2.0, "name": "CARLISLE CENTER FOR WELLNESS AND REHAB", "SF_14": 4.0, "SF_15": 4.0, "cnty": "Warren", "st": "IA", "Zip": 50047.0, "O_14": 2.0, "Q_15": 1.0, "O_15": 1.0, "city": "CARLISLE", "beds": 101.0, "SR_15": 1.0}, {"Diff_star": 0.0, "addr": "222 NORTH 15TH STREET", "SR_14": 1.0, "Q_14": 5.0, "name": "ELMWOOD CARE CENTRE", "SF_14": 2.0, "SF_15": 2.0, "cnty": "Monona", "st": "IA", "Zip": 51040.0, "O_14": 2.0, "Q_15": 5.0, "O_15": 2.0, "city": "ONAWA", "beds": 54.0, "SR_15": 1.0}, {"Diff_star": -1.0, "addr": "1915 SOUTH 18TH STREET", "SR_14": 2.0, "Q_14": 4.0, "name": "GOLDEN AGE CARE CENTER", "SF_14": 4.0, "SF_15": 4.0, "cnty": "Appanoose", "st": "IA", "Zip": 52544.0, "O_14": 3.0, "Q_15": 1.0, "O_15": 2.0, "city": "CENTERVILLE", "beds": 70.0, "SR_15": 2.0}, {"Diff_star": 0.0, "addr": "1329 MAIN STREET", "SR_14": 4.0, "Q_14": 5.0, "name": "THORNTON MANOR", "SF_14": 4.0, "SF_15": 4.0, "cnty": "Allamakee", "st": "IA", "Zip": 52151.0, "O_14": 5.0, "Q_15": 5.0, "O_15": 5.0, "city": "LANSING", "beds": 60.0, "SR_15": 4.0}, {"Diff_star": 0.0, "addr": "901 STATE STREET", "SR_14": 4.0, "Q_14": 3.0, "name": "DONNELLSON HEALTH CENTER", "SF_14": 4.0, "SF_15": 4.0, "cnty": "Lee", "st": "IA", "Zip": 52625.0, "O_14": 4.0, "Q_15": 2.0, "O_15": 4.0, "city": "DONNELLSON", "beds": 55.0, "SR_15": 4.0}, {"Diff_star": 0.0, "addr": "1201 SE MILL POND COURT", "SR_14": 1.0, "Q_14": 5.0, "name": "MILL-POND RETIREMENT COMMUNITY", "SF_14": 4.0, "SF_15": 4.0, "cnty": "Polk", "st": "IA", "Zip": 50021.0, "O_14": 2.0, "Q_15": 5.0, "O_15": 2.0, "city": "ANKENY", "beds": 60.0, "SR_15": 1.0}, {"Diff_star": 0.0, "addr": "415 W SIXTH AVENUE", "SR_14": 1.0, "Q_14": 4.0, "name": "TRU REHAB OF GRINNELL", "SF_14": 3.0, "SF_15": 3.0, "cnty": "Poweshiek", "st": "IA", "Zip": 50112.0, "O_14": 1.0, "Q_15": 4.0, "O_15": 1.0, "city": "GRINNELL", "beds": 60.0, "SR_15": 1.0}, {"Diff_star": 0.0, "addr": "104 EAST FOURTH STREET BOX 430", "SR_14": 3.0, "Q_14": 5.0, "name": "MECHANICSVILLE NURSING & REHAB CENTER", "SF_14": 2.0, "SF_15": 2.0, "cnty": "Cedar", "st": "IA", "Zip": 52306.0, "O_14": 4.0, "Q_15": 5.0, "O_15": 4.0, "city": "MECHANICSVILLE", "beds": 67.0, "SR_15": 3.0}, {"Diff_star": 0.0, "addr": "114 CARTER STREET SW", "SR_14": 4.0, "Q_14": 4.0, "name": "QHC MITCHELLVILLE, LLC", "SF_14": 2.0, "SF_15": 2.0, "cnty": "Polk", "st": "IA", "Zip": 50169.0, "O_14": 4.0, "Q_15": 3.0, "O_15": 4.0, "city": "MITCHELLVILLE", "beds": 65.0, "SR_15": 4.0}, {"Diff_star": -1.0, "addr": "2721 10TH AVENUE NORTH", "SR_14": 3.0, "Q_14": 2.0, "name": "QHC FORT DODGE VILLA , LLC", "SF_14": 4.0, "SF_15": 3.0, "cnty": "Webster", "st": "IA", "Zip": 50501.0, "O_14": 4.0, "Q_15": 2.0, "O_15": 3.0, "city": "FORT DODGE", "beds": 107.0, "SR_15": 3.0}, {"Diff_star": 0.0, "addr": "1701 WEST 25TH STREET", "SR_14": 3.0, "Q_14": 4.0, "name": "HOLY SPIRIT RETIREMENT HOME", "SF_14": 5.0, "SF_15": 5.0, "cnty": "Woodbury", "st": "IA", "Zip": 51103.0, "O_14": 4.0, "Q_15": 2.0, "O_15": 4.0, "city": "SIOUX CITY", "beds": 94.0, "SR_15": 3.0}, {"Diff_star": 0.0, "addr": "2 SUNRISE AVENUE", "SR_14": 3.0, "Q_14": 4.0, "name": "MAPLE HEIGHTS", "SF_14": 3.0, "SF_15": 3.0, "cnty": "Monona", "st": "IA", "Zip": 51034.0, "O_14": 3.0, "Q_15": 4.0, "O_15": 3.0, "city": "MAPLETON", "beds": 72.0, "SR_15": 3.0}, {"Diff_star": 0.0, "addr": "701 RIVERVIEW", "SR_14": 1.0, "Q_14": 4.0, "name": "THE REHABILITATION CENTER OF DES MOINES", "SF_14": 3.0, "SF_15": 3.0, "cnty": "Polk", "st": "IA", "Zip": 50316.0, "O_14": 1.0, "Q_15": 4.0, "O_15": 1.0, "city": "DES MOINES", "beds": 74.0, "SR_15": 1.0}, {"Diff_star": -1.0, "addr": "406 WEST WASHINGTON", "SR_14": 4.0, "Q_14": 2.0, "name": "CLEARVIEW HOME", "SF_14": 4.0, "SF_15": 4.0, "cnty": "Ringgold", "st": "IA", "Zip": 50854.0, "O_14": 4.0, "Q_15": 1.0, "O_15": 3.0, "city": "MOUNT AYR", "beds": 82.0, "SR_15": 4.0}, {"Diff_star": 0.0, "addr": "1200 HIGHWAY 175 EAST", "SR_14": 2.0, "Q_14": 4.0, "name": "STRATFORD NURSING & REHAB CENT", "SF_14": 1.0, "SF_15": 1.0, "cnty": "Hamilton", "st": "IA", "Zip": 50249.0, "O_14": 1.0, "Q_15": 4.0, "O_15": 1.0, "city": "STRATFORD", "beds": 66.0, "SR_15": 2.0}, {"Diff_star": 0.0, "addr": "4201 FIELDCREST DRIVE", "SR_14": 2.0, "Q_14": 3.0, "name": "WESTWOOD NURSING & REHAB CENTE", "SF_14": 3.0, "SF_15": 3.0, "cnty": "Woodbury", "st": "IA", "Zip": 51104.0, "O_14": 2.0, "Q_15": 2.0, "O_15": 2.0, "city": "SIOUX CITY", "beds": 85.0, "SR_15": 2.0}, {"Diff_star": -1.0, "addr": "233 UNIVERSITY AVENUE", "SR_14": 2.0, "Q_14": 4.0, "name": "UNIVERSITY PARK NURSING & REHABILITATION CENTER", "SF_14": 4.0, "SF_15": 3.0, "cnty": "Polk", "st": "IA", "Zip": 50314.0, "O_14": 3.0, "Q_15": 3.0, "O_15": 2.0, "city": "DES MOINES", "beds": 108.0, "SR_15": 2.0}, {"Diff_star": 0.0, "addr": "4911 SW 19TH STREET", "SR_14": 1.0, "Q_14": 4.0, "name": "FLEUR HEIGHTS CENTER FOR WELLNESS AND REHAB", "SF_14": 5.0, "SF_15": 4.0, "cnty": "Polk", "st": "IA", "Zip": 50315.0, "O_14": 2.0, "Q_15": 3.0, "O_15": 2.0, "city": "DES MOINES", "beds": 120.0, "SR_15": 1.0}, {"Diff_star": 0.0, "addr": "2401 CRESTVIEW DRIVE", "SR_14": 4.0, "Q_14": 4.0, "name": "NORTHERN MAHASKA NURSING AND REHAB", "SF_14": 2.0, "SF_15": 2.0, "cnty": "Mahaska", "st": "IA", "Zip": 52577.0, "O_14": 4.0, "Q_15": 4.0, "O_15": 4.0, "city": "OSKALOOSA", "beds": 63.0, "SR_15": 4.0}, {"Diff_star": 1.0, "addr": "1000 EAST HOWARD", "SR_14": 2.0, "Q_14": 4.0, "name": "CREST HAVEN CARE CENTRE", "SF_14": 3.0, "SF_15": 3.0, "cnty": "Union", "st": "IA", "Zip": 50801.0, "O_14": 2.0, "Q_15": 5.0, "O_15": 3.0, "city": "CRESTON", "beds": 40.0, "SR_15": 2.0}, {"Diff_star": 0.0, "addr": "1050 4TH AVENUE SE", "SR_14": 3.0, "Q_14": 3.0, "name": "LIVING CENTER WEST", "SF_14": 3.0, "SF_15": 3.0, "cnty": "Linn", "st": "IA", "Zip": 52403.0, "O_14": 3.0, "Q_15": 3.0, "O_15": 3.0, "city": "CEDAR RAPIDS", "beds": 100.0, "SR_15": 3.0}, {"Diff_star": 0.0, "addr": "500 PINEHAVEN DRIVE", "SR_14": 4.0, "Q_14": 3.0, "name": "MONTICELLO NURSING & REHAB CEN", "SF_14": 1.0, "SF_15": 1.0, "cnty": "Jones", "st": "IA", "Zip": 52310.0, "O_14": 3.0, "Q_15": 2.0, "O_15": 3.0, "city": "MONTICELLO", "beds": 100.0, "SR_15": 4.0}, {"Diff_star": 0.0, "addr": "2730 CROW CREEK ROAD", "SR_14": 1.0, "Q_14": 2.0, "name": "BETTENDORF HEALTH CARE CENTER", "SF_14": 2.0, "SF_15": 2.0, "cnty": "Scott", "st": "IA", "Zip": 52722.0, "O_14": 1.0, "Q_15": 2.0, "O_15": 1.0, "city": "BETTENDORF", "beds": 86.0, "SR_15": 1.0}, {"Diff_star": 0.0, "addr": "714 SOUTH LACEY SUITE 100", "SR_14": 5.0, "Q_14": 4.0, "name": "ON WITH LIFE AT GLENWOOD", "SF_14": 5.0, "SF_15": 5.0, "cnty": "Mills", "st": "IA", "Zip": 51534.0, "O_14": 5.0, "Q_15": 3.0, "O_15": 5.0, "city": "GLENWOOD", "beds": 32.0, "SR_15": 5.0}, {"Diff_star": 0.0, "addr": "2313 15TH AVENUE", "SR_14": 5.0, "Q_14": 5.0, "name": "VALLEY VIEW NURSING & REHAB CE", "SF_14": 4.0, "SF_15": 4.0, "cnty": "Hardin", "st": "IA", "Zip": 50627.0, "O_14": 5.0, "Q_15": 5.0, "O_15": 5.0, "city": "ELDORA", "beds": 72.0, "SR_15": 5.0}, {"Diff_star": 1.0, "addr": "300 EAST JEFFERSON", "SR_14": 3.0, "Q_14": 4.0, "name": "FELLOWSHIP VILLAGE", "SF_14": 3.0, "SF_15": 3.0, "cnty": "Lyon", "st": "IA", "Zip": 51240.0, "O_14": 3.0, "Q_15": 5.0, "O_15": 4.0, "city": "INWOOD", "beds": 40.0, "SR_15": 3.0}, {"Diff_star": 0.0, "addr": "135 WARNER STREET", "SR_14": 3.0, "Q_14": 5.0, "name": "SUNNY KNOLL CARE CENTRE", "SF_14": 3.0, "SF_15": 3.0, "cnty": "Calhoun", "st": "IA", "Zip": 50579.0, "O_14": 4.0, "Q_15": 5.0, "O_15": 4.0, "city": "ROCKWELL CITY", "beds": 38.0, "SR_15": 3.0}, {"Diff_star": 0.0, "addr": "1614 NORTHGATE DRIVE", "SR_14": 2.0, "Q_14": 5.0, "name": "CORNING NURSING & REHAB CENTER", "SF_14": 2.0, "SF_15": 2.0, "cnty": "Adams", "st": "IA", "Zip": 50841.0, "O_14": 3.0, "Q_15": 5.0, "O_15": 3.0, "city": "CORNING", "beds": 54.0, "SR_15": 2.0}, {"Diff_star": 0.0, "addr": "909 6TH STREET", "SR_14": 1.0, "Q_14": 4.0, "name": "SUNRISE HILL CARE & REHAB CENTER", "SF_14": 1.0, "SF_15": 1.0, "cnty": "Tama", "st": "IA", "Zip": 50675.0, "O_14": 1.0, "Q_15": 4.0, "O_15": 1.0, "city": "TRAER", "beds": 76.0, "SR_15": 1.0}, {"Diff_star": 0.0, "addr": "451 WEST ORANGE STREET", "SR_14": 5.0, "Q_14": 4.0, "name": "CRESTVIEW NURSING & REHAB CENT", "SF_14": 3.0, "SF_15": 3.0, "cnty": "Cedar", "st": "IA", "Zip": 52358.0, "O_14": 5.0, "Q_15": 5.0, "O_15": 5.0, "city": "WEST BRANCH", "beds": 65.0, "SR_15": 5.0}, {"Diff_star": 0.0, "addr": "1300 EAST 19TH STREET", "SR_14": 4.0, "Q_14": 5.0, "name": "ATLANTIC NURSING & REHAB CENTE", "SF_14": 3.0, "SF_15": 3.0, "cnty": "Cass", "st": "IA", "Zip": 50022.0, "O_14": 5.0, "Q_15": 5.0, "O_15": 5.0, "city": "ATLANTIC", "beds": 90.0, "SR_15": 4.0}, {"Diff_star": 0.0, "addr": "34 NORTHCREST DRIVE", "SR_14": 3.0, "Q_14": 4.0, "name": "NORTH CREST LIVING CENTER", "SF_14": 4.0, "SF_15": 4.0, "cnty": "Pottawattamie", "st": "IA", "Zip": 51503.0, "O_14": 4.0, "Q_15": 4.0, "O_15": 4.0, "city": "COUNCIL BLUFFS", "beds": 62.0, "SR_15": 4.0}, {"Diff_star": 0.0, "addr": "420 SOUTH KENYON ROAD", "SR_14": 4.0, "Q_14": 4.0, "name": "FRIENDSHIP HAVEN, INC", "SF_14": 5.0, "SF_15": 5.0, "cnty": "Webster", "st": "IA", "Zip": 50501.0, "O_14": 5.0, "Q_15": 2.0, "O_15": 5.0, "city": "FORT DODGE", "beds": 155.0, "SR_15": 4.0}, {"Diff_star": 0.0, "addr": "1005 WEST PEARL", "SR_14": 4.0, "Q_14": 4.0, "name": "BEDFORD NURSING & REHAB CENTER", "SF_14": 2.0, "SF_15": 2.0, "cnty": "Taylor", "st": "IA", "Zip": 50833.0, "O_14": 4.0, "Q_15": 2.0, "O_15": 4.0, "city": "BEDFORD", "beds": 49.0, "SR_15": 4.0}, {"Diff_star": -1.0, "addr": "444 NORTH WEST VIEW DRIVE", "SR_14": 2.0, "Q_14": 3.0, "name": "SOUTHERN HILLS SPECIALITY CARE", "SF_14": 2.0, "SF_15": 2.0, "cnty": "Clarke", "st": "IA", "Zip": 50213.0, "O_14": 2.0, "Q_15": 1.0, "O_15": 1.0, "city": "OSCEOLA", "beds": 90.0, "SR_15": 2.0}, {"Diff_star": 0.0, "addr": "610 EAST YORK STREET", "SR_14": 2.0, "Q_14": 4.0, "name": "AVOCA NURSING & REHAB CENTER", "SF_14": 2.0, "SF_15": 2.0, "cnty": "Pottawattamie", "st": "IA", "Zip": 51521.0, "O_14": 2.0, "Q_15": 3.0, "O_15": 2.0, "city": "AVOCA", "beds": 46.0, "SR_15": 2.0}, {"Diff_star": 0.0, "addr": "316 MEADOW LANE DRIVE  PO BOX 790", "SR_14": 5.0, "Q_14": 5.0, "name": "MONTEZUMA NURSING & REHAB CENT", "SF_14": 4.0, "SF_15": 4.0, "cnty": "Poweshiek", "st": "IA", "Zip": 50171.0, "O_14": 5.0, "Q_15": 5.0, "O_15": 5.0, "city": "MONTEZUMA", "beds": 49.0, "SR_15": 5.0}, {"Diff_star": -1.0, "addr": "200 SHANNON DRIVE", "SR_14": 2.0, "Q_14": 3.0, "name": "PLEASANT VIEW CARE CENTER", "SF_14": 4.0, "SF_15": 4.0, "cnty": "Monona", "st": "IA", "Zip": 51063.0, "O_14": 3.0, "Q_15": 1.0, "O_15": 2.0, "city": "WHITING", "beds": 90.0, "SR_15": 2.0}, {"Diff_star": 0.0, "addr": "703 SOUTH FOURTH AVENUE", "SR_14": 3.0, "Q_14": 3.0, "name": "NEW HAMPTON NURSING & REHAB CE", "SF_14": 3.0, "SF_15": 3.0, "cnty": "Chickasaw", "st": "IA", "Zip": 50659.0, "O_14": 3.0, "Q_15": 2.0, "O_15": 3.0, "city": "NEW HAMPTON", "beds": 74.0, "SR_15": 3.0}, {"Diff_star": 0.0, "addr": "2305 CRESCENT DRIVE", "SR_14": 2.0, "Q_14": 4.0, "name": "WINDSOR NURSING & REHAB CENTER", "SF_14": 4.0, "SF_15": 4.0, "cnty": "Black Hawk", "st": "IA", "Zip": 50613.0, "O_14": 3.0, "Q_15": 3.0, "O_15": 3.0, "city": "CEDAR FALLS", "beds": 100.0, "SR_15": 2.0}, {"Diff_star": -1.0, "addr": "1485 GRAND", "SR_14": 1.0, "Q_14": 5.0, "name": "CRESTVIEW ACRES", "SF_14": 2.0, "SF_15": 2.0, "cnty": "Linn", "st": "IA", "Zip": 52302.0, "O_14": 2.0, "Q_15": 4.0, "O_15": 1.0, "city": "MARION", "beds": 100.0, "SR_15": 1.0}, {"Diff_star": 0.0, "addr": "1100 HWY 218 N", "SR_14": 4.0, "Q_14": 5.0, "name": "LAPORTE CITY NURSING & REHAB C", "SF_14": 2.0, "SF_15": 2.0, "cnty": "Black Hawk", "st": "IA", "Zip": 50651.0, "O_14": 5.0, "Q_15": 5.0, "O_15": 5.0, "city": "LA PORTE CITY", "beds": 46.0, "SR_15": 4.0}, {"Diff_star": 0.0, "addr": "1400 WEST MAIN", "SR_14": 5.0, "Q_14": 5.0, "name": "GREAT RIVER CARE CENTER", "SF_14": 3.0, "SF_15": 3.0, "cnty": "Clayton", "st": "IA", "Zip": 52157.0, "O_14": 5.0, "Q_15": 5.0, "O_15": 5.0, "city": "MC GREGOR", "beds": 50.0, "SR_15": 5.0}, {"Diff_star": -2.0, "addr": "530 SOUTH LINN AVENUE", "SR_14": 3.0, "Q_14": 5.0, "name": "LINN HAVEN REHAB & HEALTHCARE", "SF_14": 3.0, "SF_15": 3.0, "cnty": "Chickasaw", "st": "IA", "Zip": 50659.0, "O_14": 4.0, "Q_15": 5.0, "O_15": 2.0, "city": "NEW HAMPTON", "beds": 70.0, "SR_15": 1.0}, {"Diff_star": 0.0, "addr": "1610 THIRD STREET NE", "SR_14": 3.0, "Q_14": 4.0, "name": "ABCM REHAB CENTERS OF INDEPENDENCE WEST CAMPUS", "SF_14": 4.0, "SF_15": 4.0, "cnty": "Buchanan", "st": "IA", "Zip": 50644.0, "O_14": 4.0, "Q_15": 2.0, "O_15": 4.0, "city": "INDEPENDENCE", "beds": 86.0, "SR_15": 3.0}, {"Diff_star": -1.0, "addr": "400 SOUTH 7TH STREET", "SR_14": 3.0, "Q_14": 3.0, "name": "MONTROSE HEALTH CENTER", "SF_14": 4.0, "SF_15": 4.0, "cnty": "Lee", "st": "IA", "Zip": 52639.0, "O_14": 4.0, "Q_15": 1.0, "O_15": 3.0, "city": "MONTROSE", "beds": 52.0, "SR_15": 3.0}, {"Diff_star": 0.0, "addr": "1214 NORTH SEVENTH STREET", "SR_14": 1.0, "Q_14": 4.0, "name": "CHARITON NURSING AND REHAB CENTER", "SF_14": 2.0, "SF_15": 2.0, "cnty": "Lucas", "st": "IA", "Zip": 50049.0, "O_14": 1.0, "Q_15": 4.0, "O_15": 1.0, "city": "CHARITON", "beds": 119.0, "SR_15": 1.0}, {"Diff_star": 0.0, "addr": "2237 HIGHWAY 34", "SR_14": 1.0, "Q_14": 5.0, "name": "PARKVIEW CARE CENTER", "SF_14": 4.0, "SF_15": 4.0, "cnty": "Jefferson", "st": "IA", "Zip": 52556.0, "O_14": 2.0, "Q_15": 5.0, "O_15": 2.0, "city": "FAIRFIELD", "beds": 70.0, "SR_15": 1.0}, {"Diff_star": -1.0, "addr": "1410 WEST DUNKERTON ROAD", "SR_14": 2.0, "Q_14": 5.0, "name": "COUNTRY VIEW", "SF_14": 4.0, "SF_15": 3.0, "cnty": "Black Hawk", "st": "IA", "Zip": 50703.0, "O_14": 4.0, "Q_15": 5.0, "O_15": 3.0, "city": "WATERLOO", "beds": 134.0, "SR_15": 2.0}, {"Diff_star": 0.0, "addr": "1904  WEST HOWARD STREET", "SR_14": 1.0, "Q_14": 2.0, "name": "WEST RIDGE NURSING & REHAB CENTER", "SF_14": 2.0, "SF_15": 2.0, "cnty": "Marion", "st": "IA", "Zip": 50138.0, "O_14": 1.0, "Q_15": 1.0, "O_15": 1.0, "city": "KNOXVILLE", "beds": 78.0, "SR_15": 1.0}, {"Diff_star": 0.0, "addr": "920 NORTH CHERRY STREET", "SR_14": 3.0, "Q_14": 5.0, "name": "SHELL ROCK SENIOR LIVING", "SF_14": 4.0, "SF_15": 4.0, "cnty": "Butler", "st": "IA", "Zip": 50670.0, "O_14": 5.0, "Q_15": 5.0, "O_15": 5.0, "city": "SHELL ROCK", "beds": 44.0, "SR_15": 3.0}, {"Diff_star": -1.0, "addr": "200 CLIVE DRIVE SW", "SR_14": 1.0, "Q_14": 3.0, "name": "HERITAGE NURSING & REHAB CENTER", "SF_14": 4.0, "SF_15": 3.0, "cnty": "Linn", "st": "IA", "Zip": 52404.0, "O_14": 2.0, "Q_15": 1.0, "O_15": 1.0, "city": "CEDAR RAPIDS", "beds": 201.0, "SR_15": 1.0}, {"Diff_star": 0.0, "addr": "954 7TH AVENUE SE", "SR_14": 2.0, "Q_14": 2.0, "name": "PLYMOUTH MANOR CARE CENTER", "SF_14": "", "SF_15": "", "cnty": "Plymouth", "st": "IA", "Zip": 51031.0, "O_14": 2.0, "Q_15": 2.0, "O_15": 2.0, "city": "LE MARS", "beds": 65.0, "SR_15": 2.0}, {"Diff_star": 0.0, "addr": "607 QUEEN STREET", "SR_14": 4.0, "Q_14": 3.0, "name": "FONDA NURSING & REHAB CENTER", "SF_14": 2.0, "SF_15": 2.0, "cnty": "Pocahontas", "st": "IA", "Zip": 50540.0, "O_14": 4.0, "Q_15": 2.0, "O_15": 4.0, "city": "FONDA", "beds": 46.0, "SR_15": 4.0}, {"Diff_star": 0.0, "addr": "200 16TH AVENUE EAST", "SR_14": 3.0, "Q_14": 4.0, "name": "OAKWOOD NURSING & REHAB CENTER", "SF_14": 2.0, "SF_15": 2.0, "cnty": "Monroe", "st": "IA", "Zip": 52531.0, "O_14": 3.0, "Q_15": 2.0, "O_15": 3.0, "city": "ALBIA", "beds": 87.0, "SR_15": 3.0}, {"Diff_star": 0.0, "addr": "215 SOUTH OAK STREET", "SR_14": 5.0, "Q_14": 4.0, "name": "LAMONI NURSING & REHAB CENTER", "SF_14": 3.0, "SF_15": 3.0, "cnty": "Decatur", "st": "IA", "Zip": 50140.0, "O_14": 5.0, "Q_15": 4.0, "O_15": 5.0, "city": "LAMONI", "beds": 43.0, "SR_15": 5.0}, {"Diff_star": -1.0, "addr": "1510 22ND STREET", "SR_14": 5.0, "Q_14": 2.0, "name": "ELDORA NURSING AND REHAB CENTE", "SF_14": 1.0, "SF_15": 1.0, "cnty": "Hardin", "st": "IA", "Zip": 50627.0, "O_14": 4.0, "Q_15": 1.0, "O_15": 3.0, "city": "ELDORA", "beds": 49.0, "SR_15": 5.0}, {"Diff_star": 0.0, "addr": "3207 220TH TRAIL", "SR_14": 4.0, "Q_14": 5.0, "name": "COLONIAL MANOR OF AMANA", "SF_14": 5.0, "SF_15": 5.0, "cnty": "Iowa", "st": "IA", "Zip": 52203.0, "O_14": 5.0, "Q_15": 5.0, "O_15": 5.0, "city": "AMANA", "beds": 60.0, "SR_15": 4.0}, {"Diff_star": -1.0, "addr": "404 EAST GARFIELD", "SR_14": 1.0, "Q_14": 5.0, "name": "ZEARING HEALTH CARE, LLC", "SF_14": 4.0, "SF_15": 3.0, "cnty": "Story", "st": "IA", "Zip": 50278.0, "O_14": 2.0, "Q_15": 4.0, "O_15": 1.0, "city": "ZEARING", "beds": 40.0, "SR_15": 1.0}, {"Diff_star": 1.0, "addr": "2115 FIRST AVENUE SE", "SR_14": 2.0, "Q_14": 4.0, "name": "COTTAGE GROVE PLACE - THE CLUB", "SF_14": 5.0, "SF_15": 5.0, "cnty": "Linn", "st": "IA", "Zip": 52402.0, "O_14": 3.0, "Q_15": 4.0, "O_15": 4.0, "city": "CEDAR RAPIDS", "beds": 52.0, "SR_15": 3.0}, {"Diff_star": 0.0, "addr": "1116 EAST HIGHWAY 20", "SR_14": 5.0, "Q_14": 5.0, "name": "CORRECTIONVILLE NURSING & REHA", "SF_14": 3.0, "SF_15": 3.0, "cnty": "Woodbury", "st": "IA", "Zip": 51016.0, "O_14": 5.0, "Q_15": 4.0, "O_15": 5.0, "city": "CORRECTIONVILLE", "beds": 39.0, "SR_15": 5.0}, {"Diff_star": 0.0, "addr": "909 NORTH STATE STREET", "SR_14": 1.0, "Q_14": 3.0, "name": "PLEASANT CARE LIVING CENTER", "SF_14": 2.0, "SF_15": 2.0, "cnty": "Marion", "st": "IA", "Zip": 50225.0, "O_14": 1.0, "Q_15": 1.0, "O_15": 1.0, "city": "PLEASANTVILLE", "beds": 53.0, "SR_15": 1.0}, {"Diff_star": 0.0, "addr": "1212 SOUTH STUART STREET", "SR_14": 5.0, "Q_14": 5.0, "name": "MANOR HOUSE CARE CENTER", "SF_14": 4.0, "SF_15": 4.0, "cnty": "Keokuk", "st": "IA", "Zip": 52591.0, "O_14": 5.0, "Q_15": 5.0, "O_15": 5.0, "city": "SIGOURNEY", "beds": 72.0, "SR_15": 5.0}, {"Diff_star": 0.0, "addr": "800 NORTH DAVIS STREET", "SR_14": 1.0, "Q_14": 5.0, "name": "BLOOMFIELD CARE CENTER", "SF_14": 4.0, "SF_15": 4.0, "cnty": "Davis", "st": "IA", "Zip": 52537.0, "O_14": 2.0, "Q_15": 4.0, "O_15": 2.0, "city": "BLOOMFIELD", "beds": 91.0, "SR_15": 1.0}, {"Diff_star": 0.0, "addr": "706 WEST CENTRAL AVENUE", "SR_14": 5.0, "Q_14": 4.0, "name": "SUNRISE TERRACE NURSING & REHABILITATION CENTER", "SF_14": 4.0, "SF_15": 4.0, "cnty": "Henry", "st": "IA", "Zip": 52659.0, "O_14": 5.0, "Q_15": 5.0, "O_15": 5.0, "city": "WINFIELD", "beds": 50.0, "SR_15": 5.0}, {"Diff_star": 0.0, "addr": "305 WEST THIRD BOX 10", "SR_14": 3.0, "Q_14": 4.0, "name": "KINGSLEY NURSING & REHAB CENTE", "SF_14": 3.0, "SF_15": 3.0, "cnty": "Plymouth", "st": "IA", "Zip": 51028.0, "O_14": 3.0, "Q_15": 4.0, "O_15": 3.0, "city": "KINGSLEY", "beds": 43.0, "SR_15": 3.0}, {"Diff_star": 0.0, "addr": "1011 NORTH ROOSEVELT", "SR_14": 4.0, "Q_14": 4.0, "name": "CHEROKEE VILLA NURSING & REHAB", "SF_14": 3.0, "SF_15": 3.0, "cnty": "Cherokee", "st": "IA", "Zip": 51012.0, "O_14": 4.0, "Q_15": 2.0, "O_15": 4.0, "city": "CHEROKEE", "beds": 62.0, "SR_15": 4.0}, {"Diff_star": 0.0, "addr": "200 WASHINGTON", "SR_14": 2.0, "Q_14": 2.0, "name": "MORNING SUN CARE CENTER", "SF_14": 4.0, "SF_15": 4.0, "cnty": "Louisa", "st": "IA", "Zip": 52640.0, "O_14": 3.0, "Q_15": 2.0, "O_15": 3.0, "city": "MORNING SUN", "beds": 50.0, "SR_15": 2.0}, {"Diff_star": 0.0, "addr": "213 HALLAND AVENUE, PO BOX 430", "SR_14": 3.0, "Q_14": 3.0, "name": "STANTON CARE CENTER", "SF_14": 5.0, "SF_15": 5.0, "cnty": "Montgomery", "st": "IA", "Zip": 51573.0, "O_14": 4.0, "Q_15": 2.0, "O_15": 4.0, "city": "STANTON", "beds": 50.0, "SR_15": 3.0}, {"Diff_star": -1.0, "addr": "215 HIGHWAY 30 WEST", "SR_14": 4.0, "Q_14": 5.0, "name": "HALLMARK CARE CENTER", "SF_14": 4.0, "SF_15": 3.0, "cnty": "Linn", "st": "IA", "Zip": 52314.0, "O_14": 5.0, "Q_15": 4.0, "O_15": 4.0, "city": "MOUNT VERNON", "beds": 55.0, "SR_15": 4.0}, {"Diff_star": 0.0, "addr": "1315 ACRE STREET", "SR_14": 4.0, "Q_14": 4.0, "name": "GUTTENBERG CARE CENTER", "SF_14": 4.0, "SF_15": 4.0, "cnty": "Clayton", "st": "IA", "Zip": 52052.0, "O_14": 4.0, "Q_15": 2.0, "O_15": 4.0, "city": "GUTTENBERG", "beds": 93.0, "SR_15": 4.0}, {"Diff_star": 0.0, "addr": "403 SOUTH STATE STREET", "SR_14": 4.0, "Q_14": 2.0, "name": "HUBBARD CARE CENTER", "SF_14": 4.0, "SF_15": 4.0, "cnty": "Hardin", "st": "IA", "Zip": 50122.0, "O_14": 4.0, "Q_15": 2.0, "O_15": 4.0, "city": "HUBBARD", "beds": 60.0, "SR_15": 4.0}, {"Diff_star": 0.0, "addr": "900 7TH STREET WEST", "SR_14": 4.0, "Q_14": 5.0, "name": "REHABILITATION CENTER OF ALLISON", "SF_14": 4.0, "SF_15": 4.0, "cnty": "Butler", "st": "IA", "Zip": 50602.0, "O_14": 5.0, "Q_15": 5.0, "O_15": 5.0, "city": "ALLISON", "beds": 60.0, "SR_15": 4.0}, {"Diff_star": -1.0, "addr": "1700 THIRD STREET NE", "SR_14": 3.0, "Q_14": 4.0, "name": "ABCM REHAB CENTERS OF INDEPENDENCE EAST CAMPUS", "SF_14": 5.0, "SF_15": 5.0, "cnty": "Buchanan", "st": "IA", "Zip": 50644.0, "O_14": 4.0, "Q_15": 1.0, "O_15": 3.0, "city": "INDEPENDENCE", "beds": 50.0, "SR_15": 3.0}, {"Diff_star": 0.0, "addr": "960 4TH STREET NW", "SR_14": 5.0, "Q_14": 4.0, "name": "NORTHGATE CARE CENTER", "SF_14": 4.0, "SF_15": 4.0, "cnty": "Allamakee", "st": "IA", "Zip": 52172.0, "O_14": 5.0, "Q_15": 3.0, "O_15": 5.0, "city": "WAUKON", "beds": 50.0, "SR_15": 5.0}, {"Diff_star": 0.0, "addr": "921 THIRD STREET", "SR_14": 2.0, "Q_14": 5.0, "name": "DUMONT WELLNESS CENTER", "SF_14": 4.0, "SF_15": 4.0, "cnty": "Butler", "st": "IA", "Zip": 50625.0, "O_14": 4.0, "Q_15": 5.0, "O_15": 4.0, "city": "DUMONT", "beds": 38.0, "SR_15": 2.0}, {"Diff_star": 0.0, "addr": "800 FIFTH STREET SE", "SR_14": 3.0, "Q_14": 3.0, "name": "GRANDVIEW HEALTHCARE CENTER", "SF_14": 5.0, "SF_15": 5.0, "cnty": "Fayette", "st": "IA", "Zip": 50662.0, "O_14": 4.0, "Q_15": 2.0, "O_15": 4.0, "city": "OELWEIN", "beds": 93.0, "SR_15": 3.0}, {"Diff_star": 1.0, "addr": "600 SEVENTH STREET SE", "SR_14": 4.0, "Q_14": 4.0, "name": "OELWEIN HEALTH CARE CENTER", "SF_14": 4.0, "SF_15": 4.0, "cnty": "Fayette", "st": "IA", "Zip": 50662.0, "O_14": 4.0, "Q_15": 5.0, "O_15": 5.0, "city": "OELWEIN", "beds": 61.0, "SR_15": 4.0}, {"Diff_star": 0.0, "addr": "404 FIRST STREET", "SR_14": 3.0, "Q_14": 4.0, "name": "WILLOW DALE WELLNESS VILLAGE", "SF_14": 4.0, "SF_15": 4.0, "cnty": "Ida", "st": "IA", "Zip": 51006.0, "O_14": 4.0, "Q_15": 4.0, "O_15": 4.0, "city": "BATTLE CREEK", "beds": 50.0, "SR_15": 3.0}, {"Diff_star": -1.0, "addr": "601 PARK AVENUE", "SR_14": 2.0, "Q_14": 5.0, "name": "PARK VIEW REHABILITATION CENTER", "SF_14": 4.0, "SF_15": 4.0, "cnty": "Sac", "st": "IA", "Zip": 50583.0, "O_14": 4.0, "Q_15": 4.0, "O_15": 3.0, "city": "SAC CITY", "beds": 77.0, "SR_15": 2.0}, {"Diff_star": 0.0, "addr": "1808 MAIN STREET", "SR_14": 1.0, "Q_14": 4.0, "name": "GOWRIE CARE CENTER LLC", "SF_14": 3.0, "SF_15": 3.0, "cnty": "Webster", "st": "IA", "Zip": 50543.0, "O_14": 1.0, "Q_15": 3.0, "O_15": 1.0, "city": "GOWRIE", "beds": 50.0, "SR_15": 1.0}, {"Diff_star": -2.0, "addr": "5800 NE 12TH AVENUE", "SR_14": 4.0, "Q_14": 5.0, "name": "PARKRIDGE SPECIALTY CARE", "SF_14": 2.0, "SF_15": 2.0, "cnty": "Polk", "st": "IA", "Zip": 50327.0, "O_14": 5.0, "Q_15": 4.0, "O_15": 3.0, "city": "PLEASANT HILL", "beds": 90.0, "SR_15": 3.0}, {"Diff_star": 0.0, "addr": "345 PARROTT ST", "SR_14": 4.0, "Q_14": 5.0, "name": "MAPLE MANOR VILLAGE", "SF_14": 5.0, "SF_15": 5.0, "cnty": "Butler", "st": "IA", "Zip": 50604.0, "O_14": 5.0, "Q_15": 4.0, "O_15": 5.0, "city": "APLINGTON", "beds": 50.0, "SR_15": 4.0}, {"Diff_star": 0.0, "addr": "907 W CONGRESS", "SR_14": 4.0, "Q_14": 5.0, "name": "NORA SPRINGS CARE CENTER", "SF_14": 5.0, "SF_15": 5.0, "cnty": "Floyd", "st": "IA", "Zip": 50458.0, "O_14": 5.0, "Q_15": 5.0, "O_15": 5.0, "city": "NORA SPRINGS", "beds": 50.0, "SR_15": 4.0}, {"Diff_star": 1.0, "addr": "1505 SUNSET DRIVE", "SR_14": 4.0, "Q_14": 4.0, "name": "BELLE PLAINE NURSING & REHAB CENTER", "SF_14": 3.0, "SF_15": 3.0, "cnty": "Benton", "st": "IA", "Zip": 52208.0, "O_14": 4.0, "Q_15": 5.0, "O_15": 5.0, "city": "BELLE PLAINE", "beds": 66.0, "SR_15": 4.0}, {"Diff_star": 0.0, "addr": "1501 OFFICE PARK ROAD", "SR_14": 1.0, "Q_14": 3.0, "name": "FOUNTAIN WEST HEALTH CENTER", "SF_14": 4.0, "SF_15": 4.0, "cnty": "Polk", "st": "IA", "Zip": 50265.0, "O_14": 2.0, "Q_15": 2.0, "O_15": 2.0, "city": "WEST DES MOINES", "beds": 140.0, "SR_15": 1.0}, {"Diff_star": 0.0, "addr": "106 HARRISON ST", "SR_14": 5.0, "Q_14": 5.0, "name": "GRISWOLD REHABILITATION & HEALTH CARE CENTER", "SF_14": 4.0, "SF_15": 4.0, "cnty": "Cass", "st": "IA", "Zip": 51535.0, "O_14": 5.0, "Q_15": 4.0, "O_15": 5.0, "city": "GRISWOLD", "beds": 42.0, "SR_15": 5.0}, {"Diff_star": 0.0, "addr": "2405 21ST STREET", "SR_14": 3.0, "Q_14": 5.0, "name": "EMMETSBURG CARE CENTER", "SF_14": 4.0, "SF_15": 4.0, "cnty": "Palo Alto", "st": "IA", "Zip": 50536.0, "O_14": 5.0, "Q_15": 5.0, "O_15": 5.0, "city": "EMMETSBURG", "beds": 50.0, "SR_15": 3.0}, {"Diff_star": 0.0, "addr": "108 SECOND AVE  BOX 200", "SR_14": 4.0, "Q_14": 5.0, "name": "VALLEY VUE CARE CENTER", "SF_14": 4.0, "SF_15": 4.0, "cnty": "Emmet", "st": "IA", "Zip": 50514.0, "O_14": 5.0, "Q_15": 5.0, "O_15": 5.0, "city": "ARMSTRONG", "beds": 50.0, "SR_15": 4.0}, {"Diff_star": 0.0, "addr": "700 SECOND STREET SE", "SR_14": 4.0, "Q_14": 4.0, "name": "REHABILITATION CENTER OF HAMPTON", "SF_14": 4.0, "SF_15": 4.0, "cnty": "Franklin", "st": "IA", "Zip": 50441.0, "O_14": 4.0, "Q_15": 3.0, "O_15": 4.0, "city": "HAMPTON", "beds": 105.0, "SR_15": 4.0}, {"Diff_star": 0.0, "addr": "204 NORTH KEOKUK WASHINGTON ROAD", "SR_14": 3.0, "Q_14": 4.0, "name": "KEOTA HEALTH CARE CENTER", "SF_14": 4.0, "SF_15": 4.0, "cnty": "Keokuk", "st": "IA", "Zip": 52248.0, "O_14": 4.0, "Q_15": 3.0, "O_15": 4.0, "city": "KEOTA", "beds": 46.0, "SR_15": 3.0}, {"Diff_star": 0.0, "addr": "108 SOUTH HIGH STREET", "SR_14": 5.0, "Q_14": 4.0, "name": "LIEBE CARE CENTER", "SF_14": 3.0, "SF_15": 3.0, "cnty": "Butler", "st": "IA", "Zip": 50636.0, "O_14": 5.0, "Q_15": 3.0, "O_15": 5.0, "city": "GREENE", "beds": 39.0, "SR_15": 5.0}, {"Diff_star": -1.0, "addr": "1109 NORMAL STREET", "SR_14": 4.0, "Q_14": 5.0, "name": "ROSE VISTA HOME, INC.", "SF_14": 4.0, "SF_15": 4.0, "cnty": "Harrison", "st": "IA", "Zip": 51579.0, "O_14": 5.0, "Q_15": 3.0, "O_15": 4.0, "city": "WOODBINE", "beds": 76.0, "SR_15": 4.0}, {"Diff_star": 0.0, "addr": "217 MAIN STREET", "SR_14": 4.0, "Q_14": 5.0, "name": "THOMAS REST HAVEN", "SF_14": 5.0, "SF_15": 5.0, "cnty": "Carroll", "st": "IA", "Zip": 50058.0, "O_14": 5.0, "Q_15": 5.0, "O_15": 5.0, "city": "COON RAPIDS", "beds": 57.0, "SR_15": 4.0}, {"Diff_star": 0.0, "addr": "1206 WEST FOURTH STREET", "SR_14": 3.0, "Q_14": 4.0, "name": "METHODIST MANOR RETIREMENT COM", "SF_14": 2.0, "SF_15": 2.0, "cnty": "Buena Vista", "st": "IA", "Zip": 50588.0, "O_14": 3.0, "Q_15": 4.0, "O_15": 3.0, "city": "STORM LAKE", "beds": 93.0, "SR_15": 3.0}, {"Diff_star": 0.0, "addr": "100 SIXTH STREET", "SR_14": 1.0, "Q_14": 2.0, "name": "ROLLING GREEN VILLAGE CARE CEN", "SF_14": 3.0, "SF_15": 3.0, "cnty": "Story", "st": "IA", "Zip": 50201.0, "O_14": 1.0, "Q_15": 2.0, "O_15": 1.0, "city": "NEVADA", "beds": 69.0, "SR_15": 1.0}, {"Diff_star": -1.0, "addr": "110 13TH AVENUE SW", "SR_14": 1.0, "Q_14": 3.0, "name": "CLARION WELLNESS AND REHABILITATION CENTER", "SF_14": 4.0, "SF_15": 4.0, "cnty": "Wright", "st": "IA", "Zip": 50525.0, "O_14": 2.0, "Q_15": 1.0, "O_15": 1.0, "city": "CLARION", "beds": 76.0, "SR_15": 1.0}, {"Diff_star": 0.0, "addr": "445 EIGHTH AVENUE SW", "SR_14": 5.0, "Q_14": 5.0, "name": "WESTVIEW CARE CENTER", "SF_14": 5.0, "SF_15": 5.0, "cnty": "Hancock", "st": "IA", "Zip": 50423.0, "O_14": 5.0, "Q_15": 4.0, "O_15": 5.0, "city": "BRITT", "beds": 71.0, "SR_15": 5.0}, {"Diff_star": 0.0, "addr": "490 WEST LYON STREET", "SR_14": 5.0, "Q_14": 5.0, "name": "CONCORD CARE CENTER", "SF_14": 5.0, "SF_15": 5.0, "cnty": "Hancock", "st": "IA", "Zip": 50438.0, "O_14": 5.0, "Q_15": 5.0, "O_15": 5.0, "city": "GARNER", "beds": 66.0, "SR_15": 5.0}, {"Diff_star": -1.0, "addr": "400 HIGHWAY 18 WEST", "SR_14": 2.0, "Q_14": 4.0, "name": "OAKWOOD CARE CENTER", "SF_14": 4.0, "SF_15": 3.0, "cnty": "Cerro Gordo", "st": "IA", "Zip": 50428.0, "O_14": 3.0, "Q_15": 2.0, "O_15": 2.0, "city": "CLEAR LAKE", "beds": 90.0, "SR_15": 2.0}, {"Diff_star": 0.0, "addr": "406 SOUTH TENTH AVENUE EAST", "SR_14": 4.0, "Q_14": 5.0, "name": "LAKE MILLS CARE CENTER", "SF_14": 4.0, "SF_15": 4.0, "cnty": "Winnebago", "st": "IA", "Zip": 50450.0, "O_14": 5.0, "Q_15": 5.0, "O_15": 5.0, "city": "LAKE MILLS", "beds": 78.0, "SR_15": 4.0}, {"Diff_star": -1.0, "addr": "501 SOUTH KENTUCKY AVE", "SR_14": 4.0, "Q_14": 5.0, "name": "HERITAGE CARE AND REHABILITATION CENTER", "SF_14": 4.0, "SF_15": 4.0, "cnty": "Cerro Gordo", "st": "IA", "Zip": 50401.0, "O_14": 5.0, "Q_15": 4.0, "O_15": 4.0, "city": "MASON CITY", "beds": 87.0, "SR_15": 4.0}, {"Diff_star": -1.0, "addr": "736  HIGHWAY 37", "SR_14": 3.0, "Q_14": 4.0, "name": "LITTLE FLOWER HAVEN", "SF_14": 4.0, "SF_15": 3.0, "cnty": "Shelby", "st": "IA", "Zip": 51530.0, "O_14": 4.0, "Q_15": 2.0, "O_15": 3.0, "city": "EARLING", "beds": 53.0, "SR_15": 3.0}, {"Diff_star": 0.0, "addr": "1900 WEST THIRD PLACE", "SR_14": 4.0, "Q_14": 4.0, "name": "WESTVIEW OF INDIANOLA CARE CENTER", "SF_14": 4.0, "SF_15": 4.0, "cnty": "Warren", "st": "IA", "Zip": 50125.0, "O_14": 4.0, "Q_15": 2.0, "O_15": 4.0, "city": "INDIANOLA", "beds": 83.0, "SR_15": 4.0}, {"Diff_star": 0.0, "addr": "146 N 5TH ST", "SR_14": 4.0, "Q_14": 5.0, "name": "MANILLA MANOR", "SF_14": 3.0, "SF_15": 3.0, "cnty": "Crawford", "st": "IA", "Zip": 51454.0, "O_14": 5.0, "Q_15": 5.0, "O_15": 5.0, "city": "MANILLA", "beds": 47.0, "SR_15": 4.0}, {"Diff_star": 0.0, "addr": "2104 12TH STREET", "SR_14": 2.0, "Q_14": 4.0, "name": "ELM CREST RETIREMENT COMMUNITY", "SF_14": 4.0, "SF_15": 4.0, "cnty": "Shelby", "st": "IA", "Zip": 51537.0, "O_14": 3.0, "Q_15": 3.0, "O_15": 3.0, "city": "HARLAN", "beds": 71.0, "SR_15": 2.0}, {"Diff_star": -1.0, "addr": "1010 LONGVIEW ROAD", "SR_14": 2.0, "Q_14": 5.0, "name": "LONGVIEW HOME, INC", "SF_14": 4.0, "SF_15": 3.0, "cnty": "Harrison", "st": "IA", "Zip": 51555.0, "O_14": 4.0, "Q_15": 5.0, "O_15": 3.0, "city": "MISSOURI VALLEY", "beds": 112.0, "SR_15": 2.0}, {"Diff_star": 0.0, "addr": "1201 PARK STREET", "SR_14": 4.0, "Q_14": 4.0, "name": "MILL VALLEY CARE CENTER", "SF_14": 2.0, "SF_15": 2.0, "cnty": "Jackson", "st": "IA", "Zip": 52031.0, "O_14": 4.0, "Q_15": 4.0, "O_15": 4.0, "city": "BELLEVUE", "beds": 68.0, "SR_15": 4.0}, {"Diff_star": 0.0, "addr": "1209 EAST THIRD STREET", "SR_14": 4.0, "Q_14": 3.0, "name": "ANAMOSA CARE CENTER", "SF_14": 2.0, "SF_15": 2.0, "cnty": "Jones", "st": "IA", "Zip": 52205.0, "O_14": 4.0, "Q_15": 3.0, "O_15": 4.0, "city": "ANAMOSA", "beds": 76.0, "SR_15": 4.0}, {"Diff_star": -1.0, "addr": "17990 SPENCER ROAD PO BOX 503", "SR_14": 2.0, "Q_14": 2.0, "name": "RIVERVIEW MANOR", "SF_14": 2.0, "SF_15": 2.0, "cnty": "Scott", "st": "IA", "Zip": 52767.0, "O_14": 2.0, "Q_15": 1.0, "O_15": 1.0, "city": "PLEASANT VALLEY", "beds": 50.0, "SR_15": 2.0}, {"Diff_star": 0.0, "addr": "316 EAST LINCOLNWAY", "SR_14": 5.0, "Q_14": 4.0, "name": "WHEATLAND MANOR", "SF_14": 4.0, "SF_15": 3.0, "cnty": "Clinton", "st": "IA", "Zip": 52777.0, "O_14": 5.0, "Q_15": 4.0, "O_15": 5.0, "city": "WHEATLAND", "beds": 44.0, "SR_15": 5.0}, {"Diff_star": 0.0, "addr": "513 BELL STREET", "SR_14": 4.0, "Q_14": 4.0, "name": "EDGEWOOD CONVALESCENT HOME", "SF_14": 2.0, "SF_15": 2.0, "cnty": "Clayton", "st": "IA", "Zip": 52042.0, "O_14": 4.0, "Q_15": 3.0, "O_15": 4.0, "city": "EDGEWOOD", "beds": 58.0, "SR_15": 4.0}, {"Diff_star": 0.0, "addr": "1107 SEVENTH STREET NE", "SR_14": 4.0, "Q_14": 5.0, "name": "REHABILITATION CENTER OF BELMOND", "SF_14": 5.0, "SF_15": 5.0, "cnty": "Wright", "st": "IA", "Zip": 50421.0, "O_14": 5.0, "Q_15": 4.0, "O_15": 5.0, "city": "BELMOND", "beds": 86.0, "SR_15": 4.0}, {"Diff_star": 0.0, "addr": "900 SOUTH STONE STREET", "SR_14": 5.0, "Q_14": 5.0, "name": "SIGOURNEY HEALTH CARE", "SF_14": 3.0, "SF_15": 3.0, "cnty": "Keokuk", "st": "IA", "Zip": 52591.0, "O_14": 5.0, "Q_15": 5.0, "O_15": 5.0, "city": "SIGOURNEY", "beds": 50.0, "SR_15": 5.0}, {"Diff_star": 0.0, "addr": "606 NORTH SEVENTH STREET", "SR_14": 1.0, "Q_14": 4.0, "name": "KNOXVILLE REHABILITATION CENTER", "SF_14": 2.0, "SF_15": 2.0, "cnty": "Marion", "st": "IA", "Zip": 50138.0, "O_14": 1.0, "Q_15": 4.0, "O_15": 1.0, "city": "KNOXVILLE", "beds": 75.0, "SR_15": 1.0}, {"Diff_star": 0.0, "addr": "615 SE KENT STREET", "SR_14": 3.0, "Q_14": 4.0, "name": "GREENFIELD REHABILITATION & HEALTH CARE CENTER", "SF_14": 4.0, "SF_15": 4.0, "cnty": "Adair", "st": "IA", "Zip": 50849.0, "O_14": 4.0, "Q_15": 2.0, "O_15": 4.0, "city": "GREENFIELD", "beds": 46.0, "SR_15": 4.0}, {"Diff_star": 1.0, "addr": "100 BENNETT DRIVE", "SR_14": 2.0, "Q_14": 4.0, "name": "SHEFFIELD CARE CENTER", "SF_14": 4.0, "SF_15": 3.0, "cnty": "Franklin", "st": "IA", "Zip": 50475.0, "O_14": 3.0, "Q_15": 4.0, "O_15": 4.0, "city": "SHEFFIELD", "beds": 45.0, "SR_15": 4.0}, {"Diff_star": -1.0, "addr": "910 EAST OLIVE", "SR_14": 3.0, "Q_14": 4.0, "name": "GRANDVIEW HEIGHTS INC", "SF_14": 4.0, "SF_15": 3.0, "cnty": "Marshall", "st": "IA", "Zip": 50158.0, "O_14": 4.0, "Q_15": 3.0, "O_15": 3.0, "city": "MARSHALLTOWN", "beds": 109.0, "SR_15": 3.0}, {"Diff_star": 0.0, "addr": "407 9TH STREET", "SR_14": 5.0, "Q_14": 4.0, "name": "COLONIAL MANOR OF ELMA", "SF_14": 4.0, "SF_15": 3.0, "cnty": "Howard", "st": "IA", "Zip": 50628.0, "O_14": 5.0, "Q_15": 4.0, "O_15": 5.0, "city": "ELMA", "beds": 57.0, "SR_15": 5.0}, {"Diff_star": 0.0, "addr": "735 NORTH RERICK", "SR_14": 1.0, "Q_14": 4.0, "name": "PRIMGHAR REHAB & CARE CENTER", "SF_14": 4.0, "SF_15": 4.0, "cnty": "Obrien", "st": "IA", "Zip": 51245.0, "O_14": 2.0, "Q_15": 3.0, "O_15": 2.0, "city": "PRIMGHAR", "beds": 40.0, "SR_15": 1.0}, {"Diff_star": 0.0, "addr": "501 EAST PIONEER ROAD", "SR_14": 4.0, "Q_14": 4.0, "name": "LONE TREE HEALTH CARE CENTER", "SF_14": 4.0, "SF_15": 4.0, "cnty": "Johnson", "st": "IA", "Zip": 52755.0, "O_14": 4.0, "Q_15": 4.0, "O_15": 4.0, "city": "LONE TREE", "beds": 44.0, "SR_15": 4.0}, {"Diff_star": 1.0, "addr": "1220 FIFTH AVENUE SE", "SR_14": 3.0, "Q_14": 4.0, "name": "LIVING CENTER EAST", "SF_14": 3.0, "SF_15": 3.0, "cnty": "Linn", "st": "IA", "Zip": 52403.0, "O_14": 3.0, "Q_15": 5.0, "O_15": 4.0, "city": "CEDAR RAPIDS", "beds": 67.0, "SR_15": 3.0}, {"Diff_star": 0.0, "addr": "702 THIRD STREET NW", "SR_14": 5.0, "Q_14": 5.0, "name": "STATE CENTER NURSING & REHAB C", "SF_14": 4.0, "SF_15": 4.0, "cnty": "Marshall", "st": "IA", "Zip": 50247.0, "O_14": 5.0, "Q_15": 5.0, "O_15": 5.0, "city": "STATE CENTER", "beds": 48.0, "SR_15": 5.0}, {"Diff_star": 0.0, "addr": "116 REIMER STREET SW", "SR_14": 4.0, "Q_14": 2.0, "name": "ELKADER CARE CENTER", "SF_14": 4.0, "SF_15": 4.0, "cnty": "Clayton", "st": "IA", "Zip": 52043.0, "O_14": 4.0, "Q_15": 2.0, "O_15": 4.0, "city": "ELKADER", "beds": 44.0, "SR_15": 4.0}, {"Diff_star": 0.0, "addr": "2320 WASHINGTON AVENUE", "SR_14": 4.0, "Q_14": 5.0, "name": "HERITAGE CARE CENTER", "SF_14": 4.0, "SF_15": 4.0, "cnty": "Hardin", "st": "IA", "Zip": 50126.0, "O_14": 5.0, "Q_15": 5.0, "O_15": 5.0, "city": "IOWA FALLS", "beds": 66.0, "SR_15": 4.0}, {"Diff_star": -1.0, "addr": "401 S BIRCH STREET", "SR_14": 3.0, "Q_14": 3.0, "name": "DANVILLE CARE CENTER", "SF_14": 4.0, "SF_15": 4.0, "cnty": "Des Moines", "st": "IA", "Zip": 52623.0, "O_14": 4.0, "Q_15": 2.0, "O_15": 3.0, "city": "DANVILLE", "beds": 40.0, "SR_15": 2.0}, {"Diff_star": 1.0, "addr": "20 VILLAGE CIRCLE", "SR_14": 1.0, "Q_14": 4.0, "name": "RIVER HILLS VILLAGE IN KEOKUK", "SF_14": 5.0, "SF_15": 4.0, "cnty": "Lee", "st": "IA", "Zip": 52632.0, "O_14": 2.0, "Q_15": 3.0, "O_15": 3.0, "city": "KEOKUK", "beds": 83.0, "SR_15": 2.0}, {"Diff_star": 0.0, "addr": "604 EAST FENTON", "SR_14": 4.0, "Q_14": 3.0, "name": "HEARTLAND CARE CENTER", "SF_14": 3.0, "SF_15": 3.0, "cnty": "Cherokee", "st": "IA", "Zip": 51035.0, "O_14": 4.0, "Q_15": 2.0, "O_15": 4.0, "city": "MARCUS", "beds": 30.0, "SR_15": 4.0}, {"Diff_star": 0.0, "addr": "407 SOUTH EAST AVENUE", "SR_14": 1.0, "Q_14": 3.0, "name": "BAXTER HEALTH CARE CENTER", "SF_14": 1.0, "SF_15": 1.0, "cnty": "Jasper", "st": "IA", "Zip": 50028.0, "O_14": 1.0, "Q_15": 1.0, "O_15": 1.0, "city": "BAXTER", "beds": 44.0, "SR_15": 1.0}, {"Diff_star": -1.0, "addr": "815 HIGH ROAD", "SR_14": 1.0, "Q_14": 5.0, "name": "REGENCY CARE CENTER", "SF_14": 3.0, "SF_15": 2.0, "cnty": "Warren", "st": "IA", "Zip": 50211.0, "O_14": 2.0, "Q_15": 4.0, "O_15": 1.0, "city": "NORWALK", "beds": 101.0, "SR_15": 1.0}, {"Diff_star": -1.0, "addr": "700 NINTH AVENUE NORTH", "SR_14": 4.0, "Q_14": 5.0, "name": "SIBLEY NURSING & REHAB CENTER", "SF_14": 2.0, "SF_15": 2.0, "cnty": "Osceola", "st": "IA", "Zip": 51249.0, "O_14": 5.0, "Q_15": 4.0, "O_15": 4.0, "city": "SIBLEY", "beds": 51.0, "SR_15": 4.0}, {"Diff_star": 0.0, "addr": "1600 13TH STREET", "SR_14": 3.0, "Q_14": 4.0, "name": "MILFORD NURSING CENTER", "SF_14": 4.0, "SF_15": 4.0, "cnty": "Dickinson", "st": "IA", "Zip": 51351.0, "O_14": 4.0, "Q_15": 3.0, "O_15": 4.0, "city": "MILFORD", "beds": 50.0, "SR_15": 3.0}, {"Diff_star": 0.0, "addr": "702 BLAKE STREET", "SR_14": 4.0, "Q_14": 5.0, "name": "SIOUX CARE CENTER", "SF_14": 4.0, "SF_15": 4.0, "cnty": "Buena Vista", "st": "IA", "Zip": 50585.0, "O_14": 5.0, "Q_15": 5.0, "O_15": 5.0, "city": "SIOUX RAPIDS", "beds": 30.0, "SR_15": 4.0}, {"Diff_star": 0.0, "addr": "100 CARE CENTER CIRCLE STREET", "SR_14": 5.0, "Q_14": 5.0, "name": "NEW LONDON NURSING & REHAB CEN", "SF_14": 2.0, "SF_15": 2.0, "cnty": "Henry", "st": "IA", "Zip": 52645.0, "O_14": 5.0, "Q_15": 4.0, "O_15": 5.0, "city": "NEW LONDON", "beds": 49.0, "SR_15": 5.0}, {"Diff_star": -1.0, "addr": "423 ROOSEVELT STREET", "SR_14": 3.0, "Q_14": 5.0, "name": "HAPPY SIESTA NURSING HOME", "SF_14": 2.0, "SF_15": 2.0, "cnty": "Plymouth", "st": "IA", "Zip": 51050.0, "O_14": 4.0, "Q_15": 5.0, "O_15": 3.0, "city": "REMSEN", "beds": 62.0, "SR_15": 2.0}, {"Diff_star": 0.0, "addr": "707 ELM STREET", "SR_14": 4.0, "Q_14": 5.0, "name": "ROCKWELL COMMUNITY NURSING HOM", "SF_14": 4.0, "SF_15": 4.0, "cnty": "Cerro Gordo", "st": "IA", "Zip": 50469.0, "O_14": 5.0, "Q_15": 5.0, "O_15": 5.0, "city": "ROCKWELL", "beds": 46.0, "SR_15": 4.0}, {"Diff_star": 0.0, "addr": "546 EAST RAMSEY STREET", "SR_14": 4.0, "Q_14": 5.0, "name": "HERITAGE NURSING HOME", "SF_14": 4.0, "SF_15": 4.0, "cnty": "Kossuth", "st": "IA", "Zip": 50517.0, "O_14": 5.0, "Q_15": 5.0, "O_15": 5.0, "city": "BANCROFT", "beds": 39.0, "SR_15": 4.0}, {"Diff_star": 0.0, "addr": "2416 SOUTH DES MOINES STREET", "SR_14": 3.0, "Q_14": 5.0, "name": "SOUTHFIELD WELLNESS COMMUNITY", "SF_14": 4.0, "SF_15": 4.0, "cnty": "Hamilton", "st": "IA", "Zip": 50595.0, "O_14": 5.0, "Q_15": 5.0, "O_15": 5.0, "city": "WEBSTER CITY", "beds": 88.0, "SR_15": 3.0}, {"Diff_star": 0.0, "addr": "409 SOUTH CARTHAGE", "SR_14": 5.0, "Q_14": 5.0, "name": "EXIRA CARE CENTER", "SF_14": 1.0, "SF_15": 1.0, "cnty": "Audubon", "st": "IA", "Zip": 50076.0, "O_14": 5.0, "Q_15": 5.0, "O_15": 5.0, "city": "EXIRA", "beds": 60.0, "SR_15": 5.0}, {"Diff_star": 0.0, "addr": "410 SPRUCE STREET", "SR_14": 4.0, "Q_14": 5.0, "name": "PLEASANT VIEW HOME", "SF_14": 4.0, "SF_15": 4.0, "cnty": "Buena Vista", "st": "IA", "Zip": 50510.0, "O_14": 5.0, "Q_15": 5.0, "O_15": 5.0, "city": "ALBERT CITY", "beds": 45.0, "SR_15": 4.0}, {"Diff_star": 0.0, "addr": "303 EAST 7TH STREET", "SR_14": 1.0, "Q_14": 1.0, "name": "POMEROY CARE CENTER", "SF_14": 5.0, "SF_15": 5.0, "cnty": "Calhoun", "st": "IA", "Zip": 50575.0, "O_14": 1.0, "Q_15": 1.0, "O_15": 1.0, "city": "POMEROY", "beds": 40.0, "SR_15": 1.0}, {"Diff_star": 0.0, "addr": "508 WEST PEARL", "SR_14": 2.0, "Q_14": 1.0, "name": "AFTON CARE CENTER", "SF_14": 3.0, "SF_15": 3.0, "cnty": "Union", "st": "IA", "Zip": 50830.0, "O_14": 1.0, "Q_15": 1.0, "O_15": 1.0, "city": "AFTON", "beds": 43.0, "SR_15": 2.0}, {"Diff_star": 0.0, "addr": "1000 NORTH MILLER STREET", "SR_14": 4.0, "Q_14": 3.0, "name": "SIMPSON MEMORIAL HOME", "SF_14": 3.0, "SF_15": 3.0, "cnty": "Muscatine", "st": "IA", "Zip": 52776.0, "O_14": 4.0, "Q_15": 2.0, "O_15": 4.0, "city": "WEST LIBERTY", "beds": 65.0, "SR_15": 4.0}, {"Diff_star": 0.0, "addr": "2130 WEST 18TH STREET SOUTH", "SR_14": 3.0, "Q_14": 3.0, "name": "CAREAGE OF NEWTON", "SF_14": 4.0, "SF_15": 4.0, "cnty": "Jasper", "st": "IA", "Zip": 50208.0, "O_14": 4.0, "Q_15": 3.0, "O_15": 4.0, "city": "NEWTON", "beds": 53.0, "SR_15": 3.0}, {"Diff_star": 0.0, "addr": "1743 SOUTH EIGHTH AVENUE EAST", "SR_14": 1.0, "Q_14": 3.0, "name": "HERITAGE MANOR", "SF_14": 2.0, "SF_15": 2.0, "cnty": "Jasper", "st": "IA", "Zip": 50208.0, "O_14": 1.0, "Q_15": 2.0, "O_15": 1.0, "city": "NEWTON", "beds": 62.0, "SR_15": 1.0}, {"Diff_star": -1.0, "addr": "1204 SOUTH FOURTH STREET", "SR_14": 3.0, "Q_14": 5.0, "name": "RIVERSIDE SOUTH", "SF_14": 2.0, "SF_15": 2.0, "cnty": "Story", "st": "IA", "Zip": 50010.0, "O_14": 4.0, "Q_15": 4.0, "O_15": 3.0, "city": "AMES", "beds": 59.0, "SR_15": 3.0}, {"Diff_star": -1.0, "addr": "3440 GRAND AVENUE", "SR_14": 2.0, "Q_14": 5.0, "name": "RIVERSIDE NORTH", "SF_14": 2.0, "SF_15": 2.0, "cnty": "Story", "st": "IA", "Zip": 50010.0, "O_14": 3.0, "Q_15": 4.0, "O_15": 2.0, "city": "AMES", "beds": 70.0, "SR_15": 2.0}, {"Diff_star": -1.0, "addr": "212 LAFAYETTE STREET", "SR_14": 2.0, "Q_14": 3.0, "name": "BETHANY MANOR", "SF_14": 4.0, "SF_15": 4.0, "cnty": "Story", "st": "IA", "Zip": 50248.0, "O_14": 3.0, "Q_15": 1.0, "O_15": 2.0, "city": "STORY CITY", "beds": 180.0, "SR_15": 2.0}, {"Diff_star": 0.0, "addr": "921 RIVERVIEW DRIVE", "SR_14": 3.0, "Q_14": 4.0, "name": "COUNTRY SIDE ESTATES", "SF_14": 3.0, "SF_15": 3.0, "cnty": "Cherokee", "st": "IA", "Zip": 51012.0, "O_14": 3.0, "Q_15": 2.0, "O_15": 3.0, "city": "CHEROKEE", "beds": 48.0, "SR_15": 3.0}, {"Diff_star": -1.0, "addr": "2625 IOWA STREET", "SR_14": 2.0, "Q_14": 2.0, "name": "PERRY HEALTH CARE CENTER", "SF_14": 2.0, "SF_15": 2.0, "cnty": "Dallas", "st": "IA", "Zip": 50220.0, "O_14": 2.0, "Q_15": 1.0, "O_15": 1.0, "city": "PERRY", "beds": 46.0, "SR_15": 2.0}, {"Diff_star": 0.0, "addr": "200 SOUTH EIGHTH AVENUE EAST", "SR_14": 3.0, "Q_14": 5.0, "name": "NEWTON HEALTH CARE CENTER", "SF_14": 2.0, "SF_15": 2.0, "cnty": "Jasper", "st": "IA", "Zip": 50208.0, "O_14": 4.0, "Q_15": 5.0, "O_15": 4.0, "city": "NEWTON", "beds": 70.0, "SR_15": 3.0}, {"Diff_star": 0.0, "addr": "725 NORTH SECOND STREET", "SR_14": 2.0, "Q_14": 3.0, "name": "CAREAGE HILLS REHABILITATION AND HEALTHCARE", "SF_14": 2.0, "SF_15": 2.0, "cnty": "Cherokee", "st": "IA", "Zip": 51012.0, "O_14": 2.0, "Q_15": 3.0, "O_15": 2.0, "city": "CHEROKEE", "beds": 44.0, "SR_15": 2.0}, {"Diff_star": 0.0, "addr": "320 FIRST AVENUE SE", "SR_14": 1.0, "Q_14": 3.0, "name": "THE ABBEY OF LEMARS, INC.", "SF_14": 1.0, "SF_15": 2.0, "cnty": "Plymouth", "st": "IA", "Zip": 51031.0, "O_14": 1.0, "Q_15": 2.0, "O_15": 1.0, "city": "LE MARS", "beds": 52.0, "SR_15": 1.0}, {"Diff_star": 0.0, "addr": "312 FIRST AVENUE NW", "SR_14": 4.0, "Q_14": 4.0, "name": "TITONKA CARE CENTER", "SF_14": 4.0, "SF_15": 4.0, "cnty": "Kossuth", "st": "IA", "Zip": 50480.0, "O_14": 4.0, "Q_15": 3.0, "O_15": 4.0, "city": "TITONKA", "beds": 37.0, "SR_15": 4.0}, {"Diff_star": 0.0, "addr": "2421 LUTHERAN DRIVE", "SR_14": 2.0, "Q_14": 4.0, "name": "LUTHERAN LIVING SENIOR CAMPUS", "SF_14": 4.0, "SF_15": 4.0, "cnty": "Muscatine", "st": "IA", "Zip": 52761.0, "O_14": 3.0, "Q_15": 3.0, "O_15": 3.0, "city": "MUSCATINE", "beds": 155.0, "SR_15": 2.0}, {"Diff_star": -1.0, "addr": "914 DAVIDSON DRIVE", "SR_14": 4.0, "Q_14": 5.0, "name": "FAITH LUTHERAN HOME", "SF_14": 4.0, "SF_15": 3.0, "cnty": "Mitchell", "st": "IA", "Zip": 50461.0, "O_14": 5.0, "Q_15": 4.0, "O_15": 4.0, "city": "OSAGE", "beds": 60.0, "SR_15": 4.0}, {"Diff_star": -1.0, "addr": "625 EAST OAK STREET", "SR_14": 1.0, "Q_14": 4.0, "name": "OGDEN MANOR", "SF_14": 4.0, "SF_15": 3.0, "cnty": "Boone", "st": "IA", "Zip": 50212.0, "O_14": 2.0, "Q_15": 4.0, "O_15": 1.0, "city": "OGDEN", "beds": 46.0, "SR_15": 1.0}, {"Diff_star": 0.0, "addr": "3800 INDIAN HILLS DRIVE", "SR_14": 1.0, "Q_14": 3.0, "name": "HALLMARK CARE CENTER", "SF_14": 4.0, "SF_15": 4.0, "cnty": "Woodbury", "st": "IA", "Zip": 51104.0, "O_14": 2.0, "Q_15": 2.0, "O_15": 2.0, "city": "SIOUX CITY", "beds": 48.0, "SR_15": 1.0}, {"Diff_star": 0.0, "addr": "800 EAST RUSHOLME STREET", "SR_14": 1.0, "Q_14": 5.0, "name": "ST MARY HEALTHCARE AND REHABILITATION CENTER", "SF_14": 3.0, "SF_15": 3.0, "cnty": "Scott", "st": "IA", "Zip": 52803.0, "O_14": 2.0, "Q_15": 5.0, "O_15": 2.0, "city": "DAVENPORT", "beds": 90.0, "SR_15": 1.0}, {"Diff_star": -1.0, "addr": "100 BOLGER DRIVE", "SR_14": 3.0, "Q_14": 5.0, "name": "MAPLE CREST MANOR", "SF_14": 4.0, "SF_15": 4.0, "cnty": "Fayette", "st": "IA", "Zip": 52142.0, "O_14": 5.0, "Q_15": 4.0, "O_15": 4.0, "city": "FAYETTE", "beds": 55.0, "SR_15": 3.0}, {"Diff_star": 0.0, "addr": "413 SOUTH BROAD STREET", "SR_14": 4.0, "Q_14": 4.0, "name": "STACYVILLE COMMUNITY NURSING HOME", "SF_14": 5.0, "SF_15": 5.0, "cnty": "Mitchell", "st": "IA", "Zip": 50476.0, "O_14": 5.0, "Q_15": 4.0, "O_15": 5.0, "city": "STACYVILLE", "beds": 34.0, "SR_15": 4.0}, {"Diff_star": 0.0, "addr": "1212 INDIAN HILLS DRIVE", "SR_14": 4.0, "Q_14": 5.0, "name": "BLAIR HOUSE", "SF_14": 4.0, "SF_15": 3.0, "cnty": "Des Moines", "st": "IA", "Zip": 52601.0, "O_14": 5.0, "Q_15": 5.0, "O_15": 5.0, "city": "BURLINGTON", "beds": 60.0, "SR_15": 4.0}, {"Diff_star": 0.0, "addr": "3456 INDIAN CREEK ROAD", "SR_14": 4.0, "Q_14": 4.0, "name": "WINSLOW HOUSE CARE CENTER", "SF_14": 4.0, "SF_15": 3.0, "cnty": "Linn", "st": "IA", "Zip": 52302.0, "O_14": 4.0, "Q_15": 4.0, "O_15": 4.0, "city": "MARION", "beds": 50.0, "SR_15": 4.0}, {"Diff_star": 0.0, "addr": "410 N W  ASH DRIVE", "SR_14": 3.0, "Q_14": 4.0, "name": "SUNNY VIEW CARE CENTER", "SF_14": 3.0, "SF_15": 3.0, "cnty": "Polk", "st": "IA", "Zip": 50023.0, "O_14": 3.0, "Q_15": 3.0, "O_15": 3.0, "city": "ANKENY", "beds": 94.0, "SR_15": 3.0}, {"Diff_star": 0.0, "addr": "1922 FIFTH AVENUE NW", "SR_14": 3.0, "Q_14": 5.0, "name": "WOODLAND TERRACE", "SF_14": 4.0, "SF_15": 4.0, "cnty": "Bremer", "st": "IA", "Zip": 50677.0, "O_14": 5.0, "Q_15": 5.0, "O_15": 5.0, "city": "WAVERLY", "beds": 126.0, "SR_15": 3.0}, {"Diff_star": 0.0, "addr": "502 BUTLER STREET", "SR_14": 1.0, "Q_14": 4.0, "name": "GRAND JI VANTE", "SF_14": 4.0, "SF_15": 4.0, "cnty": "Hardin", "st": "IA", "Zip": 50601.0, "O_14": 2.0, "Q_15": 4.0, "O_15": 2.0, "city": "ACKLEY", "beds": 70.0, "SR_15": 1.0}, {"Diff_star": 0.0, "addr": "203 FOURTH STREET NW", "SR_14": 5.0, "Q_14": 5.0, "name": "WEST BEND HEALTH AND REHABILITATION", "SF_14": 4.0, "SF_15": 3.0, "cnty": "Palo Alto", "st": "IA", "Zip": 50597.0, "O_14": 5.0, "Q_15": 5.0, "O_15": 5.0, "city": "WEST BEND", "beds": 45.0, "SR_15": 5.0}, {"Diff_star": 0.0, "addr": "1304 SOUTH MARKET", "SR_14": 2.0, "Q_14": 3.0, "name": "LAKE PARK CARE CENTER", "SF_14": 4.0, "SF_15": 4.0, "cnty": "Dickinson", "st": "IA", "Zip": 51347.0, "O_14": 3.0, "Q_15": 2.0, "O_15": 3.0, "city": "LAKE PARK", "beds": 46.0, "SR_15": 2.0}, {"Diff_star": 0.0, "addr": "605 GARFIELD STREET", "SR_14": 5.0, "Q_14": 4.0, "name": "WESTBROOK ACRES", "SF_14": 4.0, "SF_15": 4.0, "cnty": "Tama", "st": "IA", "Zip": 50635.0, "O_14": 5.0, "Q_15": 2.0, "O_15": 5.0, "city": "GLADBROOK", "beds": 54.0, "SR_15": 5.0}, {"Diff_star": 0.0, "addr": "2452 NORTH BROADWAY", "SR_14": 3.0, "Q_14": 4.0, "name": "MIDLANDS LIVING CENTER L L C", "SF_14": 3.0, "SF_15": 3.0, "cnty": "Pottawattamie", "st": "IA", "Zip": 51503.0, "O_14": 3.0, "Q_15": 3.0, "O_15": 3.0, "city": "COUNCIL BLUFFS", "beds": 100.0, "SR_15": 3.0}, {"Diff_star": 0.0, "addr": "5837 WINWOOD DRIVE", "SR_14": 1.0, "Q_14": 5.0, "name": "BISHOP DRUMM CARE CENTER", "SF_14": 4.0, "SF_15": 4.0, "cnty": "Polk", "st": "IA", "Zip": 50131.0, "O_14": 2.0, "Q_15": 4.0, "O_15": 2.0, "city": "JOHNSTON", "beds": 150.0, "SR_15": 1.0}, {"Diff_star": 0.0, "addr": "711 WEST 11TH STREET", "SR_14": 2.0, "Q_14": 4.0, "name": "LONGHOUSE-NORTHSHIRE, LTD", "SF_14": 4.0, "SF_15": 4.0, "cnty": "Clay", "st": "IA", "Zip": 51301.0, "O_14": 3.0, "Q_15": 4.0, "O_15": 3.0, "city": "SPENCER", "beds": 110.0, "SR_15": 2.0}, {"Diff_star": 1.0, "addr": "403 GRANDVIEW DRIVE", "SR_14": 1.0, "Q_14": 5.0, "name": "PREMIER ESTATES OF TOLEDO", "SF_14": 3.0, "SF_15": 3.0, "cnty": "Tama", "st": "IA", "Zip": 52342.0, "O_14": 2.0, "Q_15": 5.0, "O_15": 3.0, "city": "TOLEDO", "beds": 75.0, "SR_15": 2.0}, {"Diff_star": 0.0, "addr": "2401 SOUTH SECOND STREET", "SR_14": 1.0, "Q_14": 5.0, "name": "VILLA DEL SOL", "SF_14": 2.0, "SF_15": 2.0, "cnty": "Marshall", "st": "IA", "Zip": 50158.0, "O_14": 2.0, "Q_15": 5.0, "O_15": 2.0, "city": "MARSHALLTOWN", "beds": 110.0, "SR_15": 1.0}, {"Diff_star": 0.0, "addr": "601 HIGHWAY 61 SOUTH", "SR_14": 3.0, "Q_14": 3.0, "name": "WAPELLO NURSING & REHAB CENTER", "SF_14": 3.0, "SF_15": 3.0, "cnty": "Louisa", "st": "IA", "Zip": 52653.0, "O_14": 3.0, "Q_15": 3.0, "O_15": 3.0, "city": "WAPELLO", "beds": 49.0, "SR_15": 3.0}, {"Diff_star": 0.0, "addr": "601 E POLK ST", "SR_14": 1.0, "Q_14": 3.0, "name": "ALL-AMERICAN RESTORATIVE CARE OF WASHINGTON, INC", "SF_14": 3.0, "SF_15": 3.0, "cnty": "Washington", "st": "IA", "Zip": 52353.0, "O_14": 1.0, "Q_15": 1.0, "O_15": 1.0, "city": "WASHINGTON", "beds": 90.0, "SR_15": 1.0}, {"Diff_star": 0.0, "addr": "2241 NORTH WEST STREET", "SR_14": 2.0, "Q_14": 5.0, "name": "CARROLL HEALTH CENTER", "SF_14": 2.0, "SF_15": 2.0, "cnty": "Carroll", "st": "IA", "Zip": 51401.0, "O_14": 3.0, "Q_15": 5.0, "O_15": 3.0, "city": "CARROLL", "beds": 110.0, "SR_15": 2.0}, {"Diff_star": 1.0, "addr": "150 WEST WASHINGTON ST", "SR_14": 3.0, "Q_14": 4.0, "name": "ENGLISH VALLEY NURSING CARE CENTER", "SF_14": 4.0, "SF_15": 4.0, "cnty": "Iowa", "st": "IA", "Zip": 52316.0, "O_14": 4.0, "Q_15": 5.0, "O_15": 5.0, "city": "NORTH ENGLISH", "beds": 60.0, "SR_15": 3.0}, {"Diff_star": 0.0, "addr": "202 NORTH JEFFERSON", "SR_14": 4.0, "Q_14": 5.0, "name": "CLEARVIEW HOME", "SF_14": 4.0, "SF_15": 4.0, "cnty": "Taylor", "st": "IA", "Zip": 50840.0, "O_14": 5.0, "Q_15": 5.0, "O_15": 5.0, "city": "CLEARFIELD", "beds": 36.0, "SR_15": 4.0}, {"Diff_star": 0.0, "addr": "506 EAST FOURTH STREET", "SR_14": 2.0, "Q_14": 5.0, "name": "SUTHERLAND CARE CENTER", "SF_14": 4.0, "SF_15": 4.0, "cnty": "Obrien", "st": "IA", "Zip": 51058.0, "O_14": 4.0, "Q_15": 5.0, "O_15": 4.0, "city": "SUTHERLAND", "beds": 35.0, "SR_15": 2.0}, {"Diff_star": -1.0, "addr": "3605 ELM DRIVE", "SR_14": 3.0, "Q_14": 5.0, "name": "KAREN ACRES CARE CENTER", "SF_14": 4.0, "SF_15": 3.0, "cnty": "Polk", "st": "IA", "Zip": 50322.0, "O_14": 5.0, "Q_15": 5.0, "O_15": 4.0, "city": "URBANDALE", "beds": 38.0, "SR_15": 3.0}, {"Diff_star": -1.0, "addr": "700 NW SEVENTH STREET", "SR_14": 1.0, "Q_14": 5.0, "name": "POCAHONTAS MANOR", "SF_14": 2.0, "SF_15": 2.0, "cnty": "Pocahontas", "st": "IA", "Zip": 50574.0, "O_14": 2.0, "Q_15": 3.0, "O_15": 1.0, "city": "POCAHONTAS", "beds": 60.0, "SR_15": 1.0}, {"Diff_star": 0.0, "addr": "1708 HARDING STREET", "SR_14": 5.0, "Q_14": 5.0, "name": "SUNNY HILL CARE CENTER", "SF_14": 2.0, "SF_15": 2.0, "cnty": "Tama", "st": "IA", "Zip": 52339.0, "O_14": 5.0, "Q_15": 5.0, "O_15": 5.0, "city": "TAMA", "beds": 57.0, "SR_15": 5.0}, {"Diff_star": 0.0, "addr": "2401 SOUTH DES MOINES STREET", "SR_14": 2.0, "Q_14": 4.0, "name": "CRESTVIEW NURSING & REHAB", "SF_14": 4.0, "SF_15": 4.0, "cnty": "Hamilton", "st": "IA", "Zip": 50595.0, "O_14": 3.0, "Q_15": 4.0, "O_15": 3.0, "city": "WEBSTER CITY", "beds": 84.0, "SR_15": 2.0}, {"Diff_star": 0.0, "addr": "7511 UNIVERSITY AVENUE", "SR_14": 4.0, "Q_14": 4.0, "name": "NEWALDAYA LIFESCAPES", "SF_14": 4.0, "SF_15": 4.0, "cnty": "Black Hawk", "st": "IA", "Zip": 50613.0, "O_14": 4.0, "Q_15": 2.0, "O_15": 4.0, "city": "CEDAR FALLS", "beds": 135.0, "SR_15": 4.0}, {"Diff_star": 0.0, "addr": "3000 RISEN SON BOULEVARD", "SR_14": 1.0, "Q_14": 4.0, "name": "RISEN SON CHRISTIAN VILLAGE", "SF_14": 4.0, "SF_15": 5.0, "cnty": "Pottawattamie", "st": "IA", "Zip": 51503.0, "O_14": 2.0, "Q_15": 3.0, "O_15": 2.0, "city": "COUNCIL BLUFFS", "beds": 102.0, "SR_15": 1.0}, {"Diff_star": 0.0, "addr": "130 WEST SIXTH STREET", "SR_14": 5.0, "Q_14": 4.0, "name": "KANAWHA COMMUNITY HOME, INC.", "SF_14": 5.0, "SF_15": 5.0, "cnty": "Hancock", "st": "IA", "Zip": 50447.0, "O_14": 5.0, "Q_15": 5.0, "O_15": 5.0, "city": "KANAWHA", "beds": 38.0, "SR_15": 5.0}, {"Diff_star": 1.0, "addr": "715 WEST THIRD STREET", "SR_14": 2.0, "Q_14": 4.0, "name": "EASTERN STAR MASONIC HOME", "SF_14": "", "SF_15": 5.0, "cnty": "Boone", "st": "IA", "Zip": 50036.0, "O_14": 2.0, "Q_15": 4.0, "O_15": 3.0, "city": "BOONE", "beds": 76.0, "SR_15": 2.0}, {"Diff_star": -1.0, "addr": "807 FIFTH STREET", "SR_14": 1.0, "Q_14": 5.0, "name": "CEDAR HEALTH", "SF_14": 1.0, "SF_15": 1.0, "cnty": "Floyd", "st": "IA", "Zip": 50616.0, "O_14": 2.0, "Q_15": 3.0, "O_15": 1.0, "city": "CHARLES CITY", "beds": 50.0, "SR_15": 1.0}, {"Diff_star": 0.0, "addr": "811 THIRD STREET", "SR_14": 1.0, "Q_14": 5.0, "name": "PLEASANTVIEW HOME", "SF_14": 5.0, "SF_15": 5.0, "cnty": "Washington", "st": "IA", "Zip": 52247.0, "O_14": 2.0, "Q_15": 5.0, "O_15": 2.0, "city": "KALONA", "beds": 80.0, "SR_15": 1.0}, {"Diff_star": 0.0, "addr": "3485 WINDSOR AVENUE", "SR_14": 2.0, "Q_14": 5.0, "name": "STONEHILL CARE CENTER", "SF_14": 5.0, "SF_15": 5.0, "cnty": "Dubuque", "st": "IA", "Zip": 52001.0, "O_14": 4.0, "Q_15": 5.0, "O_15": 4.0, "city": "DUBUQUE", "beds": 214.0, "SR_15": 2.0}, {"Diff_star": 0.0, "addr": "1409 FREMONT STREET", "SR_14": 4.0, "Q_14": 5.0, "name": "SCENIC MANOR", "SF_14": 4.0, "SF_15": 3.0, "cnty": "Hardin", "st": "IA", "Zip": 50126.0, "O_14": 5.0, "Q_15": 5.0, "O_15": 5.0, "city": "IOWA FALLS", "beds": 82.0, "SR_15": 5.0}, {"Diff_star": 0.0, "addr": "5501 GORDON DRIVE EAST", "SR_14": 2.0, "Q_14": 3.0, "name": "SUNRISE RETIREMENT COMMUNITY", "SF_14": 5.0, "SF_15": 5.0, "cnty": "Woodbury", "st": "IA", "Zip": 51106.0, "O_14": 3.0, "Q_15": 2.0, "O_15": 3.0, "city": "SIOUX CITY", "beds": 74.0, "SR_15": 2.0}, {"Diff_star": 1.0, "addr": "115 MAIN STREET", "SR_14": 2.0, "Q_14": 4.0, "name": "THE AMBASSADOR SIDNEY INC", "SF_14": 3.0, "SF_15": 3.0, "cnty": "Fremont", "st": "IA", "Zip": 51652.0, "O_14": 2.0, "Q_15": 3.0, "O_15": 3.0, "city": "SIDNEY", "beds": 46.0, "SR_15": 3.0}, {"Diff_star": 0.0, "addr": "2479 RIVER ROAD", "SR_14": 5.0, "Q_14": 4.0, "name": "WELLINGTON PLACE", "SF_14": 3.0, "SF_15": 3.0, "cnty": "Winneshiek", "st": "IA", "Zip": 52101.0, "O_14": 5.0, "Q_15": 3.0, "O_15": 5.0, "city": "DECORAH", "beds": 51.0, "SR_15": 5.0}, {"Diff_star": -1.0, "addr": "814 SPRINGER AVENUE", "SR_14": 2.0, "Q_14": 3.0, "name": "COLONIAL MANOR OF COLUMBUS JUNCTION", "SF_14": 4.0, "SF_15": 4.0, "cnty": "Louisa", "st": "IA", "Zip": 52738.0, "O_14": 3.0, "Q_15": 1.0, "O_15": 2.0, "city": "COLUMBUS JUNCTION", "beds": 46.0, "SR_15": 2.0}, {"Diff_star": 0.0, "addr": "701 EAST MAPLELEAF DRIVE", "SR_14": 3.0, "Q_14": 3.0, "name": "ARBOR COURT", "SF_14": 4.0, "SF_15": 4.0, "cnty": "Henry", "st": "IA", "Zip": 52641.0, "O_14": 4.0, "Q_15": 2.0, "O_15": 4.0, "city": "MOUNT PLEASANT", "beds": 62.0, "SR_15": 4.0}, {"Diff_star": 0.0, "addr": "4210 HICKMAN ROAD", "SR_14": 2.0, "Q_14": 4.0, "name": "CALVIN COMMUNITY", "SF_14": 5.0, "SF_15": 5.0, "cnty": "Polk", "st": "IA", "Zip": 50310.0, "O_14": 3.0, "Q_15": 4.0, "O_15": 3.0, "city": "DES MOINES", "beds": 59.0, "SR_15": 2.0}, {"Diff_star": 0.0, "addr": "2021 FOURTH AVENUE", "SR_14": 3.0, "Q_14": 5.0, "name": "ST FRANCIS MANOR", "SF_14": 4.0, "SF_15": 4.0, "cnty": "Poweshiek", "st": "IA", "Zip": 50112.0, "O_14": 5.0, "Q_15": 5.0, "O_15": 5.0, "city": "GRINNELL", "beds": 78.0, "SR_15": 3.0}, {"Diff_star": -1.0, "addr": "616 BROAD STREET", "SR_14": 4.0, "Q_14": 5.0, "name": "MAYFLOWER HOME", "SF_14": 4.0, "SF_15": 4.0, "cnty": "Poweshiek", "st": "IA", "Zip": 50112.0, "O_14": 5.0, "Q_15": 3.0, "O_15": 4.0, "city": "GRINNELL", "beds": 60.0, "SR_15": 4.0}, {"Diff_star": 0.0, "addr": "1203 EAST WASHINGTON STREET", "SR_14": 4.0, "Q_14": 5.0, "name": "UNITED PRESBYTERIAN HOME", "SF_14": 5.0, "SF_15": 5.0, "cnty": "Washington", "st": "IA", "Zip": 52353.0, "O_14": 5.0, "Q_15": 5.0, "O_15": 5.0, "city": "WASHINGTON", "beds": 52.0, "SR_15": 4.0}, {"Diff_star": 0.0, "addr": "1015 SOUTH IOWA AVENUE", "SR_14": 3.0, "Q_14": 5.0, "name": "HALCYON HOUSE", "SF_14": 5.0, "SF_15": 5.0, "cnty": "Washington", "st": "IA", "Zip": 52353.0, "O_14": 5.0, "Q_15": 5.0, "O_15": 5.0, "city": "WASHINGTON", "beds": 37.0, "SR_15": 3.0}, {"Diff_star": -1.0, "addr": "1301 SAINT LUKE DRIVE", "SR_14": 2.0, "Q_14": 5.0, "name": "ST LUKE LUTHERAN HOME", "SF_14": 4.0, "SF_15": 4.0, "cnty": "Clay", "st": "IA", "Zip": 51301.0, "O_14": 4.0, "Q_15": 3.0, "O_15": 3.0, "city": "SPENCER", "beds": 99.0, "SR_15": 2.0}, {"Diff_star": 0.0, "addr": "701 NINTH STREET NORTH", "SR_14": 5.0, "Q_14": 4.0, "name": "LUTHERAN RETIREMENT HOME", "SF_14": 4.0, "SF_15": 3.0, "cnty": "Worth", "st": "IA", "Zip": 50459.0, "O_14": 5.0, "Q_15": 2.0, "O_15": 5.0, "city": "NORTHWOOD", "beds": 60.0, "SR_15": 5.0}, {"Diff_star": -1.0, "addr": "2701 MITCHELL STREET BOX 0", "SR_14": 4.0, "Q_14": 3.0, "name": "RUTHVEN COMMUNITY CARE CENTER", "SF_14": 4.0, "SF_15": 4.0, "cnty": "Palo Alto", "st": "IA", "Zip": 51358.0, "O_14": 4.0, "Q_15": 1.0, "O_15": 3.0, "city": "RUTHVEN", "beds": 48.0, "SR_15": 4.0}, {"Diff_star": 0.0, "addr": "3520 GRAND AVENUE", "SR_14": 1.0, "Q_14": 4.0, "name": "WESLEY ACRES", "SF_14": 4.0, "SF_15": 4.0, "cnty": "Polk", "st": "IA", "Zip": 50312.0, "O_14": 2.0, "Q_15": 2.0, "O_15": 2.0, "city": "DES MOINES", "beds": 80.0, "SR_15": 1.0}, {"Diff_star": -1.0, "addr": "600 WEST 6TH STREET", "SR_14": 4.0, "Q_14": 5.0, "name": "TWILIGHT ACRES", "SF_14": 4.0, "SF_15": 3.0, "cnty": "Sac", "st": "IA", "Zip": 51466.0, "O_14": 5.0, "Q_15": 4.0, "O_15": 4.0, "city": "WALL LAKE", "beds": 56.0, "SR_15": 4.0}, {"Diff_star": 0.0, "addr": "225 WEST LAPERLA DRIVE", "SR_14": 3.0, "Q_14": 5.0, "name": "GOLDENROD MANOR", "SF_14": 4.0, "SF_15": 4.0, "cnty": "Page", "st": "IA", "Zip": 51632.0, "O_14": 5.0, "Q_15": 5.0, "O_15": 5.0, "city": "CLARINDA", "beds": 49.0, "SR_15": 3.0}, {"Diff_star": 1.0, "addr": "701 VERNON ROAD SW", "SR_14": 4.0, "Q_14": 4.0, "name": "CRESCO CARE CENTER", "SF_14": 4.0, "SF_15": 4.0, "cnty": "Howard", "st": "IA", "Zip": 52136.0, "O_14": 4.0, "Q_15": 5.0, "O_15": 5.0, "city": "CRESCO", "beds": 63.0, "SR_15": 4.0}, {"Diff_star": -1.0, "addr": "1010 NORTH ELM STREET", "SR_14": 4.0, "Q_14": 5.0, "name": "EVANS MEMORIAL HOME", "SF_14": 2.0, "SF_15": 2.0, "cnty": "Howard", "st": "IA", "Zip": 52136.0, "O_14": 5.0, "Q_15": 4.0, "O_15": 4.0, "city": "CRESCO", "beds": 52.0, "SR_15": 4.0}, {"Diff_star": 0.0, "addr": "301 NORTH LAWLER STREET", "SR_14": 2.0, "Q_14": 4.0, "name": "LAKESIDE LUTHERAN HOME", "SF_14": 4.0, "SF_15": 4.0, "cnty": "Palo Alto", "st": "IA", "Zip": 50536.0, "O_14": 3.0, "Q_15": 4.0, "O_15": 3.0, "city": "EMMETSBURG", "beds": 60.0, "SR_15": 2.0}, {"Diff_star": 0.0, "addr": "604 THIRD STREET SW", "SR_14": 2.0, "Q_14": 4.0, "name": "TRIPOLI NURSING & REHAB", "SF_14": 4.0, "SF_15": 4.0, "cnty": "Bremer", "st": "IA", "Zip": 50676.0, "O_14": 3.0, "Q_15": 4.0, "O_15": 3.0, "city": "TRIPOLI", "beds": 32.0, "SR_15": 2.0}, {"Diff_star": 0.0, "addr": "115 NORTH HILTON ST", "SR_14": 4.0, "Q_14": 4.0, "name": "CLARKSVILLE SKILLED NURSING & REHAB CENTER", "SF_14": 4.0, "SF_15": 3.0, "cnty": "Butler", "st": "IA", "Zip": 50619.0, "O_14": 4.0, "Q_15": 3.0, "O_15": 4.0, "city": "CLARKSVILLE", "beds": 42.0, "SR_15": 4.0}, {"Diff_star": 0.0, "addr": "411 EAST LANE STREET", "SR_14": 2.0, "Q_14": 4.0, "name": "QHC WINTERSET NORTH, LLC", "SF_14": 2.0, "SF_15": 2.0, "cnty": "Madison", "st": "IA", "Zip": 50273.0, "O_14": 2.0, "Q_15": 2.0, "O_15": 2.0, "city": "WINTERSET", "beds": 75.0, "SR_15": 2.0}, {"Diff_star": -1.0, "addr": "112 WEST FOURTH STREET", "SR_14": 2.0, "Q_14": 3.0, "name": "WESTHAVEN COMMUNITY", "SF_14": 4.0, "SF_15": 4.0, "cnty": "Boone", "st": "IA", "Zip": 50036.0, "O_14": 3.0, "Q_15": 1.0, "O_15": 2.0, "city": "BOONE", "beds": 100.0, "SR_15": 2.0}, {"Diff_star": 0.0, "addr": "73 WEST 5TH STREET", "SR_14": 1.0, "Q_14": 1.0, "name": "BLACKHAWK LIFE CARE CENTER", "SF_14": 5.0, "SF_15": 5.0, "cnty": "Sac", "st": "IA", "Zip": 51450.0, "O_14": 1.0, "Q_15": 1.0, "O_15": 1.0, "city": "LAKE VIEW", "beds": 60.0, "SR_15": 1.0}, {"Diff_star": 0.0, "addr": "500 SOUTH BLAINE", "SR_14": 3.0, "Q_14": 3.0, "name": "ROTARY SENIOR LIVING", "SF_14": 4.0, "SF_15": 4.0, "cnty": "Wright", "st": "IA", "Zip": 50533.0, "O_14": 4.0, "Q_15": 3.0, "O_15": 4.0, "city": "EAGLE GROVE", "beds": 46.0, "SR_15": 3.0}, {"Diff_star": 0.0, "addr": "325 SOUTHWEST SEVENTH STREET", "SR_14": 1.0, "Q_14": 4.0, "name": "COMMUNITY CARE CENTER", "SF_14": 4.0, "SF_15": 4.0, "cnty": "Adair", "st": "IA", "Zip": 50250.0, "O_14": 2.0, "Q_15": 3.0, "O_15": 2.0, "city": "STUART", "beds": 77.0, "SR_15": 1.0}, {"Diff_star": 0.0, "addr": "915 WEST FIRST STREET", "SR_14": 5.0, "Q_14": 5.0, "name": "HILLCREST HOME", "SF_14": 4.0, "SF_15": 4.0, "cnty": "Bremer", "st": "IA", "Zip": 50674.0, "O_14": 5.0, "Q_15": 5.0, "O_15": 5.0, "city": "SUMNER", "beds": 71.0, "SR_15": 5.0}, {"Diff_star": 0.0, "addr": "105 MCCARREN DRIVE", "SR_14": 3.0, "Q_14": 5.0, "name": "GOOD NEIGHBOR HOME", "SF_14": 4.0, "SF_15": 4.0, "cnty": "Delaware", "st": "IA", "Zip": 52057.0, "O_14": 5.0, "Q_15": 5.0, "O_15": 5.0, "city": "MANCHESTER", "beds": 133.0, "SR_15": 3.0}, {"Diff_star": 0.0, "addr": "2221 EAST MCGREGOR STREET", "SR_14": 5.0, "Q_14": 3.0, "name": "ALGONA MANOR CARE CENTER", "SF_14": 4.0, "SF_15": 4.0, "cnty": "Kossuth", "st": "IA", "Zip": 50511.0, "O_14": 5.0, "Q_15": 2.0, "O_15": 5.0, "city": "ALGONA", "beds": 60.0, "SR_15": 5.0}, {"Diff_star": 0.0, "addr": "400 EAST FOURTH STREET", "SR_14": 1.0, "Q_14": 1.0, "name": "SEYMOUR HEALTH AND REHAB", "SF_14": 2.0, "SF_15": 2.0, "cnty": "Wayne", "st": "IA", "Zip": 52590.0, "O_14": 1.0, "Q_15": 1.0, "O_15": 1.0, "city": "SEYMOUR", "beds": 42.0, "SR_15": 1.0}, {"Diff_star": 0.0, "addr": "715 SOUTH SECOND AVENUE", "SR_14": 4.0, "Q_14": 5.0, "name": "QHC WINTERSET SOUTH, LLC", "SF_14": 2.0, "SF_15": 2.0, "cnty": "Madison", "st": "IA", "Zip": 50273.0, "O_14": 5.0, "Q_15": 5.0, "O_15": 5.0, "city": "WINTERSET", "beds": 45.0, "SR_15": 4.0}, {"Diff_star": 0.0, "addr": "2571 GUTHRIE AVENUE", "SR_14": 2.0, "Q_14": 5.0, "name": "VALLEY VIEW VILLAGE", "SF_14": 4.0, "SF_15": 4.0, "cnty": "Polk", "st": "IA", "Zip": 50317.0, "O_14": 4.0, "Q_15": 5.0, "O_15": 4.0, "city": "DES MOINES", "beds": 79.0, "SR_15": 2.0}, {"Diff_star": -1.0, "addr": "420 EAST 11TH STREET", "SR_14": 3.0, "Q_14": 5.0, "name": "MARTIN HEALTH CENTER, INC", "SF_14": 4.0, "SF_15": 4.0, "cnty": "Black Hawk", "st": "IA", "Zip": 50613.0, "O_14": 5.0, "Q_15": 3.0, "O_15": 4.0, "city": "CEDAR FALLS", "beds": 100.0, "SR_15": 3.0}, {"Diff_star": 0.0, "addr": "849 13TH AVENUE NORTH", "SR_14": 2.0, "Q_14": 5.0, "name": "THE ALVERNO HEALTH CARE CENTER", "SF_14": 4.0, "SF_15": 4.0, "cnty": "Clinton", "st": "IA", "Zip": 52732.0, "O_14": 4.0, "Q_15": 5.0, "O_15": 4.0, "city": "CLINTON", "beds": 132.0, "SR_15": 2.0}, {"Diff_star": -1.0, "addr": "1130 W 53RD STREET", "SR_14": 2.0, "Q_14": 5.0, "name": "DAVENPORT LUTHERAN HOME", "SF_14": 4.0, "SF_15": 4.0, "cnty": "Scott", "st": "IA", "Zip": 52806.0, "O_14": 4.0, "Q_15": 4.0, "O_15": 3.0, "city": "DAVENPORT", "beds": 98.0, "SR_15": 2.0}, {"Diff_star": 0.0, "addr": "1140 ELIM DRIVE", "SR_14": 3.0, "Q_14": 5.0, "name": "LINN MANOR CARE CENTER", "SF_14": 4.0, "SF_15": 4.0, "cnty": "Linn", "st": "IA", "Zip": 52302.0, "O_14": 5.0, "Q_15": 5.0, "O_15": 5.0, "city": "MARION", "beds": 38.0, "SR_15": 3.0}, {"Diff_star": -1.0, "addr": "600 14TH AVENUE NORTH", "SR_14": 3.0, "Q_14": 5.0, "name": "MERCY LIVING CENTER NORTH", "SF_14": 4.0, "SF_15": 3.0, "cnty": "Clinton", "st": "IA", "Zip": 52732.0, "O_14": 5.0, "Q_15": 5.0, "O_15": 4.0, "city": "CLINTON", "beds": 86.0, "SR_15": 3.0}, {"Diff_star": -1.0, "addr": "3131 HILLCREST ROAD", "SR_14": 2.0, "Q_14": 4.0, "name": "LUTHER MANOR RETIREMENT HOME", "SF_14": 4.0, "SF_15": 3.0, "cnty": "Dubuque", "st": "IA", "Zip": 52001.0, "O_14": 3.0, "Q_15": 2.0, "O_15": 2.0, "city": "DUBUQUE", "beds": 103.0, "SR_15": 2.0}, {"Diff_star": 0.0, "addr": "1611 27TH STREET", "SR_14": 1.0, "Q_14": 5.0, "name": "RAMSEY VILLAGE", "SF_14": 5.0, "SF_15": 5.0, "cnty": "Polk", "st": "IA", "Zip": 50310.0, "O_14": 2.0, "Q_15": 5.0, "O_15": 2.0, "city": "DES MOINES", "beds": 78.0, "SR_15": 1.0}, {"Diff_star": 0.0, "addr": "401 CRISMAN STREET", "SR_14": 5.0, "Q_14": 3.0, "name": "SUNNYCREST NURSING CENTER", "SF_14": 3.0, "SF_15": 3.0, "cnty": "Tama", "st": "IA", "Zip": 52224.0, "O_14": 5.0, "Q_15": 2.0, "O_15": 5.0, "city": "DYSART", "beds": 50.0, "SR_15": 5.0}, {"Diff_star": -1.0, "addr": "1015 WESLEY DRIVE", "SR_14": 3.0, "Q_14": 3.0, "name": "CRESTRIDGE CARE CENTER", "SF_14": 4.0, "SF_15": 4.0, "cnty": "Jackson", "st": "IA", "Zip": 52060.0, "O_14": 4.0, "Q_15": 1.0, "O_15": 3.0, "city": "MAQUOKETA", "beds": 75.0, "SR_15": 3.0}, {"Diff_star": 0.0, "addr": "1500 FIRST AVENUE EAST", "SR_14": 5.0, "Q_14": 4.0, "name": "NELSON MANOR", "SF_14": 2.0, "SF_15": 2.0, "cnty": "Jasper", "st": "IA", "Zip": 50208.0, "O_14": 5.0, "Q_15": 4.0, "O_15": 5.0, "city": "NEWTON", "beds": 36.0, "SR_15": 5.0}, {"Diff_star": 0.0, "addr": "1009 THIRD STREET", "SR_14": 3.0, "Q_14": 4.0, "name": "PARKVIEW MANOR CARE CENTER", "SF_14": 3.0, "SF_15": 3.0, "cnty": "Grundy", "st": "IA", "Zip": 50669.0, "O_14": 3.0, "Q_15": 4.0, "O_15": 3.0, "city": "REINBECK", "beds": 40.0, "SR_15": 3.0}, {"Diff_star": -1.0, "addr": "2001 FIRST AVENUE NORTH", "SR_14": 3.0, "Q_14": 5.0, "name": "ROSEWOOD MANOR", "SF_14": 1.0, "SF_15": 1.0, "cnty": "Emmet", "st": "IA", "Zip": 51334.0, "O_14": 3.0, "Q_15": 3.0, "O_15": 2.0, "city": "ESTHERVILLE", "beds": 60.0, "SR_15": 3.0}, {"Diff_star": -1.0, "addr": "SEVEN ELLIOTT STREET", "SR_14": 2.0, "Q_14": 5.0, "name": "BETHANY LUTHERAN HOME", "SF_14": 3.0, "SF_15": 3.0, "cnty": "Pottawattamie", "st": "IA", "Zip": 51503.0, "O_14": 3.0, "Q_15": 4.0, "O_15": 2.0, "city": "COUNCIL BLUFFS", "beds": 121.0, "SR_15": 2.0}, {"Diff_star": 0.0, "addr": "2306 STATE STREET", "SR_14": 2.0, "Q_14": 5.0, "name": "THE NEW HOMESTEAD", "SF_14": 5.0, "SF_15": 5.0, "cnty": "Guthrie", "st": "IA", "Zip": 50115.0, "O_14": 4.0, "Q_15": 5.0, "O_15": 4.0, "city": "GUTHRIE CENTER", "beds": 64.0, "SR_15": 2.0}, {"Diff_star": 0.0, "addr": "21668 80TH STREET", "SR_14": 4.0, "Q_14": 4.0, "name": "PATTY ELWOOD CENTER", "SF_14": 4.0, "SF_15": 4.0, "cnty": "Howard", "st": "IA", "Zip": 52136.0, "O_14": 4.0, "Q_15": 2.0, "O_15": 4.0, "city": "CRESCO", "beds": 24.0, "SR_15": 3.0}, {"Diff_star": -1.0, "addr": "1912 ZENITH AVENUE", "SR_14": 3.0, "Q_14": 4.0, "name": "HILLTOP CARE CENTER", "SF_14": 4.0, "SF_15": 3.0, "cnty": "Dickinson", "st": "IA", "Zip": 51360.0, "O_14": 4.0, "Q_15": 2.0, "O_15": 3.0, "city": "SPIRIT LAKE", "beds": 120.0, "SR_15": 3.0}, {"Diff_star": -1.0, "addr": "1203 SOUTH ELM STREET", "SR_14": 2.0, "Q_14": 5.0, "name": "ELM HEIGHTS CARE CENTER", "SF_14": 4.0, "SF_15": 4.0, "cnty": "Page", "st": "IA", "Zip": 51601.0, "O_14": 4.0, "Q_15": 4.0, "O_15": 3.0, "city": "SHENANDOAH", "beds": 42.0, "SR_15": 2.0}, {"Diff_star": 0.0, "addr": "302 SIXTH AVENUE", "SR_14": 1.0, "Q_14": 4.0, "name": "GLEN HAVEN HOME", "SF_14": 2.0, "SF_15": 2.0, "cnty": "Mills", "st": "IA", "Zip": 51534.0, "O_14": 1.0, "Q_15": 4.0, "O_15": 1.0, "city": "GLENWOOD", "beds": 75.0, "SR_15": 1.0}, {"Diff_star": 0.0, "addr": "1200 WEST NISHNA ROAD", "SR_14": 1.0, "Q_14": 4.0, "name": "GARDEN VIEW CARE CENTER", "SF_14": 1.0, "SF_15": 3.0, "cnty": "Page", "st": "IA", "Zip": 51601.0, "O_14": 1.0, "Q_15": 4.0, "O_15": 1.0, "city": "SHENANDOAH", "beds": 90.0, "SR_15": 1.0}, {"Diff_star": 0.0, "addr": "114 SOUTH 20TH STREET", "SR_14": 3.0, "Q_14": 5.0, "name": "EVENTIDE LUTHERAN HOME FOR THE", "SF_14": 4.0, "SF_15": 4.0, "cnty": "Crawford", "st": "IA", "Zip": 51442.0, "O_14": 5.0, "Q_15": 5.0, "O_15": 5.0, "city": "DENISON", "beds": 100.0, "SR_15": 3.0}, {"Diff_star": -1.0, "addr": "1111 11TH AVE NORTH", "SR_14": 2.0, "Q_14": 5.0, "name": "QHC HUMBOLDT NORTH, LLC", "SF_14": 4.0, "SF_15": 3.0, "cnty": "Humboldt", "st": "IA", "Zip": 50548.0, "O_14": 4.0, "Q_15": 5.0, "O_15": 3.0, "city": "HUMBOLDT", "beds": 90.0, "SR_15": 2.0}, {"Diff_star": 0.0, "addr": "800 13TH STREET SOUTH", "SR_14": 4.0, "Q_14": 5.0, "name": "QHC HUMBOLDT SOUTH, LLC", "SF_14": 4.0, "SF_15": 3.0, "cnty": "Humboldt", "st": "IA", "Zip": 50548.0, "O_14": 5.0, "Q_15": 5.0, "O_15": 5.0, "city": "HUMBOLDT", "beds": 40.0, "SR_15": 4.0}, {"Diff_star": -1.0, "addr": "401 WEST FIFTH STREET", "SR_14": 3.0, "Q_14": 2.0, "name": "SUNSET KNOLL CARE AND REHAB CENTER", "SF_14": 4.0, "SF_15": 4.0, "cnty": "Cherokee", "st": "IA", "Zip": 51005.0, "O_14": 4.0, "Q_15": 1.0, "O_15": 3.0, "city": "AURELIA", "beds": 44.0, "SR_15": 3.0}, {"Diff_star": 0.0, "addr": "1037 19TH STREET SW", "SR_14": 2.0, "Q_14": 4.0, "name": "I O O F HOME AND COMMUNITY THERAPY CENTER", "SF_14": 4.0, "SF_15": 4.0, "cnty": "Cerro Gordo", "st": "IA", "Zip": 50401.0, "O_14": 3.0, "Q_15": 4.0, "O_15": 3.0, "city": "MASON CITY", "beds": 88.0, "SR_15": 2.0}, {"Diff_star": 0.0, "addr": "405 NORTH 15TH AVENUE", "SR_14": 2.0, "Q_14": 2.0, "name": "HIAWATHA CARE CENTER", "SF_14": 4.0, "SF_15": 4.0, "cnty": "Linn", "st": "IA", "Zip": 52233.0, "O_14": 3.0, "Q_15": 2.0, "O_15": 3.0, "city": "HIAWATHA", "beds": 109.0, "SR_15": 2.0}, {"Diff_star": -1.0, "addr": "1005 7TH STREET NE", "SR_14": 3.0, "Q_14": 5.0, "name": "PRAIRIE RIDGE CARE CENTER", "SF_14": 4.0, "SF_15": 4.0, "cnty": "Sioux", "st": "IA", "Zip": 51041.0, "O_14": 5.0, "Q_15": 3.0, "O_15": 4.0, "city": "ORANGE CITY", "beds": 83.0, "SR_15": 3.0}, {"Diff_star": 0.0, "addr": "2400 SIXTH AVENUE NORTH", "SR_14": 3.0, "Q_14": 4.0, "name": "MARIAN HOME", "SF_14": 4.0, "SF_15": 4.0, "cnty": "Webster", "st": "IA", "Zip": 50501.0, "O_14": 4.0, "Q_15": 4.0, "O_15": 4.0, "city": "FORT DODGE", "beds": 97.0, "SR_15": 3.0}, {"Diff_star": 1.0, "addr": "6120 MORNINGSIDE AVENUE", "SR_14": 3.0, "Q_14": 4.0, "name": "COUNTRYSIDE NURSING AND REHABILITATION CENTER", "SF_14": 5.0, "SF_15": 5.0, "cnty": "Woodbury", "st": "IA", "Zip": 51106.0, "O_14": 4.0, "Q_15": 5.0, "O_15": 5.0, "city": "SIOUX CITY", "beds": 36.0, "SR_15": 3.0}, {"Diff_star": 1.0, "addr": "915 WOODLAND AVENUE", "SR_14": 4.0, "Q_14": 4.0, "name": "RICEVILLE FAMILY CARE AND THERAPY CENTER", "SF_14": 1.0, "SF_15": 1.0, "cnty": "Mitchell", "st": "IA", "Zip": 50466.0, "O_14": 3.0, "Q_15": 5.0, "O_15": 4.0, "city": "RICEVILLE", "beds": 37.0, "SR_15": 4.0}, {"Diff_star": 0.0, "addr": "1224 13TH STREET NW", "SR_14": 2.0, "Q_14": 4.0, "name": "METH-WICK HEALTH CENTER", "SF_14": 4.0, "SF_15": 4.0, "cnty": "Linn", "st": "IA", "Zip": 52405.0, "O_14": 3.0, "Q_15": 2.0, "O_15": 3.0, "city": "CEDAR RAPIDS", "beds": 65.0, "SR_15": 2.0}, {"Diff_star": -1.0, "addr": "500 FIRST STREET NORTH", "SR_14": 1.0, "Q_14": 4.0, "name": "WESLEY PARK CENTRE", "SF_14": 4.0, "SF_15": 3.0, "cnty": "Jasper", "st": "IA", "Zip": 50208.0, "O_14": 2.0, "Q_15": 3.0, "O_15": 1.0, "city": "NEWTON", "beds": 66.0, "SR_15": 1.0}, {"Diff_star": -1.0, "addr": "2332 LIBERTY DRIVE", "SR_14": 1.0, "Q_14": 3.0, "name": "WINDMILL MANOR", "SF_14": 4.0, "SF_15": 3.0, "cnty": "Johnson", "st": "IA", "Zip": 52241.0, "O_14": 2.0, "Q_15": 1.0, "O_15": 1.0, "city": "CORALVILLE", "beds": 120.0, "SR_15": 1.0}, {"Diff_star": 0.0, "addr": "209 MAIN STREET", "SR_14": 1.0, "Q_14": 4.0, "name": "TABOR MANOR CARE CENTER", "SF_14": 3.0, "SF_15": 3.0, "cnty": "Fremont", "st": "IA", "Zip": 51653.0, "O_14": 1.0, "Q_15": 3.0, "O_15": 1.0, "city": "TABOR", "beds": 67.0, "SR_15": 1.0}, {"Diff_star": 0.0, "addr": "102 NORTH JACKSON STREET", "SR_14": 3.0, "Q_14": 4.0, "name": "PARKVIEW HOME", "SF_14": 4.0, "SF_15": 4.0, "cnty": "Henry", "st": "IA", "Zip": 52654.0, "O_14": 4.0, "Q_15": 4.0, "O_15": 4.0, "city": "WAYLAND", "beds": 34.0, "SR_15": 3.0}, {"Diff_star": 0.0, "addr": "7951 E P TRUE PARKWAY", "SR_14": 3.0, "Q_14": 4.0, "name": "ARBOR SPRINGS OF WEST DES MOINES L L C", "SF_14": 4.0, "SF_15": 4.0, "cnty": "Dallas", "st": "IA", "Zip": 50266.0, "O_14": 4.0, "Q_15": 4.0, "O_15": 4.0, "city": "WEST DES MOINES", "beds": 56.0, "SR_15": 3.0}, {"Diff_star": -1.0, "addr": "THREE PENNSYLVANIA PLACE", "SR_14": 3.0, "Q_14": 3.0, "name": "VISTA WOODS CARE CENTER", "SF_14": 4.0, "SF_15": 4.0, "cnty": "Wapello", "st": "IA", "Zip": 52501.0, "O_14": 4.0, "Q_15": 1.0, "O_15": 3.0, "city": "OTTUMWA", "beds": 60.0, "SR_15": 3.0}, {"Diff_star": 0.0, "addr": "523 EAST FIFTH STREET", "SR_14": 3.0, "Q_14": 3.0, "name": "SOLON NURSING CARE CENTER", "SF_14": 4.0, "SF_15": 4.0, "cnty": "Johnson", "st": "IA", "Zip": 52333.0, "O_14": 4.0, "Q_15": 2.0, "O_15": 4.0, "city": "SOLON", "beds": 92.0, "SR_15": 3.0}, {"Diff_star": -1.0, "addr": "1301 SECOND AVENUE SOUTH", "SR_14": 4.0, "Q_14": 2.0, "name": "THE VINTON LUTHERAN HOME", "SF_14": 4.0, "SF_15": 4.0, "cnty": "Benton", "st": "IA", "Zip": 52349.0, "O_14": 4.0, "Q_15": 1.0, "O_15": 3.0, "city": "VINTON", "beds": 61.0, "SR_15": 4.0}, {"Diff_star": -1.0, "addr": "2500 GRANT STREET", "SR_14": 3.0, "Q_14": 2.0, "name": "IOWA MASONIC HEALTH FACILITIES", "SF_14": 5.0, "SF_15": 5.0, "cnty": "Scott", "st": "IA", "Zip": 52722.0, "O_14": 4.0, "Q_15": 1.0, "O_15": 3.0, "city": "BETTENDORF", "beds": 79.0, "SR_15": 3.0}, {"Diff_star": 0.0, "addr": "100 CEDAR LANE", "SR_14": 4.0, "Q_14": 4.0, "name": "COUNTRY VIEW MANOR INC", "SF_14": 4.0, "SF_15": 4.0, "cnty": "Osceola", "st": "IA", "Zip": 51249.0, "O_14": 4.0, "Q_15": 4.0, "O_15": 4.0, "city": "SIBLEY", "beds": 62.0, "SR_15": 3.0}, {"Diff_star": 0.0, "addr": "1919 GREENE STREET", "SR_14": 4.0, "Q_14": 5.0, "name": "ADEL ACRES", "SF_14": 2.0, "SF_15": 2.0, "cnty": "Dallas", "st": "IA", "Zip": 50003.0, "O_14": 5.0, "Q_15": 5.0, "O_15": 5.0, "city": "ADEL", "beds": 50.0, "SR_15": 4.0}, {"Diff_star": 0.0, "addr": "2375 ROOSEVELT STREET", "SR_14": 5.0, "Q_14": 4.0, "name": "SUNNYCREST MANOR", "SF_14": 5.0, "SF_15": 5.0, "cnty": "Dubuque", "st": "IA", "Zip": 52001.0, "O_14": 5.0, "Q_15": 3.0, "O_15": 5.0, "city": "DUBUQUE", "beds": 77.0, "SR_15": 5.0}, {"Diff_star": 0.0, "addr": "13731 HICKMAN ROAD", "SR_14": 3.0, "Q_14": 5.0, "name": "DEERFIELD RETIREMENT COMMUNITY INC", "SF_14": 5.0, "SF_15": 5.0, "cnty": "Polk", "st": "IA", "Zip": 50323.0, "O_14": 5.0, "Q_15": 5.0, "O_15": 5.0, "city": "URBANDALE", "beds": 30.0, "SR_15": 3.0}, {"Diff_star": 0.0, "addr": "1015 UNION STREET", "SR_14": 4.0, "Q_14": 4.0, "name": "BOONE COUNTY HOSPITAL", "SF_14": "", "SF_15": "", "cnty": "Boone", "st": "IA", "Zip": 50036.0, "O_14": 4.0, "Q_15": 3.0, "O_15": 4.0, "city": "BOONE", "beds": 14.0, "SR_15": 4.0}, {"Diff_star": -1.0, "addr": "2000 PASADENA DRIVE", "SR_14": 1.0, "Q_14": 5.0, "name": "ENNOBLE SKILLED NURSING AND REHABILITATION CENTER", "SF_14": 2.0, "SF_15": 2.0, "cnty": "Dubuque", "st": "IA", "Zip": 52001.0, "O_14": 2.0, "Q_15": 3.0, "O_15": 1.0, "city": "DUBUQUE", "beds": 102.0, "SR_15": 1.0}, {"Diff_star": 2.0, "addr": "1200 BROOKRIDGE CIRCLE", "SR_14": 1.0, "Q_14": 5.0, "name": "HERITAGE HOUSE", "SF_14": 4.0, "SF_15": 5.0, "cnty": "Cass", "st": "IA", "Zip": 50022.0, "O_14": 2.0, "Q_15": 5.0, "O_15": 4.0, "city": "ATLANTIC", "beds": 61.0, "SR_15": 2.0}, {"Diff_star": 0.0, "addr": "120 NORTH THIRTEENTH STREET", "SR_14": 2.0, "Q_14": 5.0, "name": "MONROE CARE CENTER", "SF_14": 3.0, "SF_15": 3.0, "cnty": "Monroe", "st": "IA", "Zip": 52531.0, "O_14": 3.0, "Q_15": 5.0, "O_15": 3.0, "city": "ALBIA", "beds": 60.0, "SR_15": 2.0}, {"Diff_star": -1.0, "addr": "4885 ASBURY ROAD", "SR_14": 3.0, "Q_14": 5.0, "name": "HERITAGE MANOR", "SF_14": 3.0, "SF_15": 3.0, "cnty": "Dubuque", "st": "IA", "Zip": 52002.0, "O_14": 4.0, "Q_15": 4.0, "O_15": 3.0, "city": "DUBUQUE", "beds": 80.0, "SR_15": 3.0}, {"Diff_star": 0.0, "addr": "102 HIGHLAND CIRCLE", "SR_14": 3.0, "Q_14": 4.0, "name": "HIGHLAND RIDGE CARE CENTER, LLC", "SF_14": 3.0, "SF_15": 3.0, "cnty": "Iowa", "st": "IA", "Zip": 52361.0, "O_14": 3.0, "Q_15": 2.0, "O_15": 3.0, "city": "WILLIAMSBURG", "beds": 59.0, "SR_15": 3.0}, {"Diff_star": 0.0, "addr": "3131 F AVENUE NW", "SR_14": 4.0, "Q_14": 4.0, "name": "WEST RIDGE CARE CENTER", "SF_14": 5.0, "SF_15": 5.0, "cnty": "Linn", "st": "IA", "Zip": 52405.0, "O_14": 5.0, "Q_15": 2.0, "O_15": 5.0, "city": "CEDAR RAPIDS", "beds": 60.0, "SR_15": 4.0}, {"Diff_star": 0.0, "addr": "701 NORTH JOHNSON STREET NW", "SR_14": 4.0, "Q_14": 3.0, "name": "SHADY REST CARE CENTER", "SF_14": 4.0, "SF_15": 4.0, "cnty": "Dubuque", "st": "IA", "Zip": 52033.0, "O_14": 4.0, "Q_15": 2.0, "O_15": 4.0, "city": "CASCADE", "beds": 70.0, "SR_15": 4.0}, {"Diff_star": 0.0, "addr": "607 6TH STREET  PO BOX 398", "SR_14": 4.0, "Q_14": 1.0, "name": "WEST POINT CARE CENTER INC", "SF_14": 4.0, "SF_15": 4.0, "cnty": "Lee", "st": "IA", "Zip": 52656.0, "O_14": 3.0, "Q_15": 1.0, "O_15": 3.0, "city": "WEST POINT", "beds": 46.0, "SR_15": 4.0}, {"Diff_star": 0.0, "addr": "1514 HIGH AVENUE WEST", "SR_14": 4.0, "Q_14": 5.0, "name": "CRYSTAL HEIGHTS CARE CENTER", "SF_14": 2.0, "SF_15": 2.0, "cnty": "Mahaska", "st": "IA", "Zip": 52577.0, "O_14": 5.0, "Q_15": 5.0, "O_15": 5.0, "city": "OSKALOOSA", "beds": 78.0, "SR_15": 4.0}, {"Diff_star": 0.0, "addr": "2610 SOUTH FIFTH STREET", "SR_14": 4.0, "Q_14": 4.0, "name": "BURLINGTON CARE CENTER", "SF_14": 4.0, "SF_15": 4.0, "cnty": "Des Moines", "st": "IA", "Zip": 52601.0, "O_14": 4.0, "Q_15": 3.0, "O_15": 4.0, "city": "BURLINGTON", "beds": 72.0, "SR_15": 4.0}, {"Diff_star": 0.0, "addr": "610 EASTERN STREET", "SR_14": 4.0, "Q_14": 5.0, "name": "PRAIRIE VIEW HOME", "SF_14": 4.0, "SF_15": 3.0, "cnty": "Obrien", "st": "IA", "Zip": 51248.0, "O_14": 5.0, "Q_15": 5.0, "O_15": 5.0, "city": "SANBORN", "beds": 73.0, "SR_15": 4.0}, {"Diff_star": 0.0, "addr": "3800 COMMERCE BLVD", "SR_14": 1.0, "Q_14": 4.0, "name": "MANORCARE HEALTH SERVICES-UTICA RIDGE", "SF_14": 4.0, "SF_15": 4.0, "cnty": "Scott", "st": "IA", "Zip": 52807.0, "O_14": 2.0, "Q_15": 3.0, "O_15": 2.0, "city": "DAVENPORT", "beds": 120.0, "SR_15": 1.0}, {"Diff_star": 0.0, "addr": "114 FISHER STREET", "SR_14": 2.0, "Q_14": 4.0, "name": "OSSIAN SENIOR HOSPICE", "SF_14": 5.0, "SF_15": 5.0, "cnty": "Winneshiek", "st": "IA", "Zip": 52161.0, "O_14": 3.0, "Q_15": 3.0, "O_15": 3.0, "city": "OSSIAN", "beds": 46.0, "SR_15": 2.0}, {"Diff_star": 0.0, "addr": "2200 HAMILTON DRIVE", "SR_14": 3.0, "Q_14": 4.0, "name": "GREEN HILLS HEALTH CARE CENTER", "SF_14": 4.0, "SF_15": 4.0, "cnty": "Story", "st": "IA", "Zip": 50014.0, "O_14": 4.0, "Q_15": 3.0, "O_15": 4.0, "city": "AMES", "beds": 49.0, "SR_15": 3.0}, {"Diff_star": -1.0, "addr": "3440 MULBERRY AVENUE", "SR_14": 1.0, "Q_14": 4.0, "name": "PREMIER ESTATES OF MUSCATINE", "SF_14": 4.0, "SF_15": 3.0, "cnty": "Muscatine", "st": "IA", "Zip": 52761.0, "O_14": 2.0, "Q_15": 3.0, "O_15": 1.0, "city": "MUSCATINE", "beds": 100.0, "SR_15": 1.0}, {"Diff_star": 0.0, "addr": "1202 GERMAN STREET", "SR_14": 5.0, "Q_14": 5.0, "name": "MAQUOKETA CARE CENTER", "SF_14": 4.0, "SF_15": 3.0, "cnty": "Jackson", "st": "IA", "Zip": 52060.0, "O_14": 5.0, "Q_15": 5.0, "O_15": 5.0, "city": "MAQUOKETA", "beds": 66.0, "SR_15": 5.0}, {"Diff_star": -1.0, "addr": "4614 NW 84TH STREET", "SR_14": 2.0, "Q_14": 5.0, "name": "URBANDALE HEALTH CARE CENTER", "SF_14": 3.0, "SF_15": 3.0, "cnty": "Polk", "st": "IA", "Zip": 50322.0, "O_14": 3.0, "Q_15": 4.0, "O_15": 2.0, "city": "URBANDALE", "beds": 130.0, "SR_15": 2.0}, {"Diff_star": 0.0, "addr": "1645 SE HOLIDAY CREST CIRCLE", "SR_14": 1.0, "Q_14": 4.0, "name": "THE VILLAGE AT LEGACY POINTE NURSING FACILITY", "SF_14": 4.0, "SF_15": 4.0, "cnty": "Dallas", "st": "IA", "Zip": 50263.0, "O_14": 2.0, "Q_15": 4.0, "O_15": 2.0, "city": "WAUKEE", "beds": 48.0, "SR_15": 1.0}, {"Diff_star": 0.0, "addr": "1005 LINCOLN AVENUE", "SR_14": 4.0, "Q_14": 4.0, "name": "BETHANY HOME", "SF_14": 5.0, "SF_15": 5.0, "cnty": "Dubuque", "st": "IA", "Zip": 52001.0, "O_14": 5.0, "Q_15": 4.0, "O_15": 5.0, "city": "DUBUQUE", "beds": 66.0, "SR_15": 4.0}, {"Diff_star": 0.0, "addr": "2002 CEDAR STREET", "SR_14": 1.0, "Q_14": 3.0, "name": "ALL-AMERICAN CARE CENTER", "SF_14": 4.0, "SF_15": 4.0, "cnty": "Muscatine", "st": "IA", "Zip": 52761.0, "O_14": 2.0, "Q_15": 2.0, "O_15": 2.0, "city": "MUSCATINE", "beds": 100.0, "SR_15": 1.0}, {"Diff_star": 0.0, "addr": "109 MISSION DRIVE", "SR_14": 3.0, "Q_14": 5.0, "name": "TIMELY MISSION NURSING HOME", "SF_14": 5.0, "SF_15": 5.0, "cnty": "Winnebago", "st": "IA", "Zip": 50424.0, "O_14": 5.0, "Q_15": 5.0, "O_15": 5.0, "city": "BUFFALO CENTER", "beds": 46.0, "SR_15": 3.0}, {"Diff_star": 0.0, "addr": "6420 COUNCIL STREET NE", "SR_14": 4.0, "Q_14": 4.0, "name": "NORTHBROOK MANOR", "SF_14": 3.0, "SF_15": 3.0, "cnty": "Linn", "st": "IA", "Zip": 52402.0, "O_14": 4.0, "Q_15": 4.0, "O_15": 4.0, "city": "CEDAR RAPIDS", "beds": 130.0, "SR_15": 4.0}, {"Diff_star": 0.0, "addr": "605 HIGHWAY 432", "SR_14": 4.0, "Q_14": 4.0, "name": "OSKALOOSA CARE CENTER", "SF_14": 2.0, "SF_15": 3.0, "cnty": "Mahaska", "st": "IA", "Zip": 52577.0, "O_14": 4.0, "Q_15": 3.0, "O_15": 4.0, "city": "OSKALOOSA", "beds": 69.0, "SR_15": 4.0}, {"Diff_star": 0.0, "addr": "402 2ND AVENUE", "SR_14": 4.0, "Q_14": 5.0, "name": "CLARENCE NURSING HOME", "SF_14": 3.0, "SF_15": 3.0, "cnty": "Cedar", "st": "IA", "Zip": 52216.0, "O_14": 5.0, "Q_15": 5.0, "O_15": 5.0, "city": "CLARENCE", "beds": 46.0, "SR_15": 4.0}, {"Diff_star": 0.0, "addr": "1204 LINDEN STREET", "SR_14": 4.0, "Q_14": 4.0, "name": "SPURGEON MANOR", "SF_14": 5.0, "SF_15": 5.0, "cnty": "Dallas", "st": "IA", "Zip": 50063.0, "O_14": 5.0, "Q_15": 5.0, "O_15": 5.0, "city": "DALLAS CENTER", "beds": 55.0, "SR_15": 4.0}, {"Diff_star": 0.0, "addr": "413 NORTH BROADWAY STREET", "SR_14": 2.0, "Q_14": 4.0, "name": "PLEASANT MANOR CARE CENTER", "SF_14": 4.0, "SF_15": 4.0, "cnty": "Henry", "st": "IA", "Zip": 52641.0, "O_14": 3.0, "Q_15": 4.0, "O_15": 3.0, "city": "MOUNT PLEASANT", "beds": 50.0, "SR_15": 2.0}, {"Diff_star": 0.0, "addr": "2909 WOODLAND AVENUE", "SR_14": 4.0, "Q_14": 4.0, "name": "SCOTTISH RITE PARK INC", "SF_14": 4.0, "SF_15": 4.0, "cnty": "Polk", "st": "IA", "Zip": 50312.0, "O_14": 4.0, "Q_15": 4.0, "O_15": 4.0, "city": "DES MOINES", "beds": 51.0, "SR_15": 4.0}, {"Diff_star": 0.0, "addr": "406 NORTH STREET", "SR_14": 4.0, "Q_14": 4.0, "name": "BROOKLYN COMMUNITY ESTATES", "SF_14": 4.0, "SF_15": 4.0, "cnty": "Poweshiek", "st": "IA", "Zip": 52211.0, "O_14": 4.0, "Q_15": 4.0, "O_15": 4.0, "city": "BROOKLYN", "beds": 60.0, "SR_15": 4.0}, {"Diff_star": 0.0, "addr": "121 SOUTH STREET", "SR_14": 3.0, "Q_14": 3.0, "name": "AKRON  CARE CENTER, INC", "SF_14": 4.0, "SF_15": 4.0, "cnty": "Plymouth", "st": "IA", "Zip": 51001.0, "O_14": 4.0, "Q_15": 3.0, "O_15": 4.0, "city": "AKRON", "beds": 45.0, "SR_15": 3.0}, {"Diff_star": 0.0, "addr": "1325 NORTH LAKE AVENUE", "SR_14": 1.0, "Q_14": 4.0, "name": "NORTH LAKE MANOR", "SF_14": 5.0, "SF_15": 5.0, "cnty": "Buena Vista", "st": "IA", "Zip": 50588.0, "O_14": 2.0, "Q_15": 2.0, "O_15": 2.0, "city": "STORM LAKE", "beds": 72.0, "SR_15": 1.0}, {"Diff_star": 0.0, "addr": "9225 CASCADE", "SR_14": 2.0, "Q_14": 5.0, "name": "EDGEWATER A WESLEY ACTIVE LIFE COMMUNITY LLC", "SF_14": 5.0, "SF_15": 5.0, "cnty": "Dallas", "st": "IA", "Zip": 50266.0, "O_14": 4.0, "Q_15": 5.0, "O_15": 4.0, "city": "WEST DES MOINES", "beds": 40.0, "SR_15": 2.0}, {"Diff_star": -1.0, "addr": "413 JEFFERSON STREET", "SR_14": 2.0, "Q_14": 3.0, "name": "JEFFERSON PLACE", "SF_14": 4.0, "SF_15": 3.0, "cnty": "Marion", "st": "IA", "Zip": 50219.0, "O_14": 3.0, "Q_15": 3.0, "O_15": 2.0, "city": "PELLA", "beds": 36.0, "SR_15": 2.0}, {"Diff_star": 0.0, "addr": "1200 MULBERRY STREET", "SR_14": 4.0, "Q_14": 5.0, "name": "CEDAR MANOR NURSING HOME", "SF_14": 2.0, "SF_15": 2.0, "cnty": "Cedar", "st": "IA", "Zip": 52772.0, "O_14": 5.0, "Q_15": 5.0, "O_15": 5.0, "city": "TIPTON", "beds": 60.0, "SR_15": 4.0}, {"Diff_star": 0.0, "addr": "5010 GRAND RIDGE DRIVE", "SR_14": 1.0, "Q_14": 4.0, "name": "MANORCARE HEALTH SERVICES -WEST DES MOINES", "SF_14": 2.0, "SF_15": 2.0, "cnty": "Polk", "st": "IA", "Zip": 50265.0, "O_14": 1.0, "Q_15": 4.0, "O_15": 1.0, "city": "WEST DES MOINES", "beds": 120.0, "SR_15": 1.0}, {"Diff_star": 0.0, "addr": "400 HIGHLAND STREET", "SR_14": 1.0, "Q_14": 5.0, "name": "SUNNY BROOK LIVING CARE CENTER", "SF_14": 3.0, "SF_15": 3.0, "cnty": "Jefferson", "st": "IA", "Zip": 52556.0, "O_14": 2.0, "Q_15": 5.0, "O_15": 2.0, "city": "FAIRFIELD", "beds": 65.0, "SR_15": 1.0}, {"Diff_star": 0.0, "addr": "235 NORTH MILL STREET", "SR_14": 4.0, "Q_14": 4.0, "name": "DENVER SUNSET HOME", "SF_14": 4.0, "SF_15": 3.0, "cnty": "Bremer", "st": "IA", "Zip": 50622.0, "O_14": 4.0, "Q_15": 3.0, "O_15": 4.0, "city": "DENVER", "beds": 31.0, "SR_15": 4.0}, {"Diff_star": 0.0, "addr": "250 FIFTH STREET", "SR_14": 2.0, "Q_14": 5.0, "name": "KEYSTONE NURSING CARE CENTER INC", "SF_14": 4.0, "SF_15": 4.0, "cnty": "Benton", "st": "IA", "Zip": 52249.0, "O_14": 4.0, "Q_15": 5.0, "O_15": 4.0, "city": "KEYSTONE", "beds": 45.0, "SR_15": 2.0}, {"Diff_star": 1.0, "addr": "200 SW BROOKSIDE DRIVE", "SR_14": 3.0, "Q_14": 4.0, "name": "KENNYBROOK VILLAGE", "SF_14": 4.0, "SF_15": 4.0, "cnty": "Polk", "st": "IA", "Zip": 50111.0, "O_14": 4.0, "Q_15": 5.0, "O_15": 5.0, "city": "GRIMES", "beds": 34.0, "SR_15": 3.0}, {"Diff_star": 0.0, "addr": "2323 EAST  WILLIS AVENUE", "SR_14": 1.0, "Q_14": 4.0, "name": "PERRY LUTHERAN HOME", "SF_14": 4.0, "SF_15": 4.0, "cnty": "Dallas", "st": "IA", "Zip": 50220.0, "O_14": 2.0, "Q_15": 2.0, "O_15": 2.0, "city": "PERRY", "beds": 73.0, "SR_15": 1.0}, {"Diff_star": 0.0, "addr": "1742 MAIN STREET", "SR_14": "", "Q_14": "", "name": "THE COTTAGES", "SF_14": "", "SF_15": "", "cnty": "Marion", "st": "IA", "Zip": 50219.0, "O_14": "", "Q_15": "", "O_15": "", "city": "PELLA", "beds": 64.0, "SR_15": ""}, {"Diff_star": 0.0, "addr": "600 EAST FIFTH STREET", "SR_14": "", "Q_14": "", "name": "EAST VILLAGE CENTER FOR WELLNESS & REHAB", "SF_14": "", "SF_15": "", "cnty": "Polk", "st": "IA", "Zip": 50309.0, "O_14": "", "Q_15": "", "O_15": "", "city": "DES MOINES", "beds": 44.0, "SR_15": ""}, {"Diff_star": 0.0, "addr": "114 N 5TH AVENUE W", "SR_14": "", "Q_14": "", "name": "NEWTON VILLAGE HEALTH CARE CENTER", "SF_14": "", "SF_15": "", "cnty": "Jasper", "st": "IA", "Zip": 50208.0, "O_14": "", "Q_15": "", "O_15": "", "city": "NEWTON", "beds": 24.0, "SR_15": ""}, {"Diff_star": 0.0, "addr": "2785 1ST AVENUE S", "SR_14": "", "Q_14": "", "name": "PRAIRIE VISTA VILLAGE", "SF_14": "", "SF_15": "", "cnty": "Polk", "st": "IA", "Zip": 50009.0, "O_14": "", "Q_15": "", "O_15": "", "city": "ALTOONA", "beds": 38.0, "SR_15": ""}, {"Diff_star": 0.0, "addr": "307 OVESEN DRIVE", "SR_14": "", "Q_14": "", "name": "WILTON RETIREMENT COMMUNITY", "SF_14": "", "SF_15": "", "cnty": "Muscatine", "st": "IA", "Zip": 52778.0, "O_14": "", "Q_15": "", "O_15": "", "city": "WILTON", "beds": 34.0, "SR_15": ""}, {"Diff_star": 0.0, "addr": "5900 PIONEER PARKWAY", "SR_14": 4.0, "Q_14": 5.0, "name": "CHILDSERVE HABILITATION CENTER", "SF_14": 5.0, "SF_15": 5.0, "cnty": "Polk", "st": "IA", "Zip": 50131.0, "O_14": 5.0, "Q_15": 5.0, "O_15": 5.0, "city": "JOHNSTON", "beds": 58.0, "SR_15": 4.0}, {"Diff_star": 0.0, "addr": "1301 SUMMIT", "SR_14": 2.0, "Q_14": 4.0, "name": "IOWA VETERANS HOME", "SF_14": 5.0, "SF_15": 5.0, "cnty": "Marshall", "st": "IA", "Zip": 50158.0, "O_14": 3.0, "Q_15": 3.0, "O_15": 3.0, "city": "MARSHALLTOWN", "beds": 815.0, "SR_15": 2.0}, {"Diff_star": 0.0, "addr": "502 NORTH NINTH AVENUE", "SR_14": 5.0, "Q_14": 4.0, "name": "VIRGINIA GAY HOSPITAL", "SF_14": 4.0, "SF_15": 4.0, "cnty": "Benton", "st": "IA", "Zip": 52349.0, "O_14": 5.0, "Q_15": 4.0, "O_15": 5.0, "city": "VINTON", "beds": 40.0, "SR_15": 5.0}, {"Diff_star": 0.0, "addr": "1600 FIRST STREET EAST", "SR_14": 3.0, "Q_14": 4.0, "name": "BUCHANAN COUNTY HEALTH CENTER", "SF_14": 5.0, "SF_15": 5.0, "cnty": "Buchanan", "st": "IA", "Zip": 50644.0, "O_14": 4.0, "Q_15": 4.0, "O_15": 4.0, "city": "INDEPENDENCE", "beds": 39.0, "SR_15": 3.0}, {"Diff_star": 0.0, "addr": "410 MAIN STREET", "SR_14": 3.0, "Q_14": 4.0, "name": "MANNING REGIONAL HEALTHCARE CE", "SF_14": 4.0, "SF_15": 4.0, "cnty": "Carroll", "st": "IA", "Zip": 51455.0, "O_14": 4.0, "Q_15": 2.0, "O_15": 4.0, "city": "MANNING", "beds": 56.0, "SR_15": 3.0}, {"Diff_star": 0.0, "addr": "406 EAST ANTHONY STREET", "SR_14": 3.0, "Q_14": 4.0, "name": "ST ANTHONY'S REGIONAL HOSPITAL", "SF_14": 4.0, "SF_15": 4.0, "cnty": "Carroll", "st": "IA", "Zip": 51401.0, "O_14": 4.0, "Q_15": 4.0, "O_15": 4.0, "city": "CARROLL", "beds": 79.0, "SR_15": 3.0}, {"Diff_star": 0.0, "addr": "1118 11TH STREET", "SR_14": 5.0, "Q_14": 5.0, "name": "GENESIS MEDICAL CENTER-DEWITT", "SF_14": 4.0, "SF_15": 4.0, "cnty": "Clinton", "st": "IA", "Zip": 52742.0, "O_14": 5.0, "Q_15": 5.0, "O_15": 5.0, "city": "DE WITT", "beds": 77.0, "SR_15": 5.0}, {"Diff_star": 0.0, "addr": "1720 CENTRAL AVENUE EAST", "SR_14": 4.0, "Q_14": 4.0, "name": "FRANKLIN GENERAL HOSPITAL", "SF_14": 4.0, "SF_15": 4.0, "cnty": "Franklin", "st": "IA", "Zip": 50441.0, "O_14": 4.0, "Q_15": 4.0, "O_15": 4.0, "city": "HAMPTON", "beds": 52.0, "SR_15": 4.0}, {"Diff_star": 0.0, "addr": "1000 WEST LINCOLNWAY", "SR_14": 2.0, "Q_14": 4.0, "name": "GREENE COUNTY MEDICAL CENTER", "SF_14": 3.0, "SF_15": 3.0, "cnty": "Greene", "st": "IA", "Zip": 50129.0, "O_14": 2.0, "Q_15": 3.0, "O_15": 2.0, "city": "JEFFERSON", "beds": 85.0, "SR_15": 2.0}, {"Diff_star": 0.0, "addr": "201 EAST J AVENUE", "SR_14": 3.0, "Q_14": 5.0, "name": "GRUNDY COUNTY MEMORIAL HOSPITAL", "SF_14": 3.0, "SF_15": 3.0, "cnty": "Grundy", "st": "IA", "Zip": 50638.0, "O_14": 4.0, "Q_15": 5.0, "O_15": 4.0, "city": "GRUNDY CENTER", "beds": 55.0, "SR_15": 3.0}, {"Diff_star": 0.0, "addr": "1500 N FRANKLIN AVENUE", "SR_14": 4.0, "Q_14": 5.0, "name": "ROSE HAVEN NURSING HOME", "SF_14": 1.0, "SF_15": 1.0, "cnty": "Iowa", "st": "IA", "Zip": 52301.0, "O_14": 4.0, "Q_15": 5.0, "O_15": 4.0, "city": "MARENGO", "beds": 58.0, "SR_15": 4.0}, {"Diff_star": 0.0, "addr": "118 NORTH SEVENTH AVENUE, PO BOX 250", "SR_14": 3.0, "Q_14": 5.0, "name": "SANFORD SENIOR CARE SHELDON", "SF_14": 4.0, "SF_15": 4.0, "cnty": "Obrien", "st": "IA", "Zip": 51201.0, "O_14": 5.0, "Q_15": 5.0, "O_15": 5.0, "city": "SHELDON", "beds": 70.0, "SR_15": 3.0}, {"Diff_star": 0.0, "addr": "630 SOUTH SIXTH STREET", "SR_14": 2.0, "Q_14": 5.0, "name": "STORY COUNTY HOSPITAL LTC", "SF_14": 4.0, "SF_15": 4.0, "cnty": "Story", "st": "IA", "Zip": 50201.0, "O_14": 4.0, "Q_15": 5.0, "O_15": 4.0, "city": "NEVADA", "beds": 80.0, "SR_15": 2.0}, {"Diff_star": 0.0, "addr": "2116 14TH STREET", "SR_14": 3.0, "Q_14": 4.0, "name": "HEGG MEMORIAL HEALTH CENTER", "SF_14": 5.0, "SF_15": 5.0, "cnty": "Sioux", "st": "IA", "Zip": 51247.0, "O_14": 4.0, "Q_15": 3.0, "O_15": 4.0, "city": "ROCK VALLEY", "beds": 60.0, "SR_15": 3.0}, {"Diff_star": 0.0, "addr": "1111 THIRD STREET SW", "SR_14": 4.0, "Q_14": 4.0, "name": "MERCY MEDICAL CENTER-DUBUQUE", "SF_14": 4.0, "SF_15": 4.0, "cnty": "Dubuque", "st": "IA", "Zip": 52040.0, "O_14": 4.0, "Q_15": 2.0, "O_15": 4.0, "city": "DYERSVILLE", "beds": 40.0, "SR_15": 4.0}, {"Diff_star": 0.0, "addr": "3201 FIRST STREET", "SR_14": 3.0, "Q_14": 4.0, "name": "PALO ALTO COUNTY HOSPITAL", "SF_14": 4.0, "SF_15": 4.0, "cnty": "Palo Alto", "st": "IA", "Zip": 50536.0, "O_14": 4.0, "Q_15": 2.0, "O_15": 4.0, "city": "EMMETSBURG", "beds": 22.0, "SR_15": 3.0}, {"Diff_star": 0.0, "addr": "400 EAST POLK", "SR_14": 3.0, "Q_14": 3.0, "name": "WASHINGTON COUNTY HOSPITAL", "SF_14": 5.0, "SF_15": 5.0, "cnty": "Washington", "st": "IA", "Zip": 52353.0, "O_14": 4.0, "Q_15": 2.0, "O_15": 4.0, "city": "WASHINGTON", "beds": 43.0, "SR_15": 3.0}, {"Diff_star": -1.0, "addr": "1800 N 16TH STREET", "SR_14": 2.0, "Q_14": 5.0, "name": "MENTAL HEALTH INSTITUTE", "SF_14": 5.0, "SF_15": 5.0, "cnty": "Page", "st": "IA", "Zip": 51632.0, "O_14": 4.0, "Q_15": 4.0, "O_15": 3.0, "city": "CLARINDA", "beds": 63.0, "SR_15": 2.0}, {"Diff_star": -1.0, "addr": "1555 HULL AVENUE", "SR_14": 2.0, "Q_14": 4.0, "name": "TRINITY CENTER AT LUTHER PARK", "SF_14": 3.0, "SF_15": 3.0, "cnty": "Polk", "st": "IA", "Zip": 50316.0, "O_14": 2.0, "Q_15": 1.0, "O_15": 1.0, "city": "DES MOINES", "beds": 120.0, "SR_15": 2.0}, {"Diff_star": 0.0, "addr": "1000 NORTH 15TH STREET", "SR_14": 3.0, "Q_14": 5.0, "name": "HUMBOLDT COUNTY MEMORIAL HOSPI", "SF_14": 5.0, "SF_15": 5.0, "cnty": "Humboldt", "st": "IA", "Zip": 50548.0, "O_14": 5.0, "Q_15": 5.0, "O_15": 5.0, "city": "HUMBOLDT", "beds": 28.0, "SR_15": 3.0}, {"Diff_star": 0.0, "addr": "ONE ST JOSEPH DRIVE", "SR_14": 2.0, "Q_14": 3.0, "name": "MERCY MEDICAL CENTER-CENTERVILLE", "SF_14": 3.0, "SF_15": 3.0, "cnty": "Appanoose", "st": "IA", "Zip": 52544.0, "O_14": 2.0, "Q_15": 3.0, "O_15": 2.0, "city": "CENTERVILLE", "beds": 20.0, "SR_15": 2.0}, {"Diff_star": 0.0, "addr": "22425 OVERLAND AVENUE", "SR_14": 3.0, "Q_14": 4.0, "name": "DAVIS CENTER", "SF_14": 5.0, "SF_15": 5.0, "cnty": "Davis", "st": "IA", "Zip": 52537.0, "O_14": 4.0, "Q_15": 4.0, "O_15": 4.0, "city": "BLOOMFIELD", "beds": 25.0, "SR_15": 3.0}, {"Diff_star": -2.0, "addr": "3140 PLANK ROAD", "SR_14": 2.0, "Q_14": 3.0, "name": "DAVE'S PLACE", "SF_14": 5.0, "SF_15": 3.0, "cnty": "Lee", "st": "IA", "Zip": 52632.0, "O_14": 3.0, "Q_15": 1.0, "O_15": 1.0, "city": "KEOKUK", "beds": 57.0, "SR_15": 2.0}]