[{"Diff_star": 0.0, "addr": "2280 S MINNEAPOLIS AVE", "SR_14": 1.0, "Q_14": 4.0, "name": "MEDICALODGES WICHITA", "SF_14": 4.0, "SF_15": 4.0, "cnty": "Sedgwick", "st": "KS", "Zip": 67211.0, "O_14": 2.0, "Q_15": 2.0, "O_15": 2.0, "city": "WICHITA", "beds": 70.0, "SR_15": 1.0}, {"Diff_star": 0.0, "addr": "1001 SW 29TH ST", "SR_14": 4.0, "Q_14": 5.0, "name": "BREWSTER HEALTH CENTER", "SF_14": 5.0, "SF_15": 5.0, "cnty": "Shawnee", "st": "KS", "Zip": 66611.0, "O_14": 5.0, "Q_15": 5.0, "O_15": 5.0, "city": "TOPEKA", "beds": 97.0, "SR_15": 4.0}, {"Diff_star": 0.0, "addr": "2520 S ROUSE ST", "SR_14": 3.0, "Q_14": 5.0, "name": "MEDICALODGES PITTSBURG", "SF_14": 5.0, "SF_15": 5.0, "cnty": "Crawford", "st": "KS", "Zip": 66762.0, "O_14": 5.0, "Q_15": 5.0, "O_15": 5.0, "city": "PITTSBURG", "beds": 60.0, "SR_15": 3.0}, {"Diff_star": -1.0, "addr": "1615 PARKER AVE", "SR_14": 2.0, "Q_14": 4.0, "name": "LIFE CARE CENTER OF OSAWATOMIE", "SF_14": 4.0, "SF_15": 3.0, "cnty": "Miami", "st": "KS", "Zip": 66064.0, "O_14": 3.0, "Q_15": 4.0, "O_15": 2.0, "city": "OSAWATOMIE", "beds": 110.0, "SR_15": 2.0}, {"Diff_star": 0.0, "addr": "5005 E 21ST ST N", "SR_14": 1.0, "Q_14": 5.0, "name": "COLLEGE HILL NURSING & REHAB CENTER", "SF_14": 4.0, "SF_15": 4.0, "cnty": "Sedgwick", "st": "KS", "Zip": 67208.0, "O_14": 2.0, "Q_15": 4.0, "O_15": 2.0, "city": "WICHITA", "beds": 96.0, "SR_15": 1.0}, {"Diff_star": 0.0, "addr": "2800 WILLOW GROVE RD", "SR_14": 4.0, "Q_14": 3.0, "name": "VIA CHRISTI VILLAGE MANHATTAN INC", "SF_14": 4.0, "SF_15": 4.0, "cnty": "Riley", "st": "KS", "Zip": 66502.0, "O_14": 4.0, "Q_15": 2.0, "O_15": 4.0, "city": "MANHATTAN", "beds": 96.0, "SR_15": 4.0}, {"Diff_star": 0.0, "addr": "2015 SE 10TH AVE", "SR_14": 1.0, "Q_14": 4.0, "name": "THE LEGACY ON 10TH AVENUE", "SF_14": 3.0, "SF_15": 3.0, "cnty": "Shawnee", "st": "KS", "Zip": 66607.0, "O_14": 1.0, "Q_15": 2.0, "O_15": 1.0, "city": "TOPEKA", "beds": 76.0, "SR_15": 1.0}, {"Diff_star": 0.0, "addr": "1202 E 23RD AVE", "SR_14": 1.0, "Q_14": 1.0, "name": "GOLDEN PLAINS REHABILITATION CENTER", "SF_14": 4.0, "SF_15": 4.0, "cnty": "Reno", "st": "KS", "Zip": 67502.0, "O_14": 1.0, "Q_15": 1.0, "O_15": 1.0, "city": "HUTCHINSON", "beds": 85.0, "SR_15": 1.0}, {"Diff_star": 0.0, "addr": "16600 W. 126TH ST", "SR_14": 2.0, "Q_14": 4.0, "name": "VILLA ST FRANCIS", "SF_14": 3.0, "SF_15": 3.0, "cnty": "Johnson", "st": "KS", "Zip": 66062.0, "O_14": 2.0, "Q_15": 2.0, "O_15": 2.0, "city": "OLATHE", "beds": 170.0, "SR_15": 2.0}, {"Diff_star": -1.0, "addr": "1323 N A ST", "SR_14": 3.0, "Q_14": 5.0, "name": "SUMNER REGIONAL MEDICAL CENTER SNF", "SF_14": "", "SF_15": "", "cnty": "Sumner", "st": "KS", "Zip": 67152.0, "O_14": 4.0, "Q_15": 3.0, "O_15": 3.0, "city": "WELLINGTON", "beds": 9.0, "SR_15": 3.0}, {"Diff_star": 0.0, "addr": "401 S SENECA ST", "SR_14": 2.0, "Q_14": 3.0, "name": "KANSAS MASONIC HOME", "SF_14": 4.0, "SF_15": 4.0, "cnty": "Sedgwick", "st": "KS", "Zip": 67213.0, "O_14": 3.0, "Q_15": 2.0, "O_15": 3.0, "city": "WICHITA", "beds": 120.0, "SR_15": 2.0}, {"Diff_star": 0.0, "addr": "9701 MONROVIA ST", "SR_14": 1.0, "Q_14": 4.0, "name": "DELMAR GARDENS OF LENEXA", "SF_14": 3.0, "SF_15": 3.0, "cnty": "Johnson", "st": "KS", "Zip": 66215.0, "O_14": 1.0, "Q_15": 3.0, "O_15": 1.0, "city": "LENEXA", "beds": 250.0, "SR_15": 1.0}, {"Diff_star": 0.0, "addr": "9700 W 62ND STREET", "SR_14": 4.0, "Q_14": 4.0, "name": "TRINITY NURSING & REHABILITATION CENTER INC", "SF_14": 4.0, "SF_15": 4.0, "cnty": "Johnson", "st": "KS", "Zip": 66203.0, "O_14": 4.0, "Q_15": 3.0, "O_15": 4.0, "city": "MERRIAM", "beds": 120.0, "SR_15": 4.0}, {"Diff_star": -1.0, "addr": "1313 S HIGH ST", "SR_14": 4.0, "Q_14": 4.0, "name": "LAKEPOINT NURSING & REHAB CENTER OF EL DORADO", "SF_14": 4.0, "SF_15": 4.0, "cnty": "Butler", "st": "KS", "Zip": 67042.0, "O_14": 4.0, "Q_15": 1.0, "O_15": 3.0, "city": "EL DORADO", "beds": 121.0, "SR_15": 4.0}, {"Diff_star": 0.0, "addr": "1417 W ASH ST", "SR_14": 3.0, "Q_14": 3.0, "name": "VALLEY VIEW SENIOR LIFE", "SF_14": 4.0, "SF_15": 4.0, "cnty": "Geary", "st": "KS", "Zip": 66441.0, "O_14": 4.0, "Q_15": 2.0, "O_15": 4.0, "city": "JUNCTION CITY", "beds": 100.0, "SR_15": 3.0}, {"Diff_star": -1.0, "addr": "623 S 3RD ST", "SR_14": 2.0, "Q_14": 5.0, "name": "WINDSOR ESTATES NURSING HOME", "SF_14": 4.0, "SF_15": 3.0, "cnty": "Saline", "st": "KS", "Zip": 67401.0, "O_14": 4.0, "Q_15": 5.0, "O_15": 3.0, "city": "SALINA", "beds": 53.0, "SR_15": 2.0}, {"Diff_star": 0.0, "addr": "427 W MAIN ST", "SR_14": 3.0, "Q_14": 3.0, "name": "MEADOWBROOK REHABILITATION HOSPITAL LTCU", "SF_14": 5.0, "SF_15": 5.0, "cnty": "Johnson", "st": "KS", "Zip": 66030.0, "O_14": 4.0, "Q_15": 2.0, "O_15": 4.0, "city": "GARDNER", "beds": 42.0, "SR_15": 3.0}, {"Diff_star": -1.0, "addr": "215 N LAMAR AVE", "SR_14": 1.0, "Q_14": 5.0, "name": "DIVERSICARE OF HAYSVILLE", "SF_14": 3.0, "SF_15": 3.0, "cnty": "Sedgwick", "st": "KS", "Zip": 67060.0, "O_14": 2.0, "Q_15": 3.0, "O_15": 1.0, "city": "HAYSVILLE", "beds": 119.0, "SR_15": 1.0}, {"Diff_star": 1.0, "addr": "6500 GREELEY AVE", "SR_14": 2.0, "Q_14": 4.0, "name": "MEDICALODGES POST ACUTE CARE CENTER", "SF_14": 5.0, "SF_15": 5.0, "cnty": "Wyandotte", "st": "KS", "Zip": 66104.0, "O_14": 3.0, "Q_15": 4.0, "O_15": 4.0, "city": "KANSAS CITY", "beds": 122.0, "SR_15": 3.0}, {"Diff_star": 1.0, "addr": "1637 RILEY ST", "SR_14": 1.0, "Q_14": 4.0, "name": "MEDICALODGES ATCHISON", "SF_14": 2.0, "SF_15": 2.0, "cnty": "Atchison", "st": "KS", "Zip": 66002.0, "O_14": 1.0, "Q_15": 5.0, "O_15": 2.0, "city": "ATCHISON", "beds": 60.0, "SR_15": 1.0}, {"Diff_star": -1.0, "addr": "700 W 7TH ST", "SR_14": 2.0, "Q_14": 5.0, "name": "BROOKSIDE RETIREMENT COMMUNITY", "SF_14": 5.0, "SF_15": 5.0, "cnty": "Osage", "st": "KS", "Zip": 66524.0, "O_14": 4.0, "Q_15": 4.0, "O_15": 3.0, "city": "OVERBROOK", "beds": 72.0, "SR_15": 2.0}, {"Diff_star": 0.0, "addr": "1701 E 23RD AVE", "SR_14": 4.0, "Q_14": 1.0, "name": "HUTCHINSON REGIONAL MEDICAL CENTER INC (SNU)", "SF_14": 4.0, "SF_15": 4.0, "cnty": "Reno", "st": "KS", "Zip": 67502.0, "O_14": 3.0, "Q_15": 1.0, "O_15": 3.0, "city": "HUTCHINSON", "beds": 15.0, "SR_15": 4.0}, {"Diff_star": 0.0, "addr": "325 MAINE ST", "SR_14": 5.0, "Q_14": 5.0, "name": "LAWRENCE MEMORIAL HOSPITAL SNF", "SF_14": "", "SF_15": 5.0, "cnty": "Douglas", "st": "KS", "Zip": 66044.0, "O_14": 5.0, "Q_15": 3.0, "O_15": 5.0, "city": "LAWRENCE", "beds": 12.0, "SR_15": 4.0}, {"Diff_star": 0.0, "addr": "1031 FLEMING COURT", "SR_14": 2.0, "Q_14": 3.0, "name": "LEXINGTON PARK NURSING & POST ACUTE CENTER", "SF_14": 5.0, "SF_15": 5.0, "cnty": "Shawnee", "st": "KS", "Zip": 66604.0, "O_14": 3.0, "Q_15": 2.0, "O_15": 3.0, "city": "TOPEKA", "beds": 90.0, "SR_15": 2.0}, {"Diff_star": -1.0, "addr": "621 W 21ST  PO BOX 100", "SR_14": 3.0, "Q_14": 5.0, "name": "LIFE CARE CENTER OF ANDOVER", "SF_14": 3.0, "SF_15": 3.0, "cnty": "Butler", "st": "KS", "Zip": 67002.0, "O_14": 4.0, "Q_15": 3.0, "O_15": 3.0, "city": "ANDOVER", "beds": 154.0, "SR_15": 3.0}, {"Diff_star": 0.0, "addr": "7541 SWITZER ST", "SR_14": 2.0, "Q_14": 5.0, "name": "GARDEN TERRACE AT OVERLAND PARK", "SF_14": 3.0, "SF_15": 3.0, "cnty": "Johnson", "st": "KS", "Zip": 66214.0, "O_14": 3.0, "Q_15": 5.0, "O_15": 3.0, "city": "OVERLAND PARK", "beds": 163.0, "SR_15": 2.0}, {"Diff_star": 0.0, "addr": "8909 PARALLEL PKY", "SR_14": 2.0, "Q_14": 4.0, "name": "PROVIDENCE PLACE", "SF_14": 4.0, "SF_15": 4.0, "cnty": "Wyandotte", "st": "KS", "Zip": 66112.0, "O_14": 3.0, "Q_15": 4.0, "O_15": 3.0, "city": "KANSAS CITY", "beds": 70.0, "SR_15": 2.0}, {"Diff_star": 0.0, "addr": "1503 OHIO ST", "SR_14": 1.0, "Q_14": 5.0, "name": "MEDICALODGES LEAVENWORTH", "SF_14": 4.0, "SF_15": 3.0, "cnty": "Leavenworth", "st": "KS", "Zip": 66048.0, "O_14": 2.0, "Q_15": 5.0, "O_15": 2.0, "city": "LEAVENWORTH", "beds": 80.0, "SR_15": 1.0}, {"Diff_star": -1.0, "addr": "315 W 15TH STREET", "SR_14": 5.0, "Q_14": 3.0, "name": "SOUTHWEST MEDICAL CENTER SNF", "SF_14": 5.0, "SF_15": 5.0, "cnty": "Seward", "st": "KS", "Zip": 67905.0, "O_14": 5.0, "Q_15": 1.0, "O_15": 4.0, "city": "LIBERAL", "beds": 18.0, "SR_15": 5.0}, {"Diff_star": -2.0, "addr": "2400 SW URISH RD", "SR_14": 3.0, "Q_14": 5.0, "name": "ROLLING HILLS HEALTH CENTER", "SF_14": 4.0, "SF_15": 4.0, "cnty": "Shawnee", "st": "KS", "Zip": 66614.0, "O_14": 5.0, "Q_15": 4.0, "O_15": 3.0, "city": "TOPEKA", "beds": 102.0, "SR_15": 2.0}, {"Diff_star": 0.0, "addr": "7101 E 21ST ST N", "SR_14": 2.0, "Q_14": 4.0, "name": "MANORCARE HEALTH SERVICES - WICHITA", "SF_14": 2.0, "SF_15": 2.0, "cnty": "Sedgwick", "st": "KS", "Zip": 67206.0, "O_14": 2.0, "Q_15": 2.0, "O_15": 2.0, "city": "WICHITA", "beds": 118.0, "SR_15": 2.0}, {"Diff_star": 1.0, "addr": "1400 W 4TH  PO BOX 850", "SR_14": 2.0, "Q_14": 1.0, "name": "COFFEYVILLE REGIONAL MEDICAL CENTER SNF", "SF_14": 4.0, "SF_15": 4.0, "cnty": "Montgomery", "st": "KS", "Zip": 67337.0, "O_14": 2.0, "Q_15": 2.0, "O_15": 3.0, "city": "COFFEYVILLE", "beds": 20.0, "SR_15": 2.0}, {"Diff_star": 0.0, "addr": "1610 SW 37TH ST", "SR_14": 3.0, "Q_14": 4.0, "name": "MCCRITE PLAZA HEALTH CENTER", "SF_14": 4.0, "SF_15": 4.0, "cnty": "Shawnee", "st": "KS", "Zip": 66611.0, "O_14": 4.0, "Q_15": 3.0, "O_15": 4.0, "city": "TOPEKA", "beds": 91.0, "SR_15": 3.0}, {"Diff_star": 0.0, "addr": "2515 SW WANAMAKER RD", "SR_14": 1.0, "Q_14": 5.0, "name": "MANORCARE HEALTH SERVICES - TOPEKA", "SF_14": 3.0, "SF_15": 3.0, "cnty": "Shawnee", "st": "KS", "Zip": 66614.0, "O_14": 2.0, "Q_15": 5.0, "O_15": 2.0, "city": "TOPEKA", "beds": 120.0, "SR_15": 1.0}, {"Diff_star": 1.0, "addr": "2700 W 30TH ST", "SR_14": 4.0, "Q_14": 4.0, "name": "HOLIDAY RESORT", "SF_14": 4.0, "SF_15": 4.0, "cnty": "Lyon", "st": "KS", "Zip": 66801.0, "O_14": 4.0, "Q_15": 3.0, "O_15": 5.0, "city": "EMPORIA", "beds": 120.0, "SR_15": 5.0}, {"Diff_star": 0.0, "addr": "2121 MEADOWLARK RD", "SR_14": 4.0, "Q_14": 4.0, "name": "MEADOWLARK HILLS", "SF_14": 4.0, "SF_15": 4.0, "cnty": "Riley", "st": "KS", "Zip": 66502.0, "O_14": 4.0, "Q_15": 2.0, "O_15": 4.0, "city": "MANHATTAN", "beds": 133.0, "SR_15": 4.0}, {"Diff_star": -1.0, "addr": "1505 E SPRUCE ST", "SR_14": 1.0, "Q_14": 5.0, "name": "GARDEN VALLEY RETIREMENT VILLAGE", "SF_14": 3.0, "SF_15": 3.0, "cnty": "Finney", "st": "KS", "Zip": 67846.0, "O_14": 2.0, "Q_15": 4.0, "O_15": 1.0, "city": "GARDEN CITY", "beds": 82.0, "SR_15": 1.0}, {"Diff_star": -1.0, "addr": "6515 W 103RD ST", "SR_14": 1.0, "Q_14": 5.0, "name": "INDIAN CREEK HEALTHCARE CENTER", "SF_14": 2.0, "SF_15": 2.0, "cnty": "Johnson", "st": "KS", "Zip": 66212.0, "O_14": 2.0, "Q_15": 3.0, "O_15": 1.0, "city": "OVERLAND PARK", "beds": 120.0, "SR_15": 1.0}, {"Diff_star": 0.0, "addr": "5211 W 103RD ST", "SR_14": 1.0, "Q_14": 5.0, "name": "MANORCARE HEALTH SERVICES - OVERLAND PARK", "SF_14": 4.0, "SF_15": 4.0, "cnty": "Johnson", "st": "KS", "Zip": 66207.0, "O_14": 2.0, "Q_15": 5.0, "O_15": 2.0, "city": "OVERLAND PARK", "beds": 223.0, "SR_15": 1.0}, {"Diff_star": 0.0, "addr": "2828 N. GOVERNEOUR", "SR_14": 5.0, "Q_14": 5.0, "name": "LARKSFIELD PLACE", "SF_14": 4.0, "SF_15": 4.0, "cnty": "Sedgwick", "st": "KS", "Zip": 67226.0, "O_14": 5.0, "Q_15": 5.0, "O_15": 5.0, "city": "WICHITA", "beds": 90.0, "SR_15": 5.0}, {"Diff_star": -1.0, "addr": "12100 W 109TH ST", "SR_14": 2.0, "Q_14": 4.0, "name": "DELMAR GARDENS OF OVERLAND PARK", "SF_14": 4.0, "SF_15": 3.0, "cnty": "Johnson", "st": "KS", "Zip": 66210.0, "O_14": 3.0, "Q_15": 4.0, "O_15": 2.0, "city": "OVERLAND PARK", "beds": 120.0, "SR_15": 2.0}, {"Diff_star": 0.0, "addr": "11901 ROSEWOOD", "SR_14": 3.0, "Q_14": 4.0, "name": "VILLA ST JOSEPH", "SF_14": 4.0, "SF_15": 4.0, "cnty": "Johnson", "st": "KS", "Zip": 66209.0, "O_14": 4.0, "Q_15": 4.0, "O_15": 4.0, "city": "OVERLAND PARK", "beds": 116.0, "SR_15": 3.0}, {"Diff_star": 0.0, "addr": "2936 GEORGIA AVENUE", "SR_14": 3.0, "Q_14": 4.0, "name": "PINNACLE PARK NURSING & REHAB CENTER", "SF_14": 3.0, "SF_15": 3.0, "cnty": "Saline", "st": "KS", "Zip": 67401.0, "O_14": 3.0, "Q_15": 3.0, "O_15": 3.0, "city": "SALINA", "beds": 60.0, "SR_15": 3.0}, {"Diff_star": -1.0, "addr": "1007 JOHNSTOWN AVE", "SR_14": 2.0, "Q_14": 2.0, "name": "SMOKY HILL REHABILITATION CENTER", "SF_14": 4.0, "SF_15": 4.0, "cnty": "Saline", "st": "KS", "Zip": 67401.0, "O_14": 3.0, "Q_15": 1.0, "O_15": 2.0, "city": "SALINA", "beds": 90.0, "SR_15": 2.0}, {"Diff_star": -1.0, "addr": "6501 W 75TH ST", "SR_14": 3.0, "Q_14": 4.0, "name": "OVERLAND PARK NURSING & REHAB CENTER INC", "SF_14": 4.0, "SF_15": 3.0, "cnty": "Johnson", "st": "KS", "Zip": 66204.0, "O_14": 4.0, "Q_15": 4.0, "O_15": 3.0, "city": "OVERLAND PARK", "beds": 102.0, "SR_15": 3.0}, {"Diff_star": 0.0, "addr": "3501 W 95TH ST", "SR_14": 3.0, "Q_14": 4.0, "name": "THE FORUM AT OVERLAND PARK", "SF_14": 5.0, "SF_15": 5.0, "cnty": "Johnson", "st": "KS", "Zip": 66206.0, "O_14": 4.0, "Q_15": 4.0, "O_15": 4.0, "city": "OVERLAND PARK", "beds": 60.0, "SR_15": 3.0}, {"Diff_star": 0.0, "addr": "2025 LITTLE KITTEN AVE", "SR_14": 3.0, "Q_14": 4.0, "name": "STONEYBROOK RETIREMENT COMMUNITY", "SF_14": 4.0, "SF_15": 4.0, "cnty": "Riley", "st": "KS", "Zip": 66503.0, "O_14": 4.0, "Q_15": 4.0, "O_15": 4.0, "city": "MANHATTAN", "beds": 69.0, "SR_15": 3.0}, {"Diff_star": 2.0, "addr": "900 ELMHURST BLVD", "SR_14": 1.0, "Q_14": 4.0, "name": "KENWOOD VIEW HEALTH AND REHABILITATION CENTER", "SF_14": "", "SF_15": 5.0, "cnty": "Saline", "st": "KS", "Zip": 67401.0, "O_14": 1.0, "Q_15": 2.0, "O_15": 3.0, "city": "SALINA", "beds": 82.0, "SR_15": 2.0}, {"Diff_star": 0.0, "addr": "1218 KANSAS ST", "SR_14": 5.0, "Q_14": 1.0, "name": "GOLDEN LIVINGCENTER - DOWNS", "SF_14": 4.0, "SF_15": 3.0, "cnty": "Osborne", "st": "KS", "Zip": 67437.0, "O_14": 4.0, "Q_15": 1.0, "O_15": 4.0, "city": "DOWNS", "beds": 45.0, "SR_15": 5.0}, {"Diff_star": 0.0, "addr": "105 EAST COLLEGE DRIVE", "SR_14": 2.0, "Q_14": 3.0, "name": "DESERET HEALTH AND REHAB AT COLBY LLC", "SF_14": 2.0, "SF_15": 2.0, "cnty": "Thomas", "st": "KS", "Zip": 67701.0, "O_14": 2.0, "Q_15": 2.0, "O_15": 2.0, "city": "COLBY", "beds": 45.0, "SR_15": 2.0}, {"Diff_star": 0.0, "addr": "611 31ST ST  PO BOX 160", "SR_14": 5.0, "Q_14": 4.0, "name": "GOLDEN LIVINGCENTER - WILSON", "SF_14": 2.0, "SF_15": 2.0, "cnty": "Ellsworth", "st": "KS", "Zip": 67490.0, "O_14": 5.0, "Q_15": 2.0, "O_15": 5.0, "city": "WILSON", "beds": 46.0, "SR_15": 5.0}, {"Diff_star": 0.0, "addr": "501 W BEESON RD", "SR_14": 1.0, "Q_14": 4.0, "name": "GOOD SAMARITAN SOCIETY - DODGE CITY", "SF_14": 3.0, "SF_15": 3.0, "cnty": "Ford", "st": "KS", "Zip": 67801.0, "O_14": 1.0, "Q_15": 2.0, "O_15": 1.0, "city": "DODGE CITY", "beds": 60.0, "SR_15": 1.0}, {"Diff_star": 0.0, "addr": "1005 E CENTENNIAL DR", "SR_14": 1.0, "Q_14": 5.0, "name": "GOLDEN LIVINGCENTER - PITTSBURG", "SF_14": 3.0, "SF_15": 3.0, "cnty": "Crawford", "st": "KS", "Zip": 66762.0, "O_14": 2.0, "Q_15": 5.0, "O_15": 2.0, "city": "PITTSBURG", "beds": 86.0, "SR_15": 1.0}, {"Diff_star": 0.0, "addr": "709 LEAWOOD DR", "SR_14": 4.0, "Q_14": 3.0, "name": "GOOD SAMARITAN SOCIETY - PARSONS", "SF_14": 4.0, "SF_15": 4.0, "cnty": "Labette", "st": "KS", "Zip": 67357.0, "O_14": 4.0, "Q_15": 2.0, "O_15": 4.0, "city": "PARSONS", "beds": 54.0, "SR_15": 4.0}, {"Diff_star": 0.0, "addr": "400 S ROGERS RD", "SR_14": 1.0, "Q_14": 5.0, "name": "PINNACLE RIDGE NURSING & REHAB CENTER", "SF_14": 4.0, "SF_15": 4.0, "cnty": "Johnson", "st": "KS", "Zip": 66062.0, "O_14": 2.0, "Q_15": 4.0, "O_15": 2.0, "city": "OLATHE", "beds": 94.0, "SR_15": 1.0}, {"Diff_star": -1.0, "addr": "530 W 14TH ST", "SR_14": 3.0, "Q_14": 4.0, "name": "DIVERSICARE OF CHANUTE", "SF_14": 4.0, "SF_15": 4.0, "cnty": "Neosho", "st": "KS", "Zip": 66720.0, "O_14": 4.0, "Q_15": 1.0, "O_15": 3.0, "city": "CHANUTE", "beds": 77.0, "SR_15": 3.0}, {"Diff_star": 0.0, "addr": "1010 EAST ST  #940", "SR_14": 3.0, "Q_14": 4.0, "name": "TONGANOXIE NURSING CENTER", "SF_14": 3.0, "SF_15": 3.0, "cnty": "Leavenworth", "st": "KS", "Zip": 66086.0, "O_14": 3.0, "Q_15": 4.0, "O_15": 3.0, "city": "TONGANOXIE", "beds": 90.0, "SR_15": 3.0}, {"Diff_star": 0.0, "addr": "2112 HIGHWAY 36", "SR_14": 4.0, "Q_14": 5.0, "name": "WATHENA HEALTHCARE & REHABILITATION CENTER", "SF_14": 2.0, "SF_15": 2.0, "cnty": "Doniphan", "st": "KS", "Zip": 66090.0, "O_14": 5.0, "Q_15": 5.0, "O_15": 5.0, "city": "WATHENA", "beds": 60.0, "SR_15": 4.0}, {"Diff_star": 0.0, "addr": "445 N WESTVIEW DR", "SR_14": 5.0, "Q_14": 5.0, "name": "WESTVIEW OF DERBY", "SF_14": 3.0, "SF_15": 3.0, "cnty": "Sedgwick", "st": "KS", "Zip": 67037.0, "O_14": 5.0, "Q_15": 5.0, "O_15": 5.0, "city": "DERBY", "beds": 90.0, "SR_15": 5.0}, {"Diff_star": 0.0, "addr": "750 BLAKE ST", "SR_14": 2.0, "Q_14": 4.0, "name": "GOLDEN LIVINGCENTER - KAW RIVER", "SF_14": 2.0, "SF_15": 2.0, "cnty": "Wyandotte", "st": "KS", "Zip": 66111.0, "O_14": 2.0, "Q_15": 4.0, "O_15": 2.0, "city": "EDWARDSVILLE", "beds": 50.0, "SR_15": 2.0}, {"Diff_star": 0.0, "addr": "500 WESTERN ST.", "SR_14": 1.0, "Q_14": 4.0, "name": "DESERET HEALTH AND REHAB AT ONAGA LLC", "SF_14": 2.0, "SF_15": 2.0, "cnty": "Pottawatomie", "st": "KS", "Zip": 66521.0, "O_14": 1.0, "Q_15": 2.0, "O_15": 1.0, "city": "ONAGA", "beds": 45.0, "SR_15": 1.0}, {"Diff_star": 0.0, "addr": "601 N ROSE HILL RD", "SR_14": 1.0, "Q_14": 4.0, "name": "FOUNTAINVIEW NURSING & REHAB CENTER", "SF_14": 5.0, "SF_15": 5.0, "cnty": "Butler", "st": "KS", "Zip": 67133.0, "O_14": 2.0, "Q_15": 2.0, "O_15": 2.0, "city": "ROSE HILL", "beds": 56.0, "SR_15": 1.0}, {"Diff_star": 0.0, "addr": "612 WALNUT  PO BOX 589", "SR_14": 5.0, "Q_14": 4.0, "name": "GOLDEN LIVINGCENTER - CHASE COUNTY", "SF_14": 3.0, "SF_15": 3.0, "cnty": "Chase", "st": "KS", "Zip": 66845.0, "O_14": 5.0, "Q_15": 2.0, "O_15": 5.0, "city": "COTTONWOOD FALLS", "beds": 51.0, "SR_15": 5.0}, {"Diff_star": 1.0, "addr": "3940 US HWY 54", "SR_14": 3.0, "Q_14": 4.0, "name": "MORAN MANOR", "SF_14": 2.0, "SF_15": 2.0, "cnty": "Allen", "st": "KS", "Zip": 66755.0, "O_14": 3.0, "Q_15": 5.0, "O_15": 4.0, "city": "MORAN", "beds": 45.0, "SR_15": 3.0}, {"Diff_star": -1.0, "addr": "600 E GARFIELD ST", "SR_14": 4.0, "Q_14": 5.0, "name": "WINDSOR PLACE AT IOLA LLC", "SF_14": 4.0, "SF_15": 4.0, "cnty": "Allen", "st": "KS", "Zip": 66749.0, "O_14": 5.0, "Q_15": 4.0, "O_15": 4.0, "city": "IOLA", "beds": 65.0, "SR_15": 4.0}, {"Diff_star": 0.0, "addr": "210 PLAZA LANE, PO BOX 250", "SR_14": 2.0, "Q_14": 3.0, "name": "GOLDEN LIVINGCENTER - LANSING", "SF_14": 1.0, "SF_15": 1.0, "cnty": "Leavenworth", "st": "KS", "Zip": 66043.0, "O_14": 1.0, "Q_15": 1.0, "O_15": 1.0, "city": "LANSING", "beds": 60.0, "SR_15": 2.0}, {"Diff_star": -1.0, "addr": "749 BLAKE ST", "SR_14": 2.0, "Q_14": 5.0, "name": "GOLDEN LIVINGCENTER - PARKWAY", "SF_14": 3.0, "SF_15": 3.0, "cnty": "Wyandotte", "st": "KS", "Zip": 66111.0, "O_14": 3.0, "Q_15": 3.0, "O_15": 2.0, "city": "EDWARDSVILLE", "beds": 50.0, "SR_15": 2.0}, {"Diff_star": 0.0, "addr": "1156 HIGHWAY 14", "SR_14": 4.0, "Q_14": 4.0, "name": "GOOD SAMARITAN SOCIETY - ELLSWORTH VILLAGE", "SF_14": 4.0, "SF_15": 3.0, "cnty": "Ellsworth", "st": "KS", "Zip": 67439.0, "O_14": 4.0, "Q_15": 2.0, "O_15": 4.0, "city": "ELLSWORTH", "beds": 58.0, "SR_15": 4.0}, {"Diff_star": 0.0, "addr": "623 E ELM  PO BOX 40", "SR_14": 2.0, "Q_14": 2.0, "name": "PLEASANT VALLEY MANOR", "SF_14": 4.0, "SF_15": 4.0, "cnty": "Chautauqua", "st": "KS", "Zip": 67361.0, "O_14": 3.0, "Q_15": 2.0, "O_15": 3.0, "city": "SEDAN", "beds": 80.0, "SR_15": 2.0}, {"Diff_star": 0.0, "addr": "1220 E 8TH ST  PO BOX 186", "SR_14": 3.0, "Q_14": 4.0, "name": "GALENA NURSING & REHAB CENTER", "SF_14": 2.0, "SF_15": 2.0, "cnty": "Cherokee", "st": "KS", "Zip": 66739.0, "O_14": 3.0, "Q_15": 4.0, "O_15": 3.0, "city": "GALENA", "beds": 58.0, "SR_15": 3.0}, {"Diff_star": -1.0, "addr": "1114 W 11TH ST", "SR_14": 2.0, "Q_14": 2.0, "name": "DIVERSICARE OF LARNED", "SF_14": 3.0, "SF_15": 3.0, "cnty": "Pawnee", "st": "KS", "Zip": 67550.0, "O_14": 2.0, "Q_15": 1.0, "O_15": 1.0, "city": "LARNED", "beds": 80.0, "SR_15": 2.0}, {"Diff_star": 0.0, "addr": "2301 N SEVERANCE STREET", "SR_14": 1.0, "Q_14": 3.0, "name": "HUTCHINSON CARE CENTER LLC", "SF_14": 3.0, "SF_15": 3.0, "cnty": "Reno", "st": "KS", "Zip": 67502.0, "O_14": 1.0, "Q_15": 1.0, "O_15": 1.0, "city": "HUTCHINSON", "beds": 60.0, "SR_15": 1.0}, {"Diff_star": 0.0, "addr": "720 W 1ST ST", "SR_14": 4.0, "Q_14": 4.0, "name": "MEDICALODGES COFFEYVILLE", "SF_14": 5.0, "SF_15": 5.0, "cnty": "Montgomery", "st": "KS", "Zip": 67337.0, "O_14": 5.0, "Q_15": 2.0, "O_15": 5.0, "city": "COFFEYVILLE", "beds": 40.0, "SR_15": 4.0}, {"Diff_star": 0.0, "addr": "1200 S BROADWAY", "SR_14": 3.0, "Q_14": 4.0, "name": "LOUISBURG HEALTHCARE & REHAB CTR", "SF_14": 1.0, "SF_15": 1.0, "cnty": "Miami", "st": "KS", "Zip": 66053.0, "O_14": 2.0, "Q_15": 2.0, "O_15": 2.0, "city": "LOUISBURG", "beds": 60.0, "SR_15": 3.0}, {"Diff_star": 0.0, "addr": "400 SUNSET DR", "SR_14": 4.0, "Q_14": 5.0, "name": "DIVERSICARE OF COUNCIL GROVE", "SF_14": 3.0, "SF_15": 3.0, "cnty": "Morris", "st": "KS", "Zip": 66846.0, "O_14": 5.0, "Q_15": 5.0, "O_15": 5.0, "city": "COUNCIL GROVE", "beds": 80.0, "SR_15": 4.0}, {"Diff_star": 0.0, "addr": "6509 W 103RD ST", "SR_14": 4.0, "Q_14": 3.0, "name": "PROMISE SKILLED NURSING FACILITY OF OVERLAND PARK,", "SF_14": 1.0, "SF_15": 1.0, "cnty": "Johnson", "st": "KS", "Zip": 66212.0, "O_14": 3.0, "Q_15": 2.0, "O_15": 3.0, "city": "OVERLAND PARK", "beds": 52.0, "SR_15": 4.0}, {"Diff_star": 0.0, "addr": "1441 OREGON ST", "SR_14": 2.0, "Q_14": 3.0, "name": "SABETHA MANOR", "SF_14": 4.0, "SF_15": 4.0, "cnty": "Nemaha", "st": "KS", "Zip": 66534.0, "O_14": 3.0, "Q_15": 3.0, "O_15": 3.0, "city": "SABETHA", "beds": 45.0, "SR_15": 2.0}, {"Diff_star": 0.0, "addr": "13840 W 91ST TERRACE", "SR_14": 4.0, "Q_14": 5.0, "name": "LAKEVIEW VILLAGE", "SF_14": 4.0, "SF_15": 4.0, "cnty": "Johnson", "st": "KS", "Zip": 66215.0, "O_14": 5.0, "Q_15": 5.0, "O_15": 5.0, "city": "LENEXA", "beds": 172.0, "SR_15": 5.0}, {"Diff_star": 0.0, "addr": "223 BEDFORD ST", "SR_14": 4.0, "Q_14": 5.0, "name": "MEDICALODGES GARDNER", "SF_14": 2.0, "SF_15": 2.0, "cnty": "Johnson", "st": "KS", "Zip": 66030.0, "O_14": 5.0, "Q_15": 5.0, "O_15": 5.0, "city": "GARDNER", "beds": 82.0, "SR_15": 4.0}, {"Diff_star": 0.0, "addr": "705 N BRADY ST", "SR_14": 3.0, "Q_14": 4.0, "name": "MEMORIAL HOSPITAL LTCU (VILLAGE MANOR)", "SF_14": 4.0, "SF_15": 4.0, "cnty": "Dickinson", "st": "KS", "Zip": 67410.0, "O_14": 4.0, "Q_15": 2.0, "O_15": 4.0, "city": "ABILENE", "beds": 81.0, "SR_15": 3.0}, {"Diff_star": 0.0, "addr": "751 BLAKE ST.", "SR_14": 4.0, "Q_14": 5.0, "name": "GOLDEN LIVINGCENTER - EDWARDSVILLE", "SF_14": 2.0, "SF_15": 2.0, "cnty": "Wyandotte", "st": "KS", "Zip": 66111.0, "O_14": 5.0, "Q_15": 5.0, "O_15": 5.0, "city": "EDWARDSVILLE", "beds": 100.0, "SR_15": 4.0}, {"Diff_star": -1.0, "addr": "2626 WESLEYAN DR", "SR_14": 4.0, "Q_14": 3.0, "name": "BELLEVILLE HEALTH CARE CENTER", "SF_14": 2.0, "SF_15": 2.0, "cnty": "Republic", "st": "KS", "Zip": 66935.0, "O_14": 4.0, "Q_15": 1.0, "O_15": 3.0, "city": "BELLEVILLE", "beds": 72.0, "SR_15": 4.0}, {"Diff_star": -2.0, "addr": "613 N MAIN", "SR_14": 2.0, "Q_14": 5.0, "name": "DESERET HEALTH AND REHAB AT KENSINGTON LLC", "SF_14": 4.0, "SF_15": 3.0, "cnty": "Smith", "st": "KS", "Zip": 66951.0, "O_14": 4.0, "Q_15": 4.0, "O_15": 2.0, "city": "KENSINGTON", "beds": 45.0, "SR_15": 2.0}, {"Diff_star": -1.0, "addr": "1630 W 2ND ST", "SR_14": 3.0, "Q_14": 3.0, "name": "HERITAGE HEALTH CARE CENTER", "SF_14": 3.0, "SF_15": 3.0, "cnty": "Neosho", "st": "KS", "Zip": 66720.0, "O_14": 3.0, "Q_15": 1.0, "O_15": 2.0, "city": "CHANUTE", "beds": 53.0, "SR_15": 3.0}, {"Diff_star": 0.0, "addr": "304 W 7TH ST", "SR_14": 2.0, "Q_14": 4.0, "name": "WELLSVILLE MANOR", "SF_14": 4.0, "SF_15": 3.0, "cnty": "Franklin", "st": "KS", "Zip": 66092.0, "O_14": 3.0, "Q_15": 5.0, "O_15": 3.0, "city": "WELLSVILLE", "beds": 51.0, "SR_15": 2.0}, {"Diff_star": 0.0, "addr": "1319 SEVILLE ST", "SR_14": 1.0, "Q_14": 2.0, "name": "DESERET HEALTH AND REHAB AT SEVILLE LLC", "SF_14": 2.0, "SF_15": 2.0, "cnty": "Sedgwick", "st": "KS", "Zip": 67209.0, "O_14": 1.0, "Q_15": 1.0, "O_15": 1.0, "city": "WICHITA", "beds": 85.0, "SR_15": 1.0}, {"Diff_star": -2.0, "addr": "712 N MONROE AVE BOX 49", "SR_14": 3.0, "Q_14": 5.0, "name": "DIVERSICARE OF SEDGWICK", "SF_14": 4.0, "SF_15": 3.0, "cnty": "Harvey", "st": "KS", "Zip": 67135.0, "O_14": 5.0, "Q_15": 4.0, "O_15": 3.0, "city": "SEDGWICK", "beds": 62.0, "SR_15": 3.0}, {"Diff_star": 1.0, "addr": "1570 SW WESTPORT DR", "SR_14": 3.0, "Q_14": 4.0, "name": "PLAZA WEST REGIONAL HEALTH CENTER", "SF_14": 4.0, "SF_15": 4.0, "cnty": "Shawnee", "st": "KS", "Zip": 66604.0, "O_14": 4.0, "Q_15": 5.0, "O_15": 5.0, "city": "TOPEKA", "beds": 151.0, "SR_15": 3.0}, {"Diff_star": 0.0, "addr": "1017 MAIN ST", "SR_14": 3.0, "Q_14": 4.0, "name": "OSAGE NURSING & REHABILITATION CENTER", "SF_14": 3.0, "SF_15": 3.0, "cnty": "Osage", "st": "KS", "Zip": 66523.0, "O_14": 3.0, "Q_15": 2.0, "O_15": 3.0, "city": "OSAGE CITY", "beds": 56.0, "SR_15": 3.0}, {"Diff_star": -1.0, "addr": "10315 JOHNSON DR", "SR_14": 3.0, "Q_14": 4.0, "name": "SHARON LANE HEALTH SERVICES", "SF_14": 4.0, "SF_15": 3.0, "cnty": "Johnson", "st": "KS", "Zip": 66203.0, "O_14": 4.0, "Q_15": 3.0, "O_15": 3.0, "city": "SHAWNEE", "beds": 95.0, "SR_15": 3.0}, {"Diff_star": 0.0, "addr": "915 S HORTON  PO BOX 510", "SR_14": 3.0, "Q_14": 4.0, "name": "MEDICALODGES FORT SCOTT", "SF_14": 4.0, "SF_15": 4.0, "cnty": "Bourbon", "st": "KS", "Zip": 66701.0, "O_14": 4.0, "Q_15": 2.0, "O_15": 4.0, "city": "FORT SCOTT", "beds": 61.0, "SR_15": 3.0}, {"Diff_star": 0.0, "addr": "810 E 30TH AVE", "SR_14": 1.0, "Q_14": 2.0, "name": "GOOD SAMARITAN SOCIETY - HUTCHINSON VILLAGE", "SF_14": 3.0, "SF_15": 3.0, "cnty": "Reno", "st": "KS", "Zip": 67502.0, "O_14": 1.0, "Q_15": 2.0, "O_15": 1.0, "city": "HUTCHINSON", "beds": 79.0, "SR_15": 1.0}, {"Diff_star": -2.0, "addr": "20705 W 151ST ST", "SR_14": 3.0, "Q_14": 3.0, "name": "GOOD SAMARITAN SOCIETY - OLATHE", "SF_14": 4.0, "SF_15": 3.0, "cnty": "Johnson", "st": "KS", "Zip": 66061.0, "O_14": 4.0, "Q_15": 1.0, "O_15": 2.0, "city": "OLATHE", "beds": 140.0, "SR_15": 3.0}, {"Diff_star": 1.0, "addr": "101 LEE AVE", "SR_14": 4.0, "Q_14": 4.0, "name": "MEDICALODGES COLUMBUS", "SF_14": 3.0, "SF_15": 5.0, "cnty": "Cherokee", "st": "KS", "Zip": 66725.0, "O_14": 4.0, "Q_15": 2.0, "O_15": 5.0, "city": "COLUMBUS", "beds": 67.0, "SR_15": 5.0}, {"Diff_star": 0.0, "addr": "6416 LONG ST", "SR_14": 1.0, "Q_14": 4.0, "name": "SHAWNEE GARDENS HEALTHCARE & REHAB CTR", "SF_14": 3.0, "SF_15": 3.0, "cnty": "Johnson", "st": "KS", "Zip": 66216.0, "O_14": 1.0, "Q_15": 2.0, "O_15": 1.0, "city": "SHAWNEE", "beds": 145.0, "SR_15": 1.0}, {"Diff_star": 0.0, "addr": "509 GROVE ST", "SR_14": 3.0, "Q_14": 4.0, "name": "GOLDEN LIVINGCENTER - WAKEFIELD", "SF_14": 4.0, "SF_15": 4.0, "cnty": "Clay", "st": "KS", "Zip": 67487.0, "O_14": 4.0, "Q_15": 3.0, "O_15": 4.0, "city": "WAKEFIELD", "beds": 48.0, "SR_15": 3.0}, {"Diff_star": 0.0, "addr": "4007 E LINCOLN ST", "SR_14": 3.0, "Q_14": 4.0, "name": "GOLDEN LIVINGCENTER - WICHITA", "SF_14": 3.0, "SF_15": 3.0, "cnty": "Sedgwick", "st": "KS", "Zip": 67218.0, "O_14": 3.0, "Q_15": 2.0, "O_15": 3.0, "city": "WICHITA", "beds": 59.0, "SR_15": 3.0}, {"Diff_star": -1.0, "addr": "1555 N MERIDIAN ST", "SR_14": 1.0, "Q_14": 5.0, "name": "MERIDIAN REHABILITATION AND HEALTH CARE CENTER", "SF_14": 4.0, "SF_15": 3.0, "cnty": "Sedgwick", "st": "KS", "Zip": 67203.0, "O_14": 2.0, "Q_15": 3.0, "O_15": 1.0, "city": "WICHITA", "beds": 106.0, "SR_15": 1.0}, {"Diff_star": 0.0, "addr": "620  WINCHESTER AVE", "SR_14": 4.0, "Q_14": 5.0, "name": "MEDICALODGES KINSLEY", "SF_14": 5.0, "SF_15": 5.0, "cnty": "Edwards", "st": "KS", "Zip": 67547.0, "O_14": 5.0, "Q_15": 5.0, "O_15": 5.0, "city": "KINSLEY", "beds": 42.0, "SR_15": 4.0}, {"Diff_star": 0.0, "addr": "908 N PEARL ST", "SR_14": 3.0, "Q_14": 4.0, "name": "NORTH POINT SKILLED NURSING CENTER", "SF_14": 4.0, "SF_15": 4.0, "cnty": "Miami", "st": "KS", "Zip": 66071.0, "O_14": 4.0, "Q_15": 2.0, "O_15": 4.0, "city": "PAOLA", "beds": 59.0, "SR_15": 3.0}, {"Diff_star": 0.0, "addr": "1501 INVERNESS DR", "SR_14": 1.0, "Q_14": 4.0, "name": "BRANDON WOODS AT ALVAMAR", "SF_14": 4.0, "SF_15": 4.0, "cnty": "Douglas", "st": "KS", "Zip": 66047.0, "O_14": 2.0, "Q_15": 3.0, "O_15": 2.0, "city": "LAWRENCE", "beds": 140.0, "SR_15": 1.0}, {"Diff_star": -1.0, "addr": "1620 WHEELER ST", "SR_14": 1.0, "Q_14": 5.0, "name": "FLINT HILLS CARE CENTER", "SF_14": 2.0, "SF_15": 2.0, "cnty": "Lyon", "st": "KS", "Zip": 66801.0, "O_14": 2.0, "Q_15": 4.0, "O_15": 1.0, "city": "EMPORIA", "beds": 61.0, "SR_15": 1.0}, {"Diff_star": 0.0, "addr": "3231 N 61ST ST", "SR_14": 1.0, "Q_14": 4.0, "name": "LIFE CARE CENTER OF KANSAS CITY", "SF_14": 1.0, "SF_15": 1.0, "cnty": "Wyandotte", "st": "KS", "Zip": 66104.0, "O_14": 1.0, "Q_15": 3.0, "O_15": 1.0, "city": "KANSAS CITY", "beds": 82.0, "SR_15": 1.0}, {"Diff_star": 0.0, "addr": "815 N ROTHSAY", "SR_14": 2.0, "Q_14": 4.0, "name": "GOOD SAMARITAN SOCIETY - MINNEAPOLIS", "SF_14": 4.0, "SF_15": 4.0, "cnty": "Ottawa", "st": "KS", "Zip": 67467.0, "O_14": 3.0, "Q_15": 2.0, "O_15": 3.0, "city": "MINNEAPOLIS", "beds": 64.0, "SR_15": 2.0}, {"Diff_star": -1.0, "addr": "320 S LINCOLN ST", "SR_14": 2.0, "Q_14": 2.0, "name": "WHEATLAND NURSING & REHABILITATION CENTER", "SF_14": 3.0, "SF_15": 3.0, "cnty": "Russell", "st": "KS", "Zip": 67665.0, "O_14": 2.0, "Q_15": 1.0, "O_15": 1.0, "city": "RUSSELL", "beds": 59.0, "SR_15": 2.0}, {"Diff_star": 0.0, "addr": "1020 N SCHOOL ST", "SR_14": 4.0, "Q_14": 4.0, "name": "EUREKA NURSING CENTER", "SF_14": 4.0, "SF_15": 4.0, "cnty": "Greenwood", "st": "KS", "Zip": 67045.0, "O_14": 4.0, "Q_15": 3.0, "O_15": 4.0, "city": "EUREKA", "beds": 76.0, "SR_15": 4.0}, {"Diff_star": -1.0, "addr": "2921 W 1ST ST", "SR_14": 3.0, "Q_14": 3.0, "name": "WINDSOR PLACE LLC", "SF_14": 4.0, "SF_15": 4.0, "cnty": "Montgomery", "st": "KS", "Zip": 67337.0, "O_14": 4.0, "Q_15": 1.0, "O_15": 3.0, "city": "COFFEYVILLE", "beds": 163.0, "SR_15": 3.0}, {"Diff_star": 0.0, "addr": "1560 K 96 HWY", "SR_14": 1.0, "Q_14": 4.0, "name": "GREAT BEND HEALTH & REHAB CENTER", "SF_14": 4.0, "SF_15": 4.0, "cnty": "Barton", "st": "KS", "Zip": 67530.0, "O_14": 2.0, "Q_15": 5.0, "O_15": 2.0, "city": "GREAT BEND", "beds": 110.0, "SR_15": 1.0}, {"Diff_star": 0.0, "addr": "619 S HIGHWAY 77", "SR_14": 3.0, "Q_14": 5.0, "name": "MEDICALODGES DOUGLASS", "SF_14": 4.0, "SF_15": 4.0, "cnty": "Butler", "st": "KS", "Zip": 67039.0, "O_14": 5.0, "Q_15": 5.0, "O_15": 5.0, "city": "DOUGLASS", "beds": 42.0, "SR_15": 3.0}, {"Diff_star": 0.0, "addr": "501 EASY ST", "SR_14": 4.0, "Q_14": 4.0, "name": "MEDICALODGES GODDARD", "SF_14": 4.0, "SF_15": 4.0, "cnty": "Sedgwick", "st": "KS", "Zip": 67052.0, "O_14": 4.0, "Q_15": 4.0, "O_15": 4.0, "city": "GODDARD", "beds": 60.0, "SR_15": 4.0}, {"Diff_star": 0.0, "addr": "117 W 1ST ST  #369", "SR_14": 2.0, "Q_14": 5.0, "name": "DESERET HEALTH AND REHAB AT SMITH CENTER LLC", "SF_14": 3.0, "SF_15": 3.0, "cnty": "Smith", "st": "KS", "Zip": 66967.0, "O_14": 3.0, "Q_15": 5.0, "O_15": 3.0, "city": "SMITH CENTER", "beds": 35.0, "SR_15": 2.0}, {"Diff_star": 0.0, "addr": "4712 SW 6TH AVE", "SR_14": 2.0, "Q_14": 4.0, "name": "TOPEKA PRESBYTERIAN MANOR", "SF_14": 5.0, "SF_15": 5.0, "cnty": "Shawnee", "st": "KS", "Zip": 66606.0, "O_14": 3.0, "Q_15": 4.0, "O_15": 3.0, "city": "TOPEKA", "beds": 95.0, "SR_15": 2.0}, {"Diff_star": 0.0, "addr": "7850 FREEMAN AVE", "SR_14": 2.0, "Q_14": 4.0, "name": "KANSAS CITY PRESBYTERIAN MANOR", "SF_14": 5.0, "SF_15": 5.0, "cnty": "Wyandotte", "st": "KS", "Zip": 66112.0, "O_14": 3.0, "Q_15": 3.0, "O_15": 3.0, "city": "KANSAS CITY", "beds": 161.0, "SR_15": 2.0}, {"Diff_star": 0.0, "addr": "204 W WASHINGTON ST", "SR_14": 5.0, "Q_14": 3.0, "name": "STERLING PRESBYTERIAN MANOR", "SF_14": 5.0, "SF_15": 5.0, "cnty": "Rice", "st": "KS", "Zip": 67579.0, "O_14": 5.0, "Q_15": 3.0, "O_15": 5.0, "city": "STERLING", "beds": 55.0, "SR_15": 5.0}, {"Diff_star": 0.0, "addr": "2601 E CRAWFORD ST", "SR_14": 5.0, "Q_14": 4.0, "name": "SALINA PRESBYTERIAN MANOR", "SF_14": 4.0, "SF_15": 4.0, "cnty": "Saline", "st": "KS", "Zip": 67401.0, "O_14": 5.0, "Q_15": 3.0, "O_15": 5.0, "city": "SALINA", "beds": 60.0, "SR_15": 5.0}, {"Diff_star": 0.0, "addr": "4700 W 13TH ST N", "SR_14": 3.0, "Q_14": 5.0, "name": "WICHITA PRESBYTERIAN MANOR", "SF_14": 5.0, "SF_15": 5.0, "cnty": "Sedgwick", "st": "KS", "Zip": 67212.0, "O_14": 5.0, "Q_15": 5.0, "O_15": 5.0, "city": "WICHITA", "beds": 60.0, "SR_15": 3.0}, {"Diff_star": 0.0, "addr": "1200 E 7TH ST", "SR_14": 4.0, "Q_14": 3.0, "name": "NEWTON PRESBYTERIAN MANOR", "SF_14": 5.0, "SF_15": 5.0, "cnty": "Harvey", "st": "KS", "Zip": 67114.0, "O_14": 5.0, "Q_15": 2.0, "O_15": 5.0, "city": "NEWTON", "beds": 60.0, "SR_15": 4.0}, {"Diff_star": 1.0, "addr": "3501 DIRR AVE", "SR_14": 3.0, "Q_14": 4.0, "name": "PARSONS PRESBYTERIAN MANOR", "SF_14": 5.0, "SF_15": 5.0, "cnty": "Labette", "st": "KS", "Zip": 67357.0, "O_14": 4.0, "Q_15": 5.0, "O_15": 5.0, "city": "PARSONS", "beds": 43.0, "SR_15": 3.0}, {"Diff_star": 0.0, "addr": "2300 INDUSTRIAL RD", "SR_14": 4.0, "Q_14": 5.0, "name": "EMPORIA PRESBYTERIAN MANOR", "SF_14": 5.0, "SF_15": 5.0, "cnty": "Lyon", "st": "KS", "Zip": 66801.0, "O_14": 5.0, "Q_15": 5.0, "O_15": 5.0, "city": "EMPORIA", "beds": 60.0, "SR_15": 4.0}, {"Diff_star": 0.0, "addr": "1429 KASOLD DR", "SR_14": 4.0, "Q_14": 5.0, "name": "LAWRENCE PRESBYTERIAN MANOR", "SF_14": 5.0, "SF_15": 5.0, "cnty": "Douglas", "st": "KS", "Zip": 66049.0, "O_14": 5.0, "Q_15": 5.0, "O_15": 5.0, "city": "LAWRENCE", "beds": 42.0, "SR_15": 4.0}, {"Diff_star": 0.0, "addr": "200 CAMPUS DR", "SR_14": 3.0, "Q_14": 4.0, "name": "MANOR OF THE PLAINS", "SF_14": 5.0, "SF_15": 5.0, "cnty": "Ford", "st": "KS", "Zip": 67801.0, "O_14": 4.0, "Q_15": 2.0, "O_15": 4.0, "city": "DODGE CITY", "beds": 50.0, "SR_15": 3.0}, {"Diff_star": 0.0, "addr": "1711 N 4TH ST", "SR_14": 5.0, "Q_14": 3.0, "name": "ARKANSAS CITY PRESBYTERIAN MANOR", "SF_14": 4.0, "SF_15": 4.0, "cnty": "Cowley", "st": "KS", "Zip": 67005.0, "O_14": 5.0, "Q_15": 2.0, "O_15": 5.0, "city": "ARKANSAS CITY", "beds": 60.0, "SR_15": 5.0}, {"Diff_star": 0.0, "addr": "924 EIGHTH ST", "SR_14": 4.0, "Q_14": 5.0, "name": "CLAY CENTER PRESBYTERIAN MANOR", "SF_14": 5.0, "SF_15": 5.0, "cnty": "Clay", "st": "KS", "Zip": 67432.0, "O_14": 5.0, "Q_15": 5.0, "O_15": 5.0, "city": "CLAY CENTER", "beds": 56.0, "SR_15": 4.0}, {"Diff_star": 0.0, "addr": "203 E OSAGE AVE", "SR_14": 4.0, "Q_14": 4.0, "name": "MEDICALODGES ARKANSAS CITY", "SF_14": 4.0, "SF_15": 4.0, "cnty": "Cowley", "st": "KS", "Zip": 67005.0, "O_14": 4.0, "Q_15": 3.0, "O_15": 4.0, "city": "ARKANSAS CITY", "beds": 58.0, "SR_15": 4.0}, {"Diff_star": 0.0, "addr": "1221 LARIMER ST", "SR_14": 1.0, "Q_14": 2.0, "name": "DESERET HEALTH AND REHAB AT PRATT LLC", "SF_14": 2.0, "SF_15": 2.0, "cnty": "Pratt", "st": "KS", "Zip": 67124.0, "O_14": 1.0, "Q_15": 1.0, "O_15": 1.0, "city": "PRATT", "beds": 59.0, "SR_15": 1.0}, {"Diff_star": 0.0, "addr": "1626 N 8TH ST", "SR_14": 3.0, "Q_14": 4.0, "name": "GOLDEN LIVINGCENTER - NEODESHA", "SF_14": 1.0, "SF_15": 1.0, "cnty": "Wilson", "st": "KS", "Zip": 66757.0, "O_14": 2.0, "Q_15": 2.0, "O_15": 2.0, "city": "NEODESHA", "beds": 50.0, "SR_15": 3.0}, {"Diff_star": 0.0, "addr": "2700 CANAL BLVD", "SR_14": 1.0, "Q_14": 4.0, "name": "GOOD SAMARITAN SOCIETY - HAYS", "SF_14": 2.0, "SF_15": 2.0, "cnty": "Ellis", "st": "KS", "Zip": 67601.0, "O_14": 1.0, "Q_15": 2.0, "O_15": 1.0, "city": "HAYS", "beds": 70.0, "SR_15": 1.0}, {"Diff_star": 0.0, "addr": "PO  BOX 346", "SR_14": 2.0, "Q_14": 3.0, "name": "VILLAGE VILLA", "SF_14": 4.0, "SF_15": 4.0, "cnty": "Jefferson", "st": "KS", "Zip": 66060.0, "O_14": 3.0, "Q_15": 3.0, "O_15": 3.0, "city": "NORTONVILLE", "beds": 39.0, "SR_15": 2.0}, {"Diff_star": -1.0, "addr": "900 COUNTRY CLUB LN", "SR_14": 3.0, "Q_14": 4.0, "name": "GOLDEN LIVINGCENTER - EL DORADO", "SF_14": 4.0, "SF_15": 3.0, "cnty": "Butler", "st": "KS", "Zip": 67042.0, "O_14": 4.0, "Q_15": 2.0, "O_15": 3.0, "city": "EL DORADO", "beds": 52.0, "SR_15": 3.0}, {"Diff_star": 0.0, "addr": "1320 WHEAT RD", "SR_14": 3.0, "Q_14": 5.0, "name": "WINFIELD SENIOR LIVING COMMUNITY", "SF_14": 4.0, "SF_15": 4.0, "cnty": "Cowley", "st": "KS", "Zip": 67156.0, "O_14": 3.0, "Q_15": 3.0, "O_15": 3.0, "city": "WINFIELD", "beds": 45.0, "SR_15": 3.0}, {"Diff_star": 0.0, "addr": "1101 SPRUCE ST", "SR_14": 3.0, "Q_14": 4.0, "name": "GOOD SAMARITAN SOCIETY - ELLIS", "SF_14": 4.0, "SF_15": 4.0, "cnty": "Ellis", "st": "KS", "Zip": 67637.0, "O_14": 4.0, "Q_15": 3.0, "O_15": 4.0, "city": "ELLIS", "beds": 57.0, "SR_15": 3.0}, {"Diff_star": -1.0, "addr": "1100 W 15TH ST", "SR_14": 1.0, "Q_14": 3.0, "name": "OTTAWA RETIREMENT VILLAGE", "SF_14": 4.0, "SF_15": 3.0, "cnty": "Franklin", "st": "KS", "Zip": 66067.0, "O_14": 2.0, "Q_15": 1.0, "O_15": 1.0, "city": "OTTAWA", "beds": 105.0, "SR_15": 1.0}, {"Diff_star": 1.0, "addr": "700 CHEROKEE  PO BOX 307", "SR_14": 1.0, "Q_14": 5.0, "name": "HICKORY POINTE CARE & REHAB CENTER", "SF_14": 4.0, "SF_15": 2.0, "cnty": "Jefferson", "st": "KS", "Zip": 66066.0, "O_14": 2.0, "Q_15": 5.0, "O_15": 3.0, "city": "OSKALOOSA", "beds": 60.0, "SR_15": 2.0}, {"Diff_star": 0.0, "addr": "2160 ZINNIA LN", "SR_14": 1.0, "Q_14": 4.0, "name": "GOOD SAMARITAN SOCIETY - LIBERAL", "SF_14": 4.0, "SF_15": 3.0, "cnty": "Seward", "st": "KS", "Zip": 67901.0, "O_14": 2.0, "Q_15": 2.0, "O_15": 2.0, "city": "LIBERAL", "beds": 60.0, "SR_15": 2.0}, {"Diff_star": -1.0, "addr": "1001 W MAIN ST PO BOX 366", "SR_14": 4.0, "Q_14": 3.0, "name": "CHERRYVALE NURSING AND REHABILITATION CENTER", "SF_14": 3.0, "SF_15": 3.0, "cnty": "Montgomery", "st": "KS", "Zip": 67335.0, "O_14": 4.0, "Q_15": 1.0, "O_15": 3.0, "city": "CHERRYVALE", "beds": 59.0, "SR_15": 4.0}, {"Diff_star": 0.0, "addr": "1311 S DOUGLAS AVE", "SR_14": 3.0, "Q_14": 4.0, "name": "GOOD SAMARITAN SOCIETY - LYONS", "SF_14": 4.0, "SF_15": 4.0, "cnty": "Rice", "st": "KS", "Zip": 67554.0, "O_14": 4.0, "Q_15": 2.0, "O_15": 4.0, "city": "LYONS", "beds": 45.0, "SR_15": 3.0}, {"Diff_star": 0.0, "addr": "102 W BOTKIN ST", "SR_14": 5.0, "Q_14": 5.0, "name": "GOLDEN LIVINGCENTER - WELLINGTON", "SF_14": 4.0, "SF_15": 4.0, "cnty": "Sumner", "st": "KS", "Zip": 67152.0, "O_14": 5.0, "Q_15": 5.0, "O_15": 5.0, "city": "WELLINGTON", "beds": 55.0, "SR_15": 5.0}, {"Diff_star": 0.0, "addr": "1223 ORCHARD LANE", "SR_14": 4.0, "Q_14": 4.0, "name": "BALDWIN HEALTHCARE & REHAB CTR", "SF_14": 2.0, "SF_15": 2.0, "cnty": "Douglas", "st": "KS", "Zip": 66006.0, "O_14": 4.0, "Q_15": 2.0, "O_15": 4.0, "city": "BALDWIN CITY", "beds": 60.0, "SR_15": 4.0}, {"Diff_star": 0.0, "addr": "3220 SW ALBRIGHT DR", "SR_14": 2.0, "Q_14": 3.0, "name": "ALDERSGATE VILLAGE", "SF_14": 4.0, "SF_15": 4.0, "cnty": "Shawnee", "st": "KS", "Zip": 66614.0, "O_14": 3.0, "Q_15": 2.0, "O_15": 3.0, "city": "TOPEKA", "beds": 209.0, "SR_15": 2.0}, {"Diff_star": 0.0, "addr": "8101 MISSION RD", "SR_14": 4.0, "Q_14": 3.0, "name": "CLARIDGE COURT", "SF_14": 5.0, "SF_15": 5.0, "cnty": "Johnson", "st": "KS", "Zip": 66208.0, "O_14": 5.0, "Q_15": 3.0, "O_15": 5.0, "city": "PRAIRIE VILLAGE", "beds": 45.0, "SR_15": 4.0}, {"Diff_star": -1.0, "addr": "5808 W 8TH ST N", "SR_14": 4.0, "Q_14": 5.0, "name": "SANDPIPER HEALTHCARE & REHABILITATION CENTER LLC", "SF_14": 1.0, "SF_15": 1.0, "cnty": "Sedgwick", "st": "KS", "Zip": 67212.0, "O_14": 4.0, "Q_15": 3.0, "O_15": 3.0, "city": "WICHITA", "beds": 145.0, "SR_15": 4.0}, {"Diff_star": 0.0, "addr": "234 MANOR CIRCLE", "SR_14": 2.0, "Q_14": 4.0, "name": "ALMA MANOR", "SF_14": 5.0, "SF_15": 5.0, "cnty": "Wabaunsee", "st": "KS", "Zip": 66401.0, "O_14": 3.0, "Q_15": 2.0, "O_15": 3.0, "city": "ALMA", "beds": 45.0, "SR_15": 2.0}, {"Diff_star": 0.0, "addr": "820 S DENISON ST", "SR_14": 1.0, "Q_14": 3.0, "name": "GOOD SAMARITAN SOCIETY - CHEYENNE COUNTY", "SF_14": 2.0, "SF_15": 2.0, "cnty": "Cheyenne", "st": "KS", "Zip": 67756.0, "O_14": 1.0, "Q_15": 3.0, "O_15": 1.0, "city": "ST FRANCIS", "beds": 35.0, "SR_15": 1.0}, {"Diff_star": -1.0, "addr": "815 N INDEPENDENCE AVE  PO BOX 467", "SR_14": 3.0, "Q_14": 4.0, "name": "HILLTOP LODGE NURSING HOME", "SF_14": 4.0, "SF_15": 4.0, "cnty": "Mitchell", "st": "KS", "Zip": 67420.0, "O_14": 4.0, "Q_15": 1.0, "O_15": 3.0, "city": "BELOIT", "beds": 95.0, "SR_15": 3.0}, {"Diff_star": -1.0, "addr": "1100 N 16TH", "SR_14": 4.0, "Q_14": 3.0, "name": "CAMBRIDGE PLACE", "SF_14": 4.0, "SF_15": 4.0, "cnty": "Marshall", "st": "KS", "Zip": 66508.0, "O_14": 4.0, "Q_15": 1.0, "O_15": 3.0, "city": "MARYSVILLE", "beds": 96.0, "SR_15": 4.0}, {"Diff_star": 0.0, "addr": "715 LIBERTY  PO BOX 517", "SR_14": 3.0, "Q_14": 1.0, "name": "MEDICALODGES CLAY CENTER", "SF_14": 4.0, "SF_15": 4.0, "cnty": "Clay", "st": "KS", "Zip": 67432.0, "O_14": 3.0, "Q_15": 1.0, "O_15": 3.0, "city": "CLAY CENTER", "beds": 51.0, "SR_15": 3.0}, {"Diff_star": 0.0, "addr": "605 EAST MELVIN ST PO BOX 789", "SR_14": 2.0, "Q_14": 1.0, "name": "ARMA CARE CENTER LLC", "SF_14": 4.0, "SF_15": 4.0, "cnty": "Crawford", "st": "KS", "Zip": 66712.0, "O_14": 2.0, "Q_15": 1.0, "O_15": 2.0, "city": "ARMA", "beds": 45.0, "SR_15": 2.0}, {"Diff_star": 0.0, "addr": "510 W 7TH ST", "SR_14": 2.0, "Q_14": 5.0, "name": "WOODHAVEN CARE CENTER", "SF_14": 2.0, "SF_15": 2.0, "cnty": "Barton", "st": "KS", "Zip": 67526.0, "O_14": 3.0, "Q_15": 5.0, "O_15": 3.0, "city": "ELLINWOOD", "beds": 56.0, "SR_15": 2.0}, {"Diff_star": 0.0, "addr": "11875 S SUNSET DR STE 100", "SR_14": 4.0, "Q_14": 4.0, "name": "EVERGREEN COMMUNITY OF JOHNSON COUNTY", "SF_14": 4.0, "SF_15": 4.0, "cnty": "Johnson", "st": "KS", "Zip": 66061.0, "O_14": 4.0, "Q_15": 3.0, "O_15": 4.0, "city": "OLATHE", "beds": 112.0, "SR_15": 4.0}, {"Diff_star": 0.0, "addr": "108 E ASH ST", "SR_14": 2.0, "Q_14": 3.0, "name": "GOOD SAMARITAN SOCIETY - DECATUR COUNTY", "SF_14": 5.0, "SF_15": 5.0, "cnty": "Decatur", "st": "KS", "Zip": 67749.0, "O_14": 3.0, "Q_15": 2.0, "O_15": 3.0, "city": "OBERLIN", "beds": 45.0, "SR_15": 2.0}, {"Diff_star": 0.0, "addr": "1600 W 8TH ST", "SR_14": 2.0, "Q_14": 4.0, "name": "SUMNER COUNTY CARE CENTER", "SF_14": 2.0, "SF_15": 2.0, "cnty": "Sumner", "st": "KS", "Zip": 67152.0, "O_14": 2.0, "Q_15": 3.0, "O_15": 2.0, "city": "WELLINGTON", "beds": 44.0, "SR_15": 2.0}, {"Diff_star": 0.0, "addr": "2011 GRANDVIEW DR", "SR_14": 2.0, "Q_14": 4.0, "name": "GOOD SAMARITAN SOCIETY - VALLEY VISTA", "SF_14": 4.0, "SF_15": 3.0, "cnty": "Pottawatomie", "st": "KS", "Zip": 66547.0, "O_14": 3.0, "Q_15": 5.0, "O_15": 3.0, "city": "WAMEGO", "beds": 50.0, "SR_15": 2.0}, {"Diff_star": -1.0, "addr": "630 HOLLIDAY ST", "SR_14": 3.0, "Q_14": 3.0, "name": "PETERSON NURSING HOME", "SF_14": 4.0, "SF_15": 3.0, "cnty": "Osage", "st": "KS", "Zip": 66523.0, "O_14": 4.0, "Q_15": 2.0, "O_15": 3.0, "city": "OSAGE CITY", "beds": 45.0, "SR_15": 3.0}, {"Diff_star": 0.0, "addr": "208 W 2ND ST", "SR_14": 1.0, "Q_14": 2.0, "name": "GOOD SAMARITAN SOCIETY - SHERMAN COUNTY", "SF_14": 3.0, "SF_15": 3.0, "cnty": "Sherman", "st": "KS", "Zip": 67735.0, "O_14": 1.0, "Q_15": 1.0, "O_15": 1.0, "city": "GOODLAND", "beds": 60.0, "SR_15": 1.0}, {"Diff_star": -1.0, "addr": "206 S DITTMAN ST", "SR_14": 3.0, "Q_14": 5.0, "name": "MEDICALODGES FRONTENAC", "SF_14": 4.0, "SF_15": 4.0, "cnty": "Crawford", "st": "KS", "Zip": 66763.0, "O_14": 5.0, "Q_15": 4.0, "O_15": 4.0, "city": "FRONTENAC", "beds": 120.0, "SR_15": 3.0}, {"Diff_star": 0.0, "addr": "650 LAKE RD #216", "SR_14": 4.0, "Q_14": 5.0, "name": "GOOD SAMARITAN SOCIETY - ATWOOD", "SF_14": 4.0, "SF_15": 3.0, "cnty": "Rawlins", "st": "KS", "Zip": 67730.0, "O_14": 5.0, "Q_15": 5.0, "O_15": 5.0, "city": "ATWOOD", "beds": 40.0, "SR_15": 4.0}, {"Diff_star": 0.0, "addr": "701 W 6TH ST", "SR_14": 4.0, "Q_14": 3.0, "name": "LOCUST GROVE VILLAGE", "SF_14": 4.0, "SF_15": 4.0, "cnty": "Rush", "st": "KS", "Zip": 67548.0, "O_14": 4.0, "Q_15": 2.0, "O_15": 4.0, "city": "LA CROSSE", "beds": 50.0, "SR_15": 4.0}, {"Diff_star": -1.0, "addr": "601 CROSS ST", "SR_14": 4.0, "Q_14": 5.0, "name": "LIFE CARE CENTER OF BURLINGTON", "SF_14": 3.0, "SF_15": 3.0, "cnty": "Coffey", "st": "KS", "Zip": 66839.0, "O_14": 5.0, "Q_15": 4.0, "O_15": 4.0, "city": "BURLINGTON", "beds": 77.0, "SR_15": 4.0}, {"Diff_star": 0.0, "addr": "1ST & MAIN  RR 1", "SR_14": 3.0, "Q_14": 5.0, "name": "EASTRIDGE", "SF_14": 5.0, "SF_15": 5.0, "cnty": "Nemaha", "st": "KS", "Zip": 66415.0, "O_14": 5.0, "Q_15": 5.0, "O_15": 5.0, "city": "CENTRALIA", "beds": 39.0, "SR_15": 3.0}, {"Diff_star": 0.0, "addr": "511 PARAMOUNT ST", "SR_14": 2.0, "Q_14": 4.0, "name": "APOSTOLIC CHRISTIAN HOME", "SF_14": 2.0, "SF_15": 2.0, "cnty": "Nemaha", "st": "KS", "Zip": 66534.0, "O_14": 2.0, "Q_15": 3.0, "O_15": 2.0, "city": "SABETHA", "beds": 86.0, "SR_15": 2.0}, {"Diff_star": 0.0, "addr": "510 W FRONTVIEW ST", "SR_14": 1.0, "Q_14": 4.0, "name": "TRINITY MANOR", "SF_14": 4.0, "SF_15": 4.0, "cnty": "Ford", "st": "KS", "Zip": 67801.0, "O_14": 2.0, "Q_15": 3.0, "O_15": 2.0, "city": "DODGE CITY", "beds": 59.0, "SR_15": 1.0}, {"Diff_star": 0.0, "addr": "600 W BLANCHARD AVE", "SR_14": 2.0, "Q_14": 4.0, "name": "MENNONITE FRIENDSHIP COMMUNITIES INC", "SF_14": 5.0, "SF_15": 5.0, "cnty": "Reno", "st": "KS", "Zip": 67505.0, "O_14": 3.0, "Q_15": 3.0, "O_15": 3.0, "city": "SOUTH HUTCHINSON", "beds": 126.0, "SR_15": 2.0}, {"Diff_star": 0.0, "addr": "1021 CEDARS DR", "SR_14": 4.0, "Q_14": 4.0, "name": "THE CEDARS", "SF_14": 4.0, "SF_15": 4.0, "cnty": "Mcpherson", "st": "KS", "Zip": 67460.0, "O_14": 4.0, "Q_15": 2.0, "O_15": 4.0, "city": "MCPHERSON", "beds": 107.0, "SR_15": 4.0}, {"Diff_star": -1.0, "addr": "700 MONTEREY PL", "SR_14": 3.0, "Q_14": 3.0, "name": "WESLEY TOWERS INC", "SF_14": 4.0, "SF_15": 4.0, "cnty": "Reno", "st": "KS", "Zip": 67502.0, "O_14": 4.0, "Q_15": 1.0, "O_15": 3.0, "city": "HUTCHINSON", "beds": 130.0, "SR_15": 3.0}, {"Diff_star": -1.0, "addr": "736 HEYLMAN ST", "SR_14": 2.0, "Q_14": 4.0, "name": "FORT SCOTT MANOR", "SF_14": 4.0, "SF_15": 4.0, "cnty": "Bourbon", "st": "KS", "Zip": 66701.0, "O_14": 3.0, "Q_15": 1.0, "O_15": 2.0, "city": "FORT SCOTT", "beds": 50.0, "SR_15": 2.0}, {"Diff_star": 0.0, "addr": "200 SW 14TH", "SR_14": 3.0, "Q_14": 3.0, "name": "ASBURY PARK", "SF_14": 4.0, "SF_15": 4.0, "cnty": "Harvey", "st": "KS", "Zip": 67114.0, "O_14": 4.0, "Q_15": 2.0, "O_15": 4.0, "city": "NEWTON", "beds": 99.0, "SR_15": 3.0}, {"Diff_star": 0.0, "addr": "200 W CEDAR  PO BOX 5000", "SR_14": 5.0, "Q_14": 4.0, "name": "SCHOWALTER VILLA", "SF_14": 5.0, "SF_15": 5.0, "cnty": "Harvey", "st": "KS", "Zip": 67062.0, "O_14": 5.0, "Q_15": 4.0, "O_15": 5.0, "city": "HESSTON", "beds": 105.0, "SR_15": 5.0}, {"Diff_star": -1.0, "addr": "200 WILLOW RD", "SR_14": 4.0, "Q_14": 5.0, "name": "PARKSIDE HOMES", "SF_14": 4.0, "SF_15": 4.0, "cnty": "Marion", "st": "KS", "Zip": 67063.0, "O_14": 5.0, "Q_15": 4.0, "O_15": 4.0, "city": "HILLSBORO", "beds": 72.0, "SR_15": 4.0}, {"Diff_star": 0.0, "addr": "801 S FRY ST PO BOX 265", "SR_14": 1.0, "Q_14": 1.0, "name": "DESERET HEALTH AND REHAB AT YATES CENTER LLC", "SF_14": 3.0, "SF_15": 3.0, "cnty": "Woodson", "st": "KS", "Zip": 66783.0, "O_14": 1.0, "Q_15": 1.0, "O_15": 1.0, "city": "YATES CENTER", "beds": 45.0, "SR_15": 1.0}, {"Diff_star": 0.0, "addr": "814 WALNUT  PO BOX 167", "SR_14": 2.0, "Q_14": 3.0, "name": "CHETOPA MANOR", "SF_14": 4.0, "SF_15": 5.0, "cnty": "Labette", "st": "KS", "Zip": 67336.0, "O_14": 3.0, "Q_15": 1.0, "O_15": 3.0, "city": "CHETOPA", "beds": 38.0, "SR_15": 3.0}, {"Diff_star": -1.0, "addr": "600 PERRY  BOX 787", "SR_14": 2.0, "Q_14": 5.0, "name": "ROSSVILLE HEALTHCARE & REHAB CTR", "SF_14": 3.0, "SF_15": 3.0, "cnty": "Shawnee", "st": "KS", "Zip": 66533.0, "O_14": 3.0, "Q_15": 3.0, "O_15": 2.0, "city": "ROSSVILLE", "beds": 79.0, "SR_15": 2.0}, {"Diff_star": -1.0, "addr": "724 N MAIN PO BOX 370", "SR_14": 3.0, "Q_14": 3.0, "name": "CHENEY GOLDEN AGE HOME", "SF_14": 4.0, "SF_15": 3.0, "cnty": "Sedgwick", "st": "KS", "Zip": 67025.0, "O_14": 4.0, "Q_15": 2.0, "O_15": 3.0, "city": "CHENEY", "beds": 60.0, "SR_15": 3.0}, {"Diff_star": 0.0, "addr": "520 E MORSE", "SR_14": 2.0, "Q_14": 5.0, "name": "BONNER SPRINGS NURSING & REHABILITATION CENTER", "SF_14": 4.0, "SF_15": 4.0, "cnty": "Wyandotte", "st": "KS", "Zip": 66012.0, "O_14": 4.0, "Q_15": 5.0, "O_15": 4.0, "city": "BONNER SPRINGS", "beds": 45.0, "SR_15": 2.0}, {"Diff_star": 0.0, "addr": "3000 IVY DR", "SR_14": 4.0, "Q_14": 4.0, "name": "BETHEL HEALTH CARE CENTRE", "SF_14": 5.0, "SF_15": 5.0, "cnty": "Harvey", "st": "KS", "Zip": 67117.0, "O_14": 5.0, "Q_15": 5.0, "O_15": 5.0, "city": "NORTH NEWTON", "beds": 60.0, "SR_15": 4.0}, {"Diff_star": 0.0, "addr": "408 E MAIN  PO BOX 37", "SR_14": 4.0, "Q_14": 3.0, "name": "BETHESDA HOME", "SF_14": 5.0, "SF_15": 5.0, "cnty": "Marion", "st": "KS", "Zip": 67053.0, "O_14": 5.0, "Q_15": 2.0, "O_15": 5.0, "city": "GOESSEL", "beds": 57.0, "SR_15": 4.0}, {"Diff_star": 0.0, "addr": "400 S BUHLER RD", "SR_14": 2.0, "Q_14": 4.0, "name": "BUHLER SUNSHINE HOME", "SF_14": 5.0, "SF_15": 5.0, "cnty": "Reno", "st": "KS", "Zip": 67522.0, "O_14": 3.0, "Q_15": 3.0, "O_15": 3.0, "city": "BUHLER", "beds": 55.0, "SR_15": 2.0}, {"Diff_star": -1.0, "addr": "1901 E 23RD AVE", "SR_14": 1.0, "Q_14": 3.0, "name": "RAY E DILLON LIVING CENTER", "SF_14": 4.0, "SF_15": 4.0, "cnty": "Reno", "st": "KS", "Zip": 67502.0, "O_14": 2.0, "Q_15": 1.0, "O_15": 1.0, "city": "HUTCHINSON", "beds": 60.0, "SR_15": 1.0}, {"Diff_star": 0.0, "addr": "108 N WALNUT  PO BOX 249", "SR_14": 5.0, "Q_14": 3.0, "name": "PLEASANT VIEW HOME", "SF_14": 5.0, "SF_15": 5.0, "cnty": "Mcpherson", "st": "KS", "Zip": 67546.0, "O_14": 5.0, "Q_15": 2.0, "O_15": 5.0, "city": "INMAN", "beds": 124.0, "SR_15": 5.0}, {"Diff_star": -1.0, "addr": "622 N EDGEMOOR ST", "SR_14": 1.0, "Q_14": 5.0, "name": "LIFE CARE CENTER OF WICHITA", "SF_14": 3.0, "SF_15": 3.0, "cnty": "Sedgwick", "st": "KS", "Zip": 67208.0, "O_14": 2.0, "Q_15": 3.0, "O_15": 1.0, "city": "WICHITA", "beds": 120.0, "SR_15": 1.0}, {"Diff_star": 0.0, "addr": "811 N 1ST ST", "SR_14": 5.0, "Q_14": 5.0, "name": "PARKVIEW CARE CENTER", "SF_14": 5.0, "SF_15": 5.0, "cnty": "Osborne", "st": "KS", "Zip": 67473.0, "O_14": 5.0, "Q_15": 4.0, "O_15": 5.0, "city": "OSBORNE", "beds": 58.0, "SR_15": 5.0}, {"Diff_star": 0.0, "addr": "6700 E 45TH ST N", "SR_14": 3.0, "Q_14": 4.0, "name": "CATHOLIC CARE CENTER INC", "SF_14": 4.0, "SF_15": 4.0, "cnty": "Sedgwick", "st": "KS", "Zip": 67226.0, "O_14": 4.0, "Q_15": 3.0, "O_15": 4.0, "city": "BEL AIRE", "beds": 176.0, "SR_15": 3.0}, {"Diff_star": -2.0, "addr": "515 DAWSON", "SR_14": 2.0, "Q_14": 3.0, "name": "COUNTRY CARE INC", "SF_14": 4.0, "SF_15": 3.0, "cnty": "Leavenworth", "st": "KS", "Zip": 66020.0, "O_14": 3.0, "Q_15": 1.0, "O_15": 1.0, "city": "EASTON", "beds": 45.0, "SR_15": 2.0}, {"Diff_star": -1.0, "addr": "402 SOUTH AVE PO BOX 117", "SR_14": 3.0, "Q_14": 5.0, "name": "HIGHLAND HEALTHCARE & REHAB CTR", "SF_14": 1.0, "SF_15": 1.0, "cnty": "Doniphan", "st": "KS", "Zip": 66035.0, "O_14": 3.0, "Q_15": 3.0, "O_15": 2.0, "city": "HIGHLAND", "beds": 44.0, "SR_15": 3.0}, {"Diff_star": 0.0, "addr": "501 ASSEMBLY LANE", "SR_14": 4.0, "Q_14": 5.0, "name": "MEDICALODGES PAOLA", "SF_14": 3.0, "SF_15": 3.0, "cnty": "Miami", "st": "KS", "Zip": 66071.0, "O_14": 5.0, "Q_15": 5.0, "O_15": 5.0, "city": "PAOLA", "beds": 93.0, "SR_15": 4.0}, {"Diff_star": 0.0, "addr": "86 TWENTY-SECOND AVE", "SR_14": 4.0, "Q_14": 5.0, "name": "PINE VILLAGE", "SF_14": 4.0, "SF_15": 4.0, "cnty": "Mcpherson", "st": "KS", "Zip": 67107.0, "O_14": 5.0, "Q_15": 5.0, "O_15": 5.0, "city": "MOUNDRIDGE", "beds": 74.0, "SR_15": 4.0}, {"Diff_star": 0.0, "addr": "1400 S 15TH ST", "SR_14": 3.0, "Q_14": 5.0, "name": "ELMHAVEN EAST", "SF_14": 4.0, "SF_15": 4.0, "cnty": "Labette", "st": "KS", "Zip": 67357.0, "O_14": 5.0, "Q_15": 5.0, "O_15": 5.0, "city": "PARSONS", "beds": 45.0, "SR_15": 3.0}, {"Diff_star": 0.0, "addr": "1315 S 15TH ST", "SR_14": 1.0, "Q_14": 3.0, "name": "ELMHAVEN WEST NURSING HOME", "SF_14": 4.0, "SF_15": 4.0, "cnty": "Labette", "st": "KS", "Zip": 67357.0, "O_14": 2.0, "Q_15": 2.0, "O_15": 2.0, "city": "PARSONS", "beds": 39.0, "SR_15": 1.0}, {"Diff_star": 0.0, "addr": "510 N WALNUT ST", "SR_14": 5.0, "Q_14": 4.0, "name": "FRANKFORT COMMUNITY CARE HOME", "SF_14": 4.0, "SF_15": 4.0, "cnty": "Marshall", "st": "KS", "Zip": 66427.0, "O_14": 5.0, "Q_15": 2.0, "O_15": 5.0, "city": "FRANKFORT", "beds": 45.0, "SR_15": 5.0}, {"Diff_star": 0.0, "addr": "1112 SE REPUBLICAN", "SR_14": 1.0, "Q_14": 5.0, "name": "PROVIDENCE LIVING CENTER", "SF_14": 2.0, "SF_15": 2.0, "cnty": "Shawnee", "st": "KS", "Zip": 66607.0, "O_14": 2.0, "Q_15": 5.0, "O_15": 2.0, "city": "TOPEKA", "beds": 78.0, "SR_15": 1.0}, {"Diff_star": 0.0, "addr": "922 N 5TH ST", "SR_14": 5.0, "Q_14": 4.0, "name": "LINCOLN PARK MANOR INC", "SF_14": 3.0, "SF_15": 3.0, "cnty": "Lincoln", "st": "KS", "Zip": 67455.0, "O_14": 5.0, "Q_15": 2.0, "O_15": 5.0, "city": "LINCOLN", "beds": 36.0, "SR_15": 5.0}, {"Diff_star": 0.0, "addr": "1110 W 11TH", "SR_14": 1.0, "Q_14": 2.0, "name": "MOUNT JOSEPH SENIOR VILLAGE LLC", "SF_14": 3.0, "SF_15": 3.0, "cnty": "Cloud", "st": "KS", "Zip": 66901.0, "O_14": 1.0, "Q_15": 2.0, "O_15": 1.0, "city": "CONCORDIA", "beds": 60.0, "SR_15": 1.0}, {"Diff_star": 0.0, "addr": "620 SECOND AVE", "SR_14": 4.0, "Q_14": 4.0, "name": "SUNSET HOME INC", "SF_14": 5.0, "SF_15": 5.0, "cnty": "Cloud", "st": "KS", "Zip": 66901.0, "O_14": 5.0, "Q_15": 4.0, "O_15": 5.0, "city": "CONCORDIA", "beds": 45.0, "SR_15": 4.0}, {"Diff_star": 0.0, "addr": "2825 RESORT DR", "SR_14": 2.0, "Q_14": 5.0, "name": "HOLIDAY RESORT OF SALINA", "SF_14": 5.0, "SF_15": 5.0, "cnty": "Saline", "st": "KS", "Zip": 67401.0, "O_14": 4.0, "Q_15": 5.0, "O_15": 4.0, "city": "SALINA", "beds": 85.0, "SR_15": 2.0}, {"Diff_star": 0.0, "addr": "901 LAKEPOINT DR", "SR_14": 4.0, "Q_14": 4.0, "name": "LAKEPOINT NURSING CENTER", "SF_14": 4.0, "SF_15": 4.0, "cnty": "Butler", "st": "KS", "Zip": 67010.0, "O_14": 4.0, "Q_15": 3.0, "O_15": 4.0, "city": "AUGUSTA", "beds": 100.0, "SR_15": 4.0}, {"Diff_star": 0.0, "addr": "251 E WILSON ST", "SR_14": 4.0, "Q_14": 5.0, "name": "GOLDEN LIVINGCENTER - SPRINGHILL", "SF_14": 1.0, "SF_15": 1.0, "cnty": "Johnson", "st": "KS", "Zip": 66083.0, "O_14": 4.0, "Q_15": 5.0, "O_15": 4.0, "city": "SPRING HILL", "beds": 47.0, "SR_15": 4.0}, {"Diff_star": 0.0, "addr": "808 N 8TH ST", "SR_14": 1.0, "Q_14": 4.0, "name": "CRESTVIEW NURSING & RESIDENTIAL LIVING", "SF_14": 4.0, "SF_15": 4.0, "cnty": "Nemaha", "st": "KS", "Zip": 66538.0, "O_14": 2.0, "Q_15": 4.0, "O_15": 2.0, "city": "SENECA", "beds": 34.0, "SR_15": 1.0}, {"Diff_star": 0.0, "addr": "2308 N 3RD  PO BOX 955", "SR_14": 1.0, "Q_14": 5.0, "name": "THE HOMESTEAD HEALTH & REHAB CENTER", "SF_14": 4.0, "SF_15": 4.0, "cnty": "Finney", "st": "KS", "Zip": 67846.0, "O_14": 2.0, "Q_15": 5.0, "O_15": 2.0, "city": "GARDEN CITY", "beds": 39.0, "SR_15": 1.0}, {"Diff_star": 0.0, "addr": "101 N PINE ST", "SR_14": 4.0, "Q_14": 5.0, "name": "GOLDEN HEIGHTS LIVING CENTER", "SF_14": 4.0, "SF_15": 4.0, "cnty": "Anderson", "st": "KS", "Zip": 66032.0, "O_14": 5.0, "Q_15": 5.0, "O_15": 5.0, "city": "GARNETT", "beds": 51.0, "SR_15": 4.0}, {"Diff_star": 0.0, "addr": "1104 OHIO", "SR_14": 2.0, "Q_14": 3.0, "name": "DESERET HEALTH AND REHAB AT OSWEGO LLC", "SF_14": 3.0, "SF_15": 3.0, "cnty": "Labette", "st": "KS", "Zip": 67356.0, "O_14": 2.0, "Q_15": 2.0, "O_15": 2.0, "city": "OSWEGO", "beds": 40.0, "SR_15": 2.0}, {"Diff_star": -1.0, "addr": "1121 W 7TH ST", "SR_14": 3.0, "Q_14": 2.0, "name": "MEDICALODGES JACKSON COUNTY", "SF_14": 4.0, "SF_15": 4.0, "cnty": "Jackson", "st": "KS", "Zip": 66436.0, "O_14": 4.0, "Q_15": 1.0, "O_15": 3.0, "city": "HOLTON", "beds": 70.0, "SR_15": 3.0}, {"Diff_star": 0.0, "addr": "849 E WASHINGTON STREET", "SR_14": 3.0, "Q_14": 4.0, "name": "HOWARD TWILIGHT MANOR", "SF_14": 5.0, "SF_15": 5.0, "cnty": "Elk", "st": "KS", "Zip": 67349.0, "O_14": 4.0, "Q_15": 3.0, "O_15": 4.0, "city": "HOWARD", "beds": 40.0, "SR_15": 3.0}, {"Diff_star": 0.0, "addr": "1601 N MAIN ST", "SR_14": 1.0, "Q_14": 3.0, "name": "MCPHERSON CARE CENTER LLC", "SF_14": 2.0, "SF_15": 2.0, "cnty": "Mcpherson", "st": "KS", "Zip": 67460.0, "O_14": 1.0, "Q_15": 2.0, "O_15": 1.0, "city": "MCPHERSON", "beds": 46.0, "SR_15": 1.0}, {"Diff_star": 0.0, "addr": "512 COMMUNITY DR", "SR_14": 4.0, "Q_14": 4.0, "name": "LIFE CARE CENTER OF SENECA", "SF_14": 4.0, "SF_15": 4.0, "cnty": "Nemaha", "st": "KS", "Zip": 66538.0, "O_14": 4.0, "Q_15": 4.0, "O_15": 4.0, "city": "SENECA", "beds": 63.0, "SR_15": 4.0}, {"Diff_star": 0.0, "addr": "511 N WESTERN AVE", "SR_14": 2.0, "Q_14": 5.0, "name": "TWG NURSING HOME INC DBA THE HERITAGE", "SF_14": 4.0, "SF_15": 4.0, "cnty": "Crawford", "st": "KS", "Zip": 66743.0, "O_14": 4.0, "Q_15": 5.0, "O_15": 4.0, "city": "GIRARD", "beds": 40.0, "SR_15": 2.0}, {"Diff_star": 0.0, "addr": "5500 WEST 123RD ST", "SR_14": 4.0, "Q_14": 4.0, "name": "VILLAGE SHALOM INC", "SF_14": 4.0, "SF_15": 4.0, "cnty": "Johnson", "st": "KS", "Zip": 66209.0, "O_14": 4.0, "Q_15": 3.0, "O_15": 4.0, "city": "OVERLAND PARK", "beds": 76.0, "SR_15": 4.0}, {"Diff_star": -1.0, "addr": "1720 W SECOND ST PO BOX 1", "SR_14": 3.0, "Q_14": 5.0, "name": "APPLEWOOD REHABILITATION INC", "SF_14": 4.0, "SF_15": 3.0, "cnty": "Neosho", "st": "KS", "Zip": 66720.0, "O_14": 5.0, "Q_15": 5.0, "O_15": 4.0, "city": "CHANUTE", "beds": 45.0, "SR_15": 3.0}, {"Diff_star": 0.0, "addr": "340 E SOUTH STREET", "SR_14": 2.0, "Q_14": 4.0, "name": "RICHMOND HEALTHCARE & REHAB CTR", "SF_14": 4.0, "SF_15": 4.0, "cnty": "Franklin", "st": "KS", "Zip": 66080.0, "O_14": 3.0, "Q_15": 3.0, "O_15": 3.0, "city": "RICHMOND", "beds": 60.0, "SR_15": 2.0}, {"Diff_star": -1.0, "addr": "4851 HARVARD", "SR_14": 4.0, "Q_14": 5.0, "name": "PIONEER RIDGE RETIREMENT COMMUNITY", "SF_14": 4.0, "SF_15": 4.0, "cnty": "Douglas", "st": "KS", "Zip": 66049.0, "O_14": 5.0, "Q_15": 4.0, "O_15": 4.0, "city": "LAWRENCE", "beds": 76.0, "SR_15": 4.0}, {"Diff_star": 0.0, "addr": "915 MCNAIR", "SR_14": 5.0, "Q_14": 5.0, "name": "HALSTEAD HEALTH AND REHABILITATION CENTER", "SF_14": 4.0, "SF_15": 4.0, "cnty": "Harvey", "st": "KS", "Zip": 67056.0, "O_14": 5.0, "Q_15": 5.0, "O_15": 5.0, "city": "HALSTEAD", "beds": 60.0, "SR_15": 5.0}, {"Diff_star": 0.0, "addr": "17500 WEST 119TH STREET", "SR_14": 5.0, "Q_14": 3.0, "name": "ABERDEEN VILLAGE", "SF_14": 5.0, "SF_15": 5.0, "cnty": "Johnson", "st": "KS", "Zip": 66061.0, "O_14": 5.0, "Q_15": 2.0, "O_15": 5.0, "city": "OLATHE", "beds": 60.0, "SR_15": 5.0}, {"Diff_star": -1.0, "addr": "200 S OHIO  PO BOX 458", "SR_14": 3.0, "Q_14": 2.0, "name": "RIVERVIEW MANOR", "SF_14": 4.0, "SF_15": 4.0, "cnty": "Sumner", "st": "KS", "Zip": 67119.0, "O_14": 4.0, "Q_15": 1.0, "O_15": 3.0, "city": "OXFORD", "beds": 45.0, "SR_15": 3.0}, {"Diff_star": -1.0, "addr": "601 S MAIN ST", "SR_14": 2.0, "Q_14": 3.0, "name": "WHEAT STATE MANOR", "SF_14": 5.0, "SF_15": 5.0, "cnty": "Butler", "st": "KS", "Zip": 67154.0, "O_14": 3.0, "Q_15": 1.0, "O_15": 2.0, "city": "WHITEWATER", "beds": 65.0, "SR_15": 2.0}, {"Diff_star": 0.0, "addr": "1600 S. WOODLAWN BLVD", "SR_14": 1.0, "Q_14": 4.0, "name": "DESERET HEALTH AND REHAB AT WOODLAWN", "SF_14": 1.0, "SF_15": 1.0, "cnty": "Sedgwick", "st": "KS", "Zip": 67218.0, "O_14": 1.0, "Q_15": 2.0, "O_15": 1.0, "city": "WICHITA", "beds": 93.0, "SR_15": 1.0}, {"Diff_star": 0.0, "addr": "620 E WOOD ST", "SR_14": 2.0, "Q_14": 4.0, "name": "CLEARWATER NURSING & REHABILITATION CENTER", "SF_14": 4.0, "SF_15": 4.0, "cnty": "Sedgwick", "st": "KS", "Zip": 67026.0, "O_14": 3.0, "Q_15": 2.0, "O_15": 3.0, "city": "CLEARWATER", "beds": 64.0, "SR_15": 2.0}, {"Diff_star": 1.0, "addr": "505 N. MAIN ST.", "SR_14": 4.0, "Q_14": 5.0, "name": "GOLDEN LIVINGCENTER - ESKRIDGE", "SF_14": 1.0, "SF_15": 3.0, "cnty": "Wabaunsee", "st": "KS", "Zip": 66423.0, "O_14": 4.0, "Q_15": 5.0, "O_15": 5.0, "city": "ESKRIDGE", "beds": 60.0, "SR_15": 4.0}, {"Diff_star": 0.0, "addr": "116 S CENTRAL AVE", "SR_14": 1.0, "Q_14": 3.0, "name": "VILLA MARIA", "SF_14": 3.0, "SF_15": 3.0, "cnty": "Sumner", "st": "KS", "Zip": 67110.0, "O_14": 1.0, "Q_15": 1.0, "O_15": 1.0, "city": "MULVANE", "beds": 64.0, "SR_15": 1.0}, {"Diff_star": -1.0, "addr": "407 N LOCUST ST", "SR_14": 1.0, "Q_14": 3.0, "name": "PEABODY CARE CENTER LLC", "SF_14": 4.0, "SF_15": 4.0, "cnty": "Marion", "st": "KS", "Zip": 66866.0, "O_14": 2.0, "Q_15": 1.0, "O_15": 1.0, "city": "PEABODY", "beds": 55.0, "SR_15": 1.0}, {"Diff_star": -1.0, "addr": "1501 S HOLLY DR", "SR_14": 2.0, "Q_14": 3.0, "name": "WHEATRIDGE PARK CARE CENTER", "SF_14": 4.0, "SF_15": 4.0, "cnty": "Seward", "st": "KS", "Zip": 67901.0, "O_14": 3.0, "Q_15": 1.0, "O_15": 2.0, "city": "LIBERAL", "beds": 55.0, "SR_15": 2.0}, {"Diff_star": 0.0, "addr": "109 WEST EMPIRE", "SR_14": 1.0, "Q_14": 4.0, "name": "EMERALD POINTE HEALTH & REHABILITATION CENTER", "SF_14": 4.0, "SF_15": 4.0, "cnty": "Cherokee", "st": "KS", "Zip": 66739.0, "O_14": 2.0, "Q_15": 3.0, "O_15": 2.0, "city": "GALENA", "beds": 48.0, "SR_15": 1.0}, {"Diff_star": 0.0, "addr": "5015 SW 28TH ST", "SR_14": 1.0, "Q_14": 4.0, "name": "TANGLEWOOD NURSING & REHABILITATION", "SF_14": 2.0, "SF_15": 2.0, "cnty": "Shawnee", "st": "KS", "Zip": 66614.0, "O_14": 1.0, "Q_15": 1.0, "O_15": 1.0, "city": "TOPEKA", "beds": 54.0, "SR_15": 1.0}, {"Diff_star": -1.0, "addr": "1000 MULBERRY, PO BOX 627", "SR_14": 2.0, "Q_14": 3.0, "name": "MEDICALODGES INDEPENDENCE", "SF_14": 4.0, "SF_15": 4.0, "cnty": "Montgomery", "st": "KS", "Zip": 67301.0, "O_14": 3.0, "Q_15": 1.0, "O_15": 2.0, "city": "INDEPENDENCE", "beds": 55.0, "SR_15": 2.0}, {"Diff_star": 0.0, "addr": "1502 E CENTENNIAL", "SR_14": 4.0, "Q_14": 3.0, "name": "VIA CHRISTI VILLAGE PITTSBURG INC", "SF_14": 4.0, "SF_15": 4.0, "cnty": "Crawford", "st": "KS", "Zip": 66762.0, "O_14": 4.0, "Q_15": 2.0, "O_15": 4.0, "city": "PITTSBURG", "beds": 96.0, "SR_15": 4.0}, {"Diff_star": 0.0, "addr": "1315 N WEST ST", "SR_14": 3.0, "Q_14": 5.0, "name": "LAKEPOINT RETIREMENT & REHAB CENTER OF WICHITA", "SF_14": 3.0, "SF_15": 3.0, "cnty": "Sedgwick", "st": "KS", "Zip": 67203.0, "O_14": 4.0, "Q_15": 3.0, "O_15": 4.0, "city": "WICHITA", "beds": 110.0, "SR_15": 4.0}, {"Diff_star": 0.0, "addr": "1035 SE 3RD ST", "SR_14": 1.0, "Q_14": 3.0, "name": "KANSAS CHRISTIAN HOME", "SF_14": 3.0, "SF_15": 3.0, "cnty": "Harvey", "st": "KS", "Zip": 67114.0, "O_14": 1.0, "Q_15": 2.0, "O_15": 1.0, "city": "NEWTON", "beds": 92.0, "SR_15": 1.0}, {"Diff_star": 0.0, "addr": "242 CARROLL ST", "SR_14": 4.0, "Q_14": 4.0, "name": "PRAIRIE MISSION RETIREMENT VILLAGE", "SF_14": 4.0, "SF_15": 4.0, "cnty": "Neosho", "st": "KS", "Zip": 66771.0, "O_14": 4.0, "Q_15": 3.0, "O_15": 4.0, "city": "SAINT PAUL", "beds": 50.0, "SR_15": 4.0}, {"Diff_star": 0.0, "addr": "8675 SE 72ND TERRACE", "SR_14": 5.0, "Q_14": 4.0, "name": "QUAKER HILL MANOR", "SF_14": 2.0, "SF_15": 2.0, "cnty": "Cherokee", "st": "KS", "Zip": 66713.0, "O_14": 5.0, "Q_15": 2.0, "O_15": 5.0, "city": "BAXTER SPRINGS", "beds": 60.0, "SR_15": 5.0}, {"Diff_star": 0.0, "addr": "105 N HIGHWAY 99", "SR_14": 3.0, "Q_14": 4.0, "name": "WESTY COMMUNITY CARE HOME", "SF_14": 3.0, "SF_15": 3.0, "cnty": "Pottawatomie", "st": "KS", "Zip": 66549.0, "O_14": 3.0, "Q_15": 2.0, "O_15": 3.0, "city": "WESTMORELAND", "beds": 77.0, "SR_15": 3.0}, {"Diff_star": -1.0, "addr": "33600 WEST 85TH ST", "SR_14": 2.0, "Q_14": 2.0, "name": "HILLSIDE VILLAGE OF DESOTO", "SF_14": 4.0, "SF_15": 4.0, "cnty": "Johnson", "st": "KS", "Zip": 66018.0, "O_14": 3.0, "Q_15": 1.0, "O_15": 2.0, "city": "DE SOTO", "beds": 49.0, "SR_15": 2.0}, {"Diff_star": 0.0, "addr": "303 E BUFFALO ST", "SR_14": 1.0, "Q_14": 5.0, "name": "THE NICOL HOME", "SF_14": 4.0, "SF_15": 4.0, "cnty": "Cloud", "st": "KS", "Zip": 67445.0, "O_14": 2.0, "Q_15": 4.0, "O_15": 2.0, "city": "GLASCO", "beds": 28.0, "SR_15": 1.0}, {"Diff_star": 0.0, "addr": "PO BOX 219  1009 N MARSHALL", "SR_14": 5.0, "Q_14": 4.0, "name": "CHAPMAN VALLEY MANOR", "SF_14": 4.0, "SF_15": 4.0, "cnty": "Dickinson", "st": "KS", "Zip": 67431.0, "O_14": 5.0, "Q_15": 5.0, "O_15": 5.0, "city": "CHAPMAN", "beds": 45.0, "SR_15": 5.0}, {"Diff_star": 0.0, "addr": "602 CRESTVIEW DR", "SR_14": 2.0, "Q_14": 2.0, "name": "ENTERPRISE ESTATES NURSING CENTER", "SF_14": 4.0, "SF_15": 4.0, "cnty": "Dickinson", "st": "KS", "Zip": 67441.0, "O_14": 3.0, "Q_15": 2.0, "O_15": 3.0, "city": "ENTERPRISE", "beds": 44.0, "SR_15": 2.0}, {"Diff_star": 0.0, "addr": "409 W BARTON", "SR_14": 5.0, "Q_14": 3.0, "name": "LEONARDVILLE NURSING HOME", "SF_14": 4.0, "SF_15": 4.0, "cnty": "Riley", "st": "KS", "Zip": 66449.0, "O_14": 5.0, "Q_15": 2.0, "O_15": 5.0, "city": "LEONARDVILLE", "beds": 59.0, "SR_15": 5.0}, {"Diff_star": -1.0, "addr": "12802 JOHNSON DR", "SR_14": 3.0, "Q_14": 5.0, "name": "BROOKDALE ROSE HILL", "SF_14": 4.0, "SF_15": 3.0, "cnty": "Johnson", "st": "KS", "Zip": 66216.0, "O_14": 5.0, "Q_15": 4.0, "O_15": 4.0, "city": "SHAWNEE", "beds": 92.0, "SR_15": 4.0}, {"Diff_star": 0.0, "addr": "PO BOX 308", "SR_14": 4.0, "Q_14": 4.0, "name": "LOGAN MANOR COMMUNITY HEALTH SERVICES", "SF_14": 3.0, "SF_15": 3.0, "cnty": "Phillips", "st": "KS", "Zip": 67646.0, "O_14": 4.0, "Q_15": 2.0, "O_15": 4.0, "city": "LOGAN", "beds": 36.0, "SR_15": 4.0}, {"Diff_star": 0.0, "addr": "704 E MAIN ST", "SR_14": 3.0, "Q_14": 4.0, "name": "MOUNT HOPE NURSING CENTER", "SF_14": 4.0, "SF_15": 4.0, "cnty": "Sedgwick", "st": "KS", "Zip": 67108.0, "O_14": 4.0, "Q_15": 3.0, "O_15": 4.0, "city": "MOUNT HOPE", "beds": 45.0, "SR_15": 3.0}, {"Diff_star": 0.0, "addr": "704 S ASH", "SR_14": 4.0, "Q_14": 5.0, "name": "SALEM HOME", "SF_14": 4.0, "SF_15": 4.0, "cnty": "Marion", "st": "KS", "Zip": 67063.0, "O_14": 5.0, "Q_15": 5.0, "O_15": 5.0, "city": "HILLSBORO", "beds": 45.0, "SR_15": 4.0}, {"Diff_star": 0.0, "addr": "2133 S ELIZABETH ST", "SR_14": 4.0, "Q_14": 5.0, "name": "HOMESTEAD HEALTH CENTER", "SF_14": 4.0, "SF_15": 3.0, "cnty": "Sedgwick", "st": "KS", "Zip": 67213.0, "O_14": 5.0, "Q_15": 5.0, "O_15": 5.0, "city": "WICHITA", "beds": 62.0, "SR_15": 4.0}, {"Diff_star": -1.0, "addr": "1611 RITCHIE", "SR_14": 1.0, "Q_14": 4.0, "name": "WINFIELD REST HAVEN II, LLC", "SF_14": 4.0, "SF_15": 3.0, "cnty": "Cowley", "st": "KS", "Zip": 67156.0, "O_14": 2.0, "Q_15": 4.0, "O_15": 1.0, "city": "WINFIELD", "beds": 45.0, "SR_15": 1.0}, {"Diff_star": -1.0, "addr": "601 E MAIN ST", "SR_14": 2.0, "Q_14": 2.0, "name": "PRAIRIE SUNSET HOME INC", "SF_14": 5.0, "SF_15": 5.0, "cnty": "Reno", "st": "KS", "Zip": 67570.0, "O_14": 3.0, "Q_15": 1.0, "O_15": 2.0, "city": "PRETTY PRAIRIE", "beds": 34.0, "SR_15": 2.0}, {"Diff_star": 0.0, "addr": "2 E ASH ST", "SR_14": 3.0, "Q_14": 4.0, "name": "MEDICALODGES HERINGTON", "SF_14": 3.0, "SF_15": 3.0, "cnty": "Dickinson", "st": "KS", "Zip": 67449.0, "O_14": 3.0, "Q_15": 3.0, "O_15": 3.0, "city": "HERINGTON", "beds": 45.0, "SR_15": 3.0}, {"Diff_star": 0.0, "addr": "20911 WEST 153RD STREET", "SR_14": 3.0, "Q_14": 2.0, "name": "HOEGER HOUSE", "SF_14": 5.0, "SF_15": 5.0, "cnty": "Johnson", "st": "KS", "Zip": 66061.0, "O_14": 4.0, "Q_15": 2.0, "O_15": 4.0, "city": "OLATHE", "beds": 34.0, "SR_15": 3.0}, {"Diff_star": -1.0, "addr": "114 S HIGH ST", "SR_14": 3.0, "Q_14": 3.0, "name": "PARK VILLA", "SF_14": 4.0, "SF_15": 3.0, "cnty": "Cloud", "st": "KS", "Zip": 66938.0, "O_14": 4.0, "Q_15": 2.0, "O_15": 3.0, "city": "CLYDE", "beds": 36.0, "SR_15": 3.0}, {"Diff_star": 0.0, "addr": "612 THIRD ST", "SR_14": 4.0, "Q_14": 4.0, "name": "LINN COMMUNITY NURSING HOME", "SF_14": 4.0, "SF_15": 4.0, "cnty": "Washington", "st": "KS", "Zip": 66953.0, "O_14": 4.0, "Q_15": 4.0, "O_15": 4.0, "city": "LINN", "beds": 55.0, "SR_15": 4.0}, {"Diff_star": 0.0, "addr": "200 COMMODORE ST", "SR_14": 3.0, "Q_14": 5.0, "name": "PRATT REHABILITATION AND RESIDENCE CENTER", "SF_14": 5.0, "SF_15": 5.0, "cnty": "Pratt", "st": "KS", "Zip": 67124.0, "O_14": 5.0, "Q_15": 5.0, "O_15": 5.0, "city": "PRATT", "beds": 51.0, "SR_15": 3.0}, {"Diff_star": -1.0, "addr": "202 S WASHINGTON ST", "SR_14": 3.0, "Q_14": 4.0, "name": "RIVERVIEW ESTATES", "SF_14": 4.0, "SF_15": 4.0, "cnty": "Mcpherson", "st": "KS", "Zip": 67464.0, "O_14": 4.0, "Q_15": 3.0, "O_15": 3.0, "city": "MARQUETTE", "beds": 45.0, "SR_15": 2.0}, {"Diff_star": 0.0, "addr": "2225 CANTERBURY DR", "SR_14": 1.0, "Q_14": 3.0, "name": "VIA CHRISTI VILLAGE - HAYS INC", "SF_14": 4.0, "SF_15": 4.0, "cnty": "Ellis", "st": "KS", "Zip": 67601.0, "O_14": 2.0, "Q_15": 3.0, "O_15": 2.0, "city": "HAYS", "beds": 96.0, "SR_15": 1.0}, {"Diff_star": 0.0, "addr": "7105 MISSION ROAD", "SR_14": 2.0, "Q_14": 4.0, "name": "BRIGHTON GARDENS OF PRAIRIE VILLAGE", "SF_14": 4.0, "SF_15": 5.0, "cnty": "Johnson", "st": "KS", "Zip": 66208.0, "O_14": 3.0, "Q_15": 3.0, "O_15": 3.0, "city": "PRAIRIE VILLAGE", "beds": 45.0, "SR_15": 2.0}, {"Diff_star": -1.0, "addr": "505 W ELM  PO BOX 248", "SR_14": 3.0, "Q_14": 2.0, "name": "HILL TOP HOUSE", "SF_14": 4.0, "SF_15": 4.0, "cnty": "Ford", "st": "KS", "Zip": 67834.0, "O_14": 4.0, "Q_15": 1.0, "O_15": 3.0, "city": "BUCKLIN", "beds": 32.0, "SR_15": 3.0}, {"Diff_star": 0.0, "addr": "639 S MAIZE COURT", "SR_14": 2.0, "Q_14": 5.0, "name": "FAMILY HEALTH & REHABILITATION CENTER", "SF_14": 5.0, "SF_15": 4.0, "cnty": "Sedgwick", "st": "KS", "Zip": 67209.0, "O_14": 4.0, "Q_15": 5.0, "O_15": 4.0, "city": "WICHITA", "beds": 72.0, "SR_15": 2.0}, {"Diff_star": 1.0, "addr": "1415 MAPLE", "SR_14": 2.0, "Q_14": 4.0, "name": "MEDICALODGES EUDORA", "SF_14": 4.0, "SF_15": 4.0, "cnty": "Douglas", "st": "KS", "Zip": 66025.0, "O_14": 3.0, "Q_15": 5.0, "O_15": 4.0, "city": "EUDORA", "beds": 74.0, "SR_15": 2.0}, {"Diff_star": 0.0, "addr": "13875 W 115TH TERR", "SR_14": 3.0, "Q_14": 5.0, "name": "THE PLAZA HEALTH SERVICES AT SANTA MARTA", "SF_14": 4.0, "SF_15": 4.0, "cnty": "Johnson", "st": "KS", "Zip": 66062.0, "O_14": 5.0, "Q_15": 5.0, "O_15": 5.0, "city": "OLATHE", "beds": 34.0, "SR_15": 3.0}, {"Diff_star": 0.0, "addr": "412 S 8TH", "SR_14": 4.0, "Q_14": 5.0, "name": "SPRING VIEW MANOR", "SF_14": 4.0, "SF_15": 4.0, "cnty": "Sumner", "st": "KS", "Zip": 67031.0, "O_14": 5.0, "Q_15": 5.0, "O_15": 5.0, "city": "CONWAY SPRINGS", "beds": 45.0, "SR_15": 4.0}, {"Diff_star": -1.0, "addr": "400 W 8TH ST", "SR_14": 3.0, "Q_14": 3.0, "name": "MITCHELL COUNTY HOSPITAL HEALTH SYSTEMS LTCU", "SF_14": 4.0, "SF_15": 4.0, "cnty": "Mitchell", "st": "KS", "Zip": 67420.0, "O_14": 4.0, "Q_15": 1.0, "O_15": 3.0, "city": "BELOIT", "beds": 40.0, "SR_15": 3.0}, {"Diff_star": 0.0, "addr": "201 W CRANE ST", "SR_14": 3.0, "Q_14": 4.0, "name": "ANDBE HOME, INC", "SF_14": 4.0, "SF_15": 4.0, "cnty": "Norton", "st": "KS", "Zip": 67654.0, "O_14": 4.0, "Q_15": 3.0, "O_15": 4.0, "city": "NORTON", "beds": 73.0, "SR_15": 3.0}, {"Diff_star": 0.0, "addr": "321 N CHESTNUT ST", "SR_14": 3.0, "Q_14": 4.0, "name": "BETHANY HOME ASSOCIATION", "SF_14": 4.0, "SF_15": 4.0, "cnty": "Mcpherson", "st": "KS", "Zip": 67456.0, "O_14": 4.0, "Q_15": 4.0, "O_15": 4.0, "city": "LINDSBORG", "beds": 105.0, "SR_15": 3.0}, {"Diff_star": 0.0, "addr": "RR 2 E IOWA ST", "SR_14": 2.0, "Q_14": 4.0, "name": "MAPLE HEIGHTS NURSING & REHABILITATION CENTER", "SF_14": 4.0, "SF_15": 4.0, "cnty": "Brown", "st": "KS", "Zip": 66434.0, "O_14": 3.0, "Q_15": 3.0, "O_15": 3.0, "city": "HIAWATHA", "beds": 67.0, "SR_15": 2.0}, {"Diff_star": 0.0, "addr": "440 STATE ST  BOX 50A", "SR_14": 4.0, "Q_14": 2.0, "name": "SANDSTONE HEIGHTS", "SF_14": 5.0, "SF_15": 5.0, "cnty": "Rice", "st": "KS", "Zip": 67457.0, "O_14": 5.0, "Q_15": 2.0, "O_15": 5.0, "city": "LITTLE RIVER", "beds": 32.0, "SR_15": 4.0}, {"Diff_star": -1.0, "addr": "614 S 8TH ST", "SR_14": 2.0, "Q_14": 4.0, "name": "MONTGOMERY PLACE NURSING CENTER", "SF_14": 4.0, "SF_15": 3.0, "cnty": "Montgomery", "st": "KS", "Zip": 67301.0, "O_14": 3.0, "Q_15": 4.0, "O_15": 2.0, "city": "INDEPENDENCE", "beds": 43.0, "SR_15": 2.0}, {"Diff_star": 0.0, "addr": "311 E 2ND ST", "SR_14": 1.0, "Q_14": 4.0, "name": "THE CENTENNIAL HOMESTEAD", "SF_14": 5.0, "SF_15": 5.0, "cnty": "Washington", "st": "KS", "Zip": 66968.0, "O_14": 2.0, "Q_15": 3.0, "O_15": 2.0, "city": "WASHINGTON", "beds": 31.0, "SR_15": 1.0}, {"Diff_star": -1.0, "addr": "714 SHERIDAN UNIT 98", "SR_14": 2.0, "Q_14": 2.0, "name": "KANSAS SOLDIERS HOME", "SF_14": 5.0, "SF_15": 5.0, "cnty": "Ford", "st": "KS", "Zip": 67843.0, "O_14": 3.0, "Q_15": 1.0, "O_15": 2.0, "city": "FORT DODGE", "beds": 72.0, "SR_15": 2.0}, {"Diff_star": 0.0, "addr": "731 KLEIN CIRCLE", "SR_14": 2.0, "Q_14": 5.0, "name": "DERBY HEALTH & REHABILITATION LLC", "SF_14": 5.0, "SF_15": 5.0, "cnty": "Sedgwick", "st": "KS", "Zip": 67037.0, "O_14": 4.0, "Q_15": 5.0, "O_15": 4.0, "city": "DERBY", "beds": 74.0, "SR_15": 2.0}, {"Diff_star": -1.0, "addr": "320 SOUTH AVE", "SR_14": 1.0, "Q_14": 5.0, "name": "TREGO MANOR", "SF_14": 4.0, "SF_15": 3.0, "cnty": "Trego", "st": "KS", "Zip": 67672.0, "O_14": 2.0, "Q_15": 3.0, "O_15": 1.0, "city": "WAKEENEY", "beds": 40.0, "SR_15": 1.0}, {"Diff_star": -1.0, "addr": "1220 WORLD WAR II MEMORIAL DR", "SR_14": 4.0, "Q_14": 3.0, "name": "KANSAS VETERANS HOME", "SF_14": 4.0, "SF_15": 4.0, "cnty": "Cowley", "st": "KS", "Zip": 67156.0, "O_14": 4.0, "Q_15": 1.0, "O_15": 3.0, "city": "WINFIELD", "beds": 107.0, "SR_15": 4.0}, {"Diff_star": 0.0, "addr": "12000 LAMAR", "SR_14": 2.0, "Q_14": 4.0, "name": "BROOKDALE OVERLAND PARK", "SF_14": 4.0, "SF_15": 4.0, "cnty": "Johnson", "st": "KS", "Zip": 66209.0, "O_14": 3.0, "Q_15": 4.0, "O_15": 3.0, "city": "OVERLAND PARK", "beds": 100.0, "SR_15": 2.0}, {"Diff_star": 0.0, "addr": "2420 G STREET", "SR_14": 5.0, "Q_14": 4.0, "name": "REPUBLIC COUNTY HOSPITAL LTCU", "SF_14": 4.0, "SF_15": 4.0, "cnty": "Republic", "st": "KS", "Zip": 66935.0, "O_14": 5.0, "Q_15": 3.0, "O_15": 5.0, "city": "BELLEVILLE", "beds": 38.0, "SR_15": 5.0}, {"Diff_star": 0.0, "addr": "301 E MILLER ST", "SR_14": 1.0, "Q_14": 4.0, "name": "PRESCOTT COUNTRY VIEW NURSING HOME", "SF_14": "", "SF_15": "", "cnty": "Linn", "st": "KS", "Zip": 66767.0, "O_14": 1.0, "Q_15": 4.0, "O_15": 1.0, "city": "PRESCOTT", "beds": 45.0, "SR_15": 1.0}, {"Diff_star": 0.0, "addr": "224 E CENTRAL", "SR_14": 1.0, "Q_14": 5.0, "name": "VICTORIA FALLS", "SF_14": 4.0, "SF_15": 4.0, "cnty": "Butler", "st": "KS", "Zip": 67002.0, "O_14": 2.0, "Q_15": 3.0, "O_15": 2.0, "city": "ANDOVER", "beds": 76.0, "SR_15": 1.0}, {"Diff_star": 0.0, "addr": "750 W WASHINGTON ST", "SR_14": 4.0, "Q_14": 5.0, "name": "THE WHEATLANDS HEALTH CARE CENTER", "SF_14": 5.0, "SF_15": 5.0, "cnty": "Kingman", "st": "KS", "Zip": 67068.0, "O_14": 5.0, "Q_15": 4.0, "O_15": 5.0, "city": "KINGMAN", "beds": 54.0, "SR_15": 4.0}, {"Diff_star": 0.0, "addr": "1401 CHERRY LN", "SR_14": 1.0, "Q_14": 5.0, "name": "CHERRY VILLAGE", "SF_14": 4.0, "SF_15": 4.0, "cnty": "Barton", "st": "KS", "Zip": 67530.0, "O_14": 2.0, "Q_15": 4.0, "O_15": 2.0, "city": "GREAT BEND", "beds": 44.0, "SR_15": 1.0}, {"Diff_star": 0.0, "addr": "1334 BUCHANAN ST", "SR_14": 1.0, "Q_14": 3.0, "name": "WASHBURN COMMUNITY CARE CENTER", "SF_14": 2.0, "SF_15": 2.0, "cnty": "Shawnee", "st": "KS", "Zip": 66604.0, "O_14": 1.0, "Q_15": 1.0, "O_15": 1.0, "city": "TOPEKA", "beds": 31.0, "SR_15": 1.0}, {"Diff_star": 0.0, "addr": "608 N KENNEDY", "SR_14": 2.0, "Q_14": 1.0, "name": "WALLACE COUNTY COMMUNITY CARE CENTER INC", "SF_14": 5.0, "SF_15": 5.0, "cnty": "Wallace", "st": "KS", "Zip": 67758.0, "O_14": 2.0, "Q_15": 1.0, "O_15": 2.0, "city": "SHARON SPGS", "beds": 24.0, "SR_15": 2.0}, {"Diff_star": -1.0, "addr": "210 E PARK LANE", "SR_14": 4.0, "Q_14": 2.0, "name": "PARK LANE NURSING HOME", "SF_14": 5.0, "SF_15": 5.0, "cnty": "Scott", "st": "KS", "Zip": 67871.0, "O_14": 5.0, "Q_15": 1.0, "O_15": 4.0, "city": "SCOTT CITY", "beds": 68.0, "SR_15": 4.0}, {"Diff_star": -1.0, "addr": "401 E 6TH  PO BOX 20", "SR_14": 4.0, "Q_14": 3.0, "name": "FOWLER RESIDENTIAL CARE", "SF_14": 5.0, "SF_15": 5.0, "cnty": "Meade", "st": "KS", "Zip": 67844.0, "O_14": 5.0, "Q_15": 1.0, "O_15": 4.0, "city": "FOWLER", "beds": 26.0, "SR_15": 4.0}, {"Diff_star": 0.0, "addr": "10604 EAST 13TH ST", "SR_14": 2.0, "Q_14": 4.0, "name": "REGENT PARK REHABILITATION AND HEALTHCARE", "SF_14": 5.0, "SF_15": 5.0, "cnty": "Sedgwick", "st": "KS", "Zip": 67206.0, "O_14": 3.0, "Q_15": 2.0, "O_15": 3.0, "city": "WICHITA", "beds": 80.0, "SR_15": 2.0}, {"Diff_star": 0.0, "addr": "300 S AZTEC ST", "SR_14": 5.0, "Q_14": 4.0, "name": "BETHEL HOME", "SF_14": 4.0, "SF_15": 4.0, "cnty": "Gray", "st": "KS", "Zip": 67867.0, "O_14": 5.0, "Q_15": 3.0, "O_15": 5.0, "city": "MONTEZUMA", "beds": 55.0, "SR_15": 5.0}, {"Diff_star": 0.0, "addr": "402 N SANTA FE AVE", "SR_14": 1.0, "Q_14": 5.0, "name": "LEISURE HOMESTEAD AT ST JOHN", "SF_14": 5.0, "SF_15": 5.0, "cnty": "Stafford", "st": "KS", "Zip": 67576.0, "O_14": 2.0, "Q_15": 3.0, "O_15": 2.0, "city": "ST JOHN", "beds": 35.0, "SR_15": 1.0}, {"Diff_star": 0.0, "addr": "405 GRAND AVE", "SR_14": 3.0, "Q_14": 5.0, "name": "LEISURE HOMESTEAD AT STAFFORD", "SF_14": 4.0, "SF_15": 4.0, "cnty": "Stafford", "st": "KS", "Zip": 67578.0, "O_14": 5.0, "Q_15": 5.0, "O_15": 5.0, "city": "STAFFORD", "beds": 35.0, "SR_15": 3.0}, {"Diff_star": 1.0, "addr": "1419 N 6TH ST", "SR_14": 2.0, "Q_14": 4.0, "name": "ATCHISON SENIOR VILLAGE", "SF_14": 4.0, "SF_15": 4.0, "cnty": "Atchison", "st": "KS", "Zip": 66002.0, "O_14": 3.0, "Q_15": 5.0, "O_15": 4.0, "city": "ATCHISON", "beds": 56.0, "SR_15": 2.0}, {"Diff_star": 0.0, "addr": "2114 N 127TH CT EAST", "SR_14": 1.0, "Q_14": 4.0, "name": "AVITA HEALTH AND REHAB AT REEDS COVE", "SF_14": 4.0, "SF_15": 4.0, "cnty": "Sedgwick", "st": "KS", "Zip": 67228.0, "O_14": 2.0, "Q_15": 2.0, "O_15": 2.0, "city": "WICHITA", "beds": 80.0, "SR_15": 1.0}, {"Diff_star": 0.0, "addr": "757 W EISENHOWER RD", "SR_14": 5.0, "Q_14": 5.0, "name": "TWIN OAKS HEALTH AND REHAB", "SF_14": 4.0, "SF_15": 4.0, "cnty": "Leavenworth", "st": "KS", "Zip": 66043.0, "O_14": 5.0, "Q_15": 5.0, "O_15": 5.0, "city": "LANSING", "beds": 80.0, "SR_15": 5.0}, {"Diff_star": 0.0, "addr": "1400 S SHERIDEN ST", "SR_14": 5.0, "Q_14": 4.0, "name": "CARITAS CENTER INC", "SF_14": 5.0, "SF_15": 5.0, "cnty": "Sedgwick", "st": "KS", "Zip": 67213.0, "O_14": 5.0, "Q_15": 5.0, "O_15": 5.0, "city": "WICHITA", "beds": 22.0, "SR_15": 5.0}, {"Diff_star": 0.0, "addr": "2220 SW CANTERBURY DRIVE", "SR_14": "", "Q_14": "", "name": "HAYS MEDICAL CENTER LTCU", "SF_14": "", "SF_15": "", "cnty": "Ellis", "st": "KS", "Zip": 67601.0, "O_14": "", "Q_15": "", "O_15": "", "city": "HAYS", "beds": 12.0, "SR_15": ""}, {"Diff_star": 0.0, "addr": "EAST HWY 36  PO BOX 628", "SR_14": "", "Q_14": "", "name": "PHILLIPS COUNTY RETIREMENT CENTER", "SF_14": "", "SF_15": "", "cnty": "Phillips", "st": "KS", "Zip": 67661.0, "O_14": "", "Q_15": "", "O_15": "", "city": "PHILLIPSBURG", "beds": 76.0, "SR_15": ""}, {"Diff_star": 5.0, "addr": "3636 NORTH RIDGE RD BLDG 400", "SR_14": "", "Q_14": "", "name": "VIA CHRISTI VILLAGE RIDGE", "SF_14": "", "SF_15": 5.0, "cnty": "Sedgwick", "st": "KS", "Zip": 67205.0, "O_14": "", "Q_15": 3.0, "O_15": 5.0, "city": "WICHITA", "beds": 80.0, "SR_15": 5.0}, {"Diff_star": 0.0, "addr": "13760 METCALF AVENUE", "SR_14": "", "Q_14": "", "name": "TALLGRASS CREEK INC", "SF_14": "", "SF_15": "", "cnty": "Johnson", "st": "KS", "Zip": 66223.0, "O_14": "", "Q_15": "", "O_15": "", "city": "OVERLAND PARK", "beds": 72.0, "SR_15": ""}, {"Diff_star": 0.0, "addr": "4700 INDIAN CREEK PARKWAY", "SR_14": "", "Q_14": "", "name": "ADVANCED HEALTH CARE OF OVERLAND PARK", "SF_14": "", "SF_15": "", "cnty": "Johnson", "st": "KS", "Zip": 66207.0, "O_14": "", "Q_15": "", "O_15": "", "city": "OVERLAND PARK", "beds": 96.0, "SR_15": ""}, {"Diff_star": 0.0, "addr": "777 N MCLEAN BLVD", "SR_14": "", "Q_14": "", "name": "VIA CHRISTI VILLAGE MCLEAN INC", "SF_14": "", "SF_15": "", "cnty": "Sedgwick", "st": "KS", "Zip": 67203.0, "O_14": "", "Q_15": "", "O_15": "", "city": "WICHITA", "beds": 95.0, "SR_15": ""}, {"Diff_star": 0.0, "addr": "3910 RAINBOW BLVD, STE 400", "SR_14": "", "Q_14": "", "name": "KANSAS CITY TRANSITIONAL CARE CENTER", "SF_14": "", "SF_15": "", "cnty": "Wyandotte", "st": "KS", "Zip": 66103.0, "O_14": "", "Q_15": "", "O_15": "", "city": "KANSAS CITY", "beds": 96.0, "SR_15": ""}, {"Diff_star": 0.0, "addr": "403 S VALLEY  PO BOX 8", "SR_14": "", "Q_14": "", "name": "HILLTOP MANOR NURSING CENTER", "SF_14": "", "SF_15": "", "cnty": "Kingman", "st": "KS", "Zip": 67035.0, "O_14": "", "Q_15": "", "O_15": "", "city": "CUNNINGHAM", "beds": 71.0, "SR_15": ""}, {"Diff_star": 0.0, "addr": "1890 EUCLID AVE", "SR_14": "", "Q_14": "", "name": "TRI-COUNTY MANOR LIVING CENTER INC", "SF_14": "", "SF_15": "", "cnty": "Brown", "st": "KS", "Zip": 66439.0, "O_14": "", "Q_15": "", "O_15": "", "city": "HORTON", "beds": 45.0, "SR_15": ""}, {"Diff_star": 0.0, "addr": "331 SW OAKLEY", "SR_14": "", "Q_14": "", "name": "BRIGHTON PLACE WEST", "SF_14": "", "SF_15": "", "cnty": "Shawnee", "st": "KS", "Zip": 66606.0, "O_14": "", "Q_15": "", "O_15": "", "city": "TOPEKA", "beds": 50.0, "SR_15": ""}, {"Diff_star": 0.0, "addr": "8505 PFLUMM ROAD", "SR_14": 4.0, "Q_14": 3.0, "name": "COVENANT PLACE OF LENEXA INC", "SF_14": 4.0, "SF_15": 4.0, "cnty": "Johnson", "st": "KS", "Zip": 66215.0, "O_14": 4.0, "Q_15": 2.0, "O_15": 4.0, "city": "LENEXA", "beds": 34.0, "SR_15": 4.0}, {"Diff_star": -1.0, "addr": "700 NORTH HUSER ST", "SR_14": 2.0, "Q_14": 5.0, "name": "HAMILTON COUNTY HOSPITAL LTCU", "SF_14": 5.0, "SF_15": 5.0, "cnty": "Hamilton", "st": "KS", "Zip": 67878.0, "O_14": 4.0, "Q_15": 4.0, "O_15": 3.0, "city": "SYRACUSE", "beds": 44.0, "SR_15": 2.0}, {"Diff_star": -1.0, "addr": "614 S MAIN ST", "SR_14": 3.0, "Q_14": 5.0, "name": "SMITH COUNTY MEMORIAL HOSPITAL LTCU", "SF_14": 4.0, "SF_15": 4.0, "cnty": "Smith", "st": "KS", "Zip": 66967.0, "O_14": 5.0, "Q_15": 4.0, "O_15": 4.0, "city": "SMITH CENTER", "beds": 28.0, "SR_15": 3.0}, {"Diff_star": -1.0, "addr": "320 N 13TH ST", "SR_14": 3.0, "Q_14": 3.0, "name": "TREGO CO-LEMKE MEMORIAL HOSPITAL LTCU", "SF_14": 4.0, "SF_15": 4.0, "cnty": "Trego", "st": "KS", "Zip": 67672.0, "O_14": 4.0, "Q_15": 1.0, "O_15": 3.0, "city": "WAKEENEY", "beds": 37.0, "SR_15": 3.0}, {"Diff_star": -2.0, "addr": "535 SOUTH FREEBORN", "SR_14": 2.0, "Q_14": 5.0, "name": "ST LUKE LIVING CENTER", "SF_14": 4.0, "SF_15": 4.0, "cnty": "Marion", "st": "KS", "Zip": 66861.0, "O_14": 4.0, "Q_15": 5.0, "O_15": 2.0, "city": "MARION", "beds": 32.0, "SR_15": 1.0}, {"Diff_star": 0.0, "addr": "810 W COLUMBIA ST", "SR_14": 2.0, "Q_14": 1.0, "name": "DECATUR COUNTY HOSPITAL LTCU", "SF_14": 5.0, "SF_15": 5.0, "cnty": "Decatur", "st": "KS", "Zip": 67749.0, "O_14": 2.0, "Q_15": 1.0, "O_15": 2.0, "city": "OBERLIN", "beds": 37.0, "SR_15": 2.0}, {"Diff_star": 0.0, "addr": "709 OAK  PO BOX 188", "SR_14": 2.0, "Q_14": 3.0, "name": "ASHLAND HEALTH CENTER LTCU", "SF_14": 5.0, "SF_15": 5.0, "cnty": "Clark", "st": "KS", "Zip": 67831.0, "O_14": 3.0, "Q_15": 2.0, "O_15": 3.0, "city": "ASHLAND", "beds": 21.0, "SR_15": 2.0}, {"Diff_star": 0.0, "addr": "211 EAST EARL STREET", "SR_14": 5.0, "Q_14": 3.0, "name": "WICHITA COUNTY HEALTH CENTER LTCU", "SF_14": 5.0, "SF_15": 5.0, "cnty": "Wichita", "st": "KS", "Zip": 67861.0, "O_14": 5.0, "Q_15": 4.0, "O_15": 5.0, "city": "LEOTI", "beds": 15.0, "SR_15": 5.0}, {"Diff_star": 0.0, "addr": "330 S VERMONT  PO BOX 268", "SR_14": 1.0, "Q_14": 4.0, "name": "GRISELL MEMORIAL HOSPITAL LTCU", "SF_14": 4.0, "SF_15": 4.0, "cnty": "Ness", "st": "KS", "Zip": 67572.0, "O_14": 2.0, "Q_15": 2.0, "O_15": 2.0, "city": "RANSOM", "beds": 34.0, "SR_15": 1.0}, {"Diff_star": 0.0, "addr": "801 E GRANT", "SR_14": 3.0, "Q_14": 4.0, "name": "MEADE DISTRICT HOSP LTCU DBA LONE TREE RETIREMENT", "SF_14": 5.0, "SF_15": 5.0, "cnty": "Meade", "st": "KS", "Zip": 67864.0, "O_14": 4.0, "Q_15": 2.0, "O_15": 4.0, "city": "MEADE", "beds": 56.0, "SR_15": 3.0}, {"Diff_star": -2.0, "addr": "600 S BROADWAY PO BOX 448", "SR_14": 3.0, "Q_14": 5.0, "name": "PROTECTION VALLEY MANOR", "SF_14": 4.0, "SF_15": 3.0, "cnty": "Comanche", "st": "KS", "Zip": 67127.0, "O_14": 5.0, "Q_15": 3.0, "O_15": 3.0, "city": "PROTECTION", "beds": 50.0, "SR_15": 3.0}, {"Diff_star": 1.0, "addr": "801 LOCUST", "SR_14": 2.0, "Q_14": 4.0, "name": "RUSH COUNTY MEMORIAL HOSPITAL LTCU", "SF_14": 5.0, "SF_15": 5.0, "cnty": "Rush", "st": "KS", "Zip": 67548.0, "O_14": 3.0, "Q_15": 4.0, "O_15": 4.0, "city": "LA CROSSE", "beds": 20.0, "SR_15": 3.0}, {"Diff_star": 0.0, "addr": "200 MAIN", "SR_14": 4.0, "Q_14": 5.0, "name": "HAVILAND CARE CENTER LLC", "SF_14": 2.0, "SF_15": 2.0, "cnty": "Kiowa", "st": "KS", "Zip": 67059.0, "O_14": 5.0, "Q_15": 5.0, "O_15": 5.0, "city": "HAVILAND", "beds": 50.0, "SR_15": 4.0}, {"Diff_star": 0.0, "addr": "510 E SAN JACINTO AVE", "SR_14": 2.0, "Q_14": 4.0, "name": "THE LEGACY AT PARK VIEW", "SF_14": "", "SF_15": "", "cnty": "Grant", "st": "KS", "Zip": 67880.0, "O_14": 2.0, "Q_15": 3.0, "O_15": 2.0, "city": "ULYSSES", "beds": 52.0, "SR_15": 2.0}, {"Diff_star": 0.0, "addr": "506 3RD ST  PO BOX 338", "SR_14": 2.0, "Q_14": 4.0, "name": "GREELEY COUNTY HOSPITAL LTCU", "SF_14": 4.0, "SF_15": 4.0, "cnty": "Greeley", "st": "KS", "Zip": 67879.0, "O_14": 3.0, "Q_15": 3.0, "O_15": 3.0, "city": "TRIBUNE", "beds": 32.0, "SR_15": 2.0}, {"Diff_star": 0.0, "addr": "1625 S FRANKLIN AVE", "SR_14": 3.0, "Q_14": 4.0, "name": "CITIZENS MEDICAL CENTER LTCU", "SF_14": 4.0, "SF_15": 4.0, "cnty": "Thomas", "st": "KS", "Zip": 67701.0, "O_14": 4.0, "Q_15": 4.0, "O_15": 4.0, "city": "COLBY", "beds": 63.0, "SR_15": 3.0}, {"Diff_star": 0.0, "addr": "PO BOX 129", "SR_14": 2.0, "Q_14": 3.0, "name": "GOVE COUNTY MEDICAL CENTER LTCU", "SF_14": 5.0, "SF_15": 5.0, "cnty": "Gove", "st": "KS", "Zip": 67752.0, "O_14": 3.0, "Q_15": 2.0, "O_15": 3.0, "city": "QUINTER", "beds": 43.0, "SR_15": 2.0}, {"Diff_star": 0.0, "addr": "1000 S WASHINGTON ST", "SR_14": 3.0, "Q_14": 4.0, "name": "ROOKS CO SENIOR SERVICES INC DBA REDBUD VILLAGE", "SF_14": 4.0, "SF_15": 4.0, "cnty": "Rooks", "st": "KS", "Zip": 67663.0, "O_14": 4.0, "Q_15": 3.0, "O_15": 4.0, "city": "PLAINVILLE", "beds": 37.0, "SR_15": 3.0}, {"Diff_star": 0.0, "addr": "500 PEABODY", "SR_14": 2.0, "Q_14": 5.0, "name": "WESTVIEW MANOR OF PEABODY", "SF_14": 1.0, "SF_15": 1.0, "cnty": "Marion", "st": "KS", "Zip": 66866.0, "O_14": 2.0, "Q_15": 5.0, "O_15": 2.0, "city": "PEABODY", "beds": 52.0, "SR_15": 2.0}, {"Diff_star": -2.0, "addr": "206 GRAND AVE", "SR_14": 4.0, "Q_14": 2.0, "name": "COMMUNITY HOSPITAL ONAGA LTCU", "SF_14": 5.0, "SF_15": 4.0, "cnty": "Pottawatomie", "st": "KS", "Zip": 66536.0, "O_14": 5.0, "Q_15": 1.0, "O_15": 3.0, "city": "ST MARYS", "beds": 39.0, "SR_15": 3.0}, {"Diff_star": 0.0, "addr": "1301 NE JEFFERSON ST.", "SR_14": 3.0, "Q_14": 5.0, "name": "BRIGHTON PLACE NORTH", "SF_14": 1.0, "SF_15": 1.0, "cnty": "Shawnee", "st": "KS", "Zip": 66608.0, "O_14": 3.0, "Q_15": 5.0, "O_15": 3.0, "city": "TOPEKA", "beds": 34.0, "SR_15": 3.0}, {"Diff_star": 0.0, "addr": "408 DELAWARE ST", "SR_14": 1.0, "Q_14": 3.0, "name": "F W HUSTON MEDICAL CENTER", "SF_14": 2.0, "SF_15": 2.0, "cnty": "Jefferson", "st": "KS", "Zip": 66097.0, "O_14": 1.0, "Q_15": 1.0, "O_15": 1.0, "city": "WINCHESTER", "beds": 43.0, "SR_15": 1.0}, {"Diff_star": 0.0, "addr": "PO BOX 159", "SR_14": 4.0, "Q_14": 4.0, "name": "SATANTA DISTRICT HOSPITAL LTCU", "SF_14": 5.0, "SF_15": 5.0, "cnty": "Haskell", "st": "KS", "Zip": 67870.0, "O_14": 5.0, "Q_15": 3.0, "O_15": 5.0, "city": "SATANTA", "beds": 44.0, "SR_15": 4.0}, {"Diff_star": 0.0, "addr": "215 E 8TH ST", "SR_14": 4.0, "Q_14": 5.0, "name": "OTTAWA COUNTY HEALTH CENTER LTCU", "SF_14": 5.0, "SF_15": 5.0, "cnty": "Ottawa", "st": "KS", "Zip": 67467.0, "O_14": 5.0, "Q_15": 5.0, "O_15": 5.0, "city": "MINNEAPOLIS", "beds": 17.0, "SR_15": 4.0}, {"Diff_star": 0.0, "addr": "243 S SECOND  PO BOX 969", "SR_14": 4.0, "Q_14": 3.0, "name": "LANE COUNTY HOSPITAL LTCU", "SF_14": "", "SF_15": "", "cnty": "Lane", "st": "KS", "Zip": 67839.0, "O_14": 4.0, "Q_15": 2.0, "O_15": 4.0, "city": "DIGHTON", "beds": 14.0, "SR_15": 4.0}, {"Diff_star": 0.0, "addr": "826 EIGHTEENTH  BOX 167", "SR_14": 3.0, "Q_14": 3.0, "name": "SHERIDAN COUNTY HOSPITAL LTCU", "SF_14": "", "SF_15": "", "cnty": "Sheridan", "st": "KS", "Zip": 67740.0, "O_14": 3.0, "Q_15": 3.0, "O_15": 3.0, "city": "HOXIE", "beds": 35.0, "SR_15": 3.0}, {"Diff_star": 0.0, "addr": "404 N CHESTNUT PO BOX 779", "SR_14": 3.0, "Q_14": 3.0, "name": "STANTON COUNTY HEALTH CARE FACILITY LTCU", "SF_14": 5.0, "SF_15": 5.0, "cnty": "Stanton", "st": "KS", "Zip": 67855.0, "O_14": 4.0, "Q_15": 2.0, "O_15": 4.0, "city": "JOHNSON", "beds": 25.0, "SR_15": 3.0}, {"Diff_star": 0.0, "addr": "208 W PROUT ST", "SR_14": 1.0, "Q_14": 1.0, "name": "DAWSON PLACE", "SF_14": 4.0, "SF_15": 4.0, "cnty": "Graham", "st": "KS", "Zip": 67642.0, "O_14": 1.0, "Q_15": 1.0, "O_15": 1.0, "city": "HILL CITY", "beds": 36.0, "SR_15": 1.0}, {"Diff_star": 0.0, "addr": "710 N CHRISTIAN AVE", "SR_14": 5.0, "Q_14": 4.0, "name": "MOUNDRIDGE MANOR", "SF_14": 5.0, "SF_15": 5.0, "cnty": "Mcpherson", "st": "KS", "Zip": 67107.0, "O_14": 5.0, "Q_15": 3.0, "O_15": 5.0, "city": "MOUNDRIDGE", "beds": 77.0, "SR_15": 5.0}, {"Diff_star": 0.0, "addr": "207 CHESTNUT  PO BOX 10", "SR_14": 3.0, "Q_14": 1.0, "name": "MINNEOLA DISTRICT HOSPITAL LTCU", "SF_14": 4.0, "SF_15": 4.0, "cnty": "Clark", "st": "KS", "Zip": 67865.0, "O_14": 3.0, "Q_15": 1.0, "O_15": 3.0, "city": "MINNEOLA", "beds": 36.0, "SR_15": 3.0}, {"Diff_star": 0.0, "addr": "128 S PEARSON AVE", "SR_14": 4.0, "Q_14": 5.0, "name": "COFFEY COUNTY HOSPITAL LTCU", "SF_14": 5.0, "SF_15": 5.0, "cnty": "Coffey", "st": "KS", "Zip": 66871.0, "O_14": 5.0, "Q_15": 5.0, "O_15": 5.0, "city": "WAVERLY", "beds": 42.0, "SR_15": 4.0}, {"Diff_star": 0.0, "addr": "706 N MAIN  PO BOX 249", "SR_14": 3.0, "Q_14": 5.0, "name": "THE SHEPHERD'S CENTER", "SF_14": 5.0, "SF_15": 5.0, "cnty": "Gray", "st": "KS", "Zip": 67835.0, "O_14": 5.0, "Q_15": 5.0, "O_15": 5.0, "city": "CIMARRON", "beds": 25.0, "SR_15": 3.0}, {"Diff_star": 0.0, "addr": "445 N HILLTOP  PO BOX 937", "SR_14": 1.0, "Q_14": 4.0, "name": "MORTON COUNTY HOSPITAL LTCU", "SF_14": 4.0, "SF_15": 4.0, "cnty": "Morton", "st": "KS", "Zip": 67950.0, "O_14": 2.0, "Q_15": 3.0, "O_15": 2.0, "city": "ELKHART", "beds": 80.0, "SR_15": 1.0}, {"Diff_star": 0.0, "addr": "440 SE WOODLAND AVE", "SR_14": 4.0, "Q_14": 5.0, "name": "COUNTRYSIDE HEALTH CENTER", "SF_14": 5.0, "SF_15": 5.0, "cnty": "Shawnee", "st": "KS", "Zip": 66607.0, "O_14": 5.0, "Q_15": 5.0, "O_15": 5.0, "city": "TOPEKA", "beds": 82.0, "SR_15": 4.0}, {"Diff_star": -1.0, "addr": "607 COURT PL", "SR_14": 4.0, "Q_14": 3.0, "name": "KEARNY COUNTY HOSPITAL LTCU", "SF_14": 5.0, "SF_15": 5.0, "cnty": "Kearny", "st": "KS", "Zip": 67860.0, "O_14": 5.0, "Q_15": 1.0, "O_15": 4.0, "city": "LAKIN", "beds": 40.0, "SR_15": 4.0}, {"Diff_star": 0.0, "addr": "302 N BOTKIN", "SR_14": 1.0, "Q_14": 4.0, "name": "ATTICA LONG TERM CARE FACILITY", "SF_14": 5.0, "SF_15": 5.0, "cnty": "Harper", "st": "KS", "Zip": 67009.0, "O_14": 2.0, "Q_15": 2.0, "O_15": 2.0, "city": "ATTICA", "beds": 57.0, "SR_15": 1.0}, {"Diff_star": 0.0, "addr": "1711 S MAIN", "SR_14": 2.0, "Q_14": 3.0, "name": "STEVENS COUNTY HOSPITAL LTCU DBA PIONEER MANOR", "SF_14": 2.0, "SF_15": 2.0, "cnty": "Stevens", "st": "KS", "Zip": 67951.0, "O_14": 2.0, "Q_15": 2.0, "O_15": 2.0, "city": "HUGOTON", "beds": 83.0, "SR_15": 2.0}, {"Diff_star": 0.0, "addr": "421 S MAPLE ST-PO BOX 309", "SR_14": 5.0, "Q_14": 5.0, "name": "ANDERSON COUNTY HOSPITAL LTCU", "SF_14": 5.0, "SF_15": 5.0, "cnty": "Anderson", "st": "KS", "Zip": 66032.0, "O_14": 5.0, "Q_15": 5.0, "O_15": 5.0, "city": "GARNETT", "beds": 30.0, "SR_15": 5.0}, {"Diff_star": 0.0, "addr": "300 W 3RD  PO BOX 487", "SR_14": 2.0, "Q_14": 4.0, "name": "PIONEER LODGE", "SF_14": 5.0, "SF_15": 5.0, "cnty": "Comanche", "st": "KS", "Zip": 67029.0, "O_14": 3.0, "Q_15": 2.0, "O_15": 3.0, "city": "COLDWATER", "beds": 28.0, "SR_15": 2.0}, {"Diff_star": 0.0, "addr": "801 S 8TH", "SR_14": 5.0, "Q_14": 5.0, "name": "DOOLEY CENTER", "SF_14": 5.0, "SF_15": 5.0, "cnty": "Atchison", "st": "KS", "Zip": 66002.0, "O_14": 5.0, "Q_15": 5.0, "O_15": 5.0, "city": "ATCHISON", "beds": 46.0, "SR_15": 5.0}, {"Diff_star": -2.0, "addr": "716 TWEED ST", "SR_14": 2.0, "Q_14": 2.0, "name": "CUMBERNAULD VILLAGE", "SF_14": 4.0, "SF_15": 3.0, "cnty": "Cowley", "st": "KS", "Zip": 67156.0, "O_14": 3.0, "Q_15": 1.0, "O_15": 1.0, "city": "WINFIELD", "beds": 42.0, "SR_15": 2.0}, {"Diff_star": 0.0, "addr": "400 12TH STREET PO BOX 189", "SR_14": 3.0, "Q_14": 5.0, "name": "VALLEY HEALTH CARE CENTER", "SF_14": 5.0, "SF_15": 5.0, "cnty": "Jefferson", "st": "KS", "Zip": 66088.0, "O_14": 5.0, "Q_15": 5.0, "O_15": 5.0, "city": "VALLEY FALLS", "beds": 39.0, "SR_15": 3.0}, {"Diff_star": 0.0, "addr": "1020 MAIN STREET", "SR_14": 2.0, "Q_14": 4.0, "name": "KIOWA HOSPITAL DISTRICT MANOR", "SF_14": 5.0, "SF_15": 5.0, "cnty": "Barber", "st": "KS", "Zip": 67070.0, "O_14": 3.0, "Q_15": 2.0, "O_15": 3.0, "city": "KIOWA", "beds": 29.0, "SR_15": 2.0}, {"Diff_star": 0.0, "addr": "615 S HIGH ST", "SR_14": 1.0, "Q_14": 3.0, "name": "CANEY NURSING CENTER", "SF_14": 5.0, "SF_15": 5.0, "cnty": "Montgomery", "st": "KS", "Zip": 67333.0, "O_14": 2.0, "Q_15": 2.0, "O_15": 2.0, "city": "CANEY", "beds": 45.0, "SR_15": 1.0}, {"Diff_star": -1.0, "addr": "615 PRICE AVE", "SR_14": 3.0, "Q_14": 2.0, "name": "LOGAN COUNTY MANOR - LTCU", "SF_14": 5.0, "SF_15": 5.0, "cnty": "Logan", "st": "KS", "Zip": 67748.0, "O_14": 4.0, "Q_15": 1.0, "O_15": 3.0, "city": "OAKLEY", "beds": 45.0, "SR_15": 3.0}, {"Diff_star": -1.0, "addr": "200 SOUTH MAIN STREET", "SR_14": 5.0, "Q_14": 2.0, "name": "RUSSELL REGIONAL HOSPITAL LTCU", "SF_14": 4.0, "SF_15": 4.0, "cnty": "Russell", "st": "KS", "Zip": 67665.0, "O_14": 5.0, "Q_15": 1.0, "O_15": 4.0, "city": "RUSSELL", "beds": 21.0, "SR_15": 5.0}, {"Diff_star": 0.0, "addr": "312 CUSTER", "SR_14": 3.0, "Q_14": 1.0, "name": "NESS COUNTY HOSPITAL LTCU DBA CEDAR VILLAGE", "SF_14": 4.0, "SF_15": 4.0, "cnty": "Ness", "st": "KS", "Zip": 67560.0, "O_14": 3.0, "Q_15": 1.0, "O_15": 3.0, "city": "NESS CITY", "beds": 43.0, "SR_15": 3.0}, {"Diff_star": -1.0, "addr": "809 BRAMLEY  PO BOX 367", "SR_14": 4.0, "Q_14": 2.0, "name": "HODGEMAN COUNTY HEALTH CENTER LTCU", "SF_14": 5.0, "SF_15": 5.0, "cnty": "Hodgeman", "st": "KS", "Zip": 67854.0, "O_14": 5.0, "Q_15": 1.0, "O_15": 4.0, "city": "JETMORE", "beds": 25.0, "SR_15": 4.0}, {"Diff_star": 0.0, "addr": "2622 W CENTRAL AVE", "SR_14": 2.0, "Q_14": 1.0, "name": "VIA CHRISTI HOPE HEALTH CENTER", "SF_14": 5.0, "SF_15": 5.0, "cnty": "Sedgwick", "st": "KS", "Zip": 67203.0, "O_14": 2.0, "Q_15": 1.0, "O_15": 2.0, "city": "WICHITA", "beds": 24.0, "SR_15": 2.0}, {"Diff_star": 0.0, "addr": "212 N 5TH AVE", "SR_14": 1.0, "Q_14": 3.0, "name": "ANTHONY COMMUNITY CARE CENTER", "SF_14": 4.0, "SF_15": 4.0, "cnty": "Harper", "st": "KS", "Zip": 67003.0, "O_14": 2.0, "Q_15": 2.0, "O_15": 2.0, "city": "ANTHONY", "beds": 40.0, "SR_15": 1.0}, {"Diff_star": 0.0, "addr": "1336 N WALNUT ROAD E", "SR_14": 1.0, "Q_14": 1.0, "name": "IOLA NURSING & RESIDENTIAL CARE CENTER", "SF_14": 4.0, "SF_15": 4.0, "cnty": "Allen", "st": "KS", "Zip": 66749.0, "O_14": 1.0, "Q_15": 1.0, "O_15": 1.0, "city": "IOLA", "beds": 44.0, "SR_15": 1.0}, {"Diff_star": 0.0, "addr": "315 S ASH ST", "SR_14": 4.0, "Q_14": 3.0, "name": "SOLOMON VALLEY MANOR", "SF_14": 4.0, "SF_15": 3.0, "cnty": "Rooks", "st": "KS", "Zip": 67669.0, "O_14": 4.0, "Q_15": 2.0, "O_15": 4.0, "city": "STOCKTON", "beds": 33.0, "SR_15": 4.0}, {"Diff_star": 0.0, "addr": "201 E FLAMING RD", "SR_14": 3.0, "Q_14": 5.0, "name": "ROYAL TERRACE NURSING & REHABILITATION CENTER", "SF_14": 4.0, "SF_15": 4.0, "cnty": "Johnson", "st": "KS", "Zip": 66061.0, "O_14": 5.0, "Q_15": 5.0, "O_15": 5.0, "city": "OLATHE", "beds": 147.0, "SR_15": 3.0}, {"Diff_star": 0.0, "addr": "14200 W 134TH PLACE", "SR_14": "", "Q_14": "", "name": "NOTTINGHAM HEALTH AND REHABILITATION", "SF_14": "", "SF_15": "", "cnty": "Johnson", "st": "KS", "Zip": 66062.0, "O_14": "", "Q_15": "", "O_15": "", "city": "OLATHE", "beds": 80.0, "SR_15": ""}]