[{"Diff_star": 0.0, "addr": "208 WEST TWELFTH STREET", "SR_14": 4.0, "Q_14": 5.0, "name": "LAUREL HEIGHTS HOME FOR THE ELDERLY", "SF_14": 4.0, "SF_15": 4.0, "cnty": "Laurel", "st": "KY", "Zip": 40743.0, "O_14": 5.0, "Q_15": 5.0, "O_15": 5.0, "city": "LONDON", "beds": 160.0, "SR_15": 4.0}, {"Diff_star": 0.0, "addr": "1401 SOUTH 16TH STREET", "SR_14": 1.0, "Q_14": 2.0, "name": "SPRING CREEK HEALTH CARE", "SF_14": 3.0, "SF_15": 3.0, "cnty": "Calloway", "st": "KY", "Zip": 42071.0, "O_14": 1.0, "Q_15": 1.0, "O_15": 1.0, "city": "MURRAY", "beds": 226.0, "SR_15": 1.0}, {"Diff_star": -1.0, "addr": "201 SOUTH WARREN STREET", "SR_14": 4.0, "Q_14": 5.0, "name": "MORGANTOWN CARE & REHABILITATION CENTER", "SF_14": 3.0, "SF_15": 3.0, "cnty": "Butler", "st": "KY", "Zip": 42261.0, "O_14": 5.0, "Q_15": 4.0, "O_15": 4.0, "city": "MORGANTOWN", "beds": 122.0, "SR_15": 4.0}, {"Diff_star": 0.0, "addr": "440 HOPKINSVILLE ST.", "SR_14": 3.0, "Q_14": 4.0, "name": "MUHLENBERG COMMUNITY HOSPITAL", "SF_14": 5.0, "SF_15": 5.0, "cnty": "Muhlenberg", "st": "KY", "Zip": 42345.0, "O_14": 4.0, "Q_15": 3.0, "O_15": 4.0, "city": "GREENVILLE", "beds": 45.0, "SR_15": 3.0}, {"Diff_star": 0.0, "addr": "1500 PRIDE AVENUE", "SR_14": 3.0, "Q_14": 1.0, "name": "HILLSIDE CENTER", "SF_14": 2.0, "SF_15": 2.0, "cnty": "Hopkins", "st": "KY", "Zip": 42431.0, "O_14": 2.0, "Q_15": 1.0, "O_15": 2.0, "city": "MADISONVILLE", "beds": 71.0, "SR_15": 3.0}, {"Diff_star": -1.0, "addr": "55 EAST NORTH STREET", "SR_14": 1.0, "Q_14": 3.0, "name": "BRIGHTON CORNERSTONE HEALTH CARE", "SF_14": 4.0, "SF_15": 4.0, "cnty": "Hopkins", "st": "KY", "Zip": 42431.0, "O_14": 2.0, "Q_15": 1.0, "O_15": 1.0, "city": "MADISONVILLE", "beds": 66.0, "SR_15": 1.0}, {"Diff_star": 0.0, "addr": "419 NORTH SEMINARY ST", "SR_14": 1.0, "Q_14": 4.0, "name": "NHC HEALTHCARE, MADISONVILLE", "SF_14": 3.0, "SF_15": 3.0, "cnty": "Hopkins", "st": "KY", "Zip": 42431.0, "O_14": 1.0, "Q_15": 4.0, "O_15": 1.0, "city": "MADISONVILLE", "beds": 94.0, "SR_15": 1.0}, {"Diff_star": 0.0, "addr": "2323 CONCRETE ROAD", "SR_14": 3.0, "Q_14": 3.0, "name": "JOHNSON MATHERS NURSING HOME", "SF_14": 3.0, "SF_15": 3.0, "cnty": "Nicholas", "st": "KY", "Zip": 40311.0, "O_14": 3.0, "Q_15": 2.0, "O_15": 3.0, "city": "CARLISLE", "beds": 104.0, "SR_15": 3.0}, {"Diff_star": -1.0, "addr": "920 SOUTH FOURTH STREET", "SR_14": 3.0, "Q_14": 5.0, "name": "CHRISTIAN HEALTH CENTER", "SF_14": 3.0, "SF_15": 3.0, "cnty": "Jefferson", "st": "KY", "Zip": 40203.0, "O_14": 4.0, "Q_15": 4.0, "O_15": 3.0, "city": "LOUISVILLE", "beds": 122.0, "SR_15": 3.0}, {"Diff_star": 0.0, "addr": "401 EAST 20TH STREET", "SR_14": 4.0, "Q_14": 4.0, "name": "PROVIDENCE PAVILION", "SF_14": 3.0, "SF_15": 3.0, "cnty": "Kenton", "st": "KY", "Zip": 41014.0, "O_14": 4.0, "Q_15": 3.0, "O_15": 4.0, "city": "COVINGTON", "beds": 82.0, "SR_15": 4.0}, {"Diff_star": -1.0, "addr": "1705 STEVENS AVENUE", "SR_14": 3.0, "Q_14": 5.0, "name": "HIGHLANDS HEALTH AND REHABILITATION CENTER", "SF_14": 2.0, "SF_15": 2.0, "cnty": "Jefferson", "st": "KY", "Zip": 40205.0, "O_14": 4.0, "Q_15": 3.0, "O_15": 3.0, "city": "LOUISVILLE", "beds": 154.0, "SR_15": 3.0}, {"Diff_star": 0.0, "addr": "640 WATER TOWER BYPASS", "SR_14": 5.0, "Q_14": 4.0, "name": "THE GRANDVIEW A NURSING & REHABILITATION FACILITY", "SF_14": 4.0, "SF_15": 3.0, "cnty": "Taylor", "st": "KY", "Zip": 42719.0, "O_14": 5.0, "Q_15": 2.0, "O_15": 5.0, "city": "CAMPBELLSVILLE", "beds": 81.0, "SR_15": 5.0}, {"Diff_star": -2.0, "addr": "509 NORTH HAYDEN AVE.", "SR_14": 3.0, "Q_14": 3.0, "name": "SALEM SPRINGLAKE HEALTH & REHABILITATION CENTER", "SF_14": 4.0, "SF_15": 3.0, "cnty": "Livingston", "st": "KY", "Zip": 42078.0, "O_14": 4.0, "Q_15": 1.0, "O_15": 2.0, "city": "SALEM", "beds": 75.0, "SR_15": 3.0}, {"Diff_star": -1.0, "addr": "1004 HOLIDAY LANE", "SR_14": 2.0, "Q_14": 2.0, "name": "HAWS MEMORIAL NURSING & REHAB CENTER", "SF_14": 3.0, "SF_15": 3.0, "cnty": "Fulton", "st": "KY", "Zip": 42041.0, "O_14": 2.0, "Q_15": 1.0, "O_15": 1.0, "city": "FULTON", "beds": 60.0, "SR_15": 2.0}, {"Diff_star": 0.0, "addr": "2365 NASHVILLE ROAD", "SR_14": 4.0, "Q_14": 4.0, "name": "COLONIAL CENTER", "SF_14": 4.0, "SF_15": 4.0, "cnty": "Warren", "st": "KY", "Zip": 42101.0, "O_14": 4.0, "Q_15": 3.0, "O_15": 4.0, "city": "BOWLING GREEN", "beds": 48.0, "SR_15": 4.0}, {"Diff_star": -1.0, "addr": "139 PEARL ST.", "SR_14": 3.0, "Q_14": 3.0, "name": "AUBURN HEALTH CARE", "SF_14": 3.0, "SF_15": 3.0, "cnty": "Logan", "st": "KY", "Zip": 42206.0, "O_14": 3.0, "Q_15": 1.0, "O_15": 2.0, "city": "AUBURN", "beds": 66.0, "SR_15": 3.0}, {"Diff_star": 0.0, "addr": "400 BOMAR HEIGHTS", "SR_14": 2.0, "Q_14": 2.0, "name": "SUMMIT MANOR HEALTH & REHABILITATION CENTER", "SF_14": 3.0, "SF_15": 3.0, "cnty": "Adair", "st": "KY", "Zip": 42728.0, "O_14": 2.0, "Q_15": 2.0, "O_15": 2.0, "city": "COLUMBIA", "beds": 104.0, "SR_15": 2.0}, {"Diff_star": -1.0, "addr": "717 NORTH LINCOLN BLVD", "SR_14": 3.0, "Q_14": 5.0, "name": "SUNRISE MANOR NURSING HOME", "SF_14": 4.0, "SF_15": 3.0, "cnty": "Larue", "st": "KY", "Zip": 42748.0, "O_14": 5.0, "Q_15": 5.0, "O_15": 4.0, "city": "HODGENVILLE", "beds": 137.0, "SR_15": 3.0}, {"Diff_star": 0.0, "addr": "120 MAIN STREET", "SR_14": 3.0, "Q_14": 4.0, "name": "BAPTIST CONVALESCENT CENTER", "SF_14": 1.0, "SF_15": 1.0, "cnty": "Campbell", "st": "KY", "Zip": 41071.0, "O_14": 2.0, "Q_15": 3.0, "O_15": 2.0, "city": "NEWPORT", "beds": 167.0, "SR_15": 3.0}, {"Diff_star": 0.0, "addr": "130 MEADOWLARK DRIVE", "SR_14": 5.0, "Q_14": 4.0, "name": "KENWOOD HEALTH AND REHABILITATION CENTER", "SF_14": 3.0, "SF_15": 3.0, "cnty": "Madison", "st": "KY", "Zip": 40475.0, "O_14": 5.0, "Q_15": 2.0, "O_15": 5.0, "city": "RICHMOND", "beds": 93.0, "SR_15": 5.0}, {"Diff_star": 1.0, "addr": "308 WEST MAPLE AVENUE", "SR_14": 4.0, "Q_14": 4.0, "name": "CHRISTIAN CARE CENTER OF LANCASTER", "SF_14": 1.0, "SF_15": 1.0, "cnty": "Garrard", "st": "KY", "Zip": 40444.0, "O_14": 3.0, "Q_15": 2.0, "O_15": 4.0, "city": "LANCASTER", "beds": 96.0, "SR_15": 5.0}, {"Diff_star": -1.0, "addr": "3300 TATES CREEK ROAD", "SR_14": 4.0, "Q_14": 5.0, "name": "MAYFAIR MANOR", "SF_14": 3.0, "SF_15": 3.0, "cnty": "Fayette", "st": "KY", "Zip": 40502.0, "O_14": 5.0, "Q_15": 3.0, "O_15": 4.0, "city": "LEXINGTON", "beds": 98.0, "SR_15": 4.0}, {"Diff_star": -1.0, "addr": "950 HIGHPOINT DR.", "SR_14": 3.0, "Q_14": 3.0, "name": "BRADFORD HEIGHTS HEALTH & REHAB CENTER, INC", "SF_14": 4.0, "SF_15": 3.0, "cnty": "Christian", "st": "KY", "Zip": 42240.0, "O_14": 4.0, "Q_15": 2.0, "O_15": 3.0, "city": "HOPKINSVILLE", "beds": 100.0, "SR_15": 3.0}, {"Diff_star": 0.0, "addr": "2420 W. 3RD ST.", "SR_14": 2.0, "Q_14": 3.0, "name": "TWIN RIVERS NURSING AND REHAB CENTER", "SF_14": 3.0, "SF_15": 3.0, "cnty": "Daviess", "st": "KY", "Zip": 42301.0, "O_14": 2.0, "Q_15": 2.0, "O_15": 2.0, "city": "OWENSBORO", "beds": 130.0, "SR_15": 2.0}, {"Diff_star": 0.0, "addr": "550 HIGH ST.", "SR_14": 1.0, "Q_14": 4.0, "name": "SIGNATURE HEALTHCARE OF BOWLING GREEN", "SF_14": 3.0, "SF_15": 3.0, "cnty": "Warren", "st": "KY", "Zip": 42101.0, "O_14": 1.0, "Q_15": 2.0, "O_15": 1.0, "city": "BOWLING GREEN", "beds": 176.0, "SR_15": 1.0}, {"Diff_star": 0.0, "addr": "7300 WOODSPOINT DRIVE", "SR_14": 1.0, "Q_14": 2.0, "name": "BRIDGE POINT CENTER", "SF_14": 1.0, "SF_15": 1.0, "cnty": "Boone", "st": "KY", "Zip": 41042.0, "O_14": 1.0, "Q_15": 1.0, "O_15": 1.0, "city": "FLORENCE", "beds": 151.0, "SR_15": 1.0}, {"Diff_star": 0.0, "addr": "109  HOMEWOOD BLVD.", "SR_14": 1.0, "Q_14": 4.0, "name": "NHC HEALTHCARE, GLASGOW", "SF_14": 3.0, "SF_15": 3.0, "cnty": "Barren", "st": "KY", "Zip": 42141.0, "O_14": 1.0, "Q_15": 3.0, "O_15": 1.0, "city": "GLASGOW", "beds": 194.0, "SR_15": 1.0}, {"Diff_star": 0.0, "addr": "260 SOUTH MAYO TRAIL", "SR_14": 1.0, "Q_14": 3.0, "name": "SIGNATURE HEALTHCARE OF PIKEVILLE", "SF_14": 2.0, "SF_15": 2.0, "cnty": "Pike", "st": "KY", "Zip": 41501.0, "O_14": 1.0, "Q_15": 1.0, "O_15": 1.0, "city": "PIKEVILLE", "beds": 106.0, "SR_15": 1.0}, {"Diff_star": 0.0, "addr": "3116 BRECKINRIDGE LANE", "SR_14": 1.0, "Q_14": 4.0, "name": "GOLDEN LIVINGCENTER - HILLCREEK", "SF_14": 4.0, "SF_15": 4.0, "cnty": "Jefferson", "st": "KY", "Zip": 40220.0, "O_14": 2.0, "Q_15": 3.0, "O_15": 2.0, "city": "LOUISVILLE", "beds": 172.0, "SR_15": 1.0}, {"Diff_star": 0.0, "addr": "900 GAGEL AVENUE", "SR_14": 4.0, "Q_14": 4.0, "name": "GEORGETOWN MANOR", "SF_14": 4.0, "SF_15": 4.0, "cnty": "Jefferson", "st": "KY", "Zip": 40216.0, "O_14": 4.0, "Q_15": 2.0, "O_15": 4.0, "city": "LOUISVILLE", "beds": 120.0, "SR_15": 4.0}, {"Diff_star": 0.0, "addr": "1043 BROOKLYN BOULEVARD", "SR_14": 5.0, "Q_14": 5.0, "name": "THE TERRACE NURSING & REHABILITATION CENTER", "SF_14": 4.0, "SF_15": 4.0, "cnty": "Madison", "st": "KY", "Zip": 40403.0, "O_14": 5.0, "Q_15": 5.0, "O_15": 5.0, "city": "BEREA", "beds": 102.0, "SR_15": 5.0}, {"Diff_star": -1.0, "addr": "420 JETT DRIVE", "SR_14": 2.0, "Q_14": 4.0, "name": "NIM HENSON GERIATRIC CENTER", "SF_14": 4.0, "SF_15": 4.0, "cnty": "Breathitt", "st": "KY", "Zip": 41339.0, "O_14": 3.0, "Q_15": 1.0, "O_15": 2.0, "city": "JACKSON", "beds": 120.0, "SR_15": 2.0}, {"Diff_star": 0.0, "addr": "1117 WOODLAND DRIVE", "SR_14": 4.0, "Q_14": 4.0, "name": "SIGNATURE HEALTHCARE OF ELIZABETHTOWN", "SF_14": 3.0, "SF_15": 3.0, "cnty": "Hardin", "st": "KY", "Zip": 42701.0, "O_14": 4.0, "Q_15": 3.0, "O_15": 4.0, "city": "ELIZABETHTOWN", "beds": 112.0, "SR_15": 4.0}, {"Diff_star": 0.0, "addr": "3740 OLD HARTFORD RD", "SR_14": 1.0, "Q_14": 3.0, "name": "SIGNATURE HEALTHCARE AT HILLCREST", "SF_14": 3.0, "SF_15": 3.0, "cnty": "Daviess", "st": "KY", "Zip": 42303.0, "O_14": 1.0, "Q_15": 1.0, "O_15": 1.0, "city": "OWENSBORO", "beds": 156.0, "SR_15": 2.0}, {"Diff_star": 0.0, "addr": "1155 EASTERN PARKWAY", "SR_14": 3.0, "Q_14": 4.0, "name": "PARKWAY MEDICAL CENTER", "SF_14": 4.0, "SF_15": 4.0, "cnty": "Jefferson", "st": "KY", "Zip": 40217.0, "O_14": 4.0, "Q_15": 3.0, "O_15": 4.0, "city": "LOUISVILLE", "beds": 252.0, "SR_15": 3.0}, {"Diff_star": -1.0, "addr": "851 KIMSEY LANE", "SR_14": 3.0, "Q_14": 2.0, "name": "REDBANKS", "SF_14": 4.0, "SF_15": 4.0, "cnty": "Henderson", "st": "KY", "Zip": 42420.0, "O_14": 4.0, "Q_15": 1.0, "O_15": 3.0, "city": "HENDERSON", "beds": 222.0, "SR_15": 3.0}, {"Diff_star": -1.0, "addr": "1245 AMERICAN GREETING ROAD", "SR_14": 4.0, "Q_14": 4.0, "name": "HILLCREST HEALTH & REHABILITATION CENTER", "SF_14": 4.0, "SF_15": 1.0, "cnty": "Whitley", "st": "KY", "Zip": 40702.0, "O_14": 4.0, "Q_15": 3.0, "O_15": 3.0, "city": "CORBIN", "beds": 120.0, "SR_15": 4.0}, {"Diff_star": 0.0, "addr": "642 NORTH THIRD STREET", "SR_14": 3.0, "Q_14": 5.0, "name": "DANVILLE CENTRE FOR HEALTH AND REHABILITATION", "SF_14": 3.0, "SF_15": 3.0, "cnty": "Boyle", "st": "KY", "Zip": 40422.0, "O_14": 4.0, "Q_15": 5.0, "O_15": 4.0, "city": "DANVILLE", "beds": 106.0, "SR_15": 3.0}, {"Diff_star": 0.0, "addr": "270 E CLAYTON LN", "SR_14": 4.0, "Q_14": 2.0, "name": "THE JORDAN CENTER", "SF_14": 3.0, "SF_15": 3.0, "cnty": "Lawrence", "st": "KY", "Zip": 41230.0, "O_14": 4.0, "Q_15": 2.0, "O_15": 4.0, "city": "LOUISA", "beds": 104.0, "SR_15": 4.0}, {"Diff_star": -1.0, "addr": "3625 FERN VALLEY ROAD", "SR_14": 2.0, "Q_14": 5.0, "name": "FRANCISCAN HEALTH CARE CENTER", "SF_14": 4.0, "SF_15": 4.0, "cnty": "Jefferson", "st": "KY", "Zip": 40219.0, "O_14": 4.0, "Q_15": 4.0, "O_15": 3.0, "city": "LOUISVILLE", "beds": 85.0, "SR_15": 2.0}, {"Diff_star": -1.0, "addr": "100 W. RAMSEY", "SR_14": 2.0, "Q_14": 4.0, "name": "TRADEWATER POINTE", "SF_14": 4.0, "SF_15": 3.0, "cnty": "Hopkins", "st": "KY", "Zip": 42408.0, "O_14": 3.0, "Q_15": 2.0, "O_15": 2.0, "city": "DAWSON SPRINGS", "beds": 60.0, "SR_15": 2.0}, {"Diff_star": 0.0, "addr": "390 PARK AVENUE", "SR_14": 2.0, "Q_14": 2.0, "name": "HAZARD HEALTH & REHABILITATION CENTER", "SF_14": 1.0, "SF_15": 1.0, "cnty": "Perry", "st": "KY", "Zip": 41702.0, "O_14": 1.0, "Q_15": 1.0, "O_15": 1.0, "city": "HAZARD", "beds": 200.0, "SR_15": 3.0}, {"Diff_star": -1.0, "addr": "5012 EAST MANSLICK RD", "SR_14": 4.0, "Q_14": 5.0, "name": "WESLEY MANOR", "SF_14": 4.0, "SF_15": 4.0, "cnty": "Jefferson", "st": "KY", "Zip": 40219.0, "O_14": 5.0, "Q_15": 4.0, "O_15": 4.0, "city": "LOUISVILLE", "beds": 68.0, "SR_15": 4.0}, {"Diff_star": 0.0, "addr": "2116 BUECHEL BANK ROAD", "SR_14": 2.0, "Q_14": 5.0, "name": "WESTMINSTER TERRACE", "SF_14": 1.0, "SF_15": 1.0, "cnty": "Jefferson", "st": "KY", "Zip": 40218.0, "O_14": 2.0, "Q_15": 5.0, "O_15": 2.0, "city": "LOUISVILLE", "beds": 112.0, "SR_15": 2.0}, {"Diff_star": 0.0, "addr": "2000 NEWBURG ROAD", "SR_14": 5.0, "Q_14": 5.0, "name": "NAZARETH HOME", "SF_14": 4.0, "SF_15": 4.0, "cnty": "Jefferson", "st": "KY", "Zip": 40205.0, "O_14": 5.0, "Q_15": 5.0, "O_15": 5.0, "city": "LOUISVILLE", "beds": 118.0, "SR_15": 5.0}, {"Diff_star": 0.0, "addr": "102 POCAHONTAS TRAIL", "SR_14": 2.0, "Q_14": 5.0, "name": "SIGNATURE HEALTHCARE OF GEORGETOWN", "SF_14": 3.0, "SF_15": 3.0, "cnty": "Scott", "st": "KY", "Zip": 40324.0, "O_14": 3.0, "Q_15": 5.0, "O_15": 3.0, "city": "GEORGETOWN", "beds": 65.0, "SR_15": 2.0}, {"Diff_star": 0.0, "addr": "401 INDIANA AVE", "SR_14": 1.0, "Q_14": 3.0, "name": "HERITAGE MANOR HEALTH CARE CENTER", "SF_14": 2.0, "SF_15": 2.0, "cnty": "Graves", "st": "KY", "Zip": 42066.0, "O_14": 1.0, "Q_15": 1.0, "O_15": 1.0, "city": "MAYFIELD", "beds": 100.0, "SR_15": 1.0}, {"Diff_star": -1.0, "addr": "1608 VERSAILLES ROAD", "SR_14": 3.0, "Q_14": 5.0, "name": "PROVIDENCE HOMESTEAD", "SF_14": 4.0, "SF_15": 4.0, "cnty": "Fayette", "st": "KY", "Zip": 40504.0, "O_14": 5.0, "Q_15": 4.0, "O_15": 4.0, "city": "LEXINGTON", "beds": 136.0, "SR_15": 3.0}, {"Diff_star": 0.0, "addr": "1217 US HIGHWAY 62 E", "SR_14": 4.0, "Q_14": 4.0, "name": "CEDAR RIDGE HEALTH CAMPUS", "SF_14": 2.0, "SF_15": 2.0, "cnty": "Harrison", "st": "KY", "Zip": 41031.0, "O_14": 4.0, "Q_15": 2.0, "O_15": 4.0, "city": "CYNTHIANA", "beds": 53.0, "SR_15": 4.0}, {"Diff_star": -1.0, "addr": "200 GLENWAY ROAD", "SR_14": 1.0, "Q_14": 4.0, "name": "FOUNTAIN CIRCLE CARE & REHABILITATION CENTER", "SF_14": 4.0, "SF_15": 3.0, "cnty": "Clark", "st": "KY", "Zip": 40391.0, "O_14": 2.0, "Q_15": 2.0, "O_15": 1.0, "city": "WINCHESTER", "beds": 179.0, "SR_15": 1.0}, {"Diff_star": -1.0, "addr": "200 STERLING DR.", "SR_14": 4.0, "Q_14": 5.0, "name": "CHRISTIAN HEALTH CENTER", "SF_14": 4.0, "SF_15": 4.0, "cnty": "Christian", "st": "KY", "Zip": 42240.0, "O_14": 5.0, "Q_15": 3.0, "O_15": 4.0, "city": "HOPKINSVILLE", "beds": 112.0, "SR_15": 4.0}, {"Diff_star": 0.0, "addr": "287 N ELEVENTH ST", "SR_14": 4.0, "Q_14": 4.0, "name": "WILLIAMSBURG HEALTH AND REHABILITATION CENTER", "SF_14": 3.0, "SF_15": 3.0, "cnty": "Whitley", "st": "KY", "Zip": 40769.0, "O_14": 4.0, "Q_15": 3.0, "O_15": 4.0, "city": "WILLIAMSBURG", "beds": 125.0, "SR_15": 4.0}, {"Diff_star": -1.0, "addr": "120 LIFE CARE WAY", "SR_14": 3.0, "Q_14": 3.0, "name": "LIFE CARE CENTER OF BARDSTOWN", "SF_14": 2.0, "SF_15": 2.0, "cnty": "Nelson", "st": "KY", "Zip": 40004.0, "O_14": 3.0, "Q_15": 1.0, "O_15": 2.0, "city": "BARDSTOWN", "beds": 100.0, "SR_15": 3.0}, {"Diff_star": 0.0, "addr": "388 PERKINS MADDEN ROAD", "SR_14": 5.0, "Q_14": 4.0, "name": "KNOTT COUNTY HEALTH & REHABILITATION CENTER", "SF_14": 2.0, "SF_15": 2.0, "cnty": "Knott", "st": "KY", "Zip": 41822.0, "O_14": 5.0, "Q_15": 3.0, "O_15": 5.0, "city": "HINDMAN", "beds": 92.0, "SR_15": 5.0}, {"Diff_star": -1.0, "addr": "79 SPARROW LANE", "SR_14": 4.0, "Q_14": 5.0, "name": "RIVERVIEW HEALTH CARE CENTER", "SF_14": 1.0, "SF_15": 1.0, "cnty": "Floyd", "st": "KY", "Zip": 41653.0, "O_14": 4.0, "Q_15": 4.0, "O_15": 3.0, "city": "PRESTONSBURG", "beds": 121.0, "SR_15": 4.0}, {"Diff_star": -1.0, "addr": "555 BOURNE AVENUE", "SR_14": 1.0, "Q_14": 5.0, "name": "SOMERWOODS NURSING & REHABILITATION CENTER", "SF_14": 4.0, "SF_15": 3.0, "cnty": "Pulaski", "st": "KY", "Zip": 42501.0, "O_14": 2.0, "Q_15": 2.0, "O_15": 1.0, "city": "SOMERSET", "beds": 166.0, "SR_15": 1.0}, {"Diff_star": 0.0, "addr": "1100 EAST MARKET STREET", "SR_14": 5.0, "Q_14": 5.0, "name": "HOME OF THE INNOCENTS", "SF_14": 5.0, "SF_15": 5.0, "cnty": "Jefferson", "st": "KY", "Zip": 40206.0, "O_14": 5.0, "Q_15": 4.0, "O_15": 5.0, "city": "LOUISVILLE", "beds": 76.0, "SR_15": 4.0}, {"Diff_star": 0.0, "addr": "933 NORTH TOLLIVER ROAD", "SR_14": 2.0, "Q_14": 3.0, "name": "LIFE CARE CENTER OF MOREHEAD", "SF_14": 1.0, "SF_15": 1.0, "cnty": "Rowan", "st": "KY", "Zip": 40351.0, "O_14": 1.0, "Q_15": 1.0, "O_15": 1.0, "city": "MOREHEAD", "beds": 97.0, "SR_15": 2.0}, {"Diff_star": -1.0, "addr": "145 NEWCOMB AVENUE", "SR_14": 5.0, "Q_14": 3.0, "name": "ROCKCASTLE REGIONAL HOSPITAL AND RESPIRATORY CARE", "SF_14": 5.0, "SF_15": 5.0, "cnty": "Rockcastle", "st": "KY", "Zip": 40456.0, "O_14": 5.0, "Q_15": 1.0, "O_15": 4.0, "city": "MOUNT VERNON", "beds": 93.0, "SR_15": 5.0}, {"Diff_star": -1.0, "addr": "117 OLD SOLDIERS LANE", "SR_14": 3.0, "Q_14": 5.0, "name": "GOLDEN LIVINGCENTER - FRANKFORT", "SF_14": 3.0, "SF_15": 3.0, "cnty": "Franklin", "st": "KY", "Zip": 40601.0, "O_14": 4.0, "Q_15": 4.0, "O_15": 3.0, "city": "FRANKFORT", "beds": 100.0, "SR_15": 3.0}, {"Diff_star": 0.0, "addr": "700 MASON HEADLEY ROAD", "SR_14": 1.0, "Q_14": 4.0, "name": "LEXINGTON COUNTRY PLACE", "SF_14": 4.0, "SF_15": 4.0, "cnty": "Fayette", "st": "KY", "Zip": 40504.0, "O_14": 2.0, "Q_15": 3.0, "O_15": 2.0, "city": "LEXINGTON", "beds": 111.0, "SR_15": 1.0}, {"Diff_star": 0.0, "addr": "65 MINTON HICKORY FARM ROAD", "SR_14": 3.0, "Q_14": 3.0, "name": "BARBOURVILLE HEALTH & REHABILITATION CENTER", "SF_14": 3.0, "SF_15": 3.0, "cnty": "Knox", "st": "KY", "Zip": 40906.0, "O_14": 3.0, "Q_15": 2.0, "O_15": 3.0, "city": "BARBOURVILLE", "beds": 135.0, "SR_15": 3.0}, {"Diff_star": 0.0, "addr": "1101 LYNDON LANE", "SR_14": 2.0, "Q_14": 4.0, "name": "GOLDEN LIVINGCENTER - CAMELOT", "SF_14": 2.0, "SF_15": 2.0, "cnty": "Jefferson", "st": "KY", "Zip": 40222.0, "O_14": 2.0, "Q_15": 3.0, "O_15": 2.0, "city": "LOUISVILLE", "beds": 145.0, "SR_15": 2.0}, {"Diff_star": 0.0, "addr": "200 MEDICAL CENTER DRIVE", "SR_14": 5.0, "Q_14": 4.0, "name": "HARLAN HEALTH & REHABILITATION CENTER", "SF_14": 2.0, "SF_15": 2.0, "cnty": "Harlan", "st": "KY", "Zip": 40831.0, "O_14": 5.0, "Q_15": 2.0, "O_15": 5.0, "city": "HARLAN", "beds": 143.0, "SR_15": 5.0}, {"Diff_star": 0.0, "addr": "460 SOUTH COLLEGE STREET", "SR_14": 1.0, "Q_14": 2.0, "name": "HOPKINS CENTER", "SF_14": 2.0, "SF_15": 2.0, "cnty": "Warren", "st": "KY", "Zip": 42170.0, "O_14": 1.0, "Q_15": 1.0, "O_15": 1.0, "city": "WOODBURN", "beds": 50.0, "SR_15": 1.0}, {"Diff_star": 0.0, "addr": "706 N MAGNOLIA STREET", "SR_14": 3.0, "Q_14": 4.0, "name": "MONROE HEALTH AND REHABILITATION CENTER", "SF_14": 3.0, "SF_15": 3.0, "cnty": "Monroe", "st": "KY", "Zip": 42167.0, "O_14": 3.0, "Q_15": 2.0, "O_15": 3.0, "city": "TOMPKINSVILLE", "beds": 104.0, "SR_15": 3.0}, {"Diff_star": 0.0, "addr": "1801 LYNN WAY", "SR_14": 3.0, "Q_14": 5.0, "name": "JEFFERSON MANOR HEALTH & REHABILITATION CENTER", "SF_14": 3.0, "SF_15": 4.0, "cnty": "Jefferson", "st": "KY", "Zip": 40222.0, "O_14": 4.0, "Q_15": 4.0, "O_15": 4.0, "city": "LOUISVILLE", "beds": 100.0, "SR_15": 4.0}, {"Diff_star": 0.0, "addr": "1040 US 127 SOUTH", "SR_14": 2.0, "Q_14": 3.0, "name": "BRADFORD SQUARE GENESIS HEALTHCARE", "SF_14": 3.0, "SF_15": 3.0, "cnty": "Franklin", "st": "KY", "Zip": 40601.0, "O_14": 2.0, "Q_15": 2.0, "O_15": 2.0, "city": "FRANKFORT", "beds": 100.0, "SR_15": 2.0}, {"Diff_star": -1.0, "addr": "544 LONE OAK RD.", "SR_14": 3.0, "Q_14": 3.0, "name": "PARKVIEW NURSING & REHABILITATION CENTER", "SF_14": 4.0, "SF_15": 4.0, "cnty": "Mc Cracken", "st": "KY", "Zip": 42003.0, "O_14": 4.0, "Q_15": 1.0, "O_15": 3.0, "city": "PADUCAH", "beds": 228.0, "SR_15": 3.0}, {"Diff_star": 0.0, "addr": "260 HOSPITAL DRIVE", "SR_14": 4.0, "Q_14": 2.0, "name": "WILLIAMSON ARH", "SF_14": 4.0, "SF_15": 4.0, "cnty": "Pike", "st": "KY", "Zip": 41503.0, "O_14": 4.0, "Q_15": 2.0, "O_15": 4.0, "city": "SOUTH WILLIAMSON", "beds": 35.0, "SR_15": 4.0}, {"Diff_star": 1.0, "addr": "200 NORFLEET DRIVE", "SR_14": 2.0, "Q_14": 4.0, "name": "CUMBERLAND NURSING AND REHABILITATION CENTER", "SF_14": 2.0, "SF_15": 2.0, "cnty": "Pulaski", "st": "KY", "Zip": 42501.0, "O_14": 2.0, "Q_15": 2.0, "O_15": 3.0, "city": "SOMERSET", "beds": 93.0, "SR_15": 3.0}, {"Diff_star": -1.0, "addr": "6975 BURLINGTON PIKE", "SR_14": 2.0, "Q_14": 3.0, "name": "FLORENCE PARK CARE CENTER", "SF_14": 3.0, "SF_15": 3.0, "cnty": "Boone", "st": "KY", "Zip": 41042.0, "O_14": 2.0, "Q_15": 1.0, "O_15": 1.0, "city": "FLORENCE", "beds": 150.0, "SR_15": 2.0}, {"Diff_star": -1.0, "addr": "211 WEST OAK STREET", "SR_14": 4.0, "Q_14": 5.0, "name": "TREYTON OAK TOWERS", "SF_14": 4.0, "SF_15": 4.0, "cnty": "Jefferson", "st": "KY", "Zip": 40203.0, "O_14": 5.0, "Q_15": 4.0, "O_15": 4.0, "city": "LOUISVILLE", "beds": 60.0, "SR_15": 3.0}, {"Diff_star": 0.0, "addr": "446 MT. HOLLY AVE", "SR_14": 3.0, "Q_14": 4.0, "name": "GOLDEN LIVINGCENTER - MT HOLLY", "SF_14": 4.0, "SF_15": 4.0, "cnty": "Jefferson", "st": "KY", "Zip": 40206.0, "O_14": 4.0, "Q_15": 2.0, "O_15": 4.0, "city": "LOUISVILLE", "beds": 110.0, "SR_15": 3.0}, {"Diff_star": 0.0, "addr": "505 WILLIAM THOMASON BYWAY", "SR_14": 1.0, "Q_14": 3.0, "name": "GRAYSON MANOR NURSING HOME", "SF_14": 3.0, "SF_15": 3.0, "cnty": "Grayson", "st": "KY", "Zip": 42754.0, "O_14": 1.0, "Q_15": 2.0, "O_15": 1.0, "city": "LEITCHFIELD", "beds": 72.0, "SR_15": 1.0}, {"Diff_star": 0.0, "addr": "4200 BROWNS LANE", "SR_14": 2.0, "Q_14": 4.0, "name": "HEARTLAND OF LOUISVILLE", "SF_14": 2.0, "SF_15": 2.0, "cnty": "Jefferson", "st": "KY", "Zip": 40220.0, "O_14": 2.0, "Q_15": 2.0, "O_15": 2.0, "city": "LOUISVILLE", "beds": 178.0, "SR_15": 2.0}, {"Diff_star": -1.0, "addr": "6000 HUNTING RD.", "SR_14": 2.0, "Q_14": 5.0, "name": "SIGNATURE HEALTHCARE AT GLENVIEW", "SF_14": 5.0, "SF_15": 5.0, "cnty": "Jefferson", "st": "KY", "Zip": 40222.0, "O_14": 4.0, "Q_15": 3.0, "O_15": 3.0, "city": "LOUISVILLE", "beds": 120.0, "SR_15": 2.0}, {"Diff_star": -1.0, "addr": "599 ROGERSVILLE RD.", "SR_14": 2.0, "Q_14": 3.0, "name": "NORTH HARDIN HEALTH & REHABILITATION CENTER", "SF_14": 4.0, "SF_15": 4.0, "cnty": "Hardin", "st": "KY", "Zip": 40160.0, "O_14": 3.0, "Q_15": 1.0, "O_15": 2.0, "city": "RADCLIFF", "beds": 148.0, "SR_15": 2.0}, {"Diff_star": 0.0, "addr": "850 RIVERVIEW AVENUE", "SR_14": 3.0, "Q_14": 1.0, "name": "PINEVILLE COMMUNITY HOSPITAL", "SF_14": 5.0, "SF_15": 5.0, "cnty": "Bell", "st": "KY", "Zip": 40977.0, "O_14": 3.0, "Q_15": 1.0, "O_15": 3.0, "city": "PINEVILLE", "beds": 30.0, "SR_15": 3.0}, {"Diff_star": 0.0, "addr": "106 DIECKS DRIVE", "SR_14": 5.0, "Q_14": 5.0, "name": "HELMWOOD HEALTHCARE CENTER", "SF_14": 4.0, "SF_15": 3.0, "cnty": "Hardin", "st": "KY", "Zip": 42701.0, "O_14": 5.0, "Q_15": 4.0, "O_15": 5.0, "city": "ELIZABETHTOWN", "beds": 60.0, "SR_15": 5.0}, {"Diff_star": 0.0, "addr": "5079 SCOTTSVILLE RD.", "SR_14": 2.0, "Q_14": 5.0, "name": "GREENWOOD NURSING & REHABILITATION CENTER", "SF_14": 4.0, "SF_15": 4.0, "cnty": "Warren", "st": "KY", "Zip": 42104.0, "O_14": 4.0, "Q_15": 5.0, "O_15": 4.0, "city": "BOWLING GREEN", "beds": 128.0, "SR_15": 2.0}, {"Diff_star": 0.0, "addr": "1025 NEW MOODY LANE", "SR_14": 4.0, "Q_14": 2.0, "name": "BAPTIST HEALTH LA GRANGE", "SF_14": 5.0, "SF_15": 5.0, "cnty": "Oldham", "st": "KY", "Zip": 40031.0, "O_14": 5.0, "Q_15": 2.0, "O_15": 5.0, "city": "LA GRANGE", "beds": 30.0, "SR_15": 4.0}, {"Diff_star": 0.0, "addr": "227 BROWNS LANE", "SR_14": 1.0, "Q_14": 4.0, "name": "GOLDEN LIVINGCENTER - ST MATTHEWS", "SF_14": 3.0, "SF_15": 3.0, "cnty": "Jefferson", "st": "KY", "Zip": 40207.0, "O_14": 1.0, "Q_15": 3.0, "O_15": 1.0, "city": "LOUISVILLE", "beds": 125.0, "SR_15": 1.0}, {"Diff_star": -1.0, "addr": "21040 US HWY 421 SOUTH", "SR_14": 3.0, "Q_14": 2.0, "name": "HYDEN HEALTH & REHABILITATION CENTER", "SF_14": 4.0, "SF_15": 4.0, "cnty": "Leslie", "st": "KY", "Zip": 41749.0, "O_14": 4.0, "Q_15": 1.0, "O_15": 3.0, "city": "HYDEN", "beds": 94.0, "SR_15": 3.0}, {"Diff_star": 0.0, "addr": "200 BROOKSIDE DRIVE", "SR_14": 4.0, "Q_14": 3.0, "name": "THE FORUM AT BROOKSIDE", "SF_14": 5.0, "SF_15": 5.0, "cnty": "Jefferson", "st": "KY", "Zip": 40243.0, "O_14": 5.0, "Q_15": 2.0, "O_15": 5.0, "city": "LOUISVILLE", "beds": 40.0, "SR_15": 4.0}, {"Diff_star": 0.0, "addr": "10456 US HWY 62", "SR_14": 4.0, "Q_14": 4.0, "name": "OAKVIEW NURSING & REHABILITATION CENTER", "SF_14": 3.0, "SF_15": 3.0, "cnty": "Marshall", "st": "KY", "Zip": 42029.0, "O_14": 4.0, "Q_15": 3.0, "O_15": 4.0, "city": "CALVERT CITY", "beds": 100.0, "SR_15": 4.0}, {"Diff_star": 0.0, "addr": "3535 BARDSTOWN ROAD", "SR_14": 3.0, "Q_14": 4.0, "name": "KINDRED NURSING AND REHABILITATION-BASHFORD", "SF_14": 4.0, "SF_15": 4.0, "cnty": "Jefferson", "st": "KY", "Zip": 40218.0, "O_14": 4.0, "Q_15": 2.0, "O_15": 4.0, "city": "LOUISVILLE", "beds": 122.0, "SR_15": 3.0}, {"Diff_star": -1.0, "addr": "1500 TRENT BOULEVARD", "SR_14": 2.0, "Q_14": 5.0, "name": "NORTHPOINT/LEXINGTON HEALTHCARE CENTER", "SF_14": 4.0, "SF_15": 4.0, "cnty": "Fayette", "st": "KY", "Zip": 40515.0, "O_14": 4.0, "Q_15": 3.0, "O_15": 3.0, "city": "LEXINGTON", "beds": 150.0, "SR_15": 2.0}, {"Diff_star": -1.0, "addr": "73 PIEDMONT DRIVE", "SR_14": 4.0, "Q_14": 5.0, "name": "LETCHER MANOR", "SF_14": 4.0, "SF_15": 4.0, "cnty": "Letcher", "st": "KY", "Zip": 41858.0, "O_14": 5.0, "Q_15": 4.0, "O_15": 4.0, "city": "WHITESBURG", "beds": 142.0, "SR_15": 4.0}, {"Diff_star": 0.0, "addr": "1121 TANBARK ROAD", "SR_14": 4.0, "Q_14": 5.0, "name": "TANBARK HEALTH & REHABILITATION CENTER", "SF_14": 5.0, "SF_15": 5.0, "cnty": "Fayette", "st": "KY", "Zip": 40515.0, "O_14": 5.0, "Q_15": 5.0, "O_15": 5.0, "city": "LEXINGTON", "beds": 34.0, "SR_15": 4.0}, {"Diff_star": -1.0, "addr": "1206 ELEVENTH STREET", "SR_14": 2.0, "Q_14": 3.0, "name": "GREEN VALLEY HEALTH & REHABILITATION CENTER", "SF_14": 4.0, "SF_15": 4.0, "cnty": "Carroll", "st": "KY", "Zip": 41045.0, "O_14": 3.0, "Q_15": 1.0, "O_15": 2.0, "city": "CARROLLTON", "beds": 78.0, "SR_15": 2.0}, {"Diff_star": -4.0, "addr": "620 PARKER ROAD", "SR_14": 5.0, "Q_14": 5.0, "name": "MAYSVILLE NURSING AND REHABILITATION FACILITY", "SF_14": 3.0, "SF_15": 3.0, "cnty": "Mason", "st": "KY", "Zip": 41056.0, "O_14": 5.0, "Q_15": 4.0, "O_15": 1.0, "city": "MAYSVILLE", "beds": 130.0, "SR_15": 1.0}, {"Diff_star": 0.0, "addr": "100 CARMEL MANOR ROAD", "SR_14": 3.0, "Q_14": 3.0, "name": "CARMEL MANOR", "SF_14": 3.0, "SF_15": 3.0, "cnty": "Campbell", "st": "KY", "Zip": 41075.0, "O_14": 3.0, "Q_15": 3.0, "O_15": 3.0, "city": "FORT THOMAS", "beds": 65.0, "SR_15": 3.0}, {"Diff_star": 0.0, "addr": "190 EAST HWY. 136", "SR_14": 4.0, "Q_14": 5.0, "name": "RIVERSIDE CARE & REHABILITATION CENTER", "SF_14": 4.0, "SF_15": 4.0, "cnty": "Mc Lean", "st": "KY", "Zip": 42327.0, "O_14": 5.0, "Q_15": 5.0, "O_15": 5.0, "city": "CALHOUN", "beds": 79.0, "SR_15": 4.0}, {"Diff_star": 0.0, "addr": "464 LINDEN AVENUE", "SR_14": 3.0, "Q_14": 4.0, "name": "THE JAMES B. HAGGIN MEMORIAL HOSPITAL", "SF_14": 4.0, "SF_15": 4.0, "cnty": "Mercer", "st": "KY", "Zip": 40330.0, "O_14": 4.0, "Q_15": 4.0, "O_15": 4.0, "city": "HARRODSBURG", "beds": 34.0, "SR_15": 3.0}, {"Diff_star": -1.0, "addr": "58 CAL HILL ROAD", "SR_14": 4.0, "Q_14": 3.0, "name": "MCCREARY HEALTH AND REHABILITATION", "SF_14": 2.0, "SF_15": 1.0, "cnty": "Mc Creary", "st": "KY", "Zip": 42635.0, "O_14": 4.0, "Q_15": 2.0, "O_15": 3.0, "city": "PINE KNOT", "beds": 60.0, "SR_15": 4.0}, {"Diff_star": 0.0, "addr": "850 HWY 191", "SR_14": 5.0, "Q_14": 4.0, "name": "WOLFE COUNTY HEALTH & REHABILITATION CENTER", "SF_14": 3.0, "SF_15": 3.0, "cnty": "Wolfe", "st": "KY", "Zip": 41301.0, "O_14": 5.0, "Q_15": 2.0, "O_15": 5.0, "city": "CAMPTON", "beds": 100.0, "SR_15": 5.0}, {"Diff_star": 0.0, "addr": "1608 HILL RISE DRIVE", "SR_14": 1.0, "Q_14": 4.0, "name": "PROVIDENCE PINE MEADOWS", "SF_14": 3.0, "SF_15": 3.0, "cnty": "Fayette", "st": "KY", "Zip": 40504.0, "O_14": 1.0, "Q_15": 4.0, "O_15": 1.0, "city": "LEXINGTON", "beds": 120.0, "SR_15": 1.0}, {"Diff_star": -1.0, "addr": "701 SKYLINE DRIVE", "SR_14": 4.0, "Q_14": 2.0, "name": "METCALFE HEALTH CARE CENTER", "SF_14": 4.0, "SF_15": 4.0, "cnty": "Metcalfe", "st": "KY", "Zip": 42129.0, "O_14": 4.0, "Q_15": 1.0, "O_15": 3.0, "city": "EDMONTON", "beds": 71.0, "SR_15": 4.0}, {"Diff_star": 0.0, "addr": "106 GOVER STREET", "SR_14": 4.0, "Q_14": 4.0, "name": "SOMERSET NURSING AND REHABILITATION FACILITY", "SF_14": 3.0, "SF_15": 3.0, "cnty": "Pulaski", "st": "KY", "Zip": 42502.0, "O_14": 4.0, "Q_15": 3.0, "O_15": 4.0, "city": "SOMERSET", "beds": 123.0, "SR_15": 4.0}, {"Diff_star": -1.0, "addr": "100 SPARKS AVENUE", "SR_14": 4.0, "Q_14": 3.0, "name": "DIVERSICARE OF NICHOLASVILLE", "SF_14": 4.0, "SF_15": 4.0, "cnty": "Jessamine", "st": "KY", "Zip": 40356.0, "O_14": 4.0, "Q_15": 1.0, "O_15": 3.0, "city": "NICHOLASVILLE", "beds": 73.0, "SR_15": 4.0}, {"Diff_star": 0.0, "addr": "571 PARKWAY DRIVE", "SR_14": 1.0, "Q_14": 2.0, "name": "SALYERSVILLE NURSING AND REHABILITATION CENTER", "SF_14": 2.0, "SF_15": 2.0, "cnty": "Magoffin", "st": "KY", "Zip": 41465.0, "O_14": 1.0, "Q_15": 1.0, "O_15": 1.0, "city": "SALYERSVILLE", "beds": 142.0, "SR_15": 1.0}, {"Diff_star": -1.0, "addr": "60 PHILLIPS BRANCH ROAD", "SR_14": 5.0, "Q_14": 3.0, "name": "GOOD SHEPHERD COMMUNITY NURSING CENTER", "SF_14": 4.0, "SF_15": 4.0, "cnty": "Pike", "st": "KY", "Zip": 41553.0, "O_14": 5.0, "Q_15": 1.0, "O_15": 4.0, "city": "PHELPS", "beds": 118.0, "SR_15": 5.0}, {"Diff_star": 0.0, "addr": "1561 NEWTON AVE.", "SR_14": 2.0, "Q_14": 5.0, "name": "BOWLING GREEN NURSING AND REHABILITATION CENTER", "SF_14": 3.0, "SF_15": 3.0, "cnty": "Warren", "st": "KY", "Zip": 42104.0, "O_14": 3.0, "Q_15": 5.0, "O_15": 3.0, "city": "BOWLING GREEN", "beds": 66.0, "SR_15": 2.0}, {"Diff_star": -1.0, "addr": "4250 GLENN AVENUE", "SR_14": 3.0, "Q_14": 5.0, "name": "ROSEDALE GREEN", "SF_14": 4.0, "SF_15": 4.0, "cnty": "Kenton", "st": "KY", "Zip": 41015.0, "O_14": 5.0, "Q_15": 2.0, "O_15": 4.0, "city": "COVINGTON", "beds": 210.0, "SR_15": 3.0}, {"Diff_star": -1.0, "addr": "2501 OLD HARTFORD RD.", "SR_14": 1.0, "Q_14": 2.0, "name": "CARMEL HOME", "SF_14": 5.0, "SF_15": 5.0, "cnty": "Daviess", "st": "KY", "Zip": 42303.0, "O_14": 2.0, "Q_15": 1.0, "O_15": 1.0, "city": "OWENSBORO", "beds": 18.0, "SR_15": 1.0}, {"Diff_star": -1.0, "addr": "100 MARSHALL COURT", "SR_14": 3.0, "Q_14": 5.0, "name": "SUPERIOR CARE HOME", "SF_14": 4.0, "SF_15": 4.0, "cnty": "Mc Cracken", "st": "KY", "Zip": 42001.0, "O_14": 5.0, "Q_15": 4.0, "O_15": 4.0, "city": "PADUCAH", "beds": 88.0, "SR_15": 3.0}, {"Diff_star": 0.0, "addr": "2400 RUSSELLVILLE ROAD", "SR_14": 2.0, "Q_14": 5.0, "name": "WESTERN STATE NURSING FACILITY", "SF_14": 4.0, "SF_15": 4.0, "cnty": "Christian", "st": "KY", "Zip": 42240.0, "O_14": 4.0, "Q_15": 5.0, "O_15": 4.0, "city": "HOPKINSVILLE", "beds": 144.0, "SR_15": 2.0}, {"Diff_star": 0.0, "addr": "300 WESTWOOD ST.", "SR_14": 4.0, "Q_14": 4.0, "name": "BARREN COUNTY HEALTH CARE CENTER", "SF_14": 4.0, "SF_15": 4.0, "cnty": "Barren", "st": "KY", "Zip": 42141.0, "O_14": 4.0, "Q_15": 4.0, "O_15": 4.0, "city": "GLASGOW", "beds": 94.0, "SR_15": 4.0}, {"Diff_star": -1.0, "addr": "945 WEST RUSSELL STREET", "SR_14": 2.0, "Q_14": 2.0, "name": "MOUNTAIN VIEW HEALTH CARE CENTER", "SF_14": 3.0, "SF_15": 3.0, "cnty": "Pike", "st": "KY", "Zip": 41522.0, "O_14": 2.0, "Q_15": 1.0, "O_15": 1.0, "city": "ELKHORN CITY", "beds": 106.0, "SR_15": 2.0}, {"Diff_star": -1.0, "addr": "116 SOUTH COMMONWEALTH AVENUE", "SR_14": 2.0, "Q_14": 4.0, "name": "CHRISTIAN HEALTH CENTER", "SF_14": 4.0, "SF_15": 3.0, "cnty": "Whitley", "st": "KY", "Zip": 40702.0, "O_14": 3.0, "Q_15": 3.0, "O_15": 2.0, "city": "CORBIN", "beds": 104.0, "SR_15": 2.0}, {"Diff_star": -1.0, "addr": "1201 FIFTH AVE", "SR_14": 3.0, "Q_14": 2.0, "name": "CALVERT CITY CONVALESCENT CENTER", "SF_14": 4.0, "SF_15": 4.0, "cnty": "Marshall", "st": "KY", "Zip": 42029.0, "O_14": 4.0, "Q_15": 1.0, "O_15": 3.0, "city": "CALVERT CITY", "beds": 95.0, "SR_15": 3.0}, {"Diff_star": 1.0, "addr": "1205 LEITCHFIELD RD.", "SR_14": 2.0, "Q_14": 4.0, "name": "OWENSBORO CENTER", "SF_14": 2.0, "SF_15": 2.0, "cnty": "Daviess", "st": "KY", "Zip": 42303.0, "O_14": 2.0, "Q_15": 2.0, "O_15": 3.0, "city": "OWENSBORO", "beds": 145.0, "SR_15": 3.0}, {"Diff_star": 0.0, "addr": "2100 MILLVALE RD.", "SR_14": 4.0, "Q_14": 5.0, "name": "SIGNATURE HEALTHCARE OF CHEROKEE PARK", "SF_14": 3.0, "SF_15": 3.0, "cnty": "Jefferson", "st": "KY", "Zip": 40205.0, "O_14": 5.0, "Q_15": 5.0, "O_15": 5.0, "city": "LOUISVILLE", "beds": 84.0, "SR_15": 4.0}, {"Diff_star": -1.0, "addr": "58 EASTHAM STREET", "SR_14": 2.0, "Q_14": 5.0, "name": "GOLDEN LIVINGCENTER - VANCEBURG", "SF_14": 2.0, "SF_15": 2.0, "cnty": "Lewis", "st": "KY", "Zip": 41179.0, "O_14": 3.0, "Q_15": 4.0, "O_15": 2.0, "city": "VANCEBURG", "beds": 94.0, "SR_15": 2.0}, {"Diff_star": 1.0, "addr": "235 NEW WILSON LANE", "SR_14": 4.0, "Q_14": 4.0, "name": "MIDDLESBORO HEALTH CARE FACILITY", "SF_14": 4.0, "SF_15": 3.0, "cnty": "Bell", "st": "KY", "Zip": 40965.0, "O_14": 4.0, "Q_15": 5.0, "O_15": 5.0, "city": "MIDDLESBORO", "beds": 95.0, "SR_15": 4.0}, {"Diff_star": 0.0, "addr": "2344 AMSTERDAM ROAD", "SR_14": 2.0, "Q_14": 4.0, "name": "MADONNA MANOR", "SF_14": 4.0, "SF_15": 4.0, "cnty": "Kenton", "st": "KY", "Zip": 41017.0, "O_14": 3.0, "Q_15": 3.0, "O_15": 3.0, "city": "VILLA HILLS", "beds": 60.0, "SR_15": 2.0}, {"Diff_star": 0.0, "addr": "125 STERLING WAY", "SR_14": 3.0, "Q_14": 5.0, "name": "WINDSOR CARE CENTER", "SF_14": 2.0, "SF_15": 2.0, "cnty": "Montgomery", "st": "KY", "Zip": 40353.0, "O_14": 4.0, "Q_15": 4.0, "O_15": 4.0, "city": "MOUNT STERLING", "beds": 144.0, "SR_15": 4.0}, {"Diff_star": -1.0, "addr": "39 FERNDALE APARTMENTS ROAD", "SR_14": 2.0, "Q_14": 3.0, "name": "MOUNTAIN VIEW NURSING & REHABILITATION CENTER", "SF_14": 4.0, "SF_15": 3.0, "cnty": "Bell", "st": "KY", "Zip": 40977.0, "O_14": 3.0, "Q_15": 2.0, "O_15": 2.0, "city": "PINEVILLE", "beds": 115.0, "SR_15": 2.0}, {"Diff_star": 0.0, "addr": "105 HARMON HEIGHTS", "SR_14": 4.0, "Q_14": 4.0, "name": "GOLDEN LIVINGCENTER-STANFORD", "SF_14": 1.0, "SF_15": 1.0, "cnty": "Lincoln", "st": "KY", "Zip": 40484.0, "O_14": 3.0, "Q_15": 2.0, "O_15": 3.0, "city": "STANFORD", "beds": 128.0, "SR_15": 4.0}, {"Diff_star": -1.0, "addr": "371 WEST MAIN STREET", "SR_14": 1.0, "Q_14": 5.0, "name": "ROCKCASTLE HEALTH & REHABILITATION CENTER", "SF_14": 3.0, "SF_15": 2.0, "cnty": "Rockcastle", "st": "KY", "Zip": 40409.0, "O_14": 2.0, "Q_15": 3.0, "O_15": 1.0, "city": "BRODHEAD", "beds": 104.0, "SR_15": 1.0}, {"Diff_star": 0.0, "addr": "3775 BELLEAU WOOD DRIVE", "SR_14": 5.0, "Q_14": 4.0, "name": "SAYRE CHRISTIAN VILLAGE NURSING HOME", "SF_14": 4.0, "SF_15": 4.0, "cnty": "Fayette", "st": "KY", "Zip": 40517.0, "O_14": 5.0, "Q_15": 3.0, "O_15": 5.0, "city": "LEXINGTON", "beds": 130.0, "SR_15": 5.0}, {"Diff_star": 0.0, "addr": "96 HIGHWAY 3444, P O BOX 194", "SR_14": 3.0, "Q_14": 4.0, "name": "JACKSON MANOR HEALTH & REHABILITATION CENTER", "SF_14": 2.0, "SF_15": 2.0, "cnty": "Jackson", "st": "KY", "Zip": 40402.0, "O_14": 3.0, "Q_15": 3.0, "O_15": 3.0, "city": "ANNVILLE", "beds": 51.0, "SR_15": 3.0}, {"Diff_star": 0.0, "addr": "1100 GRANDVIEW DRIVE", "SR_14": 4.0, "Q_14": 5.0, "name": "OAKMONT MANOR", "SF_14": 4.0, "SF_15": 4.0, "cnty": "Greenup", "st": "KY", "Zip": 41139.0, "O_14": 5.0, "Q_15": 4.0, "O_15": 5.0, "city": "FLATWOODS", "beds": 85.0, "SR_15": 5.0}, {"Diff_star": 0.0, "addr": "2582 CERULEAN RD.", "SR_14": 4.0, "Q_14": 5.0, "name": "SHADY LAWN NURSING AND REHABILITATION CENTER", "SF_14": 3.0, "SF_15": 3.0, "cnty": "Trigg", "st": "KY", "Zip": 42211.0, "O_14": 5.0, "Q_15": 5.0, "O_15": 5.0, "city": "CADIZ", "beds": 50.0, "SR_15": 4.0}, {"Diff_star": 0.0, "addr": "250 MCDAVID BLVD", "SR_14": 2.0, "Q_14": 4.0, "name": "CARTER NURSING & REHABILITATION CENTER", "SF_14": 2.0, "SF_15": 2.0, "cnty": "Carter", "st": "KY", "Zip": 41143.0, "O_14": 2.0, "Q_15": 4.0, "O_15": 2.0, "city": "GRAYSON", "beds": 120.0, "SR_15": 2.0}, {"Diff_star": -1.0, "addr": "406 WYOMING ROAD", "SR_14": 4.0, "Q_14": 2.0, "name": "RIDGEWAY NURSING & REHABILITATION FACILITY", "SF_14": 4.0, "SF_15": 3.0, "cnty": "Bath", "st": "KY", "Zip": 40360.0, "O_14": 4.0, "Q_15": 1.0, "O_15": 3.0, "city": "OWINGSVILLE", "beds": 99.0, "SR_15": 4.0}, {"Diff_star": -1.0, "addr": "200 NURSING HOME LANE", "SR_14": 2.0, "Q_14": 2.0, "name": "PARKVIEW NURSING AND REHABILITATION CENTER", "SF_14": 3.0, "SF_15": 3.0, "cnty": "Pike", "st": "KY", "Zip": 41501.0, "O_14": 2.0, "Q_15": 1.0, "O_15": 1.0, "city": "PIKEVILLE", "beds": 120.0, "SR_15": 2.0}, {"Diff_star": 0.0, "addr": "213 INDUSTRIAL ROAD", "SR_14": 1.0, "Q_14": 3.0, "name": "GOLDEN LIVINGCENTER-GREEN HILL", "SF_14": 2.0, "SF_15": 2.0, "cnty": "Green", "st": "KY", "Zip": 42743.0, "O_14": 1.0, "Q_15": 1.0, "O_15": 1.0, "city": "GREENSBURG", "beds": 118.0, "SR_15": 1.0}, {"Diff_star": -1.0, "addr": "2607 MAIN STREET HWY 641 SOUTH", "SR_14": 1.0, "Q_14": 5.0, "name": "LAKE WAY NURSING AND REHABILITATION CENTER", "SF_14": 2.0, "SF_15": 2.0, "cnty": "Marshall", "st": "KY", "Zip": 42025.0, "O_14": 2.0, "Q_15": 3.0, "O_15": 1.0, "city": "BENTON", "beds": 96.0, "SR_15": 1.0}, {"Diff_star": -1.0, "addr": "6301 BASS ROAD", "SR_14": 2.0, "Q_14": 4.0, "name": "RIVERS EDGE NURSING AND REHABILITATION CENTER", "SF_14": 4.0, "SF_15": 3.0, "cnty": "Jefferson", "st": "KY", "Zip": 40059.0, "O_14": 3.0, "Q_15": 2.0, "O_15": 2.0, "city": "PROSPECT", "beds": 100.0, "SR_15": 2.0}, {"Diff_star": 0.0, "addr": "15 AUDUBON PLAZA DRIVE", "SR_14": 3.0, "Q_14": 4.0, "name": "LITTLE SISTERS OF THE POOR", "SF_14": 4.0, "SF_15": 4.0, "cnty": "Jefferson", "st": "KY", "Zip": 40217.0, "O_14": 4.0, "Q_15": 4.0, "O_15": 4.0, "city": "LOUISVILLE", "beds": 35.0, "SR_15": 3.0}, {"Diff_star": 0.0, "addr": "100 WURTLAND AVENUE", "SR_14": 1.0, "Q_14": 4.0, "name": "WURTLAND NURSING AND REHABILITATION CENTER", "SF_14": 2.0, "SF_15": 2.0, "cnty": "Greenup", "st": "KY", "Zip": 41144.0, "O_14": 1.0, "Q_15": 2.0, "O_15": 1.0, "city": "WURTLAND", "beds": 126.0, "SR_15": 1.0}, {"Diff_star": 0.0, "addr": "131 MEADOWLARK DRIVE", "SR_14": 3.0, "Q_14": 4.0, "name": "MADISON HEALTH AND REHABILITATION CENTER", "SF_14": 1.0, "SF_15": 1.0, "cnty": "Madison", "st": "KY", "Zip": 40475.0, "O_14": 2.0, "Q_15": 3.0, "O_15": 2.0, "city": "RICHMOND", "beds": 92.0, "SR_15": 3.0}, {"Diff_star": -1.0, "addr": "213 WATER STREET", "SR_14": 1.0, "Q_14": 5.0, "name": "DAWSON SPRINGS HEALTH AND REHABILITATION CENTER", "SF_14": 3.0, "SF_15": 3.0, "cnty": "Hopkins", "st": "KY", "Zip": 42408.0, "O_14": 2.0, "Q_15": 4.0, "O_15": 1.0, "city": "DAWSON SPRINGS", "beds": 59.0, "SR_15": 1.0}, {"Diff_star": 0.0, "addr": "203 BRUCE COURT", "SR_14": 1.0, "Q_14": 4.0, "name": "CHARLESTON HEALTH CARE CENTER", "SF_14": 4.0, "SF_15": 4.0, "cnty": "Boyle", "st": "KY", "Zip": 40423.0, "O_14": 2.0, "Q_15": 2.0, "O_15": 2.0, "city": "DANVILLE", "beds": 90.0, "SR_15": 1.0}, {"Diff_star": 0.0, "addr": "201 KIMBERLY LANE", "SR_14": 1.0, "Q_14": 4.0, "name": "GRANT CENTER", "SF_14": 2.0, "SF_15": 2.0, "cnty": "Grant", "st": "KY", "Zip": 41097.0, "O_14": 1.0, "Q_15": 1.0, "O_15": 1.0, "city": "WILLIAMSTOWN", "beds": 95.0, "SR_15": 1.0}, {"Diff_star": 0.0, "addr": "1101 WOODLAND DRIVE", "SR_14": 1.0, "Q_14": 3.0, "name": "ELIZABETHTOWN NURSING AND REHABILITATION CENTER", "SF_14": 1.0, "SF_15": 1.0, "cnty": "Hardin", "st": "KY", "Zip": 42701.0, "O_14": 1.0, "Q_15": 1.0, "O_15": 1.0, "city": "ELIZABETHTOWN", "beds": 65.0, "SR_15": 1.0}, {"Diff_star": -1.0, "addr": "337 SOUTH HARRISON STREET", "SR_14": 1.0, "Q_14": 5.0, "name": "CEDARS OF LEBANON NURSING CENTER", "SF_14": 3.0, "SF_15": 3.0, "cnty": "Marion", "st": "KY", "Zip": 40033.0, "O_14": 2.0, "Q_15": 3.0, "O_15": 1.0, "city": "LEBANON", "beds": 81.0, "SR_15": 1.0}, {"Diff_star": -1.0, "addr": "3500 GOOD SAMARITAN WAY", "SR_14": 1.0, "Q_14": 3.0, "name": "THE GOOD SAMARITAN SOCIETY-JEFFERSONTOWN", "SF_14": 4.0, "SF_15": 3.0, "cnty": "Jefferson", "st": "KY", "Zip": 40299.0, "O_14": 2.0, "Q_15": 2.0, "O_15": 1.0, "city": "JEFFERSONTOWN", "beds": 98.0, "SR_15": 1.0}, {"Diff_star": 0.0, "addr": "201 WATSON STREET", "SR_14": 2.0, "Q_14": 1.0, "name": "CRITTENDEN COUNTY HEALTH & REHABILITATION CENTER", "SF_14": 1.0, "SF_15": 1.0, "cnty": "Crittenden", "st": "KY", "Zip": 42064.0, "O_14": 1.0, "Q_15": 1.0, "O_15": 1.0, "city": "MARION", "beds": 101.0, "SR_15": 2.0}, {"Diff_star": 0.0, "addr": "301 SOUTH MAIN STREET", "SR_14": 2.0, "Q_14": 1.0, "name": "CUMBERLAND VALLEY MANOR", "SF_14": 4.0, "SF_15": 4.0, "cnty": "Cumberland", "st": "KY", "Zip": 42717.0, "O_14": 2.0, "Q_15": 1.0, "O_15": 2.0, "city": "BURKESVILLE", "beds": 84.0, "SR_15": 2.0}, {"Diff_star": 0.0, "addr": "1002 GLENVIEW DR.", "SR_14": 4.0, "Q_14": 3.0, "name": "GLENVIEW HEALTH CARE FACILITY", "SF_14": 5.0, "SF_15": 5.0, "cnty": "Barren", "st": "KY", "Zip": 42141.0, "O_14": 5.0, "Q_15": 2.0, "O_15": 5.0, "city": "GLASGOW", "beds": 60.0, "SR_15": 4.0}, {"Diff_star": -1.0, "addr": "867 MCGUIRE AVE.", "SR_14": 2.0, "Q_14": 3.0, "name": "MCCRACKEN NURSING AND REHABILITATION CENTER", "SF_14": 2.0, "SF_15": 2.0, "cnty": "Mc Cracken", "st": "KY", "Zip": 42001.0, "O_14": 2.0, "Q_15": 1.0, "O_15": 1.0, "city": "PADUCAH", "beds": 103.0, "SR_15": 2.0}, {"Diff_star": 1.0, "addr": "HIGHWAY 11", "SR_14": 2.0, "Q_14": 4.0, "name": "OWSLEY COUNTY HEALTH CARE CENTER, INC", "SF_14": 4.0, "SF_15": 4.0, "cnty": "Owsley", "st": "KY", "Zip": 41314.0, "O_14": 3.0, "Q_15": 2.0, "O_15": 4.0, "city": "BOONEVILLE", "beds": 91.0, "SR_15": 3.0}, {"Diff_star": 0.0, "addr": "774 LIBERTY ROAD", "SR_14": 5.0, "Q_14": 5.0, "name": "WEST LIBERTY NURSING & REHABILITATION CENTER", "SF_14": 3.0, "SF_15": 3.0, "cnty": "Morgan", "st": "KY", "Zip": 41472.0, "O_14": 5.0, "Q_15": 5.0, "O_15": 5.0, "city": "WEST LIBERTY", "beds": 48.0, "SR_15": 5.0}, {"Diff_star": -1.0, "addr": "114 MCMURTRY AVE.", "SR_14": 2.0, "Q_14": 4.0, "name": "PROFESSIONAL CARE HEALTH & REHABILITATION CENTER", "SF_14": 4.0, "SF_15": 3.0, "cnty": "Ohio", "st": "KY", "Zip": 42347.0, "O_14": 3.0, "Q_15": 2.0, "O_15": 2.0, "city": "HARTFORD", "beds": 110.0, "SR_15": 2.0}, {"Diff_star": 0.0, "addr": "515 NERINX ROAD", "SR_14": 5.0, "Q_14": 2.0, "name": "LORETTO MOTHERHOUSE INFIRMARY", "SF_14": 4.0, "SF_15": 4.0, "cnty": "Marion", "st": "KY", "Zip": 40049.0, "O_14": 5.0, "Q_15": 2.0, "O_15": 5.0, "city": "NERINX", "beds": 63.0, "SR_15": 5.0}, {"Diff_star": 0.0, "addr": "331 SOUTH MAIN STREET", "SR_14": 3.0, "Q_14": 4.0, "name": "HERITAGE HALL HEALTH & REHABILITATION CENTER", "SF_14": 4.0, "SF_15": 4.0, "cnty": "Anderson", "st": "KY", "Zip": 40342.0, "O_14": 4.0, "Q_15": 3.0, "O_15": 4.0, "city": "LAWRENCEBURG", "beds": 94.0, "SR_15": 3.0}, {"Diff_star": -2.0, "addr": "9701 WHIPPS MILL RD.", "SR_14": 3.0, "Q_14": 3.0, "name": "MEADOWVIEW HEALTH AND REHABILITATION CENTER", "SF_14": 4.0, "SF_15": 3.0, "cnty": "Jefferson", "st": "KY", "Zip": 40223.0, "O_14": 4.0, "Q_15": 1.0, "O_15": 2.0, "city": "LOUISVILLE", "beds": 95.0, "SR_15": 3.0}, {"Diff_star": -1.0, "addr": "500 BECK LANE", "SR_14": 2.0, "Q_14": 4.0, "name": "MILLS HEALTH & REHAB CENTER, INC", "SF_14": 3.0, "SF_15": 3.0, "cnty": "Graves", "st": "KY", "Zip": 42066.0, "O_14": 2.0, "Q_15": 1.0, "O_15": 1.0, "city": "MAYFIELD", "beds": 98.0, "SR_15": 2.0}, {"Diff_star": -1.0, "addr": "7400 LAGRANGE RD", "SR_14": 2.0, "Q_14": 3.0, "name": "FRIENDSHIP HEALTH AND REHABILITATION, LLC", "SF_14": 3.0, "SF_15": 3.0, "cnty": "Oldham", "st": "KY", "Zip": 40056.0, "O_14": 2.0, "Q_15": 1.0, "O_15": 1.0, "city": "PEWEE VALLEY", "beds": 128.0, "SR_15": 2.0}, {"Diff_star": 0.0, "addr": "JAMES E. HANNAH DRIVE", "SR_14": 3.0, "Q_14": 5.0, "name": "SOUTH SHORE NURSING & REHABILITATION CENTER", "SF_14": 1.0, "SF_15": 1.0, "cnty": "Greenup", "st": "KY", "Zip": 41175.0, "O_14": 3.0, "Q_15": 5.0, "O_15": 3.0, "city": "SOUTH SHORE", "beds": 60.0, "SR_15": 3.0}, {"Diff_star": -1.0, "addr": "2000 SOUTH MAIN STREET", "SR_14": 1.0, "Q_14": 4.0, "name": "BOURBON HEIGHTS NURSING HOME", "SF_14": 5.0, "SF_15": 5.0, "cnty": "Bourbon", "st": "KY", "Zip": 40361.0, "O_14": 2.0, "Q_15": 1.0, "O_15": 1.0, "city": "PARIS", "beds": 99.0, "SR_15": 1.0}, {"Diff_star": 0.0, "addr": "1011 OLD HIGHWAY 60", "SR_14": 4.0, "Q_14": 4.0, "name": "BRECKINRIDGE MEMORIAL NURSING FACILITY", "SF_14": 5.0, "SF_15": 5.0, "cnty": "Breckinridge", "st": "KY", "Zip": 40143.0, "O_14": 5.0, "Q_15": 5.0, "O_15": 5.0, "city": "HARDINSBURG", "beds": 18.0, "SR_15": 4.0}, {"Diff_star": -1.0, "addr": "1 SPARKS AVENUE", "SR_14": 4.0, "Q_14": 5.0, "name": "FAIR OAKS HEALTH SYSTEMS, LLC", "SF_14": 4.0, "SF_15": 4.0, "cnty": "Russell", "st": "KY", "Zip": 42629.0, "O_14": 5.0, "Q_15": 4.0, "O_15": 4.0, "city": "JAMESTOWN", "beds": 114.0, "SR_15": 4.0}, {"Diff_star": -2.0, "addr": "853 LEXINGTON ROAD", "SR_14": 3.0, "Q_14": 5.0, "name": "HARRODSBURG HEALTH & REHABILITATION CENTER", "SF_14": 2.0, "SF_15": 2.0, "cnty": "Mercer", "st": "KY", "Zip": 40330.0, "O_14": 4.0, "Q_15": 3.0, "O_15": 2.0, "city": "HARRODSBURG", "beds": 112.0, "SR_15": 2.0}, {"Diff_star": 0.0, "addr": "9600 LAMBORNE BOULEVARD", "SR_14": 5.0, "Q_14": 5.0, "name": "ESSEX NURSING AND REHABILITATION CENTER", "SF_14": 3.0, "SF_15": 3.0, "cnty": "Jefferson", "st": "KY", "Zip": 40272.0, "O_14": 5.0, "Q_15": 5.0, "O_15": 5.0, "city": "LOUISVILLE", "beds": 128.0, "SR_15": 5.0}, {"Diff_star": 0.0, "addr": "2200 STONY BROOK DR", "SR_14": 1.0, "Q_14": 1.0, "name": "HURSTBOURNE CARE CENTRE AT STONY BROOK", "SF_14": 2.0, "SF_15": 2.0, "cnty": "Jefferson", "st": "KY", "Zip": 40220.0, "O_14": 1.0, "Q_15": 1.0, "O_15": 1.0, "city": "LOUISVILLE", "beds": 132.0, "SR_15": 1.0}, {"Diff_star": 0.0, "addr": "1550 RAYDALE DR", "SR_14": 2.0, "Q_14": 2.0, "name": "REGENCY CENTER", "SF_14": 1.0, "SF_15": 1.0, "cnty": "Jefferson", "st": "KY", "Zip": 40219.0, "O_14": 1.0, "Q_15": 1.0, "O_15": 1.0, "city": "LOUISVILLE", "beds": 110.0, "SR_15": 2.0}, {"Diff_star": -1.0, "addr": "142 ROGER POWELL RD", "SR_14": 3.0, "Q_14": 5.0, "name": "REDBANKS COLONIAL TERRACE", "SF_14": 4.0, "SF_15": 4.0, "cnty": "Webster", "st": "KY", "Zip": 42455.0, "O_14": 5.0, "Q_15": 4.0, "O_15": 4.0, "city": "SEBREE", "beds": 87.0, "SR_15": 3.0}, {"Diff_star": -1.0, "addr": "1033 NORTH HIGHWAY 11", "SR_14": 3.0, "Q_14": 3.0, "name": "LAUREL CREEK HEALTH CARE CENTER", "SF_14": 1.0, "SF_15": 1.0, "cnty": "Clay", "st": "KY", "Zip": 40962.0, "O_14": 2.0, "Q_15": 1.0, "O_15": 1.0, "city": "MANCHESTER", "beds": 106.0, "SR_15": 3.0}, {"Diff_star": 0.0, "addr": "515 GREENE DRIVE", "SR_14": 5.0, "Q_14": 5.0, "name": "KINDRED NURSING AND REHABILITATION-MAPLE", "SF_14": 3.0, "SF_15": 3.0, "cnty": "Muhlenberg", "st": "KY", "Zip": 42345.0, "O_14": 5.0, "Q_15": 3.0, "O_15": 5.0, "city": "GREENVILLE", "beds": 97.0, "SR_15": 5.0}, {"Diff_star": 0.0, "addr": "112 DOVER DRIVE", "SR_14": 2.0, "Q_14": 4.0, "name": "DOVER MANOR", "SF_14": 4.0, "SF_15": 4.0, "cnty": "Scott", "st": "KY", "Zip": 40324.0, "O_14": 3.0, "Q_15": 2.0, "O_15": 3.0, "city": "GEORGETOWN", "beds": 85.0, "SR_15": 2.0}, {"Diff_star": 0.0, "addr": "2625 BARDSTOWN ROAD", "SR_14": 5.0, "Q_14": 3.0, "name": "SANSBURY CARE CENTER", "SF_14": 5.0, "SF_15": 5.0, "cnty": "Washington", "st": "KY", "Zip": 40061.0, "O_14": 5.0, "Q_15": 4.0, "O_15": 5.0, "city": "SAINT CATHARINE", "beds": 48.0, "SR_15": 5.0}, {"Diff_star": 0.0, "addr": "1901 WEST HIGHWAY 90 BYPASS", "SR_14": 1.0, "Q_14": 2.0, "name": "HICKS GOLDEN YEARS NURSING HOME", "SF_14": 5.0, "SF_15": 5.0, "cnty": "Wayne", "st": "KY", "Zip": 42633.0, "O_14": 2.0, "Q_15": 2.0, "O_15": 2.0, "city": "MONTICELLO", "beds": 59.0, "SR_15": 1.0}, {"Diff_star": -1.0, "addr": "1877 FARNSLEY RD.", "SR_14": 2.0, "Q_14": 3.0, "name": "SUMMERFIELD HEALTH AND REHABILITATION CENTER", "SF_14": 3.0, "SF_15": 3.0, "cnty": "Jefferson", "st": "KY", "Zip": 40216.0, "O_14": 2.0, "Q_15": 1.0, "O_15": 1.0, "city": "LOUISVILLE", "beds": 165.0, "SR_15": 2.0}, {"Diff_star": 0.0, "addr": "4604 LOWE RD", "SR_14": 1.0, "Q_14": 1.0, "name": "REGIS WOODS", "SF_14": 3.0, "SF_15": 3.0, "cnty": "Jefferson", "st": "KY", "Zip": 40220.0, "O_14": 1.0, "Q_15": 1.0, "O_15": 1.0, "city": "LOUISVILLE", "beds": 186.0, "SR_15": 1.0}, {"Diff_star": -2.0, "addr": "101 FAIRGROUNDS ROAD", "SR_14": 3.0, "Q_14": 5.0, "name": "HARDINSBURG NURSING AND REHABILITATION CENTER", "SF_14": 4.0, "SF_15": 3.0, "cnty": "Breckinridge", "st": "KY", "Zip": 40143.0, "O_14": 5.0, "Q_15": 3.0, "O_15": 3.0, "city": "HARDINSBURG", "beds": 63.0, "SR_15": 3.0}, {"Diff_star": 0.0, "addr": "147 NORTH HIGHLAND AVENUE", "SR_14": 4.0, "Q_14": 5.0, "name": "PRESTONSBURG HEALTH CARE CENTER", "SF_14": 1.0, "SF_15": 1.0, "cnty": "Floyd", "st": "KY", "Zip": 41653.0, "O_14": 4.0, "Q_15": 5.0, "O_15": 4.0, "city": "PRESTONSBURG", "beds": 56.0, "SR_15": 4.0}, {"Diff_star": 0.0, "addr": "3001 N. HURSTBOURNE PKWY.", "SR_14": 1.0, "Q_14": 4.0, "name": "SPRINGHURST HEALTH AND REHAB", "SF_14": 4.0, "SF_15": 4.0, "cnty": "Jefferson", "st": "KY", "Zip": 40241.0, "O_14": 2.0, "Q_15": 4.0, "O_15": 2.0, "city": "LOUISVILLE", "beds": 90.0, "SR_15": 1.0}, {"Diff_star": 0.0, "addr": "425 ISLAND FORD ROAD", "SR_14": 1.0, "Q_14": 4.0, "name": "RIDGEWOOD TERRACE NURSING HOME", "SF_14": 2.0, "SF_15": 2.0, "cnty": "Hopkins", "st": "KY", "Zip": 42431.0, "O_14": 1.0, "Q_15": 1.0, "O_15": 1.0, "city": "MADISONVILLE", "beds": 110.0, "SR_15": 1.0}, {"Diff_star": -1.0, "addr": "718 GOODWIN LANE", "SR_14": 3.0, "Q_14": 3.0, "name": "SPRING VIEW HEALTH & REHAB CENTER, INC", "SF_14": 3.0, "SF_15": 3.0, "cnty": "Grayson", "st": "KY", "Zip": 42754.0, "O_14": 3.0, "Q_15": 1.0, "O_15": 2.0, "city": "LEITCHFIELD", "beds": 71.0, "SR_15": 3.0}, {"Diff_star": 0.0, "addr": "7504 WESTPORT ROAD", "SR_14": 4.0, "Q_14": 4.0, "name": "EPISCOPAL CHURCH HOME", "SF_14": 5.0, "SF_15": 5.0, "cnty": "Jefferson", "st": "KY", "Zip": 40222.0, "O_14": 5.0, "Q_15": 2.0, "O_15": 5.0, "city": "LOUISVILLE", "beds": 139.0, "SR_15": 4.0}, {"Diff_star": -1.0, "addr": "4700 QUINN DR.", "SR_14": 2.0, "Q_14": 4.0, "name": "ROCKFORD HEALTH AND REHABILITATION CENTER", "SF_14": 3.0, "SF_15": 3.0, "cnty": "Jefferson", "st": "KY", "Zip": 40216.0, "O_14": 2.0, "Q_15": 1.0, "O_15": 1.0, "city": "LOUISVILLE", "beds": 110.0, "SR_15": 2.0}, {"Diff_star": -1.0, "addr": "4747 ALBEN BARKLEY DRIVE", "SR_14": 2.0, "Q_14": 3.0, "name": "BARKLEY CENTER", "SF_14": 3.0, "SF_15": 3.0, "cnty": "Mc Cracken", "st": "KY", "Zip": 42001.0, "O_14": 2.0, "Q_15": 1.0, "O_15": 1.0, "city": "PADUCAH", "beds": 86.0, "SR_15": 2.0}, {"Diff_star": -1.0, "addr": "107 BOYLES DRIVE", "SR_14": 3.0, "Q_14": 4.0, "name": "CREEKWOOD PLACE NURSING & REHAB CENTER, INC", "SF_14": 4.0, "SF_15": 3.0, "cnty": "Logan", "st": "KY", "Zip": 42276.0, "O_14": 4.0, "Q_15": 4.0, "O_15": 3.0, "city": "RUSSELLVILLE", "beds": 104.0, "SR_15": 3.0}, {"Diff_star": 0.0, "addr": "115 PIONEER TRACE", "SR_14": 2.0, "Q_14": 4.0, "name": "PIONEER TRACE NURSING HOME", "SF_14": 4.0, "SF_15": 4.0, "cnty": "Fleming", "st": "KY", "Zip": 41041.0, "O_14": 3.0, "Q_15": 3.0, "O_15": 3.0, "city": "FLEMINGSBURG", "beds": 92.0, "SR_15": 2.0}, {"Diff_star": 0.0, "addr": "404 NORTH WASHINGTON STREET", "SR_14": 5.0, "Q_14": 5.0, "name": "CLINTON COUNTY CARE & REHABILITATION CENTER", "SF_14": 2.0, "SF_15": 3.0, "cnty": "Clinton", "st": "KY", "Zip": 42602.0, "O_14": 5.0, "Q_15": 5.0, "O_15": 5.0, "city": "ALBANY", "beds": 52.0, "SR_15": 5.0}, {"Diff_star": 0.0, "addr": "1333 WEST MAIN ST.", "SR_14": 1.0, "Q_14": 3.0, "name": "PRINCETON HEALTH & REHAB CENTER, INC", "SF_14": 3.0, "SF_15": 3.0, "cnty": "Caldwell", "st": "KY", "Zip": 42445.0, "O_14": 1.0, "Q_15": 1.0, "O_15": 1.0, "city": "PRINCETON", "beds": 104.0, "SR_15": 1.0}, {"Diff_star": 0.0, "addr": "521 GREENE DR.", "SR_14": 5.0, "Q_14": 5.0, "name": "DIVERSICARE OF GREENVILLE", "SF_14": 4.0, "SF_15": 4.0, "cnty": "Muhlenberg", "st": "KY", "Zip": 42345.0, "O_14": 5.0, "Q_15": 4.0, "O_15": 5.0, "city": "GREENVILLE", "beds": 62.0, "SR_15": 5.0}, {"Diff_star": -1.0, "addr": "1253 LAKE BARKLEY DRIVE", "SR_14": 4.0, "Q_14": 4.0, "name": "CHRISTIAN CARE CENTER OF KUTTAWA, LLC", "SF_14": 2.0, "SF_15": 2.0, "cnty": "Lyon", "st": "KY", "Zip": 42055.0, "O_14": 4.0, "Q_15": 1.0, "O_15": 3.0, "city": "KUTTAWA", "beds": 65.0, "SR_15": 4.0}, {"Diff_star": 0.0, "addr": "252 W. 5TH ST.", "SR_14": 1.0, "Q_14": 4.0, "name": "LIFE CARE CENTER OF LACENTER", "SF_14": 3.0, "SF_15": 3.0, "cnty": "Ballard", "st": "KY", "Zip": 42056.0, "O_14": 1.0, "Q_15": 2.0, "O_15": 1.0, "city": "LA CENTER", "beds": 70.0, "SR_15": 1.0}, {"Diff_star": 1.0, "addr": "3057 NORTH CLEVELAND ROAD", "SR_14": 3.0, "Q_14": 5.0, "name": "ROSE MANOR HEALTH CARE", "SF_14": 2.0, "SF_15": 4.0, "cnty": "Fayette", "st": "KY", "Zip": 40516.0, "O_14": 4.0, "Q_15": 5.0, "O_15": 5.0, "city": "LEXINGTON", "beds": 34.0, "SR_15": 4.0}, {"Diff_star": 0.0, "addr": "456 BURNLEY RD.", "SR_14": 1.0, "Q_14": 4.0, "name": "CAL TURNER REHAB AND SPECIALTY CARE", "SF_14": 3.0, "SF_15": 3.0, "cnty": "Allen", "st": "KY", "Zip": 42164.0, "O_14": 1.0, "Q_15": 3.0, "O_15": 1.0, "city": "SCOTTSVILLE", "beds": 110.0, "SR_15": 1.0}, {"Diff_star": 0.0, "addr": "366 S. WASHINGTON ST.", "SR_14": 3.0, "Q_14": 4.0, "name": "CLINTON-HICKMAN COUNTY NURSING FACILITY", "SF_14": 4.0, "SF_15": 4.0, "cnty": "Hickman", "st": "KY", "Zip": 42031.0, "O_14": 4.0, "Q_15": 3.0, "O_15": 4.0, "city": "CLINTON", "beds": 46.0, "SR_15": 3.0}, {"Diff_star": -1.0, "addr": "625 TAYLORSVILLE RD", "SR_14": 2.0, "Q_14": 5.0, "name": "SIGNATURE HEALTHCARE OF SPENCER COUNTY", "SF_14": 2.0, "SF_15": 2.0, "cnty": "Spencer", "st": "KY", "Zip": 40071.0, "O_14": 3.0, "Q_15": 2.0, "O_15": 2.0, "city": "TAYLORSVILLE", "beds": 120.0, "SR_15": 2.0}, {"Diff_star": 0.0, "addr": "85 NORTH GRAND AVENUE", "SR_14": 5.0, "Q_14": 3.0, "name": "ST ELIZABETH FT THOMAS SNF", "SF_14": 5.0, "SF_15": 5.0, "cnty": "Campbell", "st": "KY", "Zip": 41075.0, "O_14": 5.0, "Q_15": 3.0, "O_15": 5.0, "city": "FORT THOMAS", "beds": 26.0, "SR_15": 5.0}, {"Diff_star": 0.0, "addr": "509 NORTH CARRIER ST.", "SR_14": 3.0, "Q_14": 4.0, "name": "MORGANFIELD NURSING & REHABILITATION CENTER", "SF_14": 4.0, "SF_15": 4.0, "cnty": "Union", "st": "KY", "Zip": 42437.0, "O_14": 4.0, "Q_15": 3.0, "O_15": 4.0, "city": "MORGANFIELD", "beds": 60.0, "SR_15": 3.0}, {"Diff_star": 0.0, "addr": "1980 OLD GREENSBURG ROAD", "SR_14": 4.0, "Q_14": 4.0, "name": "CAMPBELLSVILLE NURSING AND REHABILITATION CENTER", "SF_14": 3.0, "SF_15": 3.0, "cnty": "Taylor", "st": "KY", "Zip": 42718.0, "O_14": 4.0, "Q_15": 4.0, "O_15": 4.0, "city": "CAMPBELLSVILLE", "beds": 67.0, "SR_15": 4.0}, {"Diff_star": -1.0, "addr": "414 ROBEY ST.", "SR_14": 4.0, "Q_14": 3.0, "name": "FRANKLIN-SIMPSON NURSING AND REHABILITATION CENTER", "SF_14": 2.0, "SF_15": 2.0, "cnty": "Simpson", "st": "KY", "Zip": 42135.0, "O_14": 4.0, "Q_15": 1.0, "O_15": 3.0, "city": "FRANKLIN", "beds": 98.0, "SR_15": 4.0}, {"Diff_star": 0.0, "addr": "105 RODGERS PARK", "SR_14": 2.0, "Q_14": 4.0, "name": "GRAND HAVEN NURSING HOME", "SF_14": 4.0, "SF_15": 4.0, "cnty": "Harrison", "st": "KY", "Zip": 41031.0, "O_14": 3.0, "Q_15": 4.0, "O_15": 3.0, "city": "CYNTHIANA", "beds": 54.0, "SR_15": 2.0}, {"Diff_star": 0.0, "addr": "3802 KLONDIKE LANE", "SR_14": 4.0, "Q_14": 4.0, "name": "KLONDIKE CENTER", "SF_14": 4.0, "SF_15": 3.0, "cnty": "Jefferson", "st": "KY", "Zip": 40218.0, "O_14": 4.0, "Q_15": 2.0, "O_15": 4.0, "city": "LOUISVILLE", "beds": 62.0, "SR_15": 4.0}, {"Diff_star": 0.0, "addr": "1595 US HWY 231 S.", "SR_14": 2.0, "Q_14": 5.0, "name": "BEAVER DAM NURSING & REHAB CENTER, INC", "SF_14": 4.0, "SF_15": 4.0, "cnty": "Ohio", "st": "KY", "Zip": 42320.0, "O_14": 4.0, "Q_15": 5.0, "O_15": 4.0, "city": "BEAVER DAM", "beds": 58.0, "SR_15": 2.0}, {"Diff_star": -1.0, "addr": "1120 CRISTLAND ROAD", "SR_14": 4.0, "Q_14": 5.0, "name": "SIGNATURE HEALTHCARE OF SOUTH LOUISVILLE", "SF_14": 4.0, "SF_15": 4.0, "cnty": "Jefferson", "st": "KY", "Zip": 40214.0, "O_14": 5.0, "Q_15": 4.0, "O_15": 4.0, "city": "LOUISVILLE", "beds": 100.0, "SR_15": 4.0}, {"Diff_star": -1.0, "addr": "420 EAST GRUNDY AVENUE", "SR_14": 1.0, "Q_14": 4.0, "name": "SPRINGFIELD NURSING & REHABILITATION CENTER", "SF_14": 4.0, "SF_15": 4.0, "cnty": "Washington", "st": "KY", "Zip": 40069.0, "O_14": 2.0, "Q_15": 1.0, "O_15": 1.0, "city": "SPRINGFIELD", "beds": 70.0, "SR_15": 1.0}, {"Diff_star": 0.0, "addr": "246 EAST MAIN STREET", "SR_14": 1.0, "Q_14": 3.0, "name": "LEE COUNTY CARE & REHABILITATION CENTER", "SF_14": 3.0, "SF_15": 3.0, "cnty": "Lee", "st": "KY", "Zip": 41311.0, "O_14": 1.0, "Q_15": 1.0, "O_15": 1.0, "city": "BEATTYVILLE", "beds": 109.0, "SR_15": 1.0}, {"Diff_star": 0.0, "addr": "124 WEST NASHVILLE ST", "SR_14": 1.0, "Q_14": 5.0, "name": "CHRISTIAN HEIGHTS NURSING AND REHABILITATION CENTE", "SF_14": 5.0, "SF_15": 5.0, "cnty": "Christian", "st": "KY", "Zip": 42266.0, "O_14": 2.0, "Q_15": 5.0, "O_15": 2.0, "city": "PEMBROKE", "beds": 60.0, "SR_15": 1.0}, {"Diff_star": -1.0, "addr": "411 BERTHA WALLACE DRIVE", "SR_14": 4.0, "Q_14": 3.0, "name": "IRVINE NURSING AND REHABILITATION CENTER", "SF_14": 3.0, "SF_15": 3.0, "cnty": "Estill", "st": "KY", "Zip": 40336.0, "O_14": 4.0, "Q_15": 1.0, "O_15": 3.0, "city": "IRVINE", "beds": 86.0, "SR_15": 4.0}, {"Diff_star": -1.0, "addr": "220 WESTWOOD ST.", "SR_14": 3.0, "Q_14": 2.0, "name": "GLASGOW HEALTH & REHABILITATION CENTER", "SF_14": 3.0, "SF_15": "", "cnty": "Barren", "st": "KY", "Zip": 42141.0, "O_14": 3.0, "Q_15": 1.0, "O_15": 2.0, "city": "GLASGOW", "beds": 68.0, "SR_15": 3.0}, {"Diff_star": 0.0, "addr": "402 W. FARTHING STREET", "SR_14": 3.0, "Q_14": 4.0, "name": "GREEN ACRES HEALTH CARE", "SF_14": 4.0, "SF_15": 4.0, "cnty": "Graves", "st": "KY", "Zip": 42066.0, "O_14": 4.0, "Q_15": 2.0, "O_15": 4.0, "city": "MAYFIELD", "beds": 73.0, "SR_15": 3.0}, {"Diff_star": -1.0, "addr": "708 BARTLEY AVENUE", "SR_14": 2.0, "Q_14": 4.0, "name": "COLONIAL HEALTH AND REHABILITATION CENTER", "SF_14": 3.0, "SF_15": 3.0, "cnty": "Nelson", "st": "KY", "Zip": 40004.0, "O_14": 2.0, "Q_15": 1.0, "O_15": 1.0, "city": "BARDSTOWN", "beds": 65.0, "SR_15": 2.0}, {"Diff_star": 0.0, "addr": "115 CAYCE ST", "SR_14": 2.0, "Q_14": 4.0, "name": "COVINGTON'S CONVALESCENT CENTER", "SF_14": 3.0, "SF_15": 3.0, "cnty": "Christian", "st": "KY", "Zip": 42240.0, "O_14": 2.0, "Q_15": 2.0, "O_15": 2.0, "city": "HOPKINSVILLE", "beds": 72.0, "SR_15": 2.0}, {"Diff_star": -1.0, "addr": "5269 ASBURY ROAD", "SR_14": 4.0, "Q_14": 5.0, "name": "BRACKEN COUNTY NURSING & REHABILITATION CENTER", "SF_14": 4.0, "SF_15": 3.0, "cnty": "Bracken", "st": "KY", "Zip": 41002.0, "O_14": 5.0, "Q_15": 4.0, "O_15": 4.0, "city": "AUGUSTA", "beds": 32.0, "SR_15": 4.0}, {"Diff_star": 0.0, "addr": "1614 PARRISH AVE, WEST", "SR_14": 2.0, "Q_14": 5.0, "name": "HERMITAGE CARE AND REHABILITATION CENTER", "SF_14": 3.0, "SF_15": 3.0, "cnty": "Daviess", "st": "KY", "Zip": 42301.0, "O_14": 3.0, "Q_15": 5.0, "O_15": 3.0, "city": "OWENSBORO", "beds": 92.0, "SR_15": 2.0}, {"Diff_star": 0.0, "addr": "2141 SYCAMORE AVENUE", "SR_14": 1.0, "Q_14": 4.0, "name": "BROWNSBORO HILLS HEALTH  CARE AND REHABILITATION C", "SF_14": 1.0, "SF_15": 1.0, "cnty": "Jefferson", "st": "KY", "Zip": 40206.0, "O_14": 1.0, "Q_15": 3.0, "O_15": 1.0, "city": "LOUISVILLE", "beds": 96.0, "SR_15": 1.0}, {"Diff_star": 0.0, "addr": "1705 HERR LANE", "SR_14": 3.0, "Q_14": 4.0, "name": "JEFFERSON PLACE HEALTH & REHABILITATION CENTER", "SF_14": 5.0, "SF_15": 5.0, "cnty": "Jefferson", "st": "KY", "Zip": 40222.0, "O_14": 4.0, "Q_15": 2.0, "O_15": 4.0, "city": "LOUISVILLE", "beds": 95.0, "SR_15": 3.0}, {"Diff_star": -1.0, "addr": "2529 SIX MILE LANE", "SR_14": 1.0, "Q_14": 5.0, "name": "SIGNATURE HEALTHCARE OF EAST LOUISVILLE", "SF_14": 3.0, "SF_15": 3.0, "cnty": "Jefferson", "st": "KY", "Zip": 40220.0, "O_14": 2.0, "Q_15": 4.0, "O_15": 1.0, "city": "LOUISVILLE", "beds": 128.0, "SR_15": 1.0}, {"Diff_star": 0.0, "addr": "31 DERICKSON LANE", "SR_14": 1.0, "Q_14": 4.0, "name": "STANTON NURSING AND REHABILITATION CENTER", "SF_14": 3.0, "SF_15": 3.0, "cnty": "Powell", "st": "KY", "Zip": 40380.0, "O_14": 1.0, "Q_15": 2.0, "O_15": 1.0, "city": "STANTON", "beds": 81.0, "SR_15": 1.0}, {"Diff_star": 0.0, "addr": "814 OLD EKRON RD", "SR_14": 2.0, "Q_14": 3.0, "name": "BRANDENBURG NURSING AND REHABILITATION CENTER", "SF_14": 1.0, "SF_15": 1.0, "cnty": "Meade", "st": "KY", "Zip": 40108.0, "O_14": 1.0, "Q_15": 3.0, "O_15": 1.0, "city": "BRANDENBURG", "beds": 57.0, "SR_15": 2.0}, {"Diff_star": 0.0, "addr": "313 MAIN STREET", "SR_14": 4.0, "Q_14": 5.0, "name": "FORDSVILLE NURSING AND REHABILITATION CENTER", "SF_14": 2.0, "SF_15": 2.0, "cnty": "Ohio", "st": "KY", "Zip": 42343.0, "O_14": 5.0, "Q_15": 5.0, "O_15": 5.0, "city": "FORDSVILLE", "beds": 67.0, "SR_15": 4.0}, {"Diff_star": 0.0, "addr": "305 TAYLOR STREET #402", "SR_14": 4.0, "Q_14": 4.0, "name": "RIVER VALLEY NURSING HOME", "SF_14": 4.0, "SF_15": 4.0, "cnty": "Pendleton", "st": "KY", "Zip": 41006.0, "O_14": 4.0, "Q_15": 2.0, "O_15": 4.0, "city": "BUTLER", "beds": 60.0, "SR_15": 4.0}, {"Diff_star": 0.0, "addr": "50 SHEPHERD LANE", "SR_14": 4.0, "Q_14": 4.0, "name": "SIGNATURE HEALTHCARE OF TRIMBLE COUNTY", "SF_14": 2.0, "SF_15": 2.0, "cnty": "Trimble", "st": "KY", "Zip": 40006.0, "O_14": 4.0, "Q_15": 3.0, "O_15": 4.0, "city": "BEDFORD", "beds": 60.0, "SR_15": 4.0}, {"Diff_star": 0.0, "addr": "ROUTE 2, U S HIGHWAY 62", "SR_14": 5.0, "Q_14": 4.0, "name": "ROBERTSON COUNTY HEALTH CARE FACILITY", "SF_14": 1.0, "SF_15": 1.0, "cnty": "Robertson", "st": "KY", "Zip": 41064.0, "O_14": 4.0, "Q_15": 4.0, "O_15": 4.0, "city": "MOUNT OLIVET", "beds": 60.0, "SR_15": 5.0}, {"Diff_star": -1.0, "addr": "499 CENTER STREET", "SR_14": 4.0, "Q_14": 4.0, "name": "PROVIDENCE GALLATIN", "SF_14": 4.0, "SF_15": 2.0, "cnty": "Gallatin", "st": "KY", "Zip": 41095.0, "O_14": 4.0, "Q_15": 1.0, "O_15": 3.0, "city": "WARSAW", "beds": 120.0, "SR_15": 4.0}, {"Diff_star": -1.0, "addr": "1313 ST. ANTHONY PLACE", "SR_14": 3.0, "Q_14": 2.0, "name": "KINDRED HOSPITAL - LOUISVILLE", "SF_14": 4.0, "SF_15": 4.0, "cnty": "Jefferson", "st": "KY", "Zip": 40205.0, "O_14": 4.0, "Q_15": 1.0, "O_15": 3.0, "city": "LOUISVILLE", "beds": 47.0, "SR_15": 3.0}, {"Diff_star": -1.0, "addr": "50 ADAMS STREET", "SR_14": 3.0, "Q_14": 3.0, "name": "PROVIDENCE NEW CASTLE", "SF_14": 4.0, "SF_15": 4.0, "cnty": "Henry", "st": "KY", "Zip": 40050.0, "O_14": 4.0, "Q_15": 1.0, "O_15": 3.0, "city": "NEW CASTLE", "beds": 60.0, "SR_15": 3.0}, {"Diff_star": 0.0, "addr": "207 STATE AVENUE", "SR_14": 5.0, "Q_14": 5.0, "name": "GLASGOW STATE NURSING FACILITY", "SF_14": 5.0, "SF_15": 5.0, "cnty": "Barren", "st": "KY", "Zip": 42141.0, "O_14": 5.0, "Q_15": 5.0, "O_15": 5.0, "city": "GLASGOW", "beds": 100.0, "SR_15": 5.0}, {"Diff_star": 0.0, "addr": "905 HWY 127 NORTH", "SR_14": 2.0, "Q_14": 1.0, "name": "OWENTON CENTER", "SF_14": 1.0, "SF_15": 1.0, "cnty": "Owen", "st": "KY", "Zip": 40359.0, "O_14": 1.0, "Q_15": 1.0, "O_15": 1.0, "city": "OWENTON", "beds": 100.0, "SR_15": 2.0}, {"Diff_star": -1.0, "addr": "270 BACON CREEK ROAD", "SR_14": 3.0, "Q_14": 2.0, "name": "CORBIN HEALTH & REHABILITATION CENTER", "SF_14": 4.0, "SF_15": 4.0, "cnty": "Whitley", "st": "KY", "Zip": 40702.0, "O_14": 4.0, "Q_15": 1.0, "O_15": 3.0, "city": "CORBIN", "beds": 100.0, "SR_15": 3.0}, {"Diff_star": 0.0, "addr": "711 FRANKFORT ROAD", "SR_14": 4.0, "Q_14": 5.0, "name": "MASONIC HOME OF SHELBYVILLE", "SF_14": 4.0, "SF_15": 4.0, "cnty": "Shelby", "st": "KY", "Zip": 40066.0, "O_14": 5.0, "Q_15": 5.0, "O_15": 5.0, "city": "SHELBYVILLE", "beds": 117.0, "SR_15": 4.0}, {"Diff_star": 0.0, "addr": "62 MAUDE ROAD", "SR_14": 4.0, "Q_14": 4.0, "name": "MARTIN COUNTY HEALTH CARE FACILITY", "SF_14": 3.0, "SF_15": 3.0, "cnty": "Martin", "st": "KY", "Zip": 41224.0, "O_14": 4.0, "Q_15": 4.0, "O_15": 4.0, "city": "INEZ", "beds": 65.0, "SR_15": 4.0}, {"Diff_star": 0.0, "addr": "1505 SOUTH DIXIE STREET", "SR_14": 4.0, "Q_14": 4.0, "name": "HART COUNTY HEALTH & REHABILITATION CENTER", "SF_14": 3.0, "SF_15": 3.0, "cnty": "Hart", "st": "KY", "Zip": 42749.0, "O_14": 4.0, "Q_15": 2.0, "O_15": 4.0, "city": "HORSE CAVE", "beds": 104.0, "SR_15": 4.0}, {"Diff_star": 0.0, "addr": "47 MARGO AVENUE", "SR_14": 3.0, "Q_14": 3.0, "name": "COUNTRYSIDE CENTER", "SF_14": 3.0, "SF_15": 3.0, "cnty": "Carlisle", "st": "KY", "Zip": 42023.0, "O_14": 3.0, "Q_15": 2.0, "O_15": 3.0, "city": "BARDWELL", "beds": 53.0, "SR_15": 3.0}, {"Diff_star": -1.0, "addr": "960 HIGHLAND AVENUE", "SR_14": 2.0, "Q_14": 3.0, "name": "HIGHLANDSPRING OF FT THOMAS", "SF_14": 3.0, "SF_15": 3.0, "cnty": "Campbell", "st": "KY", "Zip": 41075.0, "O_14": 2.0, "Q_15": 1.0, "O_15": 1.0, "city": "FORT THOMAS", "beds": 140.0, "SR_15": 2.0}, {"Diff_star": 0.0, "addr": "601 RICHMOND ROAD", "SR_14": 4.0, "Q_14": 4.0, "name": "BEREA HEALTH CARE CENTER", "SF_14": 4.0, "SF_15": 3.0, "cnty": "Madison", "st": "KY", "Zip": 40403.0, "O_14": 4.0, "Q_15": 3.0, "O_15": 4.0, "city": "BEREA", "beds": 84.0, "SR_15": 4.0}, {"Diff_star": 0.0, "addr": "1301 N RACE ST", "SR_14": 4.0, "Q_14": 3.0, "name": "T J SAMSON COMMUNITY HOSPITAL", "SF_14": 4.0, "SF_15": 4.0, "cnty": "Barren", "st": "KY", "Zip": 42141.0, "O_14": 4.0, "Q_15": 4.0, "O_15": 4.0, "city": "GLASGOW", "beds": 16.0, "SR_15": 4.0}, {"Diff_star": 0.0, "addr": "240 MASONIC HOME DRIVE", "SR_14": 1.0, "Q_14": 5.0, "name": "MASONIC HOME OF LOUISVILLE", "SF_14": 5.0, "SF_15": 5.0, "cnty": "Jefferson", "st": "KY", "Zip": 40041.0, "O_14": 2.0, "Q_15": 4.0, "O_15": 2.0, "city": "MASONIC HOME", "beds": 167.0, "SR_15": 1.0}, {"Diff_star": 0.0, "addr": "323 WEBSTER AVENUE", "SR_14": 1.0, "Q_14": 1.0, "name": "EDGEMONT HEALTHCARE", "SF_14": 3.0, "SF_15": 3.0, "cnty": "Harrison", "st": "KY", "Zip": 41031.0, "O_14": 1.0, "Q_15": 1.0, "O_15": 1.0, "city": "CYNTHIANA", "beds": 68.0, "SR_15": 1.0}, {"Diff_star": 0.0, "addr": "1820 OAKVIEW ROAD", "SR_14": 4.0, "Q_14": 3.0, "name": "WOODLAND OAKS", "SF_14": 4.0, "SF_15": 3.0, "cnty": "Boyd", "st": "KY", "Zip": 41101.0, "O_14": 4.0, "Q_15": 2.0, "O_15": 4.0, "city": "ASHLAND", "beds": 110.0, "SR_15": 4.0}, {"Diff_star": 0.0, "addr": "4900 HOUSTON ROAD", "SR_14": 5.0, "Q_14": 2.0, "name": "ST ELIZABETH FLORENCE SNF", "SF_14": 5.0, "SF_15": 5.0, "cnty": "Boone", "st": "KY", "Zip": 41042.0, "O_14": 5.0, "Q_15": 2.0, "O_15": 5.0, "city": "FLORENCE", "beds": 16.0, "SR_15": 5.0}, {"Diff_star": 0.0, "addr": "900 HOSPITAL DR.", "SR_14": 5.0, "Q_14": 3.0, "name": "BAPTIST HEALTH TRANSITIONAL CARE", "SF_14": 5.0, "SF_15": 5.0, "cnty": "Hopkins", "st": "KY", "Zip": 42431.0, "O_14": 5.0, "Q_15": 3.0, "O_15": 5.0, "city": "MADISONVILLE", "beds": 20.0, "SR_15": 5.0}, {"Diff_star": 0.0, "addr": "1201 PLEASANT VALLEY ROAD", "SR_14": 4.0, "Q_14": "", "name": "THE TRANSITIONAL CARE CENTER OF OWENSBORO", "SF_14": 5.0, "SF_15": 5.0, "cnty": "Daviess", "st": "KY", "Zip": 42303.0, "O_14": 5.0, "Q_15": 2.0, "O_15": 5.0, "city": "OWENSBORO", "beds": 30.0, "SR_15": 4.0}, {"Diff_star": -1.0, "addr": "8005 US HWY 60 WEST", "SR_14": 3.0, "Q_14": 5.0, "name": "HEARTLAND VILLA CENTER", "SF_14": 4.0, "SF_15": 3.0, "cnty": "Hancock", "st": "KY", "Zip": 42351.0, "O_14": 5.0, "Q_15": 5.0, "O_15": 4.0, "city": "LEWISPORT", "beds": 45.0, "SR_15": 3.0}, {"Diff_star": 0.0, "addr": "506 ALLENSVILLE ROAD", "SR_14": 1.0, "Q_14": 3.0, "name": "HEARTHSTONE PLACE", "SF_14": 3.0, "SF_15": 3.0, "cnty": "Todd", "st": "KY", "Zip": 42220.0, "O_14": 1.0, "Q_15": 1.0, "O_15": 1.0, "city": "ELKTON", "beds": 60.0, "SR_15": 1.0}, {"Diff_star": 0.0, "addr": "813 S. MAIN ST.", "SR_14": 1.0, "Q_14": 2.0, "name": "EDMONSON CENTER", "SF_14": 2.0, "SF_15": 2.0, "cnty": "Edmonson", "st": "KY", "Zip": 42210.0, "O_14": 1.0, "Q_15": 1.0, "O_15": 1.0, "city": "BROWNSVILLE", "beds": 74.0, "SR_15": 1.0}, {"Diff_star": 0.0, "addr": "2500 NORTH ELM ST.", "SR_14": 1.0, "Q_14": 4.0, "name": "HENDERSON NURSING AND REHABILITATION CENTER", "SF_14": 3.0, "SF_15": 3.0, "cnty": "Henderson", "st": "KY", "Zip": 42420.0, "O_14": 1.0, "Q_15": 4.0, "O_15": 1.0, "city": "HENDERSON", "beds": 90.0, "SR_15": 1.0}, {"Diff_star": 0.0, "addr": "217 SOUTH THIRD STREET", "SR_14": 5.0, "Q_14": 3.0, "name": "EPHRAIM MCDOWELL REGIONAL MEDICAL CENTER", "SF_14": 4.0, "SF_15": 3.0, "cnty": "Boyle", "st": "KY", "Zip": 40422.0, "O_14": 5.0, "Q_15": 3.0, "O_15": 5.0, "city": "DANVILLE", "beds": 25.0, "SR_15": 5.0}, {"Diff_star": 0.0, "addr": "305 LANGDON STREET", "SR_14": 5.0, "Q_14": 3.0, "name": "LAKE CUMBERLAND REGIONAL HOSPITAL SCU", "SF_14": 5.0, "SF_15": 5.0, "cnty": "Pulaski", "st": "KY", "Zip": 42502.0, "O_14": 5.0, "Q_15": 4.0, "O_15": 5.0, "city": "SOMERSET", "beds": 12.0, "SR_15": 5.0}, {"Diff_star": 0.0, "addr": "616 S WALLACE WILKINSON BLVD", "SR_14": 3.0, "Q_14": 5.0, "name": "LIBERTY CARE AND REHABILITATION CENTER", "SF_14": 2.0, "SF_15": 2.0, "cnty": "Casey", "st": "KY", "Zip": 42539.0, "O_14": 4.0, "Q_15": 5.0, "O_15": 4.0, "city": "LIBERTY", "beds": 97.0, "SR_15": 3.0}, {"Diff_star": -1.0, "addr": "1871 MIDLAND TRAIL", "SR_14": 4.0, "Q_14": 2.0, "name": "CRESTVIEW CENTER", "SF_14": 2.0, "SF_15": 2.0, "cnty": "Shelby", "st": "KY", "Zip": 40065.0, "O_14": 4.0, "Q_15": 1.0, "O_15": 3.0, "city": "SHELBYVILLE", "beds": 58.0, "SR_15": 4.0}, {"Diff_star": 0.0, "addr": "300 BEECH ST.", "SR_14": 2.0, "Q_14": 4.0, "name": "RIVER'S BEND RETIREMENT COMMUNITY", "SF_14": 4.0, "SF_15": 4.0, "cnty": "Lyon", "st": "KY", "Zip": 42055.0, "O_14": 3.0, "Q_15": 3.0, "O_15": 3.0, "city": "KUTTAWA", "beds": 40.0, "SR_15": 2.0}, {"Diff_star": 0.0, "addr": "1025 EUCLID AVENUE", "SR_14": 1.0, "Q_14": 1.0, "name": "MOUNTAIN MANOR OF PAINTSVILLE", "SF_14": 4.0, "SF_15": 4.0, "cnty": "Johnson", "st": "KY", "Zip": 41240.0, "O_14": 1.0, "Q_15": 1.0, "O_15": 1.0, "city": "PAINTSVILLE", "beds": 126.0, "SR_15": 1.0}, {"Diff_star": -1.0, "addr": "RT 32  EAST, HOWARD CREEK RD", "SR_14": 3.0, "Q_14": 5.0, "name": "ELLIOTT NURSING AND REHABILITATION CENTER", "SF_14": 2.0, "SF_15": 2.0, "cnty": "Elliott", "st": "KY", "Zip": 41171.0, "O_14": 4.0, "Q_15": 3.0, "O_15": 3.0, "city": "SANDY HOOK", "beds": 75.0, "SR_15": 3.0}, {"Diff_star": 0.0, "addr": "2501 KENTUCKY AVENUE", "SR_14": 4.0, "Q_14": 2.0, "name": "BAPTIST HEALTH PADUCAH", "SF_14": 4.0, "SF_15": 5.0, "cnty": "Mc Cracken", "st": "KY", "Zip": 42003.0, "O_14": 4.0, "Q_15": 1.0, "O_15": 4.0, "city": "PADUCAH", "beds": 24.0, "SR_15": 5.0}, {"Diff_star": -1.0, "addr": "12800 PRINCELAND DRIVE", "SR_14": 3.0, "Q_14": 5.0, "name": "BOYD NURSING & REHABILITATION CENTER", "SF_14": 1.0, "SF_15": 1.0, "cnty": "Boyd", "st": "KY", "Zip": 41102.0, "O_14": 3.0, "Q_15": 4.0, "O_15": 2.0, "city": "ASHLAND", "beds": 60.0, "SR_15": 3.0}, {"Diff_star": 0.0, "addr": "1800 WESTEN AVENUE", "SR_14": 5.0, "Q_14": 4.0, "name": "CHRISTIAN HEALTH CENTER", "SF_14": 4.0, "SF_15": 4.0, "cnty": "Warren", "st": "KY", "Zip": 42104.0, "O_14": 5.0, "Q_15": 3.0, "O_15": 5.0, "city": "BOWLING GREEN", "beds": 28.0, "SR_15": 5.0}, {"Diff_star": 0.0, "addr": "4305 NEW SHEPHERDSVILLE ROAD", "SR_14": 4.0, "Q_14": 1.0, "name": "FLAGET MEMORIAL HOSPITAL NF", "SF_14": "", "SF_15": "", "cnty": "Nelson", "st": "KY", "Zip": 40004.0, "O_14": 3.0, "Q_15": 1.0, "O_15": 3.0, "city": "BARDSTOWN", "beds": 12.0, "SR_15": 4.0}, {"Diff_star": 0.0, "addr": "195 BERRYMAN ROAD", "SR_14": 4.0, "Q_14": 1.0, "name": "EDGEWOOD ESTATES", "SF_14": 4.0, "SF_15": 3.0, "cnty": "Menifee", "st": "KY", "Zip": 40322.0, "O_14": 3.0, "Q_15": 1.0, "O_15": 3.0, "city": "FRENCHBURG", "beds": 60.0, "SR_15": 4.0}, {"Diff_star": 0.0, "addr": "913 N. DIXIE AVE.", "SR_14": 4.0, "Q_14": 5.0, "name": "NURSING FACILITY OF HARDIN MEMORIAL HOSPITAL", "SF_14": 4.0, "SF_15": 4.0, "cnty": "Hardin", "st": "KY", "Zip": 42701.0, "O_14": 5.0, "Q_15": 5.0, "O_15": 5.0, "city": "ELIZABETHTOWN", "beds": 15.0, "SR_15": 4.0}, {"Diff_star": 0.0, "addr": "175 HOSPITAL DRIVE", "SR_14": 3.0, "Q_14": 3.0, "name": "CLARK REGIONAL MEDICAL CENTER", "SF_14": 5.0, "SF_15": 4.0, "cnty": "Clark", "st": "KY", "Zip": 40391.0, "O_14": 4.0, "Q_15": 3.0, "O_15": 4.0, "city": "WINCHESTER", "beds": 25.0, "SR_15": 3.0}, {"Diff_star": 0.0, "addr": "222 MEDICAL CIRCLE", "SR_14": 4.0, "Q_14": 1.0, "name": "ST CLAIRE MEDICAL CENTER", "SF_14": "", "SF_15": "", "cnty": "Rowan", "st": "KY", "Zip": 40351.0, "O_14": 3.0, "Q_15": 1.0, "O_15": 3.0, "city": "MOREHEAD", "beds": 10.0, "SR_15": 4.0}, {"Diff_star": 0.0, "addr": "19101 US HIGHWAY 119 NORTH", "SR_14": 3.0, "Q_14": 5.0, "name": "TRI-CITIES NURSING & REHABILITATION CENTER", "SF_14": 4.0, "SF_15": 4.0, "cnty": "Harlan", "st": "KY", "Zip": 40823.0, "O_14": 5.0, "Q_15": 5.0, "O_15": 5.0, "city": "CUMBERLAND", "beds": 85.0, "SR_15": 3.0}, {"Diff_star": -1.0, "addr": "192 BACON CREEK ROAD", "SR_14": 5.0, "Q_14": 2.0, "name": "THE HERITAGE", "SF_14": 4.0, "SF_15": 3.0, "cnty": "Whitley", "st": "KY", "Zip": 40702.0, "O_14": 5.0, "Q_15": 1.0, "O_15": 4.0, "city": "CORBIN", "beds": 85.0, "SR_15": 5.0}, {"Diff_star": -1.0, "addr": "1381 CAMPBELL LANE", "SR_14": 4.0, "Q_14": 5.0, "name": "MAGNOLIA VILLAGE", "SF_14": 3.0, "SF_15": 3.0, "cnty": "Warren", "st": "KY", "Zip": 42104.0, "O_14": 5.0, "Q_15": 3.0, "O_15": 4.0, "city": "BOWLING GREEN", "beds": 60.0, "SR_15": 4.0}, {"Diff_star": 0.0, "addr": "2885 NEW HARTFORD RD", "SR_14": 4.0, "Q_14": 3.0, "name": "WELLINGTON PARC OF OWENSBORO", "SF_14": 5.0, "SF_15": 5.0, "cnty": "Daviess", "st": "KY", "Zip": 42303.0, "O_14": 5.0, "Q_15": 2.0, "O_15": 5.0, "city": "OWENSBORO", "beds": 44.0, "SR_15": 4.0}, {"Diff_star": 0.0, "addr": "105 VILLAGE WAY", "SR_14": 2.0, "Q_14": 4.0, "name": "THE VILLAGE OF LEBANON II, LLC", "SF_14": 4.0, "SF_15": 4.0, "cnty": "Marion", "st": "KY", "Zip": 40033.0, "O_14": 3.0, "Q_15": 3.0, "O_15": 3.0, "city": "LEBANON", "beds": 54.0, "SR_15": 2.0}, {"Diff_star": 0.0, "addr": "1012 RICHWOOD WAY", "SR_14": 1.0, "Q_14": 5.0, "name": "PROVIDENCE RICHWOOD", "SF_14": 4.0, "SF_15": 4.0, "cnty": "Oldham", "st": "KY", "Zip": 40031.0, "O_14": 2.0, "Q_15": 4.0, "O_15": 2.0, "city": "LA GRANGE", "beds": 120.0, "SR_15": 1.0}, {"Diff_star": -2.0, "addr": "2990 RIGGS AVENUE", "SR_14": 3.0, "Q_14": 3.0, "name": "VILLAGE CARE CENTER", "SF_14": 3.0, "SF_15": 3.0, "cnty": "Kenton", "st": "KY", "Zip": 41018.0, "O_14": 3.0, "Q_15": 1.0, "O_15": 1.0, "city": "ERLANGER", "beds": 100.0, "SR_15": 2.0}, {"Diff_star": -1.0, "addr": "2120 PAYNE STREET", "SR_14": 3.0, "Q_14": 4.0, "name": "SACRED HEART VILLAGE", "SF_14": 4.0, "SF_15": 3.0, "cnty": "Jefferson", "st": "KY", "Zip": 40206.0, "O_14": 4.0, "Q_15": 2.0, "O_15": 3.0, "city": "LOUISVILLE", "beds": 121.0, "SR_15": 3.0}, {"Diff_star": 0.0, "addr": "225 SAINT JOHN ROAD", "SR_14": 4.0, "Q_14": 5.0, "name": "KENSINGTON CENTER", "SF_14": 1.0, "SF_15": 1.0, "cnty": "Hardin", "st": "KY", "Zip": 42701.0, "O_14": 4.0, "Q_15": 5.0, "O_15": 4.0, "city": "ELIZABETHTOWN", "beds": 82.0, "SR_15": 4.0}, {"Diff_star": -1.0, "addr": "2020 CAMBRIDGE DRIVE", "SR_14": 1.0, "Q_14": 5.0, "name": "CAMBRIDGE PLACE", "SF_14": 2.0, "SF_15": 2.0, "cnty": "Fayette", "st": "KY", "Zip": 40504.0, "O_14": 2.0, "Q_15": 3.0, "O_15": 1.0, "city": "LEXINGTON", "beds": 118.0, "SR_15": 1.0}, {"Diff_star": 0.0, "addr": "3876 TURKEYFOOT ROAD", "SR_14": 1.0, "Q_14": 3.0, "name": "WOODCREST NURSING & REHABILITATION CENTER", "SF_14": 3.0, "SF_15": 3.0, "cnty": "Kenton", "st": "KY", "Zip": 41018.0, "O_14": 1.0, "Q_15": 1.0, "O_15": 1.0, "city": "ELSMERE", "beds": 127.0, "SR_15": 1.0}, {"Diff_star": 0.0, "addr": "3576 PIMLICO PARKWAY", "SR_14": 1.0, "Q_14": 5.0, "name": "BLUEGRASS CARE & REHABILITATION CENTER", "SF_14": 1.0, "SF_15": 1.0, "cnty": "Fayette", "st": "KY", "Zip": 40517.0, "O_14": 2.0, "Q_15": 5.0, "O_15": 2.0, "city": "LEXINGTON", "beds": 124.0, "SR_15": 1.0}, {"Diff_star": 0.0, "addr": "630 VIOX DRIVE", "SR_14": 3.0, "Q_14": 4.0, "name": "VILLASPRING OF ERLANGER", "SF_14": 1.0, "SF_15": 1.0, "cnty": "Kenton", "st": "KY", "Zip": 41018.0, "O_14": 2.0, "Q_15": 2.0, "O_15": 2.0, "city": "ERLANGER", "beds": 140.0, "SR_15": 3.0}, {"Diff_star": -1.0, "addr": "2500 STATE ROUTE 5", "SR_14": 1.0, "Q_14": 5.0, "name": "KINGSBROOK LIFECARE CENTER", "SF_14": 4.0, "SF_15": 3.0, "cnty": "Boyd", "st": "KY", "Zip": 41102.0, "O_14": 2.0, "Q_15": 4.0, "O_15": 1.0, "city": "ASHLAND", "beds": 147.0, "SR_15": 1.0}, {"Diff_star": -1.0, "addr": "1025 ROBERT L TELFORD DRIVE", "SR_14": 3.0, "Q_14": 2.0, "name": "TELFORD TERRACE", "SF_14": 5.0, "SF_15": 5.0, "cnty": "Madison", "st": "KY", "Zip": 40475.0, "O_14": 4.0, "Q_15": 1.0, "O_15": 3.0, "city": "RICHMOND", "beds": 34.0, "SR_15": 3.0}, {"Diff_star": 0.0, "addr": "300 SHELBY STATION DRIVE", "SR_14": 2.0, "Q_14": 4.0, "name": "OAKLAWN HEALTH & REHABILITATION CENTER", "SF_14": 4.0, "SF_15": 4.0, "cnty": "Jefferson", "st": "KY", "Zip": 40245.0, "O_14": 3.0, "Q_15": 4.0, "O_15": 3.0, "city": "LOUISVILLE", "beds": 130.0, "SR_15": 2.0}, {"Diff_star": 0.0, "addr": "3526 DUTCHMANS LANE", "SR_14": 2.0, "Q_14": 4.0, "name": "DIVERSICARE OF SENECA PLACE", "SF_14": 5.0, "SF_15": 5.0, "cnty": "Jefferson", "st": "KY", "Zip": 40205.0, "O_14": 3.0, "Q_15": 4.0, "O_15": 3.0, "city": "LOUISVILLE", "beds": 107.0, "SR_15": 2.0}, {"Diff_star": 0.0, "addr": "101 ISAAC GREER COURT", "SR_14": 1.0, "Q_14": "", "name": "WINDSOR GARDENS", "SF_14": 5.0, "SF_15": 5.0, "cnty": "Nelson", "st": "KY", "Zip": 40004.0, "O_14": 2.0, "Q_15": "", "O_15": 2.0, "city": "BARDSTOWN", "beds": 30.0, "SR_15": 1.0}, {"Diff_star": 0.0, "addr": "6415 CALM RIVER WAY", "SR_14": 2.0, "Q_14": 4.0, "name": "GLEN RIDGE HEALTH CAMPUS", "SF_14": 4.0, "SF_15": 4.0, "cnty": "Jefferson", "st": "KY", "Zip": 40299.0, "O_14": 3.0, "Q_15": 4.0, "O_15": 3.0, "city": "LOUISVILLE", "beds": 70.0, "SR_15": 2.0}, {"Diff_star": 0.0, "addr": "9700 STONESTREET ROAD", "SR_14": 2.0, "Q_14": 2.0, "name": "PARK TERRACE HEALTH CAMPUS", "SF_14": 3.0, "SF_15": 2.0, "cnty": "Jefferson", "st": "KY", "Zip": 40272.0, "O_14": 2.0, "Q_15": 1.0, "O_15": 2.0, "city": "LOUISVILLE", "beds": 88.0, "SR_15": 3.0}, {"Diff_star": -1.0, "addr": "2770 PALUMBO DRIVE", "SR_14": 2.0, "Q_14": 5.0, "name": "RICHMOND PLACE REHABILITATION AND HEALTH CENTER", "SF_14": 4.0, "SF_15": 4.0, "cnty": "Fayette", "st": "KY", "Zip": 40509.0, "O_14": 4.0, "Q_15": 4.0, "O_15": 3.0, "city": "LEXINGTON", "beds": 120.0, "SR_15": 2.0}, {"Diff_star": -1.0, "addr": "310 BOXWOOD RUN ROAD", "SR_14": 2.0, "Q_14": 2.0, "name": "GREEN MEADOWS HEALTH CARE CENTER 1", "SF_14": 3.0, "SF_15": 3.0, "cnty": "Bullitt", "st": "KY", "Zip": 40047.0, "O_14": 2.0, "Q_15": 1.0, "O_15": 1.0, "city": "MOUNT WASHINGTON", "beds": 122.0, "SR_15": 2.0}, {"Diff_star": -1.0, "addr": "170 SYKES BOULEVARD", "SR_14": 4.0, "Q_14": 3.0, "name": "BRECKINRIDGE PLACE", "SF_14": 5.0, "SF_15": 5.0, "cnty": "Union", "st": "KY", "Zip": 42437.0, "O_14": 5.0, "Q_15": 1.0, "O_15": 4.0, "city": "MORGANFIELD", "beds": 22.0, "SR_15": 4.0}, {"Diff_star": 0.0, "addr": "4247 WESTPORT ROAD", "SR_14": 4.0, "Q_14": 4.0, "name": "WESTPORT PLACE HEALTH CAMPUS", "SF_14": 4.0, "SF_15": 4.0, "cnty": "Jefferson", "st": "KY", "Zip": 40207.0, "O_14": 4.0, "Q_15": 4.0, "O_15": 4.0, "city": "LOUISVILLE", "beds": 62.0, "SR_15": 4.0}, {"Diff_star": 0.0, "addr": "2050 VERSAILLES ROAD", "SR_14": 3.0, "Q_14": 2.0, "name": "CARDINAL HILL REHABILITATION UNIT", "SF_14": 4.0, "SF_15": 4.0, "cnty": "Fayette", "st": "KY", "Zip": 40504.0, "O_14": 4.0, "Q_15": 2.0, "O_15": 4.0, "city": "LEXINGTON", "beds": 74.0, "SR_15": 3.0}, {"Diff_star": 0.0, "addr": "1015 MAGAZINE STREET", "SR_14": 1.0, "Q_14": 4.0, "name": "CHRISTIAN HEALTH CENTER - WEST, INC", "SF_14": 2.0, "SF_15": 2.0, "cnty": "Jefferson", "st": "KY", "Zip": 40203.0, "O_14": 1.0, "Q_15": 2.0, "O_15": 1.0, "city": "LOUISVILLE", "beds": 92.0, "SR_15": 1.0}, {"Diff_star": 0.0, "addr": "106 PADGETT DRIVE", "SR_14": 5.0, "Q_14": 5.0, "name": "ARBOR PLACE OF CLINTON", "SF_14": 3.0, "SF_15": 3.0, "cnty": "Hickman", "st": "KY", "Zip": 42031.0, "O_14": 5.0, "Q_15": 4.0, "O_15": 5.0, "city": "CLINTON", "beds": 88.0, "SR_15": 5.0}, {"Diff_star": -1.0, "addr": "2531 OLD ROSEBUD ROAD", "SR_14": 1.0, "Q_14": 3.0, "name": "THE WILLOWS AT HAMBURG", "SF_14": 5.0, "SF_15": 5.0, "cnty": "Fayette", "st": "KY", "Zip": 40509.0, "O_14": 2.0, "Q_15": 1.0, "O_15": 1.0, "city": "LEXINGTON", "beds": 80.0, "SR_15": 1.0}, {"Diff_star": 0.0, "addr": "200 VETERANS DRIVE", "SR_14": "", "Q_14": "", "name": "PAUL E PATTON EASTERN KY VETERANS CENTER", "SF_14": "", "SF_15": "", "cnty": "Perry", "st": "KY", "Zip": 41701.0, "O_14": "", "Q_15": "", "O_15": "", "city": "HAZARD", "beds": 4.0, "SR_15": ""}, {"Diff_star": 0.0, "addr": "926 VETERANS DRIVE", "SR_14": "", "Q_14": "", "name": "JOSEPH EDDIE BALLARD WESTERN KENTUCKY VETERANS CEN", "SF_14": "", "SF_15": "", "cnty": "Hopkins", "st": "KY", "Zip": 42413.0, "O_14": "", "Q_15": "", "O_15": "", "city": "HANSON", "beds": 4.0, "SR_15": ""}, {"Diff_star": 0.0, "addr": "100 VETERANS DRIVE", "SR_14": 3.0, "Q_14": 4.0, "name": "THOMSON-HOOD VETERANS CENTER", "SF_14": 5.0, "SF_15": 5.0, "cnty": "Jessamine", "st": "KY", "Zip": 40390.0, "O_14": 4.0, "Q_15": 3.0, "O_15": 4.0, "city": "WILMORE", "beds": 285.0, "SR_15": 3.0}, {"Diff_star": 0.0, "addr": "1376 SILVER SPRINGS DRIVE", "SR_14": "", "Q_14": "", "name": "THE WILLOWS AT CITATION", "SF_14": "", "SF_15": "", "cnty": "Fayette", "st": "KY", "Zip": 40511.0, "O_14": "", "Q_15": "", "O_15": "", "city": "LEXINGTON", "beds": 54.0, "SR_15": ""}, {"Diff_star": 0.0, "addr": "1350 BULL LEA ROAD", "SR_14": "", "Q_14": "", "name": "EASTERN STATE HOSPITAL LONG TERM-ACQUIRED BRAIN", "SF_14": "", "SF_15": "", "cnty": "Fayette", "st": "KY", "Zip": 40511.0, "O_14": "", "Q_15": "", "O_15": "", "city": "LEXINGTON", "beds": 44.0, "SR_15": ""}, {"Diff_star": 0.0, "addr": "300 PLAZA DRIVE", "SR_14": "", "Q_14": "", "name": "COLDSPRING TRANSITIONAL CARE CENTER", "SF_14": "", "SF_15": "", "cnty": "Campbell", "st": "KY", "Zip": 41076.0, "O_14": "", "Q_15": "", "O_15": "", "city": "COLD SPRING", "beds": 143.0, "SR_15": ""}]