[{"Diff_star": 0.0, "addr": "2715 ALBERT L. BICKNELL DR", "SR_14": 4.0, "Q_14": 3.0, "name": "PROGRESSIVE CARE CENTER", "SF_14": 2.0, "SF_15": 2.0, "cnty": "Caddo", "st": "LA", "Zip": 71103.0, "O_14": 4.0, "Q_15": 3.0, "O_15": 4.0, "city": "SHREVEPORT", "beds": 131.0, "SR_15": 4.0}, {"Diff_star": 0.0, "addr": "3600 FLORIDA BLVD.", "SR_14": 1.0, "Q_14": 5.0, "name": "BATON ROUGE GEN MED CTR, SNF", "SF_14": 5.0, "SF_15": 5.0, "cnty": "E. Baton Rouge", "st": "LA", "Zip": 70806.0, "O_14": 2.0, "Q_15": 4.0, "O_15": 2.0, "city": "BATON ROUGE", "beds": 62.0, "SR_15": 1.0}, {"Diff_star": 1.0, "addr": "612 HENRY CLAY AVENUE", "SR_14": 3.0, "Q_14": 5.0, "name": "JOHN J HAINKEL JR HOME AND REHABILITATION CENTER", "SF_14": 3.0, "SF_15": 2.0, "cnty": "Orleans", "st": "LA", "Zip": 70118.0, "O_14": 4.0, "Q_15": 5.0, "O_15": 5.0, "city": "NEW ORLEANS", "beds": 142.0, "SR_15": 5.0}, {"Diff_star": -1.0, "addr": "5002 HIGHWAY 10", "SR_14": 1.0, "Q_14": 2.0, "name": "VILLA FELICIANA CHRONIC DISEASE", "SF_14": 4.0, "SF_15": 4.0, "cnty": "East Feliciana", "st": "LA", "Zip": 70748.0, "O_14": 2.0, "Q_15": 1.0, "O_15": 1.0, "city": "JACKSON", "beds": 297.0, "SR_15": 1.0}, {"Diff_star": -2.0, "addr": "3701 BEHRMAN PLACE", "SR_14": 4.0, "Q_14": 5.0, "name": "WILLOW WOOD AT WOLDENBERG VILLAGE", "SF_14": 4.0, "SF_15": 3.0, "cnty": "Orleans", "st": "LA", "Zip": 70114.0, "O_14": 5.0, "Q_15": 3.0, "O_15": 3.0, "city": "NEW ORLEANS", "beds": 120.0, "SR_15": 3.0}, {"Diff_star": 0.0, "addr": "309 JACKSON STREET", "SR_14": 5.0, "Q_14": 2.0, "name": "ST FRANCIS MEDICAL CENTER SNF", "SF_14": 5.0, "SF_15": 5.0, "cnty": "Ouachita", "st": "LA", "Zip": 71210.0, "O_14": 5.0, "Q_15": 3.0, "O_15": 5.0, "city": "MONROE", "beds": 24.0, "SR_15": 5.0}, {"Diff_star": -1.0, "addr": "1420 GENERAL TAYLOR", "SR_14": 2.0, "Q_14": 5.0, "name": "UPTOWN HEALTHCARE CENTER LLC", "SF_14": 3.0, "SF_15": 3.0, "cnty": "Orleans", "st": "LA", "Zip": 70115.0, "O_14": 3.0, "Q_15": 3.0, "O_15": 2.0, "city": "NEW ORLEANS", "beds": 200.0, "SR_15": 2.0}, {"Diff_star": 0.0, "addr": "535 COMMERCE STREET", "SR_14": 4.0, "Q_14": 4.0, "name": "BELLE VIE LIVING CENTER", "SF_14": 4.0, "SF_15": 4.0, "cnty": "Jefferson", "st": "LA", "Zip": 70056.0, "O_14": 4.0, "Q_15": 3.0, "O_15": 4.0, "city": "GRETNA", "beds": 89.0, "SR_15": 4.0}, {"Diff_star": 0.0, "addr": "1400 LINDBERG DRIVE", "SR_14": 4.0, "Q_14": 3.0, "name": "TRINITY NEUROLOGIC REHABILITATION CENTER", "SF_14": 2.0, "SF_15": 2.0, "cnty": "St. Tammany", "st": "LA", "Zip": 70458.0, "O_14": 4.0, "Q_15": 2.0, "O_15": 4.0, "city": "SLIDELL", "beds": 110.0, "SR_15": 4.0}, {"Diff_star": 1.0, "addr": "1221 S CLEARVIEW PARKWAY", "SR_14": 5.0, "Q_14": 3.0, "name": "OCHSNER FOUNDATION HOSP SNF", "SF_14": 1.0, "SF_15": "", "cnty": "Jefferson", "st": "LA", "Zip": 70121.0, "O_14": 4.0, "Q_15": 3.0, "O_15": 5.0, "city": "NEW ORLEANS", "beds": 38.0, "SR_15": 5.0}, {"Diff_star": 0.0, "addr": "503 MCMILLAN ROAD", "SR_14": 1.0, "Q_14": 1.0, "name": "GLENWOOD REGIONAL MED CTR SNF", "SF_14": 2.0, "SF_15": 2.0, "cnty": "Ouachita", "st": "LA", "Zip": 71291.0, "O_14": 1.0, "Q_15": 1.0, "O_15": 1.0, "city": "WEST MONROE", "beds": 14.0, "SR_15": 1.0}, {"Diff_star": 0.0, "addr": "716 VILLAGE ROAD", "SR_14": 1.0, "Q_14": 4.0, "name": "CHATEAU LIVING CENTER", "SF_14": 1.0, "SF_15": 1.0, "cnty": "Jefferson", "st": "LA", "Zip": 70065.0, "O_14": 1.0, "Q_15": 2.0, "O_15": 1.0, "city": "KENNER", "beds": 256.0, "SR_15": 1.0}, {"Diff_star": 0.0, "addr": "8166 MAIN STREET", "SR_14": 5.0, "Q_14": 3.0, "name": "TERREBONNE GENERAL MED CTR SNF", "SF_14": 4.0, "SF_15": 4.0, "cnty": "Terrebonne", "st": "LA", "Zip": 70360.0, "O_14": 5.0, "Q_15": 4.0, "O_15": 5.0, "city": "HOUMA", "beds": 16.0, "SR_15": 5.0}, {"Diff_star": 0.0, "addr": "4200 HOUMA BLVD", "SR_14": 5.0, "Q_14": 1.0, "name": "EAST JEFFERSON HOSPITAL SNF", "SF_14": 5.0, "SF_15": 5.0, "cnty": "Jefferson", "st": "LA", "Zip": 70002.0, "O_14": 4.0, "Q_15": 1.0, "O_15": 4.0, "city": "METAIRIE", "beds": 49.0, "SR_15": 5.0}, {"Diff_star": 1.0, "addr": "400 MONARCH DRIVE", "SR_14": 4.0, "Q_14": 4.0, "name": "OAKS OF HOUMA (THE)", "SF_14": 1.0, "SF_15": 1.0, "cnty": "Terrebonne", "st": "LA", "Zip": 70364.0, "O_14": 3.0, "Q_15": 2.0, "O_15": 4.0, "city": "HOUMA", "beds": 120.0, "SR_15": 5.0}, {"Diff_star": 0.0, "addr": "2401 IDAHO STREET", "SR_14": 1.0, "Q_14": 3.0, "name": "WALDON HEALTH CARE CENTER", "SF_14": 2.0, "SF_15": 2.0, "cnty": "Jefferson", "st": "LA", "Zip": 70062.0, "O_14": 1.0, "Q_15": 1.0, "O_15": 1.0, "city": "KENNER", "beds": 205.0, "SR_15": 1.0}, {"Diff_star": 0.0, "addr": "4502 GENERAL MEYERS AVENUE", "SR_14": 3.0, "Q_14": 4.0, "name": "JO ELLEN SMITH CONV CTR", "SF_14": 1.0, "SF_15": 1.0, "cnty": "Orleans", "st": "LA", "Zip": 70131.0, "O_14": 2.0, "Q_15": 2.0, "O_15": 2.0, "city": "NEW ORLEANS", "beds": 180.0, "SR_15": 3.0}, {"Diff_star": -1.0, "addr": "1050 MEDICAL CENTER", "SR_14": 5.0, "Q_14": 3.0, "name": "WYNHOVEN HEALTH CARE CENTER", "SF_14": 3.0, "SF_15": 3.0, "cnty": "Jefferson", "st": "LA", "Zip": 70072.0, "O_14": 5.0, "Q_15": 1.0, "O_15": 4.0, "city": "MARRERO", "beds": 188.0, "SR_15": 5.0}, {"Diff_star": 0.0, "addr": "708 KEYSER AVENUE", "SR_14": 1.0, "Q_14": 2.0, "name": "COURTYARD OF NATCHITOCHES", "SF_14": 3.0, "SF_15": 3.0, "cnty": "Natchitoches", "st": "LA", "Zip": 71457.0, "O_14": 1.0, "Q_15": 1.0, "O_15": 1.0, "city": "NATCHITOCHES", "beds": 108.0, "SR_15": 2.0}, {"Diff_star": -1.0, "addr": "14500 HAYNES BLVD.", "SR_14": 3.0, "Q_14": 5.0, "name": "FERNCREST MANOR LIVING CENTER", "SF_14": 3.0, "SF_15": 3.0, "cnty": "Orleans", "st": "LA", "Zip": 70128.0, "O_14": 4.0, "Q_15": 3.0, "O_15": 3.0, "city": "NEW ORLEANS", "beds": 200.0, "SR_15": 3.0}, {"Diff_star": 0.0, "addr": "106 MEDICAL CENTER DRIVE", "SR_14": 1.0, "Q_14": 4.0, "name": "HERITAGE MANOR OF SLIDELL", "SF_14": 3.0, "SF_15": 3.0, "cnty": "St. Tammany", "st": "LA", "Zip": 70461.0, "O_14": 1.0, "Q_15": 4.0, "O_15": 1.0, "city": "SLIDELL", "beds": 120.0, "SR_15": 1.0}, {"Diff_star": -1.0, "addr": "22 PLANTATION ROAD", "SR_14": 3.0, "Q_14": 5.0, "name": "ORMOND NURSING & CARE CENTER", "SF_14": 1.0, "SF_15": 1.0, "cnty": "St. Charles", "st": "LA", "Zip": 70047.0, "O_14": 3.0, "Q_15": 2.0, "O_15": 2.0, "city": "DESTREHAN", "beds": 146.0, "SR_15": 3.0}, {"Diff_star": -1.0, "addr": "4405 AIRLINE DRIVE", "SR_14": 3.0, "Q_14": 2.0, "name": "GARDEN COURT HEALTH AND REHABILITATION CENTER", "SF_14": 5.0, "SF_15": 5.0, "cnty": "Bossier", "st": "LA", "Zip": 71111.0, "O_14": 4.0, "Q_15": 1.0, "O_15": 3.0, "city": "BOSSIER CITY", "beds": 77.0, "SR_15": 3.0}, {"Diff_star": 0.0, "addr": "9111 LINWOOD AVENUE", "SR_14": 2.0, "Q_14": 4.0, "name": "GARDEN PARK NURSING & REHAB CTR, LLC", "SF_14": 2.0, "SF_15": 2.0, "cnty": "Caddo", "st": "LA", "Zip": 71106.0, "O_14": 2.0, "Q_15": 2.0, "O_15": 2.0, "city": "SHREVEPORT", "beds": 160.0, "SR_15": 2.0}, {"Diff_star": 0.0, "addr": "8275 HIGHWAY 165", "SR_14": 4.0, "Q_14": 4.0, "name": "WOODS HAVEN SR CITIZENS HOME", "SF_14": 1.0, "SF_15": 1.0, "cnty": "Grant", "st": "LA", "Zip": 71467.0, "O_14": 3.0, "Q_15": 2.0, "O_15": 3.0, "city": "POLLOCK", "beds": 103.0, "SR_15": 4.0}, {"Diff_star": -1.0, "addr": "6340 HIGHWAY 4", "SR_14": 3.0, "Q_14": 3.0, "name": "PLANTATION MANOR NURSING AND REHAB CENTER, LLC", "SF_14": 2.0, "SF_15": 2.0, "cnty": "Franklin", "st": "LA", "Zip": 71295.0, "O_14": 3.0, "Q_15": 1.0, "O_15": 2.0, "city": "WINNSBORO", "beds": 130.0, "SR_15": 3.0}, {"Diff_star": -1.0, "addr": "1181 HWY 19", "SR_14": 3.0, "Q_14": 5.0, "name": "GRACE NURSING HOME", "SF_14": 3.0, "SF_15": 3.0, "cnty": "East Feliciana", "st": "LA", "Zip": 70777.0, "O_14": 4.0, "Q_15": 2.0, "O_15": 3.0, "city": "SLAUGHTER", "beds": 128.0, "SR_15": 3.0}, {"Diff_star": -1.0, "addr": "7726 US HWY. 165", "SR_14": 4.0, "Q_14": 5.0, "name": "HAVEN NURSING CENTER", "SF_14": 4.0, "SF_15": 3.0, "cnty": "Caldwell", "st": "LA", "Zip": 71418.0, "O_14": 5.0, "Q_15": 4.0, "O_15": 4.0, "city": "COLUMBIA", "beds": 99.0, "SR_15": 4.0}, {"Diff_star": 0.0, "addr": "401 E VAUGHN AVENUE", "SR_14": 4.0, "Q_14": 5.0, "name": "NORTHERN LOUISIANA MEDICAL CENTER", "SF_14": 5.0, "SF_15": 5.0, "cnty": "Lincoln", "st": "LA", "Zip": 71270.0, "O_14": 5.0, "Q_15": 5.0, "O_15": 5.0, "city": "RUSTON", "beds": 12.0, "SR_15": 4.0}, {"Diff_star": -1.0, "addr": "2200 JEFFERSON HWY", "SR_14": 2.0, "Q_14": 5.0, "name": "JEFFERSON HEALTHCARE CENTER", "SF_14": 1.0, "SF_15": 1.0, "cnty": "Jefferson", "st": "LA", "Zip": 70121.0, "O_14": 2.0, "Q_15": 3.0, "O_15": 1.0, "city": "JEFFERSON", "beds": 276.0, "SR_15": 2.0}, {"Diff_star": 0.0, "addr": "2110 AUDUBON AVENUE", "SR_14": 5.0, "Q_14": 5.0, "name": "AUDUBON HEALTH AND REHAB", "SF_14": 2.0, "SF_15": 2.0, "cnty": "Lafourche", "st": "LA", "Zip": 70301.0, "O_14": 5.0, "Q_15": 5.0, "O_15": 5.0, "city": "THIBODAUX", "beds": 180.0, "SR_15": 5.0}, {"Diff_star": -1.0, "addr": "6401 RIVERSIDE DRIVE", "SR_14": 5.0, "Q_14": 3.0, "name": "METAIRIE HEALTH CARE CENTER", "SF_14": 4.0, "SF_15": 3.0, "cnty": "Jefferson", "st": "LA", "Zip": 70003.0, "O_14": 5.0, "Q_15": 1.0, "O_15": 4.0, "city": "METAIRIE", "beds": 202.0, "SR_15": 5.0}, {"Diff_star": 0.0, "addr": "1820 W. CAUSEWAY APPROACH", "SR_14": 3.0, "Q_14": 5.0, "name": "HERITAGE MANOR OF MANDEVILLE", "SF_14": 2.0, "SF_15": 2.0, "cnty": "St. Tammany", "st": "LA", "Zip": 70471.0, "O_14": 4.0, "Q_15": 5.0, "O_15": 4.0, "city": "MANDEVILLE", "beds": 145.0, "SR_15": 3.0}, {"Diff_star": -1.0, "addr": "400 MEADOWVIEW DRIVE", "SR_14": 3.0, "Q_14": 4.0, "name": "MEADOWVIEW HEALTH & REHAB CENTER", "SF_14": 2.0, "SF_15": 2.0, "cnty": "Webster", "st": "LA", "Zip": 71055.0, "O_14": 3.0, "Q_15": 1.0, "O_15": 2.0, "city": "MINDEN", "beds": 230.0, "SR_15": 3.0}, {"Diff_star": 0.0, "addr": "110 SERIO BLVD", "SR_14": 1.0, "Q_14": 3.0, "name": "HERITAGE MANOR HEALTH & REHAB", "SF_14": 1.0, "SF_15": 1.0, "cnty": "Concordia", "st": "LA", "Zip": 71334.0, "O_14": 1.0, "Q_15": 2.0, "O_15": 1.0, "city": "FERRIDAY", "beds": 120.0, "SR_15": 2.0}, {"Diff_star": 0.0, "addr": "750 KEYSER AVENUE", "SR_14": 3.0, "Q_14": 5.0, "name": "NATCHITOCHES NURSING AND REHABILITATION CENTER, LL", "SF_14": 1.0, "SF_15": 1.0, "cnty": "Natchitoches", "st": "LA", "Zip": 71457.0, "O_14": 3.0, "Q_15": 5.0, "O_15": 3.0, "city": "NATCHITOCHES", "beds": 98.0, "SR_15": 3.0}, {"Diff_star": 0.0, "addr": "1401 HIGHWAY 190", "SR_14": 2.0, "Q_14": 3.0, "name": "PONTCHARTRAIN HEALTH CARE CENTER", "SF_14": 1.0, "SF_15": 1.0, "cnty": "St. Tammany", "st": "LA", "Zip": 70448.0, "O_14": 1.0, "Q_15": 1.0, "O_15": 1.0, "city": "MANDEVILLE", "beds": 182.0, "SR_15": 2.0}, {"Diff_star": 0.0, "addr": "505 ROBERT BLVD.", "SR_14": 1.0, "Q_14": 4.0, "name": "GREENBRIAR COMMUNITY CARE CENTER", "SF_14": 3.0, "SF_15": 3.0, "cnty": "St. Tammany", "st": "LA", "Zip": 70458.0, "O_14": 1.0, "Q_15": 1.0, "O_15": 1.0, "city": "SLIDELL", "beds": 174.0, "SR_15": 1.0}, {"Diff_star": -1.0, "addr": "1051 ROBERT BLVD", "SR_14": 4.0, "Q_14": 5.0, "name": "GUEST HOUSE OF SLIDELL", "SF_14": 4.0, "SF_15": 4.0, "cnty": "St. Tammany", "st": "LA", "Zip": 70458.0, "O_14": 5.0, "Q_15": 3.0, "O_15": 4.0, "city": "SLIDELL", "beds": 116.0, "SR_15": 3.0}, {"Diff_star": 0.0, "addr": "506 WEST 5TH STREET", "SR_14": 2.0, "Q_14": 5.0, "name": "TWIN OAKS NURSING HOME", "SF_14": 4.0, "SF_15": 4.0, "cnty": "St. John Baptist", "st": "LA", "Zip": 70068.0, "O_14": 4.0, "Q_15": 5.0, "O_15": 4.0, "city": "LAPLACE", "beds": 148.0, "SR_15": 2.0}, {"Diff_star": -2.0, "addr": "1980 JEFFERSON HWY", "SR_14": 3.0, "Q_14": 5.0, "name": "CHATEAU ST. JAMES REHAB AND RETIREMENT", "SF_14": 4.0, "SF_15": 3.0, "cnty": "St. James", "st": "LA", "Zip": 70071.0, "O_14": 5.0, "Q_15": 3.0, "O_15": 3.0, "city": "LUTCHER", "beds": 116.0, "SR_15": 3.0}, {"Diff_star": 0.0, "addr": "4302 HWY. 1", "SR_14": 1.0, "Q_14": 2.0, "name": "RACELAND MANOR NURSING HOME, INC", "SF_14": 2.0, "SF_15": 2.0, "cnty": "Lafourche", "st": "LA", "Zip": 70394.0, "O_14": 1.0, "Q_15": 1.0, "O_15": 1.0, "city": "RACELAND", "beds": 102.0, "SR_15": 1.0}, {"Diff_star": 0.0, "addr": "107 SOUTH HOLLYWOOD DRIVE", "SR_14": 2.0, "Q_14": 4.0, "name": "MAISON DE'VILLE NURSING HOME", "SF_14": 1.0, "SF_15": 1.0, "cnty": "Terrebonne", "st": "LA", "Zip": 70360.0, "O_14": 1.0, "Q_15": 1.0, "O_15": 1.0, "city": "HOUMA", "beds": 200.0, "SR_15": 2.0}, {"Diff_star": 0.0, "addr": "3201 WALL BLVD", "SR_14": 4.0, "Q_14": 4.0, "name": "BAYSIDE HEALTHCARE CENTER", "SF_14": 4.0, "SF_15": 4.0, "cnty": "Jefferson", "st": "LA", "Zip": 70056.0, "O_14": 4.0, "Q_15": 2.0, "O_15": 4.0, "city": "GRETNA", "beds": 151.0, "SR_15": 4.0}, {"Diff_star": -1.0, "addr": "120 NATCHITOCHES HWY 6 EAST", "SR_14": 3.0, "Q_14": 5.0, "name": "MANY HEALTHCARE NORTH", "SF_14": 1.0, "SF_15": 1.0, "cnty": "Sabine", "st": "LA", "Zip": 71449.0, "O_14": 3.0, "Q_15": 4.0, "O_15": 2.0, "city": "MANY", "beds": 188.0, "SR_15": 3.0}, {"Diff_star": 0.0, "addr": "725 MITCHELL LANE", "SR_14": 1.0, "Q_14": 3.0, "name": "PIERREMONT HEALTHCARE CENTER", "SF_14": 1.0, "SF_15": 1.0, "cnty": "Caddo", "st": "LA", "Zip": 71106.0, "O_14": 1.0, "Q_15": 1.0, "O_15": 1.0, "city": "SHREVEPORT", "beds": 196.0, "SR_15": 1.0}, {"Diff_star": 0.0, "addr": "606 LATIOLAIS ROAD", "SR_14": 4.0, "Q_14": 5.0, "name": "ST AGNES HEALTHCARE AND REHAB CENTER", "SF_14": 2.0, "SF_15": 2.0, "cnty": "St. Martin", "st": "LA", "Zip": 70517.0, "O_14": 5.0, "Q_15": 5.0, "O_15": 5.0, "city": "BREAUX BRIDGE", "beds": 128.0, "SR_15": 4.0}, {"Diff_star": 0.0, "addr": "1338 NORTH CUTTING AVENUE", "SR_14": 4.0, "Q_14": 3.0, "name": "JEFF DAVIS LIVING CENTER, LLC", "SF_14": 1.0, "SF_15": 1.0, "cnty": "Jeffrson Davis", "st": "LA", "Zip": 70546.0, "O_14": 3.0, "Q_15": 2.0, "O_15": 3.0, "city": "JENNINGS", "beds": 120.0, "SR_15": 4.0}, {"Diff_star": -1.0, "addr": "1300 W. EIGHTH STREET", "SR_14": 2.0, "Q_14": 5.0, "name": "KAPLAN HEALTHCARE CENTER", "SF_14": 2.0, "SF_15": 2.0, "cnty": "Vermilion", "st": "LA", "Zip": 70548.0, "O_14": 3.0, "Q_15": 4.0, "O_15": 2.0, "city": "KAPLAN", "beds": 120.0, "SR_15": 2.0}, {"Diff_star": 0.0, "addr": "1536 CLAIBORNE AVENUE", "SR_14": 2.0, "Q_14": 4.0, "name": "CLAIBORNE HEALTHCARE CENTER", "SF_14": 1.0, "SF_15": 1.0, "cnty": "Caddo", "st": "LA", "Zip": 71103.0, "O_14": 1.0, "Q_15": 3.0, "O_15": 1.0, "city": "SHREVEPORT", "beds": 86.0, "SR_15": 2.0}, {"Diff_star": 0.0, "addr": "315 HARRY GUILBEAU ROAD", "SR_14": 3.0, "Q_14": 5.0, "name": "SENIOR VILLAGE NURSING & REHABILITATION CENTER", "SF_14": 1.0, "SF_15": 1.0, "cnty": "St. Landry", "st": "LA", "Zip": 70570.0, "O_14": 3.0, "Q_15": 5.0, "O_15": 3.0, "city": "OPELOUSAS", "beds": 176.0, "SR_15": 3.0}, {"Diff_star": -1.0, "addr": "1300 LAFOURCHE DRIVE", "SR_14": 3.0, "Q_14": 5.0, "name": "THIBODAUX HEALTHCARE CENTER", "SF_14": 1.0, "SF_15": 1.0, "cnty": "Lafourche", "st": "LA", "Zip": 70301.0, "O_14": 3.0, "Q_15": 4.0, "O_15": 2.0, "city": "THIBODAUX", "beds": 78.0, "SR_15": 3.0}, {"Diff_star": 0.0, "addr": "7941 I-49 SOUTH SERVICE ROAD", "SR_14": 4.0, "Q_14": 5.0, "name": "HERITAGE MANOR OF OPELOUSAS", "SF_14": 1.0, "SF_15": 1.0, "cnty": "St. Landry", "st": "LA", "Zip": 70570.0, "O_14": 4.0, "Q_15": 5.0, "O_15": 4.0, "city": "OPELOUSAS", "beds": 109.0, "SR_15": 4.0}, {"Diff_star": 0.0, "addr": "2575 AIRLINE DRIVE", "SR_14": 3.0, "Q_14": 3.0, "name": "HERITAGE MANOR OF BOSSIER", "SF_14": 3.0, "SF_15": 2.0, "cnty": "Bossier", "st": "LA", "Zip": 71111.0, "O_14": 3.0, "Q_15": 1.0, "O_15": 3.0, "city": "BOSSIER CITY", "beds": 64.0, "SR_15": 4.0}, {"Diff_star": 0.0, "addr": "2000 MAIN STREET", "SR_14": 1.0, "Q_14": 2.0, "name": "HERITAGE MANOR OF FRANKLINTON", "SF_14": 1.0, "SF_15": 1.0, "cnty": "Washington", "st": "LA", "Zip": 70438.0, "O_14": 1.0, "Q_15": 1.0, "O_15": 1.0, "city": "FRANKLINTON", "beds": 121.0, "SR_15": 1.0}, {"Diff_star": 0.0, "addr": "912 SOUTH PECAN STREET", "SR_14": 3.0, "Q_14": 5.0, "name": "VIVIAN HEALTHCARE CENTER", "SF_14": 1.0, "SF_15": 1.0, "cnty": "Caddo", "st": "LA", "Zip": 71082.0, "O_14": 3.0, "Q_15": 5.0, "O_15": 3.0, "city": "VIVIAN", "beds": 100.0, "SR_15": 3.0}, {"Diff_star": -1.0, "addr": "600 BAYARD ST", "SR_14": 3.0, "Q_14": 5.0, "name": "NEW IBERIA MANOR SOUTH", "SF_14": 3.0, "SF_15": 3.0, "cnty": "Iberia", "st": "LA", "Zip": 70560.0, "O_14": 4.0, "Q_15": 3.0, "O_15": 3.0, "city": "NEW IBERIA", "beds": 100.0, "SR_15": 3.0}, {"Diff_star": 0.0, "addr": "905 WEST CORNERVIEW ROAD", "SR_14": 1.0, "Q_14": 5.0, "name": "GONZALES HEALTHCARE CENTER", "SF_14": 1.0, "SF_15": 1.0, "cnty": "Ascension", "st": "LA", "Zip": 70737.0, "O_14": 2.0, "Q_15": 5.0, "O_15": 2.0, "city": "GONZALES", "beds": 124.0, "SR_15": 1.0}, {"Diff_star": -1.0, "addr": "1803 JANE STREET", "SR_14": 1.0, "Q_14": 5.0, "name": "NEW IBERIA MANOR NORTH", "SF_14": 2.0, "SF_15": 2.0, "cnty": "Iberia", "st": "LA", "Zip": 70563.0, "O_14": 2.0, "Q_15": 4.0, "O_15": 1.0, "city": "NEW IBERIA", "beds": 121.0, "SR_15": 1.0}, {"Diff_star": -1.0, "addr": "24320 FERDINAND STREET", "SR_14": 2.0, "Q_14": 2.0, "name": "PLAQUEMINE MANOR NURSING HOME", "SF_14": 4.0, "SF_15": 4.0, "cnty": "Iberville", "st": "LA", "Zip": 70764.0, "O_14": 3.0, "Q_15": 1.0, "O_15": 2.0, "city": "PLAQUEMINE", "beds": 120.0, "SR_15": 2.0}, {"Diff_star": 0.0, "addr": "325 BACQUE CRESCENT DRIVE", "SR_14": 1.0, "Q_14": 5.0, "name": "LAFAYETTE CARE CENTER", "SF_14": 1.0, "SF_15": 1.0, "cnty": "Lafayette", "st": "LA", "Zip": 70503.0, "O_14": 2.0, "Q_15": 5.0, "O_15": 2.0, "city": "LAFAYETTE", "beds": 60.0, "SR_15": 1.0}, {"Diff_star": -1.0, "addr": "5301 AUGUST AVENUE", "SR_14": 4.0, "Q_14": 5.0, "name": "MARRERO HEALTHCARE CENTER", "SF_14": 2.0, "SF_15": 2.0, "cnty": "Jefferson", "st": "LA", "Zip": 70072.0, "O_14": 5.0, "Q_15": 3.0, "O_15": 4.0, "city": "MARRERO", "beds": 134.0, "SR_15": 4.0}, {"Diff_star": 0.0, "addr": "5301 TULLIS DRIVE", "SR_14": 2.0, "Q_14": 3.0, "name": "CARRINGTON PLACE OF NEW ORLEANS", "SF_14": 1.0, "SF_15": 1.0, "cnty": "Orleans", "st": "LA", "Zip": 70131.0, "O_14": 1.0, "Q_15": 1.0, "O_15": 1.0, "city": "NEW ORLEANS", "beds": 186.0, "SR_15": 2.0}, {"Diff_star": 0.0, "addr": "405 MILTON ROAD", "SR_14": 4.0, "Q_14": 4.0, "name": "PELICAN POINTE HEALTHCARE AND REHABILITATION", "SF_14": 1.0, "SF_15": 1.0, "cnty": "Vermilion", "st": "LA", "Zip": 70555.0, "O_14": 3.0, "Q_15": 2.0, "O_15": 3.0, "city": "MAURICE", "beds": 120.0, "SR_15": 4.0}, {"Diff_star": -1.0, "addr": "59215 RIVER WEST DRIVE", "SR_14": 4.0, "Q_14": 2.0, "name": "PLAQUEMINE CARING LLC", "SF_14": 1.0, "SF_15": 1.0, "cnty": "Iberville", "st": "LA", "Zip": 70764.0, "O_14": 3.0, "Q_15": 1.0, "O_15": 2.0, "city": "PLAQUEMINE", "beds": 151.0, "SR_15": 4.0}, {"Diff_star": 0.0, "addr": "8622 LINE AVENUE", "SR_14": 3.0, "Q_14": 4.0, "name": "GUEST CARE AT SPRINGLAKE, LLC (THE)", "SF_14": 1.0, "SF_15": 1.0, "cnty": "Caddo", "st": "LA", "Zip": 71106.0, "O_14": 2.0, "Q_15": 4.0, "O_15": 2.0, "city": "SHREVEPORT", "beds": 160.0, "SR_15": 3.0}, {"Diff_star": 0.0, "addr": "660 FACTORY OUTLET DRIVE", "SR_14": 4.0, "Q_14": 4.0, "name": "WILLOW RIDGE NURSING AND REHAB CENTER", "SF_14": 2.0, "SF_15": 2.0, "cnty": "Bienville", "st": "LA", "Zip": 71001.0, "O_14": 4.0, "Q_15": 2.0, "O_15": 4.0, "city": "ARCADIA", "beds": 120.0, "SR_15": 4.0}, {"Diff_star": -1.0, "addr": "28119 HWY 190", "SR_14": 4.0, "Q_14": 2.0, "name": "LACOMBE NURSING CENTER", "SF_14": 4.0, "SF_15": 3.0, "cnty": "St. Tammany", "st": "LA", "Zip": 70445.0, "O_14": 4.0, "Q_15": 1.0, "O_15": 3.0, "city": "LACOMBE", "beds": 98.0, "SR_15": 4.0}, {"Diff_star": -2.0, "addr": "709 EAST NORTH PLACE", "SR_14": 2.0, "Q_14": 3.0, "name": "TANGI PINES NURSING CENTER", "SF_14": 4.0, "SF_15": 3.0, "cnty": "Tangipahoa", "st": "LA", "Zip": 70422.0, "O_14": 3.0, "Q_15": 1.0, "O_15": 1.0, "city": "AMITE", "beds": 100.0, "SR_15": 2.0}, {"Diff_star": -1.0, "addr": "1736 IRVING PLACE", "SR_14": 2.0, "Q_14": 5.0, "name": "NURSECARE NURSING & REHABILITATION CENTER", "SF_14": 1.0, "SF_15": 1.0, "cnty": "Caddo", "st": "LA", "Zip": 71101.0, "O_14": 2.0, "Q_15": 3.0, "O_15": 1.0, "city": "SHREVEPORT", "beds": 227.0, "SR_15": 2.0}, {"Diff_star": -1.0, "addr": "215 FIRST STREET N E", "SR_14": 2.0, "Q_14": 5.0, "name": "CARRINGTON PLACE OF SPRINGHILL", "SF_14": 1.0, "SF_15": 1.0, "cnty": "Webster", "st": "LA", "Zip": 71075.0, "O_14": 2.0, "Q_15": 4.0, "O_15": 1.0, "city": "SPRINGHILL", "beds": 153.0, "SR_15": 2.0}, {"Diff_star": -1.0, "addr": "6400 HAYNE BLVD.", "SR_14": 5.0, "Q_14": 5.0, "name": "GOOD SAMARITAN REHABILITATION AND NURSING CTR", "SF_14": 1.0, "SF_15": 1.0, "cnty": "Orleans", "st": "LA", "Zip": 70126.0, "O_14": 5.0, "Q_15": 4.0, "O_15": 4.0, "city": "NEW ORLEANS", "beds": 200.0, "SR_15": 5.0}, {"Diff_star": 0.0, "addr": "1125 PAUL MAILLARD RD", "SR_14": 4.0, "Q_14": 1.0, "name": "LULING LIVING CENTER", "SF_14": 1.0, "SF_15": 1.0, "cnty": "St. Charles", "st": "LA", "Zip": 70070.0, "O_14": 2.0, "Q_15": 1.0, "O_15": 2.0, "city": "LULING", "beds": 117.0, "SR_15": 4.0}, {"Diff_star": 0.0, "addr": "2301 STERLINGTON ROAD", "SR_14": 2.0, "Q_14": 4.0, "name": "CHRISTUS ST. JOSEPH HOME", "SF_14": 2.0, "SF_15": 2.0, "cnty": "Ouachita", "st": "LA", "Zip": 71203.0, "O_14": 2.0, "Q_15": 2.0, "O_15": 2.0, "city": "MONROE", "beds": 130.0, "SR_15": 2.0}, {"Diff_star": 0.0, "addr": "5550 THOMAS ROAD", "SR_14": 3.0, "Q_14": 4.0, "name": "BATON ROUGE HEALTH CARE CENTER", "SF_14": 4.0, "SF_15": 4.0, "cnty": "E. Baton Rouge", "st": "LA", "Zip": 70811.0, "O_14": 4.0, "Q_15": 4.0, "O_15": 4.0, "city": "BATON ROUGE", "beds": 145.0, "SR_15": 3.0}, {"Diff_star": -1.0, "addr": "6161 MAIN STREET", "SR_14": 4.0, "Q_14": 5.0, "name": "ZACHARY MANOR NURSING AND REHABILITATION CENTER", "SF_14": 1.0, "SF_15": 1.0, "cnty": "E. Baton Rouge", "st": "LA", "Zip": 70791.0, "O_14": 4.0, "Q_15": 4.0, "O_15": 3.0, "city": "ZACHARY", "beds": 110.0, "SR_15": 4.0}, {"Diff_star": -1.0, "addr": "309 S LOUISIANA ST", "SR_14": 4.0, "Q_14": 3.0, "name": "WHISPERING PINES NURSING HOME", "SF_14": 1.0, "SF_15": 1.0, "cnty": "Bossier", "st": "LA", "Zip": 71064.0, "O_14": 3.0, "Q_15": 1.0, "O_15": 2.0, "city": "PLAIN DEALING", "beds": 89.0, "SR_15": 4.0}, {"Diff_star": 0.0, "addr": "2707 KALISTE SALOOM ROAD", "SR_14": 2.0, "Q_14": 4.0, "name": "MAISON DE LAFAYETTE", "SF_14": 1.0, "SF_15": 1.0, "cnty": "Lafayette", "st": "LA", "Zip": 70508.0, "O_14": 1.0, "Q_15": 3.0, "O_15": 1.0, "city": "LAFAYETTE", "beds": 189.0, "SR_15": 2.0}, {"Diff_star": 1.0, "addr": "954 E PRUDHOMME LANE", "SR_14": 1.0, "Q_14": 4.0, "name": "OUR LADY OF PROMPT SUCCOR NURSING FACILITY", "SF_14": 2.0, "SF_15": 4.0, "cnty": "St. Landry", "st": "LA", "Zip": 70570.0, "O_14": 1.0, "Q_15": 2.0, "O_15": 2.0, "city": "OPELOUSAS", "beds": 120.0, "SR_15": 1.0}, {"Diff_star": -1.0, "addr": "294 HWY 3048", "SR_14": 2.0, "Q_14": 2.0, "name": "RAYVILLE NURSING & REHABILITATION  CENTER INC", "SF_14": 2.0, "SF_15": 1.0, "cnty": "Richland", "st": "LA", "Zip": 71269.0, "O_14": 2.0, "Q_15": 1.0, "O_15": 1.0, "city": "RAYVILLE", "beds": 149.0, "SR_15": 2.0}, {"Diff_star": 0.0, "addr": "405 FOLSE DRIVE", "SR_14": 3.0, "Q_14": 4.0, "name": "ST JOSEPH OF HARAHAN", "SF_14": 1.0, "SF_15": 1.0, "cnty": "Jefferson", "st": "LA", "Zip": 70123.0, "O_14": 2.0, "Q_15": 3.0, "O_15": 2.0, "city": "HARAHAN", "beds": 206.0, "SR_15": 3.0}, {"Diff_star": -1.0, "addr": "1525 W MCNEESE ST.", "SR_14": 3.0, "Q_14": 3.0, "name": "GRAND COVE NURSING & REHABILITATION CENTER", "SF_14": 3.0, "SF_15": 3.0, "cnty": "Calcasieu", "st": "LA", "Zip": 70605.0, "O_14": 3.0, "Q_15": 1.0, "O_15": 2.0, "city": "LAKE CHARLES", "beds": 109.0, "SR_15": 3.0}, {"Diff_star": 0.0, "addr": "9225 NORMANDIE DRIVE", "SR_14": 3.0, "Q_14": 4.0, "name": "GUEST HOUSE (THE)", "SF_14": 1.0, "SF_15": 1.0, "cnty": "Caddo", "st": "LA", "Zip": 71118.0, "O_14": 2.0, "Q_15": 3.0, "O_15": 2.0, "city": "SHREVEPORT", "beds": 177.0, "SR_15": 3.0}, {"Diff_star": 0.0, "addr": "100 CHRISTWOOD BLVD.", "SR_14": 4.0, "Q_14": 4.0, "name": "CHRISTWOOD", "SF_14": 4.0, "SF_15": 4.0, "cnty": "St. Tammany", "st": "LA", "Zip": 70433.0, "O_14": 4.0, "Q_15": 2.0, "O_15": 4.0, "city": "COVINGTON", "beds": 30.0, "SR_15": 4.0}, {"Diff_star": 0.0, "addr": "3888 NORTH BLVD.", "SR_14": 1.0, "Q_14": 5.0, "name": "STERLING PLACE", "SF_14": 1.0, "SF_15": 1.0, "cnty": "E. Baton Rouge", "st": "LA", "Zip": 70806.0, "O_14": 2.0, "Q_15": 5.0, "O_15": 2.0, "city": "BATON ROUGE", "beds": 160.0, "SR_15": 1.0}, {"Diff_star": -1.0, "addr": "883 MAIN STREET", "SR_14": 4.0, "Q_14": 5.0, "name": "J. MICHAEL MORROW MEMORIAL NURSING  HOME", "SF_14": 2.0, "SF_15": 2.0, "cnty": "St. Landry", "st": "LA", "Zip": 70512.0, "O_14": 5.0, "Q_15": 2.0, "O_15": 4.0, "city": "ARNAUDVILLE", "beds": 175.0, "SR_15": 4.0}, {"Diff_star": 0.0, "addr": "740 JUSTA STREET", "SR_14": 1.0, "Q_14": 4.0, "name": "MORGAN CITY HEALTH CARE CENTER", "SF_14": 3.0, "SF_15": 2.0, "cnty": "St. Mary", "st": "LA", "Zip": 70380.0, "O_14": 1.0, "Q_15": 2.0, "O_15": 1.0, "city": "MORGAN CITY", "beds": 88.0, "SR_15": 1.0}, {"Diff_star": -1.0, "addr": "1907 CHINABERRY STREET", "SR_14": 2.0, "Q_14": 5.0, "name": "FRANKLIN HEALTH CARE CENTER", "SF_14": 1.0, "SF_15": 1.0, "cnty": "St. Mary", "st": "LA", "Zip": 70538.0, "O_14": 2.0, "Q_15": 3.0, "O_15": 1.0, "city": "FRANKLIN", "beds": 152.0, "SR_15": 2.0}, {"Diff_star": 0.0, "addr": "1335 WOODDALE BLVD.", "SR_14": 4.0, "Q_14": 4.0, "name": "BATON ROUGE HERITAGE HOUSE I I", "SF_14": 3.0, "SF_15": 3.0, "cnty": "E. Baton Rouge", "st": "LA", "Zip": 70806.0, "O_14": 4.0, "Q_15": 2.0, "O_15": 4.0, "city": "BATON ROUGE", "beds": 130.0, "SR_15": 4.0}, {"Diff_star": -1.0, "addr": "336 EDGEWOOD DRIVE", "SR_14": 2.0, "Q_14": 5.0, "name": "HILLTOP NURSING & REHABILITATION CENTER", "SF_14": 3.0, "SF_15": 3.0, "cnty": "Rapides", "st": "LA", "Zip": 71360.0, "O_14": 3.0, "Q_15": 4.0, "O_15": 2.0, "city": "PINEVILLE", "beds": 130.0, "SR_15": 2.0}, {"Diff_star": 0.0, "addr": "804 POLK STREET", "SR_14": 3.0, "Q_14": 1.0, "name": "CHARLYN REHAB & NURSING CENTER", "SF_14": "", "SF_15": 3.0, "cnty": "Franklin", "st": "LA", "Zip": 71295.0, "O_14": 2.0, "Q_15": 1.0, "O_15": 2.0, "city": "WINNSBORO", "beds": 150.0, "SR_15": 3.0}, {"Diff_star": -2.0, "addr": "522 MAIN STREET", "SR_14": 3.0, "Q_14": 3.0, "name": "DEERFIELD NURSING & REHABILITATION CENTER", "SF_14": "", "SF_15": 1.0, "cnty": "Richland", "st": "LA", "Zip": 71232.0, "O_14": 3.0, "Q_15": 2.0, "O_15": 1.0, "city": "DELHI", "beds": 103.0, "SR_15": 2.0}, {"Diff_star": 0.0, "addr": "114 WHATLEY ST", "SR_14": 2.0, "Q_14": 5.0, "name": "COLONIAL MANOR NURSING & REHABILITATION CENTER LLC", "SF_14": 4.0, "SF_15": 4.0, "cnty": "Richland", "st": "LA", "Zip": 71269.0, "O_14": 4.0, "Q_15": 5.0, "O_15": 4.0, "city": "RAYVILLE", "beds": 134.0, "SR_15": 2.0}, {"Diff_star": -1.0, "addr": "101 REEVES STREET", "SR_14": 2.0, "Q_14": 5.0, "name": "BERNICE NURSING AND REHABILITATION CENTER, LLC", "SF_14": 2.0, "SF_15": 2.0, "cnty": "Union", "st": "LA", "Zip": 71222.0, "O_14": 3.0, "Q_15": 2.0, "O_15": 2.0, "city": "BERNICE", "beds": 126.0, "SR_15": 2.0}, {"Diff_star": 0.0, "addr": "706 ROSS STREET", "SR_14": 3.0, "Q_14": 3.0, "name": "WEST CARROLL CARE CENTER, INC", "SF_14": 1.0, "SF_15": 1.0, "cnty": "West Carroll", "st": "LA", "Zip": 71263.0, "O_14": 2.0, "Q_15": 2.0, "O_15": 2.0, "city": "OAK GROVE", "beds": 80.0, "SR_15": 3.0}, {"Diff_star": 0.0, "addr": "5877 AIMWELL ROAD", "SR_14": 2.0, "Q_14": 4.0, "name": "JENA NURSING AND REHABILITATION CENTER, LLC", "SF_14": 3.0, "SF_15": 3.0, "cnty": "La Salle", "st": "LA", "Zip": 71342.0, "O_14": 2.0, "Q_15": 2.0, "O_15": 2.0, "city": "JENA", "beds": 108.0, "SR_15": 2.0}, {"Diff_star": 0.0, "addr": "711 W. CORNERVIEW ROAD", "SR_14": 4.0, "Q_14": 4.0, "name": "ASCENSION OAKS NURSING & REHABILITATION CENTER", "SF_14": 2.0, "SF_15": 2.0, "cnty": "Ascension", "st": "LA", "Zip": 70737.0, "O_14": 4.0, "Q_15": 3.0, "O_15": 4.0, "city": "GONZALES", "beds": 102.0, "SR_15": 4.0}, {"Diff_star": -1.0, "addr": "2233 EIGHTH STREET", "SR_14": 1.0, "Q_14": 5.0, "name": "MAISON DE'VILLE NURSING HOME OF HARVEY", "SF_14": 1.0, "SF_15": 1.0, "cnty": "Jefferson", "st": "LA", "Zip": 70058.0, "O_14": 2.0, "Q_15": 3.0, "O_15": 1.0, "city": "HARVEY", "beds": 100.0, "SR_15": 1.0}, {"Diff_star": 0.0, "addr": "1825 LAUREL ST.", "SR_14": 4.0, "Q_14": 5.0, "name": "HARMONY HOUSE NURSING & REHAB CTR, INC", "SF_14": 3.0, "SF_15": 3.0, "cnty": "Caddo", "st": "LA", "Zip": 71103.0, "O_14": 5.0, "Q_15": 5.0, "O_15": 5.0, "city": "SHREVEPORT", "beds": 115.0, "SR_15": 4.0}, {"Diff_star": 0.0, "addr": "720 KEYSER AVENUE", "SR_14": 5.0, "Q_14": 4.0, "name": "NATCHITOCHES COMMUNITY CARE CENTER", "SF_14": 3.0, "SF_15": 3.0, "cnty": "Natchitoches", "st": "LA", "Zip": 71457.0, "O_14": 5.0, "Q_15": 3.0, "O_15": 5.0, "city": "NATCHITOCHES", "beds": 120.0, "SR_15": 5.0}, {"Diff_star": 0.0, "addr": "1411 CLAIBORNE AVENUE", "SR_14": 5.0, "Q_14": 5.0, "name": "MAGNOLIA MANOR NURSING AND REHAB CTR, LLC", "SF_14": 2.0, "SF_15": 2.0, "cnty": "Caddo", "st": "LA", "Zip": 71103.0, "O_14": 5.0, "Q_15": 4.0, "O_15": 5.0, "city": "SHREVEPORT", "beds": 98.0, "SR_15": 5.0}, {"Diff_star": -1.0, "addr": "2501 KENNETH STREET", "SR_14": 3.0, "Q_14": 2.0, "name": "RINGGOLD NURSING AND REHABILITATION CENTER, LLC", "SF_14": 3.0, "SF_15": 3.0, "cnty": "Bienville", "st": "LA", "Zip": 71068.0, "O_14": 3.0, "Q_15": 1.0, "O_15": 2.0, "city": "RINGGOLD", "beds": 112.0, "SR_15": 3.0}, {"Diff_star": 0.0, "addr": "9712 MANSFIELD ROAD", "SR_14": 2.0, "Q_14": 3.0, "name": "HERITAGE MANOR SOUTH", "SF_14": 1.0, "SF_15": 1.0, "cnty": "Caddo", "st": "LA", "Zip": 71118.0, "O_14": 1.0, "Q_15": 1.0, "O_15": 1.0, "city": "SHREVEPORT", "beds": 145.0, "SR_15": 2.0}, {"Diff_star": 0.0, "addr": "333 LEE DRIVE", "SR_14": 1.0, "Q_14": 5.0, "name": "ST JAMES PLACE NURSING CARE CENTER", "SF_14": 4.0, "SF_15": 4.0, "cnty": "E. Baton Rouge", "st": "LA", "Zip": 70808.0, "O_14": 2.0, "Q_15": 5.0, "O_15": 2.0, "city": "BATON ROUGE", "beds": 64.0, "SR_15": 1.0}, {"Diff_star": 0.0, "addr": "342 COUNTRY CLUB ROAD", "SR_14": 3.0, "Q_14": 4.0, "name": "AUTUMN LEAVES NURSING AND REHAB CTR, LLC", "SF_14": 1.0, "SF_15": 1.0, "cnty": "Winn", "st": "LA", "Zip": 71483.0, "O_14": 2.0, "Q_15": 2.0, "O_15": 2.0, "city": "WINNFIELD", "beds": 124.0, "SR_15": 3.0}, {"Diff_star": 0.0, "addr": "2701 ERNEST STREET", "SR_14": 1.0, "Q_14": 4.0, "name": "LAKE CHARLES CARE CENTER", "SF_14": 2.0, "SF_15": 2.0, "cnty": "Calcasieu", "st": "LA", "Zip": 70601.0, "O_14": 1.0, "Q_15": 2.0, "O_15": 1.0, "city": "LAKE CHARLES", "beds": 182.0, "SR_15": 1.0}, {"Diff_star": 0.0, "addr": "1103 W MCNEESE", "SR_14": 2.0, "Q_14": 4.0, "name": "RESTHAVEN NURSING & REHAB CENTER, LLC", "SF_14": 2.0, "SF_15": 2.0, "cnty": "Calcasieu", "st": "LA", "Zip": 70605.0, "O_14": 2.0, "Q_15": 2.0, "O_15": 2.0, "city": "LAKE CHARLES", "beds": 150.0, "SR_15": 2.0}, {"Diff_star": 0.0, "addr": "18364 CENTRAL AVENUE", "SR_14": 4.0, "Q_14": 4.0, "name": "ROSEPINE RETIREMENT & REHAB CENTER, LLC", "SF_14": 4.0, "SF_15": 3.0, "cnty": "Vernon", "st": "LA", "Zip": 70659.0, "O_14": 4.0, "Q_15": 2.0, "O_15": 4.0, "city": "ROSEPINE", "beds": 108.0, "SR_15": 4.0}, {"Diff_star": 0.0, "addr": "2421 E. TEXAS AVENUE", "SR_14": 2.0, "Q_14": 3.0, "name": "NAOMI HEIGHTS NURSING & REHABILITATION CENTER", "SF_14": 1.0, "SF_15": 1.0, "cnty": "Rapides", "st": "LA", "Zip": 71301.0, "O_14": 1.0, "Q_15": 1.0, "O_15": 1.0, "city": "ALEXANDRIA", "beds": 139.0, "SR_15": 2.0}, {"Diff_star": 0.0, "addr": "534 15TH STREET", "SR_14": 2.0, "Q_14": 4.0, "name": "ROSEWOOD NURSING CENTER", "SF_14": 3.0, "SF_15": 3.0, "cnty": "Calcasieu", "st": "LA", "Zip": 70601.0, "O_14": 2.0, "Q_15": 2.0, "O_15": 2.0, "city": "LAKE CHARLES", "beds": 150.0, "SR_15": 2.0}, {"Diff_star": 0.0, "addr": "307 N CASTLEMAN ST", "SR_14": 4.0, "Q_14": 2.0, "name": "CARROLL NURSING HOME", "SF_14": 4.0, "SF_15": 3.0, "cnty": "West Carroll", "st": "LA", "Zip": 71263.0, "O_14": 4.0, "Q_15": 2.0, "O_15": 4.0, "city": "OAK GROVE", "beds": 120.0, "SR_15": 4.0}, {"Diff_star": 0.0, "addr": "16 HEYMAN LANE", "SR_14": 4.0, "Q_14": 5.0, "name": "LEXINGTON HOUSE", "SF_14": 1.0, "SF_15": 1.0, "cnty": "Rapides", "st": "LA", "Zip": 71303.0, "O_14": 4.0, "Q_15": 5.0, "O_15": 4.0, "city": "ALEXANDRIA", "beds": 152.0, "SR_15": 4.0}, {"Diff_star": 0.0, "addr": "910 LIA ST", "SR_14": 1.0, "Q_14": 4.0, "name": "PATTERSON HEALTHCARE CENTER", "SF_14": 2.0, "SF_15": 2.0, "cnty": "St. Mary", "st": "LA", "Zip": 70392.0, "O_14": 1.0, "Q_15": 2.0, "O_15": 1.0, "city": "PATTERSON", "beds": 130.0, "SR_15": 1.0}, {"Diff_star": -1.0, "addr": "19110 CROWLEY-EUNICE HWY", "SR_14": 3.0, "Q_14": 5.0, "name": "ENCORE HEALTHCARE AND REHABILITATION CENTER (THE)", "SF_14": 3.0, "SF_15": 3.0, "cnty": "Acadia", "st": "LA", "Zip": 70526.0, "O_14": 4.0, "Q_15": 4.0, "O_15": 3.0, "city": "CROWLEY", "beds": 73.0, "SR_15": 3.0}, {"Diff_star": 0.0, "addr": "366 WEBB SMITH DRIVE", "SR_14": 1.0, "Q_14": 4.0, "name": "COLFAX REUNION NURSING AND REHABILITATION CENTER", "SF_14": 1.0, "SF_15": 1.0, "cnty": "Grant", "st": "LA", "Zip": 71417.0, "O_14": 1.0, "Q_15": 2.0, "O_15": 1.0, "city": "COLFAX", "beds": 140.0, "SR_15": 1.0}, {"Diff_star": 0.0, "addr": "100 KINGSTON ROAD", "SR_14": 3.0, "Q_14": 4.0, "name": "HOLLY HILL HOUSE", "SF_14": 2.0, "SF_15": 2.0, "cnty": "Calcasieu", "st": "LA", "Zip": 70663.0, "O_14": 3.0, "Q_15": 3.0, "O_15": 3.0, "city": "SULPHUR", "beds": 200.0, "SR_15": 3.0}, {"Diff_star": 0.0, "addr": "3525 BIENVILLE ST", "SR_14": 3.0, "Q_14": 4.0, "name": "ST MARGARET'S DAUGHTERS HOME", "SF_14": 2.0, "SF_15": 2.0, "cnty": "Orleans", "st": "LA", "Zip": 70119.0, "O_14": 3.0, "Q_15": 3.0, "O_15": 3.0, "city": "NEW ORLEANS", "beds": 112.0, "SR_15": 3.0}, {"Diff_star": 0.0, "addr": "1611 WELLERMAN ROAD", "SR_14": 1.0, "Q_14": 4.0, "name": "LANDMARK NURSING & REHAB CTR", "SF_14": 1.0, "SF_15": 1.0, "cnty": "Ouachita", "st": "LA", "Zip": 71291.0, "O_14": 1.0, "Q_15": 2.0, "O_15": 1.0, "city": "WEST MONROE", "beds": 108.0, "SR_15": 1.0}, {"Diff_star": -1.0, "addr": "813 N MAIN ST", "SR_14": 1.0, "Q_14": 5.0, "name": "FARMERVILLE NURSING AND REHABILITATION CENTER, LLC", "SF_14": 1.0, "SF_15": 1.0, "cnty": "Union", "st": "LA", "Zip": 71241.0, "O_14": 2.0, "Q_15": 3.0, "O_15": 1.0, "city": "FARMERVILLE", "beds": 117.0, "SR_15": 1.0}, {"Diff_star": 0.0, "addr": "14008 CHENEAU ROAD", "SR_14": 3.0, "Q_14": 5.0, "name": "VERMILION HEALTH CARE CENTER", "SF_14": 2.0, "SF_15": 2.0, "cnty": "Vermilion", "st": "LA", "Zip": 70548.0, "O_14": 4.0, "Q_15": 5.0, "O_15": 4.0, "city": "KAPLAN", "beds": 120.0, "SR_15": 3.0}, {"Diff_star": 0.0, "addr": "32 CROTHERS DRIVE", "SR_14": 1.0, "Q_14": 4.0, "name": "OLIVE BRANCH SENIOR CARE CENTER (THE)", "SF_14": 2.0, "SF_15": 2.0, "cnty": "Madison", "st": "LA", "Zip": 71282.0, "O_14": 1.0, "Q_15": 2.0, "O_15": 1.0, "city": "TALLULAH", "beds": 156.0, "SR_15": 1.0}, {"Diff_star": 0.0, "addr": "426 NORTH WASHINGTON STREET", "SR_14": 5.0, "Q_14": 4.0, "name": "COLONIAL NURSING HOME", "SF_14": 4.0, "SF_15": 4.0, "cnty": "Avoyelles", "st": "LA", "Zip": 71351.0, "O_14": 5.0, "Q_15": 2.0, "O_15": 5.0, "city": "MARKSVILLE", "beds": 100.0, "SR_15": 5.0}, {"Diff_star": 0.0, "addr": "400 HOSPITAL ROAD", "SR_14": 2.0, "Q_14": 5.0, "name": "LAKEVIEW MANOR NURSING HOME", "SF_14": 2.0, "SF_15": 2.0, "cnty": "Pointe Coupee", "st": "LA", "Zip": 70760.0, "O_14": 3.0, "Q_15": 5.0, "O_15": 3.0, "city": "NEW ROADS", "beds": 120.0, "SR_15": 2.0}, {"Diff_star": 0.0, "addr": "9105 BAIRD ROAD", "SR_14": 3.0, "Q_14": 3.0, "name": "HERITAGE MANOR WEST I", "SF_14": 3.0, "SF_15": 3.0, "cnty": "Caddo", "st": "LA", "Zip": 71118.0, "O_14": 3.0, "Q_15": 2.0, "O_15": 3.0, "city": "SHREVEPORT", "beds": 140.0, "SR_15": 3.0}, {"Diff_star": 0.0, "addr": "1002 TIGER DRIVE", "SR_14": 5.0, "Q_14": 4.0, "name": "LAFOURCHE HOME FOR AGED & INFIRM", "SF_14": 3.0, "SF_15": 3.0, "cnty": "Lafourche", "st": "LA", "Zip": 70301.0, "O_14": 5.0, "Q_15": 3.0, "O_15": 5.0, "city": "THIBODAUX", "beds": 72.0, "SR_15": 5.0}, {"Diff_star": 0.0, "addr": "900 BRYAN STREET", "SR_14": 4.0, "Q_14": 3.0, "name": "MERRYVILLE REHABILITATION", "SF_14": 4.0, "SF_15": 4.0, "cnty": "Beauregard", "st": "LA", "Zip": 70653.0, "O_14": 4.0, "Q_15": 2.0, "O_15": 4.0, "city": "MERRYVILLE", "beds": 60.0, "SR_15": 4.0}, {"Diff_star": 0.0, "addr": "2901 DOUGLAS STREET", "SR_14": 1.0, "Q_14": 4.0, "name": "CYPRESS POINT NURSING & REHABILITATION CENTER", "SF_14": 2.0, "SF_15": 1.0, "cnty": "Bossier", "st": "LA", "Zip": 71111.0, "O_14": 1.0, "Q_15": 2.0, "O_15": 1.0, "city": "BOSSIER CITY", "beds": 124.0, "SR_15": 1.0}, {"Diff_star": 0.0, "addr": "915 1ST  STREET", "SR_14": 1.0, "Q_14": 2.0, "name": "WINNFIELD NURSING AND REHABILITATION CENTER, LLC", "SF_14": 3.0, "SF_15": 3.0, "cnty": "Winn", "st": "LA", "Zip": 71483.0, "O_14": 1.0, "Q_15": 1.0, "O_15": 1.0, "city": "WINNFIELD", "beds": 124.0, "SR_15": 1.0}, {"Diff_star": -1.0, "addr": "1201 THIRD ST", "SR_14": 5.0, "Q_14": 1.0, "name": "GUEYDAN MEMORIAL GUEST HOME", "SF_14": 3.0, "SF_15": 3.0, "cnty": "Vermilion", "st": "LA", "Zip": 70542.0, "O_14": 4.0, "Q_15": 1.0, "O_15": 3.0, "city": "GUEYDAN", "beds": 66.0, "SR_15": 4.0}, {"Diff_star": 0.0, "addr": "1155 STERLINGTON HIGHWAY", "SR_14": 1.0, "Q_14": 5.0, "name": "ARBOR LAKE SKILLED NURSING & REHABILITATION", "SF_14": 3.0, "SF_15": 3.0, "cnty": "Union", "st": "LA", "Zip": 71241.0, "O_14": 2.0, "Q_15": 5.0, "O_15": 2.0, "city": "FARMERVILLE", "beds": 150.0, "SR_15": 1.0}, {"Diff_star": 0.0, "addr": "1306 W ADMIRAL DOYLE DR", "SR_14": 1.0, "Q_14": 4.0, "name": "BELLE TECHE NURSING & REHABILITATION CENTER", "SF_14": 1.0, "SF_15": 1.0, "cnty": "Iberia", "st": "LA", "Zip": 70560.0, "O_14": 1.0, "Q_15": 1.0, "O_15": 1.0, "city": "NEW IBERIA", "beds": 150.0, "SR_15": 1.0}, {"Diff_star": -1.0, "addr": "171 THRASHER DRIVE", "SR_14": 4.0, "Q_14": 5.0, "name": "FOREST HAVEN NURSING & REHAB CTR, LLC", "SF_14": 1.0, "SF_15": 1.0, "cnty": "Jackson", "st": "LA", "Zip": 71251.0, "O_14": 4.0, "Q_15": 4.0, "O_15": 3.0, "city": "JONESBORO", "beds": 139.0, "SR_15": 4.0}, {"Diff_star": 0.0, "addr": "308 AMELIA STREET", "SR_14": 2.0, "Q_14": 4.0, "name": "RAYNE GUEST HOME", "SF_14": 2.0, "SF_15": 2.0, "cnty": "Acadia", "st": "LA", "Zip": 70578.0, "O_14": 2.0, "Q_15": 3.0, "O_15": 2.0, "city": "RAYNE", "beds": 120.0, "SR_15": 2.0}, {"Diff_star": 0.0, "addr": "139 NINTH STREET", "SR_14": 2.0, "Q_14": 1.0, "name": "LASALLE NURSING HOME", "SF_14": 3.0, "SF_15": 3.0, "cnty": "La Salle", "st": "LA", "Zip": 71342.0, "O_14": 1.0, "Q_15": 1.0, "O_15": 1.0, "city": "JENA", "beds": 133.0, "SR_15": 2.0}, {"Diff_star": -1.0, "addr": "200 TEAL ST.", "SR_14": 2.0, "Q_14": 5.0, "name": "ST MARTIN DE PORRES MULTI-CARE CENTER", "SF_14": 3.0, "SF_15": 3.0, "cnty": "Calcasieu", "st": "LA", "Zip": 70615.0, "O_14": 3.0, "Q_15": 4.0, "O_15": 2.0, "city": "LAKE CHARLES", "beds": 250.0, "SR_15": 2.0}, {"Diff_star": 0.0, "addr": "903 CENTER STREET", "SR_14": 2.0, "Q_14": 5.0, "name": "AMELIA MANOR NURSING HOME", "SF_14": 1.0, "SF_15": 1.0, "cnty": "Lafayette", "st": "LA", "Zip": 70501.0, "O_14": 2.0, "Q_15": 5.0, "O_15": 2.0, "city": "LAFAYETTE", "beds": 151.0, "SR_15": 2.0}, {"Diff_star": -1.0, "addr": "9919 JEFFERSON HWY.", "SR_14": 3.0, "Q_14": 3.0, "name": "JEFFERSON MANOR NURSING AND RE", "SF_14": 3.0, "SF_15": 1.0, "cnty": "E. Baton Rouge", "st": "LA", "Zip": 70809.0, "O_14": 3.0, "Q_15": 2.0, "O_15": 2.0, "city": "BATON ROUGE", "beds": 122.0, "SR_15": 3.0}, {"Diff_star": 0.0, "addr": "14333 OLD HAMMOND HWY.", "SR_14": 1.0, "Q_14": 3.0, "name": "REGENCY PLACE NURSING AND REHABILITATION CENTER", "SF_14": 4.0, "SF_15": 4.0, "cnty": "E. Baton Rouge", "st": "LA", "Zip": 70816.0, "O_14": 2.0, "Q_15": 2.0, "O_15": 2.0, "city": "BATON ROUGE", "beds": 120.0, "SR_15": 1.0}, {"Diff_star": -1.0, "addr": "10145 FLORIDA BLVD.", "SR_14": 3.0, "Q_14": 5.0, "name": "GUEST HOUSE (THE)", "SF_14": 2.0, "SF_15": 2.0, "cnty": "E. Baton Rouge", "st": "LA", "Zip": 70815.0, "O_14": 4.0, "Q_15": 4.0, "O_15": 3.0, "city": "BATON ROUGE", "beds": 144.0, "SR_15": 3.0}, {"Diff_star": 0.0, "addr": "11546 FLORIDA BLVD", "SR_14": 2.0, "Q_14": 3.0, "name": "CAPITOL HOUSE NURSING AND REHAB CENTER", "SF_14": 1.0, "SF_15": 1.0, "cnty": "E. Baton Rouge", "st": "LA", "Zip": 70815.0, "O_14": 1.0, "Q_15": 2.0, "O_15": 1.0, "city": "BATON ROUGE", "beds": 132.0, "SR_15": 2.0}, {"Diff_star": -1.0, "addr": "1642 N. FLANNERY ROAD", "SR_14": 4.0, "Q_14": 3.0, "name": "FLANNERY OAKS GUEST HOUSE", "SF_14": 4.0, "SF_15": 3.0, "cnty": "E. Baton Rouge", "st": "LA", "Zip": 70815.0, "O_14": 4.0, "Q_15": 1.0, "O_15": 3.0, "city": "BATON ROUGE", "beds": 130.0, "SR_15": 4.0}, {"Diff_star": 0.0, "addr": "3025 FOURTH STREET", "SR_14": 4.0, "Q_14": 4.0, "name": "COLUMNS COMMUNITY CARE CENTER ( THE )", "SF_14": 4.0, "SF_15": 4.0, "cnty": "Catahoula", "st": "LA", "Zip": 71343.0, "O_14": 4.0, "Q_15": 2.0, "O_15": 4.0, "city": "JONESVILLE", "beds": 140.0, "SR_15": 4.0}, {"Diff_star": -1.0, "addr": "9301 OXFORD PLACE DRIVE", "SR_14": 2.0, "Q_14": 3.0, "name": "HERITAGE MANOR OF BATON ROUGE", "SF_14": 3.0, "SF_15": 3.0, "cnty": "E. Baton Rouge", "st": "LA", "Zip": 70809.0, "O_14": 2.0, "Q_15": 1.0, "O_15": 1.0, "city": "BATON ROUGE", "beds": 144.0, "SR_15": 2.0}, {"Diff_star": 0.0, "addr": "13735 HIGHWAY 23", "SR_14": 5.0, "Q_14": 5.0, "name": "RIVERBEND NURSING AND REHABILITATION CENTER, INC", "SF_14": 2.0, "SF_15": 2.0, "cnty": "Plaquemines", "st": "LA", "Zip": 70037.0, "O_14": 5.0, "Q_15": 5.0, "O_15": 5.0, "city": "BELLE CHASSE", "beds": 120.0, "SR_15": 5.0}, {"Diff_star": -1.0, "addr": "8422 KURTHWOOD ROAD", "SR_14": 4.0, "Q_14": 4.0, "name": "WOODLANDS HEALTHCARE CENTER, LLC (THE)", "SF_14": 1.0, "SF_15": 1.0, "cnty": "Vernon", "st": "LA", "Zip": 71446.0, "O_14": 3.0, "Q_15": 2.0, "O_15": 2.0, "city": "LEESVILLE", "beds": 152.0, "SR_15": 3.0}, {"Diff_star": 0.0, "addr": "8225 SUMMA AVENUE", "SR_14": 1.0, "Q_14": 3.0, "name": "CARRINGTON PLACE OF BATON ROUGE", "SF_14": 3.0, "SF_15": 3.0, "cnty": "E. Baton Rouge", "st": "LA", "Zip": 70809.0, "O_14": 1.0, "Q_15": 1.0, "O_15": 1.0, "city": "BATON ROUGE", "beds": 172.0, "SR_15": 1.0}, {"Diff_star": 0.0, "addr": "1300 DEREK DRIVE", "SR_14": 3.0, "Q_14": 5.0, "name": "LANDMARK NURSING CENTER HAMMOND", "SF_14": 3.0, "SF_15": 3.0, "cnty": "Tangipahoa", "st": "LA", "Zip": 70401.0, "O_14": 4.0, "Q_15": 3.0, "O_15": 4.0, "city": "HAMMOND", "beds": 150.0, "SR_15": 4.0}, {"Diff_star": 0.0, "addr": "1701 POLK ST.", "SR_14": 5.0, "Q_14": 4.0, "name": "HERITAGE MANOR OF HOUMA", "SF_14": 2.0, "SF_15": 2.0, "cnty": "Terrebonne", "st": "LA", "Zip": 70360.0, "O_14": 5.0, "Q_15": 2.0, "O_15": 5.0, "city": "HOUMA", "beds": 120.0, "SR_15": 5.0}, {"Diff_star": 0.0, "addr": "530 STRATMORE DRIVE", "SR_14": 4.0, "Q_14": 4.0, "name": "HERITAGE MANOR OF STRATMORE NURSING & REHAB CTR", "SF_14": 1.0, "SF_15": 1.0, "cnty": "Caddo", "st": "LA", "Zip": 71115.0, "O_14": 3.0, "Q_15": 2.0, "O_15": 3.0, "city": "SHREVEPORT", "beds": 142.0, "SR_15": 4.0}, {"Diff_star": 1.0, "addr": "203 CLAIRE DRIVE", "SR_14": 2.0, "Q_14": 4.0, "name": "ST MARTINVILLE REHAB & NURSING CENTER", "SF_14": 1.0, "SF_15": 3.0, "cnty": "St. Martin", "st": "LA", "Zip": 70582.0, "O_14": 1.0, "Q_15": 2.0, "O_15": 2.0, "city": "SAINT MARTINVILLE", "beds": 124.0, "SR_15": 2.0}, {"Diff_star": -1.0, "addr": "2828 WESTFORK", "SR_14": 1.0, "Q_14": 5.0, "name": "NOTTINGHAM REGIONAL REHAB CENTER", "SF_14": 3.0, "SF_15": 3.0, "cnty": "E. Baton Rouge", "st": "LA", "Zip": 70816.0, "O_14": 2.0, "Q_15": 3.0, "O_15": 1.0, "city": "BATON ROUGE", "beds": 176.0, "SR_15": 1.0}, {"Diff_star": -2.0, "addr": "7408 HWY 1", "SR_14": 2.0, "Q_14": 5.0, "name": "RIVIERE DE SOLEIL COMMUNITY CARE CENTER", "SF_14": 4.0, "SF_15": 3.0, "cnty": "Avoyelles", "st": "LA", "Zip": 71350.0, "O_14": 4.0, "Q_15": 4.0, "O_15": 2.0, "city": "MANSURA", "beds": 130.0, "SR_15": 2.0}, {"Diff_star": -1.0, "addr": "1330 OCHSNER BOULEVARD", "SR_14": 5.0, "Q_14": 4.0, "name": "FOREST MANOR NURSING AND REHABILITATION CENTER", "SF_14": 1.0, "SF_15": 1.0, "cnty": "St. Tammany", "st": "LA", "Zip": 70433.0, "O_14": 4.0, "Q_15": 3.0, "O_15": 3.0, "city": "COVINGTON", "beds": 192.0, "SR_15": 4.0}, {"Diff_star": 0.0, "addr": "401 VATICAN DRIVE", "SR_14": 1.0, "Q_14": 4.0, "name": "CHATEAU D'VILLE REHAB AND RETIREMENT", "SF_14": 1.0, "SF_15": 1.0, "cnty": "Ascension", "st": "LA", "Zip": 70346.0, "O_14": 1.0, "Q_15": 4.0, "O_15": 1.0, "city": "DONALDSONVILLE", "beds": 141.0, "SR_15": 1.0}, {"Diff_star": 0.0, "addr": "4385 OLD STERLINGTON ROAD", "SR_14": 3.0, "Q_14": 3.0, "name": "AVALON PLACE", "SF_14": 2.0, "SF_15": 2.0, "cnty": "Ouachita", "st": "LA", "Zip": 71203.0, "O_14": 3.0, "Q_15": 2.0, "O_15": 3.0, "city": "MONROE", "beds": 115.0, "SR_15": 3.0}, {"Diff_star": 0.0, "addr": "13938 HWY 165", "SR_14": 4.0, "Q_14": 4.0, "name": "KINDER RETIREMENT AND REHABILITATION CENTER", "SF_14": 4.0, "SF_15": 3.0, "cnty": "Allen", "st": "LA", "Zip": 70648.0, "O_14": 4.0, "Q_15": 2.0, "O_15": 4.0, "city": "KINDER", "beds": 100.0, "SR_15": 4.0}, {"Diff_star": -1.0, "addr": "9105 OXFORD PLACE DRIVE", "SR_14": 2.0, "Q_14": 5.0, "name": "LANDMARK OF BATON ROUGE", "SF_14": 1.0, "SF_15": 1.0, "cnty": "E. Baton Rouge", "st": "LA", "Zip": 70809.0, "O_14": 2.0, "Q_15": 4.0, "O_15": 1.0, "city": "BATON ROUGE", "beds": 144.0, "SR_15": 2.0}, {"Diff_star": 0.0, "addr": "3405 MANSFIELD ROAD", "SR_14": 3.0, "Q_14": 4.0, "name": "ROSEVIEW NURSING AND REHABILITATION CENTER", "SF_14": 3.0, "SF_15": 3.0, "cnty": "Caddo", "st": "LA", "Zip": 71103.0, "O_14": 3.0, "Q_15": 2.0, "O_15": 3.0, "city": "SHREVEPORT", "beds": 124.0, "SR_15": 3.0}, {"Diff_star": 0.0, "addr": "4820 MEDICAL DRIVE", "SR_14": 3.0, "Q_14": 4.0, "name": "RIVERVIEW CARE CENTER", "SF_14": 3.0, "SF_15": 3.0, "cnty": "Bossier", "st": "LA", "Zip": 71112.0, "O_14": 3.0, "Q_15": 2.0, "O_15": 3.0, "city": "BOSSIER CITY", "beds": 151.0, "SR_15": 3.0}, {"Diff_star": -1.0, "addr": "252 HWY. 402", "SR_14": 5.0, "Q_14": 4.0, "name": "HERITAGE MANOR OF NAPOLEONVILLE", "SF_14": 3.0, "SF_15": 3.0, "cnty": "Assumption", "st": "LA", "Zip": 70390.0, "O_14": 5.0, "Q_15": 1.0, "O_15": 4.0, "city": "NAPOLEONVILLE", "beds": 130.0, "SR_15": 5.0}, {"Diff_star": 0.0, "addr": "417 INDUSTRIAL DRIVE", "SR_14": 2.0, "Q_14": 4.0, "name": "ST FRANCES NSG & REHAB CENTER", "SF_14": 3.0, "SF_15": 3.0, "cnty": "Allen", "st": "LA", "Zip": 70655.0, "O_14": 2.0, "Q_15": 3.0, "O_15": 2.0, "city": "OBERLIN", "beds": 100.0, "SR_15": 2.0}, {"Diff_star": -2.0, "addr": "5201 SHREVEPORT HWY", "SR_14": 2.0, "Q_14": 4.0, "name": "TIOGA COMMUNITY CARE CENTER", "SF_14": 4.0, "SF_15": 3.0, "cnty": "Rapides", "st": "LA", "Zip": 71360.0, "O_14": 3.0, "Q_15": 1.0, "O_15": 1.0, "city": "PINEVILLE", "beds": 154.0, "SR_15": 2.0}, {"Diff_star": -1.0, "addr": "9171 COCKERHAM ROAD", "SR_14": 4.0, "Q_14": 5.0, "name": "HARVEST MANOR NURSING HOME", "SF_14": 2.0, "SF_15": 2.0, "cnty": "Livingston", "st": "LA", "Zip": 70726.0, "O_14": 5.0, "Q_15": 3.0, "O_15": 4.0, "city": "DENHAM SPRINGS", "beds": 171.0, "SR_15": 4.0}, {"Diff_star": -1.0, "addr": "2500 E. SIMCOE STREET", "SR_14": 2.0, "Q_14": 5.0, "name": "RIVER OAKS RETIREMENT MANOR", "SF_14": 2.0, "SF_15": 2.0, "cnty": "Lafayette", "st": "LA", "Zip": 70501.0, "O_14": 3.0, "Q_15": 4.0, "O_15": 2.0, "city": "LAFAYETTE", "beds": 100.0, "SR_15": 2.0}, {"Diff_star": 0.0, "addr": "110 MAPLE STREET", "SR_14": 4.0, "Q_14": 4.0, "name": "PLANTATION OAKS NURSING & REHABILITATION CENTER", "SF_14": 3.0, "SF_15": 3.0, "cnty": "Franklin", "st": "LA", "Zip": 71378.0, "O_14": 4.0, "Q_15": 2.0, "O_15": 4.0, "city": "WISNER", "beds": 76.0, "SR_15": 4.0}, {"Diff_star": -1.0, "addr": "4005 NORTH BLVD", "SR_14": 1.0, "Q_14": 5.0, "name": "AFFINITY NURSING & REHAB CENTER", "SF_14": 2.0, "SF_15": 2.0, "cnty": "E. Baton Rouge", "st": "LA", "Zip": 70806.0, "O_14": 2.0, "Q_15": 3.0, "O_15": 1.0, "city": "BATON ROUGE", "beds": 184.0, "SR_15": 1.0}, {"Diff_star": -1.0, "addr": "1009 N OBRIE STREET", "SR_14": 5.0, "Q_14": 2.0, "name": "TOLEDO RETIREMENT AND REHABILITATION CENTER", "SF_14": 1.0, "SF_15": 1.0, "cnty": "Sabine", "st": "LA", "Zip": 71486.0, "O_14": 4.0, "Q_15": 1.0, "O_15": 3.0, "city": "ZWOLLE", "beds": 80.0, "SR_15": 5.0}, {"Diff_star": -1.0, "addr": "220 SOUTH THOMPSON STREET", "SR_14": 4.0, "Q_14": 5.0, "name": "HERITAGE MANOR OF VILLE PLATTE", "SF_14": 1.0, "SF_15": 1.0, "cnty": "Evangeline", "st": "LA", "Zip": 70586.0, "O_14": 4.0, "Q_15": 4.0, "O_15": 3.0, "city": "VILLE PLATTE", "beds": 145.0, "SR_15": 4.0}, {"Diff_star": 0.0, "addr": "15243 HWY 10 EAST", "SR_14": 2.0, "Q_14": 5.0, "name": "ST FRANCISVILLE COUNTRY MANOR, LLC", "SF_14": 3.0, "SF_15": 3.0, "cnty": "West Feliciana", "st": "LA", "Zip": 70775.0, "O_14": 3.0, "Q_15": 5.0, "O_15": 3.0, "city": "SAINT FRANCISVILLE", "beds": 128.0, "SR_15": 2.0}, {"Diff_star": 0.0, "addr": "5600 GENERAL DEGAULLE DR", "SR_14": 3.0, "Q_14": 4.0, "name": "OUR LADY OF WISDOM HEALTH CARE CENTER", "SF_14": 3.0, "SF_15": 3.0, "cnty": "Orleans", "st": "LA", "Zip": 70131.0, "O_14": 3.0, "Q_15": 3.0, "O_15": 3.0, "city": "NEW ORLEANS", "beds": 138.0, "SR_15": 3.0}, {"Diff_star": -1.0, "addr": "3720 HWY 80 EAST", "SR_14": 3.0, "Q_14": 2.0, "name": "RUSTON NURSING AND REHABILITATION CENTER,LLC", "SF_14": 2.0, "SF_15": 2.0, "cnty": "Lincoln", "st": "LA", "Zip": 71270.0, "O_14": 3.0, "Q_15": 1.0, "O_15": 2.0, "city": "RUSTON", "beds": 157.0, "SR_15": 3.0}, {"Diff_star": 0.0, "addr": "14686 OLD HAMMOND HWY.", "SR_14": 1.0, "Q_14": 5.0, "name": "COLONIAL CARE RETIREMENT CENTER", "SF_14": 2.0, "SF_15": 2.0, "cnty": "E. Baton Rouge", "st": "LA", "Zip": 70816.0, "O_14": 2.0, "Q_15": 4.0, "O_15": 2.0, "city": "BATON ROUGE", "beds": 85.0, "SR_15": 2.0}, {"Diff_star": 0.0, "addr": "3050 BAIRD ROAD", "SR_14": 3.0, "Q_14": 4.0, "name": "BRADFORD GUEST CARE, LLC (THE)", "SF_14": 1.0, "SF_15": 1.0, "cnty": "Caddo", "st": "LA", "Zip": 71118.0, "O_14": 2.0, "Q_15": 2.0, "O_15": 2.0, "city": "SHREVEPORT", "beds": 146.0, "SR_15": 3.0}, {"Diff_star": 0.0, "addr": "3302 MANSFIELD ROAD", "SR_14": 4.0, "Q_14": 5.0, "name": "SHREVEPORT MANOR,  LLC", "SF_14": 1.0, "SF_15": 1.0, "cnty": "Caddo", "st": "LA", "Zip": 71103.0, "O_14": 4.0, "Q_15": 5.0, "O_15": 4.0, "city": "SHREVEPORT", "beds": 127.0, "SR_15": 4.0}, {"Diff_star": 0.0, "addr": "6818 HIGHWAY 84 WEST", "SR_14": 2.0, "Q_14": 5.0, "name": "CAMELOT LEISURE LIVING", "SF_14": 2.0, "SF_15": 3.0, "cnty": "Concordia", "st": "LA", "Zip": 71334.0, "O_14": 3.0, "Q_15": 4.0, "O_15": 3.0, "city": "FERRIDAY", "beds": 91.0, "SR_15": 3.0}, {"Diff_star": -1.0, "addr": "1539 DELACHAISE ST.", "SR_14": 4.0, "Q_14": 2.0, "name": "UNITY NURSING & REHAB CENTER", "SF_14": 3.0, "SF_15": 3.0, "cnty": "Orleans", "st": "LA", "Zip": 70115.0, "O_14": 4.0, "Q_15": 1.0, "O_15": 3.0, "city": "NEW ORLEANS", "beds": 116.0, "SR_15": 4.0}, {"Diff_star": 0.0, "addr": "1745 BAILEY AVENUE", "SR_14": 4.0, "Q_14": 4.0, "name": "HERITAGE NURSING CENTER", "SF_14": 2.0, "SF_15": 2.0, "cnty": "Claiborne", "st": "LA", "Zip": 71038.0, "O_14": 4.0, "Q_15": 3.0, "O_15": 4.0, "city": "HAYNESVILLE", "beds": 82.0, "SR_15": 4.0}, {"Diff_star": -1.0, "addr": "7060 COTTONWOOD BLVD", "SR_14": 2.0, "Q_14": 5.0, "name": "SOUTHERN HILLS HEALTHCARE AND REHABILITATION I", "SF_14": 2.0, "SF_15": 2.0, "cnty": "Caddo", "st": "LA", "Zip": 71129.0, "O_14": 3.0, "Q_15": 4.0, "O_15": 2.0, "city": "SHREVEPORT", "beds": 101.0, "SR_15": 2.0}, {"Diff_star": 0.0, "addr": "1405 WHITE STREET", "SR_14": 1.0, "Q_14": 3.0, "name": "PRINCETON PLACE-RUSTON", "SF_14": 3.0, "SF_15": 3.0, "cnty": "Lincoln", "st": "LA", "Zip": 71270.0, "O_14": 1.0, "Q_15": 2.0, "O_15": 1.0, "city": "RUSTON", "beds": 123.0, "SR_15": 1.0}, {"Diff_star": 0.0, "addr": "410 SOUTH SIMMONS STREET", "SR_14": 1.0, "Q_14": 3.0, "name": "GOLDEN AGE OF WELSH, LLC", "SF_14": 1.0, "SF_15": 1.0, "cnty": "Jeffrson Davis", "st": "LA", "Zip": 70591.0, "O_14": 1.0, "Q_15": 2.0, "O_15": 1.0, "city": "WELSH", "beds": 132.0, "SR_15": 1.0}, {"Diff_star": 0.0, "addr": "15704 MEDICAL ARTS PLAZA", "SR_14": 1.0, "Q_14": 4.0, "name": "BELLE MAISON NURSING HOME", "SF_14": 2.0, "SF_15": 2.0, "cnty": "Tangipahoa", "st": "LA", "Zip": 70403.0, "O_14": 1.0, "Q_15": 2.0, "O_15": 1.0, "city": "HAMMOND", "beds": 140.0, "SR_15": 1.0}, {"Diff_star": -1.0, "addr": "26739 HWY. 1032", "SR_14": 3.0, "Q_14": 5.0, "name": "GOLDEN AGE NURSING HOME", "SF_14": 1.0, "SF_15": 1.0, "cnty": "Livingston", "st": "LA", "Zip": 70726.0, "O_14": 3.0, "Q_15": 2.0, "O_15": 2.0, "city": "DENHAM SPRINGS", "beds": 175.0, "SR_15": 3.0}, {"Diff_star": 0.0, "addr": "714 HIGH SCHOOL DRIVE", "SR_14": 3.0, "Q_14": 4.0, "name": "WESTWOOD MANOR NURSING HOME, INC", "SF_14": 1.0, "SF_15": 1.0, "cnty": "Beauregard", "st": "LA", "Zip": 70634.0, "O_14": 2.0, "Q_15": 2.0, "O_15": 2.0, "city": "DERIDDER", "beds": 132.0, "SR_15": 3.0}, {"Diff_star": 0.0, "addr": "800 SOUTH OAK ST.", "SR_14": 4.0, "Q_14": 4.0, "name": "HERITAGE HEALTHCARE  - HAMMOND", "SF_14": 1.0, "SF_15": 1.0, "cnty": "Tangipahoa", "st": "LA", "Zip": 70403.0, "O_14": 3.0, "Q_15": 2.0, "O_15": 3.0, "city": "HAMMOND", "beds": 108.0, "SR_15": 4.0}, {"Diff_star": 0.0, "addr": "602 NORTH DIVISION", "SR_14": 3.0, "Q_14": 4.0, "name": "CARE CENTER OF DEQUINCY (THE)", "SF_14": 3.0, "SF_15": 3.0, "cnty": "Calcasieu", "st": "LA", "Zip": 70633.0, "O_14": 3.0, "Q_15": 2.0, "O_15": 3.0, "city": "DEQUINCY", "beds": 80.0, "SR_15": 3.0}, {"Diff_star": -1.0, "addr": "1616 WELLERMAN ROAD", "SR_14": 1.0, "Q_14": 5.0, "name": "RIDGECREST COMMUNITY CARE CENTER", "SF_14": 4.0, "SF_15": 3.0, "cnty": "Ouachita", "st": "LA", "Zip": 71291.0, "O_14": 2.0, "Q_15": 4.0, "O_15": 1.0, "city": "WEST MONROE", "beds": 112.0, "SR_15": 1.0}, {"Diff_star": 0.0, "addr": "50 PINECREST DRIVE", "SR_14": 2.0, "Q_14": 4.0, "name": "OAKS CARE CENTER (THE)", "SF_14": 1.0, "SF_15": 1.0, "cnty": "Rapides", "st": "LA", "Zip": 71360.0, "O_14": 1.0, "Q_15": 1.0, "O_15": 1.0, "city": "PINEVILLE", "beds": 136.0, "SR_15": 2.0}, {"Diff_star": 0.0, "addr": "3001 SOUTH GRAND STREET", "SR_14": 1.0, "Q_14": 4.0, "name": "DELTA GRANDE SKILLED NURSING AND REHABILITATION", "SF_14": 2.0, "SF_15": 2.0, "cnty": "Ouachita", "st": "LA", "Zip": 71202.0, "O_14": 1.0, "Q_15": 2.0, "O_15": 1.0, "city": "MONROE", "beds": 74.0, "SR_15": 1.0}, {"Diff_star": -1.0, "addr": "7950 MILLHAVEN ROAD", "SR_14": 2.0, "Q_14": 4.0, "name": "OUACHITA HEALTHCARE AND REHABILITATION CENTER", "SF_14": 2.0, "SF_15": 2.0, "cnty": "Ouachita", "st": "LA", "Zip": 71203.0, "O_14": 2.0, "Q_15": 2.0, "O_15": 1.0, "city": "MONROE", "beds": 167.0, "SR_15": 1.0}, {"Diff_star": -1.0, "addr": "614 WESTON STREET", "SR_14": 2.0, "Q_14": 2.0, "name": "TOWN AND COUNTRY HEALTH & REHAB", "SF_14": 2.0, "SF_15": 2.0, "cnty": "Webster", "st": "LA", "Zip": 71055.0, "O_14": 2.0, "Q_15": 1.0, "O_15": 1.0, "city": "MINDEN", "beds": 145.0, "SR_15": 2.0}, {"Diff_star": 0.0, "addr": "403 E. FLOURNOY LUCAS", "SR_14": 5.0, "Q_14": 4.0, "name": "VILLAGE HEALTH CARE AT THE GLEN", "SF_14": 2.0, "SF_15": 2.0, "cnty": "Caddo", "st": "LA", "Zip": 71115.0, "O_14": 5.0, "Q_15": 3.0, "O_15": 5.0, "city": "SHREVEPORT", "beds": 126.0, "SR_15": 5.0}, {"Diff_star": 0.0, "addr": "1420 BLANKENSHIP DR", "SR_14": 5.0, "Q_14": 4.0, "name": "DERIDDER RETIREMENT & REHABILITATION CENTER", "SF_14": 1.0, "SF_15": 1.0, "cnty": "Beauregard", "st": "LA", "Zip": 70634.0, "O_14": 4.0, "Q_15": 2.0, "O_15": 4.0, "city": "DERIDDER", "beds": 90.0, "SR_15": 5.0}, {"Diff_star": -1.0, "addr": "4312 ITHACA STREET", "SR_14": 4.0, "Q_14": 5.0, "name": "COLONIAL OAKS LIVING CENTER", "SF_14": 1.0, "SF_15": 1.0, "cnty": "Jefferson", "st": "LA", "Zip": 70006.0, "O_14": 4.0, "Q_15": 4.0, "O_15": 3.0, "city": "METAIRIE", "beds": 110.0, "SR_15": 4.0}, {"Diff_star": -1.0, "addr": "11188 FLORIDA BLVD", "SR_14": 4.0, "Q_14": 5.0, "name": "CARE CENTER THE", "SF_14": 1.0, "SF_15": 1.0, "cnty": "E. Baton Rouge", "st": "LA", "Zip": 70815.0, "O_14": 4.0, "Q_15": 3.0, "O_15": 3.0, "city": "BATON ROUGE", "beds": 80.0, "SR_15": 4.0}, {"Diff_star": 0.0, "addr": "2401 NORTH SERVICE ROAD", "SR_14": 2.0, "Q_14": 4.0, "name": "ALPINE GUEST CARE, LLC", "SF_14": 2.0, "SF_15": 2.0, "cnty": "Lincoln", "st": "LA", "Zip": 71270.0, "O_14": 2.0, "Q_15": 2.0, "O_15": 2.0, "city": "RUSTON", "beds": 144.0, "SR_15": 2.0}, {"Diff_star": 0.0, "addr": "1725 MCARTHUR DRIVE", "SR_14": 4.0, "Q_14": 3.0, "name": "MANSFIELD NURSING CENTER", "SF_14": 2.0, "SF_15": 2.0, "cnty": "De Soto", "st": "LA", "Zip": 71052.0, "O_14": 4.0, "Q_15": 2.0, "O_15": 4.0, "city": "MANSFIELD", "beds": 100.0, "SR_15": 4.0}, {"Diff_star": -1.0, "addr": "5980 CHERRY RIDGE RD", "SR_14": 2.0, "Q_14": 3.0, "name": "CHERRY RIDGE", "SF_14": 2.0, "SF_15": 1.0, "cnty": "Morehouse", "st": "LA", "Zip": 71220.0, "O_14": 2.0, "Q_15": 2.0, "O_15": 1.0, "city": "BASTROP", "beds": 110.0, "SR_15": 2.0}, {"Diff_star": 0.0, "addr": "1000 MCKEEN PLACE", "SR_14": 1.0, "Q_14": 3.0, "name": "OAKS (THE)", "SF_14": 1.0, "SF_15": 1.0, "cnty": "Ouachita", "st": "LA", "Zip": 71201.0, "O_14": 1.0, "Q_15": 1.0, "O_15": 1.0, "city": "MONROE", "beds": 176.0, "SR_15": 1.0}, {"Diff_star": -1.0, "addr": "921 AVE G", "SR_14": 4.0, "Q_14": 5.0, "name": "KENTWOOD MANOR NURSING HOME", "SF_14": 2.0, "SF_15": 2.0, "cnty": "Tangipahoa", "st": "LA", "Zip": 70444.0, "O_14": 5.0, "Q_15": 3.0, "O_15": 4.0, "city": "KENTWOOD", "beds": 108.0, "SR_15": 4.0}, {"Diff_star": 0.0, "addr": "2021 RAYNE CROWLEY HIGHWAY", "SR_14": 2.0, "Q_14": 4.0, "name": "CAMELOT PLACE", "SF_14": 2.0, "SF_15": 2.0, "cnty": "Acadia", "st": "LA", "Zip": 70578.0, "O_14": 2.0, "Q_15": 2.0, "O_15": 2.0, "city": "RAYNE", "beds": 130.0, "SR_15": 2.0}, {"Diff_star": 1.0, "addr": "6942 HIGHWAY 79", "SR_14": 4.0, "Q_14": 4.0, "name": "CLAIBORNE REHABILITATION", "SF_14": 3.0, "SF_15": 5.0, "cnty": "Claiborne", "st": "LA", "Zip": 71040.0, "O_14": 4.0, "Q_15": 3.0, "O_15": 5.0, "city": "HOMER", "beds": 70.0, "SR_15": 4.0}, {"Diff_star": 0.0, "addr": "16232 HWY. 1", "SR_14": 5.0, "Q_14": 5.0, "name": "BAYOU CHATEAU NURSING CTR", "SF_14": 3.0, "SF_15": 3.0, "cnty": "Avoyelles", "st": "LA", "Zip": 71369.0, "O_14": 5.0, "Q_15": 5.0, "O_15": 5.0, "city": "SIMMESPORT", "beds": 104.0, "SR_15": 5.0}, {"Diff_star": -1.0, "addr": "3859 HIGHWAY 190", "SR_14": 4.0, "Q_14": 2.0, "name": "EUNICE MANOR", "SF_14": 2.0, "SF_15": 2.0, "cnty": "St. Landry", "st": "LA", "Zip": 70535.0, "O_14": 4.0, "Q_15": 1.0, "O_15": 3.0, "city": "EUNICE", "beds": 126.0, "SR_15": 4.0}, {"Diff_star": 0.0, "addr": "3330 FRONTAGE ROAD", "SR_14": 3.0, "Q_14": 4.0, "name": "CAMELOT BROOKSIDE", "SF_14": 1.0, "SF_15": 1.0, "cnty": "Jeffrson Davis", "st": "LA", "Zip": 70546.0, "O_14": 2.0, "Q_15": 2.0, "O_15": 2.0, "city": "JENNINGS", "beds": 120.0, "SR_15": 3.0}, {"Diff_star": 0.0, "addr": "109 MCCLENDON CHURCH ROAD", "SR_14": 2.0, "Q_14": 3.0, "name": "GUEST HOUSE NURSING AND REHABILITATION", "SF_14": 1.0, "SF_15": 1.0, "cnty": "Ouachita", "st": "LA", "Zip": 71292.0, "O_14": 1.0, "Q_15": 1.0, "O_15": 1.0, "city": "WEST MONROE", "beds": 140.0, "SR_15": 2.0}, {"Diff_star": -1.0, "addr": "7014 HWY 71", "SR_14": 2.0, "Q_14": 3.0, "name": "TRI-COMMUNITY NURSING CENTER", "SF_14": 3.0, "SF_15": 3.0, "cnty": "St. Landry", "st": "LA", "Zip": 71358.0, "O_14": 2.0, "Q_15": 1.0, "O_15": 1.0, "city": "PALMETTO", "beds": 108.0, "SR_15": 2.0}, {"Diff_star": -1.0, "addr": "2305 RICHARD ST.", "SR_14": 3.0, "Q_14": 5.0, "name": "EASTRIDGE NURSING CENTER", "SF_14": 1.0, "SF_15": 1.0, "cnty": "Vermilion", "st": "LA", "Zip": 70510.0, "O_14": 3.0, "Q_15": 3.0, "O_15": 2.0, "city": "ABBEVILLE", "beds": 90.0, "SR_15": 3.0}, {"Diff_star": 0.0, "addr": "2650 HOLT STREET", "SR_14": 2.0, "Q_14": 3.0, "name": "LEGRAND HEALTHCARE AND REHABILITATION CENTER", "SF_14": 1.0, "SF_15": 1.0, "cnty": "Morehouse", "st": "LA", "Zip": 71220.0, "O_14": 1.0, "Q_15": 1.0, "O_15": 1.0, "city": "BASTROP", "beds": 125.0, "SR_15": 2.0}, {"Diff_star": 1.0, "addr": "965 FISHER ROAD", "SR_14": 4.0, "Q_14": 4.0, "name": "SABINE RETIREMENT AND REHAB CENTER", "SF_14": 2.0, "SF_15": 3.0, "cnty": "Sabine", "st": "LA", "Zip": 71449.0, "O_14": 4.0, "Q_15": 2.0, "O_15": 5.0, "city": "MANY", "beds": 116.0, "SR_15": 5.0}, {"Diff_star": 0.0, "addr": "635 SCHLEY STREET", "SR_14": 4.0, "Q_14": 5.0, "name": "DESOTO RETIREMENT & REHAB CTR, INC", "SF_14": 4.0, "SF_15": 3.0, "cnty": "De Soto", "st": "LA", "Zip": 71052.0, "O_14": 5.0, "Q_15": 5.0, "O_15": 5.0, "city": "MANSFIELD", "beds": 135.0, "SR_15": 4.0}, {"Diff_star": 0.0, "addr": "7119 HIGHWAY 1 SOUTH", "SR_14": 3.0, "Q_14": 5.0, "name": "VALLEY VIEW HEALTH CARE", "SF_14": 4.0, "SF_15": 4.0, "cnty": "Avoyelles", "st": "LA", "Zip": 71351.0, "O_14": 5.0, "Q_15": 5.0, "O_15": 5.0, "city": "MARKSVILLE", "beds": 100.0, "SR_15": 3.0}, {"Diff_star": -1.0, "addr": "1524 GLEN OAKS PLACE", "SR_14": 2.0, "Q_14": 5.0, "name": "SOUTHERN OAKS NURSING & REHABILITATION CENTER", "SF_14": 2.0, "SF_15": 2.0, "cnty": "Caddo", "st": "LA", "Zip": 71103.0, "O_14": 3.0, "Q_15": 3.0, "O_15": 2.0, "city": "SHREVEPORT", "beds": 61.0, "SR_15": 2.0}, {"Diff_star": 0.0, "addr": "3707 HWY 114", "SR_14": 4.0, "Q_14": 3.0, "name": "HESSMER NURSING HOME", "SF_14": 3.0, "SF_15": 3.0, "cnty": "Avoyelles", "st": "LA", "Zip": 71341.0, "O_14": 4.0, "Q_15": 2.0, "O_15": 4.0, "city": "HESSMER", "beds": 92.0, "SR_15": 4.0}, {"Diff_star": -1.0, "addr": "2200 MEMORIAL DRIVE", "SR_14": 4.0, "Q_14": 5.0, "name": "SUMMIT (THE)", "SF_14": 1.0, "SF_15": 1.0, "cnty": "Rapides", "st": "LA", "Zip": 71301.0, "O_14": 4.0, "Q_15": 3.0, "O_15": 3.0, "city": "ALEXANDRIA", "beds": 130.0, "SR_15": 4.0}, {"Diff_star": 0.0, "addr": "3612 BAKER BLVD", "SR_14": 4.0, "Q_14": 5.0, "name": "NORTHRIDGE CARE CENTER", "SF_14": 4.0, "SF_15": 3.0, "cnty": "E. Baton Rouge", "st": "LA", "Zip": 70714.0, "O_14": 5.0, "Q_15": 5.0, "O_15": 5.0, "city": "BAKER", "beds": 132.0, "SR_15": 4.0}, {"Diff_star": 0.0, "addr": "1110 RINGGOLD AVENUE", "SR_14": 3.0, "Q_14": 4.0, "name": "GREEN MEADOW HAVEN", "SF_14": 4.0, "SF_15": 4.0, "cnty": "Red River", "st": "LA", "Zip": 71019.0, "O_14": 4.0, "Q_15": 3.0, "O_15": 4.0, "city": "COUSHATTA", "beds": 157.0, "SR_15": 3.0}, {"Diff_star": 0.0, "addr": "804 CROWLEY-RAYNE HWY", "SR_14": 3.0, "Q_14": 4.0, "name": "SOUTHWIND NURSING & REHABILITATION CENTER", "SF_14": 1.0, "SF_15": 1.0, "cnty": "Acadia", "st": "LA", "Zip": 70526.0, "O_14": 2.0, "Q_15": 2.0, "O_15": 2.0, "city": "CROWLEY", "beds": 99.0, "SR_15": 3.0}, {"Diff_star": -1.0, "addr": "830 S. BROADWAY", "SR_14": 3.0, "Q_14": 5.0, "name": "ACADIA ST. LANDRY GUEST HOUSE", "SF_14": 4.0, "SF_15": 3.0, "cnty": "Acadia", "st": "LA", "Zip": 70525.0, "O_14": 5.0, "Q_15": 5.0, "O_15": 4.0, "city": "CHURCH POINT", "beds": 134.0, "SR_15": 3.0}, {"Diff_star": 0.0, "addr": "406 ST JULIEN STREET", "SR_14": 4.0, "Q_14": 4.0, "name": "BETHANY MHS HEALTH CARE CENTER", "SF_14": 4.0, "SF_15": 3.0, "cnty": "Lafayette", "st": "LA", "Zip": 70506.0, "O_14": 4.0, "Q_15": 3.0, "O_15": 4.0, "city": "LAFAYETTE", "beds": 42.0, "SR_15": 4.0}, {"Diff_star": -1.0, "addr": "4250 ESSEN LANE", "SR_14": 4.0, "Q_14": 5.0, "name": "OLLIE STEELE BURDEN MANOR", "SF_14": "", "SF_15": "", "cnty": "E. Baton Rouge", "st": "LA", "Zip": 70809.0, "O_14": 5.0, "Q_15": 4.0, "O_15": 4.0, "city": "BATON ROUGE", "beds": 22.0, "SR_15": 4.0}, {"Diff_star": -1.0, "addr": "4000 RODEO ROAD", "SR_14": 1.0, "Q_14": 5.0, "name": "MAISON DU MONDE LIVING CENTER", "SF_14": 2.0, "SF_15": 2.0, "cnty": "Vermilion", "st": "LA", "Zip": 70510.0, "O_14": 2.0, "Q_15": 4.0, "O_15": 1.0, "city": "ABBEVILLE", "beds": 128.0, "SR_15": 1.0}, {"Diff_star": 0.0, "addr": "4659 HIGHWAY 505", "SR_14": 3.0, "Q_14": 5.0, "name": "WYATT MANOR NURSING AND REHAB CTR, INC", "SF_14": 3.0, "SF_15": 3.0, "cnty": "Jackson", "st": "LA", "Zip": 71251.0, "O_14": 4.0, "Q_15": 5.0, "O_15": 4.0, "city": "JONESBORO", "beds": 62.0, "SR_15": 3.0}, {"Diff_star": -2.0, "addr": "6001 AIRLINE HWY.", "SR_14": 2.0, "Q_14": 3.0, "name": "ST ANTHONY'S NURSING HOME", "SF_14": 4.0, "SF_15": 3.0, "cnty": "Jefferson", "st": "LA", "Zip": 70003.0, "O_14": 3.0, "Q_15": 1.0, "O_15": 1.0, "city": "METAIRIE", "beds": 124.0, "SR_15": 2.0}, {"Diff_star": -1.0, "addr": "8340 BARINGER FOREMAN ROAD.", "SR_14": 4.0, "Q_14": 5.0, "name": "OLD JEFFERSON COMMUNITY CARE CENTER", "SF_14": 3.0, "SF_15": 3.0, "cnty": "E. Baton Rouge", "st": "LA", "Zip": 70817.0, "O_14": 5.0, "Q_15": 4.0, "O_15": 4.0, "city": "BATON ROUGE", "beds": 136.0, "SR_15": 4.0}, {"Diff_star": 0.0, "addr": "1355 SIXTH STREET", "SR_14": 4.0, "Q_14": 4.0, "name": "LESLIE LAKES RETIREMENT CENTER", "SF_14": 3.0, "SF_15": 3.0, "cnty": "Bienville", "st": "LA", "Zip": 71001.0, "O_14": 4.0, "Q_15": 2.0, "O_15": 4.0, "city": "ARCADIA", "beds": 150.0, "SR_15": 4.0}, {"Diff_star": -1.0, "addr": "1511 DULLES DRIVE", "SR_14": 3.0, "Q_14": 5.0, "name": "MAGNOLIA ESTATES", "SF_14": 3.0, "SF_15": 3.0, "cnty": "Lafayette", "st": "LA", "Zip": 70506.0, "O_14": 4.0, "Q_15": 2.0, "O_15": 3.0, "city": "LAFAYETTE", "beds": 160.0, "SR_15": 3.0}, {"Diff_star": -1.0, "addr": "7307 OLD SPANISH TRAIL", "SR_14": 2.0, "Q_14": 3.0, "name": "MAISON TECHE NURSING CENTER", "SF_14": 2.0, "SF_15": 2.0, "cnty": "Iberia", "st": "LA", "Zip": 70544.0, "O_14": 2.0, "Q_15": 1.0, "O_15": 1.0, "city": "JEANERETTE", "beds": 121.0, "SR_15": 2.0}, {"Diff_star": 0.0, "addr": "1515 HIGHWAY 107", "SR_14": 4.0, "Q_14": 5.0, "name": "OAK HAVEN COMMUNITY CARE CENTER", "SF_14": 2.0, "SF_15": 2.0, "cnty": "Avoyelles", "st": "LA", "Zip": 71323.0, "O_14": 5.0, "Q_15": 5.0, "O_15": 5.0, "city": "CENTER POINT", "beds": 104.0, "SR_15": 4.0}, {"Diff_star": -1.0, "addr": "1050 EDWIN ELLIOTT DRIVE", "SR_14": 5.0, "Q_14": 2.0, "name": "PRAIRIE MANOR NURSING HOME", "SF_14": 3.0, "SF_15": 3.0, "cnty": "Evangeline", "st": "LA", "Zip": 70576.0, "O_14": 5.0, "Q_15": 1.0, "O_15": 4.0, "city": "PINE PRAIRIE", "beds": 100.0, "SR_15": 5.0}, {"Diff_star": 0.0, "addr": "240 ARCENEAUX ROAD", "SR_14": 1.0, "Q_14": 4.0, "name": "EVANGELINE OAKS GUEST HOUSE", "SF_14": 2.0, "SF_15": 2.0, "cnty": "Lafayette", "st": "LA", "Zip": 70520.0, "O_14": 1.0, "Q_15": 3.0, "O_15": 1.0, "city": "CARENCRO", "beds": 190.0, "SR_15": 1.0}, {"Diff_star": 0.0, "addr": "3700 HWY. 79 SOUTH", "SR_14": 3.0, "Q_14": 4.0, "name": "PRESBYTERIAN VILLAGE OF HOMER", "SF_14": 3.0, "SF_15": 3.0, "cnty": "Claiborne", "st": "LA", "Zip": 71040.0, "O_14": 3.0, "Q_15": 3.0, "O_15": 3.0, "city": "HOMER", "beds": 79.0, "SR_15": 3.0}, {"Diff_star": 0.0, "addr": "5682 HWY. 107 SOUTH", "SR_14": 1.0, "Q_14": 1.0, "name": "AVOYELLES MANOR NURSING HOME", "SF_14": 4.0, "SF_15": 3.0, "cnty": "Avoyelles", "st": "LA", "Zip": 71329.0, "O_14": 1.0, "Q_15": 1.0, "O_15": 1.0, "city": "DUPONT", "beds": 104.0, "SR_15": 1.0}, {"Diff_star": 0.0, "addr": "2907 EAST SCHAMBERS", "SR_14": 1.0, "Q_14": 3.0, "name": "BASILE CARE CENTER", "SF_14": 1.0, "SF_15": 1.0, "cnty": "Evangeline", "st": "LA", "Zip": 70515.0, "O_14": 1.0, "Q_15": 1.0, "O_15": 1.0, "city": "BASILE", "beds": 78.0, "SR_15": 1.0}, {"Diff_star": 0.0, "addr": "7534 HIGHWAY 1", "SR_14": 4.0, "Q_14": 4.0, "name": "BROADWAY NURSING AND REHABILITATION CTR (THE)", "SF_14": 2.0, "SF_15": 2.0, "cnty": "Lafourche", "st": "LA", "Zip": 70374.0, "O_14": 4.0, "Q_15": 2.0, "O_15": 4.0, "city": "LOCKPORT", "beds": 126.0, "SR_15": 4.0}, {"Diff_star": -1.0, "addr": "909 EAST 6TH AVENUE", "SR_14": 4.0, "Q_14": 3.0, "name": "ALLEN OAKS NURSING AND REHAB CENTER", "SF_14": 3.0, "SF_15": 3.0, "cnty": "Allen", "st": "LA", "Zip": 71463.0, "O_14": 4.0, "Q_15": 1.0, "O_15": 3.0, "city": "OAKDALE", "beds": 91.0, "SR_15": 4.0}, {"Diff_star": -1.0, "addr": "5976 HIGHWAY 65 NORTH", "SR_14": 2.0, "Q_14": 3.0, "name": "SHADY LAKE NURSING HOME", "SF_14": 2.0, "SF_15": 2.0, "cnty": "East Carroll", "st": "LA", "Zip": 71254.0, "O_14": 2.0, "Q_15": 1.0, "O_15": 1.0, "city": "LAKE PROVIDENCE", "beds": 108.0, "SR_15": 2.0}, {"Diff_star": 0.0, "addr": "1400 W MAGNOLIA", "SR_14": 1.0, "Q_14": 3.0, "name": "OAK LANE WELLNESS & REHABILITATIVE CENTER", "SF_14": 3.0, "SF_15": 3.0, "cnty": "St. Landry", "st": "LA", "Zip": 70535.0, "O_14": 1.0, "Q_15": 1.0, "O_15": 1.0, "city": "EUNICE", "beds": 130.0, "SR_15": 1.0}, {"Diff_star": 0.0, "addr": "2832 BURDETTE STREET", "SR_14": 3.0, "Q_14": 4.0, "name": "CHATEAU DE NOTRE DAME", "SF_14": 4.0, "SF_15": 3.0, "cnty": "Orleans", "st": "LA", "Zip": 70125.0, "O_14": 4.0, "Q_15": 3.0, "O_15": 4.0, "city": "NEW ORLEANS", "beds": 171.0, "SR_15": 4.0}, {"Diff_star": -1.0, "addr": "7435 BISHOP OTT DRIVE", "SR_14": 2.0, "Q_14": 3.0, "name": "ST CLARE MANOR", "SF_14": 4.0, "SF_15": 4.0, "cnty": "E. Baton Rouge", "st": "LA", "Zip": 70806.0, "O_14": 3.0, "Q_15": 1.0, "O_15": 2.0, "city": "BATON ROUGE", "beds": 216.0, "SR_15": 2.0}, {"Diff_star": 0.0, "addr": "1020 MANHATTAN BLVD", "SR_14": 1.0, "Q_14": 5.0, "name": "WEST JEFFERSON HEALTH CARE CENTER", "SF_14": 3.0, "SF_15": 3.0, "cnty": "Jefferson", "st": "LA", "Zip": 70058.0, "O_14": 2.0, "Q_15": 5.0, "O_15": 2.0, "city": "HARVEY", "beds": 104.0, "SR_15": 1.0}, {"Diff_star": 0.0, "addr": "418 ALBERTSON PARKWAY", "SR_14": 2.0, "Q_14": 4.0, "name": "CAMELOT OF BROUSSARD", "SF_14": 2.0, "SF_15": 2.0, "cnty": "Lafayette", "st": "LA", "Zip": 70518.0, "O_14": 2.0, "Q_15": 2.0, "O_15": 2.0, "city": "BROUSSARD", "beds": 148.0, "SR_15": 2.0}, {"Diff_star": 0.0, "addr": "1408 SUMMERLIN LANE", "SR_14": 4.0, "Q_14": 4.0, "name": "LAGNIAPPE HEALTHCARE", "SF_14": 2.0, "SF_15": 2.0, "cnty": "Morehouse", "st": "LA", "Zip": 71220.0, "O_14": 4.0, "Q_15": 3.0, "O_15": 4.0, "city": "BASTROP", "beds": 112.0, "SR_15": 4.0}, {"Diff_star": 0.0, "addr": "1524 DOCTORS DRIVE", "SR_14": 5.0, "Q_14": 4.0, "name": "PILGRIM MANOR GUEST CARE CENTER,  LLC", "SF_14": 1.0, "SF_15": 1.0, "cnty": "Bossier", "st": "LA", "Zip": 71111.0, "O_14": 4.0, "Q_15": 2.0, "O_15": 4.0, "city": "BOSSIER CITY", "beds": 153.0, "SR_15": 5.0}, {"Diff_star": 0.0, "addr": "3300 WHITE STREET", "SR_14": 3.0, "Q_14": 4.0, "name": "MARY GOSS NURSING HOME", "SF_14": 2.0, "SF_15": 2.0, "cnty": "Ouachita", "st": "LA", "Zip": 71203.0, "O_14": 3.0, "Q_15": 3.0, "O_15": 3.0, "city": "MONROE", "beds": 91.0, "SR_15": 3.0}, {"Diff_star": -1.0, "addr": "600 EAST FLOURNOY LUCAS ROAD", "SR_14": 2.0, "Q_14": 4.0, "name": "LIVE OAK", "SF_14": 4.0, "SF_15": 3.0, "cnty": "Caddo", "st": "LA", "Zip": 71115.0, "O_14": 3.0, "Q_15": 2.0, "O_15": 2.0, "city": "SHREVEPORT", "beds": 160.0, "SR_15": 2.0}, {"Diff_star": -1.0, "addr": "1400 DAVENPORT AVENUE", "SR_14": 3.0, "Q_14": 2.0, "name": "OAK WOODS HOME FOR THE ELDERLY", "SF_14": 4.0, "SF_15": 4.0, "cnty": "Morehouse", "st": "LA", "Zip": 71261.0, "O_14": 4.0, "Q_15": 1.0, "O_15": 3.0, "city": "MER ROUGE", "beds": 119.0, "SR_15": 3.0}, {"Diff_star": 0.0, "addr": "403 15TH STREET", "SR_14": 3.0, "Q_14": 4.0, "name": "PORT ALLEN CARE CENTER, L.L.C.", "SF_14": 2.0, "SF_15": 2.0, "cnty": "W. Baton Rouge", "st": "LA", "Zip": 70767.0, "O_14": 3.0, "Q_15": 3.0, "O_15": 3.0, "city": "PORT ALLEN", "beds": 125.0, "SR_15": 3.0}, {"Diff_star": 0.0, "addr": "5100 JACKSON STREET EXT.", "SR_14": 4.0, "Q_14": 5.0, "name": "MATTHEWS MEMORIAL HEALTH CARE CENTER", "SF_14": 4.0, "SF_15": 3.0, "cnty": "Rapides", "st": "LA", "Zip": 71303.0, "O_14": 5.0, "Q_15": 5.0, "O_15": 5.0, "city": "ALEXANDRIA", "beds": 124.0, "SR_15": 4.0}, {"Diff_star": -1.0, "addr": "475 HIGH HOPE ROAD", "SR_14": 3.0, "Q_14": 5.0, "name": "HIGH HOPE CARE CENTER", "SF_14": 3.0, "SF_15": 3.0, "cnty": "Calcasieu", "st": "LA", "Zip": 70663.0, "O_14": 4.0, "Q_15": 3.0, "O_15": 3.0, "city": "SULPHUR", "beds": 101.0, "SR_15": 3.0}, {"Diff_star": 0.0, "addr": "1386 WEST TUNNEL BLVD.", "SR_14": 1.0, "Q_14": 3.0, "name": "CHATEAU TERREBONNE HEALTH CARE", "SF_14": 3.0, "SF_15": 3.0, "cnty": "Terrebonne", "st": "LA", "Zip": 70360.0, "O_14": 1.0, "Q_15": 1.0, "O_15": 1.0, "city": "HOUMA", "beds": 198.0, "SR_15": 1.0}, {"Diff_star": 0.0, "addr": "323 EVERGREEN STREET", "SR_14": 4.0, "Q_14": 4.0, "name": "BAYOU VISTA COMMUNITY CARE CENTER", "SF_14": 2.0, "SF_15": 2.0, "cnty": "Avoyelles", "st": "LA", "Zip": 71322.0, "O_14": 4.0, "Q_15": 2.0, "O_15": 4.0, "city": "BUNKIE", "beds": 92.0, "SR_15": 4.0}, {"Diff_star": -1.0, "addr": "4921 MEDICAL DRIVE", "SR_14": 5.0, "Q_14": 5.0, "name": "COLONIAL OAKS GUEST CARE LLC", "SF_14": 1.0, "SF_15": 1.0, "cnty": "Bossier", "st": "LA", "Zip": 71112.0, "O_14": 5.0, "Q_15": 3.0, "O_15": 4.0, "city": "BOSSIER CITY", "beds": 120.0, "SR_15": 5.0}, {"Diff_star": 0.0, "addr": "125 TURNER STREET", "SR_14": 2.0, "Q_14": 1.0, "name": "MARY ANNA NURSING HOME", "SF_14": "", "SF_15": "", "cnty": "Franklin", "st": "LA", "Zip": 71378.0, "O_14": 1.0, "Q_15": 1.0, "O_15": 1.0, "city": "WISNER", "beds": 81.0, "SR_15": 2.0}, {"Diff_star": 0.0, "addr": "306 SYDNEY MARTIN ROAD", "SR_14": 1.0, "Q_14": 4.0, "name": "COURTYARD MANOR NURSE CARE CENTER & ASSISTED LIV", "SF_14": 1.0, "SF_15": 1.0, "cnty": "Lafayette", "st": "LA", "Zip": 70507.0, "O_14": 1.0, "Q_15": 1.0, "O_15": 1.0, "city": "LAFAYETTE", "beds": 92.0, "SR_15": 1.0}, {"Diff_star": 0.0, "addr": "1610 EVANGELINE HIGHWAY", "SR_14": 4.0, "Q_14": 1.0, "name": "SOUTHWEST LOUISIANA WAR VETERANS HOME", "SF_14": "", "SF_15": "", "cnty": "Jeffrson Davis", "st": "LA", "Zip": 70546.0, "O_14": 3.0, "Q_15": 1.0, "O_15": 3.0, "city": "JENNINGS", "beds": 31.0, "SR_15": 4.0}, {"Diff_star": -1.0, "addr": "32 NORTH 2ND STREET", "SR_14": 4.0, "Q_14": 3.0, "name": "ST HELENA PARISH NURSING HOME", "SF_14": 4.0, "SF_15": 3.0, "cnty": "St. Helena", "st": "LA", "Zip": 70441.0, "O_14": 4.0, "Q_15": 1.0, "O_15": 3.0, "city": "GREENSBURG", "beds": 72.0, "SR_15": 4.0}, {"Diff_star": 0.0, "addr": "501 OLD COVINGTON HIGHWAY", "SR_14": 2.0, "Q_14": 4.0, "name": "HAMMOND NURSING HOME", "SF_14": 1.0, "SF_15": 1.0, "cnty": "Tangipahoa", "st": "LA", "Zip": 70403.0, "O_14": 1.0, "Q_15": 3.0, "O_15": 1.0, "city": "HAMMOND", "beds": 120.0, "SR_15": 2.0}, {"Diff_star": 0.0, "addr": "605 HILLTOP AVENUE", "SR_14": 2.0, "Q_14": 4.0, "name": "GOOD SAMARITAN LIVING CENTER", "SF_14": 4.0, "SF_15": 3.0, "cnty": "Washington", "st": "LA", "Zip": 70438.0, "O_14": 3.0, "Q_15": 2.0, "O_15": 3.0, "city": "FRANKLINTON", "beds": 84.0, "SR_15": 3.0}, {"Diff_star": -1.0, "addr": "122 HILLSDALE DRIVE", "SR_14": 1.0, "Q_14": 5.0, "name": "ST CHRISTINA NURSING AND REHABILITATION CENTER", "SF_14": 2.0, "SF_15": 1.0, "cnty": "Rapides", "st": "LA", "Zip": 71360.0, "O_14": 2.0, "Q_15": 4.0, "O_15": 1.0, "city": "PINEVILLE", "beds": 140.0, "SR_15": 1.0}, {"Diff_star": 0.0, "addr": "5919 MAGAZINE STREET", "SR_14": 3.0, "Q_14": 3.0, "name": "COVENANT HOME", "SF_14": 3.0, "SF_15": 3.0, "cnty": "Orleans", "st": "LA", "Zip": 70115.0, "O_14": 3.0, "Q_15": 2.0, "O_15": 3.0, "city": "NEW ORLEANS", "beds": 96.0, "SR_15": 3.0}, {"Diff_star": 0.0, "addr": "7605 LINE AVENUE", "SR_14": 3.0, "Q_14": 5.0, "name": "BOOKER T. WASHINGTON GUEST CARE CENTER", "SF_14": 1.0, "SF_15": 1.0, "cnty": "Caddo", "st": "LA", "Zip": 71106.0, "O_14": 3.0, "Q_15": 5.0, "O_15": 3.0, "city": "SHREVEPORT", "beds": 80.0, "SR_15": 3.0}, {"Diff_star": 0.0, "addr": "6300 MAIN STREET", "SR_14": 3.0, "Q_14": 4.0, "name": "LANE NSG HOME AN AFFILIATE OF LANE REG MEDICAL CTR", "SF_14": 3.0, "SF_15": 3.0, "cnty": "E. Baton Rouge", "st": "LA", "Zip": 70791.0, "O_14": 3.0, "Q_15": 2.0, "O_15": 3.0, "city": "ZACHARY", "beds": 39.0, "SR_15": 3.0}, {"Diff_star": 0.0, "addr": "2319 EAST MAIN STREET", "SR_14": 2.0, "Q_14": 5.0, "name": "CONSOLATA HOME", "SF_14": 4.0, "SF_15": 4.0, "cnty": "Iberia", "st": "LA", "Zip": 70560.0, "O_14": 4.0, "Q_15": 5.0, "O_15": 4.0, "city": "NEW IBERIA", "beds": 114.0, "SR_15": 2.0}, {"Diff_star": 0.0, "addr": "906 CHERRY STREET", "SR_14": 5.0, "Q_14": 4.0, "name": "SAVOY CARE CENTER", "SF_14": 3.0, "SF_15": 3.0, "cnty": "Evangeline", "st": "LA", "Zip": 70554.0, "O_14": 5.0, "Q_15": 2.0, "O_15": 5.0, "city": "MAMOU", "beds": 119.0, "SR_15": 5.0}, {"Diff_star": 0.0, "addr": "1820 FALSE RIVER ROAD", "SR_14": 3.0, "Q_14": 4.0, "name": "POINTE COUPEE HEALTHCARE", "SF_14": 2.0, "SF_15": 2.0, "cnty": "Pointe Coupee", "st": "LA", "Zip": 70760.0, "O_14": 3.0, "Q_15": 2.0, "O_15": 3.0, "city": "NEW ROADS", "beds": 120.0, "SR_15": 3.0}, {"Diff_star": 0.0, "addr": "8000 SUMMA AVENUE", "SR_14": 3.0, "Q_14": "", "name": "SAGE REHABILITATION HOSPITAL SNF", "SF_14": 5.0, "SF_15": 5.0, "cnty": "E. Baton Rouge", "st": "LA", "Zip": 70809.0, "O_14": 4.0, "Q_15": "", "O_15": 4.0, "city": "BATON ROUGE", "beds": 15.0, "SR_15": 3.0}, {"Diff_star": 0.0, "addr": "2550 KINGS HIGHWAY", "SR_14": 5.0, "Q_14": 3.0, "name": "WILLIS-KNIGHTON EXTENDED CARE CENTER", "SF_14": 5.0, "SF_15": 5.0, "cnty": "Caddo", "st": "LA", "Zip": 71103.0, "O_14": 5.0, "Q_15": 2.0, "O_15": 5.0, "city": "SHREVEPORT", "beds": 24.0, "SR_15": 5.0}, {"Diff_star": 0.0, "addr": "3130 ARTHUR RAY TEAGUE PARKWAY", "SR_14": 5.0, "Q_14": 4.0, "name": "NORTHWEST LOUISIANA WAR VETERANS HOME", "SF_14": "", "SF_15": "", "cnty": "Bossier", "st": "LA", "Zip": 71112.0, "O_14": 5.0, "Q_15": 2.0, "O_15": 5.0, "city": "BOSSIER CITY", "beds": 20.0, "SR_15": 5.0}, {"Diff_star": -2.0, "addr": "1301 HARRISON STREET", "SR_14": 2.0, "Q_14": 3.0, "name": "RESTHAVEN LIVING CENTER", "SF_14": 4.0, "SF_15": 3.0, "cnty": "Washington", "st": "LA", "Zip": 70427.0, "O_14": 3.0, "Q_15": 1.0, "O_15": 1.0, "city": "BOGALUSA", "beds": 145.0, "SR_15": 2.0}, {"Diff_star": 0.0, "addr": "4080 W AIRLINE HWY", "SR_14": 5.0, "Q_14": 1.0, "name": "SOUTHEAST LOUISIANA WAR VETERANS HOME", "SF_14": "", "SF_15": "", "cnty": "St. John Baptist", "st": "LA", "Zip": 70084.0, "O_14": 4.0, "Q_15": 1.0, "O_15": 4.0, "city": "RESERVE", "beds": 39.0, "SR_15": 5.0}, {"Diff_star": -1.0, "addr": "6700 HIGHWAY 165 NORTH", "SR_14": 3.0, "Q_14": 4.0, "name": "NORTHEAST LA WAR VETERANS HOME", "SF_14": 3.0, "SF_15": 3.0, "cnty": "Ouachita", "st": "LA", "Zip": 71211.0, "O_14": 3.0, "Q_15": 1.0, "O_15": 2.0, "city": "MONROE", "beds": 10.0, "SR_15": 3.0}, {"Diff_star": 0.0, "addr": "4739 HIGHWAY 10", "SR_14": 4.0, "Q_14": 5.0, "name": "LOUISIANA WAR VETERANS HOME", "SF_14": "", "SF_15": "", "cnty": "East Feliciana", "st": "LA", "Zip": 70748.0, "O_14": 5.0, "Q_15": 5.0, "O_15": 5.0, "city": "JACKSON", "beds": 84.0, "SR_15": 4.0}, {"Diff_star": -1.0, "addr": "2335 OAK PARK BLVD", "SR_14": 3.0, "Q_14": 4.0, "name": "LANDMARK OF LAKE CHARLES", "SF_14": 1.0, "SF_15": 1.0, "cnty": "Calcasieu", "st": "LA", "Zip": 70601.0, "O_14": 2.0, "Q_15": 1.0, "O_15": 1.0, "city": "LAKE CHARLES", "beds": 150.0, "SR_15": 3.0}, {"Diff_star": 0.0, "addr": "4201 WOODLAND DRIVE", "SR_14": 2.0, "Q_14": 4.0, "name": "ST LUKE'S LIVING CENTER", "SF_14": 2.0, "SF_15": 2.0, "cnty": "Orleans", "st": "LA", "Zip": 70131.0, "O_14": 2.0, "Q_15": 2.0, "O_15": 2.0, "city": "NEW ORLEANS", "beds": 104.0, "SR_15": 2.0}, {"Diff_star": -1.0, "addr": "6900 CHEF MENTEUR HWY", "SR_14": 4.0, "Q_14": 5.0, "name": "LAFON NURSING FACILITY OF THE HOLY FAMILY", "SF_14": 4.0, "SF_15": 3.0, "cnty": "Orleans", "st": "LA", "Zip": 70126.0, "O_14": 5.0, "Q_15": 3.0, "O_15": 4.0, "city": "NEW ORLEANS", "beds": 155.0, "SR_15": 4.0}, {"Diff_star": 0.0, "addr": "1005 ERASTE LANDRY ROAD", "SR_14": 2.0, "Q_14": 2.0, "name": "LADY OF THE OAKS RETIREMENT MANOR", "SF_14": 1.0, "SF_15": 1.0, "cnty": "Lafayette", "st": "LA", "Zip": 70506.0, "O_14": 1.0, "Q_15": 1.0, "O_15": 1.0, "city": "LAFAYETTE", "beds": 137.0, "SR_15": 2.0}, {"Diff_star": -1.0, "addr": "103 W. MARTIAL AVENUE", "SR_14": 3.0, "Q_14": 5.0, "name": "CORNERSTONE VILLAGE SOUTH, INC", "SF_14": 4.0, "SF_15": 4.0, "cnty": "Lafayette", "st": "LA", "Zip": 70508.0, "O_14": 5.0, "Q_15": 4.0, "O_15": 4.0, "city": "LAFAYETTE", "beds": 106.0, "SR_15": 3.0}, {"Diff_star": -1.0, "addr": "4100 NORTH BLVD", "SR_14": 3.0, "Q_14": 5.0, "name": "NORTH POINT HEALTHCARE CENTER", "SF_14": 4.0, "SF_15": 4.0, "cnty": "E. Baton Rouge", "st": "LA", "Zip": 70806.0, "O_14": 5.0, "Q_15": 4.0, "O_15": 4.0, "city": "BATON ROUGE", "beds": 123.0, "SR_15": 3.0}, {"Diff_star": 1.0, "addr": "1401 COUNTRY CLUB ROAD", "SR_14": 2.0, "Q_14": 4.0, "name": "GUARDIAN HOUSE TOTAL ALZHEIMER'S LIVING FACILITY", "SF_14": 4.0, "SF_15": 4.0, "cnty": "Calcasieu", "st": "LA", "Zip": 70605.0, "O_14": 3.0, "Q_15": 3.0, "O_15": 4.0, "city": "LAKE CHARLES", "beds": 60.0, "SR_15": 3.0}, {"Diff_star": -1.0, "addr": "5131 MASONIC DRIVE", "SR_14": 3.0, "Q_14": 5.0, "name": "REGENCY HOUSE OF ALEXANDRIA", "SF_14": 2.0, "SF_15": 2.0, "cnty": "Rapides", "st": "LA", "Zip": 71301.0, "O_14": 4.0, "Q_15": 3.0, "O_15": 3.0, "city": "ALEXANDRIA", "beds": 52.0, "SR_15": 3.0}]