[{"Diff_star": -1.0, "addr": "32 MAYO ROAD", "SR_14": 2.0, "Q_14": 2.0, "name": "HOLDEN REHABILITATION & SKILLED NURSING CENTER INC", "SF_14": 5.0, "SF_15": 5.0, "cnty": "Worcester", "st": "MA", "Zip": 1520.0, "O_14": 3.0, "Q_15": 1.0, "O_15": 2.0, "city": "HOLDEN", "beds": 123.0, "SR_15": 2.0}, {"Diff_star": 0.0, "addr": "15 GREEN STREET", "SR_14": 4.0, "Q_14": 4.0, "name": "EPOCH SENIOR HEALTHCARE OF MELROSE", "SF_14": 4.0, "SF_15": 4.0, "cnty": "Middlesex", "st": "MA", "Zip": 2176.0, "O_14": 4.0, "Q_15": 4.0, "O_15": 4.0, "city": "MELROSE", "beds": 82.0, "SR_15": 4.0}, {"Diff_star": 0.0, "addr": "383 MILL STREET", "SR_14": 2.0, "Q_14": 5.0, "name": "GOLDEN LIVING CENTER-THE HERMITAGE", "SF_14": 4.0, "SF_15": 4.0, "cnty": "Worcester", "st": "MA", "Zip": 1602.0, "O_14": 4.0, "Q_15": 5.0, "O_15": 4.0, "city": "WORCESTER", "beds": 101.0, "SR_15": 2.0}, {"Diff_star": 0.0, "addr": "1245 CENTRE STREET", "SR_14": 4.0, "Q_14": 2.0, "name": "SPAULDING NURSING & THERAPY CENTER - WEST ROXBURY", "SF_14": 5.0, "SF_15": 5.0, "cnty": "Suffolk", "st": "MA", "Zip": 2132.0, "O_14": 5.0, "Q_15": 3.0, "O_15": 5.0, "city": "WEST ROXBURY", "beds": 81.0, "SR_15": 4.0}, {"Diff_star": 0.0, "addr": "87 BRIARWOOD CIRCLE", "SR_14": 4.0, "Q_14": 4.0, "name": "KNOLLWOOD NURSING CENTER", "SF_14": 4.0, "SF_15": 4.0, "cnty": "Worcester", "st": "MA", "Zip": 1606.0, "O_14": 4.0, "Q_15": 3.0, "O_15": 4.0, "city": "WORCESTER", "beds": 82.0, "SR_15": 4.0}, {"Diff_star": -1.0, "addr": "34 NORTH PEARL STREET", "SR_14": 3.0, "Q_14": 3.0, "name": "BRAEMOOR HEALTH CENTER", "SF_14": 3.0, "SF_15": 3.0, "cnty": "Plymouth", "st": "MA", "Zip": 2301.0, "O_14": 3.0, "Q_15": 1.0, "O_15": 2.0, "city": "BROCKTON", "beds": 120.0, "SR_15": 3.0}, {"Diff_star": 0.0, "addr": "370 WEST STREET", "SR_14": 3.0, "Q_14": 5.0, "name": "LIFE CARE CENTER OF LEOMINSTER", "SF_14": 3.0, "SF_15": 3.0, "cnty": "Worcester", "st": "MA", "Zip": 1453.0, "O_14": 4.0, "Q_15": 5.0, "O_15": 4.0, "city": "LEOMINSTER", "beds": 133.0, "SR_15": 3.0}, {"Diff_star": -1.0, "addr": "770 CONVERSE STREET", "SR_14": 3.0, "Q_14": 5.0, "name": "JEWISH NURSING HOME OF WESTERN MASS", "SF_14": 4.0, "SF_15": 4.0, "cnty": "Hampden", "st": "MA", "Zip": 1106.0, "O_14": 5.0, "Q_15": 4.0, "O_15": 4.0, "city": "LONGMEADOW", "beds": 200.0, "SR_15": 3.0}, {"Diff_star": -1.0, "addr": "96 FOREST STREET", "SR_14": 3.0, "Q_14": 5.0, "name": "PILGRIM REHABILITATION & SKILLED NURSING CENTER", "SF_14": 4.0, "SF_15": 4.0, "cnty": "Essex", "st": "MA", "Zip": 1960.0, "O_14": 5.0, "Q_15": 4.0, "O_15": 4.0, "city": "PEABODY", "beds": 152.0, "SR_15": 3.0}, {"Diff_star": 0.0, "addr": "30 WATERTOWN STREET", "SR_14": 5.0, "Q_14": 5.0, "name": "PINE KNOLL NURSING CENTER", "SF_14": 4.0, "SF_15": 4.0, "cnty": "Middlesex", "st": "MA", "Zip": 2420.0, "O_14": 5.0, "Q_15": 5.0, "O_15": 5.0, "city": "LEXINGTON", "beds": 81.0, "SR_15": 5.0}, {"Diff_star": 0.0, "addr": "184 MANSFIELD AVENUE", "SR_14": 1.0, "Q_14": 3.0, "name": "EPOCH SENIOR HEALTHCARE OF NORTON", "SF_14": 3.0, "SF_15": 3.0, "cnty": "Bristol", "st": "MA", "Zip": 2766.0, "O_14": 1.0, "Q_15": 2.0, "O_15": 1.0, "city": "NORTON", "beds": 106.0, "SR_15": 1.0}, {"Diff_star": 0.0, "addr": "233 MIDDLE STREET", "SR_14": 3.0, "Q_14": 4.0, "name": "JOHN SCOTT HOUSE NURSING & REHABILITATION CENTER", "SF_14": 4.0, "SF_15": 4.0, "cnty": "Norfolk", "st": "MA", "Zip": 2184.0, "O_14": 4.0, "Q_15": 3.0, "O_15": 4.0, "city": "BRAINTREE", "beds": 187.0, "SR_15": 3.0}, {"Diff_star": 0.0, "addr": "95 COMMERCIAL STREET", "SR_14": 2.0, "Q_14": 5.0, "name": "ROYAL BRAINTREE NURSING AND REHABILITATION CENTER", "SF_14": 4.0, "SF_15": 4.0, "cnty": "Norfolk", "st": "MA", "Zip": 2184.0, "O_14": 4.0, "Q_15": 5.0, "O_15": 4.0, "city": "BRAINTREE", "beds": 204.0, "SR_15": 2.0}, {"Diff_star": 0.0, "addr": "125 BROAD STREET", "SR_14": 5.0, "Q_14": 5.0, "name": "COLONIAL NURSING & REHABILITATION CENTER", "SF_14": 5.0, "SF_15": 5.0, "cnty": "Norfolk", "st": "MA", "Zip": 2188.0, "O_14": 5.0, "Q_15": 5.0, "O_15": 5.0, "city": "WEYMOUTH", "beds": 205.0, "SR_15": 4.0}, {"Diff_star": -1.0, "addr": "121 NORTHBORO ROAD", "SR_14": 2.0, "Q_14": 4.0, "name": "MARLBOROUGH HILLS REHABILTIATION & HLTH CARE CTR", "SF_14": 4.0, "SF_15": 3.0, "cnty": "Middlesex", "st": "MA", "Zip": 1752.0, "O_14": 3.0, "Q_15": 2.0, "O_15": 2.0, "city": "MARLBOROUGH", "beds": 196.0, "SR_15": 2.0}, {"Diff_star": 0.0, "addr": "146 DEAN STREET", "SR_14": 3.0, "Q_14": 4.0, "name": "GOLDEN LIVING CENTER-WEDGEMERE", "SF_14": 3.0, "SF_15": 3.0, "cnty": "Bristol", "st": "MA", "Zip": 2780.0, "O_14": 3.0, "Q_15": 3.0, "O_15": 3.0, "city": "TAUNTON", "beds": 94.0, "SR_15": 3.0}, {"Diff_star": -1.0, "addr": "DEACONESS ROAD", "SR_14": 3.0, "Q_14": 5.0, "name": "RIVERCREST LONG TERM CARE", "SF_14": 5.0, "SF_15": 5.0, "cnty": "Middlesex", "st": "MA", "Zip": 1742.0, "O_14": 5.0, "Q_15": 4.0, "O_15": 4.0, "city": "W CONCORD", "beds": 108.0, "SR_15": 3.0}, {"Diff_star": 0.0, "addr": "91 CREST AVENUE", "SR_14": 2.0, "Q_14": 5.0, "name": "SOLDIERS HOME IN MASSACHUSETTS", "SF_14": "", "SF_15": "", "cnty": "Suffolk", "st": "MA", "Zip": 2150.0, "O_14": 3.0, "Q_15": 5.0, "O_15": 3.0, "city": "CHELSEA", "beds": 88.0, "SR_15": 2.0}, {"Diff_star": 0.0, "addr": "184 MAIN STREET", "SR_14": 3.0, "Q_14": 3.0, "name": "ROYAL OF FAIRHAVEN NURSING CENTER", "SF_14": 4.0, "SF_15": 4.0, "cnty": "Bristol", "st": "MA", "Zip": 2719.0, "O_14": 4.0, "Q_15": 2.0, "O_15": 4.0, "city": "FAIRHAVEN", "beds": 100.0, "SR_15": 3.0}, {"Diff_star": 0.0, "addr": "75 BRIMBAL AVENUE", "SR_14": 1.0, "Q_14": 4.0, "name": "BLUEBERRY HILL REHABILITATION AND HEALTHCARE CTR", "SF_14": 4.0, "SF_15": 4.0, "cnty": "Essex", "st": "MA", "Zip": 1915.0, "O_14": 2.0, "Q_15": 2.0, "O_15": 2.0, "city": "BEVERLY", "beds": 132.0, "SR_15": 1.0}, {"Diff_star": 0.0, "addr": "259 NORWOOD STREET", "SR_14": 1.0, "Q_14": 4.0, "name": "EPOCH SENIOR HEALTHCARE OF SHARON", "SF_14": 4.0, "SF_15": 4.0, "cnty": "Norfolk", "st": "MA", "Zip": 2067.0, "O_14": 2.0, "Q_15": 2.0, "O_15": 2.0, "city": "SHARON", "beds": 66.0, "SR_15": 1.0}, {"Diff_star": -1.0, "addr": "120 MAIN STREET", "SR_14": 4.0, "Q_14": 5.0, "name": "GOLDEN LIVING CENTER-DEXTER HOUSE", "SF_14": 3.0, "SF_15": 3.0, "cnty": "Middlesex", "st": "MA", "Zip": 2148.0, "O_14": 5.0, "Q_15": 4.0, "O_15": 4.0, "city": "MALDEN", "beds": 130.0, "SR_15": 4.0}, {"Diff_star": 0.0, "addr": "76 NORTH STREET", "SR_14": 1.0, "Q_14": 3.0, "name": "GOLDEN LIVING CENTER-OAK HILL", "SF_14": 2.0, "SF_15": 2.0, "cnty": "Plymouth", "st": "MA", "Zip": 2346.0, "O_14": 1.0, "Q_15": 1.0, "O_15": 1.0, "city": "MIDDLEBORO", "beds": 123.0, "SR_15": 1.0}, {"Diff_star": 0.0, "addr": "266 LINCOLN AVENUE", "SR_14": 2.0, "Q_14": 4.0, "name": "SAUGUS CENTER", "SF_14": 3.0, "SF_15": 3.0, "cnty": "Essex", "st": "MA", "Zip": 1906.0, "O_14": 2.0, "Q_15": 4.0, "O_15": 2.0, "city": "SAUGUS", "beds": 80.0, "SR_15": 2.0}, {"Diff_star": 0.0, "addr": "1 CHIEF JUSTICE CUSHING HIGHWAY", "SR_14": 2.0, "Q_14": 5.0, "name": "HARBORVIEW CENTER FOR NURSING & REHABILITATION (TH", "SF_14": 4.0, "SF_15": 4.0, "cnty": "Norfolk", "st": "MA", "Zip": 2025.0, "O_14": 4.0, "Q_15": 5.0, "O_15": 4.0, "city": "COHASSET", "beds": 80.0, "SR_15": 2.0}, {"Diff_star": -1.0, "addr": "172 LAWRENCE STREET", "SR_14": 3.0, "Q_14": 5.0, "name": "M I NURSING & RESTORATIVE CENTER", "SF_14": 3.0, "SF_15": 3.0, "cnty": "Essex", "st": "MA", "Zip": 1841.0, "O_14": 4.0, "Q_15": 4.0, "O_15": 3.0, "city": "LAWRENCE", "beds": 250.0, "SR_15": 3.0}, {"Diff_star": -1.0, "addr": "745 TRUMAN HIGHWAY", "SR_14": 2.0, "Q_14": 5.0, "name": "PARKWELL", "SF_14": 4.0, "SF_15": 4.0, "cnty": "Suffolk", "st": "MA", "Zip": 2136.0, "O_14": 4.0, "Q_15": 4.0, "O_15": 3.0, "city": "HYDE PARK", "beds": 124.0, "SR_15": 2.0}, {"Diff_star": 0.0, "addr": "785 MAIN STREET", "SR_14": 1.0, "Q_14": 4.0, "name": "WALDEN HEALTH AND REHABILITATION CENTER", "SF_14": 4.0, "SF_15": 4.0, "cnty": "Middlesex", "st": "MA", "Zip": 1742.0, "O_14": 2.0, "Q_15": 2.0, "O_15": 2.0, "city": "WEST CONCORD", "beds": 111.0, "SR_15": 1.0}, {"Diff_star": 0.0, "addr": "629 SALISBURY STREET", "SR_14": 5.0, "Q_14": 5.0, "name": "JEWISH HEALTHCARE CENTER", "SF_14": 5.0, "SF_15": 5.0, "cnty": "Worcester", "st": "MA", "Zip": 1609.0, "O_14": 5.0, "Q_15": 5.0, "O_15": 5.0, "city": "WORCESTER", "beds": 141.0, "SR_15": 5.0}, {"Diff_star": 0.0, "addr": "65 COOPER STREET", "SR_14": 1.0, "Q_14": 4.0, "name": "HERITAGE HALL SOUTH", "SF_14": 4.0, "SF_15": 4.0, "cnty": "Hampden", "st": "MA", "Zip": 1001.0, "O_14": 2.0, "Q_15": 3.0, "O_15": 2.0, "city": "AGAWAM", "beds": 122.0, "SR_15": 1.0}, {"Diff_star": -1.0, "addr": "485 FRANKLIN STREET", "SR_14": 2.0, "Q_14": 5.0, "name": "KATHLEEN DANIEL", "SF_14": 4.0, "SF_15": 4.0, "cnty": "Middlesex", "st": "MA", "Zip": 1702.0, "O_14": 4.0, "Q_15": 3.0, "O_15": 3.0, "city": "FRAMINGHAM", "beds": 124.0, "SR_15": 2.0}, {"Diff_star": -2.0, "addr": "56 WEBSTER STREET", "SR_14": 3.0, "Q_14": 5.0, "name": "WEBSTER PARK REHABILITATION AND HEALTHCARE CENTER", "SF_14": 4.0, "SF_15": 3.0, "cnty": "Plymouth", "st": "MA", "Zip": 2370.0, "O_14": 5.0, "Q_15": 3.0, "O_15": 3.0, "city": "ROCKLAND", "beds": 110.0, "SR_15": 3.0}, {"Diff_star": 0.0, "addr": "2045 GRAND ARMY HIGHWAY", "SR_14": 1.0, "Q_14": 4.0, "name": "COUNTRY GARDENS HEALTH AND REHABILITATION CENTER", "SF_14": 3.0, "SF_15": 3.0, "cnty": "Bristol", "st": "MA", "Zip": 2777.0, "O_14": 1.0, "Q_15": 2.0, "O_15": 1.0, "city": "SWANSEA", "beds": 86.0, "SR_15": 1.0}, {"Diff_star": -1.0, "addr": "1561 COLD SPRING ROAD", "SR_14": 1.0, "Q_14": 5.0, "name": "SWEET BROOK OF WILLIAMSTOWN REHABILITATION & N CTR", "SF_14": 2.0, "SF_15": 2.0, "cnty": "Berkshire", "st": "MA", "Zip": 1267.0, "O_14": 2.0, "Q_15": 2.0, "O_15": 1.0, "city": "WILLIAMSTOWN", "beds": 184.0, "SR_15": 1.0}, {"Diff_star": -1.0, "addr": "ONE GREAT ROAD", "SR_14": 3.0, "Q_14": 5.0, "name": "LIFE CARE CENTER OF ACTON", "SF_14": 3.0, "SF_15": 3.0, "cnty": "Middlesex", "st": "MA", "Zip": 1720.0, "O_14": 4.0, "Q_15": 4.0, "O_15": 3.0, "city": "ACTON", "beds": 155.0, "SR_15": 3.0}, {"Diff_star": 0.0, "addr": "495 NEW BOSTON ROAD", "SR_14": 4.0, "Q_14": 4.0, "name": "KIMWELL", "SF_14": 1.0, "SF_15": 1.0, "cnty": "Bristol", "st": "MA", "Zip": 2720.0, "O_14": 3.0, "Q_15": 3.0, "O_15": 3.0, "city": "FALL RIVER", "beds": 124.0, "SR_15": 4.0}, {"Diff_star": -1.0, "addr": "59 EASTWOOD CIRCLE", "SR_14": 3.0, "Q_14": 5.0, "name": "GARDNER REHABILITATION AND NURSING CENTER", "SF_14": 4.0, "SF_15": 3.0, "cnty": "Worcester", "st": "MA", "Zip": 1440.0, "O_14": 5.0, "Q_15": 5.0, "O_15": 4.0, "city": "GARDNER", "beds": 120.0, "SR_15": 3.0}, {"Diff_star": -1.0, "addr": "63 LOCUST STREET", "SR_14": 4.0, "Q_14": 5.0, "name": "TWIN OAKS CENTER", "SF_14": 3.0, "SF_15": 3.0, "cnty": "Essex", "st": "MA", "Zip": 1923.0, "O_14": 5.0, "Q_15": 3.0, "O_15": 4.0, "city": "DANVERS", "beds": 101.0, "SR_15": 4.0}, {"Diff_star": -1.0, "addr": "119 PROVIDENCE STREET", "SR_14": 2.0, "Q_14": 4.0, "name": "WORCESTER REHABILITATION & HEALTH CARE CENTER", "SF_14": 4.0, "SF_15": 3.0, "cnty": "Worcester", "st": "MA", "Zip": 1604.0, "O_14": 3.0, "Q_15": 2.0, "O_15": 2.0, "city": "WORCESTER", "beds": 160.0, "SR_15": 2.0}, {"Diff_star": 0.0, "addr": "135 SOUTH HUNTINGTON AVENUE", "SR_14": 3.0, "Q_14": 5.0, "name": "SHERRILL HOUSE, INC", "SF_14": 4.0, "SF_15": 4.0, "cnty": "Suffolk", "st": "MA", "Zip": 2130.0, "O_14": 5.0, "Q_15": 5.0, "O_15": 5.0, "city": "BOSTON", "beds": 196.0, "SR_15": 3.0}, {"Diff_star": -1.0, "addr": "123 SOUTH STREET", "SR_14": 2.0, "Q_14": 5.0, "name": "PLYMOUTH REHABILITATION & HEALTH CARE CENTER", "SF_14": 4.0, "SF_15": 4.0, "cnty": "Plymouth", "st": "MA", "Zip": 2360.0, "O_14": 4.0, "Q_15": 4.0, "O_15": 3.0, "city": "PLYMOUTH", "beds": 186.0, "SR_15": 2.0}, {"Diff_star": 0.0, "addr": "305 WALPOLE STREET", "SR_14": 4.0, "Q_14": 4.0, "name": "CHARLWELL HOUSE", "SF_14": 4.0, "SF_15": 4.0, "cnty": "Norfolk", "st": "MA", "Zip": 2062.0, "O_14": 4.0, "Q_15": 2.0, "O_15": 4.0, "city": "NORWOOD", "beds": 124.0, "SR_15": 4.0}, {"Diff_star": -1.0, "addr": "1675 NORTH MAIN STREET", "SR_14": 3.0, "Q_14": 5.0, "name": "RIVER TERRACE REHABILITATION AND HEALTHCARE CTR", "SF_14": 4.0, "SF_15": 4.0, "cnty": "Worcester", "st": "MA", "Zip": 1523.0, "O_14": 5.0, "Q_15": 4.0, "O_15": 4.0, "city": "LANCASTER", "beds": 82.0, "SR_15": 3.0}, {"Diff_star": 0.0, "addr": "135 ELLIS AVENUE", "SR_14": 3.0, "Q_14": 5.0, "name": "ELLIS NURSING HOME (THE)", "SF_14": 5.0, "SF_15": 5.0, "cnty": "Norfolk", "st": "MA", "Zip": 2062.0, "O_14": 5.0, "Q_15": 5.0, "O_15": 5.0, "city": "NORWOOD", "beds": 191.0, "SR_15": 3.0}, {"Diff_star": -1.0, "addr": "840 EMERSON GARDENS ROAD", "SR_14": 1.0, "Q_14": 4.0, "name": "EXCEL CENTER FOR NURSING AND REHAB AT LEXINGTON", "SF_14": 4.0, "SF_15": 3.0, "cnty": "Middlesex", "st": "MA", "Zip": 2420.0, "O_14": 2.0, "Q_15": 2.0, "O_15": 1.0, "city": "LEXINGTON", "beds": 152.0, "SR_15": 1.0}, {"Diff_star": 0.0, "addr": "115 NORTH AVENUE", "SR_14": 5.0, "Q_14": 5.0, "name": "SOUTHSHORE HEALTH CARE CENTER", "SF_14": 3.0, "SF_15": 4.0, "cnty": "Plymouth", "st": "MA", "Zip": 2370.0, "O_14": 5.0, "Q_15": 5.0, "O_15": 5.0, "city": "ROCKLAND", "beds": 96.0, "SR_15": 5.0}, {"Diff_star": -1.0, "addr": "1199 JOHN FITCH HWY", "SR_14": 2.0, "Q_14": 5.0, "name": "GOLDEN LIVING CENTER-FITCHBURG", "SF_14": 3.0, "SF_15": 3.0, "cnty": "Worcester", "st": "MA", "Zip": 1420.0, "O_14": 3.0, "Q_15": 4.0, "O_15": 2.0, "city": "FITCHBURG", "beds": 160.0, "SR_15": 2.0}, {"Diff_star": -1.0, "addr": "689 MAIN STREET", "SR_14": 3.0, "Q_14": 4.0, "name": "OXFORD REHABILITATION & HEALTH CARE CENTER, THE", "SF_14": 3.0, "SF_15": 3.0, "cnty": "Essex", "st": "MA", "Zip": 1830.0, "O_14": 3.0, "Q_15": 1.0, "O_15": 2.0, "city": "HAVERHILL", "beds": 120.0, "SR_15": 3.0}, {"Diff_star": -1.0, "addr": "59 ACTON STREET", "SR_14": 1.0, "Q_14": 2.0, "name": "WINGATE AT WORCESTER", "SF_14": 4.0, "SF_15": 4.0, "cnty": "Worcester", "st": "MA", "Zip": 1604.0, "O_14": 2.0, "Q_15": 1.0, "O_15": 1.0, "city": "WORCESTER", "beds": 173.0, "SR_15": 1.0}, {"Diff_star": 0.0, "addr": "2 BEAUMONT AVENUE", "SR_14": 1.0, "Q_14": 4.0, "name": "BROCKTON HEALTH CENTER", "SF_14": 1.0, "SF_15": 1.0, "cnty": "Plymouth", "st": "MA", "Zip": 2302.0, "O_14": 1.0, "Q_15": 2.0, "O_15": 1.0, "city": "BROCKTON", "beds": 123.0, "SR_15": 1.0}, {"Diff_star": 0.0, "addr": "694 WORCESTER RD", "SR_14": 3.0, "Q_14": 5.0, "name": "NEWTON WELLESLEY CENTER FOR ALZHEIMER'S CARE", "SF_14": 4.0, "SF_15": 4.0, "cnty": "Norfolk", "st": "MA", "Zip": 2181.0, "O_14": 5.0, "Q_15": 5.0, "O_15": 5.0, "city": "WELLESLEY FMS", "beds": 110.0, "SR_15": 3.0}, {"Diff_star": 0.0, "addr": "56 LIBERTY STREET", "SR_14": 1.0, "Q_14": 5.0, "name": "BRENTWOOD REHABILITATION AND HEALTHCARE CTR (THE)", "SF_14": 4.0, "SF_15": 4.0, "cnty": "Essex", "st": "MA", "Zip": 1923.0, "O_14": 2.0, "Q_15": 4.0, "O_15": 2.0, "city": "DANVERS", "beds": 159.0, "SR_15": 1.0}, {"Diff_star": 0.0, "addr": "19 VARNUM STREET", "SR_14": 3.0, "Q_14": 5.0, "name": "LOWELL HEALTH CARE CENTER", "SF_14": 4.0, "SF_15": 4.0, "cnty": "Middlesex", "st": "MA", "Zip": 1850.0, "O_14": 5.0, "Q_15": 5.0, "O_15": 5.0, "city": "LOWELL", "beds": 160.0, "SR_15": 3.0}, {"Diff_star": -1.0, "addr": "184 LINCOLN STREET", "SR_14": 2.0, "Q_14": 5.0, "name": "SOUTHEAST HEALTH CARE CENTER", "SF_14": 4.0, "SF_15": 3.0, "cnty": "Bristol", "st": "MA", "Zip": 2356.0, "O_14": 4.0, "Q_15": 5.0, "O_15": 3.0, "city": "NORTH EASTON", "beds": 171.0, "SR_15": 2.0}, {"Diff_star": 0.0, "addr": "94 SUMMER STREET", "SR_14": 2.0, "Q_14": 4.0, "name": "VALLEY STREAM REHABILITATION AND HEALTHCARE CTR", "SF_14": 4.0, "SF_15": 4.0, "cnty": "Worcester", "st": "MA", "Zip": 1420.0, "O_14": 3.0, "Q_15": 2.0, "O_15": 3.0, "city": "FITCHBURG", "beds": 87.0, "SR_15": 2.0}, {"Diff_star": -2.0, "addr": "6 MORRILL PLACE", "SR_14": 3.0, "Q_14": 3.0, "name": "MAPLEWOOD CENTER", "SF_14": 4.0, "SF_15": 3.0, "cnty": "Essex", "st": "MA", "Zip": 1913.0, "O_14": 4.0, "Q_15": 1.0, "O_15": 2.0, "city": "AMESBURY", "beds": 120.0, "SR_15": 3.0}, {"Diff_star": 0.0, "addr": "148 MAPLE AVENUE", "SR_14": 2.0, "Q_14": 4.0, "name": "KINDRED NURSING & REHAB CENTER - GREAT BARRINGTON", "SF_14": 4.0, "SF_15": 4.0, "cnty": "Berkshire", "st": "MA", "Zip": 1230.0, "O_14": 3.0, "Q_15": 2.0, "O_15": 3.0, "city": "GREAT BARRINGTON", "beds": 88.0, "SR_15": 2.0}, {"Diff_star": 0.0, "addr": "282 CABOT STREET", "SR_14": 3.0, "Q_14": 5.0, "name": "HOLYOKE HEALTHCARE CENTER", "SF_14": 4.0, "SF_15": 4.0, "cnty": "Hampden", "st": "MA", "Zip": 1040.0, "O_14": 5.0, "Q_15": 5.0, "O_15": 5.0, "city": "HOLYOKE", "beds": 102.0, "SR_15": 3.0}, {"Diff_star": -1.0, "addr": "567 DARTMOUTH STREET", "SR_14": 3.0, "Q_14": 5.0, "name": "BRANDON WOODS OF DARTMOUTH", "SF_14": 4.0, "SF_15": 3.0, "cnty": "Bristol", "st": "MA", "Zip": 2748.0, "O_14": 5.0, "Q_15": 5.0, "O_15": 4.0, "city": "SOUTH DARTMOUTH", "beds": 118.0, "SR_15": 3.0}, {"Diff_star": -1.0, "addr": "260 EASTHAMPTON ROAD", "SR_14": 2.0, "Q_14": 5.0, "name": "HOLYOKE REHABILITATION CENTER", "SF_14": 5.0, "SF_15": 5.0, "cnty": "Hampden", "st": "MA", "Zip": 1040.0, "O_14": 4.0, "Q_15": 2.0, "O_15": 3.0, "city": "HOLYOKE", "beds": 164.0, "SR_15": 2.0}, {"Diff_star": 0.0, "addr": "27 GEORGE STREET", "SR_14": 3.0, "Q_14": 5.0, "name": "GOLDEN LIVING CENTER-ATTLEBORO", "SF_14": 4.0, "SF_15": 4.0, "cnty": "Bristol", "st": "MA", "Zip": 2703.0, "O_14": 5.0, "Q_15": 5.0, "O_15": 5.0, "city": "ATTLEBORO", "beds": 120.0, "SR_15": 3.0}, {"Diff_star": 0.0, "addr": "8 COLONIAL DRIVE", "SR_14": 1.0, "Q_14": 5.0, "name": "KINDRED TRANSITIONAL CARE & REHAB-WESTBOROUGH", "SF_14": 4.0, "SF_15": 4.0, "cnty": "Worcester", "st": "MA", "Zip": 1581.0, "O_14": 2.0, "Q_15": 4.0, "O_15": 2.0, "city": "WESTBOROUGH", "beds": 117.0, "SR_15": 1.0}, {"Diff_star": 0.0, "addr": "DOVE AVENUE", "SR_14": 5.0, "Q_14": 2.0, "name": "TRANSITIONAL CARE UNIT AT SPAULDING HOSP NORTH SHO", "SF_14": 5.0, "SF_15": 5.0, "cnty": "Essex", "st": "MA", "Zip": 1970.0, "O_14": 5.0, "Q_15": 3.0, "O_15": 5.0, "city": "SALEM", "beds": 40.0, "SR_15": 5.0}, {"Diff_star": -1.0, "addr": "85 BEAUMONT DRIVE", "SR_14": 3.0, "Q_14": 5.0, "name": "BEAUMONT REHAB & SKILLED NURSING CTR - NORTHBRIDGE", "SF_14": 5.0, "SF_15": 5.0, "cnty": "Worcester", "st": "MA", "Zip": 1534.0, "O_14": 5.0, "Q_15": 4.0, "O_15": 4.0, "city": "NORTHBRIDGE", "beds": 154.0, "SR_15": 3.0}, {"Diff_star": -1.0, "addr": "11 ST ANTHONY STREET", "SR_14": 3.0, "Q_14": 5.0, "name": "WILLIMANSETT CENTER EAST", "SF_14": 2.0, "SF_15": 2.0, "cnty": "Hampden", "st": "MA", "Zip": 1013.0, "O_14": 4.0, "Q_15": 4.0, "O_15": 3.0, "city": "CHICOPEE", "beds": 85.0, "SR_15": 3.0}, {"Diff_star": 0.0, "addr": "CHRISTIAN HILL ROAD", "SR_14": 3.0, "Q_14": 3.0, "name": "FAIRVIEW COMMONS NURSING & REHABILITATION CENTER", "SF_14": 4.0, "SF_15": 4.0, "cnty": "Berkshire", "st": "MA", "Zip": 1230.0, "O_14": 4.0, "Q_15": 2.0, "O_15": 4.0, "city": "GREAT BARRINGTON", "beds": 180.0, "SR_15": 3.0}, {"Diff_star": -1.0, "addr": "61 COOPER ST", "SR_14": 1.0, "Q_14": 5.0, "name": "HERITAGE HALL WEST", "SF_14": 3.0, "SF_15": 3.0, "cnty": "Hampden", "st": "MA", "Zip": 1001.0, "O_14": 2.0, "Q_15": 4.0, "O_15": 1.0, "city": "AGAWAM", "beds": 164.0, "SR_15": 1.0}, {"Diff_star": -1.0, "addr": "50 RECREATION PARK DRIVE", "SR_14": 2.0, "Q_14": 5.0, "name": "QUEEN ANNE NURSING HOME, INC", "SF_14": 4.0, "SF_15": 4.0, "cnty": "Plymouth", "st": "MA", "Zip": 2043.0, "O_14": 4.0, "Q_15": 4.0, "O_15": 3.0, "city": "HINGHAM", "beds": 106.0, "SR_15": 2.0}, {"Diff_star": -1.0, "addr": "546 CHICOPEE STREET", "SR_14": 2.0, "Q_14": 5.0, "name": "WILLIMANSETT CENTER WEST", "SF_14": 4.0, "SF_15": 3.0, "cnty": "Hampden", "st": "MA", "Zip": 1013.0, "O_14": 4.0, "Q_15": 5.0, "O_15": 3.0, "city": "CHICOPEE", "beds": 103.0, "SR_15": 2.0}, {"Diff_star": 0.0, "addr": "548 ELM STREET", "SR_14": 3.0, "Q_14": 4.0, "name": "CALVIN COOLIDGE NURING & REHAB CTR - NORTHAMPTON", "SF_14": 4.0, "SF_15": 4.0, "cnty": "Hampshire", "st": "MA", "Zip": 1060.0, "O_14": 4.0, "Q_15": 2.0, "O_15": 4.0, "city": "NORTHAMPTON", "beds": 125.0, "SR_15": 3.0}, {"Diff_star": -1.0, "addr": "804 PLEASANT STREET", "SR_14": 4.0, "Q_14": 5.0, "name": "WEST ACRES REHABILITATION & NURSING CENTER", "SF_14": 4.0, "SF_15": 4.0, "cnty": "Plymouth", "st": "MA", "Zip": 2301.0, "O_14": 5.0, "Q_15": 4.0, "O_15": 4.0, "city": "BROCKTON", "beds": 138.0, "SR_15": 4.0}, {"Diff_star": 0.0, "addr": "20 CLAFLIN STREET", "SR_14": 5.0, "Q_14": 5.0, "name": "BLAIRE HOUSE OF MILFORD", "SF_14": 4.0, "SF_15": 4.0, "cnty": "Worcester", "st": "MA", "Zip": 1757.0, "O_14": 5.0, "Q_15": 5.0, "O_15": 5.0, "city": "MILFORD", "beds": 73.0, "SR_15": 5.0}, {"Diff_star": -1.0, "addr": "42 PROSPECT AVENUE", "SR_14": 1.0, "Q_14": 4.0, "name": "WINGATE AT WEST SPRINGFIELD REHAB & SKILL NUR RES", "SF_14": 4.0, "SF_15": 3.0, "cnty": "Hampden", "st": "MA", "Zip": 1089.0, "O_14": 2.0, "Q_15": 3.0, "O_15": 1.0, "city": "WEST SPRINGFIELD", "beds": 168.0, "SR_15": 1.0}, {"Diff_star": 0.0, "addr": "11 MCGRATH HIGHWAY", "SR_14": 3.0, "Q_14": 5.0, "name": "QUINCY HEALTH AND REHABILITATION CENTER", "SF_14": 4.0, "SF_15": 4.0, "cnty": "Norfolk", "st": "MA", "Zip": 2169.0, "O_14": 5.0, "Q_15": 5.0, "O_15": 5.0, "city": "QUINCY", "beds": 126.0, "SR_15": 3.0}, {"Diff_star": 0.0, "addr": "397 COUNTY STREET", "SR_14": 1.0, "Q_14": 4.0, "name": "BRANDON WOODS OF NEW BEDFORD", "SF_14": 2.0, "SF_15": 2.0, "cnty": "Bristol", "st": "MA", "Zip": 2740.0, "O_14": 1.0, "Q_15": 2.0, "O_15": 1.0, "city": "NEW BEDFORD", "beds": 135.0, "SR_15": 1.0}, {"Diff_star": 0.0, "addr": "34 MAIN STREET", "SR_14": 1.0, "Q_14": 5.0, "name": "WINGATE AT HAMPDEN REHABILITATIVE & SKLD NURS RESI", "SF_14": 4.0, "SF_15": 4.0, "cnty": "Hampden", "st": "MA", "Zip": 1036.0, "O_14": 2.0, "Q_15": 3.0, "O_15": 2.0, "city": "HAMPDEN", "beds": 100.0, "SR_15": 1.0}, {"Diff_star": 0.0, "addr": "125 OAKLAND STREET", "SR_14": 5.0, "Q_14": 5.0, "name": "ELIZABETH SETON", "SF_14": 5.0, "SF_15": 5.0, "cnty": "Norfolk", "st": "MA", "Zip": 2481.0, "O_14": 5.0, "Q_15": 5.0, "O_15": 5.0, "city": "WELLESLEY", "beds": 84.0, "SR_15": 5.0}, {"Diff_star": -1.0, "addr": "193-195 PLEASANT STREET", "SR_14": 2.0, "Q_14": 5.0, "name": "GOLDEN LIVING CENTER - GARDEN PLACE", "SF_14": 3.0, "SF_15": 3.0, "cnty": "Bristol", "st": "MA", "Zip": 2703.0, "O_14": 3.0, "Q_15": 4.0, "O_15": 2.0, "city": "ATTLEBORO", "beds": 133.0, "SR_15": 2.0}, {"Diff_star": -1.0, "addr": "2101 WASHINGTON STREET", "SR_14": 1.0, "Q_14": 5.0, "name": "NEWTON HEALTH CARE CENTER", "SF_14": 3.0, "SF_15": 3.0, "cnty": "Middlesex", "st": "MA", "Zip": 2462.0, "O_14": 2.0, "Q_15": 4.0, "O_15": 1.0, "city": "NEWTON", "beds": 202.0, "SR_15": 1.0}, {"Diff_star": 0.0, "addr": "298 JARVIS AVENUE", "SR_14": 5.0, "Q_14": 4.0, "name": "LOOMIS HOUSE NURSING CENTER", "SF_14": 4.0, "SF_15": 4.0, "cnty": "Hampden", "st": "MA", "Zip": 1040.0, "O_14": 5.0, "Q_15": 4.0, "O_15": 5.0, "city": "HOLYOKE", "beds": 92.0, "SR_15": 5.0}, {"Diff_star": -1.0, "addr": "265 ESSEX STREET", "SR_14": 1.0, "Q_14": 5.0, "name": "ESSEX PARK REHABILITATION AND NURSING CENTER", "SF_14": 4.0, "SF_15": 3.0, "cnty": "Essex", "st": "MA", "Zip": 1915.0, "O_14": 2.0, "Q_15": 2.0, "O_15": 1.0, "city": "BEVERLY", "beds": 202.0, "SR_15": 1.0}, {"Diff_star": -1.0, "addr": "HALE & LOW STREETS", "SR_14": 3.0, "Q_14": 5.0, "name": "PORT HEALTHCARE CENTER", "SF_14": 4.0, "SF_15": 4.0, "cnty": "Essex", "st": "MA", "Zip": 1950.0, "O_14": 5.0, "Q_15": 3.0, "O_15": 4.0, "city": "NEWBURYPORT", "beds": 100.0, "SR_15": 3.0}, {"Diff_star": 0.0, "addr": "ENTER 11 NORTH STREET", "SR_14": 2.0, "Q_14": 5.0, "name": "BEAR HILL NURSING CENTER AT WAKEFIELD", "SF_14": 4.0, "SF_15": 4.0, "cnty": "Middlesex", "st": "MA", "Zip": 2180.0, "O_14": 4.0, "Q_15": 5.0, "O_15": 4.0, "city": "STONEHAM", "beds": 169.0, "SR_15": 2.0}, {"Diff_star": 0.0, "addr": "100 OLD BILLERICA ROAD", "SR_14": 4.0, "Q_14": 5.0, "name": "CARLETON-WILLARD VILLAGE RETIREMENT & NURSING CTR", "SF_14": 5.0, "SF_15": 5.0, "cnty": "Middlesex", "st": "MA", "Zip": 1730.0, "O_14": 5.0, "Q_15": 5.0, "O_15": 5.0, "city": "BEDFORD", "beds": 100.0, "SR_15": 4.0}, {"Diff_star": 0.0, "addr": "1200 BRUSH HILL ROAD", "SR_14": 1.0, "Q_14": 4.0, "name": "MILTON HEALTH CARE", "SF_14": 3.0, "SF_15": 3.0, "cnty": "Norfolk", "st": "MA", "Zip": 2186.0, "O_14": 1.0, "Q_15": 3.0, "O_15": 1.0, "city": "MILTON", "beds": 160.0, "SR_15": 1.0}, {"Diff_star": -1.0, "addr": "3 LYMAN STREET", "SR_14": 3.0, "Q_14": 5.0, "name": "BEAUMONT REHAB & SKILLED NURSING CTR - WESTBORO", "SF_14": 1.0, "SF_15": 1.0, "cnty": "Worcester", "st": "MA", "Zip": 1581.0, "O_14": 3.0, "Q_15": 4.0, "O_15": 2.0, "city": "WESTBOROUGH", "beds": 152.0, "SR_15": 3.0}, {"Diff_star": 0.0, "addr": "308 KINGSTOWN WAY", "SR_14": 5.0, "Q_14": 5.0, "name": "BAY PATH AT DUXBURY NURSING & REHABILITATION CTR", "SF_14": 4.0, "SF_15": 4.0, "cnty": "Plymouth", "st": "MA", "Zip": 2332.0, "O_14": 5.0, "Q_15": 4.0, "O_15": 5.0, "city": "DUXBURY", "beds": 120.0, "SR_15": 5.0}, {"Diff_star": 0.0, "addr": "865 CENTRAL AVENUE", "SR_14": 5.0, "Q_14": 5.0, "name": "SKILLED NURSING FACILITY AT NORTH HILL (THE)", "SF_14": 5.0, "SF_15": 5.0, "cnty": "Norfolk", "st": "MA", "Zip": 2492.0, "O_14": 5.0, "Q_15": 4.0, "O_15": 5.0, "city": "NEEDHAM", "beds": 72.0, "SR_15": 5.0}, {"Diff_star": 0.0, "addr": "309 DRIFTWAY BOX 830", "SR_14": 3.0, "Q_14": 4.0, "name": "LIFE CARE CENTER OF THE SOUTH SHORE", "SF_14": 4.0, "SF_15": 4.0, "cnty": "Plymouth", "st": "MA", "Zip": 2066.0, "O_14": 4.0, "Q_15": 3.0, "O_15": 4.0, "city": "SCITUATE", "beds": 117.0, "SR_15": 3.0}, {"Diff_star": 0.0, "addr": "745 SCHOOL STREET", "SR_14": 1.0, "Q_14": 4.0, "name": "WEBSTER MANOR REHABILITATION & HEALTH CARE CENTER", "SF_14": 3.0, "SF_15": 3.0, "cnty": "Worcester", "st": "MA", "Zip": 1570.0, "O_14": 1.0, "Q_15": 2.0, "O_15": 1.0, "city": "WEBSTER", "beds": 135.0, "SR_15": 1.0}, {"Diff_star": 0.0, "addr": "19 OBERY STREET", "SR_14": 2.0, "Q_14": 5.0, "name": "GOLDEN LIVING CENTER-PLYMOUTH", "SF_14": 4.0, "SF_15": 4.0, "cnty": "Plymouth", "st": "MA", "Zip": 2360.0, "O_14": 4.0, "Q_15": 5.0, "O_15": 4.0, "city": "PLYMOUTH", "beds": 101.0, "SR_15": 2.0}, {"Diff_star": 0.0, "addr": "464 MAIN STREET P O BOX 348", "SR_14": 1.0, "Q_14": 4.0, "name": "HERITAGE HALL EAST", "SF_14": 3.0, "SF_15": 3.0, "cnty": "Hampden", "st": "MA", "Zip": 1001.0, "O_14": 1.0, "Q_15": 2.0, "O_15": 1.0, "city": "AGAWAM", "beds": 123.0, "SR_15": 1.0}, {"Diff_star": 0.0, "addr": "841 MERRIMACK ST", "SR_14": 1.0, "Q_14": 4.0, "name": "HERITAGE SKILLED NURSING AND REHABILITATION", "SF_14": 3.0, "SF_15": 3.0, "cnty": "Middlesex", "st": "MA", "Zip": 1854.0, "O_14": 1.0, "Q_15": 2.0, "O_15": 1.0, "city": "LOWELL", "beds": 142.0, "SR_15": 1.0}, {"Diff_star": 0.0, "addr": "178 LOWELL STREET", "SR_14": 5.0, "Q_14": 5.0, "name": "LEXINGTON HEALTH CARE CENTER", "SF_14": 4.0, "SF_15": 4.0, "cnty": "Middlesex", "st": "MA", "Zip": 2420.0, "O_14": 5.0, "Q_15": 5.0, "O_15": 5.0, "city": "LEXINGTON", "beds": 211.0, "SR_15": 5.0}, {"Diff_star": 0.0, "addr": "126 MONUMENT STREET", "SR_14": 1.0, "Q_14": 4.0, "name": "HANNAH DUSTON HEALTHCARE CENTER", "SF_14": 4.0, "SF_15": 4.0, "cnty": "Essex", "st": "MA", "Zip": 1832.0, "O_14": 2.0, "Q_15": 3.0, "O_15": 2.0, "city": "HAVERHILL", "beds": 116.0, "SR_15": 1.0}, {"Diff_star": -2.0, "addr": "200 KENDALL STREET", "SR_14": 2.0, "Q_14": 5.0, "name": "CHAPIN CENTER", "SF_14": 2.0, "SF_15": 2.0, "cnty": "Hampden", "st": "MA", "Zip": 1104.0, "O_14": 3.0, "Q_15": 4.0, "O_15": 1.0, "city": "SPRINGFIELD", "beds": 160.0, "SR_15": 1.0}, {"Diff_star": 0.0, "addr": "84 CHAPIN STREET", "SR_14": 2.0, "Q_14": 4.0, "name": "SOUTHBRIDGE REHABILITATION & HEALTH CARE CENTER", "SF_14": 4.0, "SF_15": 4.0, "cnty": "Worcester", "st": "MA", "Zip": 1550.0, "O_14": 3.0, "Q_15": 3.0, "O_15": 3.0, "city": "SOUTHBRIDGE", "beds": 144.0, "SR_15": 2.0}, {"Diff_star": 0.0, "addr": "89 MORTON STREET", "SR_14": 3.0, "Q_14": 4.0, "name": "ACADEMY MANOR", "SF_14": 4.0, "SF_15": 4.0, "cnty": "Essex", "st": "MA", "Zip": 1810.0, "O_14": 4.0, "Q_15": 2.0, "O_15": 4.0, "city": "ANDOVER", "beds": 174.0, "SR_15": 3.0}, {"Diff_star": -1.0, "addr": "9 MAPLE STREET", "SR_14": 2.0, "Q_14": 4.0, "name": "WINGATE AT WILBRAHAM REHAB & SKILLED NURS RESID", "SF_14": 4.0, "SF_15": 3.0, "cnty": "Hampden", "st": "MA", "Zip": 1095.0, "O_14": 3.0, "Q_15": 3.0, "O_15": 2.0, "city": "WILBRAHAM", "beds": 135.0, "SR_15": 2.0}, {"Diff_star": 1.0, "addr": "821 DANIEL SHAYS HIGHWAY", "SR_14": 1.0, "Q_14": 4.0, "name": "QUABBIN VALLEY HEALTHCARE", "SF_14": 4.0, "SF_15": 4.0, "cnty": "Worcester", "st": "MA", "Zip": 1331.0, "O_14": 2.0, "Q_15": 4.0, "O_15": 3.0, "city": "ATHOL", "beds": 142.0, "SR_15": 2.0}, {"Diff_star": -1.0, "addr": "204 PROCTOR AVENUE", "SR_14": 2.0, "Q_14": 4.0, "name": "LIGHTHOUSE NURSING CARE CENTER", "SF_14": 4.0, "SF_15": 4.0, "cnty": "Suffolk", "st": "MA", "Zip": 2151.0, "O_14": 3.0, "Q_15": 1.0, "O_15": 2.0, "city": "REVERE", "beds": 123.0, "SR_15": 2.0}, {"Diff_star": 0.0, "addr": "1010 VARNUM AVENUE", "SR_14": 2.0, "Q_14": 5.0, "name": "NORTHWOOD REHABILITATION & HEALTHCARE CENTER", "SF_14": 2.0, "SF_15": 2.0, "cnty": "Middlesex", "st": "MA", "Zip": 1854.0, "O_14": 3.0, "Q_15": 5.0, "O_15": 3.0, "city": "LOWELL", "beds": 123.0, "SR_15": 2.0}, {"Diff_star": 0.0, "addr": "135 BENTON DRIVE", "SR_14": 2.0, "Q_14": 5.0, "name": "REDSTONE REHAB & NURSING CENTER", "SF_14": 4.0, "SF_15": 4.0, "cnty": "Hampden", "st": "MA", "Zip": 1028.0, "O_14": 4.0, "Q_15": 5.0, "O_15": 4.0, "city": "EAST LONGMEADOW", "beds": 254.0, "SR_15": 2.0}, {"Diff_star": -1.0, "addr": "289 ELM STREET", "SR_14": 1.0, "Q_14": 5.0, "name": "REHABILITATION & NURSING CENTER AT EVERETT (THE)", "SF_14": 4.0, "SF_15": 3.0, "cnty": "Middlesex", "st": "MA", "Zip": 2149.0, "O_14": 2.0, "Q_15": 4.0, "O_15": 1.0, "city": "EVERETT", "beds": 183.0, "SR_15": 1.0}, {"Diff_star": -1.0, "addr": "32 CHESTNUT STREET", "SR_14": 3.0, "Q_14": 5.0, "name": "WINGATE AT EAST LONGMEADOW REHAB & SKILLED NUR RES", "SF_14": 4.0, "SF_15": 4.0, "cnty": "Hampden", "st": "MA", "Zip": 1028.0, "O_14": 5.0, "Q_15": 3.0, "O_15": 4.0, "city": "EAST LONGMEADOW", "beds": 135.0, "SR_15": 3.0}, {"Diff_star": -1.0, "addr": "130 COLRAIN ROAD", "SR_14": 2.0, "Q_14": 3.0, "name": "CHARLENE MANOR EXTENDED CARE FACILITY", "SF_14": 4.0, "SF_15": 4.0, "cnty": "Franklin", "st": "MA", "Zip": 1301.0, "O_14": 3.0, "Q_15": 1.0, "O_15": 2.0, "city": "GREENFIELD", "beds": 123.0, "SR_15": 2.0}, {"Diff_star": 0.0, "addr": "39 QUEEN STREET", "SR_14": 1.0, "Q_14": 5.0, "name": "ST MARY HEALTH CARE CENTER", "SF_14": 4.0, "SF_15": 4.0, "cnty": "Worcester", "st": "MA", "Zip": 1610.0, "O_14": 2.0, "Q_15": 3.0, "O_15": 2.0, "city": "WORCESTER", "beds": 172.0, "SR_15": 1.0}, {"Diff_star": 0.0, "addr": "1000 NORTH STREET", "SR_14": 4.0, "Q_14": 4.0, "name": "MT GREYLOCK EXTENDED CARE FACILITY", "SF_14": 4.0, "SF_15": 4.0, "cnty": "Berkshire", "st": "MA", "Zip": 1201.0, "O_14": 4.0, "Q_15": 3.0, "O_15": 4.0, "city": "PITTSFIELD", "beds": 100.0, "SR_15": 4.0}, {"Diff_star": 0.0, "addr": "87 HERRICK STREET", "SR_14": 3.0, "Q_14": 4.0, "name": "LEDGEWOOD REHABILITATION & SKILLED NURSING CENTER", "SF_14": 4.0, "SF_15": 4.0, "cnty": "Essex", "st": "MA", "Zip": 1915.0, "O_14": 4.0, "Q_15": 3.0, "O_15": 4.0, "city": "BEVERLY", "beds": 123.0, "SR_15": 3.0}, {"Diff_star": 0.0, "addr": "447 HILL STREET", "SR_14": 5.0, "Q_14": 4.0, "name": "ST CAMILLUS HEALTH CENTER", "SF_14": 4.0, "SF_15": 3.0, "cnty": "Worcester", "st": "MA", "Zip": 1588.0, "O_14": 5.0, "Q_15": 3.0, "O_15": 5.0, "city": "WHITINSVILLE", "beds": 123.0, "SR_15": 5.0}, {"Diff_star": -1.0, "addr": "66 BROAD STREET", "SR_14": 2.0, "Q_14": 5.0, "name": "GOVERNORS CENTER", "SF_14": 2.0, "SF_15": 2.0, "cnty": "Hampden", "st": "MA", "Zip": 1085.0, "O_14": 3.0, "Q_15": 4.0, "O_15": 2.0, "city": "WESTFIELD", "beds": 100.0, "SR_15": 2.0}, {"Diff_star": -1.0, "addr": "4586 ACUSHNET AVENUE", "SR_14": 1.0, "Q_14": 2.0, "name": "SOUTHEAST MASS HEALTH & REHABILITATION CENTER", "SF_14": 4.0, "SF_15": 4.0, "cnty": "Bristol", "st": "MA", "Zip": 2745.0, "O_14": 2.0, "Q_15": 1.0, "O_15": 1.0, "city": "NEW BEDFORD", "beds": 123.0, "SR_15": 1.0}, {"Diff_star": 0.0, "addr": "335 NICHOLS ROAD", "SR_14": 1.0, "Q_14": 4.0, "name": "HIGHLANDS, THE", "SF_14": 4.0, "SF_15": 4.0, "cnty": "Worcester", "st": "MA", "Zip": 1420.0, "O_14": 2.0, "Q_15": 2.0, "O_15": 2.0, "city": "FITCHBURG", "beds": 168.0, "SR_15": 1.0}, {"Diff_star": -1.0, "addr": "538 ROBESON STREET", "SR_14": 4.0, "Q_14": 5.0, "name": "FALL RIVER JEWISH HOME, INC", "SF_14": 4.0, "SF_15": 4.0, "cnty": "Bristol", "st": "MA", "Zip": 2720.0, "O_14": 5.0, "Q_15": 2.0, "O_15": 4.0, "city": "FALL RIVER", "beds": 62.0, "SR_15": 4.0}, {"Diff_star": 0.0, "addr": "22 MAPLE STREET", "SR_14": 2.0, "Q_14": 5.0, "name": "MERRIMACK VALLEY HEALTH CENTER", "SF_14": 3.0, "SF_15": 3.0, "cnty": "Essex", "st": "MA", "Zip": 1913.0, "O_14": 3.0, "Q_15": 5.0, "O_15": 3.0, "city": "AMESBURY", "beds": 130.0, "SR_15": 2.0}, {"Diff_star": 0.0, "addr": "1650 WASHINGTON STREET", "SR_14": 1.0, "Q_14": 4.0, "name": "GOLDEN LIVING CENTER-CHETWYNDE", "SF_14": 4.0, "SF_15": 4.0, "cnty": "Middlesex", "st": "MA", "Zip": 2465.0, "O_14": 2.0, "Q_15": 4.0, "O_15": 2.0, "city": "WEST NEWTON", "beds": 75.0, "SR_15": 1.0}, {"Diff_star": 0.0, "addr": "1 LOVE LANE", "SR_14": 2.0, "Q_14": 4.0, "name": "KINDRED TRANSITIONAL CARE & REHAB-EAGLE POND", "SF_14": 4.0, "SF_15": 4.0, "cnty": "Barnstable", "st": "MA", "Zip": 2660.0, "O_14": 3.0, "Q_15": 2.0, "O_15": 3.0, "city": "SOUTH DENNIS", "beds": 128.0, "SR_15": 2.0}, {"Diff_star": 0.0, "addr": "1007 EAST STREET", "SR_14": 4.0, "Q_14": 4.0, "name": "GOLDEN LIVING CENTER-DEDHAM", "SF_14": 3.0, "SF_15": 3.0, "cnty": "Norfolk", "st": "MA", "Zip": 2026.0, "O_14": 4.0, "Q_15": 3.0, "O_15": 4.0, "city": "DEDHAM", "beds": 145.0, "SR_15": 4.0}, {"Diff_star": 0.0, "addr": "66 CENTRAL STREET", "SR_14": 1.0, "Q_14": 5.0, "name": "SACHEM CENTER FOR HEALTH & REHABILITATION", "SF_14": 3.0, "SF_15": 3.0, "cnty": "Plymouth", "st": "MA", "Zip": 2333.0, "O_14": 2.0, "Q_15": 5.0, "O_15": 2.0, "city": "EAST BRIDGEWATER", "beds": 111.0, "SR_15": 1.0}, {"Diff_star": -1.0, "addr": "199 ANDOVER STREET", "SR_14": 2.0, "Q_14": 5.0, "name": "PEABODY GLEN HEALTH CARE CENTER", "SF_14": 3.0, "SF_15": 3.0, "cnty": "Essex", "st": "MA", "Zip": 1960.0, "O_14": 3.0, "Q_15": 4.0, "O_15": 2.0, "city": "PEABODY", "beds": 150.0, "SR_15": 2.0}, {"Diff_star": -1.0, "addr": "25 ARMORY STREET", "SR_14": 1.0, "Q_14": 5.0, "name": "GOLDEN LIVING CENTER-WEST NEWTON", "SF_14": 4.0, "SF_15": 3.0, "cnty": "Middlesex", "st": "MA", "Zip": 2465.0, "O_14": 2.0, "Q_15": 4.0, "O_15": 1.0, "city": "WEST NEWTON", "beds": 123.0, "SR_15": 1.0}, {"Diff_star": 0.0, "addr": "400 BOLTON STREET", "SR_14": 2.0, "Q_14": 4.0, "name": "RESERVOIR CENTER FOR HEALTH & REHABILITATION, THE", "SF_14": 4.0, "SF_15": 4.0, "cnty": "Middlesex", "st": "MA", "Zip": 1752.0, "O_14": 3.0, "Q_15": 2.0, "O_15": 3.0, "city": "MARLBOROUGH", "beds": 144.0, "SR_15": 2.0}, {"Diff_star": 0.0, "addr": "4525 ACUSHNET AVENUE", "SR_14": 3.0, "Q_14": 5.0, "name": "OAKS, THE", "SF_14": 2.0, "SF_15": 2.0, "cnty": "Bristol", "st": "MA", "Zip": 2745.0, "O_14": 4.0, "Q_15": 5.0, "O_15": 4.0, "city": "NEW BEDFORD", "beds": 122.0, "SR_15": 3.0}, {"Diff_star": -1.0, "addr": "40 MARTIN STREET", "SR_14": 1.0, "Q_14": 5.0, "name": "GOLDEN LIVING CENTER-MELROSE", "SF_14": 2.0, "SF_15": 2.0, "cnty": "Middlesex", "st": "MA", "Zip": 2176.0, "O_14": 2.0, "Q_15": 4.0, "O_15": 1.0, "city": "MELROSE", "beds": 106.0, "SR_15": 1.0}, {"Diff_star": 0.0, "addr": "390 ORLEANS ROAD", "SR_14": 4.0, "Q_14": 4.0, "name": "LIBERTY COMMONS", "SF_14": 4.0, "SF_15": 4.0, "cnty": "Barnstable", "st": "MA", "Zip": 2650.0, "O_14": 4.0, "Q_15": 3.0, "O_15": 4.0, "city": "NORTH CHATHAM", "beds": 132.0, "SR_15": 4.0}, {"Diff_star": -1.0, "addr": "305 MAPLE STREET", "SR_14": 2.0, "Q_14": 3.0, "name": "EAST LONGMEADOW SKILLED NURSING CENTER", "SF_14": 4.0, "SF_15": 4.0, "cnty": "Hampden", "st": "MA", "Zip": 1028.0, "O_14": 3.0, "Q_15": 1.0, "O_15": 2.0, "city": "EAST LONGMEADOW", "beds": 119.0, "SR_15": 2.0}, {"Diff_star": -2.0, "addr": "180 LOW STREET", "SR_14": 3.0, "Q_14": 3.0, "name": "COUNTRY CENTER FOR HEALTH & REHABILITATION", "SF_14": 4.0, "SF_15": 3.0, "cnty": "Essex", "st": "MA", "Zip": 1950.0, "O_14": 4.0, "Q_15": 1.0, "O_15": 2.0, "city": "NEWBURYPORT", "beds": 111.0, "SR_15": 3.0}, {"Diff_star": 0.0, "addr": "480 JACKSON STREET", "SR_14": 5.0, "Q_14": 5.0, "name": "METHUEN HEALTH & REHABILITATION CENTER", "SF_14": 4.0, "SF_15": 4.0, "cnty": "Essex", "st": "MA", "Zip": 1844.0, "O_14": 5.0, "Q_15": 5.0, "O_15": 5.0, "city": "METHUEN", "beds": 107.0, "SR_15": 5.0}, {"Diff_star": -1.0, "addr": "76 NORTH MAIN STREET", "SR_14": 1.0, "Q_14": 5.0, "name": "OAKDALE REHABILITATION & SKILLED NURSING CENTER", "SF_14": 4.0, "SF_15": 3.0, "cnty": "Worcester", "st": "MA", "Zip": 1583.0, "O_14": 2.0, "Q_15": 3.0, "O_15": 1.0, "city": "WEST BOYLSTON", "beds": 92.0, "SR_15": 1.0}, {"Diff_star": 0.0, "addr": "95 LAUREL STREET", "SR_14": 4.0, "Q_14": 4.0, "name": "BUCKLEY-GREENFIELD HEALTHCARE CENTER", "SF_14": 4.0, "SF_15": 4.0, "cnty": "Franklin", "st": "MA", "Zip": 1301.0, "O_14": 4.0, "Q_15": 4.0, "O_15": 4.0, "city": "GREENFIELD", "beds": 120.0, "SR_15": 4.0}, {"Diff_star": 0.0, "addr": "37 ROUTE 6A", "SR_14": 3.0, "Q_14": 5.0, "name": "CAPE HERITAGE REHABILITATION & HEALTH CARE CENTER", "SF_14": 3.0, "SF_15": 3.0, "cnty": "Barnstable", "st": "MA", "Zip": 2563.0, "O_14": 4.0, "Q_15": 5.0, "O_15": 4.0, "city": "SANDWICH", "beds": 123.0, "SR_15": 3.0}, {"Diff_star": -1.0, "addr": "120 S MAIN STREET", "SR_14": 1.0, "Q_14": 5.0, "name": "CAPE REGENCY REHABILITATION & HEALTH CARE CENTER", "SF_14": 4.0, "SF_15": 3.0, "cnty": "Barnstable", "st": "MA", "Zip": 2632.0, "O_14": 2.0, "Q_15": 4.0, "O_15": 1.0, "city": "CENTERVILLE", "beds": 120.0, "SR_15": 1.0}, {"Diff_star": -1.0, "addr": "300 WINTHROP STREET", "SR_14": 1.0, "Q_14": 5.0, "name": "MEDFORD REHABILITATION AND NURSING CENTER", "SF_14": 3.0, "SF_15": 3.0, "cnty": "Middlesex", "st": "MA", "Zip": 2155.0, "O_14": 2.0, "Q_15": 3.0, "O_15": 1.0, "city": "MEDFORD", "beds": 142.0, "SR_15": 1.0}, {"Diff_star": 0.0, "addr": "25 ADAMS ROAD", "SR_14": 3.0, "Q_14": 5.0, "name": "WILLIAMSTOWN COMMONS NURSING & REHAB", "SF_14": 4.0, "SF_15": 4.0, "cnty": "Berkshire", "st": "MA", "Zip": 1267.0, "O_14": 5.0, "Q_15": 5.0, "O_15": 5.0, "city": "WILLIAMSTOWN", "beds": 180.0, "SR_15": 3.0}, {"Diff_star": -1.0, "addr": "175 FRANKLIN STREET", "SR_14": 3.0, "Q_14": 5.0, "name": "NORTH ADAMS COMMONS NURSING & REHABILITATION CENTE", "SF_14": 4.0, "SF_15": 4.0, "cnty": "Berkshire", "st": "MA", "Zip": 1247.0, "O_14": 5.0, "Q_15": 4.0, "O_15": 4.0, "city": "NORTH ADAMS", "beds": 119.0, "SR_15": 3.0}, {"Diff_star": -1.0, "addr": "460 WASHINGTON STREET", "SR_14": 3.0, "Q_14": 5.0, "name": "GOLDEN LIVING CENTER-NORWOOD", "SF_14": 3.0, "SF_15": 3.0, "cnty": "Norfolk", "st": "MA", "Zip": 2062.0, "O_14": 4.0, "Q_15": 4.0, "O_15": 3.0, "city": "NORWOOD", "beds": 170.0, "SR_15": 3.0}, {"Diff_star": 0.0, "addr": "28 ESSEX STREET", "SR_14": 5.0, "Q_14": 4.0, "name": "ABBOTT HOUSE NURSING HOME", "SF_14": 4.0, "SF_15": 4.0, "cnty": "Essex", "st": "MA", "Zip": 1902.0, "O_14": 5.0, "Q_15": 3.0, "O_15": 5.0, "city": "LYNN", "beds": 55.0, "SR_15": 5.0}, {"Diff_star": -1.0, "addr": "146 MAC ARTHUR BOULEVARD", "SR_14": 2.0, "Q_14": 4.0, "name": "BOURNE MANOR EXTENDED CARE FACILITY", "SF_14": 3.0, "SF_15": 3.0, "cnty": "Barnstable", "st": "MA", "Zip": 2532.0, "O_14": 2.0, "Q_15": 1.0, "O_15": 1.0, "city": "BOURNE", "beds": 142.0, "SR_15": 2.0}, {"Diff_star": -1.0, "addr": "265 N MAIN ST", "SR_14": 1.0, "Q_14": 3.0, "name": "WINDSOR NURSING & RETIREMENT HOME", "SF_14": 4.0, "SF_15": 4.0, "cnty": "Barnstable", "st": "MA", "Zip": 2664.0, "O_14": 2.0, "Q_15": 1.0, "O_15": 1.0, "city": "SOUTH YARMOUTH", "beds": 120.0, "SR_15": 1.0}, {"Diff_star": 0.0, "addr": "279 CABOT STREET", "SR_14": 3.0, "Q_14": 4.0, "name": "RENAISSANCE MANOR ON CABOT", "SF_14": 4.0, "SF_15": 4.0, "cnty": "Hampden", "st": "MA", "Zip": 1040.0, "O_14": 4.0, "Q_15": 3.0, "O_15": 4.0, "city": "HOLYOKE", "beds": 61.0, "SR_15": 3.0}, {"Diff_star": -1.0, "addr": "44 KEYSTONE DRIVE", "SR_14": 3.0, "Q_14": 5.0, "name": "KEYSTONE CENTER", "SF_14": 3.0, "SF_15": 3.0, "cnty": "Worcester", "st": "MA", "Zip": 1453.0, "O_14": 4.0, "Q_15": 3.0, "O_15": 3.0, "city": "LEOMINSTER", "beds": 106.0, "SR_15": 3.0}, {"Diff_star": -1.0, "addr": "49 THOMAS PATTEN DRIVE", "SR_14": 2.0, "Q_14": 4.0, "name": "RANDOLPH HEALTH CARE CENTER", "SF_14": 4.0, "SF_15": 4.0, "cnty": "Norfolk", "st": "MA", "Zip": 2368.0, "O_14": 3.0, "Q_15": 1.0, "O_15": 2.0, "city": "RANDOLPH", "beds": 168.0, "SR_15": 2.0}, {"Diff_star": 0.0, "addr": "223 SWANTON STREET", "SR_14": 3.0, "Q_14": 4.0, "name": "WINCHESTER NURSING CENTER, INC", "SF_14": 4.0, "SF_15": 4.0, "cnty": "Middlesex", "st": "MA", "Zip": 1890.0, "O_14": 4.0, "Q_15": 4.0, "O_15": 4.0, "city": "WINCHESTER", "beds": 121.0, "SR_15": 3.0}, {"Diff_star": -1.0, "addr": "359 HIGH STREET", "SR_14": 1.0, "Q_14": 3.0, "name": "POET'S SEAT HEALTH CARE CENTER", "SF_14": 4.0, "SF_15": 4.0, "cnty": "Franklin", "st": "MA", "Zip": 1301.0, "O_14": 2.0, "Q_15": 1.0, "O_15": 1.0, "city": "GREENFIELD", "beds": 63.0, "SR_15": 1.0}, {"Diff_star": -1.0, "addr": "47 EAST MAIN STREET", "SR_14": 4.0, "Q_14": 5.0, "name": "QUABOAG REHABILITATION & SKILLED CARE CENTER", "SF_14": 4.0, "SF_15": 4.0, "cnty": "Worcester", "st": "MA", "Zip": 1585.0, "O_14": 5.0, "Q_15": 4.0, "O_15": 4.0, "city": "WEST BROOKFIELD", "beds": 147.0, "SR_15": 4.0}, {"Diff_star": -1.0, "addr": "349 HAYDENVILLE ROAD", "SR_14": 3.0, "Q_14": 5.0, "name": "LINDA MANOR EXTENDED CARE FACILITY", "SF_14": 4.0, "SF_15": 4.0, "cnty": "Hampshire", "st": "MA", "Zip": 1053.0, "O_14": 5.0, "Q_15": 3.0, "O_15": 4.0, "city": "LEEDS", "beds": 123.0, "SR_15": 3.0}, {"Diff_star": -1.0, "addr": "863 HATHAWAY ROAD", "SR_14": 1.0, "Q_14": 4.0, "name": "HATHAWAY MANOR EXTENDED CARE", "SF_14": 4.0, "SF_15": 3.0, "cnty": "Bristol", "st": "MA", "Zip": 2740.0, "O_14": 2.0, "Q_15": 1.0, "O_15": 1.0, "city": "NEW BEDFORD", "beds": 142.0, "SR_15": 1.0}, {"Diff_star": 0.0, "addr": "1010 WALTHAM STREET", "SR_14": 5.0, "Q_14": 5.0, "name": "BROOKHAVEN AT LEXINGTON", "SF_14": 5.0, "SF_15": 5.0, "cnty": "Middlesex", "st": "MA", "Zip": 2421.0, "O_14": 5.0, "Q_15": 5.0, "O_15": 5.0, "city": "LEXINGTON", "beds": 49.0, "SR_15": 5.0}, {"Diff_star": 0.0, "addr": "184 TER HEUN DRIVE", "SR_14": 4.0, "Q_14": 4.0, "name": "JML CARE CENTER  INC", "SF_14": 4.0, "SF_15": 4.0, "cnty": "Barnstable", "st": "MA", "Zip": 2540.0, "O_14": 4.0, "Q_15": 4.0, "O_15": 4.0, "city": "FALMOUTH", "beds": 132.0, "SR_15": 4.0}, {"Diff_star": 0.0, "addr": "73 CHESTNUT STREET", "SR_14": 2.0, "Q_14": 3.0, "name": "CHESTNUT WOODS REHABILITATION AND HEALTHCARE CTR", "SF_14": 4.0, "SF_15": 4.0, "cnty": "Essex", "st": "MA", "Zip": 1906.0, "O_14": 3.0, "Q_15": 2.0, "O_15": 3.0, "city": "SAUGUS", "beds": 88.0, "SR_15": 2.0}, {"Diff_star": -1.0, "addr": "579 BUCK ISLAND ROAD", "SR_14": 2.0, "Q_14": 5.0, "name": "MAYFLOWER PLACE NURSING & REHABILITATION CENTER", "SF_14": 5.0, "SF_15": 5.0, "cnty": "Barnstable", "st": "MA", "Zip": 2673.0, "O_14": 4.0, "Q_15": 4.0, "O_15": 3.0, "city": "WEST YARMOUTH", "beds": 72.0, "SR_15": 2.0}, {"Diff_star": 0.0, "addr": "113 CENTRAL AVEUNE", "SR_14": 1.0, "Q_14": 5.0, "name": "PARK PLACE REHABILITATION & SKILLED CARE CENTER", "SF_14": 5.0, "SF_15": 5.0, "cnty": "Suffolk", "st": "MA", "Zip": 2136.0, "O_14": 2.0, "Q_15": 5.0, "O_15": 2.0, "city": "HYDE PARK", "beds": 53.0, "SR_15": 1.0}, {"Diff_star": 0.0, "addr": "150 WATER STREET", "SR_14": 4.0, "Q_14": 4.0, "name": "PENACOOK PLACE, INC", "SF_14": 5.0, "SF_15": 5.0, "cnty": "Essex", "st": "MA", "Zip": 1830.0, "O_14": 5.0, "Q_15": 2.0, "O_15": 5.0, "city": "HAVERHILL", "beds": 160.0, "SR_15": 4.0}, {"Diff_star": -1.0, "addr": "640 CONCORD AVENUE", "SR_14": 4.0, "Q_14": 5.0, "name": "NEVILLE CENTER AT FRESH POND FOR NURSING & REHAB", "SF_14": 4.0, "SF_15": 4.0, "cnty": "Middlesex", "st": "MA", "Zip": 2138.0, "O_14": 5.0, "Q_15": 4.0, "O_15": 4.0, "city": "CAMBRIDGE", "beds": 112.0, "SR_15": 4.0}, {"Diff_star": 0.0, "addr": "26 HARVARD STREET", "SR_14": 3.0, "Q_14": 4.0, "name": "LUTHERAN REHABILITATION & SKILLED CARE CENTER", "SF_14": 4.0, "SF_15": 4.0, "cnty": "Worcester", "st": "MA", "Zip": 1609.0, "O_14": 4.0, "Q_15": 4.0, "O_15": 4.0, "city": "WORCESTER", "beds": 101.0, "SR_15": 3.0}, {"Diff_star": 0.0, "addr": "60 EAST SILVER STREET", "SR_14": 2.0, "Q_14": 4.0, "name": "WESTFIELD CENTER", "SF_14": 4.0, "SF_15": 4.0, "cnty": "Hampden", "st": "MA", "Zip": 1085.0, "O_14": 3.0, "Q_15": 2.0, "O_15": 3.0, "city": "WESTFIELD", "beds": 98.0, "SR_15": 2.0}, {"Diff_star": 0.0, "addr": "888 NORTH MAIN STREET", "SR_14": 1.0, "Q_14": 4.0, "name": "GUARDIAN CENTER (THE)", "SF_14": 4.0, "SF_15": 4.0, "cnty": "Plymouth", "st": "MA", "Zip": 2301.0, "O_14": 2.0, "Q_15": 2.0, "O_15": 2.0, "city": "BROCKTON", "beds": 123.0, "SR_15": 1.0}, {"Diff_star": 0.0, "addr": "37 FEEDING HILLS ROAD", "SR_14": 1.0, "Q_14": 5.0, "name": "RENAISSANCE MANOR OF WESTFIELD", "SF_14": 4.0, "SF_15": 4.0, "cnty": "Hampden", "st": "MA", "Zip": 1085.0, "O_14": 2.0, "Q_15": 4.0, "O_15": 2.0, "city": "WESTFIELD", "beds": 80.0, "SR_15": 1.0}, {"Diff_star": -1.0, "addr": "10 MARY SCANO DRIVE", "SR_14": 2.0, "Q_14": 3.0, "name": "CHRISTOPHER HOUSE OF WORCESTER", "SF_14": 5.0, "SF_15": 5.0, "cnty": "Worcester", "st": "MA", "Zip": 1605.0, "O_14": 3.0, "Q_15": 1.0, "O_15": 2.0, "city": "WORCESTER", "beds": 156.0, "SR_15": 2.0}, {"Diff_star": 0.0, "addr": "255 LEBANON AVENUE", "SR_14": 1.0, "Q_14": 3.0, "name": "SPRINGSIDE REHABILITATION AND SKILLED CARE CENTER", "SF_14": 3.0, "SF_15": 3.0, "cnty": "Berkshire", "st": "MA", "Zip": 1201.0, "O_14": 1.0, "Q_15": 1.0, "O_15": 1.0, "city": "PITTSFIELD", "beds": 115.0, "SR_15": 1.0}, {"Diff_star": 0.0, "addr": "389 ALDEN ROAD", "SR_14": 4.0, "Q_14": 5.0, "name": "ALDEN COURT NURSING & REHAB CENTER", "SF_14": 4.0, "SF_15": 4.0, "cnty": "Bristol", "st": "MA", "Zip": 2719.0, "O_14": 5.0, "Q_15": 5.0, "O_15": 5.0, "city": "FAIRHAVEN", "beds": 142.0, "SR_15": 4.0}, {"Diff_star": 0.0, "addr": "51 HOSPITAL ROAD,  BOX 24", "SR_14": 1.0, "Q_14": 4.0, "name": "BALDWINVILLE SKILLED NURSING & REHABILITATION CTR", "SF_14": 3.0, "SF_15": 3.0, "cnty": "Worcester", "st": "MA", "Zip": 1436.0, "O_14": 1.0, "Q_15": 4.0, "O_15": 1.0, "city": "BALDWINVILLE", "beds": 94.0, "SR_15": 1.0}, {"Diff_star": 0.0, "addr": "359 SUMMER STREET", "SR_14": 2.0, "Q_14": 4.0, "name": "SACRED HEART NURSING HOME", "SF_14": 4.0, "SF_15": 4.0, "cnty": "Bristol", "st": "MA", "Zip": 2740.0, "O_14": 3.0, "Q_15": 2.0, "O_15": 3.0, "city": "NEW BEDFORD", "beds": 217.0, "SR_15": 2.0}, {"Diff_star": -1.0, "addr": "1350 MAIN STREET", "SR_14": 1.0, "Q_14": 3.0, "name": "PARSONS HILL REHABILITATION & HEALTH CARE CENTER", "SF_14": 4.0, "SF_15": 4.0, "cnty": "Worcester", "st": "MA", "Zip": 1603.0, "O_14": 2.0, "Q_15": 1.0, "O_15": 1.0, "city": "WORCESTER", "beds": 162.0, "SR_15": 1.0}, {"Diff_star": 0.0, "addr": "215 BICENTENNIAL HIGHWAY", "SR_14": 3.0, "Q_14": 4.0, "name": "WINGATE AT SPRINGFIELD REHAB & SKILLED NURS RES", "SF_14": 4.0, "SF_15": 4.0, "cnty": "Hampden", "st": "MA", "Zip": 1118.0, "O_14": 4.0, "Q_15": 2.0, "O_15": 4.0, "city": "SPRINGFIELD", "beds": 120.0, "SR_15": 3.0}, {"Diff_star": 0.0, "addr": "18 FRANCES STREET", "SR_14": 5.0, "Q_14": 5.0, "name": "WOBURN NURSING CENTER, INC", "SF_14": 4.0, "SF_15": 4.0, "cnty": "Middlesex", "st": "MA", "Zip": 1801.0, "O_14": 5.0, "Q_15": 5.0, "O_15": 5.0, "city": "WOBURN", "beds": 140.0, "SR_15": 5.0}, {"Diff_star": -1.0, "addr": "751 SCHOOL STREET", "SR_14": 1.0, "Q_14": 4.0, "name": "LANESSA EXTENDED CARE", "SF_14": 4.0, "SF_15": 4.0, "cnty": "Worcester", "st": "MA", "Zip": 1570.0, "O_14": 2.0, "Q_15": 1.0, "O_15": 1.0, "city": "WEBSTER", "beds": 96.0, "SR_15": 1.0}, {"Diff_star": 0.0, "addr": "39 LAFAYETTE STREET", "SR_14": 2.0, "Q_14": 5.0, "name": "DEVEREUX HOUSE SKILLED NURSING AND REHABILITATION", "SF_14": 4.0, "SF_15": 4.0, "cnty": "Essex", "st": "MA", "Zip": 1945.0, "O_14": 4.0, "Q_15": 5.0, "O_15": 4.0, "city": "MARBLEHEAD", "beds": 64.0, "SR_15": 2.0}, {"Diff_star": 0.0, "addr": "ONE BATHOL STREET", "SR_14": 1.0, "Q_14": 5.0, "name": "WAKEFIELD CENTER", "SF_14": 4.0, "SF_15": 4.0, "cnty": "Middlesex", "st": "MA", "Zip": 1880.0, "O_14": 2.0, "Q_15": 3.0, "O_15": 2.0, "city": "WAKEFIELD", "beds": 149.0, "SR_15": 1.0}, {"Diff_star": 0.0, "addr": "87 SHATTUCK STREET", "SR_14": 5.0, "Q_14": 5.0, "name": "LAKEVIEW HOUSE SKLD NRSG  AND RESIDENTIAL CARE FAC", "SF_14": 5.0, "SF_15": 5.0, "cnty": "Essex", "st": "MA", "Zip": 1830.0, "O_14": 5.0, "Q_15": 5.0, "O_15": 5.0, "city": "HAVERHILL", "beds": 26.0, "SR_15": 5.0}, {"Diff_star": -1.0, "addr": "500 WILBUR AVENUE", "SR_14": 5.0, "Q_14": 4.0, "name": "CLIFTON REHABILITATION NURSING CENTER", "SF_14": 4.0, "SF_15": 4.0, "cnty": "Bristol", "st": "MA", "Zip": 2725.0, "O_14": 5.0, "Q_15": 3.0, "O_15": 4.0, "city": "SOMERSET", "beds": 142.0, "SR_15": 4.0}, {"Diff_star": 0.0, "addr": "112 WEST MAIN STREET", "SR_14": 4.0, "Q_14": 5.0, "name": "COLEMAN HOUSE", "SF_14": 4.0, "SF_15": 4.0, "cnty": "Worcester", "st": "MA", "Zip": 1532.0, "O_14": 5.0, "Q_15": 5.0, "O_15": 5.0, "city": "NORTHBOROUGH", "beds": 45.0, "SR_15": 4.0}, {"Diff_star": -1.0, "addr": "190 NORTH AVENUE", "SR_14": 2.0, "Q_14": 4.0, "name": "WINGATE AT HAVERHILL REHAB & SKILLED NURSING RESID", "SF_14": 4.0, "SF_15": 4.0, "cnty": "Essex", "st": "MA", "Zip": 1830.0, "O_14": 3.0, "Q_15": 1.0, "O_15": 2.0, "city": "HAVERHILL", "beds": 146.0, "SR_15": 2.0}, {"Diff_star": 0.0, "addr": "57 LONG POINT ROAD, BOX 1237", "SR_14": 5.0, "Q_14": 5.0, "name": "ISLAND TERRACE NURSING HOME", "SF_14": 3.0, "SF_15": 3.0, "cnty": "Plymouth", "st": "MA", "Zip": 2347.0, "O_14": 5.0, "Q_15": 4.0, "O_15": 5.0, "city": "LAKEVILLE", "beds": 77.0, "SR_15": 5.0}, {"Diff_star": 0.0, "addr": "66 NEWTON STREET", "SR_14": 3.0, "Q_14": 5.0, "name": "MARISTHILL NURSING & REHABILITATION CENTER", "SF_14": 4.0, "SF_15": 4.0, "cnty": "Middlesex", "st": "MA", "Zip": 2453.0, "O_14": 5.0, "Q_15": 5.0, "O_15": 5.0, "city": "WALTHAM", "beds": 123.0, "SR_15": 3.0}, {"Diff_star": 0.0, "addr": "TEN INGALLS COURT", "SR_14": 2.0, "Q_14": 4.0, "name": "NEVINS NURSING & REHABILITATION CENTER", "SF_14": 1.0, "SF_15": 1.0, "cnty": "Essex", "st": "MA", "Zip": 1844.0, "O_14": 1.0, "Q_15": 2.0, "O_15": 1.0, "city": "METHUEN", "beds": 154.0, "SR_15": 2.0}, {"Diff_star": 0.0, "addr": "25 LAFAYETTE STREET", "SR_14": 3.0, "Q_14": 4.0, "name": "LAFAYETTE REHABILITATION & SKILLED NURSING FACILIT", "SF_14": 4.0, "SF_15": 4.0, "cnty": "Essex", "st": "MA", "Zip": 1945.0, "O_14": 4.0, "Q_15": 3.0, "O_15": 4.0, "city": "MARBLEHEAD", "beds": 65.0, "SR_15": 3.0}, {"Diff_star": 0.0, "addr": "115 HOLLISTON STREET", "SR_14": 1.0, "Q_14": 4.0, "name": "MEDWAY COUNTRY MANOR SKILLED NURSING & REHAB CTR", "SF_14": 5.0, "SF_15": 5.0, "cnty": "Norfolk", "st": "MA", "Zip": 2053.0, "O_14": 2.0, "Q_15": 3.0, "O_15": 2.0, "city": "MEDWAY", "beds": 123.0, "SR_15": 1.0}, {"Diff_star": -1.0, "addr": "111 ORIENT AVENUE", "SR_14": 2.0, "Q_14": 3.0, "name": "DON ORIONE NURSING HOME", "SF_14": 4.0, "SF_15": 4.0, "cnty": "Suffolk", "st": "MA", "Zip": 2128.0, "O_14": 3.0, "Q_15": 1.0, "O_15": 2.0, "city": "BOSTON", "beds": 190.0, "SR_15": 2.0}, {"Diff_star": 0.0, "addr": "215 THATCHER STREET", "SR_14": 3.0, "Q_14": 5.0, "name": "ST JOSEPH MANOR HEALTH CARE INC", "SF_14": 4.0, "SF_15": 4.0, "cnty": "Plymouth", "st": "MA", "Zip": 2302.0, "O_14": 5.0, "Q_15": 5.0, "O_15": 5.0, "city": "BROCKTON", "beds": 118.0, "SR_15": 3.0}, {"Diff_star": -1.0, "addr": "130 DORCHESTER AVENUE", "SR_14": 3.0, "Q_14": 4.0, "name": "MARIAN MANOR", "SF_14": 5.0, "SF_15": 5.0, "cnty": "Suffolk", "st": "MA", "Zip": 2127.0, "O_14": 4.0, "Q_15": 3.0, "O_15": 3.0, "city": "BOSTON", "beds": 355.0, "SR_15": 2.0}, {"Diff_star": 0.0, "addr": "431 POND STREET", "SR_14": 5.0, "Q_14": 5.0, "name": "ARMENIAN NURSING & REHABILITATION CENTER", "SF_14": 4.0, "SF_15": 4.0, "cnty": "Suffolk", "st": "MA", "Zip": 2130.0, "O_14": 5.0, "Q_15": 5.0, "O_15": 5.0, "city": "BOSTON", "beds": 83.0, "SR_15": 5.0}, {"Diff_star": 0.0, "addr": "601 SHERMAN STREET", "SR_14": 3.0, "Q_14": 4.0, "name": "HELLENIC NURSING & REHABILITATION CENTER", "SF_14": 4.0, "SF_15": 4.0, "cnty": "Norfolk", "st": "MA", "Zip": 2021.0, "O_14": 4.0, "Q_15": 2.0, "O_15": 4.0, "city": "CANTON", "beds": 154.0, "SR_15": 3.0}, {"Diff_star": 0.0, "addr": "34 AGASSIZ AVENUE", "SR_14": 5.0, "Q_14": 5.0, "name": "BELMONT MANOR NURSING HOME, IN", "SF_14": 4.0, "SF_15": 3.0, "cnty": "Middlesex", "st": "MA", "Zip": 2478.0, "O_14": 5.0, "Q_15": 5.0, "O_15": 5.0, "city": "BELMONT", "beds": 135.0, "SR_15": 5.0}, {"Diff_star": 0.0, "addr": "150 UNIVERSITY DRIVE", "SR_14": 2.0, "Q_14": 5.0, "name": "CENTER FOR EXTENDED CARE AT AMHERST", "SF_14": 4.0, "SF_15": 4.0, "cnty": "Hampshire", "st": "MA", "Zip": 1002.0, "O_14": 4.0, "Q_15": 5.0, "O_15": 4.0, "city": "AMHERST", "beds": 134.0, "SR_15": 2.0}, {"Diff_star": 0.0, "addr": "400 GROTON ROAD", "SR_14": 2.0, "Q_14": 5.0, "name": "APPLE VALLEY CENTER", "SF_14": 3.0, "SF_15": 3.0, "cnty": "Middlesex", "st": "MA", "Zip": 1432.0, "O_14": 3.0, "Q_15": 4.0, "O_15": 3.0, "city": "AYER", "beds": 123.0, "SR_15": 3.0}, {"Diff_star": 0.0, "addr": "670 COUNTY STREET", "SR_14": 1.0, "Q_14": 5.0, "name": "SAVOY NURSING & REHAB CTR", "SF_14": 4.0, "SF_15": 4.0, "cnty": "Bristol", "st": "MA", "Zip": 2740.0, "O_14": 2.0, "Q_15": 4.0, "O_15": 2.0, "city": "NEW BEDFORD", "beds": 39.0, "SR_15": 1.0}, {"Diff_star": 0.0, "addr": "59 COOLIDGE HILL ROAD", "SR_14": 4.0, "Q_14": 4.0, "name": "WATERTOWN HEALTH CENTER", "SF_14": 4.0, "SF_15": 4.0, "cnty": "Middlesex", "st": "MA", "Zip": 2472.0, "O_14": 4.0, "Q_15": 3.0, "O_15": 4.0, "city": "WATERTOWN", "beds": 163.0, "SR_15": 4.0}, {"Diff_star": 0.0, "addr": "873 HARWICH ROAD", "SR_14": 4.0, "Q_14": 4.0, "name": "EPOCH SENIOR HEALTHCARE OF BREWSTER", "SF_14": 4.0, "SF_15": 4.0, "cnty": "Barnstable", "st": "MA", "Zip": 2631.0, "O_14": 4.0, "Q_15": 3.0, "O_15": 4.0, "city": "BREWSTER", "beds": 173.0, "SR_15": 4.0}, {"Diff_star": 0.0, "addr": "5 REDLANDS ROAD", "SR_14": 3.0, "Q_14": 4.0, "name": "STONEHEDGE HEALTH CARE CENTER", "SF_14": 4.0, "SF_15": 4.0, "cnty": "Suffolk", "st": "MA", "Zip": 2132.0, "O_14": 4.0, "Q_15": 3.0, "O_15": 4.0, "city": "W ROXBURY", "beds": 79.0, "SR_15": 3.0}, {"Diff_star": -1.0, "addr": "863 CENTRAL STREET", "SR_14": 4.0, "Q_14": 5.0, "name": "ST PATRICK'S MANOR", "SF_14": 4.0, "SF_15": 4.0, "cnty": "Middlesex", "st": "MA", "Zip": 1701.0, "O_14": 5.0, "Q_15": 4.0, "O_15": 4.0, "city": "FRAMINGHAM", "beds": 333.0, "SR_15": 4.0}, {"Diff_star": -1.0, "addr": "1364 MAIN STREET", "SR_14": 3.0, "Q_14": 5.0, "name": "WINGATE AT READING REHAB & SKILLED NURS RESID", "SF_14": 4.0, "SF_15": 4.0, "cnty": "Middlesex", "st": "MA", "Zip": 1867.0, "O_14": 5.0, "Q_15": 3.0, "O_15": 4.0, "city": "READING", "beds": 123.0, "SR_15": 3.0}, {"Diff_star": -1.0, "addr": "133 SALEM STREET", "SR_14": 3.0, "Q_14": 5.0, "name": "ANNEMARK NURSING HOME", "SF_14": 3.0, "SF_15": 3.0, "cnty": "Suffolk", "st": "MA", "Zip": 2151.0, "O_14": 4.0, "Q_15": 4.0, "O_15": 3.0, "city": "REVERE", "beds": 140.0, "SR_15": 3.0}, {"Diff_star": -1.0, "addr": "184 SWANTON STREET", "SR_14": 4.0, "Q_14": 5.0, "name": "ABERJONA NURSING CENTER, INC", "SF_14": 4.0, "SF_15": 4.0, "cnty": "Middlesex", "st": "MA", "Zip": 1890.0, "O_14": 5.0, "Q_15": 4.0, "O_15": 4.0, "city": "WINCHESTER", "beds": 123.0, "SR_15": 4.0}, {"Diff_star": 0.0, "addr": "2049 DORCHESTER AVENUE", "SR_14": 5.0, "Q_14": 5.0, "name": "BOSTON HOME, INC (THE)", "SF_14": 4.0, "SF_15": 4.0, "cnty": "Suffolk", "st": "MA", "Zip": 2124.0, "O_14": 5.0, "Q_15": 5.0, "O_15": 5.0, "city": "BOSTON", "beds": 96.0, "SR_15": 5.0}, {"Diff_star": 0.0, "addr": "277 WASHINGTON STREET", "SR_14": 1.0, "Q_14": 4.0, "name": "COLONY CENTER FOR HEALTH & REHABILITATION", "SF_14": 4.0, "SF_15": 4.0, "cnty": "Plymouth", "st": "MA", "Zip": 2351.0, "O_14": 2.0, "Q_15": 2.0, "O_15": 2.0, "city": "ABINGTON", "beds": 92.0, "SR_15": 1.0}, {"Diff_star": 0.0, "addr": "337 NEPONSET AVENUE", "SR_14": 3.0, "Q_14": 4.0, "name": "BOSTONIAN NURSING CARE & REHABILITATION CTR, THE", "SF_14": 4.0, "SF_15": 4.0, "cnty": "Suffolk", "st": "MA", "Zip": 2122.0, "O_14": 4.0, "Q_15": 3.0, "O_15": 4.0, "city": "DORCHESTER", "beds": 121.0, "SR_15": 3.0}, {"Diff_star": 0.0, "addr": "150 LINCOLN STREET", "SR_14": 4.0, "Q_14": 5.0, "name": "BRIARWOOD REHABILITATION & HEALTHCARE CENTER", "SF_14": 4.0, "SF_15": 4.0, "cnty": "Norfolk", "st": "MA", "Zip": 2492.0, "O_14": 5.0, "Q_15": 5.0, "O_15": 5.0, "city": "NEEDHAM", "beds": 120.0, "SR_15": 4.0}, {"Diff_star": -1.0, "addr": "101 PLANTATION STREET", "SR_14": 2.0, "Q_14": 5.0, "name": "ST FRANCIS REHABILITATION & NURSING CENTER", "SF_14": 4.0, "SF_15": 3.0, "cnty": "Worcester", "st": "MA", "Zip": 1604.0, "O_14": 4.0, "Q_15": 5.0, "O_15": 3.0, "city": "WORCESTER", "beds": 137.0, "SR_15": 2.0}, {"Diff_star": -1.0, "addr": "104 RANDOLPH ROAD", "SR_14": 2.0, "Q_14": 5.0, "name": "ODD FELLOWS HOME OF MASSACHUSETTS", "SF_14": 4.0, "SF_15": 4.0, "cnty": "Worcester", "st": "MA", "Zip": 1606.0, "O_14": 4.0, "Q_15": 3.0, "O_15": 3.0, "city": "WORCESTER", "beds": 100.0, "SR_15": 2.0}, {"Diff_star": -1.0, "addr": "45 WOBURN STREET", "SR_14": 2.0, "Q_14": 5.0, "name": "MEADOW GREEN NURSING AND REHABILITATION CENTER", "SF_14": 4.0, "SF_15": 4.0, "cnty": "Middlesex", "st": "MA", "Zip": 2453.0, "O_14": 4.0, "Q_15": 4.0, "O_15": 3.0, "city": "WALTHAM", "beds": 123.0, "SR_15": 2.0}, {"Diff_star": -1.0, "addr": "555 SOUTH UNION STREET", "SR_14": 2.0, "Q_14": 5.0, "name": "COLONIAL HEIGHTS", "SF_14": 4.0, "SF_15": 3.0, "cnty": "Essex", "st": "MA", "Zip": 1843.0, "O_14": 4.0, "Q_15": 5.0, "O_15": 3.0, "city": "LAWRENCE", "beds": 90.0, "SR_15": 2.0}, {"Diff_star": 0.0, "addr": "116 HOUGHTON STREET", "SR_14": 1.0, "Q_14": 4.0, "name": "BLAIRE HOUSE OF WORCESTER", "SF_14": 4.0, "SF_15": 4.0, "cnty": "Worcester", "st": "MA", "Zip": 1604.0, "O_14": 2.0, "Q_15": 2.0, "O_15": 2.0, "city": "WORCESTER", "beds": 75.0, "SR_15": 1.0}, {"Diff_star": 0.0, "addr": "1044 PARK STREET", "SR_14": 1.0, "Q_14": 5.0, "name": "BLUE HILLS HEALTH AND REHABILITATION CENTER", "SF_14": 2.0, "SF_15": 2.0, "cnty": "Norfolk", "st": "MA", "Zip": 2072.0, "O_14": 2.0, "Q_15": 5.0, "O_15": 2.0, "city": "STOUGHTON", "beds": 92.0, "SR_15": 1.0}, {"Diff_star": -2.0, "addr": "1102 WASHINGTON STREET", "SR_14": 3.0, "Q_14": 3.0, "name": "KINDRED NURSING AND REHABILITATION-BRAINTREE", "SF_14": 4.0, "SF_15": 3.0, "cnty": "Norfolk", "st": "MA", "Zip": 2184.0, "O_14": 4.0, "Q_15": 1.0, "O_15": 2.0, "city": "BRAINTREE", "beds": 177.0, "SR_15": 3.0}, {"Diff_star": -1.0, "addr": "2446 HIGHLAND AVENUE", "SR_14": 3.0, "Q_14": 2.0, "name": "CATHOLIC MEMORIAL HOME", "SF_14": 4.0, "SF_15": 4.0, "cnty": "Bristol", "st": "MA", "Zip": 2720.0, "O_14": 4.0, "Q_15": 1.0, "O_15": 3.0, "city": "FALL RIVER", "beds": 300.0, "SR_15": 3.0}, {"Diff_star": -1.0, "addr": "14 KIRKBRIDE DRIVE", "SR_14": 3.0, "Q_14": 5.0, "name": "HATHORNE HILL", "SF_14": 4.0, "SF_15": 4.0, "cnty": "Essex", "st": "MA", "Zip": 1923.0, "O_14": 5.0, "Q_15": 4.0, "O_15": 4.0, "city": "DANVERS", "beds": 120.0, "SR_15": 3.0}, {"Diff_star": 0.0, "addr": "17 LAFAYETTE AVENUE", "SR_14": 4.0, "Q_14": 5.0, "name": "CHELSEA JEWISH NURSING HOME", "SF_14": 4.0, "SF_15": 4.0, "cnty": "Suffolk", "st": "MA", "Zip": 2150.0, "O_14": 5.0, "Q_15": 5.0, "O_15": 5.0, "city": "CHELSEA", "beds": 123.0, "SR_15": 4.0}, {"Diff_star": 0.0, "addr": "18 DANA HILL ROAD", "SR_14": 1.0, "Q_14": 5.0, "name": "STERLING VILLAGE", "SF_14": 4.0, "SF_15": 4.0, "cnty": "Worcester", "st": "MA", "Zip": 1564.0, "O_14": 2.0, "Q_15": 4.0, "O_15": 2.0, "city": "STERLING", "beds": 143.0, "SR_15": 1.0}, {"Diff_star": -1.0, "addr": "273 OAK GROVE AVENUE", "SR_14": 1.0, "Q_14": 5.0, "name": "CRAWFORD HEALTH AND REHABILITATION CENTER", "SF_14": 2.0, "SF_15": 2.0, "cnty": "Bristol", "st": "MA", "Zip": 2723.0, "O_14": 2.0, "Q_15": 4.0, "O_15": 1.0, "city": "FALL RIVER", "beds": 112.0, "SR_15": 1.0}, {"Diff_star": 0.0, "addr": "265 MAIN STREET", "SR_14": 3.0, "Q_14": 5.0, "name": "CRANEVILLE PLACE REHABILITATION & SKILLED  CARE CT", "SF_14": 4.0, "SF_15": 4.0, "cnty": "Berkshire", "st": "MA", "Zip": 1226.0, "O_14": 5.0, "Q_15": 5.0, "O_15": 5.0, "city": "DALTON", "beds": 89.0, "SR_15": 3.0}, {"Diff_star": -1.0, "addr": "44 SOUTH STREET", "SR_14": 2.0, "Q_14": 4.0, "name": "DEN MAR HEALTH AND REHABILITATION CENTER", "SF_14": 4.0, "SF_15": 3.0, "cnty": "Essex", "st": "MA", "Zip": 1966.0, "O_14": 3.0, "Q_15": 2.0, "O_15": 2.0, "city": "ROCKPORT", "beds": 76.0, "SR_15": 2.0}, {"Diff_star": -1.0, "addr": "476 VARNUM AVENUE", "SR_14": 4.0, "Q_14": 5.0, "name": "FAIRHAVEN HEALTHCARE CENTER", "SF_14": 3.0, "SF_15": 3.0, "cnty": "Middlesex", "st": "MA", "Zip": 1854.0, "O_14": 5.0, "Q_15": 3.0, "O_15": 4.0, "city": "LOWELL", "beds": 169.0, "SR_15": 4.0}, {"Diff_star": 0.0, "addr": "545 MAIN STREET", "SR_14": 2.0, "Q_14": 5.0, "name": "ROYAL NURSING CENTER, LLC", "SF_14": 4.0, "SF_15": 4.0, "cnty": "Barnstable", "st": "MA", "Zip": 2540.0, "O_14": 4.0, "Q_15": 5.0, "O_15": 4.0, "city": "FALMOUTH", "beds": 121.0, "SR_15": 2.0}, {"Diff_star": -1.0, "addr": "130 CHESTNUT STREET", "SR_14": 3.0, "Q_14": 3.0, "name": "FRANKLIN HEALTH AND REHABILITATION CENTER", "SF_14": 3.0, "SF_15": 3.0, "cnty": "Norfolk", "st": "MA", "Zip": 2038.0, "O_14": 3.0, "Q_15": 1.0, "O_15": 2.0, "city": "FRANKLIN", "beds": 82.0, "SR_15": 3.0}, {"Diff_star": 0.0, "addr": "COUNTRYSIDE DRIVE", "SR_14": 4.0, "Q_14": 5.0, "name": "COUNTRYSIDE HEALTH CARE OF MILFORD", "SF_14": 5.0, "SF_15": 5.0, "cnty": "Worcester", "st": "MA", "Zip": 1757.0, "O_14": 5.0, "Q_15": 5.0, "O_15": 5.0, "city": "MILFORD", "beds": 85.0, "SR_15": 4.0}, {"Diff_star": 0.0, "addr": "272 WASHINGTON STREET", "SR_14": 4.0, "Q_14": 4.0, "name": "GOLDEN LIVING CENTER-GLOUCESTER", "SF_14": 2.0, "SF_15": 2.0, "cnty": "Essex", "st": "MA", "Zip": 1930.0, "O_14": 4.0, "Q_15": 4.0, "O_15": 4.0, "city": "GLOUCESTER", "beds": 101.0, "SR_15": 4.0}, {"Diff_star": 0.0, "addr": "1123 ROCKDALE AVENUE", "SR_14": 3.0, "Q_14": 4.0, "name": "KINDRED NURSING & REHABILITATION-HALLMARK", "SF_14": 3.0, "SF_15": 3.0, "cnty": "Bristol", "st": "MA", "Zip": 2740.0, "O_14": 3.0, "Q_15": 2.0, "O_15": 3.0, "city": "NEW BEDFORD", "beds": 107.0, "SR_15": 3.0}, {"Diff_star": 0.0, "addr": "222 RIVER ROAD", "SR_14": 2.0, "Q_14": 4.0, "name": "HIGHVIEW OF NORTHAMPTON", "SF_14": 5.0, "SF_15": 5.0, "cnty": "Hampshire", "st": "MA", "Zip": 1053.0, "O_14": 3.0, "Q_15": 2.0, "O_15": 3.0, "city": "LEEDS", "beds": 120.0, "SR_15": 2.0}, {"Diff_star": 0.0, "addr": "25 ORIOL DRIVE", "SR_14": 2.0, "Q_14": 5.0, "name": "WORCESTER HEALTH CENTER", "SF_14": 4.0, "SF_15": 4.0, "cnty": "Worcester", "st": "MA", "Zip": 1605.0, "O_14": 4.0, "Q_15": 5.0, "O_15": 4.0, "city": "WORCESTER", "beds": 160.0, "SR_15": 2.0}, {"Diff_star": 0.0, "addr": "174 FOREST HILLS STREET", "SR_14": 2.0, "Q_14": 5.0, "name": "LAUREL RIDGE REHAB AND SKILLED CARE CENTER", "SF_14": 3.0, "SF_15": 3.0, "cnty": "Suffolk", "st": "MA", "Zip": 2130.0, "O_14": 3.0, "Q_15": 5.0, "O_15": 3.0, "city": "BOSTON", "beds": 120.0, "SR_15": 2.0}, {"Diff_star": 0.0, "addr": "186 HIGHLAND AVENUE", "SR_14": 2.0, "Q_14": 4.0, "name": "JEANNE JUGAN RESIDENCE", "SF_14": "", "SF_15": "", "cnty": "Middlesex", "st": "MA", "Zip": 2143.0, "O_14": 2.0, "Q_15": 3.0, "O_15": 2.0, "city": "SOMERVILLE", "beds": 26.0, "SR_15": 2.0}, {"Diff_star": -1.0, "addr": "271 NAHANT ROAD", "SR_14": 1.0, "Q_14": 5.0, "name": "JESMOND NURSING HOME", "SF_14": 3.0, "SF_15": 3.0, "cnty": "Essex", "st": "MA", "Zip": 1908.0, "O_14": 2.0, "Q_15": 4.0, "O_15": 1.0, "city": "NAHANT", "beds": 57.0, "SR_15": 1.0}, {"Diff_star": 0.0, "addr": "240 LYNNFIELD STREET", "SR_14": 3.0, "Q_14": 4.0, "name": "JEWISH REHAB CTR FOR THE AGED OF THE NORTH SHORE", "SF_14": 4.0, "SF_15": 4.0, "cnty": "Essex", "st": "MA", "Zip": 1960.0, "O_14": 4.0, "Q_15": 3.0, "O_15": 4.0, "city": "PEABODY", "beds": 180.0, "SR_15": 3.0}, {"Diff_star": 0.0, "addr": "68 DEAN STREET - REAR", "SR_14": 3.0, "Q_14": 5.0, "name": "LONGMEADOW OF TAUNTON", "SF_14": 4.0, "SF_15": 4.0, "cnty": "Bristol", "st": "MA", "Zip": 2780.0, "O_14": 5.0, "Q_15": 5.0, "O_15": 5.0, "city": "TAUNTON", "beds": 100.0, "SR_15": 3.0}, {"Diff_star": 0.0, "addr": "85 NORTH WASHINGTON STREET", "SR_14": 3.0, "Q_14": 5.0, "name": "MADONNA MANOR NURSING HOME", "SF_14": 4.0, "SF_15": 4.0, "cnty": "Bristol", "st": "MA", "Zip": 2760.0, "O_14": 5.0, "Q_15": 5.0, "O_15": 5.0, "city": "NORTH ATTLEBORO", "beds": 129.0, "SR_15": 3.0}, {"Diff_star": 0.0, "addr": "90 TAUNTON STREET", "SR_14": 3.0, "Q_14": 5.0, "name": "MAPLES REHABILITATION & NURSING CENTER", "SF_14": 5.0, "SF_15": 5.0, "cnty": "Norfolk", "st": "MA", "Zip": 2093.0, "O_14": 5.0, "Q_15": 5.0, "O_15": 5.0, "city": "WRENTHAM", "beds": 144.0, "SR_15": 3.0}, {"Diff_star": 0.0, "addr": "33 SUMMER STREET", "SR_14": 4.0, "Q_14": 3.0, "name": "MARIAN MANOR OF TAUNTON", "SF_14": 4.0, "SF_15": 4.0, "cnty": "Bristol", "st": "MA", "Zip": 2780.0, "O_14": 4.0, "Q_15": 2.0, "O_15": 4.0, "city": "TAUNTON", "beds": 116.0, "SR_15": 4.0}, {"Diff_star": 0.0, "addr": "134 NORTH STREET", "SR_14": 2.0, "Q_14": 4.0, "name": "MEADOW VIEW CENTER", "SF_14": 4.0, "SF_15": 4.0, "cnty": "Middlesex", "st": "MA", "Zip": 1864.0, "O_14": 3.0, "Q_15": 2.0, "O_15": 3.0, "city": "NORTH READING", "beds": 113.0, "SR_15": 2.0}, {"Diff_star": -1.0, "addr": "35 HOLY FAMILY ROAD", "SR_14": 4.0, "Q_14": 5.0, "name": "MOUNT SAINT VINCENT CARE CENTER", "SF_14": 4.0, "SF_15": 4.0, "cnty": "Hampden", "st": "MA", "Zip": 1040.0, "O_14": 5.0, "Q_15": 4.0, "O_15": 4.0, "city": "HOLYOKE", "beds": 125.0, "SR_15": 4.0}, {"Diff_star": 0.0, "addr": "200 HAWTHORN STREET", "SR_14": 4.0, "Q_14": 4.0, "name": "NEW BEDFORD JEWISH CONVALESCENT HOME, INC", "SF_14": 4.0, "SF_15": 3.0, "cnty": "Bristol", "st": "MA", "Zip": 2740.0, "O_14": 4.0, "Q_15": 4.0, "O_15": 4.0, "city": "NEW BEDFORD", "beds": 80.0, "SR_15": 4.0}, {"Diff_star": 0.0, "addr": "329 WASHINGTON STREET", "SR_14": 2.0, "Q_14": 4.0, "name": "ROYAL NORWELL NURSING & REHABILITATION CENTER LLC", "SF_14": 3.0, "SF_15": 3.0, "cnty": "Plymouth", "st": "MA", "Zip": 2061.0, "O_14": 2.0, "Q_15": 2.0, "O_15": 2.0, "city": "NORWELL", "beds": 86.0, "SR_15": 2.0}, {"Diff_star": -1.0, "addr": "11 PONTIAC AVENUE", "SR_14": 3.0, "Q_14": 3.0, "name": "BROOKSIDE REHABILITATION AND HEALTHCARE CENTER", "SF_14": 3.0, "SF_15": 3.0, "cnty": "Worcester", "st": "MA", "Zip": 1570.0, "O_14": 3.0, "Q_15": 1.0, "O_15": 2.0, "city": "WEBSTER", "beds": 81.0, "SR_15": 3.0}, {"Diff_star": -1.0, "addr": "71 CENTER STREET", "SR_14": 4.0, "Q_14": 2.0, "name": "OUR LADY'S HAVEN", "SF_14": 5.0, "SF_15": 5.0, "cnty": "Bristol", "st": "MA", "Zip": 2719.0, "O_14": 5.0, "Q_15": 1.0, "O_15": 4.0, "city": "FAIRHAVEN", "beds": 117.0, "SR_15": 4.0}, {"Diff_star": 0.0, "addr": "10 BELLAMY STREET", "SR_14": 4.0, "Q_14": 4.0, "name": "PRESENTATION REHAB AND SKILLED CARE CENTER", "SF_14": 3.0, "SF_15": 3.0, "cnty": "Suffolk", "st": "MA", "Zip": 2135.0, "O_14": 4.0, "Q_15": 3.0, "O_15": 4.0, "city": "BOSTON", "beds": 122.0, "SR_15": 4.0}, {"Diff_star": -1.0, "addr": "605 MAIN STREET", "SR_14": 4.0, "Q_14": 5.0, "name": "TREMONT HEALTH CARE CENTER", "SF_14": 3.0, "SF_15": 3.0, "cnty": "Plymouth", "st": "MA", "Zip": 2571.0, "O_14": 5.0, "Q_15": 4.0, "O_15": 4.0, "city": "WAREHAM", "beds": 104.0, "SR_15": 4.0}, {"Diff_star": -1.0, "addr": "500 WENTWORTH AVENUE", "SR_14": 4.0, "Q_14": 5.0, "name": "WINGATE AT BELVIDERE REHAB & SKILLED NURSING RES", "SF_14": 3.0, "SF_15": 3.0, "cnty": "Middlesex", "st": "MA", "Zip": 1852.0, "O_14": 5.0, "Q_15": 4.0, "O_15": 4.0, "city": "LOWELL", "beds": 115.0, "SR_15": 4.0}, {"Diff_star": 0.0, "addr": "3 PINE STREET", "SR_14": 5.0, "Q_14": 5.0, "name": "SANDALWOOD CENTER", "SF_14": 3.0, "SF_15": 3.0, "cnty": "Worcester", "st": "MA", "Zip": 1540.0, "O_14": 5.0, "Q_15": 5.0, "O_15": 5.0, "city": "OXFORD", "beds": 77.0, "SR_15": 5.0}, {"Diff_star": 0.0, "addr": "40 JULIO DRIVE", "SR_14": 5.0, "Q_14": 3.0, "name": "SHREWSBURY NURSING & REHABILITATION CENTER", "SF_14": 5.0, "SF_15": 5.0, "cnty": "Worcester", "st": "MA", "Zip": 1545.0, "O_14": 5.0, "Q_15": 2.0, "O_15": 5.0, "city": "SHREWSBURY", "beds": 103.0, "SR_15": 5.0}, {"Diff_star": -1.0, "addr": "81 CHATHAM STREET", "SR_14": 1.0, "Q_14": 4.0, "name": "SPRING VALLEY CENTER", "SF_14": 4.0, "SF_15": 3.0, "cnty": "Worcester", "st": "MA", "Zip": 1609.0, "O_14": 2.0, "Q_15": 3.0, "O_15": 1.0, "city": "WORCESTER", "beds": 82.0, "SR_15": 1.0}, {"Diff_star": 0.0, "addr": "321 CENTRE STREET", "SR_14": 5.0, "Q_14": 5.0, "name": "ST JOSEPH REHAB & NURSING CARE CENTER", "SF_14": 3.0, "SF_15": 3.0, "cnty": "Suffolk", "st": "MA", "Zip": 2122.0, "O_14": 5.0, "Q_15": 5.0, "O_15": 5.0, "city": "DORCHESTER", "beds": 123.0, "SR_15": 5.0}, {"Diff_star": 0.0, "addr": "254 BILLERICA ROAD", "SR_14": 1.0, "Q_14": 5.0, "name": "SUNNY ACRES NURSING HOME", "SF_14": 4.0, "SF_15": 4.0, "cnty": "Middlesex", "st": "MA", "Zip": 1824.0, "O_14": 2.0, "Q_15": 2.0, "O_15": 2.0, "city": "CHELMSFORD", "beds": 93.0, "SR_15": 1.0}, {"Diff_star": -1.0, "addr": "320 MAPLE AVENUE", "SR_14": 3.0, "Q_14": 5.0, "name": "TIMBERLYN REHABILITATION AND CARE CENTER", "SF_14": 4.0, "SF_15": 4.0, "cnty": "Berkshire", "st": "MA", "Zip": 1230.0, "O_14": 5.0, "Q_15": 4.0, "O_15": 4.0, "city": "GREAT BARRINGTON", "beds": 71.0, "SR_15": 3.0}, {"Diff_star": 0.0, "addr": "1190 VFW PARKWAY", "SR_14": 3.0, "Q_14": 4.0, "name": "VERO HEALTH & REHAB, PARKWAY", "SF_14": 4.0, "SF_15": 4.0, "cnty": "Suffolk", "st": "MA", "Zip": 2132.0, "O_14": 4.0, "Q_15": 4.0, "O_15": 4.0, "city": "BOSTON", "beds": 141.0, "SR_15": 3.0}, {"Diff_star": 0.0, "addr": "5060 WASHINGTON STREET", "SR_14": 4.0, "Q_14": 5.0, "name": "VERO HEALTH & REHAB OF WEST ROXBURY", "SF_14": 5.0, "SF_15": 3.0, "cnty": "Suffolk", "st": "MA", "Zip": 2132.0, "O_14": 5.0, "Q_15": 5.0, "O_15": 5.0, "city": "BOSTON", "beds": 76.0, "SR_15": 5.0}, {"Diff_star": -1.0, "addr": "35 FRUIT STREET", "SR_14": 2.0, "Q_14": 5.0, "name": "WEST SIDE HOUSE LTC FACILITY", "SF_14": 5.0, "SF_15": 5.0, "cnty": "Worcester", "st": "MA", "Zip": 1609.0, "O_14": 4.0, "Q_15": 4.0, "O_15": 3.0, "city": "WORCESTER", "beds": 91.0, "SR_15": 2.0}, {"Diff_star": 0.0, "addr": "75 NORUMBEGA ROAD", "SR_14": 3.0, "Q_14": 4.0, "name": "EPOCH SENIOR HEALTHCARE OF WESTON", "SF_14": 4.0, "SF_15": 4.0, "cnty": "Middlesex", "st": "MA", "Zip": 2493.0, "O_14": 4.0, "Q_15": 3.0, "O_15": 4.0, "city": "WESTON", "beds": 160.0, "SR_15": 3.0}, {"Diff_star": 0.0, "addr": "876 FALMOUTH ROAD", "SR_14": 2.0, "Q_14": 4.0, "name": "PAVILION , THE", "SF_14": 4.0, "SF_15": 4.0, "cnty": "Barnstable", "st": "MA", "Zip": 2601.0, "O_14": 3.0, "Q_15": 2.0, "O_15": 3.0, "city": "HYANNIS", "beds": 82.0, "SR_15": 2.0}, {"Diff_star": -1.0, "addr": "750 WOBURN STREET", "SR_14": 3.0, "Q_14": 5.0, "name": "WILMINGTON HEALTH CARE CENTER", "SF_14": 4.0, "SF_15": 4.0, "cnty": "Middlesex", "st": "MA", "Zip": 1887.0, "O_14": 5.0, "Q_15": 4.0, "O_15": 4.0, "city": "WILMINGTON", "beds": 132.0, "SR_15": 3.0}, {"Diff_star": 0.0, "addr": "800 ESSEX STREET", "SR_14": 3.0, "Q_14": 4.0, "name": "WOOD MILL CENTER", "SF_14": 4.0, "SF_15": 4.0, "cnty": "Essex", "st": "MA", "Zip": 1841.0, "O_14": 4.0, "Q_15": 2.0, "O_15": 4.0, "city": "LAWRENCE", "beds": 94.0, "SR_15": 3.0}, {"Diff_star": 0.0, "addr": "70 FULTON STREET", "SR_14": 1.0, "Q_14": 3.0, "name": "SPAULDING NURSING & THERAPY CENTER - NORTH END", "SF_14": 5.0, "SF_15": 5.0, "cnty": "Suffolk", "st": "MA", "Zip": 2109.0, "O_14": 2.0, "Q_15": 2.0, "O_15": 2.0, "city": "BOSTON", "beds": 140.0, "SR_15": 1.0}, {"Diff_star": 0.0, "addr": "40 PARKHURST ROAD", "SR_14": 2.0, "Q_14": 3.0, "name": "PALM SKILLED  NRSING CR & CTR FOR REHAB EXCELLENCE", "SF_14": 4.0, "SF_15": 4.0, "cnty": "Middlesex", "st": "MA", "Zip": 1824.0, "O_14": 3.0, "Q_15": 2.0, "O_15": 3.0, "city": "CHELMSFORD", "beds": 124.0, "SR_15": 2.0}, {"Diff_star": -1.0, "addr": "99 PARK STREET", "SR_14": 2.0, "Q_14": 5.0, "name": "BROOKLINE HEALTH CARE CENTER", "SF_14": 4.0, "SF_15": 3.0, "cnty": "Norfolk", "st": "MA", "Zip": 2146.0, "O_14": 4.0, "Q_15": 5.0, "O_15": 3.0, "city": "BROOKLINE", "beds": 120.0, "SR_15": 2.0}, {"Diff_star": -1.0, "addr": "140 PRESCOTT STREET", "SR_14": 4.0, "Q_14": 5.0, "name": "PRESCOTT HOUSE", "SF_14": 4.0, "SF_15": 4.0, "cnty": "Essex", "st": "MA", "Zip": 1845.0, "O_14": 5.0, "Q_15": 4.0, "O_15": 4.0, "city": "NORTH ANDOVER", "beds": 126.0, "SR_15": 4.0}, {"Diff_star": 0.0, "addr": "30 PRINCETON BOULEVARD", "SR_14": 4.0, "Q_14": 4.0, "name": "WILLOW MANOR", "SF_14": 3.0, "SF_15": 3.0, "cnty": "Middlesex", "st": "MA", "Zip": 1851.0, "O_14": 4.0, "Q_15": 2.0, "O_15": 4.0, "city": "LOWELL", "beds": 90.0, "SR_15": 4.0}, {"Diff_star": 0.0, "addr": "50 INDIAN NECK ROAD", "SR_14": 1.0, "Q_14": 4.0, "name": "KINDRED TRANSITIONAL CARE & REHABILITA-FORESTVIEW", "SF_14": 3.0, "SF_15": 3.0, "cnty": "Plymouth", "st": "MA", "Zip": 2571.0, "O_14": 1.0, "Q_15": 3.0, "O_15": 1.0, "city": "WAREHAM", "beds": 175.0, "SR_15": 1.0}, {"Diff_star": 0.0, "addr": "238 WEST MAIN STREET", "SR_14": 1.0, "Q_14": 5.0, "name": "BEAUMONT REHAB & SKILLED NURSING CTR - NORTHBORO", "SF_14": 4.0, "SF_15": 4.0, "cnty": "Worcester", "st": "MA", "Zip": 1532.0, "O_14": 2.0, "Q_15": 5.0, "O_15": 2.0, "city": "NORTHBOROUGH", "beds": 96.0, "SR_15": 1.0}, {"Diff_star": 0.0, "addr": "288 WASHINGTON STREET", "SR_14": 5.0, "Q_14": 5.0, "name": "SOUTH COVE MANOR NURSING & REHABILITATION CENTER", "SF_14": 4.0, "SF_15": 4.0, "cnty": "Norfolk", "st": "MA", "Zip": 2169.0, "O_14": 5.0, "Q_15": 5.0, "O_15": 5.0, "city": "QUINCY", "beds": 141.0, "SR_15": 5.0}, {"Diff_star": -2.0, "addr": "981 VARNUM AVENUE", "SR_14": 2.0, "Q_14": 5.0, "name": "D'YOUVILLE SENIOR CARE", "SF_14": 4.0, "SF_15": 3.0, "cnty": "Middlesex", "st": "MA", "Zip": 1854.0, "O_14": 4.0, "Q_15": 3.0, "O_15": 2.0, "city": "LOWELL", "beds": 208.0, "SR_15": 2.0}, {"Diff_star": 0.0, "addr": "168 WEST CENTRAL STREET", "SR_14": 1.0, "Q_14": 5.0, "name": "ELIOT CENTER FOR HEALTH & REHABILITATION", "SF_14": 4.0, "SF_15": 4.0, "cnty": "Middlesex", "st": "MA", "Zip": 1760.0, "O_14": 2.0, "Q_15": 3.0, "O_15": 2.0, "city": "NATICK", "beds": 114.0, "SR_15": 1.0}, {"Diff_star": 0.0, "addr": "15 MILL STREET", "SR_14": 3.0, "Q_14": 5.0, "name": "SIPPICAN HEALTHCARE CENTER", "SF_14": 4.0, "SF_15": 4.0, "cnty": "Plymouth", "st": "MA", "Zip": 2738.0, "O_14": 5.0, "Q_15": 5.0, "O_15": 5.0, "city": "MARION", "beds": 123.0, "SR_15": 3.0}, {"Diff_star": -1.0, "addr": "8 DANA STREET", "SR_14": 1.0, "Q_14": 5.0, "name": "CAMBRIDGE REHABILITATION & NURSING CENTER", "SF_14": 4.0, "SF_15": 3.0, "cnty": "Middlesex", "st": "MA", "Zip": 2138.0, "O_14": 2.0, "Q_15": 4.0, "O_15": 1.0, "city": "CAMBRIDGE", "beds": 83.0, "SR_15": 1.0}, {"Diff_star": 0.0, "addr": "211 FRANKLIN STREET", "SR_14": 5.0, "Q_14": 5.0, "name": "JOHN ADAMS HEALTHCARE CENTER", "SF_14": 4.0, "SF_15": 4.0, "cnty": "Norfolk", "st": "MA", "Zip": 2169.0, "O_14": 5.0, "Q_15": 5.0, "O_15": 5.0, "city": "QUINCY", "beds": 71.0, "SR_15": 5.0}, {"Diff_star": 0.0, "addr": "120 MURRAY STREET", "SR_14": 2.0, "Q_14": 5.0, "name": "GLEN RIDGE NURSING CARE CENTER", "SF_14": 4.0, "SF_15": 4.0, "cnty": "Middlesex", "st": "MA", "Zip": 2155.0, "O_14": 4.0, "Q_15": 5.0, "O_15": 4.0, "city": "MEDFORD", "beds": 164.0, "SR_15": 2.0}, {"Diff_star": 0.0, "addr": "111 HEADWATERS DRIVE", "SR_14": 2.0, "Q_14": 5.0, "name": "EPOCH SENIOR HEALTHCARE OF HARWICH", "SF_14": 3.0, "SF_15": 3.0, "cnty": "Barnstable", "st": "MA", "Zip": 2645.0, "O_14": 3.0, "Q_15": 4.0, "O_15": 3.0, "city": "HARWICH", "beds": 135.0, "SR_15": 3.0}, {"Diff_star": -1.0, "addr": "340 MOTAGUE CITY ROAD", "SR_14": 2.0, "Q_14": 5.0, "name": "FARREN CARE CENTER", "SF_14": 5.0, "SF_15": 5.0, "cnty": "Franklin", "st": "MA", "Zip": 1376.0, "O_14": 4.0, "Q_15": 4.0, "O_15": 3.0, "city": "TURNERS FALLS", "beds": 122.0, "SR_15": 2.0}, {"Diff_star": 0.0, "addr": "30 LONGWOOD DRIVE", "SR_14": 2.0, "Q_14": 4.0, "name": "CLARK HOUSE NURSING CENTER AT FOX HILL", "SF_14": 4.0, "SF_15": 4.0, "cnty": "Norfolk", "st": "MA", "Zip": 2090.0, "O_14": 3.0, "Q_15": 3.0, "O_15": 3.0, "city": "WESTWOOD", "beds": 70.0, "SR_15": 2.0}, {"Diff_star": 0.0, "addr": "111 BIRCH STREET", "SR_14": 4.0, "Q_14": 5.0, "name": "LIFE CARE CENTER OF THE NORTH SHORE", "SF_14": 4.0, "SF_15": 4.0, "cnty": "Essex", "st": "MA", "Zip": 1902.0, "O_14": 5.0, "Q_15": 5.0, "O_15": 5.0, "city": "LYNN", "beds": 123.0, "SR_15": 4.0}, {"Diff_star": 0.0, "addr": "1801 TURNPIKE STREET", "SR_14": 1.0, "Q_14": 4.0, "name": "SUTTON HILL CENTER", "SF_14": 4.0, "SF_15": 4.0, "cnty": "Essex", "st": "MA", "Zip": 1845.0, "O_14": 2.0, "Q_15": 3.0, "O_15": 2.0, "city": "NORTH ANDOVER", "beds": 142.0, "SR_15": 1.0}, {"Diff_star": 0.0, "addr": "642 BOSTON POST ROAD", "SR_14": 2.0, "Q_14": 4.0, "name": "SUDBURY PINES EXTENDED CARE", "SF_14": 4.0, "SF_15": 4.0, "cnty": "Middlesex", "st": "MA", "Zip": 1776.0, "O_14": 3.0, "Q_15": 2.0, "O_15": 3.0, "city": "SUDBURY", "beds": 92.0, "SR_15": 2.0}, {"Diff_star": 1.0, "addr": "405 RIVER STREET", "SR_14": 3.0, "Q_14": 5.0, "name": "VERO HEALTH & REHAB OF MATTAPAN", "SF_14": 3.0, "SF_15": 3.0, "cnty": "Suffolk", "st": "MA", "Zip": 2126.0, "O_14": 4.0, "Q_15": 5.0, "O_15": 5.0, "city": "MATTAPAN", "beds": 85.0, "SR_15": 4.0}, {"Diff_star": 0.0, "addr": "32 HOSPITAL HILL ROAD", "SR_14": 4.0, "Q_14": 4.0, "name": "WACHUSETT MANOR", "SF_14": 4.0, "SF_15": 4.0, "cnty": "Worcester", "st": "MA", "Zip": 1440.0, "O_14": 3.0, "Q_15": 3.0, "O_15": 3.0, "city": "GARDNER", "beds": 96.0, "SR_15": 4.0}, {"Diff_star": 0.0, "addr": "97 BETHANY ROAD", "SR_14": 4.0, "Q_14": 5.0, "name": "BETHANY SKILLED NURSING FACILITY", "SF_14": 5.0, "SF_15": 5.0, "cnty": "Middlesex", "st": "MA", "Zip": 1701.0, "O_14": 5.0, "Q_15": 5.0, "O_15": 5.0, "city": "FRAMINGHAM", "beds": 101.0, "SR_15": 4.0}, {"Diff_star": -1.0, "addr": "160 MAIN STREET", "SR_14": 2.0, "Q_14": 4.0, "name": "KINDRED TRANSITIONAL CARE & REHAB-HARRINGTON", "SF_14": 4.0, "SF_15": 3.0, "cnty": "Norfolk", "st": "MA", "Zip": 2081.0, "O_14": 3.0, "Q_15": 3.0, "O_15": 2.0, "city": "WALPOLE", "beds": 90.0, "SR_15": 2.0}, {"Diff_star": 0.0, "addr": "259 BALDWIN STREET", "SR_14": 1.0, "Q_14": 3.0, "name": "TOWN AND COUNTRY HEALTH CARE CENTER", "SF_14": 4.0, "SF_15": 4.0, "cnty": "Middlesex", "st": "MA", "Zip": 1851.0, "O_14": 2.0, "Q_15": 2.0, "O_15": 2.0, "city": "LOWELL", "beds": 80.0, "SR_15": 1.0}, {"Diff_star": 0.0, "addr": "8 LEWIS POINT ROAD", "SR_14": 5.0, "Q_14": 5.0, "name": "ROYAL CAPE COD NURSING & REHABILITATION CENTER", "SF_14": 4.0, "SF_15": 4.0, "cnty": "Barnstable", "st": "MA", "Zip": 2532.0, "O_14": 5.0, "Q_15": 5.0, "O_15": 5.0, "city": "BUZZARDS BAY", "beds": 99.0, "SR_15": 5.0}, {"Diff_star": 0.0, "addr": "44 NEW LOMBARD ROAD", "SR_14": 3.0, "Q_14": 4.0, "name": "BIRCH MANOR REHABILITATION AND SKILLED NURSING CTR", "SF_14": 4.0, "SF_15": 4.0, "cnty": "Hampden", "st": "MA", "Zip": 1020.0, "O_14": 4.0, "Q_15": 3.0, "O_15": 4.0, "city": "CHICOPEE", "beds": 68.0, "SR_15": 3.0}, {"Diff_star": 0.0, "addr": "2222 CENTRE STREET", "SR_14": 5.0, "Q_14": 5.0, "name": "GERMAN CENTER FOR EXTENDED CARE", "SF_14": 5.0, "SF_15": 5.0, "cnty": "Suffolk", "st": "MA", "Zip": 2132.0, "O_14": 5.0, "Q_15": 5.0, "O_15": 5.0, "city": "BOSTON", "beds": 133.0, "SR_15": 5.0}, {"Diff_star": 0.0, "addr": "342 WINTER STREET", "SR_14": 4.0, "Q_14": 5.0, "name": "CARLYLE HOUSE", "SF_14": 4.0, "SF_15": 3.0, "cnty": "Middlesex", "st": "MA", "Zip": 1701.0, "O_14": 5.0, "Q_15": 5.0, "O_15": 5.0, "city": "FRAMINGHAM", "beds": 55.0, "SR_15": 4.0}, {"Diff_star": 0.0, "addr": "2399 BOSTON ROAD", "SR_14": 4.0, "Q_14": 5.0, "name": "LIFE CARE CENTER OF WILBRAHAM", "SF_14": 3.0, "SF_15": 3.0, "cnty": "Hampden", "st": "MA", "Zip": 1095.0, "O_14": 5.0, "Q_15": 5.0, "O_15": 5.0, "city": "WILBRAHAM", "beds": 123.0, "SR_15": 4.0}, {"Diff_star": -1.0, "addr": "17 CHIPMAN WAY", "SR_14": 3.0, "Q_14": 5.0, "name": "WINGATE AT SILVER LAKE REHAB & SKILLED NURSING RES", "SF_14": 5.0, "SF_15": 5.0, "cnty": "Plymouth", "st": "MA", "Zip": 2364.0, "O_14": 5.0, "Q_15": 4.0, "O_15": 4.0, "city": "KINGSTON", "beds": 164.0, "SR_15": 3.0}, {"Diff_star": -1.0, "addr": "200 GOVERNORS AVENUE", "SR_14": 4.0, "Q_14": 3.0, "name": "COURTYARD NURSING CARE CENTER", "SF_14": 4.0, "SF_15": 4.0, "cnty": "Middlesex", "st": "MA", "Zip": 2155.0, "O_14": 4.0, "Q_15": 1.0, "O_15": 3.0, "city": "MEDFORD", "beds": 224.0, "SR_15": 4.0}, {"Diff_star": 0.0, "addr": "80 BOSTON ROAD", "SR_14": 2.0, "Q_14": 4.0, "name": "LIFE CARE CENTER OF MERRIMACK VALLEY", "SF_14": 3.0, "SF_15": 3.0, "cnty": "Middlesex", "st": "MA", "Zip": 1862.0, "O_14": 2.0, "Q_15": 2.0, "O_15": 2.0, "city": "BILLERICA", "beds": 124.0, "SR_15": 2.0}, {"Diff_star": 0.0, "addr": "299 WAREHAM STREET PO BOX 390", "SR_14": 5.0, "Q_14": 5.0, "name": "HANNAH B G SHAW HOME FOR THE AGED", "SF_14": 5.0, "SF_15": 5.0, "cnty": "Plymouth", "st": "MA", "Zip": 2346.0, "O_14": 5.0, "Q_15": 5.0, "O_15": 5.0, "city": "MIDDLEBORO", "beds": 67.0, "SR_15": 5.0}, {"Diff_star": -2.0, "addr": "10 ERLIN TERRACE", "SR_14": 2.0, "Q_14": 5.0, "name": "BLAIRE HOUSE OF TEWKSBURY", "SF_14": 4.0, "SF_15": 3.0, "cnty": "Middlesex", "st": "MA", "Zip": 1876.0, "O_14": 4.0, "Q_15": 3.0, "O_15": 2.0, "city": "TEWKSBURY", "beds": 131.0, "SR_15": 2.0}, {"Diff_star": -1.0, "addr": "77 HIGH STREET", "SR_14": 2.0, "Q_14": 5.0, "name": "BRIGHAM HEALTH AND REHABILITATION CENTER", "SF_14": 3.0, "SF_15": 3.0, "cnty": "Essex", "st": "MA", "Zip": 1950.0, "O_14": 3.0, "Q_15": 3.0, "O_15": 2.0, "city": "NEWBURYPORT", "beds": 64.0, "SR_15": 2.0}, {"Diff_star": -1.0, "addr": "20 KINMONTH ROAD", "SR_14": 3.0, "Q_14": 5.0, "name": "WABAN HEALTH CENTER", "SF_14": 4.0, "SF_15": 4.0, "cnty": "Middlesex", "st": "MA", "Zip": 2468.0, "O_14": 5.0, "Q_15": 2.0, "O_15": 4.0, "city": "WABAN", "beds": 88.0, "SR_15": 3.0}, {"Diff_star": 0.0, "addr": "45 UNION STREET", "SR_14": 2.0, "Q_14": 5.0, "name": "MARY ANN MORSE NURSING & REHABILITATION", "SF_14": 4.0, "SF_15": 4.0, "cnty": "Middlesex", "st": "MA", "Zip": 1760.0, "O_14": 4.0, "Q_15": 5.0, "O_15": 4.0, "city": "NATICK", "beds": 124.0, "SR_15": 2.0}, {"Diff_star": 0.0, "addr": "36 LOWER WESTFIELD ROAD", "SR_14": 2.0, "Q_14": 4.0, "name": "MONT MARIE REHABILITATION & HEALTHCARE CENTER", "SF_14": 5.0, "SF_15": 5.0, "cnty": "Hampden", "st": "MA", "Zip": 1040.0, "O_14": 3.0, "Q_15": 3.0, "O_15": 3.0, "city": "HOLYOKE", "beds": 84.0, "SR_15": 2.0}, {"Diff_star": 0.0, "addr": "255 CENTRAL AVENUE", "SR_14": 1.0, "Q_14": 5.0, "name": "EASTPOINTE NURSING CARE CENTER", "SF_14": 5.0, "SF_15": 5.0, "cnty": "Suffolk", "st": "MA", "Zip": 2150.0, "O_14": 2.0, "Q_15": 3.0, "O_15": 2.0, "city": "CHELSEA", "beds": 195.0, "SR_15": 1.0}, {"Diff_star": 0.0, "addr": "80 ANDOVER STREET", "SR_14": 1.0, "Q_14": 5.0, "name": "WINGATE AT ANDOVER REHAB & SKILLED NURSING RES", "SF_14": 4.0, "SF_15": 4.0, "cnty": "Essex", "st": "MA", "Zip": 1810.0, "O_14": 2.0, "Q_15": 4.0, "O_15": 2.0, "city": "ANDOVER", "beds": 135.0, "SR_15": 1.0}, {"Diff_star": 0.0, "addr": "10 VETERANS MEMORIAL DRIVE", "SR_14": 2.0, "Q_14": 4.0, "name": "MILFORD CENTER", "SF_14": 2.0, "SF_15": 2.0, "cnty": "Worcester", "st": "MA", "Zip": 1757.0, "O_14": 2.0, "Q_15": 2.0, "O_15": 2.0, "city": "MILFORD", "beds": 135.0, "SR_15": 2.0}, {"Diff_star": 0.0, "addr": "969 PARK STREET", "SR_14": 1.0, "Q_14": 4.0, "name": "LIFE CARE CENTER OF ATTLEBORO", "SF_14": 3.0, "SF_15": 3.0, "cnty": "Bristol", "st": "MA", "Zip": 2703.0, "O_14": 1.0, "Q_15": 3.0, "O_15": 1.0, "city": "ATTLEBORO", "beds": 123.0, "SR_15": 1.0}, {"Diff_star": -1.0, "addr": "292 WASHINGTON STREET", "SR_14": 2.0, "Q_14": 5.0, "name": "SEACOAST NURSING & REHABILITATION CENTER INC", "SF_14": 4.0, "SF_15": 4.0, "cnty": "Essex", "st": "MA", "Zip": 1930.0, "O_14": 4.0, "Q_15": 4.0, "O_15": 3.0, "city": "GLOUCESTER", "beds": 142.0, "SR_15": 2.0}, {"Diff_star": 0.0, "addr": "90 WEST STREET", "SR_14": 2.0, "Q_14": 5.0, "name": "WOODBRIAR OF WILMINGTON REHABILITATION", "SF_14": 5.0, "SF_15": 5.0, "cnty": "Middlesex", "st": "MA", "Zip": 1887.0, "O_14": 4.0, "Q_15": 5.0, "O_15": 4.0, "city": "WILMINGTON", "beds": 142.0, "SR_15": 2.0}, {"Diff_star": 0.0, "addr": "191 FOSTER STREET", "SR_14": 4.0, "Q_14": 5.0, "name": "LIFE CARE CENTER OF NASHOBA VALLEY", "SF_14": 4.0, "SF_15": 3.0, "cnty": "Middlesex", "st": "MA", "Zip": 1460.0, "O_14": 5.0, "Q_15": 5.0, "O_15": 5.0, "city": "LITTLETON", "beds": 120.0, "SR_15": 4.0}, {"Diff_star": 0.0, "addr": "932 BROADWAY", "SR_14": 4.0, "Q_14": 3.0, "name": "CHELSEA SKILLED NURSING AND REHABILITATION", "SF_14": 4.0, "SF_15": 4.0, "cnty": "Suffolk", "st": "MA", "Zip": 2150.0, "O_14": 4.0, "Q_15": 2.0, "O_15": 4.0, "city": "CHELSEA", "beds": 82.0, "SR_15": 4.0}, {"Diff_star": 0.0, "addr": "799 CONCORD AVENUE", "SR_14": 2.0, "Q_14": 4.0, "name": "SANCTA MARIA NURSING FACILITY", "SF_14": 4.0, "SF_15": 4.0, "cnty": "Middlesex", "st": "MA", "Zip": 2138.0, "O_14": 3.0, "Q_15": 4.0, "O_15": 3.0, "city": "CAMBRIDGE", "beds": 141.0, "SR_15": 2.0}, {"Diff_star": 0.0, "addr": "188 FLORENCE STREET", "SR_14": 3.0, "Q_14": 5.0, "name": "GOLDEN LIVING CENTER-HEATHWOOD", "SF_14": 3.0, "SF_15": 3.0, "cnty": "Middlesex", "st": "MA", "Zip": 2467.0, "O_14": 4.0, "Q_15": 5.0, "O_15": 4.0, "city": "CHESTNUT HILL", "beds": 49.0, "SR_15": 3.0}, {"Diff_star": 0.0, "addr": "559 PLANTATION STREET", "SR_14": 5.0, "Q_14": 5.0, "name": "NOTRE DAME LONG TERM CARE CENTER", "SF_14": 4.0, "SF_15": 4.0, "cnty": "Worcester", "st": "MA", "Zip": 1605.0, "O_14": 5.0, "Q_15": 5.0, "O_15": 5.0, "city": "WORCESTER", "beds": 123.0, "SR_15": 5.0}, {"Diff_star": 0.0, "addr": "320 PITTSFIELD ROAD", "SR_14": 5.0, "Q_14": 4.0, "name": "MOUNT CARMEL CARE CENTER", "SF_14": 4.0, "SF_15": 4.0, "cnty": "Berkshire", "st": "MA", "Zip": 1240.0, "O_14": 5.0, "Q_15": 3.0, "O_15": 5.0, "city": "LENOX", "beds": 69.0, "SR_15": 5.0}, {"Diff_star": -1.0, "addr": "146 PARK AVENUE", "SR_14": 4.0, "Q_14": 5.0, "name": "PARK AVENUE HEALTH CENTER", "SF_14": 4.0, "SF_15": 3.0, "cnty": "Middlesex", "st": "MA", "Zip": 2174.0, "O_14": 5.0, "Q_15": 4.0, "O_15": 4.0, "city": "ARLINGTON", "beds": 89.0, "SR_15": 4.0}, {"Diff_star": -1.0, "addr": "3 PARK DRIVE", "SR_14": 3.0, "Q_14": 4.0, "name": "WESTFORD HOUSE", "SF_14": 4.0, "SF_15": 4.0, "cnty": "Middlesex", "st": "MA", "Zip": 1886.0, "O_14": 4.0, "Q_15": 4.0, "O_15": 3.0, "city": "WESTFORD", "beds": 123.0, "SR_15": 2.0}, {"Diff_star": 0.0, "addr": "ONE MEADOWBROOK WAY", "SR_14": 1.0, "Q_14": 5.0, "name": "KINDRED NURSING AND REHABILITATION-TOWER HILL", "SF_14": 5.0, "SF_15": 5.0, "cnty": "Norfolk", "st": "MA", "Zip": 2021.0, "O_14": 2.0, "Q_15": 5.0, "O_15": 2.0, "city": "CANTON", "beds": 164.0, "SR_15": 1.0}, {"Diff_star": 0.0, "addr": "4901 NORTH MAIN STREET", "SR_14": 3.0, "Q_14": 4.0, "name": "SARAH BRAYTON NURSING CARE CTR", "SF_14": 4.0, "SF_15": 4.0, "cnty": "Bristol", "st": "MA", "Zip": 2720.0, "O_14": 4.0, "Q_15": 2.0, "O_15": 4.0, "city": "FALL RIVER", "beds": 183.0, "SR_15": 3.0}, {"Diff_star": -1.0, "addr": "188 COMMONWEALTH ROAD", "SR_14": 1.0, "Q_14": 4.0, "name": "WAYLAND NURSING & REHAB CENTER", "SF_14": 4.0, "SF_15": 3.0, "cnty": "Middlesex", "st": "MA", "Zip": 1778.0, "O_14": 2.0, "Q_15": 2.0, "O_15": 1.0, "city": "WAYLAND", "beds": 40.0, "SR_15": 1.0}, {"Diff_star": 0.0, "addr": "378 PLANTATION STREET", "SR_14": 3.0, "Q_14": 5.0, "name": "BEAUMONT AT UNIVERSITY CAMPUS", "SF_14": 4.0, "SF_15": 4.0, "cnty": "Worcester", "st": "MA", "Zip": 1605.0, "O_14": 5.0, "Q_15": 5.0, "O_15": 5.0, "city": "WORCESTER", "beds": 164.0, "SR_15": 3.0}, {"Diff_star": 0.0, "addr": "501 CORDWAINER DRIVE", "SR_14": 4.0, "Q_14": 4.0, "name": "SOUTHWOOD AT NORWELL NURSING CTR", "SF_14": 3.0, "SF_15": 3.0, "cnty": "Plymouth", "st": "MA", "Zip": 2061.0, "O_14": 4.0, "Q_15": 3.0, "O_15": 4.0, "city": "NORWELL", "beds": 142.0, "SR_15": 4.0}, {"Diff_star": 0.0, "addr": "228 CONCORD STREET, P O BOX 887", "SR_14": 1.0, "Q_14": 5.0, "name": "RESIDENT CARE REHABILITATION & NURSING", "SF_14": 2.0, "SF_15": 3.0, "cnty": "Middlesex", "st": "MA", "Zip": 1701.0, "O_14": 2.0, "Q_15": 3.0, "O_15": 2.0, "city": "FRAMINGHAM", "beds": 91.0, "SR_15": 2.0}, {"Diff_star": 0.0, "addr": "9 POPE STREET", "SR_14": 3.0, "Q_14": 5.0, "name": "BEDFORD VILLAGE NURSING HOME", "SF_14": 4.0, "SF_15": 4.0, "cnty": "Bristol", "st": "MA", "Zip": 2740.0, "O_14": 5.0, "Q_15": 5.0, "O_15": 5.0, "city": "NEW BEDFORD", "beds": 73.0, "SR_15": 3.0}, {"Diff_star": -1.0, "addr": "100 AMITY STREET", "SR_14": 3.0, "Q_14": 5.0, "name": "SOUTHPOINTE REHAB & SKILLED NURSING", "SF_14": 4.0, "SF_15": 4.0, "cnty": "Bristol", "st": "MA", "Zip": 2721.0, "O_14": 5.0, "Q_15": 4.0, "O_15": 4.0, "city": "FALL RIVER", "beds": 152.0, "SR_15": 3.0}, {"Diff_star": 0.0, "addr": "137 NICHOLS STREET", "SR_14": 2.0, "Q_14": 5.0, "name": "VICTORIA HAVEN NURSING FACILITY", "SF_14": 5.0, "SF_15": 5.0, "cnty": "Norfolk", "st": "MA", "Zip": 2062.0, "O_14": 4.0, "Q_15": 5.0, "O_15": 4.0, "city": "NORWOOD", "beds": 31.0, "SR_15": 2.0}, {"Diff_star": 0.0, "addr": "249 COREY ROAD", "SR_14": 1.0, "Q_14": 5.0, "name": "COREY HILL NURSING HOME, INC", "SF_14": 5.0, "SF_15": 5.0, "cnty": "Suffolk", "st": "MA", "Zip": 2135.0, "O_14": 2.0, "Q_15": 4.0, "O_15": 2.0, "city": "BRIGHTON", "beds": 43.0, "SR_15": 1.0}, {"Diff_star": -1.0, "addr": "907 CENTRE STREET", "SR_14": 3.0, "Q_14": 5.0, "name": "DIGHTON NURSING CENTER", "SF_14": 2.0, "SF_15": 2.0, "cnty": "Bristol", "st": "MA", "Zip": 2764.0, "O_14": 4.0, "Q_15": 4.0, "O_15": 3.0, "city": "NORTH DIGHTON", "beds": 30.0, "SR_15": 3.0}, {"Diff_star": 0.0, "addr": "140 WEBB STREET", "SR_14": 2.0, "Q_14": 5.0, "name": "POPE NURSING HOME", "SF_14": 4.0, "SF_15": 4.0, "cnty": "Norfolk", "st": "MA", "Zip": 2188.0, "O_14": 4.0, "Q_15": 5.0, "O_15": 4.0, "city": "WEYMOUTH", "beds": 49.0, "SR_15": 2.0}, {"Diff_star": 0.0, "addr": "34 SOUTH LINCOLN STREET", "SR_14": 1.0, "Q_14": 5.0, "name": "RIVERBEND OF SOUTH NATICK", "SF_14": 4.0, "SF_15": 4.0, "cnty": "Middlesex", "st": "MA", "Zip": 1760.0, "O_14": 2.0, "Q_15": 4.0, "O_15": 2.0, "city": "S NATICK", "beds": 55.0, "SR_15": 1.0}, {"Diff_star": 0.0, "addr": "16 PLEASANT STREET", "SR_14": 4.0, "Q_14": 5.0, "name": "BRIDGEWATER NURSING HOME", "SF_14": 5.0, "SF_15": 5.0, "cnty": "Plymouth", "st": "MA", "Zip": 2324.0, "O_14": 5.0, "Q_15": 5.0, "O_15": 5.0, "city": "BRIDGEWATER", "beds": 43.0, "SR_15": 4.0}, {"Diff_star": 0.0, "addr": "720 BOSTON POST ROAD", "SR_14": 5.0, "Q_14": 5.0, "name": "MARIE ESTHER HEALTH CENTER INC", "SF_14": 4.0, "SF_15": 4.0, "cnty": "Middlesex", "st": "MA", "Zip": 1752.0, "O_14": 5.0, "Q_15": 5.0, "O_15": 5.0, "city": "MARLBOROUGH", "beds": 36.0, "SR_15": 5.0}, {"Diff_star": 0.0, "addr": "314 MARION ROAD", "SR_14": 4.0, "Q_14": 5.0, "name": "NEMASKET HEALTHCARE CENTER", "SF_14": 4.0, "SF_15": 3.0, "cnty": "Plymouth", "st": "MA", "Zip": 2346.0, "O_14": 5.0, "Q_15": 5.0, "O_15": 5.0, "city": "MIDDLEBOROUGH", "beds": 90.0, "SR_15": 4.0}, {"Diff_star": 0.0, "addr": "350 NORTON AVENUE", "SR_14": 2.0, "Q_14": 4.0, "name": "TAUNTON NURSING HOME", "SF_14": 4.0, "SF_15": 4.0, "cnty": "Bristol", "st": "MA", "Zip": 2780.0, "O_14": 3.0, "Q_15": 2.0, "O_15": 3.0, "city": "TAUNTON", "beds": 101.0, "SR_15": 2.0}, {"Diff_star": 0.0, "addr": "ONE HOSPITAL ROAD, PO BOX 1747", "SR_14": 5.0, "Q_14": 4.0, "name": "WINDEMERE NURSING & REHAB CTR ON MARTHAS VINEYARD", "SF_14": 4.0, "SF_15": 4.0, "cnty": "Dukes", "st": "MA", "Zip": 2557.0, "O_14": 5.0, "Q_15": 3.0, "O_15": 5.0, "city": "OAK BLUFFS", "beds": 86.0, "SR_15": 5.0}, {"Diff_star": -1.0, "addr": "64 PERFORMANCE DRIVE", "SR_14": 3.0, "Q_14": 4.0, "name": "WEYMOUTH HEALTH CARE CENTER", "SF_14": 4.0, "SF_15": 3.0, "cnty": "Norfolk", "st": "MA", "Zip": 2189.0, "O_14": 4.0, "Q_15": 3.0, "O_15": 3.0, "city": "WEYMOUTH", "beds": 154.0, "SR_15": 3.0}, {"Diff_star": 0.0, "addr": "100 ALDEN STREET", "SR_14": 4.0, "Q_14": 4.0, "name": "SEASHORE POINT AND WELLNESS REHABILITATION", "SF_14": 4.0, "SF_15": 4.0, "cnty": "Barnstable", "st": "MA", "Zip": 2657.0, "O_14": 4.0, "Q_15": 3.0, "O_15": 4.0, "city": "PROVINCETOWN", "beds": 41.0, "SR_15": 4.0}, {"Diff_star": 0.0, "addr": "150 BERKELEY STREET", "SR_14": 4.0, "Q_14": 5.0, "name": "BERKELEY RETIREMENT HOME,THE", "SF_14": 5.0, "SF_15": 5.0, "cnty": "Essex", "st": "MA", "Zip": 1841.0, "O_14": 5.0, "Q_15": 5.0, "O_15": 5.0, "city": "LAWRENCE", "beds": 19.0, "SR_15": 4.0}, {"Diff_star": -1.0, "addr": "200 TRAPELO ROAD", "SR_14": 4.0, "Q_14": 3.0, "name": "MARQUARDT NURSING CENTER", "SF_14": 5.0, "SF_15": 5.0, "cnty": "Middlesex", "st": "MA", "Zip": 2154.0, "O_14": 5.0, "Q_15": 1.0, "O_15": 4.0, "city": "WALTHAM", "beds": 29.0, "SR_15": 4.0}, {"Diff_star": -1.0, "addr": "1200 SUFFIELD STREET", "SR_14": 1.0, "Q_14": 3.0, "name": "KINDRED TRANSITIONAL CARE & REHAB-COUNTRY ESTATES", "SF_14": 4.0, "SF_15": 3.0, "cnty": "Hampden", "st": "MA", "Zip": 1001.0, "O_14": 2.0, "Q_15": 1.0, "O_15": 1.0, "city": "AGAWAM", "beds": 176.0, "SR_15": 1.0}, {"Diff_star": 0.0, "addr": "88 MASONIC HOME ROAD PO BOX 1000", "SR_14": 3.0, "Q_14": 4.0, "name": "OVERLOOK MASONIC HEALTH CENTER", "SF_14": 5.0, "SF_15": 5.0, "cnty": "Worcester", "st": "MA", "Zip": 1507.0, "O_14": 4.0, "Q_15": 3.0, "O_15": 4.0, "city": "CHARLTON", "beds": 139.0, "SR_15": 3.0}, {"Diff_star": 0.0, "addr": "7 LORING HILLS AVENUE", "SR_14": 4.0, "Q_14": 5.0, "name": "GROSVENOR PARK", "SF_14": 4.0, "SF_15": 4.0, "cnty": "Essex", "st": "MA", "Zip": 1970.0, "O_14": 5.0, "Q_15": 5.0, "O_15": 5.0, "city": "SALEM", "beds": 123.0, "SR_15": 4.0}, {"Diff_star": 0.0, "addr": "519 MAIN STREET", "SR_14": 4.0, "Q_14": 3.0, "name": "THOMAS UPHAM HOUSE", "SF_14": 5.0, "SF_15": 5.0, "cnty": "Norfolk", "st": "MA", "Zip": 2052.0, "O_14": 5.0, "Q_15": 3.0, "O_15": 5.0, "city": "MEDFIELD", "beds": 42.0, "SR_15": 4.0}, {"Diff_star": 0.0, "addr": "300 BARBER AVENUE", "SR_14": 5.0, "Q_14": 5.0, "name": "HOLY TRINITY EASTERN ORTHODOX N & R CENTER", "SF_14": 5.0, "SF_15": 5.0, "cnty": "Worcester", "st": "MA", "Zip": 1606.0, "O_14": 5.0, "Q_15": 5.0, "O_15": 5.0, "city": "WORCESTER", "beds": 113.0, "SR_15": 5.0}, {"Diff_star": 0.0, "addr": "100 NORTH BEACON STREET", "SR_14": 1.0, "Q_14": 4.0, "name": "WINGATE AT BOSTON", "SF_14": 4.0, "SF_15": 4.0, "cnty": "Suffolk", "st": "MA", "Zip": 2134.0, "O_14": 2.0, "Q_15": 3.0, "O_15": 2.0, "city": "BOSTON", "beds": 123.0, "SR_15": 1.0}, {"Diff_star": 0.0, "addr": "221 FITZGERALD DRIVE", "SR_14": 4.0, "Q_14": 4.0, "name": "NEW BEDFORD HEALTH CARE CENTER", "SF_14": 4.0, "SF_15": 4.0, "cnty": "Bristol", "st": "MA", "Zip": 2745.0, "O_14": 4.0, "Q_15": 2.0, "O_15": 4.0, "city": "NEW BEDFORD", "beds": 154.0, "SR_15": 4.0}, {"Diff_star": 0.0, "addr": "22 JOHNSON STREET", "SR_14": 5.0, "Q_14": 3.0, "name": "ROSEWOOD NURSING & REHABILITATION CENTER", "SF_14": 4.0, "SF_15": 4.0, "cnty": "Essex", "st": "MA", "Zip": 1961.0, "O_14": 5.0, "Q_15": 2.0, "O_15": 5.0, "city": "PEABODY", "beds": 135.0, "SR_15": 5.0}, {"Diff_star": 0.0, "addr": "380 SUMNER STREET", "SR_14": 4.0, "Q_14": 3.0, "name": "COPLEY AT STOUGHTON NURSING CARE CENTER", "SF_14": 4.0, "SF_15": 4.0, "cnty": "Norfolk", "st": "MA", "Zip": 2072.0, "O_14": 4.0, "Q_15": 2.0, "O_15": 4.0, "city": "STOUGHTON", "beds": 123.0, "SR_15": 4.0}, {"Diff_star": 0.0, "addr": "120 FISHER AVENUE", "SR_14": 4.0, "Q_14": 5.0, "name": "BENJAMIN HEALTHCARE CENTER", "SF_14": 3.0, "SF_15": 3.0, "cnty": "Suffolk", "st": "MA", "Zip": 2120.0, "O_14": 5.0, "Q_15": 5.0, "O_15": 5.0, "city": "BOSTON", "beds": 205.0, "SR_15": 4.0}, {"Diff_star": 0.0, "addr": "546 SOUTH STREET EAST", "SR_14": 3.0, "Q_14": 5.0, "name": "LIFE CARE CENTER OF RAYNHAM", "SF_14": 3.0, "SF_15": 3.0, "cnty": "Bristol", "st": "MA", "Zip": 2767.0, "O_14": 4.0, "Q_15": 5.0, "O_15": 4.0, "city": "RAYNHAM", "beds": 154.0, "SR_15": 3.0}, {"Diff_star": 0.0, "addr": "319 CONCORD ROAD", "SR_14": 4.0, "Q_14": 4.0, "name": "CAMPION HEALTH CENTER INC", "SF_14": 5.0, "SF_15": 5.0, "cnty": "Middlesex", "st": "MA", "Zip": 2493.0, "O_14": 5.0, "Q_15": 4.0, "O_15": 5.0, "city": "WESTON", "beds": 34.0, "SR_15": 4.0}, {"Diff_star": 0.0, "addr": "743 MAIN STREET", "SR_14": 5.0, "Q_14": 5.0, "name": "GOLDEN LIVING CENTER-THE ELMHURST", "SF_14": 5.0, "SF_15": 5.0, "cnty": "Middlesex", "st": "MA", "Zip": 2176.0, "O_14": 5.0, "Q_15": 5.0, "O_15": 5.0, "city": "MELROSE", "beds": 45.0, "SR_15": 5.0}, {"Diff_star": 0.0, "addr": "14 MASONIC CIRCLE", "SR_14": 2.0, "Q_14": 4.0, "name": "LIFE CARE CENTER OF AUBURN", "SF_14": 3.0, "SF_15": 3.0, "cnty": "Worcester", "st": "MA", "Zip": 1501.0, "O_14": 2.0, "Q_15": 2.0, "O_15": 2.0, "city": "AUBURN", "beds": 154.0, "SR_15": 2.0}, {"Diff_star": -1.0, "addr": "11 CONDITO ROAD", "SR_14": 4.0, "Q_14": 5.0, "name": "HARBOR HOUSE NURSING & REHABILITATION CENTER", "SF_14": 4.0, "SF_15": 4.0, "cnty": "Plymouth", "st": "MA", "Zip": 2043.0, "O_14": 5.0, "Q_15": 3.0, "O_15": 4.0, "city": "HINGHAM", "beds": 142.0, "SR_15": 4.0}, {"Diff_star": 0.0, "addr": "57 OLD ROAD TO NINE ACRE CORNER", "SR_14": 4.0, "Q_14": 5.0, "name": "CONCORD HEALTH CARE CENTER", "SF_14": 4.0, "SF_15": 4.0, "cnty": "Middlesex", "st": "MA", "Zip": 1742.0, "O_14": 5.0, "Q_15": 5.0, "O_15": 5.0, "city": "W CONCORD", "beds": 135.0, "SR_15": 4.0}, {"Diff_star": -1.0, "addr": "94 OBERY STREET", "SR_14": 4.0, "Q_14": 5.0, "name": "LIFE CARE CENTER OF PLYMOUTH", "SF_14": 3.0, "SF_15": 3.0, "cnty": "Plymouth", "st": "MA", "Zip": 2360.0, "O_14": 5.0, "Q_15": 3.0, "O_15": 4.0, "city": "PLYMOUTH", "beds": 150.0, "SR_15": 4.0}, {"Diff_star": -1.0, "addr": "383 SOUTH ORLEANS ROAD", "SR_14": 4.0, "Q_14": 5.0, "name": "PLEASANT BAY NURSING & REHABILITATION", "SF_14": 4.0, "SF_15": 4.0, "cnty": "Barnstable", "st": "MA", "Zip": 2631.0, "O_14": 5.0, "Q_15": 4.0, "O_15": 4.0, "city": "BREWSTER", "beds": 135.0, "SR_15": 4.0}, {"Diff_star": -1.0, "addr": "111 HUNTOON MEMORIAL HIGHWAY", "SR_14": 4.0, "Q_14": 5.0, "name": "MEADOWS OF CENTRAL MASSACHUSETTS (THE)", "SF_14": 4.0, "SF_15": 4.0, "cnty": "Worcester", "st": "MA", "Zip": 1542.0, "O_14": 5.0, "Q_15": 4.0, "O_15": 4.0, "city": "ROCHDALE", "beds": 135.0, "SR_15": 4.0}, {"Diff_star": 0.0, "addr": "1 DEL POND DRIVE", "SR_14": 5.0, "Q_14": 4.0, "name": "COMMONS RESIDENCE AT ORCHARD COVE", "SF_14": 5.0, "SF_15": 5.0, "cnty": "Norfolk", "st": "MA", "Zip": 2021.0, "O_14": 5.0, "Q_15": 2.0, "O_15": 5.0, "city": "CANTON", "beds": 45.0, "SR_15": 5.0}, {"Diff_star": 0.0, "addr": "100 WEST STREET", "SR_14": 2.0, "Q_14": 4.0, "name": "KINDRED TRANSITIONAL CARE & REHABILITATION-AVERY", "SF_14": 3.0, "SF_15": 3.0, "cnty": "Norfolk", "st": "MA", "Zip": 2194.0, "O_14": 2.0, "Q_15": 2.0, "O_15": 2.0, "city": "NEEDHAM", "beds": 142.0, "SR_15": 2.0}, {"Diff_star": 0.0, "addr": "209 COUNTY ROAD BOX 408", "SR_14": 4.0, "Q_14": 5.0, "name": "ROYAL MEGANSETT NURSING & REHABILITATION", "SF_14": 4.0, "SF_15": 4.0, "cnty": "Barnstable", "st": "MA", "Zip": 2556.0, "O_14": 5.0, "Q_15": 5.0, "O_15": 5.0, "city": "N FALMOUTH", "beds": 78.0, "SR_15": 4.0}, {"Diff_star": 0.0, "addr": "2 SEAPORT DRIVE", "SR_14": 4.0, "Q_14": 5.0, "name": "MARINA BAY SKILLED NURSING & REHABILITATION CTR", "SF_14": 5.0, "SF_15": 5.0, "cnty": "Norfolk", "st": "MA", "Zip": 2171.0, "O_14": 5.0, "Q_15": 4.0, "O_15": 5.0, "city": "QUINCY", "beds": 167.0, "SR_15": 4.0}, {"Diff_star": 0.0, "addr": "9 ARBETTER DRIVE", "SR_14": 4.0, "Q_14": 4.0, "name": "OAK KNOLL HEALTHCARE CENTER", "SF_14": 4.0, "SF_15": 4.0, "cnty": "Middlesex", "st": "MA", "Zip": 1701.0, "O_14": 4.0, "Q_15": 3.0, "O_15": 4.0, "city": "FRAMINGHAM", "beds": 123.0, "SR_15": 4.0}, {"Diff_star": 0.0, "addr": "277 ELLIOT STREET", "SR_14": 4.0, "Q_14": 5.0, "name": "STONE INSTITUTE, THE", "SF_14": 3.0, "SF_15": 3.0, "cnty": "Middlesex", "st": "MA", "Zip": 2164.0, "O_14": 5.0, "Q_15": 4.0, "O_15": 5.0, "city": "NEWTON UPPER FALLS", "beds": 82.0, "SR_15": 5.0}, {"Diff_star": 2.0, "addr": "169 VALENTINE ROAD", "SR_14": 1.0, "Q_14": 5.0, "name": "HILLCREST COMMONS NURSING & REHABILITATION CENTER", "SF_14": 4.0, "SF_15": 4.0, "cnty": "Berkshire", "st": "MA", "Zip": 1201.0, "O_14": 2.0, "Q_15": 5.0, "O_15": 4.0, "city": "PITTSFIELD", "beds": 265.0, "SR_15": 2.0}, {"Diff_star": 0.0, "addr": "50 MANSION DRIVE", "SR_14": 4.0, "Q_14": 5.0, "name": "SEA VIEW CONVALESCENT AND NURSING HOME", "SF_14": 4.0, "SF_15": 4.0, "cnty": "Essex", "st": "MA", "Zip": 1969.0, "O_14": 5.0, "Q_15": 5.0, "O_15": 5.0, "city": "ROWLEY", "beds": 62.0, "SR_15": 4.0}, {"Diff_star": 0.0, "addr": "161 FALMOUTH ROAD", "SR_14": 1.0, "Q_14": 3.0, "name": "ROYAL OF COTUIT", "SF_14": 3.0, "SF_15": 3.0, "cnty": "Barnstable", "st": "MA", "Zip": 2649.0, "O_14": 1.0, "Q_15": 2.0, "O_15": 1.0, "city": "MASHPEE", "beds": 98.0, "SR_15": 1.0}, {"Diff_star": 0.0, "addr": "50 CHRISTY PLACE", "SR_14": 4.0, "Q_14": 5.0, "name": "BAYPOINTE REHABILITATION & SKILLED CARE CENTER", "SF_14": 4.0, "SF_15": 4.0, "cnty": "Plymouth", "st": "MA", "Zip": 2301.0, "O_14": 5.0, "Q_15": 5.0, "O_15": 5.0, "city": "BROCKTON", "beds": 169.0, "SR_15": 4.0}, {"Diff_star": 0.0, "addr": "807 WILBRAHAM ROAD", "SR_14": 4.0, "Q_14": 4.0, "name": "REEDS LANDING NURSING CENTER", "SF_14": 3.0, "SF_15": 3.0, "cnty": "Hampden", "st": "MA", "Zip": 1109.0, "O_14": 4.0, "Q_15": 4.0, "O_15": 4.0, "city": "SPRINGFIELD", "beds": 42.0, "SR_15": 4.0}, {"Diff_star": 0.0, "addr": "OLD ROAD TO NINE ACRE CORNER", "SR_14": 5.0, "Q_14": 2.0, "name": "EMERSON REHABILITATION & TRANSITIONAL CARE UNIT", "SF_14": "", "SF_15": "", "cnty": "Middlesex", "st": "MA", "Zip": 1742.0, "O_14": 5.0, "Q_15": 2.0, "O_15": 5.0, "city": "WEST CONCORD", "beds": 20.0, "SR_15": 5.0}, {"Diff_star": 0.0, "addr": "19 TABER STREET", "SR_14": 3.0, "Q_14": 5.0, "name": "ROYAL TABER STREET NURS & REHAB CTR", "SF_14": 2.0, "SF_15": 2.0, "cnty": "Bristol", "st": "MA", "Zip": 2740.0, "O_14": 4.0, "Q_15": 5.0, "O_15": 4.0, "city": "NEW BEDFORD", "beds": 56.0, "SR_15": 3.0}, {"Diff_star": 0.0, "addr": "589 HIGHLAND AVENUE", "SR_14": 1.0, "Q_14": 4.0, "name": "WINGATE AT NEEDHAM REHAB & SKILLED NURS RES", "SF_14": 4.0, "SF_15": 4.0, "cnty": "Norfolk", "st": "MA", "Zip": 2194.0, "O_14": 2.0, "Q_15": 4.0, "O_15": 2.0, "city": "NEEDHAM", "beds": 142.0, "SR_15": 1.0}, {"Diff_star": -2.0, "addr": "20 NORTH MAPLE STREET", "SR_14": 2.0, "Q_14": 3.0, "name": "ELAINE CENTER AT HADLEY", "SF_14": 4.0, "SF_15": 3.0, "cnty": "Hampshire", "st": "MA", "Zip": 1035.0, "O_14": 3.0, "Q_15": 1.0, "O_15": 1.0, "city": "HADLEY", "beds": 154.0, "SR_15": 2.0}, {"Diff_star": 0.0, "addr": "765 WEST CENTER STREET", "SR_14": 5.0, "Q_14": 4.0, "name": "LIFE CARE CENTER OF WEST BRIDGEWATER", "SF_14": 4.0, "SF_15": 4.0, "cnty": "Plymouth", "st": "MA", "Zip": 2379.0, "O_14": 5.0, "Q_15": 2.0, "O_15": 5.0, "city": "WEST BRIDGEWATER", "beds": 150.0, "SR_15": 5.0}, {"Diff_star": 0.0, "addr": "84 ELM STREET", "SR_14": 4.0, "Q_14": 5.0, "name": "TIMOTHY DANIELS HOUSE", "SF_14": 4.0, "SF_15": 4.0, "cnty": "Middlesex", "st": "MA", "Zip": 1746.0, "O_14": 5.0, "Q_15": 5.0, "O_15": 5.0, "city": "HOLLISTON", "beds": 40.0, "SR_15": 4.0}, {"Diff_star": 0.0, "addr": "136 BOSTON POST ROAD", "SR_14": 2.0, "Q_14": 4.0, "name": "WINGATE AT SUDBURY REHAB & SKILLED NURS RESIDENCE", "SF_14": 2.0, "SF_15": 2.0, "cnty": "Middlesex", "st": "MA", "Zip": 1776.0, "O_14": 2.0, "Q_15": 2.0, "O_15": 2.0, "city": "SUDBURY", "beds": 142.0, "SR_15": 2.0}, {"Diff_star": 0.0, "addr": "61 OLD AMHERST ROAD, P O BOX 405", "SR_14": 1.0, "Q_14": 5.0, "name": "NEW ENGLAND HEALTH CENTER", "SF_14": 4.0, "SF_15": 4.0, "cnty": "Franklin", "st": "MA", "Zip": 1375.0, "O_14": 2.0, "Q_15": 4.0, "O_15": 2.0, "city": "SUNDERLAND", "beds": 56.0, "SR_15": 1.0}, {"Diff_star": 0.0, "addr": "164 PARKINGWAY", "SR_14": 3.0, "Q_14": 5.0, "name": "HANCOCK PARK REHABILITATION & NURSING CENTER", "SF_14": 5.0, "SF_15": 5.0, "cnty": "Norfolk", "st": "MA", "Zip": 2169.0, "O_14": 5.0, "Q_15": 5.0, "O_15": 5.0, "city": "QUINCY", "beds": 142.0, "SR_15": 3.0}, {"Diff_star": 0.0, "addr": "10 CAREMATRIX DRIVE", "SR_14": 1.0, "Q_14": 3.0, "name": "KINDRED TRANSITIONAL CARE & REHAB-HIGHGATE", "SF_14": 3.0, "SF_15": 3.0, "cnty": "Norfolk", "st": "MA", "Zip": 2026.0, "O_14": 1.0, "Q_15": 2.0, "O_15": 1.0, "city": "DEDHAM", "beds": 142.0, "SR_15": 1.0}, {"Diff_star": -1.0, "addr": "312 MILLBURY AVENUE", "SR_14": 4.0, "Q_14": 5.0, "name": "MILLBURY HEALTH CARE CENTER", "SF_14": 3.0, "SF_15": 3.0, "cnty": "Worcester", "st": "MA", "Zip": 1527.0, "O_14": 5.0, "Q_15": 4.0, "O_15": 4.0, "city": "MILLBURY", "beds": 154.0, "SR_15": 4.0}, {"Diff_star": 0.0, "addr": "680 CENTRE STREET BLDG A LEVEL 3", "SR_14": 4.0, "Q_14": 1.0, "name": "TCU-BROCKTON HOSPITAL", "SF_14": 5.0, "SF_15": 5.0, "cnty": "Plymouth", "st": "MA", "Zip": 2302.0, "O_14": 4.0, "Q_15": 1.0, "O_15": 4.0, "city": "BROCKTON", "beds": 29.0, "SR_15": 4.0}, {"Diff_star": 1.0, "addr": "59 COUNTRY WAY", "SR_14": 3.0, "Q_14": 2.0, "name": "CARDIGAN NURSING & REHABILITATION CENTER", "SF_14": 4.0, "SF_15": 5.0, "cnty": "Plymouth", "st": "MA", "Zip": 2066.0, "O_14": 4.0, "Q_15": 2.0, "O_15": 5.0, "city": "SCITUATE", "beds": 65.0, "SR_15": 4.0}, {"Diff_star": -1.0, "addr": "1748 HIGHLAND AVENUE", "SR_14": 1.0, "Q_14": 5.0, "name": "KINDRED TRANSITIONAL CARE AND REHAB-HIGHLANDER", "SF_14": 2.0, "SF_15": 2.0, "cnty": "Bristol", "st": "MA", "Zip": 2720.0, "O_14": 2.0, "Q_15": 3.0, "O_15": 1.0, "city": "FALL RIVER", "beds": 176.0, "SR_15": 1.0}, {"Diff_star": 0.0, "addr": "575 OSGOOD STREET", "SR_14": 3.0, "Q_14": 5.0, "name": "MEADOWS, THE", "SF_14": 5.0, "SF_15": 5.0, "cnty": "Essex", "st": "MA", "Zip": 1845.0, "O_14": 5.0, "Q_15": 5.0, "O_15": 5.0, "city": "NORTH ANDOVER", "beds": 60.0, "SR_15": 3.0}, {"Diff_star": 0.0, "addr": "8 BUTLER STREET", "SR_14": 4.0, "Q_14": 4.0, "name": "BLACKSTONE NURSING HOME", "SF_14": 4.0, "SF_15": 4.0, "cnty": "Worcester", "st": "MA", "Zip": 1504.0, "O_14": 4.0, "Q_15": 2.0, "O_15": 4.0, "city": "BLACKSTONE", "beds": 33.0, "SR_15": 4.0}, {"Diff_star": 0.0, "addr": "3 VISION DRIVE", "SR_14": 2.0, "Q_14": 5.0, "name": "BEAUMONT REHAB & SKILLED NURSING CTR - NATICK", "SF_14": 4.0, "SF_15": 4.0, "cnty": "Middlesex", "st": "MA", "Zip": 1760.0, "O_14": 4.0, "Q_15": 5.0, "O_15": 4.0, "city": "NATICK", "beds": 53.0, "SR_15": 2.0}, {"Diff_star": 0.0, "addr": "25 WOODLAND ROAD", "SR_14": 2.0, "Q_14": 5.0, "name": "LIFE CARE CENTER OF STONEHAM", "SF_14": 3.0, "SF_15": 3.0, "cnty": "Middlesex", "st": "MA", "Zip": 2180.0, "O_14": 3.0, "Q_15": 5.0, "O_15": 3.0, "city": "STONEHAM", "beds": 94.0, "SR_15": 2.0}, {"Diff_star": 0.0, "addr": "340 THOMPSON ROAD - 1ST FLOOR", "SR_14": 3.0, "Q_14": 4.0, "name": "TCU AT WEBSTER", "SF_14": "", "SF_15": "", "cnty": "Worcester", "st": "MA", "Zip": 1570.0, "O_14": 3.0, "Q_15": 3.0, "O_15": 3.0, "city": "WEBSTER", "beds": 21.0, "SR_15": 3.0}, {"Diff_star": 0.0, "addr": "90 GREENWOOD STREET", "SR_14": 3.0, "Q_14": 5.0, "name": "GREENWOOD NURSING & REHABILITATION CENTER", "SF_14": 4.0, "SF_15": 4.0, "cnty": "Middlesex", "st": "MA", "Zip": 1880.0, "O_14": 5.0, "Q_15": 5.0, "O_15": 5.0, "city": "WAKEFIELD", "beds": 36.0, "SR_15": 3.0}, {"Diff_star": 0.0, "addr": "804 EAST 7TH STREET", "SR_14": 1.0, "Q_14": 3.0, "name": "KINDRED NURSING & REHABILITATION-HARBORLIGHTS", "SF_14": 2.0, "SF_15": 2.0, "cnty": "Suffolk", "st": "MA", "Zip": 2127.0, "O_14": 1.0, "Q_15": 2.0, "O_15": 1.0, "city": "BOSTON", "beds": 89.0, "SR_15": 1.0}, {"Diff_star": 0.0, "addr": "12 GAMELIN STREET", "SR_14": 5.0, "Q_14": 5.0, "name": "MARY'S MEADOW AT PROVIDENCE PLACE", "SF_14": 5.0, "SF_15": 5.0, "cnty": "Hampden", "st": "MA", "Zip": 1040.0, "O_14": 5.0, "Q_15": 5.0, "O_15": 5.0, "city": "HOLYOKE", "beds": 40.0, "SR_15": 5.0}, {"Diff_star": 0.0, "addr": "215 ADAMS ST", "SR_14": 5.0, "Q_14": 5.0, "name": "WILLIAM B RICE EVENTIDE HOME", "SF_14": 5.0, "SF_15": 5.0, "cnty": "Norfolk", "st": "MA", "Zip": 2169.0, "O_14": 5.0, "Q_15": 5.0, "O_15": 5.0, "city": "QUINCY", "beds": 65.0, "SR_15": 5.0}, {"Diff_star": 0.0, "addr": "90 LINDALL STREET", "SR_14": 4.0, "Q_14": 5.0, "name": "HUNT NURSING & REHAB CENTER", "SF_14": 4.0, "SF_15": 3.0, "cnty": "Essex", "st": "MA", "Zip": 1923.0, "O_14": 5.0, "Q_15": 5.0, "O_15": 5.0, "city": "DANVERS", "beds": 120.0, "SR_15": 4.0}, {"Diff_star": 0.0, "addr": "194 BOARDMAN STREET", "SR_14": 3.0, "Q_14": 5.0, "name": "BAKER-KATZ SKILLED NURSING AND REHABILITATION CTR", "SF_14": 4.0, "SF_15": 4.0, "cnty": "Essex", "st": "MA", "Zip": 1830.0, "O_14": 5.0, "Q_15": 5.0, "O_15": 5.0, "city": "HAVERHILL", "beds": 77.0, "SR_15": 3.0}, {"Diff_star": 0.0, "addr": "455 BRAYTON AVENUE", "SR_14": 3.0, "Q_14": 4.0, "name": "SOMERSET RIDGE CENTER", "SF_14": 4.0, "SF_15": 4.0, "cnty": "Bristol", "st": "MA", "Zip": 2726.0, "O_14": 4.0, "Q_15": 2.0, "O_15": 4.0, "city": "SOMERSET", "beds": 135.0, "SR_15": 3.0}, {"Diff_star": 0.0, "addr": "28 LINWOOD ROAD", "SR_14": 4.0, "Q_14": 4.0, "name": "PHILLIPS MANOR NURSING HOME", "SF_14": 5.0, "SF_15": 5.0, "cnty": "Essex", "st": "MA", "Zip": 1905.0, "O_14": 5.0, "Q_15": 5.0, "O_15": 5.0, "city": "LYNN", "beds": 29.0, "SR_15": 4.0}, {"Diff_star": 0.0, "addr": "620 LAUREL STREET", "SR_14": 4.0, "Q_14": 4.0, "name": "KINDRED NURSING & REHABILITATION-LAUREL LAKE", "SF_14": 4.0, "SF_15": 4.0, "cnty": "Berkshire", "st": "MA", "Zip": 1238.0, "O_14": 4.0, "Q_15": 4.0, "O_15": 4.0, "city": "LEE", "beds": 88.0, "SR_15": 4.0}, {"Diff_star": 0.0, "addr": "123 HIGH STREET", "SR_14": 3.0, "Q_14": 4.0, "name": "MASCONOMET HEALTHCARE CENTER", "SF_14": 5.0, "SF_15": 5.0, "cnty": "Essex", "st": "MA", "Zip": 1983.0, "O_14": 4.0, "Q_15": 4.0, "O_15": 4.0, "city": "TOPSFIELD", "beds": 123.0, "SR_15": 3.0}, {"Diff_star": 0.0, "addr": "655 DEDHAM ST", "SR_14": 4.0, "Q_14": 5.0, "name": "SERENITY HILL NURSING CENTER", "SF_14": 4.0, "SF_15": 4.0, "cnty": "Norfolk", "st": "MA", "Zip": 2093.0, "O_14": 5.0, "Q_15": 5.0, "O_15": 5.0, "city": "WRENTHAM", "beds": 42.0, "SR_15": 4.0}, {"Diff_star": 0.0, "addr": "120 SEMINARY AVENUE", "SR_14": 4.0, "Q_14": 5.0, "name": "LASELL HOUSE", "SF_14": 5.0, "SF_15": 5.0, "cnty": "Middlesex", "st": "MA", "Zip": 2466.0, "O_14": 5.0, "Q_15": 5.0, "O_15": 5.0, "city": "AUBURNDALE", "beds": 44.0, "SR_15": 4.0}, {"Diff_star": 2.0, "addr": "615 HEATH STREET", "SR_14": 1.0, "Q_14": 5.0, "name": "EPOCH SENIOR HEALTHCARE OF CHESTNUT HILL", "SF_14": 4.0, "SF_15": 4.0, "cnty": "Middlesex", "st": "MA", "Zip": 2467.0, "O_14": 2.0, "Q_15": 5.0, "O_15": 4.0, "city": "CHESTNUT HILL", "beds": 135.0, "SR_15": 2.0}, {"Diff_star": 0.0, "addr": "573 GRANBY ROAD", "SR_14": 2.0, "Q_14": 4.0, "name": "WINGATE AT SOUTH HADLEY REHAB & SKILLED NURSING", "SF_14": 3.0, "SF_15": 3.0, "cnty": "Hampshire", "st": "MA", "Zip": 1075.0, "O_14": 2.0, "Q_15": 2.0, "O_15": 2.0, "city": "SOUTH HADLEY", "beds": 132.0, "SR_15": 2.0}, {"Diff_star": 0.0, "addr": "1400 STATE STREET", "SR_14": 3.0, "Q_14": "", "name": "VIBRA NURSING & REHABILITATION CTR OF WESTERN MASS", "SF_14": 5.0, "SF_15": 5.0, "cnty": "Hampden", "st": "MA", "Zip": 1109.0, "O_14": 4.0, "Q_15": "", "O_15": 4.0, "city": "SPRINGFIELD", "beds": 172.0, "SR_15": 3.0}, {"Diff_star": 0.0, "addr": "1200 CENTRE STREET", "SR_14": 1.0, "Q_14": 5.0, "name": "RECUPERATIVE SERVICES UNIT-HEBREW REHAB CENTER", "SF_14": 5.0, "SF_15": 5.0, "cnty": "Suffolk", "st": "MA", "Zip": 2131.0, "O_14": 2.0, "Q_15": 3.0, "O_15": 2.0, "city": "BOSTON", "beds": 50.0, "SR_15": 1.0}, {"Diff_star": 0.0, "addr": "60 QUAKER HIGHWAY", "SR_14": 2.0, "Q_14": 5.0, "name": "LYDIA TAFT HOUSE", "SF_14": 5.0, "SF_15": 4.0, "cnty": "Worcester", "st": "MA", "Zip": 1569.0, "O_14": 4.0, "Q_15": 5.0, "O_15": 4.0, "city": "UXBRIDGE", "beds": 53.0, "SR_15": 2.0}, {"Diff_star": 0.0, "addr": "290 SOUTH STREET", "SR_14": 4.0, "Q_14": 5.0, "name": "BERKSHIRE PLACE", "SF_14": 5.0, "SF_15": 5.0, "cnty": "Berkshire", "st": "MA", "Zip": 1201.0, "O_14": 5.0, "Q_15": 5.0, "O_15": 5.0, "city": "PITTSFIELD", "beds": 22.0, "SR_15": 4.0}, {"Diff_star": -1.0, "addr": "250 SHEARER STREET", "SR_14": 1.0, "Q_14": 5.0, "name": "PALMER HEALTHCARE CENTER", "SF_14": 3.0, "SF_15": 3.0, "cnty": "Hampden", "st": "MA", "Zip": 1069.0, "O_14": 2.0, "Q_15": 3.0, "O_15": 1.0, "city": "PALMER", "beds": 61.0, "SR_15": 1.0}, {"Diff_star": 0.0, "addr": "40 SUNSET AVENUE", "SR_14": 4.0, "Q_14": 5.0, "name": "KIMBALL FARMS NURSING CARE CENTER", "SF_14": 4.0, "SF_15": 4.0, "cnty": "Berkshire", "st": "MA", "Zip": 1240.0, "O_14": 5.0, "Q_15": 5.0, "O_15": 5.0, "city": "LENOX", "beds": 74.0, "SR_15": 4.0}, {"Diff_star": 0.0, "addr": "55 COOPER STREET", "SR_14": 4.0, "Q_14": 4.0, "name": "HERITAGE HALL NORTH", "SF_14": 4.0, "SF_15": 4.0, "cnty": "Hampden", "st": "MA", "Zip": 1001.0, "O_14": 4.0, "Q_15": 3.0, "O_15": 4.0, "city": "AGAWAM", "beds": 124.0, "SR_15": 4.0}, {"Diff_star": 0.0, "addr": "400 BROOKSBY VILLAGE DRIVE", "SR_14": 3.0, "Q_14": 5.0, "name": "CONTINUING CARE AT BROOKSBY VILLAGE", "SF_14": 4.0, "SF_15": 4.0, "cnty": "Essex", "st": "MA", "Zip": 1960.0, "O_14": 5.0, "Q_15": 5.0, "O_15": 5.0, "city": "PEABODY", "beds": 104.0, "SR_15": 3.0}, {"Diff_star": 0.0, "addr": "154 WATER STREET", "SR_14": 3.0, "Q_14": 4.0, "name": "NEW ENGLAND HOMES FOR THE DEAF, INC", "SF_14": "", "SF_15": "", "cnty": "Essex", "st": "MA", "Zip": 1923.0, "O_14": 3.0, "Q_15": 3.0, "O_15": 3.0, "city": "DANVERS", "beds": 30.0, "SR_15": 3.0}, {"Diff_star": 0.0, "addr": "175 GROVE STREET", "SR_14": 5.0, "Q_14": 4.0, "name": "ALLIANCE HEALTHCARE CENTER AT BRAINTREE", "SF_14": 4.0, "SF_15": 4.0, "cnty": "Norfolk", "st": "MA", "Zip": 2184.0, "O_14": 5.0, "Q_15": 3.0, "O_15": 5.0, "city": "BRAINTREE", "beds": 101.0, "SR_15": 5.0}, {"Diff_star": 1.0, "addr": "170 COREY ROAD", "SR_14": 2.0, "Q_14": 4.0, "name": "BRIGHTON HOUSE REHABILITATION & NURSING CENTER", "SF_14": 5.0, "SF_15": 4.0, "cnty": "Suffolk", "st": "MA", "Zip": 2135.0, "O_14": 3.0, "Q_15": 4.0, "O_15": 4.0, "city": "BRIGHTON", "beds": 78.0, "SR_15": 3.0}, {"Diff_star": -2.0, "addr": "7 SANDISFIELD ROAD BOX 216", "SR_14": 3.0, "Q_14": 5.0, "name": "BERKSHIRE HEALTH CARE CENTER", "SF_14": 4.0, "SF_15": 3.0, "cnty": "Berkshire", "st": "MA", "Zip": 1255.0, "O_14": 5.0, "Q_15": 4.0, "O_15": 3.0, "city": "SANDISFIELD", "beds": 57.0, "SR_15": 3.0}, {"Diff_star": 0.0, "addr": "EAST CREEK ROAD", "SR_14": 2.0, "Q_14": 4.0, "name": "OUR ISLAND HOME", "SF_14": 2.0, "SF_15": 2.0, "cnty": "Nantucket", "st": "MA", "Zip": 2554.0, "O_14": 2.0, "Q_15": 4.0, "O_15": 2.0, "city": "NANTUCKET", "beds": 45.0, "SR_15": 2.0}, {"Diff_star": 0.0, "addr": "400 LINDEN PONDS WAY", "SR_14": 5.0, "Q_14": 5.0, "name": "LINDEN PONDS", "SF_14": 5.0, "SF_15": 5.0, "cnty": "Plymouth", "st": "MA", "Zip": 2043.0, "O_14": 5.0, "Q_15": 4.0, "O_15": 5.0, "city": "HINGHAM", "beds": 88.0, "SR_15": 5.0}, {"Diff_star": 1.0, "addr": "7000 GREAT MEADOW ROAD", "SR_14": 3.0, "Q_14": 3.0, "name": "NEWBRIDGE ON THE CHARLES SKILLED NURSING FACILITY", "SF_14": 5.0, "SF_15": 5.0, "cnty": "Norfolk", "st": "MA", "Zip": 2026.0, "O_14": 4.0, "Q_15": 3.0, "O_15": 5.0, "city": "DEDHAM", "beds": 48.0, "SR_15": 4.0}, {"Diff_star": 0.0, "addr": "165 CAPTAIN'S ROW", "SR_14": 2.0, "Q_14": 5.0, "name": "LEONARD FLORENCE CENTER FOR LIVING", "SF_14": 5.0, "SF_15": 5.0, "cnty": "Suffolk", "st": "MA", "Zip": 2150.0, "O_14": 4.0, "Q_15": 5.0, "O_15": 4.0, "city": "CHELSEA", "beds": 100.0, "SR_15": 2.0}, {"Diff_star": 0.0, "addr": "59 MIDDLESEX AVENUE", "SR_14": 5.0, "Q_14": 5.0, "name": "DANIELS HOUSE NURSING HOME", "SF_14": 4.0, "SF_15": 4.0, "cnty": "Middlesex", "st": "MA", "Zip": 1867.0, "O_14": 5.0, "Q_15": 5.0, "O_15": 5.0, "city": "READING", "beds": 33.0, "SR_15": 5.0}, {"Diff_star": 0.0, "addr": "1071 VARNUM AVENUE", "SR_14": 5.0, "Q_14": 4.0, "name": "D'YOUVILLE TRANSITIONAL CARE, INC", "SF_14": 5.0, "SF_15": 5.0, "cnty": "Middlesex", "st": "MA", "Zip": 1854.0, "O_14": 5.0, "Q_15": 2.0, "O_15": 5.0, "city": "LOWELL", "beds": 33.0, "SR_15": 5.0}, {"Diff_star": 0.0, "addr": "150 FLANDERS ROAD", "SR_14": 5.0, "Q_14": 4.0, "name": "WHITTIER WESTBOROUGH TRANSITIONAL CARE UNIT", "SF_14": 5.0, "SF_15": 5.0, "cnty": "Worcester", "st": "MA", "Zip": 1581.0, "O_14": 5.0, "Q_15": 4.0, "O_15": 5.0, "city": "WESTBOROUGH", "beds": 19.0, "SR_15": 5.0}, {"Diff_star": 0.0, "addr": "1168 HIGHLAND AVENUE", "SR_14": "", "Q_14": "", "name": "ADAMS HOUSE", "SF_14": "", "SF_15": "", "cnty": "Bristol", "st": "MA", "Zip": 2720.0, "O_14": "", "Q_15": "", "O_15": "", "city": "FALL RIVER", "beds": 19.0, "SR_15": ""}, {"Diff_star": 0.0, "addr": "761 HIGHLAND AVENUE", "SR_14": 5.0, "Q_14": "", "name": "HIGHLAND MANOR NURSING HOME, INC", "SF_14": 5.0, "SF_15": 5.0, "cnty": "Bristol", "st": "MA", "Zip": 2720.0, "O_14": 5.0, "Q_15": "", "O_15": 5.0, "city": "FALL RIVER", "beds": 26.0, "SR_15": 5.0}, {"Diff_star": 0.0, "addr": "22 HILLSIDE AVENUE", "SR_14": 4.0, "Q_14": 5.0, "name": "SEVEN HILLS PEDIATRIC CENTER", "SF_14": 5.0, "SF_15": 5.0, "cnty": "Middlesex", "st": "MA", "Zip": 1450.0, "O_14": 5.0, "Q_15": 5.0, "O_15": 5.0, "city": "GROTON", "beds": 83.0, "SR_15": 4.0}, {"Diff_star": 0.0, "addr": "78 BOSTON ROAD", "SR_14": 4.0, "Q_14": 5.0, "name": "NEW ENGLAND PEDIATRIC CARE", "SF_14": 5.0, "SF_15": 5.0, "cnty": "Middlesex", "st": "MA", "Zip": 1862.0, "O_14": 5.0, "Q_15": 5.0, "O_15": 5.0, "city": "NORTH BILLERICA", "beds": 80.0, "SR_15": 4.0}, {"Diff_star": 0.0, "addr": "28 FRONT STREET", "SR_14": 2.0, "Q_14": 5.0, "name": "SAMUEL MARCUS NURSING HOME", "SF_14": 2.0, "SF_15": 2.0, "cnty": "Norfolk", "st": "MA", "Zip": 2188.0, "O_14": 3.0, "Q_15": 5.0, "O_15": 3.0, "city": "WEYMOUTH", "beds": 22.0, "SR_15": 2.0}, {"Diff_star": -1.0, "addr": "153 WINTER STREET", "SR_14": 4.0, "Q_14": 5.0, "name": "COUNTRYSIDE NURSING HOME INC", "SF_14": 4.0, "SF_15": 3.0, "cnty": "Middlesex", "st": "MA", "Zip": 1701.0, "O_14": 5.0, "Q_15": 4.0, "O_15": 4.0, "city": "FRAMINGHAM", "beds": 30.0, "SR_15": 4.0}, {"Diff_star": 0.0, "addr": "298 KINGS TOWN WAY", "SR_14": 5.0, "Q_14": 5.0, "name": "DUXBURY HOUSE NURSING HOME", "SF_14": 5.0, "SF_15": 5.0, "cnty": "Plymouth", "st": "MA", "Zip": 2332.0, "O_14": 5.0, "Q_15": 5.0, "O_15": 5.0, "city": "DUXBURY", "beds": 23.0, "SR_15": 5.0}]