[{"Diff_star": 0.0, "addr": "700 TOLL HOUSE AVENUE", "SR_14": 1.0, "Q_14": 3.0, "name": "COLLEGE VIEW CENTER", "SF_14": 3.0, "SF_15": 3.0, "cnty": "Frederick", "st": "MD", "Zip": 21701.0, "O_14": 1.0, "Q_15": 3.0, "O_15": 1.0, "city": "FREDERICK", "beds": 143.0, "SR_15": 1.0}, {"Diff_star": -1.0, "addr": "900 VAN BUREN STREET", "SR_14": 4.0, "Q_14": 3.0, "name": "BAY RIDGE HEALTH CARE CENTER", "SF_14": 4.0, "SF_15": 4.0, "cnty": "Anne Arundel", "st": "MD", "Zip": 21403.0, "O_14": 4.0, "Q_15": 1.0, "O_15": 3.0, "city": "ANNAPOLIS", "beds": 93.0, "SR_15": 4.0}, {"Diff_star": 0.0, "addr": "P.O. BOX 2378 900 BOOTH ST", "SR_14": 4.0, "Q_14": 5.0, "name": "WICOMICO NURSING HOME", "SF_14": 4.0, "SF_15": 4.0, "cnty": "Wicomico", "st": "MD", "Zip": 21802.0, "O_14": 5.0, "Q_15": 5.0, "O_15": 5.0, "city": "SALISBURY", "beds": 102.0, "SR_15": 4.0}, {"Diff_star": 0.0, "addr": "610 DUTCHMAN'S LANE", "SR_14": 4.0, "Q_14": 4.0, "name": "THE PINES GENESIS ELDERCARE", "SF_14": 4.0, "SF_15": 3.0, "cnty": "Talbot", "st": "MD", "Zip": 21601.0, "O_14": 4.0, "Q_15": 2.0, "O_15": 4.0, "city": "EASTON", "beds": 155.0, "SR_15": 4.0}, {"Diff_star": 0.0, "addr": "21585 PEABODY STREET", "SR_14": 4.0, "Q_14": 3.0, "name": "ST. MARY'S NURSING CENTER INC", "SF_14": 4.0, "SF_15": 3.0, "cnty": "St. Marys", "st": "MD", "Zip": 20650.0, "O_14": 4.0, "Q_15": 2.0, "O_15": 4.0, "city": "LEONARDTOWN", "beds": 160.0, "SR_15": 4.0}, {"Diff_star": -2.0, "addr": "901 ARCOLA AVENUE", "SR_14": 4.0, "Q_14": 5.0, "name": "ARCOLA HEALTH AND REHABILITATION CENTER", "SF_14": 3.0, "SF_15": 1.0, "cnty": "Montgomery", "st": "MD", "Zip": 20902.0, "O_14": 5.0, "Q_15": 3.0, "O_15": 3.0, "city": "SILVER SPRING", "beds": 158.0, "SR_15": 4.0}, {"Diff_star": 0.0, "addr": "2101 FAIRLAND ROAD", "SR_14": 1.0, "Q_14": 4.0, "name": "FAIRLAND CENTER", "SF_14": 4.0, "SF_15": 4.0, "cnty": "Montgomery", "st": "MD", "Zip": 20904.0, "O_14": 2.0, "Q_15": 2.0, "O_15": 2.0, "city": "SILVER SPRING", "beds": 92.0, "SR_15": 1.0}, {"Diff_star": 0.0, "addr": "3332 MAIN STREET", "SR_14": 5.0, "Q_14": 5.0, "name": "LONGVIEW NSG. HOME", "SF_14": 4.0, "SF_15": 4.0, "cnty": "Carroll", "st": "MD", "Zip": 21102.0, "O_14": 5.0, "Q_15": 5.0, "O_15": 5.0, "city": "MANCHESTER", "beds": 109.0, "SR_15": 5.0}, {"Diff_star": 0.0, "addr": "7420 MARLBORO PIKE", "SR_14": 2.0, "Q_14": 5.0, "name": "FORESTVILLE HEALTH & REHABILITATION CENTER", "SF_14": 3.0, "SF_15": 3.0, "cnty": "Prince Georges", "st": "MD", "Zip": 20747.0, "O_14": 3.0, "Q_15": 5.0, "O_15": 3.0, "city": "FORESTVILLE", "beds": 160.0, "SR_15": 2.0}, {"Diff_star": -2.0, "addr": "4204 OLD MILFORD MILL ROAD", "SR_14": 2.0, "Q_14": 5.0, "name": "MILFORD MANOR NURSING HOME", "SF_14": 4.0, "SF_15": 3.0, "cnty": "Baltimore", "st": "MD", "Zip": 21208.0, "O_14": 4.0, "Q_15": 4.0, "O_15": 2.0, "city": "BALTIMORE", "beds": 100.0, "SR_15": 2.0}, {"Diff_star": 0.0, "addr": "6500 RIGGS ROAD", "SR_14": 4.0, "Q_14": 5.0, "name": "MANOR CARE HEALTH SERVICES - HYATTSVILLE", "SF_14": 3.0, "SF_15": 3.0, "cnty": "Prince Georges", "st": "MD", "Zip": 20783.0, "O_14": 5.0, "Q_15": 5.0, "O_15": 5.0, "city": "HYATTSVILLE", "beds": 160.0, "SR_15": 4.0}, {"Diff_star": 0.0, "addr": "4011 RANDOLPH ROAD", "SR_14": 1.0, "Q_14": 5.0, "name": "NMS HEALTHCARE OF SILVER SPRING", "SF_14": 4.0, "SF_15": 4.0, "cnty": "Montgomery", "st": "MD", "Zip": 20902.0, "O_14": 2.0, "Q_15": 4.0, "O_15": 2.0, "city": "WHEATON", "beds": 112.0, "SR_15": 1.0}, {"Diff_star": -1.0, "addr": "1235 POTOMAC VALLEY ROAD", "SR_14": 3.0, "Q_14": 5.0, "name": "POTOMAC VALLEY NSG & WELLNESS", "SF_14": 4.0, "SF_15": 3.0, "cnty": "Montgomery", "st": "MD", "Zip": 20850.0, "O_14": 5.0, "Q_15": 4.0, "O_15": 4.0, "city": "ROCKVILLE", "beds": 175.0, "SR_15": 4.0}, {"Diff_star": 0.0, "addr": "8700 JONES MILL ROAD", "SR_14": 2.0, "Q_14": 5.0, "name": "MANOR CARE HEALTH SERVICES - CHEVY CHASE", "SF_14": 4.0, "SF_15": 4.0, "cnty": "Montgomery", "st": "MD", "Zip": 20815.0, "O_14": 4.0, "Q_15": 5.0, "O_15": 4.0, "city": "CHEVY CHASE", "beds": 172.0, "SR_15": 2.0}, {"Diff_star": -2.0, "addr": "115 EAST MELROSE AVENUE", "SR_14": 3.0, "Q_14": 3.0, "name": "LONG GREEN CENTER", "SF_14": 3.0, "SF_15": 3.0, "cnty": "Baltimore City", "st": "MD", "Zip": 21212.0, "O_14": 3.0, "Q_15": 1.0, "O_15": 1.0, "city": "BALTIMORE", "beds": 134.0, "SR_15": 2.0}, {"Diff_star": 0.0, "addr": "2434 W. BELVEDERE AVENUE", "SR_14": 2.0, "Q_14": 4.0, "name": "LEVINDALE HEBREW GER CTR & HSP", "SF_14": 5.0, "SF_15": 5.0, "cnty": "Baltimore City", "st": "MD", "Zip": 21215.0, "O_14": 3.0, "Q_15": 3.0, "O_15": 3.0, "city": "BALTIMORE", "beds": 201.0, "SR_15": 2.0}, {"Diff_star": 0.0, "addr": "700 WEST 40TH STREET", "SR_14": 3.0, "Q_14": 5.0, "name": "KESWICK MULTI-CARE CENTER", "SF_14": 4.0, "SF_15": 4.0, "cnty": "Baltimore City", "st": "MD", "Zip": 21211.0, "O_14": 5.0, "Q_15": 5.0, "O_15": 5.0, "city": "BALTIMORE", "beds": 242.0, "SR_15": 3.0}, {"Diff_star": -1.0, "addr": "415 S. MARKET STREET", "SR_14": 3.0, "Q_14": 5.0, "name": "CITIZENS CARE CENTER", "SF_14": 4.0, "SF_15": 4.0, "cnty": "Harford", "st": "MD", "Zip": 21078.0, "O_14": 5.0, "Q_15": 4.0, "O_15": 4.0, "city": "HAVRE DE GRACE", "beds": 200.0, "SR_15": 3.0}, {"Diff_star": -1.0, "addr": "3000 MCCOMAS AVENUE", "SR_14": 1.0, "Q_14": 5.0, "name": "KENSINGTON NURSING & REHABILITATION CENTER", "SF_14": 3.0, "SF_15": 3.0, "cnty": "Montgomery", "st": "MD", "Zip": 20895.0, "O_14": 2.0, "Q_15": 2.0, "O_15": 1.0, "city": "KENSINGTON", "beds": 140.0, "SR_15": 1.0}, {"Diff_star": -1.0, "addr": "3320 BENSON AVENUE", "SR_14": 2.0, "Q_14": 5.0, "name": "ST. ELIZABETH REHAB. & NSG. CE", "SF_14": 3.0, "SF_15": 3.0, "cnty": "Baltimore City", "st": "MD", "Zip": 21227.0, "O_14": 3.0, "Q_15": 3.0, "O_15": 2.0, "city": "BALTIMORE", "beds": 162.0, "SR_15": 2.0}, {"Diff_star": 0.0, "addr": "11901 GEORGIA AVENUE", "SR_14": 4.0, "Q_14": 5.0, "name": "MANOR CARE HEALTH SERVICES - WHEATON", "SF_14": 2.0, "SF_15": 2.0, "cnty": "Montgomery", "st": "MD", "Zip": 20902.0, "O_14": 5.0, "Q_15": 5.0, "O_15": 5.0, "city": "WHEATON", "beds": 94.0, "SR_15": 4.0}, {"Diff_star": -1.0, "addr": "12325 NEW HAMPSHIRE AVENUE", "SR_14": 1.0, "Q_14": 5.0, "name": "SPRINGBROOK CENTER", "SF_14": 4.0, "SF_15": 3.0, "cnty": "Montgomery", "st": "MD", "Zip": 20904.0, "O_14": 2.0, "Q_15": 4.0, "O_15": 1.0, "city": "SILVER SPRING", "beds": 99.0, "SR_15": 1.0}, {"Diff_star": 0.0, "addr": "509 EAST JOPPA ROAD", "SR_14": 4.0, "Q_14": 5.0, "name": "MANORCARE HEALTH SERVICES -TOWSON", "SF_14": 4.0, "SF_15": 4.0, "cnty": "Baltimore", "st": "MD", "Zip": 21286.0, "O_14": 5.0, "Q_15": 5.0, "O_15": 5.0, "city": "TOWSON", "beds": 108.0, "SR_15": 4.0}, {"Diff_star": 0.0, "addr": "512 WINIFRED ROAD", "SR_14": 3.0, "Q_14": 4.0, "name": "GOLDEN LIVINGCENTER-CUMBERLAND", "SF_14": 3.0, "SF_15": 3.0, "cnty": "Allegany", "st": "MD", "Zip": 21502.0, "O_14": 3.0, "Q_15": 2.0, "O_15": 3.0, "city": "CUMBERLAND", "beds": 131.0, "SR_15": 3.0}, {"Diff_star": -2.0, "addr": "201 HALL HIGHWAY", "SR_14": 5.0, "Q_14": 4.0, "name": "ALICE BYRD TAWES NURSING HOME", "SF_14": 4.0, "SF_15": 4.0, "cnty": "Somerset", "st": "MD", "Zip": 21817.0, "O_14": 5.0, "Q_15": 3.0, "O_15": 3.0, "city": "CRISFIELD", "beds": 76.0, "SR_15": 2.0}, {"Diff_star": 0.0, "addr": "9101 SECOND AVENUE", "SR_14": 3.0, "Q_14": 5.0, "name": "WOODSIDE CENTER", "SF_14": 3.0, "SF_15": 3.0, "cnty": "Montgomery", "st": "MD", "Zip": 20910.0, "O_14": 4.0, "Q_15": 5.0, "O_15": 4.0, "city": "SILVER SPRING", "beds": 92.0, "SR_15": 3.0}, {"Diff_star": 0.0, "addr": "1801 METZEROTT ROAD", "SR_14": 2.0, "Q_14": 5.0, "name": "MANORCARE HEALTH SYSTEM - ADELPHI", "SF_14": 3.0, "SF_15": 3.0, "cnty": "Prince Georges", "st": "MD", "Zip": 20783.0, "O_14": 3.0, "Q_15": 5.0, "O_15": 3.0, "city": "ADELPHI", "beds": 135.0, "SR_15": 2.0}, {"Diff_star": 0.0, "addr": "2601 BEL PRE ROAD", "SR_14": 1.0, "Q_14": 5.0, "name": "BEL PRE HEALTH & REHABILITATION CENTER", "SF_14": 4.0, "SF_15": 3.0, "cnty": "Montgomery", "st": "MD", "Zip": 20906.0, "O_14": 2.0, "Q_15": 5.0, "O_15": 2.0, "city": "SILVER SPRING", "beds": 100.0, "SR_15": 1.0}, {"Diff_star": 0.0, "addr": "200 CIVIC AVENUE", "SR_14": 2.0, "Q_14": 4.0, "name": "SALISBURY CENTER", "SF_14": 4.0, "SF_15": 4.0, "cnty": "Wicomico", "st": "MD", "Zip": 21804.0, "O_14": 3.0, "Q_15": 2.0, "O_15": 3.0, "city": "SALISBURY", "beds": 289.0, "SR_15": 2.0}, {"Diff_star": -1.0, "addr": "111 WEST ROAD", "SR_14": 1.0, "Q_14": 5.0, "name": "MANORCARE HEALTH SERVICES - DULANEY", "SF_14": 3.0, "SF_15": 3.0, "cnty": "Baltimore", "st": "MD", "Zip": 21204.0, "O_14": 2.0, "Q_15": 4.0, "O_15": 1.0, "city": "TOWSON", "beds": 135.0, "SR_15": 1.0}, {"Diff_star": -1.0, "addr": "6121 MONTROSE ROAD", "SR_14": 4.0, "Q_14": 5.0, "name": "HEBREW HOME OF GREATER WASHINGTON", "SF_14": 4.0, "SF_15": 4.0, "cnty": "Montgomery", "st": "MD", "Zip": 20852.0, "O_14": 5.0, "Q_15": 4.0, "O_15": 4.0, "city": "ROCKVILLE", "beds": 436.0, "SR_15": 4.0}, {"Diff_star": 0.0, "addr": "901 SETON DRIVE EXTENSION", "SR_14": 2.0, "Q_14": 4.0, "name": "THE LIONS CENTER FOR REHAB AND EXT CARE", "SF_14": 4.0, "SF_15": 4.0, "cnty": "Allegany", "st": "MD", "Zip": 21502.0, "O_14": 3.0, "Q_15": 2.0, "O_15": 3.0, "city": "CUMBERLAND", "beds": 101.0, "SR_15": 2.0}, {"Diff_star": 0.0, "addr": "6000 BELLONA AVENUE", "SR_14": 2.0, "Q_14": 3.0, "name": "HOMEWOOD CENTER", "SF_14": 3.0, "SF_15": 3.0, "cnty": "Baltimore City", "st": "MD", "Zip": 21212.0, "O_14": 2.0, "Q_15": 2.0, "O_15": 2.0, "city": "BALTIMORE", "beds": 112.0, "SR_15": 2.0}, {"Diff_star": -1.0, "addr": "7001 CHARLES STREET", "SR_14": 3.0, "Q_14": 5.0, "name": "MANORCARE HEALTH SERVICES - RUXTON", "SF_14": 3.0, "SF_15": 3.0, "cnty": "Baltimore", "st": "MD", "Zip": 21204.0, "O_14": 4.0, "Q_15": 3.0, "O_15": 3.0, "city": "TOWSON", "beds": 232.0, "SR_15": 3.0}, {"Diff_star": -1.0, "addr": "1801 WENTWORTH ROAD", "SR_14": 2.0, "Q_14": 3.0, "name": "PERRING PARKWAY CENTER", "SF_14": 2.0, "SF_15": 3.0, "cnty": "Baltimore", "st": "MD", "Zip": 21234.0, "O_14": 2.0, "Q_15": 1.0, "O_15": 1.0, "city": "BALTIMORE", "beds": 125.0, "SR_15": 2.0}, {"Diff_star": 0.0, "addr": "7 SUDBROOK LANE", "SR_14": 1.0, "Q_14": 5.0, "name": "ENVOY OF PIKESVILLE", "SF_14": 4.0, "SF_15": 3.0, "cnty": "Baltimore", "st": "MD", "Zip": 21208.0, "O_14": 2.0, "Q_15": 4.0, "O_15": 2.0, "city": "PIKESVILLE", "beds": 140.0, "SR_15": 2.0}, {"Diff_star": 0.0, "addr": "520 KERR AVENUE", "SR_14": 4.0, "Q_14": 4.0, "name": "CAROLINE NURSING HOME", "SF_14": 4.0, "SF_15": 4.0, "cnty": "Caroline", "st": "MD", "Zip": 21629.0, "O_14": 4.0, "Q_15": 2.0, "O_15": 4.0, "city": "DENTON", "beds": 87.0, "SR_15": 4.0}, {"Diff_star": 0.0, "addr": "9109 LIBERTY ROAD", "SR_14": 1.0, "Q_14": 5.0, "name": "PATAPSCO VALLEY CENTER", "SF_14": 4.0, "SF_15": 4.0, "cnty": "Baltimore", "st": "MD", "Zip": 21133.0, "O_14": 2.0, "Q_15": 5.0, "O_15": 2.0, "city": "RANDALLSTOWN", "beds": 172.0, "SR_15": 1.0}, {"Diff_star": -1.0, "addr": "3330 WILKENS AVENUE", "SR_14": 2.0, "Q_14": 5.0, "name": "CATON MANOR", "SF_14": 3.0, "SF_15": 3.0, "cnty": "Baltimore City", "st": "MD", "Zip": 21229.0, "O_14": 3.0, "Q_15": 4.0, "O_15": 2.0, "city": "BALTIMORE", "beds": 140.0, "SR_15": 2.0}, {"Diff_star": 0.0, "addr": "613 HAMMONDS LANE", "SR_14": 4.0, "Q_14": 4.0, "name": "HAMMONDS LANE CENTER", "SF_14": 3.0, "SF_15": 3.0, "cnty": "Anne Arundel", "st": "MD", "Zip": 21225.0, "O_14": 4.0, "Q_15": 2.0, "O_15": 4.0, "city": "BROOKLYN PARK", "beds": 129.0, "SR_15": 4.0}, {"Diff_star": -1.0, "addr": "8720 EMGE ROAD", "SR_14": 1.0, "Q_14": 4.0, "name": "LOCH RAVEN CENTER", "SF_14": 4.0, "SF_15": 4.0, "cnty": "Baltimore", "st": "MD", "Zip": 21234.0, "O_14": 2.0, "Q_15": 1.0, "O_15": 1.0, "city": "BALTIMORE", "beds": 94.0, "SR_15": 1.0}, {"Diff_star": 0.0, "addr": "299 HURLEY AVENUE", "SR_14": 2.0, "Q_14": 4.0, "name": "COLLINGSWOOD NSG. & REHAB. CEN", "SF_14": 3.0, "SF_15": 3.0, "cnty": "Montgomery", "st": "MD", "Zip": 20850.0, "O_14": 2.0, "Q_15": 3.0, "O_15": 2.0, "city": "ROCKVILLE", "beds": 160.0, "SR_15": 2.0}, {"Diff_star": 0.0, "addr": "1234 WASHINGTON BOULEVARD", "SR_14": 1.0, "Q_14": 5.0, "name": "GOLDEN LIVINGCENTER- WESTMINSTER", "SF_14": 1.0, "SF_15": 3.0, "cnty": "Carroll", "st": "MD", "Zip": 21157.0, "O_14": 2.0, "Q_15": 3.0, "O_15": 2.0, "city": "WESTMINSTER", "beds": 170.0, "SR_15": 2.0}, {"Diff_star": -1.0, "addr": "6530 DEMOCRACY BOULEVARD", "SR_14": 2.0, "Q_14": 5.0, "name": "MANORCARE HEALTH SERVICES - BETHESDA", "SF_14": 4.0, "SF_15": 2.0, "cnty": "Montgomery", "st": "MD", "Zip": 20817.0, "O_14": 4.0, "Q_15": 4.0, "O_15": 3.0, "city": "BETHESDA", "beds": 110.0, "SR_15": 3.0}, {"Diff_star": 0.0, "addr": "7700 YORK ROAD", "SR_14": 4.0, "Q_14": 4.0, "name": "MULTI-MEDICAL CENTER", "SF_14": 4.0, "SF_15": 4.0, "cnty": "Baltimore", "st": "MD", "Zip": 21204.0, "O_14": 4.0, "Q_15": 2.0, "O_15": 4.0, "city": "TOWSON", "beds": 118.0, "SR_15": 4.0}, {"Diff_star": 0.0, "addr": "16 FUSTING AVENUE", "SR_14": 3.0, "Q_14": 4.0, "name": "CATONSVILLE COMMONS", "SF_14": 3.0, "SF_15": 3.0, "cnty": "Baltimore", "st": "MD", "Zip": 21228.0, "O_14": 3.0, "Q_15": 2.0, "O_15": 3.0, "city": "CATONSVILLE", "beds": 133.0, "SR_15": 3.0}, {"Diff_star": 0.0, "addr": "301 RUSSELL AVENUE", "SR_14": 4.0, "Q_14": 5.0, "name": "WILSON HEALTH CARE CENTER", "SF_14": 5.0, "SF_15": 5.0, "cnty": "Montgomery", "st": "MD", "Zip": 20877.0, "O_14": 5.0, "Q_15": 4.0, "O_15": 5.0, "city": "GAITHERSBURG", "beds": 288.0, "SR_15": 4.0}, {"Diff_star": 0.0, "addr": "1920 ROSEMONT AVENUE", "SR_14": 1.0, "Q_14": 4.0, "name": "CITIZENS CARE AND REHABILITATION CENTER OF FREDERI", "SF_14": 4.0, "SF_15": 4.0, "cnty": "Frederick", "st": "MD", "Zip": 21702.0, "O_14": 2.0, "Q_15": 2.0, "O_15": 2.0, "city": "FREDERICK", "beds": 170.0, "SR_15": 1.0}, {"Diff_star": 0.0, "addr": "10200 LAPLATA ROAD", "SR_14": 4.0, "Q_14": 4.0, "name": "CHARLES CO. NSG & REHAB CTR", "SF_14": 4.0, "SF_15": 3.0, "cnty": "Charles", "st": "MD", "Zip": 20646.0, "O_14": 4.0, "Q_15": 3.0, "O_15": 4.0, "city": "LAPLATA", "beds": 165.0, "SR_15": 4.0}, {"Diff_star": 0.0, "addr": "303 ADCLARE ROAD", "SR_14": 4.0, "Q_14": 5.0, "name": "ROCKVILLE NURSING HOME", "SF_14": 5.0, "SF_15": 5.0, "cnty": "Montgomery", "st": "MD", "Zip": 20850.0, "O_14": 5.0, "Q_15": 5.0, "O_15": 5.0, "city": "ROCKVILLE", "beds": 100.0, "SR_15": 4.0}, {"Diff_star": -1.0, "addr": "8200 GOOD LUCK ROAD", "SR_14": 2.0, "Q_14": 5.0, "name": "MAGNOLIA CENTER", "SF_14": 4.0, "SF_15": 4.0, "cnty": "Prince Georges", "st": "MD", "Zip": 20706.0, "O_14": 4.0, "Q_15": 4.0, "O_15": 3.0, "city": "LANHAM", "beds": 104.0, "SR_15": 2.0}, {"Diff_star": 0.0, "addr": "6600 RIDGE ROAD", "SR_14": 1.0, "Q_14": 5.0, "name": "MANORCARE HEALTH SERVICES - ROSSVILLE", "SF_14": 3.0, "SF_15": 3.0, "cnty": "Baltimore", "st": "MD", "Zip": 21237.0, "O_14": 2.0, "Q_15": 5.0, "O_15": 2.0, "city": "BALTIMORE", "beds": 172.0, "SR_15": 1.0}, {"Diff_star": 0.0, "addr": "1500 PENNSYLVANIA AVENUE", "SR_14": 1.0, "Q_14": 3.0, "name": "WESTERN MD HOSPITAL CENTER", "SF_14": 5.0, "SF_15": 5.0, "cnty": "Washington", "st": "MD", "Zip": 21742.0, "O_14": 2.0, "Q_15": 2.0, "O_15": 2.0, "city": "HAGERSTOWN", "beds": 63.0, "SR_15": 1.0}, {"Diff_star": 0.0, "addr": "100 LAUREL DRIVE", "SR_14": 1.0, "Q_14": 5.0, "name": "LAURELWOOD CARE CENTER AT ELKTON", "SF_14": 4.0, "SF_15": 3.0, "cnty": "Cecil", "st": "MD", "Zip": 21921.0, "O_14": 2.0, "Q_15": 5.0, "O_15": 2.0, "city": "ELKTON", "beds": 133.0, "SR_15": 1.0}, {"Diff_star": 0.0, "addr": "6334 CEDAR LANE", "SR_14": 2.0, "Q_14": 3.0, "name": "LORIEN HEALTH SYSTEMS - COLUMBIA", "SF_14": 4.0, "SF_15": 4.0, "cnty": "Howard", "st": "MD", "Zip": 21044.0, "O_14": 3.0, "Q_15": 2.0, "O_15": 3.0, "city": "COLUMBIA", "beds": 209.0, "SR_15": 2.0}, {"Diff_star": 0.0, "addr": "1183 LUTHER DRIVE", "SR_14": 3.0, "Q_14": 5.0, "name": "RAVENWOOD NURSING CARE CENTER", "SF_14": 3.0, "SF_15": 3.0, "cnty": "Washington", "st": "MD", "Zip": 21740.0, "O_14": 4.0, "Q_15": 5.0, "O_15": 4.0, "city": "HAGERSTOWN", "beds": 84.0, "SR_15": 3.0}, {"Diff_star": -2.0, "addr": "205 ARMSTRONG AVENUE P.O. BOX 50", "SR_14": 2.0, "Q_14": 5.0, "name": "CORSICA HILLS CENTER", "SF_14": 4.0, "SF_15": 3.0, "cnty": "Queen Annes", "st": "MD", "Zip": 21617.0, "O_14": 4.0, "Q_15": 3.0, "O_15": 2.0, "city": "CENTREVILLE", "beds": 120.0, "SR_15": 2.0}, {"Diff_star": -1.0, "addr": "ONE KAYLOR CIRCLE   RT36 & RT40", "SR_14": 3.0, "Q_14": 2.0, "name": "FROSTBURG VILLAGE", "SF_14": 2.0, "SF_15": 2.0, "cnty": "Allegany", "st": "MD", "Zip": 21532.0, "O_14": 3.0, "Q_15": 1.0, "O_15": 2.0, "city": "FROSTBURG", "beds": 122.0, "SR_15": 3.0}, {"Diff_star": 0.0, "addr": "2300 DULANEY VALLEY RD", "SR_14": 3.0, "Q_14": 5.0, "name": "STELLA MARIS, INC.", "SF_14": 5.0, "SF_15": 5.0, "cnty": "Baltimore", "st": "MD", "Zip": 21093.0, "O_14": 5.0, "Q_15": 5.0, "O_15": 5.0, "city": "TIMONIUM", "beds": 448.0, "SR_15": 3.0}, {"Diff_star": 0.0, "addr": "5412 OLD COURT ROAD", "SR_14": 4.0, "Q_14": 5.0, "name": "FUTURE CARE OLD COURT", "SF_14": 3.0, "SF_15": 3.0, "cnty": "Baltimore", "st": "MD", "Zip": 21133.0, "O_14": 5.0, "Q_15": 5.0, "O_15": 5.0, "city": "RANDALLSTOWN", "beds": 144.0, "SR_15": 4.0}, {"Diff_star": 0.0, "addr": "2131 DAVIDSONVILLE ROAD", "SR_14": 5.0, "Q_14": 5.0, "name": "CROFTON CONVALESCENT CENTER", "SF_14": 3.0, "SF_15": 3.0, "cnty": "Anne Arundel", "st": "MD", "Zip": 21114.0, "O_14": 5.0, "Q_15": 4.0, "O_15": 5.0, "city": "CROFTON", "beds": 170.0, "SR_15": 5.0}, {"Diff_star": 0.0, "addr": "430 WEST MARKET STREET", "SR_14": 1.0, "Q_14": 3.0, "name": "SNOW HILL NURSING & REHAB CTR", "SF_14": 3.0, "SF_15": 3.0, "cnty": "Worcester", "st": "MD", "Zip": 21863.0, "O_14": 1.0, "Q_15": 1.0, "O_15": 1.0, "city": "SNOW HILL", "beds": 69.0, "SR_15": 1.0}, {"Diff_star": 0.0, "addr": "13801 YORK ROAD", "SR_14": 3.0, "Q_14": 5.0, "name": "BROADMEAD", "SF_14": 4.0, "SF_15": 4.0, "cnty": "Baltimore", "st": "MD", "Zip": 21030.0, "O_14": 5.0, "Q_15": 5.0, "O_15": 5.0, "city": "COCKEYSVILLE", "beds": 70.0, "SR_15": 3.0}, {"Diff_star": 0.0, "addr": "9701 VEIRS DRIVE", "SR_14": 3.0, "Q_14": 5.0, "name": "NATIONAL LUTHERAN HOME", "SF_14": 4.0, "SF_15": 4.0, "cnty": "Montgomery", "st": "MD", "Zip": 20850.0, "O_14": 5.0, "Q_15": 5.0, "O_15": 5.0, "city": "ROCKVILLE", "beds": 150.0, "SR_15": 3.0}, {"Diff_star": -1.0, "addr": "9715 HEALTHWAY DRIVE,  PO BOX 799", "SR_14": 4.0, "Q_14": 5.0, "name": "BERLIN NURSING AND REHABILITATION CENTER", "SF_14": 2.0, "SF_15": 2.0, "cnty": "Worcester", "st": "MD", "Zip": 21811.0, "O_14": 5.0, "Q_15": 4.0, "O_15": 4.0, "city": "BERLIN", "beds": 192.0, "SR_15": 4.0}, {"Diff_star": -1.0, "addr": "7920 SCOTTS LEVEL ROAD", "SR_14": 1.0, "Q_14": 5.0, "name": "COURTLAND, LLC", "SF_14": 1.0, "SF_15": 1.0, "cnty": "Baltimore", "st": "MD", "Zip": 21208.0, "O_14": 2.0, "Q_15": 4.0, "O_15": 1.0, "city": "BALTIMORE", "beds": 151.0, "SR_15": 1.0}, {"Diff_star": -1.0, "addr": "8710 EMGE ROAD", "SR_14": 2.0, "Q_14": 2.0, "name": "CROMWELL CENTER", "SF_14": 4.0, "SF_15": 4.0, "cnty": "Baltimore", "st": "MD", "Zip": 21234.0, "O_14": 3.0, "Q_15": 1.0, "O_15": 2.0, "city": "BALTIMORE", "beds": 129.0, "SR_15": 2.0}, {"Diff_star": 0.0, "addr": "7200 THIRD AVENUE", "SR_14": 4.0, "Q_14": 5.0, "name": "FAIRHAVEN, INC.", "SF_14": 4.0, "SF_15": 4.0, "cnty": "Carroll", "st": "MD", "Zip": 21784.0, "O_14": 5.0, "Q_15": 5.0, "O_15": 5.0, "city": "SYKESVILLE", "beds": 79.0, "SR_15": 4.0}, {"Diff_star": 0.0, "addr": "P.O. BOX 2018, EMERSON AVE.", "SR_14": 3.0, "Q_14": 1.0, "name": "DEER'S HEAD CENTER", "SF_14": 5.0, "SF_15": 5.0, "cnty": "Wicomico", "st": "MD", "Zip": 21801.0, "O_14": 3.0, "Q_15": 1.0, "O_15": 3.0, "city": "SALISBURY", "beds": 80.0, "SR_15": 3.0}, {"Diff_star": -1.0, "addr": "200 ST. LUKE'S CIRCLE", "SR_14": 2.0, "Q_14": 5.0, "name": "CARROLL LUTHERAN VILLAGE", "SF_14": 4.0, "SF_15": 4.0, "cnty": "Carroll", "st": "MD", "Zip": 21157.0, "O_14": 4.0, "Q_15": 4.0, "O_15": 3.0, "city": "WESTMINSTER", "beds": 103.0, "SR_15": 2.0}, {"Diff_star": -2.0, "addr": "1006 MARKET STREET", "SR_14": 4.0, "Q_14": 4.0, "name": "HARTLEY HALL NURSING AND REHABILITATION", "SF_14": 4.0, "SF_15": 4.0, "cnty": "Worcester", "st": "MD", "Zip": 21851.0, "O_14": 4.0, "Q_15": 3.0, "O_15": 2.0, "city": "POCOMOKE CITY", "beds": 73.0, "SR_15": 1.0}, {"Diff_star": 0.0, "addr": "7232 GERMAN HILL ROAD", "SR_14": 1.0, "Q_14": 4.0, "name": "HERITAGE CENTER", "SF_14": 3.0, "SF_15": 3.0, "cnty": "Baltimore", "st": "MD", "Zip": 21222.0, "O_14": 1.0, "Q_15": 4.0, "O_15": 1.0, "city": "DUNDALK", "beds": 177.0, "SR_15": 1.0}, {"Diff_star": 0.0, "addr": "7309 SECOND AVENUE", "SR_14": 1.0, "Q_14": 4.0, "name": "TRANSITIONS HEALTHCARE AT SYKESVILLE", "SF_14": 3.0, "SF_15": 3.0, "cnty": "Carroll", "st": "MD", "Zip": 21784.0, "O_14": 1.0, "Q_15": 2.0, "O_15": 1.0, "city": "SYKESVILLE", "beds": 118.0, "SR_15": 1.0}, {"Diff_star": -1.0, "addr": "501 DUTCHMAN'S LANE", "SR_14": 4.0, "Q_14": 5.0, "name": "WILLIAM HILL MANOR HEALTHCARE", "SF_14": 4.0, "SF_15": 4.0, "cnty": "Talbot", "st": "MD", "Zip": 21601.0, "O_14": 5.0, "Q_15": 4.0, "O_15": 4.0, "city": "EASTON", "beds": 90.0, "SR_15": 4.0}, {"Diff_star": 0.0, "addr": "7575 E. HOWARD ROAD", "SR_14": 2.0, "Q_14": 5.0, "name": "MARLEY NECK HEALTH AND REHABILITATION CENTER", "SF_14": 3.0, "SF_15": 3.0, "cnty": "Anne Arundel", "st": "MD", "Zip": 21060.0, "O_14": 3.0, "Q_15": 5.0, "O_15": 3.0, "city": "GLEN BURNIE", "beds": 95.0, "SR_15": 2.0}, {"Diff_star": -1.0, "addr": "14200 LAUREL PARK DRIVE", "SR_14": 3.0, "Q_14": 5.0, "name": "PATUXENT RIVER HEALTH AND REHABILITATION CENTER", "SF_14": 1.0, "SF_15": 1.0, "cnty": "Prince Georges", "st": "MD", "Zip": 20707.0, "O_14": 3.0, "Q_15": 4.0, "O_15": 2.0, "city": "LAUREL", "beds": 177.0, "SR_15": 3.0}, {"Diff_star": -1.0, "addr": "21412 GREAT MILLS ROAD", "SR_14": 4.0, "Q_14": 5.0, "name": "CHESAPEAKE SHORES", "SF_14": 3.0, "SF_15": 3.0, "cnty": "St. Marys", "st": "MD", "Zip": 20653.0, "O_14": 5.0, "Q_15": 4.0, "O_15": 4.0, "city": "LEXINGTON PARK", "beds": 117.0, "SR_15": 4.0}, {"Diff_star": -1.0, "addr": "310 GENESIS WAY", "SR_14": 4.0, "Q_14": 5.0, "name": "SEVERNA PARK CENTER", "SF_14": 4.0, "SF_15": 4.0, "cnty": "Anne Arundel", "st": "MD", "Zip": 21146.0, "O_14": 5.0, "Q_15": 3.0, "O_15": 4.0, "city": "SEVERNA PARK", "beds": 141.0, "SR_15": 4.0}, {"Diff_star": 0.0, "addr": "141 SOUTH MAIN STREET", "SR_14": 1.0, "Q_14": 2.0, "name": "REEDERS MEMORIAL HOME", "SF_14": 1.0, "SF_15": 1.0, "cnty": "Washington", "st": "MD", "Zip": 21713.0, "O_14": 1.0, "Q_15": 1.0, "O_15": 1.0, "city": "BOONSBORO", "beds": 157.0, "SR_15": 1.0}, {"Diff_star": 0.0, "addr": "4922 LASALLE ROAD", "SR_14": 1.0, "Q_14": 4.0, "name": "ST THOMAS MORE MEDICAL COMPLEX", "SF_14": 5.0, "SF_15": 5.0, "cnty": "Prince Georges", "st": "MD", "Zip": 20782.0, "O_14": 2.0, "Q_15": 2.0, "O_15": 2.0, "city": "HYATTSVILLE", "beds": 260.0, "SR_15": 1.0}, {"Diff_star": -1.0, "addr": "12021 LIVINGSTON ROAD", "SR_14": 3.0, "Q_14": 5.0, "name": "FORT WASHINGTON HEALTH & REHABILITATION CENTER", "SF_14": 1.0, "SF_15": 1.0, "cnty": "Prince Georges", "st": "MD", "Zip": 20744.0, "O_14": 3.0, "Q_15": 4.0, "O_15": 2.0, "city": "FORT WASHINGTON", "beds": 150.0, "SR_15": 3.0}, {"Diff_star": 1.0, "addr": "1046 OLD NORTH POINT ROAD", "SR_14": 3.0, "Q_14": 5.0, "name": "FUTURE CARE NORTHPOINT", "SF_14": 3.0, "SF_15": 3.0, "cnty": "Baltimore", "st": "MD", "Zip": 21224.0, "O_14": 4.0, "Q_15": 5.0, "O_15": 5.0, "city": "BALTIMORE", "beds": 180.0, "SR_15": 4.0}, {"Diff_star": 0.0, "addr": "1221 WAUGH CHAPEL ROAD", "SR_14": 1.0, "Q_14": 4.0, "name": "WAUGH CHAPEL CENTER", "SF_14": 4.0, "SF_15": 3.0, "cnty": "Anne Arundel", "st": "MD", "Zip": 21054.0, "O_14": 2.0, "Q_15": 4.0, "O_15": 2.0, "city": "GAMBRILLS", "beds": 47.0, "SR_15": 2.0}, {"Diff_star": 0.0, "addr": "420 COLONIAL DR", "SR_14": 1.0, "Q_14": 4.0, "name": "ENVOY OF DENTON", "SF_14": 3.0, "SF_15": 3.0, "cnty": "Caroline", "st": "MD", "Zip": 21629.0, "O_14": 1.0, "Q_15": 2.0, "O_15": 1.0, "city": "DENTON", "beds": 100.0, "SR_15": 1.0}, {"Diff_star": 0.0, "addr": "1 MAGNOLIA DRIVE", "SR_14": 3.0, "Q_14": 4.0, "name": "LAPLATA CENTER", "SF_14": 2.0, "SF_15": 2.0, "cnty": "Charles", "st": "MD", "Zip": 20646.0, "O_14": 3.0, "Q_15": 3.0, "O_15": 3.0, "city": "LAPLATA", "beds": 142.0, "SR_15": 3.0}, {"Diff_star": 0.0, "addr": "830 W 40 STREET", "SR_14": 4.0, "Q_14": 5.0, "name": "ROLAND PARK PLACE", "SF_14": 5.0, "SF_15": 5.0, "cnty": "Baltimore City", "st": "MD", "Zip": 21211.0, "O_14": 5.0, "Q_15": 5.0, "O_15": 5.0, "city": "BALTIMORE", "beds": 71.0, "SR_15": 4.0}, {"Diff_star": -1.0, "addr": "3000 NORTH RIDGE RD.", "SR_14": 1.0, "Q_14": 5.0, "name": "ELLICOTT CITY HEALTH & REHABILITATION CENTER", "SF_14": 3.0, "SF_15": 3.0, "cnty": "Howard", "st": "MD", "Zip": 21043.0, "O_14": 2.0, "Q_15": 4.0, "O_15": 1.0, "city": "ELLICOTT CITY", "beds": 155.0, "SR_15": 1.0}, {"Diff_star": 0.0, "addr": "29449 CHARLOTTE HALL ROAD", "SR_14": 3.0, "Q_14": 4.0, "name": "CHARLOTTE HALL VETERANS HOME", "SF_14": 4.0, "SF_15": 4.0, "cnty": "St. Marys", "st": "MD", "Zip": 20622.0, "O_14": 4.0, "Q_15": 2.0, "O_15": 4.0, "city": "CHARLOTTE HALL", "beds": 286.0, "SR_15": 3.0}, {"Diff_star": 0.0, "addr": "9701 MEDICAL CENTER DRIVE", "SR_14": 1.0, "Q_14": 4.0, "name": "SHADY GROVE CENTER", "SF_14": 3.0, "SF_15": 3.0, "cnty": "Montgomery", "st": "MD", "Zip": 20850.0, "O_14": 1.0, "Q_15": 3.0, "O_15": 1.0, "city": "ROCKVILLE", "beds": 134.0, "SR_15": 1.0}, {"Diff_star": 0.0, "addr": "7520 SURRATTS ROAD", "SR_14": 1.0, "Q_14": 5.0, "name": "BRADFORD OAKS CENTER", "SF_14": 3.0, "SF_15": 2.0, "cnty": "Prince Georges", "st": "MD", "Zip": 20735.0, "O_14": 2.0, "Q_15": 5.0, "O_15": 2.0, "city": "CLINTON", "beds": 180.0, "SR_15": 1.0}, {"Diff_star": 0.0, "addr": "3227 BEL PRE ROAD", "SR_14": 1.0, "Q_14": 5.0, "name": "LAYHILL CENTER", "SF_14": 3.0, "SF_15": 4.0, "cnty": "Montgomery", "st": "MD", "Zip": 20906.0, "O_14": 2.0, "Q_15": 4.0, "O_15": 2.0, "city": "SILVER SPRING", "beds": 129.0, "SR_15": 1.0}, {"Diff_star": -1.0, "addr": "10714 POTOMAC TENNIS LANE", "SR_14": 4.0, "Q_14": 5.0, "name": "MANORCARE HEALTH SERVICES - POTOMAC", "SF_14": 3.0, "SF_15": 3.0, "cnty": "Montgomery", "st": "MD", "Zip": 20854.0, "O_14": 5.0, "Q_15": 4.0, "O_15": 4.0, "city": "POTOMAC", "beds": 158.0, "SR_15": 4.0}, {"Diff_star": 0.0, "addr": "4000 RIVER CRESCENT DRIVE", "SR_14": 5.0, "Q_14": 4.0, "name": "GINGER COVE", "SF_14": 5.0, "SF_15": 5.0, "cnty": "Anne Arundel", "st": "MD", "Zip": 21401.0, "O_14": 5.0, "Q_15": 2.0, "O_15": 5.0, "city": "ANNAPOLIS", "beds": 55.0, "SR_15": 5.0}, {"Diff_star": 0.0, "addr": "1300 S. ELLWOOD AVENUE", "SR_14": 2.0, "Q_14": 5.0, "name": "FUTURE CARE CANTON HARBOR", "SF_14": 4.0, "SF_15": 4.0, "cnty": "Baltimore City", "st": "MD", "Zip": 21224.0, "O_14": 4.0, "Q_15": 5.0, "O_15": 4.0, "city": "BALTIMORE", "beds": 160.0, "SR_15": 2.0}, {"Diff_star": 0.0, "addr": "9001 CHERRY LANE", "SR_14": 4.0, "Q_14": 4.0, "name": "CHERRY LANE", "SF_14": 3.0, "SF_15": 3.0, "cnty": "Prince Georges", "st": "MD", "Zip": 20708.0, "O_14": 4.0, "Q_15": 2.0, "O_15": 4.0, "city": "LAUREL", "beds": 155.0, "SR_15": 4.0}, {"Diff_star": -1.0, "addr": "711 ACADEMY ROAD", "SR_14": 3.0, "Q_14": 5.0, "name": "FREDERICK VILLA NURSING & REHAB CENTER", "SF_14": 2.0, "SF_15": 2.0, "cnty": "Baltimore", "st": "MD", "Zip": 21228.0, "O_14": 4.0, "Q_15": 3.0, "O_15": 3.0, "city": "CATONSVILLE", "beds": 125.0, "SR_15": 3.0}, {"Diff_star": -1.0, "addr": "11974 EDGEHILL TERRACE", "SR_14": 3.0, "Q_14": 4.0, "name": "AURORA SENIOR LIVING OF MANOKIN, LLC", "SF_14": 4.0, "SF_15": 3.0, "cnty": "Somerset", "st": "MD", "Zip": 21853.0, "O_14": 4.0, "Q_15": 3.0, "O_15": 3.0, "city": "PRINCESS ANNE", "beds": 135.0, "SR_15": 3.0}, {"Diff_star": 0.0, "addr": "10450 LOTTSFORD ROAD", "SR_14": 4.0, "Q_14": 4.0, "name": "COLLINGTON EPISCOPAL LIFE CARE", "SF_14": 5.0, "SF_15": 5.0, "cnty": "Prince Georges", "st": "MD", "Zip": 20721.0, "O_14": 5.0, "Q_15": 3.0, "O_15": 5.0, "city": "MITCHELLVILLE", "beds": 44.0, "SR_15": 4.0}, {"Diff_star": -1.0, "addr": "1300 WINDLASS DRIVE", "SR_14": 2.0, "Q_14": 5.0, "name": "OAKWOOD CARE CENTER", "SF_14": 4.0, "SF_15": 4.0, "cnty": "Baltimore", "st": "MD", "Zip": 21220.0, "O_14": 4.0, "Q_15": 4.0, "O_15": 3.0, "city": "BALTIMORE", "beds": 130.0, "SR_15": 2.0}, {"Diff_star": -1.0, "addr": "1217 WEST FAYETTE STREET", "SR_14": 2.0, "Q_14": 5.0, "name": "FAYETTE HEALTH AND REHABILITATION CENTER", "SF_14": 4.0, "SF_15": 3.0, "cnty": "Baltimore City", "st": "MD", "Zip": 21223.0, "O_14": 4.0, "Q_15": 5.0, "O_15": 3.0, "city": "BALTIMORE", "beds": 156.0, "SR_15": 2.0}, {"Diff_star": 0.0, "addr": "30 NORTH PLACE", "SR_14": 1.0, "Q_14": 4.0, "name": "GOLDEN LIVING CENTER - FREDERICK", "SF_14": 1.0, "SF_15": 1.0, "cnty": "Frederick", "st": "MD", "Zip": 21701.0, "O_14": 1.0, "Q_15": 2.0, "O_15": 1.0, "city": "FREDERICK", "beds": 120.0, "SR_15": 1.0}, {"Diff_star": -1.0, "addr": "305 COLLEGE PARKWAY", "SR_14": 4.0, "Q_14": 5.0, "name": "FUTURE CARE CHESAPEAKE", "SF_14": 4.0, "SF_15": 4.0, "cnty": "Anne Arundel", "st": "MD", "Zip": 21012.0, "O_14": 5.0, "Q_15": 4.0, "O_15": 4.0, "city": "ARNOLD", "beds": 154.0, "SR_15": 4.0}, {"Diff_star": 0.0, "addr": "5721 GROSVENOR LANE", "SR_14": 1.0, "Q_14": 5.0, "name": "BETHESDA HEALTH AND REHABILITATION", "SF_14": 2.0, "SF_15": 2.0, "cnty": "Montgomery", "st": "MD", "Zip": 20814.0, "O_14": 2.0, "Q_15": 5.0, "O_15": 2.0, "city": "BETHESDA", "beds": 200.0, "SR_15": 1.0}, {"Diff_star": 0.0, "addr": "85 HOSPITAL ROAD", "SR_14": 3.0, "Q_14": 4.0, "name": "CALVERT COUNTY NURSING CTR.", "SF_14": 4.0, "SF_15": 4.0, "cnty": "Calvert", "st": "MD", "Zip": 20678.0, "O_14": 4.0, "Q_15": 3.0, "O_15": 4.0, "city": "PRINCE FREDERICK", "beds": 149.0, "SR_15": 3.0}, {"Diff_star": 0.0, "addr": "1881 TELEGRAPH ROAD", "SR_14": 5.0, "Q_14": 5.0, "name": "CALVERT MANOR HEALTH CARE CENT", "SF_14": 4.0, "SF_15": 3.0, "cnty": "Cecil", "st": "MD", "Zip": 21911.0, "O_14": 5.0, "Q_15": 5.0, "O_15": 5.0, "city": "RISING SUN", "beds": 144.0, "SR_15": 5.0}, {"Diff_star": -1.0, "addr": "520 GLENBURN AVENUE", "SR_14": 1.0, "Q_14": 5.0, "name": "SIGNATURE HEALTHCARE AT MALLARD BAY", "SF_14": 4.0, "SF_15": 3.0, "cnty": "Dorchester", "st": "MD", "Zip": 21613.0, "O_14": 2.0, "Q_15": 4.0, "O_15": 1.0, "city": "CAMBRIDGE", "beds": 160.0, "SR_15": 1.0}, {"Diff_star": -2.0, "addr": "12020 REISTERSTOWN ROAD", "SR_14": 3.0, "Q_14": 5.0, "name": "FUTURE CARE CHERRYWOOD", "SF_14": 4.0, "SF_15": 3.0, "cnty": "Baltimore", "st": "MD", "Zip": 21136.0, "O_14": 5.0, "Q_15": 3.0, "O_15": 3.0, "city": "REISTERSTOWN", "beds": 168.0, "SR_15": 3.0}, {"Diff_star": 0.0, "addr": "6811 CAMPFIELD ROAD", "SR_14": 2.0, "Q_14": 5.0, "name": "AUGSBURG LUTHERAN HOME", "SF_14": 4.0, "SF_15": 4.0, "cnty": "Baltimore", "st": "MD", "Zip": 21207.0, "O_14": 4.0, "Q_15": 5.0, "O_15": 4.0, "city": "BALTIMORE", "beds": 129.0, "SR_15": 2.0}, {"Diff_star": 0.0, "addr": "109 FOREST VALLEY DRIVE", "SR_14": 4.0, "Q_14": 4.0, "name": "FOREST HILL HEALTH AND REHABILITATION CENTER", "SF_14": "", "SF_15": "", "cnty": "Harford", "st": "MD", "Zip": 21050.0, "O_14": 4.0, "Q_15": 2.0, "O_15": 4.0, "city": "FOREST HILL", "beds": 156.0, "SR_15": 4.0}, {"Diff_star": 0.0, "addr": "4017 LIBERTY HEIGHTS AVE.", "SR_14": 1.0, "Q_14": 5.0, "name": "BRIDGEPARK HEALTHCARE CENTER - FRM LIBERTY HEIGHTS", "SF_14": 4.0, "SF_15": 4.0, "cnty": "Baltimore City", "st": "MD", "Zip": 21207.0, "O_14": 2.0, "Q_15": 4.0, "O_15": 2.0, "city": "BALTIMORE", "beds": 106.0, "SR_15": 1.0}, {"Diff_star": 0.0, "addr": "2015 EAST-WEST HIGHWAY", "SR_14": 1.0, "Q_14": 5.0, "name": "FOX CHASE REHAB & NURSING CENTER", "SF_14": 3.0, "SF_15": 3.0, "cnty": "Montgomery", "st": "MD", "Zip": 20910.0, "O_14": 2.0, "Q_15": 5.0, "O_15": 2.0, "city": "SILVER SPRING", "beds": 87.0, "SR_15": 1.0}, {"Diff_star": -1.0, "addr": "154 N. ARTIZAN STREET", "SR_14": 3.0, "Q_14": 4.0, "name": "WILLIAMSPORT NURSING HOME", "SF_14": 4.0, "SF_15": 3.0, "cnty": "Washington", "st": "MD", "Zip": 21795.0, "O_14": 4.0, "Q_15": 4.0, "O_15": 3.0, "city": "WILLIAMSPORT", "beds": 121.0, "SR_15": 3.0}, {"Diff_star": 0.0, "addr": "6012 JEFFERSON BLVD", "SR_14": 2.0, "Q_14": 5.0, "name": "VINDOBONA NURSING AND REHABILITATION CENTER", "SF_14": 4.0, "SF_15": 3.0, "cnty": "Frederick", "st": "MD", "Zip": 21714.0, "O_14": 4.0, "Q_15": 5.0, "O_15": 4.0, "city": "BRADDOCK HEIGHTS", "beds": 57.0, "SR_15": 3.0}, {"Diff_star": 0.0, "addr": "18131 SLADE SCHOOL ROAD", "SR_14": 3.0, "Q_14": 4.0, "name": "BROOKE GROVE REHAB. & NSG CTR", "SF_14": 3.0, "SF_15": 3.0, "cnty": "Montgomery", "st": "MD", "Zip": 20860.0, "O_14": 3.0, "Q_15": 3.0, "O_15": 3.0, "city": "SANDY SPRING", "beds": 168.0, "SR_15": 3.0}, {"Diff_star": 0.0, "addr": "1 EASTERN BOULEVARD", "SR_14": 2.0, "Q_14": 4.0, "name": "RIVERVIEW REHABILITATION & HEALTH CENTER", "SF_14": 2.0, "SF_15": 2.0, "cnty": "Baltimore", "st": "MD", "Zip": 21221.0, "O_14": 2.0, "Q_15": 2.0, "O_15": 2.0, "city": "BALTIMORE", "beds": 238.0, "SR_15": 2.0}, {"Diff_star": 0.0, "addr": "531 STEVENSON LANE", "SR_14": 1.0, "Q_14": 5.0, "name": "HOLLY HILL NURSING AND REHABILITATION CENTER", "SF_14": 1.0, "SF_15": 1.0, "cnty": "Baltimore", "st": "MD", "Zip": 21286.0, "O_14": 2.0, "Q_15": 5.0, "O_15": 2.0, "city": "TOWSON", "beds": 75.0, "SR_15": 1.0}, {"Diff_star": 0.0, "addr": "4800 SETON DRIVE", "SR_14": 3.0, "Q_14": 5.0, "name": "LOCHEARN NURSING HOME, LLC", "SF_14": 4.0, "SF_15": 4.0, "cnty": "Baltimore City", "st": "MD", "Zip": 21215.0, "O_14": 5.0, "Q_15": 5.0, "O_15": 5.0, "city": "BALTIMORE", "beds": 200.0, "SR_15": 3.0}, {"Diff_star": 0.0, "addr": "6116 BELAIR ROAD", "SR_14": 1.0, "Q_14": 4.0, "name": "OVERLEA HEALTH AND REHABILITATION CENTER", "SF_14": 4.0, "SF_15": 4.0, "cnty": "Baltimore City", "st": "MD", "Zip": 21206.0, "O_14": 2.0, "Q_15": 3.0, "O_15": 2.0, "city": "BALTIMORE", "beds": 160.0, "SR_15": 1.0}, {"Diff_star": 0.0, "addr": "17340 QUAKER LANE", "SR_14": 4.0, "Q_14": 4.0, "name": "FRIENDS NURSING HOME", "SF_14": 4.0, "SF_15": 4.0, "cnty": "Montgomery", "st": "MD", "Zip": 20860.0, "O_14": 4.0, "Q_15": 4.0, "O_15": 4.0, "city": "SANDY SPRING", "beds": 82.0, "SR_15": 4.0}, {"Diff_star": 0.0, "addr": "3210 POWDER MILL ROAD", "SR_14": 5.0, "Q_14": 5.0, "name": "HILLHAVEN NURSING CENTER", "SF_14": 5.0, "SF_15": 5.0, "cnty": "Prince Georges", "st": "MD", "Zip": 20783.0, "O_14": 5.0, "Q_15": 5.0, "O_15": 5.0, "city": "ADELPHI", "beds": 66.0, "SR_15": 5.0}, {"Diff_star": 0.0, "addr": "2095 ROCKROSE AVENUE", "SR_14": 3.0, "Q_14": 5.0, "name": "ALICE MANOR REHABILITATION CENTER", "SF_14": 4.0, "SF_15": 4.0, "cnty": "Baltimore City", "st": "MD", "Zip": 21211.0, "O_14": 5.0, "Q_15": 5.0, "O_15": 5.0, "city": "BALTIMORE", "beds": 105.0, "SR_15": 3.0}, {"Diff_star": 0.0, "addr": "1113 MARY DRIVE", "SR_14": 3.0, "Q_14": 5.0, "name": "DENNETT ROAD MANOR", "SF_14": 4.0, "SF_15": 4.0, "cnty": "Garrett", "st": "MD", "Zip": 21550.0, "O_14": 5.0, "Q_15": 5.0, "O_15": 5.0, "city": "OAKLAND", "beds": 99.0, "SR_15": 3.0}, {"Diff_star": 0.0, "addr": "200 EAST 16TH STREET", "SR_14": 2.0, "Q_14": 5.0, "name": "NORTHAMPTON MANOR", "SF_14": 3.0, "SF_15": 3.0, "cnty": "Frederick", "st": "MD", "Zip": 21701.0, "O_14": 3.0, "Q_15": 5.0, "O_15": 3.0, "city": "FREDERICK", "beds": 190.0, "SR_15": 2.0}, {"Diff_star": 0.0, "addr": "22 SOUTH ATHOL AVENUE", "SR_14": 3.0, "Q_14": 4.0, "name": "FUTURE CARE IRVINGTON", "SF_14": 4.0, "SF_15": 4.0, "cnty": "Baltimore City", "st": "MD", "Zip": 21229.0, "O_14": 4.0, "Q_15": 2.0, "O_15": 4.0, "city": "BALTIMORE", "beds": 200.0, "SR_15": 3.0}, {"Diff_star": 1.0, "addr": "4511 ROBOSSON ROAD", "SR_14": 1.0, "Q_14": 4.0, "name": "MID-ATLANTIC OF CHAPEL HILL, LLC", "SF_14": 3.0, "SF_15": 3.0, "cnty": "Baltimore", "st": "MD", "Zip": 21133.0, "O_14": 1.0, "Q_15": 3.0, "O_15": 2.0, "city": "RANDALLSTOWN", "beds": 63.0, "SR_15": 2.0}, {"Diff_star": 0.0, "addr": "525 GLENBURN AVENUE", "SR_14": 4.0, "Q_14": 5.0, "name": "CHESAPEAKE WOODS CENTER", "SF_14": 4.0, "SF_15": 3.0, "cnty": "Dorchester", "st": "MD", "Zip": 21613.0, "O_14": 5.0, "Q_15": 5.0, "O_15": 5.0, "city": "CAMBRIDGE", "beds": 98.0, "SR_15": 4.0}, {"Diff_star": 0.0, "addr": "709 MAIDEN CHOICE LANE", "SR_14": 5.0, "Q_14": 5.0, "name": "CHARLESTOWN COMMUNITY INC", "SF_14": 4.0, "SF_15": 4.0, "cnty": "Baltimore", "st": "MD", "Zip": 21228.0, "O_14": 5.0, "Q_15": 5.0, "O_15": 5.0, "city": "CATONSVILLE", "beds": 206.0, "SR_15": 5.0}, {"Diff_star": 0.0, "addr": "2501 MUSGROVE ROAD", "SR_14": 2.0, "Q_14": 5.0, "name": "MANORCARE HEALTH SERVICES  -SILVER SPRING", "SF_14": 3.0, "SF_15": 3.0, "cnty": "Montgomery", "st": "MD", "Zip": 20904.0, "O_14": 3.0, "Q_15": 5.0, "O_15": 3.0, "city": "SILVER SPRING", "beds": 148.0, "SR_15": 2.0}, {"Diff_star": 0.0, "addr": "16505 VIRGINIA AVENUE", "SR_14": 4.0, "Q_14": 4.0, "name": "HOMEWOOD AT WILLIAMSPORT MD", "SF_14": 4.0, "SF_15": 4.0, "cnty": "Washington", "st": "MD", "Zip": 21795.0, "O_14": 4.0, "Q_15": 4.0, "O_15": 4.0, "city": "WILLIAMSPORT", "beds": 82.0, "SR_15": 4.0}, {"Diff_star": 2.0, "addr": "515 BRIGHTFIELD ROAD", "SR_14": 2.0, "Q_14": 4.0, "name": "POWERBACK REHABILITATION", "SF_14": 5.0, "SF_15": 5.0, "cnty": "Baltimore", "st": "MD", "Zip": 21093.0, "O_14": 3.0, "Q_15": 2.0, "O_15": 5.0, "city": "LUTHERVILLE", "beds": 110.0, "SR_15": 4.0}, {"Diff_star": 0.0, "addr": "5743 EDMONDSON AVENUE", "SR_14": 3.0, "Q_14": 4.0, "name": "RIDGEWAY MANOR NURSING & REHABILITATION CENTER", "SF_14": 3.0, "SF_15": 3.0, "cnty": "Baltimore", "st": "MD", "Zip": 21228.0, "O_14": 3.0, "Q_15": 4.0, "O_15": 3.0, "city": "CATONSVILLE", "beds": 61.0, "SR_15": 3.0}, {"Diff_star": 0.0, "addr": "1000 DALEVIEW DRIVE", "SR_14": 2.0, "Q_14": 5.0, "name": "ALTHEA WOODLAND NURSING HOME", "SF_14": 4.0, "SF_15": 4.0, "cnty": "Montgomery", "st": "MD", "Zip": 20901.0, "O_14": 4.0, "Q_15": 5.0, "O_15": 4.0, "city": "SILVER SPRING", "beds": 50.0, "SR_15": 2.0}, {"Diff_star": 0.0, "addr": "725 MOUNT WILSON LANE", "SR_14": 4.0, "Q_14": 5.0, "name": "NORTH OAKS", "SF_14": 4.0, "SF_15": 4.0, "cnty": "Baltimore", "st": "MD", "Zip": 21208.0, "O_14": 5.0, "Q_15": 5.0, "O_15": 5.0, "city": "BALTIMORE", "beds": 37.0, "SR_15": 4.0}, {"Diff_star": -1.0, "addr": "730 FURNACE STREET", "SR_14": 4.0, "Q_14": 5.0, "name": "ALLEGANY HEALTH NURSING AND REHAB", "SF_14": 3.0, "SF_15": 2.0, "cnty": "Allegany", "st": "MD", "Zip": 21502.0, "O_14": 5.0, "Q_15": 4.0, "O_15": 4.0, "city": "CUMBERLAND", "beds": 153.0, "SR_15": 4.0}, {"Diff_star": 0.0, "addr": "9211 STUART LANE", "SR_14": 2.0, "Q_14": 5.0, "name": "CLINTON NURSING & REHABILITATION CENTER", "SF_14": 3.0, "SF_15": 3.0, "cnty": "Prince Georges", "st": "MD", "Zip": 20735.0, "O_14": 3.0, "Q_15": 5.0, "O_15": 3.0, "city": "CLINTON", "beds": 267.0, "SR_15": 2.0}, {"Diff_star": 0.0, "addr": "706 EAST ALDER STREET", "SR_14": 2.0, "Q_14": 4.0, "name": "OAKLAND NURSING & REHABILITATION CENTER", "SF_14": 3.0, "SF_15": 3.0, "cnty": "Garrett", "st": "MD", "Zip": 21550.0, "O_14": 2.0, "Q_15": 3.0, "O_15": 2.0, "city": "OAKLAND", "beds": 112.0, "SR_15": 2.0}, {"Diff_star": -1.0, "addr": "1123 BELCAMP RD", "SR_14": 4.0, "Q_14": 5.0, "name": "LORIEN HEALTH SYSTEMS - RIVERSIDE", "SF_14": 4.0, "SF_15": 4.0, "cnty": "Harford", "st": "MD", "Zip": 21017.0, "O_14": 5.0, "Q_15": 3.0, "O_15": 4.0, "city": "BELCAMP", "beds": 119.0, "SR_15": 4.0}, {"Diff_star": 0.0, "addr": "5215 CEDAR LANE", "SR_14": 5.0, "Q_14": 4.0, "name": "CARRIAGE HILL BETHESDA", "SF_14": 4.0, "SF_15": 4.0, "cnty": "Montgomery", "st": "MD", "Zip": 20814.0, "O_14": 5.0, "Q_15": 2.0, "O_15": 5.0, "city": "BETHESDA", "beds": 108.0, "SR_15": 5.0}, {"Diff_star": 0.0, "addr": "501 CAMPUS AVENUE", "SR_14": 5.0, "Q_14": 5.0, "name": "HERON POINT OF CHESTERTOWN", "SF_14": 4.0, "SF_15": 4.0, "cnty": "Kent", "st": "MD", "Zip": 21620.0, "O_14": 5.0, "Q_15": 5.0, "O_15": 5.0, "city": "CHESTERTOWN", "beds": 38.0, "SR_15": 5.0}, {"Diff_star": -3.0, "addr": "1454 FAIRFIELD LOOP ROAD", "SR_14": 3.0, "Q_14": 5.0, "name": "FAIRFIELD NURSING & REHABILITATION CENTER", "SF_14": 3.0, "SF_15": 2.0, "cnty": "Anne Arundel", "st": "MD", "Zip": 21032.0, "O_14": 4.0, "Q_15": 4.0, "O_15": 1.0, "city": "CROWNSVILLE", "beds": 96.0, "SR_15": 1.0}, {"Diff_star": -1.0, "addr": "25701 SHADY LANE S. W.", "SR_14": 1.0, "Q_14": 4.0, "name": "MORAN MANOR NURSING HOME", "SF_14": 4.0, "SF_15": 2.0, "cnty": "Allegany", "st": "MD", "Zip": 21562.0, "O_14": 2.0, "Q_15": 2.0, "O_15": 1.0, "city": "WESTERNPORT", "beds": 130.0, "SR_15": 1.0}, {"Diff_star": -1.0, "addr": "1601 E. BELVEDERE AVENUE", "SR_14": 3.0, "Q_14": 5.0, "name": "GOOD SAMARITAN NURSING CENTER", "SF_14": 4.0, "SF_15": 4.0, "cnty": "Baltimore City", "st": "MD", "Zip": 21239.0, "O_14": 5.0, "Q_15": 5.0, "O_15": 4.0, "city": "BALTIMORE", "beds": 146.0, "SR_15": 2.0}, {"Diff_star": -1.0, "addr": "10301 NORTH EAST CHRISTIE ROAD", "SR_14": 1.0, "Q_14": 5.0, "name": "DEVLIN MANOR NURSING HOME", "SF_14": 4.0, "SF_15": 3.0, "cnty": "Allegany", "st": "MD", "Zip": 21501.0, "O_14": 2.0, "Q_15": 4.0, "O_15": 1.0, "city": "CUMBERLAND", "beds": 124.0, "SR_15": 1.0}, {"Diff_star": 0.0, "addr": "7407  WILLOW ROAD", "SR_14": 2.0, "Q_14": 4.0, "name": "HOMEWOOD AT CRUMLAND FARMS", "SF_14": 4.0, "SF_15": 4.0, "cnty": "Frederick", "st": "MD", "Zip": 21702.0, "O_14": 3.0, "Q_15": 2.0, "O_15": 3.0, "city": "FREDERICK", "beds": 117.0, "SR_15": 2.0}, {"Diff_star": 0.0, "addr": "3701 INTERNATIONAL DRIVE", "SR_14": 4.0, "Q_14": 5.0, "name": "BEDFORD COURT HEALTHCARE CENT.", "SF_14": 4.0, "SF_15": 3.0, "cnty": "Montgomery", "st": "MD", "Zip": 20906.0, "O_14": 5.0, "Q_15": 5.0, "O_15": 5.0, "city": "SILVER SPRING", "beds": 60.0, "SR_15": 4.0}, {"Diff_star": 0.0, "addr": "1442 BUCKHORN ROAD", "SR_14": 5.0, "Q_14": 5.0, "name": "BRINTON WOODS NURSING & REHABILITATION CENTER", "SF_14": 4.0, "SF_15": 3.0, "cnty": "Carroll", "st": "MD", "Zip": 21784.0, "O_14": 5.0, "Q_15": 5.0, "O_15": 5.0, "city": "SYKESVILLE", "beds": 60.0, "SR_15": 5.0}, {"Diff_star": 0.0, "addr": "2700 N. CHARLES ST.", "SR_14": 3.0, "Q_14": 5.0, "name": "FUTURE CARE HOMEWOOD", "SF_14": 4.0, "SF_15": 4.0, "cnty": "Baltimore City", "st": "MD", "Zip": 21218.0, "O_14": 5.0, "Q_15": 5.0, "O_15": 5.0, "city": "BALTIMORE", "beds": 141.0, "SR_15": 3.0}, {"Diff_star": -2.0, "addr": "891 DORSEY HOTEL ROAD", "SR_14": 2.0, "Q_14": 3.0, "name": "GOODWILL MENNONITE HOME, INC.", "SF_14": 4.0, "SF_15": 3.0, "cnty": "Garrett", "st": "MD", "Zip": 21536.0, "O_14": 3.0, "Q_15": 1.0, "O_15": 1.0, "city": "GRANTSVILLE", "beds": 107.0, "SR_15": 2.0}, {"Diff_star": -1.0, "addr": "701 EDMONDSON AVENUE", "SR_14": 1.0, "Q_14": 5.0, "name": "FOREST HAVEN NURSING HOME", "SF_14": 4.0, "SF_15": 3.0, "cnty": "Baltimore", "st": "MD", "Zip": 21228.0, "O_14": 2.0, "Q_15": 3.0, "O_15": 1.0, "city": "CATONSVILLE", "beds": 167.0, "SR_15": 1.0}, {"Diff_star": -3.0, "addr": "4700 HARFORD ROAD", "SR_14": 3.0, "Q_14": 5.0, "name": "FUTURE CARE COLD SPRING", "SF_14": 4.0, "SF_15": 4.0, "cnty": "Baltimore City", "st": "MD", "Zip": 21214.0, "O_14": 5.0, "Q_15": 5.0, "O_15": 2.0, "city": "BALTIMORE", "beds": 137.0, "SR_15": 1.0}, {"Diff_star": 0.0, "addr": "1055 WEST JOPPA ROAD", "SR_14": 4.0, "Q_14": 5.0, "name": "CHESTNUT GRN HLTH CTR BLAKEHUR", "SF_14": 5.0, "SF_15": 5.0, "cnty": "Baltimore", "st": "MD", "Zip": 21204.0, "O_14": 5.0, "Q_15": 5.0, "O_15": 5.0, "city": "TOWSON", "beds": 42.0, "SR_15": 4.0}, {"Diff_star": -1.0, "addr": "14014 MARSH PIKE", "SR_14": 1.0, "Q_14": 3.0, "name": "NMS HEALTHCARE OF HAGERSTOWN, LLC", "SF_14": 4.0, "SF_15": 3.0, "cnty": "Washington", "st": "MD", "Zip": 21742.0, "O_14": 2.0, "Q_15": 1.0, "O_15": 1.0, "city": "HAGERSTOWN", "beds": 186.0, "SR_15": 1.0}, {"Diff_star": -1.0, "addr": "35 MILKSHAKE LANE", "SR_14": 3.0, "Q_14": 5.0, "name": "SPA CREEK CENTER", "SF_14": 4.0, "SF_15": 4.0, "cnty": "Anne Arundel", "st": "MD", "Zip": 21403.0, "O_14": 5.0, "Q_15": 4.0, "O_15": 4.0, "city": "ANNAPOLIS", "beds": 134.0, "SR_15": 3.0}, {"Diff_star": 0.0, "addr": "615 CHESTNUT AVE", "SR_14": 4.0, "Q_14": 5.0, "name": "PICKERSGILL RETIREMENT COMMUNITY", "SF_14": 4.0, "SF_15": 4.0, "cnty": "Baltimore", "st": "MD", "Zip": 21204.0, "O_14": 5.0, "Q_15": 5.0, "O_15": 5.0, "city": "TOWSON", "beds": 43.0, "SR_15": 4.0}, {"Diff_star": 0.0, "addr": "415 MORGNEC ROAD", "SR_14": 3.0, "Q_14": 1.0, "name": "CHESTERTOWN REHABILITATION AND NURSING CENTER", "SF_14": 5.0, "SF_15": 5.0, "cnty": "Kent", "st": "MD", "Zip": 21620.0, "O_14": 3.0, "Q_15": 1.0, "O_15": 3.0, "city": "CHESTERTOWN", "beds": 92.0, "SR_15": 3.0}, {"Diff_star": -1.0, "addr": "9200 FRANKLIN SQUARE DRIVE", "SR_14": 3.0, "Q_14": 5.0, "name": "FRANKLIN WOODS CENTER", "SF_14": 3.0, "SF_15": 3.0, "cnty": "Baltimore", "st": "MD", "Zip": 21237.0, "O_14": 4.0, "Q_15": 4.0, "O_15": 3.0, "city": "BALTIMORE", "beds": 117.0, "SR_15": 3.0}, {"Diff_star": 0.0, "addr": "200 MORGNEC ROAD", "SR_14": 4.0, "Q_14": 4.0, "name": "UNIVERSITY OF MARYLAND SHORE NURSING AND REHAB", "SF_14": 3.0, "SF_15": 3.0, "cnty": "Kent", "st": "MD", "Zip": 21620.0, "O_14": 4.0, "Q_15": 2.0, "O_15": 4.0, "city": "CHESTERTOWN", "beds": 98.0, "SR_15": 4.0}, {"Diff_star": 0.0, "addr": "15005 HEALTH CENTER DRIVE", "SR_14": 1.0, "Q_14": 4.0, "name": "LARKIN CHASE CENTER", "SF_14": 1.0, "SF_15": 1.0, "cnty": "Prince Georges", "st": "MD", "Zip": 20716.0, "O_14": 1.0, "Q_15": 3.0, "O_15": 1.0, "city": "BOWIE", "beds": 120.0, "SR_15": 1.0}, {"Diff_star": 0.0, "addr": "710 OBRECHT ROAD", "SR_14": 5.0, "Q_14": 5.0, "name": "COPPER RIDGE", "SF_14": 4.0, "SF_15": 4.0, "cnty": "Carroll", "st": "MD", "Zip": 21784.0, "O_14": 5.0, "Q_15": 4.0, "O_15": 5.0, "city": "SYKESVILLE", "beds": 66.0, "SR_15": 5.0}, {"Diff_star": -2.0, "addr": "7355 FURNACE BRANCH ROAD EAST", "SR_14": 4.0, "Q_14": 3.0, "name": "GLEN BURNIE HEALTH AND REHABILITATION CENTER", "SF_14": 3.0, "SF_15": 3.0, "cnty": "Anne Arundel", "st": "MD", "Zip": 21060.0, "O_14": 4.0, "Q_15": 1.0, "O_15": 2.0, "city": "GLEN BURNIE", "beds": 190.0, "SR_15": 3.0}, {"Diff_star": -1.0, "addr": "331 SOUTH SETON AVENUE", "SR_14": 3.0, "Q_14": 5.0, "name": "ST JOSEPH'S MINISTRIES", "SF_14": 4.0, "SF_15": 4.0, "cnty": "Frederick", "st": "MD", "Zip": 21727.0, "O_14": 5.0, "Q_15": 4.0, "O_15": 4.0, "city": "EMMITSBURG", "beds": 99.0, "SR_15": 3.0}, {"Diff_star": 0.0, "addr": "4101 OLD NATIONAL PIKE", "SR_14": 3.0, "Q_14": 4.0, "name": "PLEASANT VIEW NSG HOME", "SF_14": 3.0, "SF_15": 3.0, "cnty": "Carroll", "st": "MD", "Zip": 21771.0, "O_14": 3.0, "Q_15": 3.0, "O_15": 3.0, "city": "MOUNT AIRY", "beds": 104.0, "SR_15": 3.0}, {"Diff_star": 0.0, "addr": "ONE PRICE DRIVE", "SR_14": 1.0, "Q_14": 4.0, "name": "ELKTON CENTER", "SF_14": 2.0, "SF_15": 2.0, "cnty": "Cecil", "st": "MD", "Zip": 21921.0, "O_14": 1.0, "Q_15": 2.0, "O_15": 1.0, "city": "ELKTON", "beds": 177.0, "SR_15": 1.0}, {"Diff_star": 0.0, "addr": "13325 DOWELL RD, P.O. BOX 1509", "SR_14": 4.0, "Q_14": 4.0, "name": "SOLOMONS NURSING CENTER", "SF_14": 4.0, "SF_15": 4.0, "cnty": "Calvert", "st": "MD", "Zip": 20688.0, "O_14": 4.0, "Q_15": 2.0, "O_15": 4.0, "city": "SOLOMONS", "beds": 87.0, "SR_15": 4.0}, {"Diff_star": 0.0, "addr": "1000 N. GILMORE STREET", "SR_14": 3.0, "Q_14": 5.0, "name": "FUTURE CARE SANDTOWN-WINCHESTER", "SF_14": 4.0, "SF_15": 4.0, "cnty": "Baltimore City", "st": "MD", "Zip": 21217.0, "O_14": 5.0, "Q_15": 5.0, "O_15": 5.0, "city": "BALTIMORE", "beds": 148.0, "SR_15": 3.0}, {"Diff_star": 0.0, "addr": "19301 WATKINS MILL ROAD", "SR_14": 2.0, "Q_14": 5.0, "name": "MONTGOMERY VILLAGE HEALTH CARE CENTER", "SF_14": 4.0, "SF_15": 4.0, "cnty": "Montgomery", "st": "MD", "Zip": 20879.0, "O_14": 4.0, "Q_15": 5.0, "O_15": 4.0, "city": "GAITHERSBURG", "beds": 147.0, "SR_15": 2.0}, {"Diff_star": -1.0, "addr": "4140 OLD WASHINGTON HIGHWAY", "SR_14": 2.0, "Q_14": 5.0, "name": "WALDORF  CENTER", "SF_14": 2.0, "SF_15": 2.0, "cnty": "Charles", "st": "MD", "Zip": 20602.0, "O_14": 3.0, "Q_15": 4.0, "O_15": 2.0, "city": "WALDORF", "beds": 115.0, "SR_15": 2.0}, {"Diff_star": 0.0, "addr": "48 TARN TERRACE", "SR_14": 2.0, "Q_14": 4.0, "name": "WEST MD HEALTH SYST FROSTBURG NRSG AND REHAB CTR", "SF_14": 2.0, "SF_15": 2.0, "cnty": "Allegany", "st": "MD", "Zip": 21532.0, "O_14": 2.0, "Q_15": 4.0, "O_15": 2.0, "city": "FROSTBURG", "beds": 88.0, "SR_15": 2.0}, {"Diff_star": 0.0, "addr": "11630 GLEN ARM ROAD", "SR_14": 3.0, "Q_14": 5.0, "name": "GLEN MEADOWS RETIREMENT COM.", "SF_14": 3.0, "SF_15": 3.0, "cnty": "Baltimore", "st": "MD", "Zip": 21057.0, "O_14": 4.0, "Q_15": 5.0, "O_15": 4.0, "city": "GLEN ARM", "beds": 31.0, "SR_15": 3.0}, {"Diff_star": 0.0, "addr": "5601 LOCH RAVEN BOULEVARD", "SR_14": 4.0, "Q_14": 5.0, "name": "TRANSITIONAL CARE AT GOOD SAMARITAN", "SF_14": 5.0, "SF_15": 5.0, "cnty": "Baltimore City", "st": "MD", "Zip": 21239.0, "O_14": 5.0, "Q_15": 5.0, "O_15": 5.0, "city": "BALTIMORE", "beds": 30.0, "SR_15": 4.0}, {"Diff_star": 0.0, "addr": "301 ST. PAUL PLACE", "SR_14": 5.0, "Q_14": 5.0, "name": "TRANSITIONAL CARE SERVICES AT MERCY MEDICAL CENTER", "SF_14": 5.0, "SF_15": 5.0, "cnty": "Baltimore City", "st": "MD", "Zip": 21202.0, "O_14": 5.0, "Q_15": 5.0, "O_15": 5.0, "city": "BALTIMORE", "beds": 35.0, "SR_15": 5.0}, {"Diff_star": 0.0, "addr": "9707 OLD GEORGETOWN ROAD", "SR_14": 5.0, "Q_14": 5.0, "name": "MAPLEWOOD PARK PLACE", "SF_14": 5.0, "SF_15": 5.0, "cnty": "Montgomery", "st": "MD", "Zip": 20814.0, "O_14": 5.0, "Q_15": 5.0, "O_15": 5.0, "city": "BETHESDA", "beds": 31.0, "SR_15": 5.0}, {"Diff_star": 0.0, "addr": "100 HOSPITAL ROAD", "SR_14": 5.0, "Q_14": 5.0, "name": "CALVERT MEMORIAL HOSPITAL TRANSITIONAL CARE UNIT", "SF_14": 5.0, "SF_15": 5.0, "cnty": "Calvert", "st": "MD", "Zip": 20678.0, "O_14": 5.0, "Q_15": 5.0, "O_15": 5.0, "city": "PRINCE FREDERICK", "beds": 18.0, "SR_15": 5.0}, {"Diff_star": 0.0, "addr": "5401 OLD COURT ROAD", "SR_14": 4.0, "Q_14": 5.0, "name": "NORTHWEST HOSP. CTR. SUB. UNIT", "SF_14": 5.0, "SF_15": 5.0, "cnty": "Baltimore", "st": "MD", "Zip": 21133.0, "O_14": 5.0, "Q_15": 5.0, "O_15": 5.0, "city": "RANDALLSTOWN", "beds": 29.0, "SR_15": 4.0}, {"Diff_star": 0.0, "addr": "6806 BELLONA AVENUE", "SR_14": 5.0, "Q_14": 5.0, "name": "THE VILLA", "SF_14": 4.0, "SF_15": 4.0, "cnty": "Baltimore", "st": "MD", "Zip": 21212.0, "O_14": 5.0, "Q_15": 5.0, "O_15": 5.0, "city": "BALTIMORE", "beds": 30.0, "SR_15": 5.0}, {"Diff_star": 0.0, "addr": "144 WASHINGTON ROAD", "SR_14": 2.0, "Q_14": 5.0, "name": "SOUTH RIVER HEALTH AND REHABILITATION CENTER", "SF_14": 3.0, "SF_15": 3.0, "cnty": "Anne Arundel", "st": "MD", "Zip": 21037.0, "O_14": 3.0, "Q_15": 5.0, "O_15": 3.0, "city": "EDGEWATER", "beds": 105.0, "SR_15": 2.0}, {"Diff_star": 0.0, "addr": "10 N. ROCK GLEN ROAD", "SR_14": 1.0, "Q_14": 5.0, "name": "WESTGATE HILLS REHAB & HEALTHCARE CTR", "SF_14": 5.0, "SF_15": 5.0, "cnty": "Baltimore City", "st": "MD", "Zip": 21229.0, "O_14": 2.0, "Q_15": 5.0, "O_15": 2.0, "city": "BALTIMORE", "beds": 120.0, "SR_15": 1.0}, {"Diff_star": 0.0, "addr": "6401 N. CHARLES STREET", "SR_14": 5.0, "Q_14": 5.0, "name": "MARIA HEALTH CARE CENTER, INC.", "SF_14": 5.0, "SF_15": 5.0, "cnty": "Baltimore", "st": "MD", "Zip": 21212.0, "O_14": 5.0, "Q_15": 5.0, "O_15": 5.0, "city": "BALTIMORE", "beds": 32.0, "SR_15": 5.0}, {"Diff_star": -1.0, "addr": "4669 FALLS ROAD", "SR_14": 2.0, "Q_14": 5.0, "name": "MANORCARE HEALTH SERVICES - ROLAND PARK", "SF_14": 3.0, "SF_15": 3.0, "cnty": "Baltimore City", "st": "MD", "Zip": 21209.0, "O_14": 3.0, "Q_15": 4.0, "O_15": 2.0, "city": "BALTIMORE", "beds": 120.0, "SR_15": 2.0}, {"Diff_star": 0.0, "addr": "11750 ASBURY CIRCLE", "SR_14": 4.0, "Q_14": 5.0, "name": "ASBURY SOLOMONS ISLAND", "SF_14": 4.0, "SF_15": 4.0, "cnty": "Calvert", "st": "MD", "Zip": 20688.0, "O_14": 5.0, "Q_15": 5.0, "O_15": 5.0, "city": "SOLOMONS", "beds": 48.0, "SR_15": 4.0}, {"Diff_star": -1.0, "addr": "57 JACKSON STREET", "SR_14": 3.0, "Q_14": 5.0, "name": "EGLE NURSING HOME", "SF_14": 5.0, "SF_15": 5.0, "cnty": "Allegany", "st": "MD", "Zip": 21539.0, "O_14": 5.0, "Q_15": 4.0, "O_15": 4.0, "city": "LONACONING", "beds": 66.0, "SR_15": 3.0}, {"Diff_star": 0.0, "addr": "8800 WALTHER BOULEVARD", "SR_14": 4.0, "Q_14": 5.0, "name": "OAK CREST VILLAGE", "SF_14": 4.0, "SF_15": 4.0, "cnty": "Baltimore", "st": "MD", "Zip": 21234.0, "O_14": 5.0, "Q_15": 5.0, "O_15": 5.0, "city": "PARKVILLE", "beds": 200.0, "SR_15": 4.0}, {"Diff_star": 0.0, "addr": "251 NORTH FOURTH STREET", "SR_14": 5.0, "Q_14": 5.0, "name": "GARRETT COUNTY SUBACUTE UNIT", "SF_14": 5.0, "SF_15": 5.0, "cnty": "Garrett", "st": "MD", "Zip": 21550.0, "O_14": 5.0, "Q_15": 5.0, "O_15": 5.0, "city": "OAKLAND", "beds": 10.0, "SR_15": 5.0}, {"Diff_star": -1.0, "addr": "410 EAST MCPHAIL ROAD", "SR_14": 3.0, "Q_14": 4.0, "name": "BEL AIR HEALTH AND REHABILITATION CENTER", "SF_14": 4.0, "SF_15": 3.0, "cnty": "Harford", "st": "MD", "Zip": 21014.0, "O_14": 4.0, "Q_15": 4.0, "O_15": 3.0, "city": "BEL AIR", "beds": 155.0, "SR_15": 3.0}, {"Diff_star": 0.0, "addr": "56 WEST FREDERICK STREET", "SR_14": 2.0, "Q_14": 4.0, "name": "GLADE VALLEY CENTER", "SF_14": 3.0, "SF_15": 3.0, "cnty": "Frederick", "st": "MD", "Zip": 21793.0, "O_14": 2.0, "Q_15": 2.0, "O_15": 2.0, "city": "WALKERSVILLE", "beds": 124.0, "SR_15": 2.0}, {"Diff_star": 0.0, "addr": "6701 NORTH CHARLES STREET", "SR_14": 4.0, "Q_14": 5.0, "name": "GREATER BALTIMORE MEDICAL CENTER SUB ACUTE UNIT", "SF_14": "", "SF_15": "", "cnty": "Baltimore", "st": "MD", "Zip": 21204.0, "O_14": 5.0, "Q_15": 5.0, "O_15": 5.0, "city": "BALTIMORE", "beds": 25.0, "SR_15": 4.0}, {"Diff_star": -1.0, "addr": "3415 GREENCASTLE ROAD", "SR_14": 3.0, "Q_14": 5.0, "name": "HOLY CROSS REHAB AND NURSING", "SF_14": 4.0, "SF_15": 3.0, "cnty": "Montgomery", "st": "MD", "Zip": 20866.0, "O_14": 5.0, "Q_15": 5.0, "O_15": 4.0, "city": "BURTONSVILLE", "beds": 145.0, "SR_15": 3.0}, {"Diff_star": -1.0, "addr": "313 HOSPITAL DRIVE", "SR_14": 1.0, "Q_14": 5.0, "name": "NORTH ARUNDEL HEALTH AND REHABILITATION CENTER", "SF_14": 4.0, "SF_15": 3.0, "cnty": "Anne Arundel", "st": "MD", "Zip": 21061.0, "O_14": 2.0, "Q_15": 4.0, "O_15": 1.0, "city": "GLEN BURNIE", "beds": 129.0, "SR_15": 1.0}, {"Diff_star": 0.0, "addr": "5550 TUCKERMAN LANE", "SR_14": 3.0, "Q_14": 4.0, "name": "BRIGHTON GARDEN TUCKERMAN LANE", "SF_14": 4.0, "SF_15": 4.0, "cnty": "Montgomery", "st": "MD", "Zip": 20852.0, "O_14": 4.0, "Q_15": 3.0, "O_15": 4.0, "city": "NORTH BETHESDA", "beds": 41.0, "SR_15": 3.0}, {"Diff_star": 0.0, "addr": "333 MILL STREET", "SR_14": 2.0, "Q_14": 5.0, "name": "JULIA MANOR HEALTH CARE CENTER", "SF_14": 4.0, "SF_15": 4.0, "cnty": "Washington", "st": "MD", "Zip": 21740.0, "O_14": 4.0, "Q_15": 5.0, "O_15": 4.0, "city": "HAGERSTOWN", "beds": 130.0, "SR_15": 2.0}, {"Diff_star": 0.0, "addr": "4409 EAST WEST HIGHWAY", "SR_14": 1.0, "Q_14": 5.0, "name": "CRESCENT CITIES CENTER", "SF_14": 3.0, "SF_15": 3.0, "cnty": "Prince Georges", "st": "MD", "Zip": 20737.0, "O_14": 2.0, "Q_15": 5.0, "O_15": 2.0, "city": "RIVERDALE", "beds": 140.0, "SR_15": 1.0}, {"Diff_star": -1.0, "addr": "2327 N. CHARLES ST", "SR_14": 4.0, "Q_14": 5.0, "name": "FUTURE CARE CHARLES VILLAGE, LLC", "SF_14": 3.0, "SF_15": 3.0, "cnty": "Baltimore City", "st": "MD", "Zip": 21218.0, "O_14": 5.0, "Q_15": 4.0, "O_15": 4.0, "city": "BALTIMORE", "beds": 109.0, "SR_15": 4.0}, {"Diff_star": 0.0, "addr": "2700 SOUTH HAVEN ROAD", "SR_14": 2.0, "Q_14": 4.0, "name": "HERITAGE HARBOUR HEALTH AND REHABILITATION CENTER", "SF_14": 4.0, "SF_15": 4.0, "cnty": "Anne Arundel", "st": "MD", "Zip": 21401.0, "O_14": 3.0, "Q_15": 3.0, "O_15": 3.0, "city": "ANNAPOLIS", "beds": 154.0, "SR_15": 2.0}, {"Diff_star": 0.0, "addr": "1502  FREDERICK ROAD", "SR_14": 2.0, "Q_14": 5.0, "name": "SUMMIT PARK HEALTH AND REHABILITATION CENTER", "SF_14": 3.0, "SF_15": 3.0, "cnty": "Baltimore", "st": "MD", "Zip": 21228.0, "O_14": 3.0, "Q_15": 5.0, "O_15": 3.0, "city": "CATONSVILLE", "beds": 143.0, "SR_15": 2.0}, {"Diff_star": 0.0, "addr": "7525 CARROLL AVENUE", "SR_14": 1.0, "Q_14": 5.0, "name": "SLIGO CREEK CENTER", "SF_14": 1.0, "SF_15": 1.0, "cnty": "Montgomery", "st": "MD", "Zip": 20912.0, "O_14": 2.0, "Q_15": 5.0, "O_15": 2.0, "city": "TAKOMA PARK", "beds": 102.0, "SR_15": 1.0}, {"Diff_star": -1.0, "addr": "9106 PINEVIEW LANE", "SR_14": 2.0, "Q_14": 5.0, "name": "FUTURE CARE PINEVIEW", "SF_14": 5.0, "SF_15": 5.0, "cnty": "Prince Georges", "st": "MD", "Zip": 20735.0, "O_14": 4.0, "Q_15": 4.0, "O_15": 3.0, "city": "CLINTON", "beds": 192.0, "SR_15": 2.0}, {"Diff_star": 0.0, "addr": "3200 BAKER CIRCLE", "SR_14": 2.0, "Q_14": 4.0, "name": "BUCKINGHAM'S CHOICE", "SF_14": 4.0, "SF_15": 4.0, "cnty": "Frederick", "st": "MD", "Zip": 21710.0, "O_14": 3.0, "Q_15": 4.0, "O_15": 3.0, "city": "ADAMSTOWN", "beds": 41.0, "SR_15": 2.0}, {"Diff_star": -1.0, "addr": "5009 FRANKFORD AVENUE", "SR_14": 3.0, "Q_14": 5.0, "name": "BRINTON WOODS POST ACUTE CARE CENTER", "SF_14": 4.0, "SF_15": 4.0, "cnty": "Baltimore City", "st": "MD", "Zip": 21206.0, "O_14": 5.0, "Q_15": 2.0, "O_15": 4.0, "city": "BALTIMORE", "beds": 225.0, "SR_15": 3.0}, {"Diff_star": 0.0, "addr": "600 LARGO ROAD", "SR_14": 4.0, "Q_14": 5.0, "name": "MANOR CARE HEALTH SERVICES - LARGO", "SF_14": 2.0, "SF_15": 2.0, "cnty": "Prince Georges", "st": "MD", "Zip": 20774.0, "O_14": 5.0, "Q_15": 5.0, "O_15": 5.0, "city": "GLENARDEN", "beds": 130.0, "SR_15": 4.0}, {"Diff_star": 0.0, "addr": "705 MIDWAY AVENUE", "SR_14": 3.0, "Q_14": 4.0, "name": "LORIEN HEALTH SYSTEMS MT AIRY", "SF_14": 4.0, "SF_15": 4.0, "cnty": "Carroll", "st": "MD", "Zip": 21771.0, "O_14": 4.0, "Q_15": 3.0, "O_15": 4.0, "city": "MOUNT AIRY", "beds": 62.0, "SR_15": 3.0}, {"Diff_star": 0.0, "addr": "750 DUAL HIGHWAY", "SR_14": 3.0, "Q_14": 3.0, "name": "GOLDEN LIVINGCENTER-HAGERSTOWN", "SF_14": 2.0, "SF_15": 2.0, "cnty": "Washington", "st": "MD", "Zip": 21740.0, "O_14": 3.0, "Q_15": 2.0, "O_15": 3.0, "city": "HAGERSTOWN", "beds": 140.0, "SR_15": 3.0}, {"Diff_star": -1.0, "addr": "8507 MAPLEVILLE ROAD", "SR_14": 3.0, "Q_14": 5.0, "name": "FAHRNEY-KEEDY MEMORIAL HOME", "SF_14": 4.0, "SF_15": 4.0, "cnty": "Washington", "st": "MD", "Zip": 21713.0, "O_14": 5.0, "Q_15": 4.0, "O_15": 4.0, "city": "BOONSBORO", "beds": 106.0, "SR_15": 3.0}, {"Diff_star": 0.0, "addr": "2700 BARKER STREET", "SR_14": 2.0, "Q_14": 5.0, "name": "OAKVIEW REHABILITATION AND NURSING CENTER", "SF_14": 4.0, "SF_15": 2.0, "cnty": "Montgomery", "st": "MD", "Zip": 20910.0, "O_14": 4.0, "Q_15": 5.0, "O_15": 4.0, "city": "SILVER SPRING", "beds": 138.0, "SR_15": 3.0}, {"Diff_star": 0.0, "addr": "105 TIMES SQUARE", "SR_14": 3.0, "Q_14": 4.0, "name": "ANCHORAGE NURSING AND REHABILITATION CENTER", "SF_14": 2.0, "SF_15": 2.0, "cnty": "Wicomico", "st": "MD", "Zip": 21801.0, "O_14": 3.0, "Q_15": 4.0, "O_15": 3.0, "city": "SALISBURY", "beds": 126.0, "SR_15": 3.0}, {"Diff_star": 0.0, "addr": "2525 WEST BELVEDERE", "SR_14": 1.0, "Q_14": 4.0, "name": "BLUE POINT NURSING  & REHAB CENTER", "SF_14": 3.0, "SF_15": 3.0, "cnty": "Baltimore City", "st": "MD", "Zip": 21215.0, "O_14": 1.0, "Q_15": 3.0, "O_15": 1.0, "city": "BALTIMORE", "beds": 135.0, "SR_15": 1.0}, {"Diff_star": -1.0, "addr": "1909 EMORTON ROAD", "SR_14": 4.0, "Q_14": 2.0, "name": "LORIEN NSG & REHAB CTR BELAIR", "SF_14": 5.0, "SF_15": 5.0, "cnty": "Harford", "st": "MD", "Zip": 21015.0, "O_14": 5.0, "Q_15": 1.0, "O_15": 4.0, "city": "BEL AIR", "beds": 66.0, "SR_15": 4.0}, {"Diff_star": 0.0, "addr": "3160 GRACEFIELD ROAD", "SR_14": 4.0, "Q_14": 5.0, "name": "RIDERWOOD VILLAGE", "SF_14": 5.0, "SF_15": 5.0, "cnty": "Prince Georges", "st": "MD", "Zip": 20904.0, "O_14": 5.0, "Q_15": 5.0, "O_15": 5.0, "city": "SILVER SPRING", "beds": 117.0, "SR_15": 4.0}, {"Diff_star": 0.0, "addr": "5400 VANTAGE POINT RD.", "SR_14": 4.0, "Q_14": 5.0, "name": "VANTAGE HOUSE", "SF_14": 5.0, "SF_15": 4.0, "cnty": "Howard", "st": "MD", "Zip": 21044.0, "O_14": 5.0, "Q_15": 3.0, "O_15": 5.0, "city": "COLUMBIA", "beds": 44.0, "SR_15": 5.0}, {"Diff_star": -1.0, "addr": "7101 BAY FRONT DRIVE", "SR_14": 4.0, "Q_14": 4.0, "name": "THE ARBOR", "SF_14": "", "SF_15": "", "cnty": "Anne Arundel", "st": "MD", "Zip": 21403.0, "O_14": 4.0, "Q_15": 4.0, "O_15": 3.0, "city": "ANNAPOLIS", "beds": 27.0, "SR_15": 3.0}, {"Diff_star": 0.0, "addr": "4601 PALL MALL ROAD", "SR_14": 3.0, "Q_14": 5.0, "name": "NORTHWEST NURSING AND REHAB CENTER", "SF_14": 4.0, "SF_15": 4.0, "cnty": "Baltimore City", "st": "MD", "Zip": 21215.0, "O_14": 5.0, "Q_15": 5.0, "O_15": 5.0, "city": "BALTIMORE", "beds": 91.0, "SR_15": 3.0}, {"Diff_star": 0.0, "addr": "1525 NORTH ROLLING ROAD", "SR_14": 1.0, "Q_14": 5.0, "name": "MANORCARE HEALTH SERVICES - WOODBRIDGE VALLEY", "SF_14": 4.0, "SF_15": 4.0, "cnty": "Baltimore", "st": "MD", "Zip": 21228.0, "O_14": 2.0, "Q_15": 5.0, "O_15": 2.0, "city": "CATONSVILLE", "beds": 120.0, "SR_15": 1.0}, {"Diff_star": 0.0, "addr": "100 ANTRIM BLVD", "SR_14": 5.0, "Q_14": 5.0, "name": "LORIEN TANEYTOWN, INC", "SF_14": 4.0, "SF_15": 4.0, "cnty": "Carroll", "st": "MD", "Zip": 21787.0, "O_14": 5.0, "Q_15": 4.0, "O_15": 5.0, "city": "TANEYTOWN", "beds": 63.0, "SR_15": 5.0}, {"Diff_star": 0.0, "addr": "3939 PENHURST AVENUE", "SR_14": 1.0, "Q_14": 5.0, "name": "BRINTON WOODS HEALTH & REHAB CTR AT ARLINGTON WEST", "SF_14": 3.0, "SF_15": 3.0, "cnty": "Baltimore City", "st": "MD", "Zip": 21215.0, "O_14": 2.0, "Q_15": 5.0, "O_15": 2.0, "city": "BALTIMORE", "beds": 80.0, "SR_15": 1.0}, {"Diff_star": -2.0, "addr": "3800 LOTTSFORD VISTA ROAD", "SR_14": 2.0, "Q_14": 5.0, "name": "VILLA ROSA NURSING AND REHABILITATION, LLC", "SF_14": 4.0, "SF_15": 3.0, "cnty": "Prince Georges", "st": "MD", "Zip": 20721.0, "O_14": 4.0, "Q_15": 4.0, "O_15": 2.0, "city": "MITCHELLVILLE", "beds": 101.0, "SR_15": 2.0}, {"Diff_star": -1.0, "addr": "12230 ROUND WOOD ROAD", "SR_14": 3.0, "Q_14": 4.0, "name": "LORIEN MAYS CHAPEL", "SF_14": 4.0, "SF_15": 3.0, "cnty": "Baltimore", "st": "MD", "Zip": 21093.0, "O_14": 4.0, "Q_15": 2.0, "O_15": 3.0, "city": "TIMONIUM", "beds": 93.0, "SR_15": 3.0}, {"Diff_star": 0.0, "addr": "1304 PENNSYLVANIA AVE", "SR_14": 2.0, "Q_14": 5.0, "name": "COFFMAN NURSING HOME", "SF_14": 3.0, "SF_15": 3.0, "cnty": "Washington", "st": "MD", "Zip": 21742.0, "O_14": 3.0, "Q_15": 5.0, "O_15": 3.0, "city": "HAGERSTOWN", "beds": 59.0, "SR_15": 2.0}, {"Diff_star": 0.0, "addr": "701 KING FARM BOULEVARD", "SR_14": 5.0, "Q_14": 5.0, "name": "INGLESIDE AT KING FARM", "SF_14": 5.0, "SF_15": 5.0, "cnty": "Montgomery", "st": "MD", "Zip": 20850.0, "O_14": 5.0, "Q_15": 5.0, "O_15": 5.0, "city": "ROCKVILLE", "beds": 26.0, "SR_15": 5.0}, {"Diff_star": 0.0, "addr": "601 MAIDEN CHOICE LANE", "SR_14": 4.0, "Q_14": 5.0, "name": "LITTLE SISTERS OF THE POOR", "SF_14": 4.0, "SF_15": 4.0, "cnty": "Baltimore", "st": "MD", "Zip": 21228.0, "O_14": 5.0, "Q_15": 5.0, "O_15": 5.0, "city": "BALTIMORE", "beds": 38.0, "SR_15": 5.0}, {"Diff_star": 0.0, "addr": "11150 RESORT ROAD", "SR_14": 3.0, "Q_14": 5.0, "name": "ENCORE AT TURF VALLEY", "SF_14": 5.0, "SF_15": 5.0, "cnty": "Howard", "st": "MD", "Zip": 21042.0, "O_14": 5.0, "Q_15": 5.0, "O_15": 5.0, "city": "ELLICOTT", "beds": 63.0, "SR_15": 3.0}, {"Diff_star": 0.0, "addr": "1010 EAST 33RD STREET", "SR_14": 4.0, "Q_14": 5.0, "name": "THE GREEN HOUSE AT STADIUM PLACE", "SF_14": 4.0, "SF_15": 4.0, "cnty": "Baltimore City", "st": "MD", "Zip": 21218.0, "O_14": 5.0, "Q_15": 5.0, "O_15": 5.0, "city": "BALTIMORE", "beds": 49.0, "SR_15": 4.0}, {"Diff_star": -1.0, "addr": "7615 WASHINGTON BOULEVARD", "SR_14": 2.0, "Q_14": 5.0, "name": "LORIEN NURSING & REHAB CTR - ELKRIDGE", "SF_14": 4.0, "SF_15": 4.0, "cnty": "Howard", "st": "MD", "Zip": 21075.0, "O_14": 4.0, "Q_15": 4.0, "O_15": 3.0, "city": "ELKRIDGE", "beds": 64.0, "SR_15": 2.0}, {"Diff_star": 0.0, "addr": "7503 SURRATTS ROAD", "SR_14": 4.0, "Q_14": 1.0, "name": "MEDSTAR SOUTHERN MARYLAND HOSPITAL CENTER", "SF_14": 5.0, "SF_15": 5.0, "cnty": "Prince Georges", "st": "MD", "Zip": 20735.0, "O_14": 4.0, "Q_15": 1.0, "O_15": 4.0, "city": "CLINTON", "beds": 24.0, "SR_15": 4.0}, {"Diff_star": 0.0, "addr": "1501 BLENHEIM FARM LANE", "SR_14": 3.0, "Q_14": 4.0, "name": "LORIEN BULLE ROCK", "SF_14": 4.0, "SF_15": 4.0, "cnty": "Harford", "st": "MD", "Zip": 21078.0, "O_14": 4.0, "Q_15": 4.0, "O_15": 4.0, "city": "HAVRE DE GRACE", "beds": 78.0, "SR_15": 3.0}, {"Diff_star": 0.0, "addr": "2801 RAYNER AVENUE", "SR_14": 3.0, "Q_14": 5.0, "name": "MARYLAND BAPTIST AGED HOME", "SF_14": 5.0, "SF_15": 5.0, "cnty": "Baltimore City", "st": "MD", "Zip": 21216.0, "O_14": 5.0, "Q_15": 5.0, "O_15": 5.0, "city": "BALTIMORE", "beds": 29.0, "SR_15": 3.0}, {"Diff_star": 0.0, "addr": "300 INTERNATIONAL CIRCLE", "SR_14": "", "Q_14": "", "name": "MARYLAND MASONIC HOMES", "SF_14": "", "SF_15": "", "cnty": "Baltimore", "st": "MD", "Zip": 21030.0, "O_14": "", "Q_15": "", "O_15": "", "city": "COCKEYSVILLE", "beds": 88.0, "SR_15": ""}, {"Diff_star": 0.0, "addr": "5805 QUEENS CHAPEL ROAD", "SR_14": 5.0, "Q_14": 5.0, "name": "SACRED HEART HOME INC", "SF_14": "", "SF_15": "", "cnty": "Prince Georges", "st": "MD", "Zip": 20782.0, "O_14": 5.0, "Q_15": 5.0, "O_15": 5.0, "city": "HYATTSVILLE", "beds": 102.0, "SR_15": 5.0}, {"Diff_star": 0.0, "addr": "2117 DENISON STREET", "SR_14": 2.0, "Q_14": 5.0, "name": "CRAWFORD RETREAT", "SF_14": 4.0, "SF_15": 4.0, "cnty": "Baltimore City", "st": "MD", "Zip": 21216.0, "O_14": 4.0, "Q_15": 5.0, "O_15": 4.0, "city": "BALTIMORE", "beds": 20.0, "SR_15": 2.0}, {"Diff_star": 0.0, "addr": "1222 TUGWELL DRIVE", "SR_14": 5.0, "Q_14": 5.0, "name": "ST. JOSEPH'S  NURSING  HOME", "SF_14": 5.0, "SF_15": 5.0, "cnty": "Baltimore", "st": "MD", "Zip": 21228.0, "O_14": 5.0, "Q_15": 5.0, "O_15": 5.0, "city": "CATONSVILLE", "beds": 44.0, "SR_15": 5.0}]