[{"Diff_star": 0.0, "addr": "13995 CLAYTON ROAD", "SR_14": 1.0, "Q_14": 4.0, "name": "NHC HEALTHCARE, TOWN & COUNTRY", "SF_14": 4.0, "SF_15": 4.0, "cnty": "St. Louis", "st": "MO", "Zip": 63017.0, "O_14": 2.0, "Q_15": 3.0, "O_15": 2.0, "city": "TOWN AND COUNTRY", "beds": 282.0, "SR_15": 1.0}, {"Diff_star": 0.0, "addr": "1000 MAIN STREET", "SR_14": 4.0, "Q_14": 5.0, "name": "KABUL NURSING HOMES INC", "SF_14": 4.0, "SF_15": 4.0, "cnty": "Texas", "st": "MO", "Zip": 65689.0, "O_14": 5.0, "Q_15": 5.0, "O_15": 5.0, "city": "CABOOL", "beds": 99.0, "SR_15": 4.0}, {"Diff_star": 0.0, "addr": "13190 SOUTH OUTER 40 ROAD", "SR_14": 2.0, "Q_14": 4.0, "name": "CEDARS OF TOWN AND COUNTRY, LLC, THE", "SF_14": 3.0, "SF_15": 3.0, "cnty": "St. Louis", "st": "MO", "Zip": 63017.0, "O_14": 2.0, "Q_15": 3.0, "O_15": 2.0, "city": "CHESTERFIELD", "beds": 230.0, "SR_15": 2.0}, {"Diff_star": 0.0, "addr": "2042 N BUSINESS ROUTE 5", "SR_14": 3.0, "Q_14": 4.0, "name": "CAMDENTON WINDSOR ESTATES", "SF_14": 1.0, "SF_15": 1.0, "cnty": "Camden", "st": "MO", "Zip": 65020.0, "O_14": 2.0, "Q_15": 2.0, "O_15": 2.0, "city": "CAMDENTON", "beds": 82.0, "SR_15": 3.0}, {"Diff_star": 0.0, "addr": "600 NW PRYOR ROAD", "SR_14": 3.0, "Q_14": 3.0, "name": "JOHN KNOX VILLAGE CARE CENTER", "SF_14": 5.0, "SF_15": 5.0, "cnty": "Jackson", "st": "MO", "Zip": 64081.0, "O_14": 4.0, "Q_15": 2.0, "O_15": 4.0, "city": "LEES SUMMIT", "beds": 353.0, "SR_15": 3.0}, {"Diff_star": 0.0, "addr": "13550 SOUTH OUTER 40 ROAD", "SR_14": 4.0, "Q_14": 4.0, "name": "DELMAR GARDENS WEST", "SF_14": 3.0, "SF_15": 3.0, "cnty": "St. Louis", "st": "MO", "Zip": 63017.0, "O_14": 4.0, "Q_15": 2.0, "O_15": 4.0, "city": "TOWN AND COUNTRY", "beds": 321.0, "SR_15": 4.0}, {"Diff_star": -2.0, "addr": "2500 PLEASANT STREET", "SR_14": 2.0, "Q_14": 4.0, "name": "BETH HAVEN NURSING HOME", "SF_14": 4.0, "SF_15": 3.0, "cnty": "Marion", "st": "MO", "Zip": 63401.0, "O_14": 3.0, "Q_15": 3.0, "O_15": 1.0, "city": "HANNIBAL", "beds": 105.0, "SR_15": 1.0}, {"Diff_star": 0.0, "addr": "901 SOUTH  ADAMS", "SR_14": 5.0, "Q_14": 4.0, "name": "MOORE-FEW CARE CENTER", "SF_14": 4.0, "SF_15": 4.0, "cnty": "Vernon", "st": "MO", "Zip": 64772.0, "O_14": 5.0, "Q_15": 4.0, "O_15": 5.0, "city": "NEVADA", "beds": 108.0, "SR_15": 5.0}, {"Diff_star": 0.0, "addr": "1200 GRAHAM ROAD", "SR_14": 3.0, "Q_14": 5.0, "name": "MANORCARE HEALTH SERVICES", "SF_14": 2.0, "SF_15": 2.0, "cnty": "St. Louis", "st": "MO", "Zip": 63031.0, "O_14": 4.0, "Q_15": 5.0, "O_15": 4.0, "city": "FLORISSANT", "beds": 98.0, "SR_15": 3.0}, {"Diff_star": -1.0, "addr": "2840 WEST CLAY", "SR_14": 2.0, "Q_14": 4.0, "name": "FRONTIER HEALTH & REHABILITATION", "SF_14": 4.0, "SF_15": 3.0, "cnty": "St. Charles", "st": "MO", "Zip": 63301.0, "O_14": 3.0, "Q_15": 2.0, "O_15": 2.0, "city": "SAINT CHARLES", "beds": 180.0, "SR_15": 2.0}, {"Diff_star": 0.0, "addr": "936 CHARBONIER ROAD", "SR_14": 2.0, "Q_14": 4.0, "name": "ST SOPHIA HEALTH & REHABILITATION CENTER", "SF_14": 4.0, "SF_15": 4.0, "cnty": "St. Louis", "st": "MO", "Zip": 63031.0, "O_14": 3.0, "Q_15": 4.0, "O_15": 3.0, "city": "FLORISSANT", "beds": 240.0, "SR_15": 2.0}, {"Diff_star": 0.0, "addr": "15201 OLIVE BOULEVARD", "SR_14": 5.0, "Q_14": 5.0, "name": "FRIENDSHIP VILLAGE CHESTERFIELD", "SF_14": 4.0, "SF_15": 4.0, "cnty": "St. Louis", "st": "MO", "Zip": 63017.0, "O_14": 5.0, "Q_15": 5.0, "O_15": 5.0, "city": "CHESTERFIELD", "beds": 99.0, "SR_15": 5.0}, {"Diff_star": 0.0, "addr": "596 MORTON ROAD", "SR_14": 2.0, "Q_14": 4.0, "name": "LEBANON NORTH NURSING & REHAB", "SF_14": 1.0, "SF_15": 1.0, "cnty": "Laclede", "st": "MO", "Zip": 65536.0, "O_14": 1.0, "Q_15": 2.0, "O_15": 1.0, "city": "LEBANON", "beds": 180.0, "SR_15": 2.0}, {"Diff_star": 0.0, "addr": "110 HIGHLAND AVENUE", "SR_14": 1.0, "Q_14": 4.0, "name": "BIG BEND WOODS HEALTHCARE CENTER", "SF_14": 4.0, "SF_15": 4.0, "cnty": "St. Louis", "st": "MO", "Zip": 63088.0, "O_14": 2.0, "Q_15": 3.0, "O_15": 2.0, "city": "VALLEY PARK", "beds": 135.0, "SR_15": 1.0}, {"Diff_star": 0.0, "addr": "14275 HIGHWAY Z", "SR_14": 4.0, "Q_14": 2.0, "name": "SUNSET VILLAGE OF THE OZARKS INC", "SF_14": 4.0, "SF_15": 3.0, "cnty": "Pulaski", "st": "MO", "Zip": 65584.0, "O_14": 4.0, "Q_15": 2.0, "O_15": 4.0, "city": "SAINT ROBERT", "beds": 36.0, "SR_15": 4.0}, {"Diff_star": 0.0, "addr": "12509 VILLAGE CIRCLE DRIVE", "SR_14": 4.0, "Q_14": 4.0, "name": "FRIENDSHIP VILLAGE SUNSET HILLS", "SF_14": "", "SF_15": "", "cnty": "St. Louis", "st": "MO", "Zip": 63127.0, "O_14": 4.0, "Q_15": 4.0, "O_15": 4.0, "city": "SAINT LOUIS", "beds": 25.0, "SR_15": 4.0}, {"Diff_star": -1.0, "addr": "313 AUGUSTINE RD, PO BOX 600", "SR_14": 1.0, "Q_14": 4.0, "name": "MARYMOUNT MANOR", "SF_14": 4.0, "SF_15": 3.0, "cnty": "St. Louis", "st": "MO", "Zip": 63025.0, "O_14": 2.0, "Q_15": 2.0, "O_15": 1.0, "city": "EUREKA", "beds": 174.0, "SR_15": 1.0}, {"Diff_star": 0.0, "addr": "3120 INDEPENDENCE STREET", "SR_14": 2.0, "Q_14": 4.0, "name": "CHATEAU GIRARDEAU", "SF_14": 5.0, "SF_15": 5.0, "cnty": "Cape Girardeau", "st": "MO", "Zip": 63703.0, "O_14": 3.0, "Q_15": 3.0, "O_15": 3.0, "city": "CAPE GIRARDEAU", "beds": 75.0, "SR_15": 2.0}, {"Diff_star": -2.0, "addr": "5900 SWOPE PARKWAY", "SR_14": 2.0, "Q_14": 5.0, "name": "SWOPE RIDGE GERIATRIC CENTER", "SF_14": 4.0, "SF_15": 3.0, "cnty": "Jackson", "st": "MO", "Zip": 64130.0, "O_14": 4.0, "Q_15": 4.0, "O_15": 2.0, "city": "KANSAS CITY", "beds": 240.0, "SR_15": 2.0}, {"Diff_star": -1.0, "addr": "2800 HIGHWAY TT", "SR_14": 2.0, "Q_14": 5.0, "name": "FOUR SEASONS LIVING CENTER", "SF_14": 1.0, "SF_15": 1.0, "cnty": "Pettis", "st": "MO", "Zip": 65301.0, "O_14": 2.0, "Q_15": 4.0, "O_15": 1.0, "city": "SEDALIA", "beds": 239.0, "SR_15": 2.0}, {"Diff_star": 0.0, "addr": "211 DAVIS DRIVE, PO BOX 497", "SR_14": 4.0, "Q_14": 4.0, "name": "NHC HEALTHCARE, WEST PLAINS", "SF_14": 4.0, "SF_15": 3.0, "cnty": "Howell", "st": "MO", "Zip": 65775.0, "O_14": 4.0, "Q_15": 2.0, "O_15": 4.0, "city": "WEST PLAINS", "beds": 118.0, "SR_15": 4.0}, {"Diff_star": 0.0, "addr": "15197 CLAYTON ROAD", "SR_14": 4.0, "Q_14": 4.0, "name": "DELMAR GARDENS ON THE GREEN", "SF_14": 4.0, "SF_15": 3.0, "cnty": "St. Louis", "st": "MO", "Zip": 63017.0, "O_14": 4.0, "Q_15": 2.0, "O_15": 4.0, "city": "CHESTERFIELD", "beds": 163.0, "SR_15": 4.0}, {"Diff_star": 0.0, "addr": "2800 SOUTH FORT AVENUE, PO BOX 3438GS", "SR_14": 5.0, "Q_14": 5.0, "name": "SPRINGFIELD REHABILITATION & HEALTH CARE CENTER", "SF_14": 4.0, "SF_15": 4.0, "cnty": "Greene", "st": "MO", "Zip": 65807.0, "O_14": 5.0, "Q_15": 5.0, "O_15": 5.0, "city": "SPRINGFIELD", "beds": 120.0, "SR_15": 5.0}, {"Diff_star": 0.0, "addr": "801 BRIM STREET, PO BOX AA", "SR_14": 2.0, "Q_14": 4.0, "name": "NHC HEALTHCARE, DESLOGE", "SF_14": 3.0, "SF_15": 3.0, "cnty": "St. Francois", "st": "MO", "Zip": 63601.0, "O_14": 2.0, "Q_15": 2.0, "O_15": 2.0, "city": "DESLOGE", "beds": 120.0, "SR_15": 2.0}, {"Diff_star": 0.0, "addr": "7601 WATSON ROAD", "SR_14": 2.0, "Q_14": 4.0, "name": "MARY, QUEEN AND MOTHER CENTER", "SF_14": 3.0, "SF_15": 3.0, "cnty": "St. Louis", "st": "MO", "Zip": 63119.0, "O_14": 2.0, "Q_15": 4.0, "O_15": 2.0, "city": "SHREWSBURY", "beds": 148.0, "SR_15": 2.0}, {"Diff_star": 0.0, "addr": "1221 BOONSLICK ROAD", "SR_14": 1.0, "Q_14": 5.0, "name": "CHARLEVOIX HEALTHCARE CENTER", "SF_14": 4.0, "SF_15": 4.0, "cnty": "St. Charles", "st": "MO", "Zip": 63301.0, "O_14": 2.0, "Q_15": 4.0, "O_15": 2.0, "city": "SAINT CHARLES", "beds": 142.0, "SR_15": 1.0}, {"Diff_star": -1.0, "addr": "3403 WEST MT VERNON", "SR_14": 4.0, "Q_14": 3.0, "name": "WILSON'S CREEK NURSING & REHAB", "SF_14": 3.0, "SF_15": 3.0, "cnty": "Greene", "st": "MO", "Zip": 65802.0, "O_14": 4.0, "Q_15": 1.0, "O_15": 3.0, "city": "SPRINGFIELD", "beds": 172.0, "SR_15": 4.0}, {"Diff_star": 0.0, "addr": "29612 KELLOGG AVENUE, PO BOX 465", "SR_14": 4.0, "Q_14": 5.0, "name": "MACON HEALTH CARE CENTER", "SF_14": 5.0, "SF_15": 5.0, "cnty": "Macon", "st": "MO", "Zip": 63552.0, "O_14": 5.0, "Q_15": 5.0, "O_15": 5.0, "city": "MACON", "beds": 84.0, "SR_15": 4.0}, {"Diff_star": -1.0, "addr": "210 DAVIS DRIVE", "SR_14": 2.0, "Q_14": 4.0, "name": "WEST VUE NURSING AND REHABILITATION CENTER", "SF_14": 4.0, "SF_15": 4.0, "cnty": "Howell", "st": "MO", "Zip": 65775.0, "O_14": 3.0, "Q_15": 1.0, "O_15": 2.0, "city": "WEST PLAINS", "beds": 120.0, "SR_15": 2.0}, {"Diff_star": -1.0, "addr": "1220 EAST MARSHALL", "SR_14": 3.0, "Q_14": 4.0, "name": "CHARLESTON MANOR", "SF_14": 4.0, "SF_15": 3.0, "cnty": "Mississippi", "st": "MO", "Zip": 63834.0, "O_14": 4.0, "Q_15": 2.0, "O_15": 3.0, "city": "CHARLESTON", "beds": 120.0, "SR_15": 3.0}, {"Diff_star": 0.0, "addr": "35 SUGAR MAPLE LANE", "SR_14": 4.0, "Q_14": 5.0, "name": "NHC HEALTHCARE, ST CHARLES", "SF_14": 4.0, "SF_15": 3.0, "cnty": "St. Charles", "st": "MO", "Zip": 63303.0, "O_14": 5.0, "Q_15": 5.0, "O_15": 5.0, "city": "SAINT CHARLES", "beds": 120.0, "SR_15": 4.0}, {"Diff_star": 0.0, "addr": "904 EAST 68TH STREET", "SR_14": 1.0, "Q_14": 5.0, "name": "HIGHLAND REHABILITATION & HEALTH CARE CENTER", "SF_14": 4.0, "SF_15": 3.0, "cnty": "Jackson", "st": "MO", "Zip": 64131.0, "O_14": 2.0, "Q_15": 5.0, "O_15": 2.0, "city": "KANSAS CITY", "beds": 162.0, "SR_15": 1.0}, {"Diff_star": -1.0, "addr": "1120 FALCON,  PO BOX 696", "SR_14": 2.0, "Q_14": 5.0, "name": "NHC HEALTHCARE, KENNETT", "SF_14": 2.0, "SF_15": 2.0, "cnty": "Dunklin", "st": "MO", "Zip": 63857.0, "O_14": 3.0, "Q_15": 4.0, "O_15": 2.0, "city": "KENNETT", "beds": 170.0, "SR_15": 2.0}, {"Diff_star": 0.0, "addr": "1500 SOUTH KANSAS AVENUE", "SR_14": 3.0, "Q_14": 4.0, "name": "PIONEER SKILLED NURSING CENTER", "SF_14": 3.0, "SF_15": 3.0, "cnty": "Chariton", "st": "MO", "Zip": 64658.0, "O_14": 3.0, "Q_15": 3.0, "O_15": 3.0, "city": "MARCELINE", "beds": 96.0, "SR_15": 3.0}, {"Diff_star": -2.0, "addr": "14855 NORTH OUTER 40 ROAD", "SR_14": 3.0, "Q_14": 5.0, "name": "DELMAR GARDENS OF CHESTERFIELD", "SF_14": 4.0, "SF_15": 3.0, "cnty": "St. Louis", "st": "MO", "Zip": 63017.0, "O_14": 5.0, "Q_15": 4.0, "O_15": 3.0, "city": "CHESTERFIELD", "beds": 191.0, "SR_15": 3.0}, {"Diff_star": 0.0, "addr": "844 PASSOVER ROAD", "SR_14": 5.0, "Q_14": 5.0, "name": "OSAGE BEACH REHABILITATION AND HEALTH CARE CENTER", "SF_14": 3.0, "SF_15": 3.0, "cnty": "Camden", "st": "MO", "Zip": 65065.0, "O_14": 5.0, "Q_15": 5.0, "O_15": 5.0, "city": "OSAGE BEACH", "beds": 120.0, "SR_15": 5.0}, {"Diff_star": -2.0, "addr": "11160 VILLAGE NORTH DRIVE", "SR_14": 3.0, "Q_14": 5.0, "name": "VILLAGE NORTH RETIREMENT AND HEALTH CENTER", "SF_14": 4.0, "SF_15": 3.0, "cnty": "St. Louis", "st": "MO", "Zip": 63136.0, "O_14": 5.0, "Q_15": 4.0, "O_15": 3.0, "city": "SAINT LOUIS", "beds": 52.0, "SR_15": 3.0}, {"Diff_star": 0.0, "addr": "2700 EAST 34TH STREET,  PO BOX 2877", "SR_14": 2.0, "Q_14": 5.0, "name": "NHC HEALTHCARE, JOPLIN", "SF_14": 3.0, "SF_15": 3.0, "cnty": "Jasper", "st": "MO", "Zip": 64803.0, "O_14": 3.0, "Q_15": 5.0, "O_15": 3.0, "city": "JOPLIN", "beds": 126.0, "SR_15": 2.0}, {"Diff_star": -1.0, "addr": "1083 OZARK CARE DRIVE, PO BOX 270", "SR_14": 2.0, "Q_14": 3.0, "name": "OZARK REHABILITATION & HEALTH CARE CENTER", "SF_14": 3.0, "SF_15": 3.0, "cnty": "Camden", "st": "MO", "Zip": 65065.0, "O_14": 2.0, "Q_15": 1.0, "O_15": 1.0, "city": "OSAGE BEACH", "beds": 60.0, "SR_15": 2.0}, {"Diff_star": 0.0, "addr": "65 STATE HWY AA", "SR_14": 2.0, "Q_14": 4.0, "name": "WARRENTON MANOR", "SF_14": 4.0, "SF_15": 4.0, "cnty": "Warren", "st": "MO", "Zip": 63390.0, "O_14": 3.0, "Q_15": 4.0, "O_15": 3.0, "city": "WRIGHT CITY", "beds": 120.0, "SR_15": 2.0}, {"Diff_star": -1.0, "addr": "1700 SOUTH HUDSON AVENUE", "SR_14": 4.0, "Q_14": 5.0, "name": "AURORA NURSING CENTER", "SF_14": 4.0, "SF_15": 4.0, "cnty": "Lawrence", "st": "MO", "Zip": 65605.0, "O_14": 5.0, "Q_15": 4.0, "O_15": 4.0, "city": "AURORA", "beds": 125.0, "SR_15": 4.0}, {"Diff_star": -1.0, "addr": "365 SOUTH BROADVIEW STREET", "SR_14": 2.0, "Q_14": 5.0, "name": "LIFE CARE CENTER OF CAPE GIRARDEAU", "SF_14": 4.0, "SF_15": 4.0, "cnty": "Cape Girardeau", "st": "MO", "Zip": 63703.0, "O_14": 4.0, "Q_15": 4.0, "O_15": 3.0, "city": "CAPE GIRARDEAU", "beds": 120.0, "SR_15": 2.0}, {"Diff_star": -1.0, "addr": "2915 SOUTH FREMONT", "SR_14": 2.0, "Q_14": 5.0, "name": "MANORCARE HEALTH SERVICES", "SF_14": 4.0, "SF_15": 4.0, "cnty": "Greene", "st": "MO", "Zip": 65804.0, "O_14": 4.0, "Q_15": 4.0, "O_15": 3.0, "city": "SPRINGFIELD", "beds": 194.0, "SR_15": 2.0}, {"Diff_star": -1.0, "addr": "3100 WARRIOR LANE, PO BOX 1328", "SR_14": 4.0, "Q_14": 2.0, "name": "WESTWOOD HILLS HEALTH & REHABILITATION CENTER", "SF_14": 3.0, "SF_15": 3.0, "cnty": "Butler", "st": "MO", "Zip": 63901.0, "O_14": 4.0, "Q_15": 1.0, "O_15": 3.0, "city": "POPLAR BLUFF", "beds": 132.0, "SR_15": 4.0}, {"Diff_star": 0.0, "addr": "300 FORBY ROAD,  PO BOX 476", "SR_14": 4.0, "Q_14": 5.0, "name": "ST ANDREW'S AT FRANCIS PLACE", "SF_14": 4.0, "SF_15": 4.0, "cnty": "Jefferson", "st": "MO", "Zip": 63025.0, "O_14": 5.0, "Q_15": 5.0, "O_15": 5.0, "city": "EUREKA", "beds": 90.0, "SR_15": 4.0}, {"Diff_star": 0.0, "addr": "316 SOUTH OSTEOPATHY STREET", "SR_14": 2.0, "Q_14": 4.0, "name": "TWIN PINES ADULT CARE CENTER", "SF_14": 4.0, "SF_15": 4.0, "cnty": "Adair", "st": "MO", "Zip": 63501.0, "O_14": 3.0, "Q_15": 3.0, "O_15": 3.0, "city": "KIRKSVILLE", "beds": 152.0, "SR_15": 2.0}, {"Diff_star": -1.0, "addr": "4330 WASHINGTON", "SR_14": 2.0, "Q_14": 4.0, "name": "PLAZA REHABILITATION & HEALTH CARE CENTER, THE", "SF_14": 4.0, "SF_15": 3.0, "cnty": "Jackson", "st": "MO", "Zip": 64111.0, "O_14": 3.0, "Q_15": 3.0, "O_15": 2.0, "city": "KANSAS CITY", "beds": 154.0, "SR_15": 2.0}, {"Diff_star": 0.0, "addr": "701 SUNSET HILLS DR, PO BOX 187", "SR_14": 4.0, "Q_14": 4.0, "name": "LOCH HAVEN", "SF_14": 4.0, "SF_15": 4.0, "cnty": "Macon", "st": "MO", "Zip": 63552.0, "O_14": 4.0, "Q_15": 2.0, "O_15": 4.0, "city": "MACON", "beds": 180.0, "SR_15": 4.0}, {"Diff_star": -1.0, "addr": "324 WEST 5TH STREET", "SR_14": 3.0, "Q_14": 3.0, "name": "CEDARCREST MANOR", "SF_14": 3.0, "SF_15": 3.0, "cnty": "Franklin", "st": "MO", "Zip": 63090.0, "O_14": 3.0, "Q_15": 1.0, "O_15": 2.0, "city": "WASHINGTON", "beds": 177.0, "SR_15": 3.0}, {"Diff_star": 0.0, "addr": "2350 KANELL BLVD", "SR_14": 1.0, "Q_14": 1.0, "name": "CEDARGATE HEALTHCARE", "SF_14": 1.0, "SF_15": 1.0, "cnty": "Butler", "st": "MO", "Zip": 63901.0, "O_14": 1.0, "Q_15": 2.0, "O_15": 1.0, "city": "POPLAR BLUFF", "beds": 108.0, "SR_15": 1.0}, {"Diff_star": -1.0, "addr": "1030 EDMONDS STREET", "SR_14": 2.0, "Q_14": 3.0, "name": "VILLA MARIE-A STONEBRIDGE COMMUNITY", "SF_14": 4.0, "SF_15": 3.0, "cnty": "Cole", "st": "MO", "Zip": 65109.0, "O_14": 3.0, "Q_15": 2.0, "O_15": 2.0, "city": "JEFFERSON CITY", "beds": 120.0, "SR_15": 2.0}, {"Diff_star": 0.0, "addr": "1050 DAWSON ROAD", "SR_14": 5.0, "Q_14": 5.0, "name": "GOLDEN LIVINGCENTER-NEW MADRID", "SF_14": 3.0, "SF_15": 3.0, "cnty": "New Madrid", "st": "MO", "Zip": 63869.0, "O_14": 5.0, "Q_15": 4.0, "O_15": 5.0, "city": "NEW MADRID", "beds": 112.0, "SR_15": 5.0}, {"Diff_star": -2.0, "addr": "1001 NORTH WALNUT", "SR_14": 2.0, "Q_14": 5.0, "name": "RIVER OAKS CARE CENTER", "SF_14": 4.0, "SF_15": 3.0, "cnty": "Pemiscot", "st": "MO", "Zip": 63877.0, "O_14": 4.0, "Q_15": 4.0, "O_15": 2.0, "city": "STEELE", "beds": 90.0, "SR_15": 2.0}, {"Diff_star": -1.0, "addr": "1333 SCENIC DRIVE", "SR_14": 4.0, "Q_14": 5.0, "name": "SCENIC NURSING AND REHABILITATION CENTER, LLC", "SF_14": 3.0, "SF_15": 4.0, "cnty": "Jefferson", "st": "MO", "Zip": 63048.0, "O_14": 5.0, "Q_15": 3.0, "O_15": 4.0, "city": "HERCULANEUM", "beds": 189.0, "SR_15": 4.0}, {"Diff_star": 0.0, "addr": "415 SIDNEY STREET, PO BOX 69", "SR_14": 5.0, "Q_14": 5.0, "name": "GOLDEN LIVINGCENTER-ST JAMES", "SF_14": 4.0, "SF_15": 4.0, "cnty": "Phelps", "st": "MO", "Zip": 65559.0, "O_14": 5.0, "Q_15": 5.0, "O_15": 5.0, "city": "SAINT JAMES", "beds": 90.0, "SR_15": 5.0}, {"Diff_star": -1.0, "addr": "509 MEADOWLARK AVENUE", "SR_14": 3.0, "Q_14": 5.0, "name": "OZARK MOUNTAIN REGIONAL HEALTHCARE CENTER", "SF_14": 4.0, "SF_15": 3.0, "cnty": "Stone", "st": "MO", "Zip": 65633.0, "O_14": 5.0, "Q_15": 5.0, "O_15": 4.0, "city": "CRANE", "beds": 100.0, "SR_15": 3.0}, {"Diff_star": 0.0, "addr": "11988 MARK TWAIN LANE", "SR_14": 4.0, "Q_14": 4.0, "name": "MARK TWAIN MANOR", "SF_14": 4.0, "SF_15": 3.0, "cnty": "St. Louis", "st": "MO", "Zip": 63044.0, "O_14": 4.0, "Q_15": 3.0, "O_15": 4.0, "city": "BRIDGETON", "beds": 120.0, "SR_15": 4.0}, {"Diff_star": -1.0, "addr": "1410 WEST LINE STREET, PO BOX 232", "SR_14": 1.0, "Q_14": 5.0, "name": "MAPLE LAWN NURSING HOME", "SF_14": 4.0, "SF_15": 3.0, "cnty": "Marion", "st": "MO", "Zip": 63461.0, "O_14": 2.0, "Q_15": 3.0, "O_15": 1.0, "city": "PALMYRA", "beds": 138.0, "SR_15": 1.0}, {"Diff_star": -1.0, "addr": "52435 INFIRMARY ROAD", "SR_14": 3.0, "Q_14": 5.0, "name": "MILAN HEALTH CARE CENTER", "SF_14": 2.0, "SF_15": 2.0, "cnty": "Sullivan", "st": "MO", "Zip": 63556.0, "O_14": 4.0, "Q_15": 4.0, "O_15": 3.0, "city": "MILAN", "beds": 100.0, "SR_15": 3.0}, {"Diff_star": -1.0, "addr": "FIRST AND HWY 54, PO BOX 325", "SR_14": 4.0, "Q_14": 5.0, "name": "HERMITAGE NURSING & REHAB", "SF_14": 3.0, "SF_15": 3.0, "cnty": "Hickory", "st": "MO", "Zip": 65668.0, "O_14": 5.0, "Q_15": 4.0, "O_15": 4.0, "city": "HERMITAGE", "beds": 120.0, "SR_15": 4.0}, {"Diff_star": 0.0, "addr": "750 WEST COOPER, PO BOX 978", "SR_14": 5.0, "Q_14": 5.0, "name": "COLONIAL SPRINGS HEALTHCARE CENTER", "SF_14": 2.0, "SF_15": 2.0, "cnty": "Dallas", "st": "MO", "Zip": 65622.0, "O_14": 5.0, "Q_15": 5.0, "O_15": 5.0, "city": "BUFFALO", "beds": 134.0, "SR_15": 5.0}, {"Diff_star": -1.0, "addr": "715 S STATE ROUTE 19", "SR_14": 3.0, "Q_14": 5.0, "name": "SHADY OAKS HEALTHCARE CENTER", "SF_14": 4.0, "SF_15": 4.0, "cnty": "Oregon", "st": "MO", "Zip": 65791.0, "O_14": 5.0, "Q_15": 4.0, "O_15": 4.0, "city": "THAYER", "beds": 120.0, "SR_15": 3.0}, {"Diff_star": 0.0, "addr": "1705 EAST LAHARPE", "SR_14": 5.0, "Q_14": 5.0, "name": "KIRKSVILLE MANOR CARE CENTER", "SF_14": 4.0, "SF_15": 4.0, "cnty": "Adair", "st": "MO", "Zip": 63501.0, "O_14": 5.0, "Q_15": 5.0, "O_15": 5.0, "city": "KIRKSVILLE", "beds": 119.0, "SR_15": 5.0}, {"Diff_star": -1.0, "addr": "174 BALLPARK ROAD", "SR_14": 1.0, "Q_14": 4.0, "name": "MARIES MANOR", "SF_14": 4.0, "SF_15": 3.0, "cnty": "Maries", "st": "MO", "Zip": 65582.0, "O_14": 2.0, "Q_15": 2.0, "O_15": 1.0, "city": "VIENNA", "beds": 98.0, "SR_15": 1.0}, {"Diff_star": 0.0, "addr": "1801 TOWNE DRIVE", "SR_14": 4.0, "Q_14": 3.0, "name": "COLUMBIA HEALTHCARE CENTER", "SF_14": 3.0, "SF_15": 3.0, "cnty": "Boone", "st": "MO", "Zip": 65202.0, "O_14": 4.0, "Q_15": 3.0, "O_15": 4.0, "city": "COLUMBIA", "beds": 97.0, "SR_15": 4.0}, {"Diff_star": 0.0, "addr": "206 WEST FIRST STREET", "SR_14": 4.0, "Q_14": 4.0, "name": "TRUMAN HEALTHCARE & REHABILITATION CENTER", "SF_14": 4.0, "SF_15": 4.0, "cnty": "Barton", "st": "MO", "Zip": 64759.0, "O_14": 4.0, "Q_15": 2.0, "O_15": 4.0, "city": "LAMAR", "beds": 109.0, "SR_15": 4.0}, {"Diff_star": 0.0, "addr": "2004 CRESTVIEW STREET, PO BOX 727", "SR_14": 5.0, "Q_14": 5.0, "name": "HEART OF THE OZARKS HEALTHCARE CENTER", "SF_14": 4.0, "SF_15": 4.0, "cnty": "Douglas", "st": "MO", "Zip": 65608.0, "O_14": 5.0, "Q_15": 5.0, "O_15": 5.0, "city": "AVA", "beds": 120.0, "SR_15": 5.0}, {"Diff_star": -1.0, "addr": "1009 EAST OHIO", "SR_14": 2.0, "Q_14": 5.0, "name": "CLINTON HEALTHCARE AND REHABILITATION CENTER", "SF_14": 4.0, "SF_15": 4.0, "cnty": "Henry", "st": "MO", "Zip": 64735.0, "O_14": 4.0, "Q_15": 4.0, "O_15": 3.0, "city": "CLINTON", "beds": 120.0, "SR_15": 2.0}, {"Diff_star": 0.0, "addr": "23144 HIGHWAY 32", "SR_14": 4.0, "Q_14": 4.0, "name": "BELLEVIEW VALLEY NURSING HOME", "SF_14": 4.0, "SF_15": 4.0, "cnty": "Iron", "st": "MO", "Zip": 63623.0, "O_14": 4.0, "Q_15": 2.0, "O_15": 4.0, "city": "BELLEVIEW", "beds": 109.0, "SR_15": 4.0}, {"Diff_star": 0.0, "addr": "400 LYON DRIVE", "SR_14": 1.0, "Q_14": 4.0, "name": "MEDICALODGES NEOSHO", "SF_14": 4.0, "SF_15": 3.0, "cnty": "Newton", "st": "MO", "Zip": 64850.0, "O_14": 2.0, "Q_15": 1.0, "O_15": 2.0, "city": "NEOSHO", "beds": 114.0, "SR_15": 3.0}, {"Diff_star": 0.0, "addr": "416 SOUTH HIGH STREET", "SR_14": 3.0, "Q_14": 5.0, "name": "HEARTLAND OF WILLOW LANE", "SF_14": 4.0, "SF_15": 4.0, "cnty": "Bates", "st": "MO", "Zip": 64730.0, "O_14": 5.0, "Q_15": 5.0, "O_15": 5.0, "city": "BUTLER", "beds": 98.0, "SR_15": 3.0}, {"Diff_star": 0.0, "addr": "1800 WHITE COLUMNS DRIVE", "SR_14": 3.0, "Q_14": 5.0, "name": "ROLLA MANOR CARE CENTER", "SF_14": 4.0, "SF_15": 4.0, "cnty": "Phelps", "st": "MO", "Zip": 65401.0, "O_14": 5.0, "Q_15": 5.0, "O_15": 5.0, "city": "ROLLA", "beds": 102.0, "SR_15": 3.0}, {"Diff_star": 0.0, "addr": "1720 VIETH DR", "SR_14": 4.0, "Q_14": 4.0, "name": "JEFFERSON CITY MANOR CARE CENTER", "SF_14": 5.0, "SF_15": 5.0, "cnty": "Cole", "st": "MO", "Zip": 65109.0, "O_14": 5.0, "Q_15": 2.0, "O_15": 5.0, "city": "JEFFERSON CITY", "beds": 102.0, "SR_15": 4.0}, {"Diff_star": -1.0, "addr": "276 FOUNTAIN LANE", "SR_14": 2.0, "Q_14": 3.0, "name": "TABLEROCK HEALTHCARE", "SF_14": 4.0, "SF_15": 3.0, "cnty": "Stone", "st": "MO", "Zip": 65686.0, "O_14": 3.0, "Q_15": 2.0, "O_15": 2.0, "city": "KIMBERLING CITY", "beds": 120.0, "SR_15": 2.0}, {"Diff_star": 0.0, "addr": "3535 S NATIONAL AVE", "SR_14": 5.0, "Q_14": 2.0, "name": "COX HEALTH", "SF_14": 5.0, "SF_15": "", "cnty": "Greene", "st": "MO", "Zip": 65807.0, "O_14": 5.0, "Q_15": 2.0, "O_15": 5.0, "city": "SPRINGFIELD", "beds": 28.0, "SR_15": 5.0}, {"Diff_star": -1.0, "addr": "300 LIFE CARE LANE", "SR_14": 3.0, "Q_14": 2.0, "name": "LIFE CARE CENTER OF CARROLLTON", "SF_14": 3.0, "SF_15": 3.0, "cnty": "Carroll", "st": "MO", "Zip": 64633.0, "O_14": 3.0, "Q_15": 1.0, "O_15": 2.0, "city": "CARROLLTON", "beds": 120.0, "SR_15": 3.0}, {"Diff_star": 0.0, "addr": "615 SOUTH NEW BALLAS ROAD", "SR_14": 5.0, "Q_14": 4.0, "name": "MERCY SKILLED NURSING CENTER", "SF_14": 5.0, "SF_15": 5.0, "cnty": "St. Louis", "st": "MO", "Zip": 63141.0, "O_14": 5.0, "Q_15": 3.0, "O_15": 5.0, "city": "SAINT LOUIS", "beds": 84.0, "SR_15": 5.0}, {"Diff_star": 0.0, "addr": "1201 HUNT AVENUE", "SR_14": 2.0, "Q_14": 4.0, "name": "PARKSIDE MANOR", "SF_14": 4.0, "SF_15": 4.0, "cnty": "Boone", "st": "MO", "Zip": 65202.0, "O_14": 3.0, "Q_15": 4.0, "O_15": 3.0, "city": "COLUMBIA", "beds": 120.0, "SR_15": 2.0}, {"Diff_star": 0.0, "addr": "621 CARONDELET DRIVE", "SR_14": 1.0, "Q_14": 4.0, "name": "CARONDELET MANOR", "SF_14": 3.0, "SF_15": 3.0, "cnty": "Jackson", "st": "MO", "Zip": 64114.0, "O_14": 1.0, "Q_15": 4.0, "O_15": 1.0, "city": "KANSAS CITY", "beds": 162.0, "SR_15": 1.0}, {"Diff_star": 0.0, "addr": "2077 STADIUM DRIVE", "SR_14": 2.0, "Q_14": 4.0, "name": "WEBB CITY HEALTH AND REHABILITATION CENTER", "SF_14": 2.0, "SF_15": 2.0, "cnty": "Jasper", "st": "MO", "Zip": 64870.0, "O_14": 2.0, "Q_15": 2.0, "O_15": 2.0, "city": "WEBB CITY", "beds": 120.0, "SR_15": 2.0}, {"Diff_star": -2.0, "addr": "11221 NORTH NASHUA DRIVE", "SR_14": 2.0, "Q_14": 3.0, "name": "NEW MARK CARE CENTER", "SF_14": 4.0, "SF_15": 3.0, "cnty": "Clay", "st": "MO", "Zip": 64155.0, "O_14": 3.0, "Q_15": 1.0, "O_15": 1.0, "city": "KANSAS CITY", "beds": 199.0, "SR_15": 2.0}, {"Diff_star": 0.0, "addr": "2218 W 32ND STREET", "SR_14": 2.0, "Q_14": 4.0, "name": "JOPLIN HEALTH AND REHABILITATION CENTER", "SF_14": 3.0, "SF_15": 3.0, "cnty": "Jasper", "st": "MO", "Zip": 64804.0, "O_14": 2.0, "Q_15": 2.0, "O_15": 2.0, "city": "JOPLIN", "beds": 120.0, "SR_15": 2.0}, {"Diff_star": 0.0, "addr": "5300 BUTLER HILL ROAD", "SR_14": 5.0, "Q_14": 5.0, "name": "DELMAR GARDENS SOUTH", "SF_14": 4.0, "SF_15": 4.0, "cnty": "St. Louis", "st": "MO", "Zip": 63128.0, "O_14": 5.0, "Q_15": 5.0, "O_15": 5.0, "city": "SAINT LOUIS", "beds": 116.0, "SR_15": 5.0}, {"Diff_star": 0.0, "addr": "77 MEDICAL DRIVE, PO BOX 628", "SR_14": 4.0, "Q_14": 3.0, "name": "GAINESVILLE HEALTH CARE CENTER", "SF_14": 4.0, "SF_15": 4.0, "cnty": "Ozark", "st": "MO", "Zip": 65655.0, "O_14": 4.0, "Q_15": 2.0, "O_15": 4.0, "city": "GAINESVILLE", "beds": 99.0, "SR_15": 4.0}, {"Diff_star": 0.0, "addr": "2920 FEE FEE ROAD", "SR_14": 4.0, "Q_14": 5.0, "name": "NHC HEALTHCARE, MARYLAND HEIGHTS", "SF_14": 3.0, "SF_15": 3.0, "cnty": "St. Louis", "st": "MO", "Zip": 63043.0, "O_14": 5.0, "Q_15": 5.0, "O_15": 5.0, "city": "MARYLAND HEIGHTS", "beds": 220.0, "SR_15": 4.0}, {"Diff_star": -1.0, "addr": "401 MAR-LE DRIVE", "SR_14": 3.0, "Q_14": 5.0, "name": "PARKLANE CARE AND REHABILITATION CENTER", "SF_14": 3.0, "SF_15": 3.0, "cnty": "St. Charles", "st": "MO", "Zip": 63385.0, "O_14": 4.0, "Q_15": 4.0, "O_15": 3.0, "city": "WENTZVILLE", "beds": 240.0, "SR_15": 3.0}, {"Diff_star": -1.0, "addr": "1901 BUENA VISTA AVENUE", "SR_14": 1.0, "Q_14": 4.0, "name": "CARTHAGE HEALTH AND REHABILITATION CENTER", "SF_14": 4.0, "SF_15": 3.0, "cnty": "Jasper", "st": "MO", "Zip": 64836.0, "O_14": 2.0, "Q_15": 3.0, "O_15": 1.0, "city": "CARTHAGE", "beds": 120.0, "SR_15": 1.0}, {"Diff_star": -1.0, "addr": "700 GARDEN PATH", "SR_14": 3.0, "Q_14": 5.0, "name": "GARDEN VIEW CARE CENTER", "SF_14": 3.0, "SF_15": 2.0, "cnty": "St. Charles", "st": "MO", "Zip": 63366.0, "O_14": 4.0, "Q_15": 4.0, "O_15": 3.0, "city": "O FALLON", "beds": 36.0, "SR_15": 3.0}, {"Diff_star": 0.0, "addr": "1104 NORTH MAIN STREET", "SR_14": 4.0, "Q_14": 5.0, "name": "NIXA NURSING & REHAB", "SF_14": 3.0, "SF_15": 3.0, "cnty": "Christian", "st": "MO", "Zip": 65714.0, "O_14": 5.0, "Q_15": 5.0, "O_15": 5.0, "city": "NIXA", "beds": 82.0, "SR_15": 4.0}, {"Diff_star": 0.0, "addr": "100 WOODLAND COURT", "SR_14": 4.0, "Q_14": 4.0, "name": "WOODLAND MANOR NURSING CENTER", "SF_14": 4.0, "SF_15": 3.0, "cnty": "Jefferson", "st": "MO", "Zip": 63010.0, "O_14": 4.0, "Q_15": 3.0, "O_15": 4.0, "city": "ARNOLD", "beds": 178.0, "SR_15": 4.0}, {"Diff_star": 0.0, "addr": "4401 PARKER ROAD", "SR_14": 2.0, "Q_14": 5.0, "name": "DELMAR GARDENS NORTH", "SF_14": "", "SF_15": 3.0, "cnty": "St. Louis", "st": "MO", "Zip": 63033.0, "O_14": 3.0, "Q_15": 5.0, "O_15": 3.0, "city": "FLORISSANT", "beds": 199.0, "SR_15": 2.0}, {"Diff_star": -1.0, "addr": "901 EAST HWY 174", "SR_14": 4.0, "Q_14": 3.0, "name": "REPUBLIC NURSING & REHAB", "SF_14": 4.0, "SF_15": 3.0, "cnty": "Greene", "st": "MO", "Zip": 65738.0, "O_14": 4.0, "Q_15": 1.0, "O_15": 3.0, "city": "REPUBLIC", "beds": 127.0, "SR_15": 4.0}, {"Diff_star": -1.0, "addr": "1000 W TENTH ST", "SR_14": 5.0, "Q_14": 2.0, "name": "PHELPS COUNTY REGIONAL MEDICAL CENTER", "SF_14": "", "SF_15": "", "cnty": "Phelps", "st": "MO", "Zip": 65401.0, "O_14": 5.0, "Q_15": 1.0, "O_15": 4.0, "city": "ROLLA", "beds": 20.0, "SR_15": 5.0}, {"Diff_star": -1.0, "addr": "2041 SILVA LANE", "SR_14": 1.0, "Q_14": 5.0, "name": "NORTH VILLAGE PARK", "SF_14": 2.0, "SF_15": 2.0, "cnty": "Randolph", "st": "MO", "Zip": 65270.0, "O_14": 2.0, "Q_15": 4.0, "O_15": 1.0, "city": "MOBERLY", "beds": 183.0, "SR_15": 1.0}, {"Diff_star": 0.0, "addr": "10954 KENNERLY ROAD", "SR_14": 2.0, "Q_14": 3.0, "name": "SUNSET HILLS HEALTH AND REHABILITATION CENTER", "SF_14": 2.0, "SF_15": 2.0, "cnty": "St. Louis", "st": "MO", "Zip": 63128.0, "O_14": 2.0, "Q_15": 2.0, "O_15": 2.0, "city": "SAINT LOUIS", "beds": 166.0, "SR_15": 2.0}, {"Diff_star": 0.0, "addr": "308 CEDAR AVENUE, PO BOX 218", "SR_14": 3.0, "Q_14": 5.0, "name": "JONESBURG NURSING & REHAB", "SF_14": 2.0, "SF_15": 2.0, "cnty": "Montgomery", "st": "MO", "Zip": 63351.0, "O_14": 4.0, "Q_15": 5.0, "O_15": 4.0, "city": "JONESBURG", "beds": 90.0, "SR_15": 3.0}, {"Diff_star": 0.0, "addr": "2646 STATE ROUTE 76, PO BOX 309", "SR_14": 3.0, "Q_14": 4.0, "name": "WILLOW CARE NURSING HOME", "SF_14": 4.0, "SF_15": 4.0, "cnty": "Howell", "st": "MO", "Zip": 65793.0, "O_14": 4.0, "Q_15": 2.0, "O_15": 4.0, "city": "WILLOW SPRINGS", "beds": 105.0, "SR_15": 3.0}, {"Diff_star": 0.0, "addr": "4009 GENE FIELD ROAD", "SR_14": 1.0, "Q_14": 5.0, "name": "CARRIAGE SQUARE LIVING & REHAB CENTER", "SF_14": 4.0, "SF_15": 4.0, "cnty": "Buchanan", "st": "MO", "Zip": 64506.0, "O_14": 2.0, "Q_15": 4.0, "O_15": 2.0, "city": "SAINT JOSEPH", "beds": 130.0, "SR_15": 1.0}, {"Diff_star": -1.0, "addr": "105 SOUTH SIXTH STREET", "SR_14": 3.0, "Q_14": 5.0, "name": "PACIFIC CARE CENTER LLC", "SF_14": 3.0, "SF_15": 3.0, "cnty": "Franklin", "st": "MO", "Zip": 63069.0, "O_14": 4.0, "Q_15": 3.0, "O_15": 3.0, "city": "PACIFIC", "beds": 118.0, "SR_15": 3.0}, {"Diff_star": 0.0, "addr": "550 WHITE ROAD", "SR_14": 3.0, "Q_14": 4.0, "name": "WESTCHESTER HOUSE, THE", "SF_14": 3.0, "SF_15": 3.0, "cnty": "St. Louis", "st": "MO", "Zip": 63017.0, "O_14": 3.0, "Q_15": 3.0, "O_15": 3.0, "city": "CHESTERFIELD", "beds": 159.0, "SR_15": 3.0}, {"Diff_star": 0.0, "addr": "6124 RAYTOWN ROAD", "SR_14": 1.0, "Q_14": 3.0, "name": "AUTUMN TERRACE HEALTH & REHABILITATION", "SF_14": 2.0, "SF_15": 2.0, "cnty": "Jackson", "st": "MO", "Zip": 64133.0, "O_14": 1.0, "Q_15": 1.0, "O_15": 1.0, "city": "RAYTOWN", "beds": 154.0, "SR_15": 1.0}, {"Diff_star": -1.0, "addr": "875 DUNSFORD DRIVE", "SR_14": 4.0, "Q_14": 2.0, "name": "LIFE CARE CENTER OF SULLIVAN", "SF_14": 4.0, "SF_15": 3.0, "cnty": "Franklin", "st": "MO", "Zip": 63080.0, "O_14": 4.0, "Q_15": 1.0, "O_15": 3.0, "city": "SULLIVAN", "beds": 120.0, "SR_15": 4.0}, {"Diff_star": -1.0, "addr": "13700 OLD HALLS FERRY ROAD", "SR_14": 4.0, "Q_14": 3.0, "name": "PILLARS OF NORTH COUNTY HEALTH & REHAB CENTER, THE", "SF_14": 2.0, "SF_15": 2.0, "cnty": "St. Louis", "st": "MO", "Zip": 63033.0, "O_14": 4.0, "Q_15": 1.0, "O_15": 3.0, "city": "FLORISSANT", "beds": 120.0, "SR_15": 4.0}, {"Diff_star": 0.0, "addr": "850 COUNTRY MANOR LANE", "SR_14": 4.0, "Q_14": 4.0, "name": "DELMAR GARDENS OF CREVE COEUR", "SF_14": 4.0, "SF_15": 4.0, "cnty": "St. Louis", "st": "MO", "Zip": 63141.0, "O_14": 4.0, "Q_15": 3.0, "O_15": 4.0, "city": "CREVE COEUR", "beds": 112.0, "SR_15": 4.0}, {"Diff_star": 0.0, "addr": "12145 BRIDGETON SQUARE DR", "SR_14": 3.0, "Q_14": 5.0, "name": "LIFE CARE CENTER OF BRIDGETON", "SF_14": 4.0, "SF_15": 4.0, "cnty": "St. Louis", "st": "MO", "Zip": 63044.0, "O_14": 5.0, "Q_15": 5.0, "O_15": 5.0, "city": "BRIDGETON", "beds": 91.0, "SR_15": 3.0}, {"Diff_star": 0.0, "addr": "1801 NORTH GAINES DRIVE", "SR_14": 1.0, "Q_14": 4.0, "name": "GOLDEN LIVINGCENTER-WESTWOOD", "SF_14": 3.0, "SF_15": 3.0, "cnty": "Henry", "st": "MO", "Zip": 64735.0, "O_14": 1.0, "Q_15": 3.0, "O_15": 1.0, "city": "CLINTON", "beds": 120.0, "SR_15": 1.0}, {"Diff_star": 0.0, "addr": "705 GRAND CANYON DRIVE", "SR_14": 4.0, "Q_14": 4.0, "name": "CAMELOT NURSING AND REHABILITATION CENTER", "SF_14": 4.0, "SF_15": 4.0, "cnty": "St. Francois", "st": "MO", "Zip": 63640.0, "O_14": 4.0, "Q_15": 3.0, "O_15": 4.0, "city": "FARMINGTON", "beds": 97.0, "SR_15": 4.0}, {"Diff_star": 0.0, "addr": "2001 JEFFERSON PARKWAY", "SR_14": 2.0, "Q_14": 4.0, "name": "GOLDEN YEARS", "SF_14": 1.0, "SF_15": 1.0, "cnty": "Cass", "st": "MO", "Zip": 64701.0, "O_14": 1.0, "Q_15": 2.0, "O_15": 1.0, "city": "HARRISONVILLE", "beds": 132.0, "SR_15": 2.0}, {"Diff_star": 0.0, "addr": "4624 LANSDOWNE AVENUE", "SR_14": 1.0, "Q_14": 5.0, "name": "ALEXIAN BROS LANSDOWNE VILLAGE", "SF_14": 4.0, "SF_15": 4.0, "cnty": "St. Louis City", "st": "MO", "Zip": 63116.0, "O_14": 2.0, "Q_15": 5.0, "O_15": 2.0, "city": "SAINT LOUIS", "beds": 145.0, "SR_15": 1.0}, {"Diff_star": 0.0, "addr": "312 SOLLEY DRIVE", "SR_14": 3.0, "Q_14": 4.0, "name": "WEST COUNTY CARE CENTER", "SF_14": 5.0, "SF_15": 5.0, "cnty": "St. Louis", "st": "MO", "Zip": 63021.0, "O_14": 4.0, "Q_15": 3.0, "O_15": 4.0, "city": "BALLWIN", "beds": 137.0, "SR_15": 3.0}, {"Diff_star": 0.0, "addr": "1405 WEST GRAND AVENUE, PO BOX 525", "SR_14": 1.0, "Q_14": 5.0, "name": "QUAIL RUN HEALTH CARE CENTER", "SF_14": 5.0, "SF_15": 5.0, "cnty": "Clinton", "st": "MO", "Zip": 64429.0, "O_14": 2.0, "Q_15": 5.0, "O_15": 2.0, "city": "CAMERON", "beds": 84.0, "SR_15": 1.0}, {"Diff_star": -1.0, "addr": "524 NORTH LAURA", "SR_14": 2.0, "Q_14": 5.0, "name": "GOLDEN LIVINGCENTER-MARYVILLE", "SF_14": 2.0, "SF_15": 2.0, "cnty": "Nodaway", "st": "MO", "Zip": 64468.0, "O_14": 3.0, "Q_15": 4.0, "O_15": 2.0, "city": "MARYVILLE", "beds": 105.0, "SR_15": 2.0}, {"Diff_star": 0.0, "addr": "6301 EAST 125TH ST", "SR_14": 3.0, "Q_14": 4.0, "name": "LIFE CARE CENTER OF GRANDVIEW", "SF_14": 4.0, "SF_15": 4.0, "cnty": "Jackson", "st": "MO", "Zip": 64030.0, "O_14": 4.0, "Q_15": 3.0, "O_15": 4.0, "city": "GRANDVIEW", "beds": 172.0, "SR_15": 3.0}, {"Diff_star": -2.0, "addr": "1410 HOSPITAL DRIVE", "SR_14": 3.0, "Q_14": 5.0, "name": "VALLEY MANOR AND REHABILITATION CENTER", "SF_14": 4.0, "SF_15": 3.0, "cnty": "Clay", "st": "MO", "Zip": 64024.0, "O_14": 5.0, "Q_15": 4.0, "O_15": 3.0, "city": "EXCELSIOR SPRINGS", "beds": 120.0, "SR_15": 3.0}, {"Diff_star": 0.0, "addr": "1221 HIGHWAY 13 SOUTH", "SR_14": 1.0, "Q_14": 4.0, "name": "RIVERBEND HEIGHTS HEALTH & REHABILITATION", "SF_14": 2.0, "SF_15": 2.0, "cnty": "Lafayette", "st": "MO", "Zip": 64067.0, "O_14": 1.0, "Q_15": 3.0, "O_15": 1.0, "city": "LEXINGTON", "beds": 160.0, "SR_15": 1.0}, {"Diff_star": -1.0, "addr": "2825 BLOOMFIELD ROAD", "SR_14": 1.0, "Q_14": 3.0, "name": "LUTHERAN HOME, THE", "SF_14": 4.0, "SF_15": 4.0, "cnty": "Cape Girardeau", "st": "MO", "Zip": 63703.0, "O_14": 2.0, "Q_15": 1.0, "O_15": 1.0, "city": "CAPE GIRARDEAU", "beds": 274.0, "SR_15": 1.0}, {"Diff_star": 0.0, "addr": "PO BOX 266, 17528 STATE HIGHWAY 81", "SR_14": 3.0, "Q_14": 4.0, "name": "LEWIS COUNTY NURSING HOME DISTRICT", "SF_14": 4.0, "SF_15": 4.0, "cnty": "Lewis", "st": "MO", "Zip": 63435.0, "O_14": 4.0, "Q_15": 3.0, "O_15": 4.0, "city": "CANTON", "beds": 118.0, "SR_15": 3.0}, {"Diff_star": 0.0, "addr": "1121 11TH STREET", "SR_14": 2.0, "Q_14": 5.0, "name": "RIVERDELL CARE CENTER", "SF_14": 1.0, "SF_15": 1.0, "cnty": "Cooper", "st": "MO", "Zip": 65233.0, "O_14": 2.0, "Q_15": 5.0, "O_15": 2.0, "city": "BOONVILLE", "beds": 60.0, "SR_15": 2.0}, {"Diff_star": 0.0, "addr": "2203 EAST MECHANIC STREET", "SR_14": 2.0, "Q_14": 1.0, "name": "MEADOWVIEW OF HARRISONVILLE HEALTH & REHABILITATIO", "SF_14": 1.0, "SF_15": 1.0, "cnty": "Cass", "st": "MO", "Zip": 64701.0, "O_14": 1.0, "Q_15": 1.0, "O_15": 1.0, "city": "HARRISONVILLE", "beds": 120.0, "SR_15": 2.0}, {"Diff_star": -1.0, "addr": "403 WATERCRESS ROAD,  BOX 969", "SR_14": 4.0, "Q_14": 5.0, "name": "RIVERWAYS MANOR", "SF_14": 4.0, "SF_15": 4.0, "cnty": "Carter", "st": "MO", "Zip": 63965.0, "O_14": 5.0, "Q_15": 3.0, "O_15": 4.0, "city": "VAN BUREN", "beds": 60.0, "SR_15": 4.0}, {"Diff_star": -1.0, "addr": "196 HIGHWAY CC", "SR_14": 3.0, "Q_14": 2.0, "name": "LINN COMMUNITY SKILLED CARE, LLC", "SF_14": 4.0, "SF_15": 4.0, "cnty": "Osage", "st": "MO", "Zip": 65051.0, "O_14": 4.0, "Q_15": 1.0, "O_15": 3.0, "city": "LINN", "beds": 132.0, "SR_15": 3.0}, {"Diff_star": 0.0, "addr": "6768 NORTH HIGHWAY 67", "SR_14": 2.0, "Q_14": 5.0, "name": "THE VALLEY-A STONEBRIDGE COMMUNITY", "SF_14": 4.0, "SF_15": 4.0, "cnty": "St. Louis", "st": "MO", "Zip": 63034.0, "O_14": 4.0, "Q_15": 5.0, "O_15": 4.0, "city": "FLORISSANT", "beds": 120.0, "SR_15": 2.0}, {"Diff_star": 0.0, "addr": "724 NORTHEAST 79TH TERRACE", "SR_14": 1.0, "Q_14": 5.0, "name": "MAPLE WOOD CARE CENTER", "SF_14": 1.0, "SF_15": 3.0, "cnty": "Clay", "st": "MO", "Zip": 64118.0, "O_14": 2.0, "Q_15": 5.0, "O_15": 2.0, "city": "KANSAS CITY", "beds": 150.0, "SR_15": 1.0}, {"Diff_star": 0.0, "addr": "801 BALIFF DRIVE", "SR_14": 4.0, "Q_14": 5.0, "name": "CYPRESS POINT-SKILLED NURSING BY AMERICARE", "SF_14": 4.0, "SF_15": 4.0, "cnty": "Stoddard", "st": "MO", "Zip": 63841.0, "O_14": 5.0, "Q_15": 5.0, "O_15": 5.0, "city": "DEXTER", "beds": 72.0, "SR_15": 4.0}, {"Diff_star": 0.0, "addr": "RR 2, BOX 2215", "SR_14": 3.0, "Q_14": 2.0, "name": "BIRCH VIEW NURSING CENTER", "SF_14": 3.0, "SF_15": 3.0, "cnty": "Shannon", "st": "MO", "Zip": 65438.0, "O_14": 3.0, "Q_15": 2.0, "O_15": 3.0, "city": "BIRCH TREE", "beds": 90.0, "SR_15": 3.0}, {"Diff_star": 0.0, "addr": "1500 CALVARY CHURCH ROAD, PO BOX 680", "SR_14": 3.0, "Q_14": 5.0, "name": "CRYSTAL OAKS", "SF_14": 4.0, "SF_15": 4.0, "cnty": "Jefferson", "st": "MO", "Zip": 63028.0, "O_14": 5.0, "Q_15": 5.0, "O_15": 5.0, "city": "FESTUS", "beds": 131.0, "SR_15": 3.0}, {"Diff_star": 0.0, "addr": "700 BIRCH LANE", "SR_14": 3.0, "Q_14": 3.0, "name": "LIFE CARE CENTER OF WAYNESVILLE", "SF_14": 3.0, "SF_15": 3.0, "cnty": "Pulaski", "st": "MO", "Zip": 65583.0, "O_14": 3.0, "Q_15": 2.0, "O_15": 3.0, "city": "WAYNESVILLE", "beds": 120.0, "SR_15": 3.0}, {"Diff_star": 0.0, "addr": "201 GRAND AVE", "SR_14": 1.0, "Q_14": 5.0, "name": "GRANDVIEW HEALTHCARE CENTER", "SF_14": 3.0, "SF_15": 3.0, "cnty": "Franklin", "st": "MO", "Zip": 63090.0, "O_14": 2.0, "Q_15": 5.0, "O_15": 2.0, "city": "WASHINGTON", "beds": 102.0, "SR_15": 1.0}, {"Diff_star": 0.0, "addr": "615 SW OLDHAM PARKWAY", "SR_14": 2.0, "Q_14": 4.0, "name": "JEFFERSON HEALTH CARE", "SF_14": 5.0, "SF_15": 4.0, "cnty": "Jackson", "st": "MO", "Zip": 64081.0, "O_14": 3.0, "Q_15": 2.0, "O_15": 3.0, "city": "LEES SUMMIT", "beds": 118.0, "SR_15": 2.0}, {"Diff_star": 0.0, "addr": "4960 LACLEDE AVENUE", "SR_14": 2.0, "Q_14": 4.0, "name": "ROYAL OAK NURSING AND REHAB", "SF_14": 2.0, "SF_15": 2.0, "cnty": "St. Louis City", "st": "MO", "Zip": 63108.0, "O_14": 2.0, "Q_15": 2.0, "O_15": 2.0, "city": "SAINT LOUIS", "beds": 168.0, "SR_15": 2.0}, {"Diff_star": 0.0, "addr": "4700 NW CLIFFVIEW DRIVE", "SR_14": 1.0, "Q_14": 4.0, "name": "RIVERSIDE NURSING & REHABILITATION CENTER, LLC", "SF_14": 3.0, "SF_15": 3.0, "cnty": "Platte", "st": "MO", "Zip": 64150.0, "O_14": 1.0, "Q_15": 2.0, "O_15": 1.0, "city": "RIVERSIDE", "beds": 180.0, "SR_15": 1.0}, {"Diff_star": -2.0, "addr": "800 N ARTHUR ST, PO BOX 187", "SR_14": 3.0, "Q_14": 3.0, "name": "NORTHWOOD HILLS CARE CENTER", "SF_14": 4.0, "SF_15": 3.0, "cnty": "Polk", "st": "MO", "Zip": 65674.0, "O_14": 4.0, "Q_15": 1.0, "O_15": 2.0, "city": "HUMANSVILLE", "beds": 120.0, "SR_15": 3.0}, {"Diff_star": 0.0, "addr": "415 S CATALPA STREET", "SR_14": 1.0, "Q_14": 5.0, "name": "GOLDEN LIVINGCENTER-DEXTER", "SF_14": 4.0, "SF_15": 4.0, "cnty": "Stoddard", "st": "MO", "Zip": 63841.0, "O_14": 2.0, "Q_15": 5.0, "O_15": 2.0, "city": "DEXTER", "beds": 73.0, "SR_15": 1.0}, {"Diff_star": 0.0, "addr": "2001 NORTH KINGSHIGHWAY", "SR_14": 1.0, "Q_14": 3.0, "name": "FOUNTAINBLEAU LODGE", "SF_14": 4.0, "SF_15": 4.0, "cnty": "Cape Girardeau", "st": "MO", "Zip": 63701.0, "O_14": 2.0, "Q_15": 2.0, "O_15": 2.0, "city": "CAPE GIRARDEAU", "beds": 33.0, "SR_15": 1.0}, {"Diff_star": 0.0, "addr": "500 BARRETT DRIVE", "SR_14": 4.0, "Q_14": 5.0, "name": "GOLDEN LIVINGCENTER-MALDEN", "SF_14": 4.0, "SF_15": 4.0, "cnty": "Dunklin", "st": "MO", "Zip": 63863.0, "O_14": 5.0, "Q_15": 5.0, "O_15": 5.0, "city": "MALDEN", "beds": 96.0, "SR_15": 4.0}, {"Diff_star": 1.0, "addr": "750 E HIGHWAY 22", "SR_14": 5.0, "Q_14": 4.0, "name": "HERITAGE HALL NURSING CENTER", "SF_14": 1.0, "SF_15": 4.0, "cnty": "Boone", "st": "MO", "Zip": 65240.0, "O_14": 4.0, "Q_15": 4.0, "O_15": 5.0, "city": "CENTRALIA", "beds": 60.0, "SR_15": 5.0}, {"Diff_star": 0.0, "addr": "628 NORTH WEST STREET", "SR_14": 2.0, "Q_14": 4.0, "name": "HUNTER ACRES CARING CENTER", "SF_14": 3.0, "SF_15": 3.0, "cnty": "New Madrid", "st": "MO", "Zip": 63801.0, "O_14": 2.0, "Q_15": 2.0, "O_15": 2.0, "city": "SIKESTON", "beds": 120.0, "SR_15": 2.0}, {"Diff_star": -1.0, "addr": "300 EAST HORNBECK STREET, PO BOX 940", "SR_14": 1.0, "Q_14": 4.0, "name": "SENATH NURSING AND REHABILITATION, LLC", "SF_14": 4.0, "SF_15": 3.0, "cnty": "Dunklin", "st": "MO", "Zip": 63876.0, "O_14": 2.0, "Q_15": 2.0, "O_15": 1.0, "city": "SENATH", "beds": 120.0, "SR_15": 1.0}, {"Diff_star": 0.0, "addr": "1108 WEST LIBERTY", "SR_14": 4.0, "Q_14": 3.0, "name": "SOUTHBROOK-SKILLED NURSING BY AMERICARE", "SF_14": 4.0, "SF_15": 3.0, "cnty": "St. Francois", "st": "MO", "Zip": 63640.0, "O_14": 4.0, "Q_15": 2.0, "O_15": 4.0, "city": "FARMINGTON", "beds": 94.0, "SR_15": 4.0}, {"Diff_star": 0.0, "addr": "400 WEST PARK AVENUE", "SR_14": 3.0, "Q_14": 4.0, "name": "SUNSET HEALTH CARE CENTER", "SF_14": 2.0, "SF_15": 2.0, "cnty": "Franklin", "st": "MO", "Zip": 63084.0, "O_14": 3.0, "Q_15": 2.0, "O_15": 3.0, "city": "UNION", "beds": 120.0, "SR_15": 3.0}, {"Diff_star": -1.0, "addr": "5460 DELMAR BLVD", "SR_14": 3.0, "Q_14": 5.0, "name": "DELHAVEN MANOR", "SF_14": 4.0, "SF_15": 3.0, "cnty": "St. Louis City", "st": "MO", "Zip": 63112.0, "O_14": 5.0, "Q_15": 5.0, "O_15": 4.0, "city": "SAINT LOUIS", "beds": 156.0, "SR_15": 3.0}, {"Diff_star": 0.0, "addr": "996 STATE HIGHWAY 248", "SR_14": 2.0, "Q_14": 5.0, "name": "GOLDEN LIVINGCENTER-BRANSON", "SF_14": 4.0, "SF_15": 4.0, "cnty": "Taney", "st": "MO", "Zip": 65616.0, "O_14": 4.0, "Q_15": 5.0, "O_15": 4.0, "city": "BRANSON", "beds": 100.0, "SR_15": 2.0}, {"Diff_star": -2.0, "addr": "910 SOUTH WEST AVE", "SR_14": 3.0, "Q_14": 5.0, "name": "JORDAN CREEK NURSING & REHAB", "SF_14": 4.0, "SF_15": 3.0, "cnty": "Greene", "st": "MO", "Zip": 65802.0, "O_14": 5.0, "Q_15": 3.0, "O_15": 3.0, "city": "SPRINGFIELD", "beds": 120.0, "SR_15": 3.0}, {"Diff_star": 0.0, "addr": "560 CORISANDE HILLS ROAD", "SR_14": 4.0, "Q_14": 4.0, "name": "CORI MANOR HEALTHCARE & REHABILITATION CENTER", "SF_14": 1.0, "SF_15": 1.0, "cnty": "Jefferson", "st": "MO", "Zip": 63026.0, "O_14": 3.0, "Q_15": 2.0, "O_15": 3.0, "city": "FENTON", "beds": 134.0, "SR_15": 4.0}, {"Diff_star": 0.0, "addr": "1106 SOUTH OAK", "SR_14": 3.0, "Q_14": 4.0, "name": "CALIFORNIA CARE CENTER", "SF_14": 3.0, "SF_15": 3.0, "cnty": "Moniteau", "st": "MO", "Zip": 65018.0, "O_14": 3.0, "Q_15": 4.0, "O_15": 3.0, "city": "CALIFORNIA", "beds": 60.0, "SR_15": 3.0}, {"Diff_star": 0.0, "addr": "250 E LOCUST", "SR_14": 3.0, "Q_14": 4.0, "name": "GOLDEN LIVINGCENTER-GAMMA ROAD LODGE", "SF_14": 2.0, "SF_15": 2.0, "cnty": "Montgomery", "st": "MO", "Zip": 63384.0, "O_14": 3.0, "Q_15": 2.0, "O_15": 3.0, "city": "WELLSVILLE", "beds": 112.0, "SR_15": 3.0}, {"Diff_star": -1.0, "addr": "1410 NORTH KENTUCKY AVENUE", "SR_14": 5.0, "Q_14": 3.0, "name": "BROOKE HAVEN HEALTHCARE", "SF_14": 3.0, "SF_15": 3.0, "cnty": "Howell", "st": "MO", "Zip": 65775.0, "O_14": 5.0, "Q_15": 1.0, "O_15": 4.0, "city": "WEST PLAINS", "beds": 118.0, "SR_15": 5.0}, {"Diff_star": 0.0, "addr": "627 WESTWOOD DRIVE SOUTH", "SR_14": 4.0, "Q_14": 4.0, "name": "FESTUS MANOR", "SF_14": 2.0, "SF_15": 2.0, "cnty": "Jefferson", "st": "MO", "Zip": 63028.0, "O_14": 4.0, "Q_15": 2.0, "O_15": 4.0, "city": "FESTUS", "beds": 150.0, "SR_15": 4.0}, {"Diff_star": -1.0, "addr": "615 RANCHO LANE", "SR_14": 1.0, "Q_14": 5.0, "name": "RANCHO MANOR HEALTHCARE AND REHABILITATION CENTER", "SF_14": 4.0, "SF_15": 3.0, "cnty": "St. Louis", "st": "MO", "Zip": 63031.0, "O_14": 2.0, "Q_15": 4.0, "O_15": 1.0, "city": "FLORISSANT", "beds": 120.0, "SR_15": 1.0}, {"Diff_star": 0.0, "addr": "10300 EAST TRUMAN RD", "SR_14": 3.0, "Q_14": 5.0, "name": "MAYWOOD TERRACE LIVING CENTER", "SF_14": 4.0, "SF_15": 4.0, "cnty": "Jackson", "st": "MO", "Zip": 64052.0, "O_14": 5.0, "Q_15": 5.0, "O_15": 5.0, "city": "INDEPENDENCE", "beds": 89.0, "SR_15": 3.0}, {"Diff_star": -1.0, "addr": "315 HUNT STREET", "SR_14": 4.0, "Q_14": 5.0, "name": "LIFE CARE CENTER OF BROOKFIELD", "SF_14": 3.0, "SF_15": 3.0, "cnty": "Linn", "st": "MO", "Zip": 64628.0, "O_14": 5.0, "Q_15": 4.0, "O_15": 4.0, "city": "BROOKFIELD", "beds": 120.0, "SR_15": 4.0}, {"Diff_star": 0.0, "addr": "1310 HOVIS STREET", "SR_14": 4.0, "Q_14": 5.0, "name": "AUTUMN OAKS CARING CENTER", "SF_14": 5.0, "SF_15": 5.0, "cnty": "Wright", "st": "MO", "Zip": 65711.0, "O_14": 5.0, "Q_15": 4.0, "O_15": 5.0, "city": "MOUNTAIN GROVE", "beds": 120.0, "SR_15": 4.0}, {"Diff_star": 0.0, "addr": "700 EAST URBANDALE DRIVE", "SR_14": 3.0, "Q_14": 3.0, "name": "MOBERLY NURSING & REHAB", "SF_14": 2.0, "SF_15": 2.0, "cnty": "Randolph", "st": "MO", "Zip": 65270.0, "O_14": 3.0, "Q_15": 3.0, "O_15": 3.0, "city": "MOBERLY", "beds": 101.0, "SR_15": 3.0}, {"Diff_star": 0.0, "addr": "300 LUNBECK, PO BOX 197", "SR_14": 3.0, "Q_14": 4.0, "name": "GIDEON CARE CENTER", "SF_14": 3.0, "SF_15": 3.0, "cnty": "New Madrid", "st": "MO", "Zip": 63848.0, "O_14": 3.0, "Q_15": 3.0, "O_15": 3.0, "city": "GIDEON", "beds": 66.0, "SR_15": 3.0}, {"Diff_star": -1.0, "addr": "410 WEST BENTON STREET", "SR_14": 1.0, "Q_14": 2.0, "name": "BENTONVIEW PARK HEALTH & REHABILITATION", "SF_14": 4.0, "SF_15": 3.0, "cnty": "Barry", "st": "MO", "Zip": 65708.0, "O_14": 2.0, "Q_15": 1.0, "O_15": 1.0, "city": "MONETT", "beds": 112.0, "SR_15": 1.0}, {"Diff_star": -1.0, "addr": "11103 HISTORIC HWY 165", "SR_14": 1.0, "Q_14": 4.0, "name": "POINT LOOKOUT NURSING & REHAB", "SF_14": 4.0, "SF_15": 3.0, "cnty": "Taney", "st": "MO", "Zip": 65672.0, "O_14": 2.0, "Q_15": 2.0, "O_15": 1.0, "city": "HOLLISTER", "beds": 130.0, "SR_15": 1.0}, {"Diff_star": -1.0, "addr": "1211 NORTH ASH STREET, PO BOX 879", "SR_14": 4.0, "Q_14": 2.0, "name": "MOUNTAIN VIEW HEALTHCARE", "SF_14": 3.0, "SF_15": 3.0, "cnty": "Howell", "st": "MO", "Zip": 65548.0, "O_14": 4.0, "Q_15": 1.0, "O_15": 3.0, "city": "MOUNTAIN VIEW", "beds": 90.0, "SR_15": 4.0}, {"Diff_star": 0.0, "addr": "14701 OLIVE BLVD", "SR_14": 4.0, "Q_14": 4.0, "name": "SURREY PLACE ST LUKES HOSP SKILLED NURSING AND RCF", "SF_14": 5.0, "SF_15": 5.0, "cnty": "St. Louis", "st": "MO", "Zip": 63017.0, "O_14": 5.0, "Q_15": 3.0, "O_15": 5.0, "city": "CHESTERFIELD", "beds": 68.0, "SR_15": 4.0}, {"Diff_star": -1.0, "addr": "9503 HIGHWAY 100", "SR_14": 3.0, "Q_14": 4.0, "name": "NEW HAVEN CARE CENTER", "SF_14": 4.0, "SF_15": 3.0, "cnty": "Franklin", "st": "MO", "Zip": 63068.0, "O_14": 4.0, "Q_15": 3.0, "O_15": 3.0, "city": "NEW HAVEN", "beds": 90.0, "SR_15": 3.0}, {"Diff_star": -1.0, "addr": "2100 BARNES", "SR_14": 4.0, "Q_14": 2.0, "name": "CLARK'S MOUNTAIN NURSING CENTER", "SF_14": 4.0, "SF_15": 4.0, "cnty": "Wayne", "st": "MO", "Zip": 63957.0, "O_14": 4.0, "Q_15": 1.0, "O_15": 3.0, "city": "PIEDMONT", "beds": 91.0, "SR_15": 4.0}, {"Diff_star": 0.0, "addr": "4005 RIPA AVENUE", "SR_14": 3.0, "Q_14": 5.0, "name": "ALEXIAN BROS SHERBROOKE VILLAGE", "SF_14": 5.0, "SF_15": 4.0, "cnty": "St. Louis", "st": "MO", "Zip": 63125.0, "O_14": 5.0, "Q_15": 5.0, "O_15": 5.0, "city": "SAINT LOUIS", "beds": 89.0, "SR_15": 3.0}, {"Diff_star": 0.0, "addr": "403 EAST 10TH STREET", "SR_14": 2.0, "Q_14": 4.0, "name": "DIXON NURSING & REHAB", "SF_14": 4.0, "SF_15": 4.0, "cnty": "Pulaski", "st": "MO", "Zip": 65459.0, "O_14": 3.0, "Q_15": 3.0, "O_15": 3.0, "city": "DIXON", "beds": 60.0, "SR_15": 2.0}, {"Diff_star": -1.0, "addr": "2106 WEST MAIN, PO BOX 330", "SR_14": 3.0, "Q_14": 3.0, "name": "COUNTRY VIEW NURSING FACILITY, INC", "SF_14": 4.0, "SF_15": 4.0, "cnty": "Pike", "st": "MO", "Zip": 63334.0, "O_14": 4.0, "Q_15": 1.0, "O_15": 3.0, "city": "BOWLING GREEN", "beds": 60.0, "SR_15": 4.0}, {"Diff_star": 0.0, "addr": "100 WEST THOMAS AVENUE, PO BOX 188", "SR_14": 2.0, "Q_14": 4.0, "name": "APPLE RIDGE CARE CENTER", "SF_14": "", "SF_15": "", "cnty": "Lafayette", "st": "MO", "Zip": 64096.0, "O_14": 2.0, "Q_15": 2.0, "O_15": 2.0, "city": "WAVERLY", "beds": 60.0, "SR_15": 2.0}, {"Diff_star": -1.0, "addr": "301 WEST DUNLOP STREET", "SR_14": 4.0, "Q_14": 5.0, "name": "WESTVIEW NURSING HOME", "SF_14": 1.0, "SF_15": 1.0, "cnty": "Ralls", "st": "MO", "Zip": 63436.0, "O_14": 4.0, "Q_15": 3.0, "O_15": 3.0, "city": "CENTER", "beds": 60.0, "SR_15": 4.0}, {"Diff_star": 0.0, "addr": "11900 JESSICA LANE", "SR_14": 1.0, "Q_14": 4.0, "name": "EDGEWOOD MANOR NURSING HOME", "SF_14": 2.0, "SF_15": 2.0, "cnty": "Jackson", "st": "MO", "Zip": 64138.0, "O_14": 1.0, "Q_15": 3.0, "O_15": 1.0, "city": "RAYTOWN", "beds": 66.0, "SR_15": 1.0}, {"Diff_star": -1.0, "addr": "6637 BERTHOLD AVENUE", "SR_14": 1.0, "Q_14": 5.0, "name": "OAK PARK CARE CENTER", "SF_14": 2.0, "SF_15": 2.0, "cnty": "St. Louis City", "st": "MO", "Zip": 63139.0, "O_14": 2.0, "Q_15": 3.0, "O_15": 1.0, "city": "SAINT LOUIS", "beds": 120.0, "SR_15": 1.0}, {"Diff_star": 1.0, "addr": "514 WEST FREMONT ROAD", "SR_14": 2.0, "Q_14": 4.0, "name": "LEBANON SOUTH NURSING & REHAB", "SF_14": 3.0, "SF_15": 3.0, "cnty": "Laclede", "st": "MO", "Zip": 65536.0, "O_14": 2.0, "Q_15": 3.0, "O_15": 3.0, "city": "LEBANON", "beds": 116.0, "SR_15": 3.0}, {"Diff_star": 0.0, "addr": "54 HOSPITAL DRIVE", "SR_14": 5.0, "Q_14": 2.0, "name": "LAKE REGIONAL HEALTH SYSTEMS", "SF_14": 5.0, "SF_15": 5.0, "cnty": "Camden", "st": "MO", "Zip": 65065.0, "O_14": 5.0, "Q_15": 3.0, "O_15": 5.0, "city": "OSAGE BEACH", "beds": 16.0, "SR_15": 5.0}, {"Diff_star": -1.0, "addr": "6400 THE CEDARS COURT", "SR_14": 2.0, "Q_14": 2.0, "name": "BIG RIVER NURSING & REHABILITATION CENTER", "SF_14": 3.0, "SF_15": 3.0, "cnty": "Jefferson", "st": "MO", "Zip": 63016.0, "O_14": 2.0, "Q_15": 1.0, "O_15": 1.0, "city": "CEDAR HILL", "beds": 150.0, "SR_15": 2.0}, {"Diff_star": 0.0, "addr": "600 EAST 7TH ST, PO BOX 415", "SR_14": 3.0, "Q_14": 4.0, "name": "TRUMAN LAKE MANOR INC", "SF_14": 2.0, "SF_15": 2.0, "cnty": "St. Clair", "st": "MO", "Zip": 64763.0, "O_14": 3.0, "Q_15": 2.0, "O_15": 3.0, "city": "LOWRY CITY", "beds": 120.0, "SR_15": 3.0}, {"Diff_star": 0.0, "addr": "1145 EAST CHERRY STREET, PO BOX 130", "SR_14": 1.0, "Q_14": 3.0, "name": "LINCOLN COUNTY NURSING & REHAB", "SF_14": 2.0, "SF_15": 2.0, "cnty": "Lincoln", "st": "MO", "Zip": 63379.0, "O_14": 1.0, "Q_15": 1.0, "O_15": 1.0, "city": "TROY", "beds": 90.0, "SR_15": 1.0}, {"Diff_star": 0.0, "addr": "10303 STATE ROAD C", "SR_14": 1.0, "Q_14": 5.0, "name": "RIVERVIEW NURSING CENTER", "SF_14": 4.0, "SF_15": 4.0, "cnty": "Callaway", "st": "MO", "Zip": 65059.0, "O_14": 2.0, "Q_15": 3.0, "O_15": 2.0, "city": "MOKANE", "beds": 60.0, "SR_15": 1.0}, {"Diff_star": 0.0, "addr": "1200 WEST COLLEGE STREET", "SR_14": 1.0, "Q_14": 3.0, "name": "ASHTON COURT CARE AND REHABILITATION CENTRE", "SF_14": 3.0, "SF_15": 3.0, "cnty": "Clay", "st": "MO", "Zip": 64068.0, "O_14": 1.0, "Q_15": 1.0, "O_15": 1.0, "city": "LIBERTY", "beds": 140.0, "SR_15": 1.0}, {"Diff_star": -1.0, "addr": "710 BROADRIDGE", "SR_14": 3.0, "Q_14": 5.0, "name": "JACKSON MANOR NURSING HOME", "SF_14": 1.0, "SF_15": 1.0, "cnty": "Cape Girardeau", "st": "MO", "Zip": 63755.0, "O_14": 3.0, "Q_15": 4.0, "O_15": 2.0, "city": "JACKSON", "beds": 90.0, "SR_15": 3.0}, {"Diff_star": 0.0, "addr": "401 CORPORATE PARK DRIVE", "SR_14": 3.0, "Q_14": 4.0, "name": "BARNES-JEWISH EXTENDED CARE", "SF_14": 5.0, "SF_15": 5.0, "cnty": "St. Louis", "st": "MO", "Zip": 63105.0, "O_14": 4.0, "Q_15": 4.0, "O_15": 4.0, "city": "SAINT LOUIS", "beds": 92.0, "SR_15": 3.0}, {"Diff_star": 0.0, "addr": "533 CANAAN ROAD, PO BOX 180", "SR_14": 4.0, "Q_14": 3.0, "name": "GERALD NURSING AND REHAB", "SF_14": 4.0, "SF_15": 4.0, "cnty": "Franklin", "st": "MO", "Zip": 63037.0, "O_14": 4.0, "Q_15": 2.0, "O_15": 4.0, "city": "GERALD", "beds": 60.0, "SR_15": 4.0}, {"Diff_star": 0.0, "addr": "2071 BARRON RD", "SR_14": 4.0, "Q_14": 5.0, "name": "MANOR, THE", "SF_14": 2.0, "SF_15": 2.0, "cnty": "Butler", "st": "MO", "Zip": 63901.0, "O_14": 5.0, "Q_15": 5.0, "O_15": 5.0, "city": "POPLAR BLUFF", "beds": 90.0, "SR_15": 4.0}, {"Diff_star": 0.0, "addr": "1305 SOUTH 7TH STREET PO BOX 273", "SR_14": 3.0, "Q_14": 3.0, "name": "BETHANY CARE CENTER", "SF_14": 3.0, "SF_15": 3.0, "cnty": "Harrison", "st": "MO", "Zip": 64424.0, "O_14": 3.0, "Q_15": 2.0, "O_15": 3.0, "city": "BETHANY", "beds": 60.0, "SR_15": 3.0}, {"Diff_star": 0.0, "addr": "11901 JESSICA LANE", "SR_14": 4.0, "Q_14": 5.0, "name": "WESTRIDGE GARDENS REHAB & HEALTH CARE CENTER", "SF_14": 2.0, "SF_15": 2.0, "cnty": "Jackson", "st": "MO", "Zip": 64138.0, "O_14": 5.0, "Q_15": 5.0, "O_15": 5.0, "city": "RAYTOWN", "beds": 120.0, "SR_15": 4.0}, {"Diff_star": 1.0, "addr": "400 EAST HOSPITAL ROAD", "SR_14": 2.0, "Q_14": 4.0, "name": "COMMUNITY SPRINGS HEALTHCARE FACILITY", "SF_14": 3.0, "SF_15": 3.0, "cnty": "Cedar", "st": "MO", "Zip": 64744.0, "O_14": 2.0, "Q_15": 4.0, "O_15": 3.0, "city": "EL DORADO SPRINGS", "beds": 120.0, "SR_15": 3.0}, {"Diff_star": -1.0, "addr": "1000 PATTERSON STREET", "SR_14": 5.0, "Q_14": 4.0, "name": "GOLDEN LIVINGCENTER-MCDONALD COUNTY", "SF_14": 2.0, "SF_15": 2.0, "cnty": "Mc Donald", "st": "MO", "Zip": 64831.0, "O_14": 5.0, "Q_15": 1.0, "O_15": 4.0, "city": "ANDERSON", "beds": 96.0, "SR_15": 5.0}, {"Diff_star": 0.0, "addr": "3001 MAY STREET", "SR_14": 1.0, "Q_14": 2.0, "name": "MARK TWAIN CARING CENTER", "SF_14": 3.0, "SF_15": 3.0, "cnty": "Butler", "st": "MO", "Zip": 63901.0, "O_14": 1.0, "Q_15": 1.0, "O_15": 1.0, "city": "POPLAR BLUFF", "beds": 120.0, "SR_15": 1.0}, {"Diff_star": 0.0, "addr": "606 WEST MISSOURI STREET", "SR_14": 2.0, "Q_14": 4.0, "name": "GOLDEN LIVINGCENTER-BLOOMFIELD", "SF_14": 2.0, "SF_15": 2.0, "cnty": "Stoddard", "st": "MO", "Zip": 63825.0, "O_14": 2.0, "Q_15": 3.0, "O_15": 2.0, "city": "BLOOMFIELD", "beds": 60.0, "SR_15": 2.0}, {"Diff_star": -1.0, "addr": "1425  SOUTH LANDRUM", "SR_14": 2.0, "Q_14": 3.0, "name": "MT VERNON PLACE CARE CENTER, INC", "SF_14": 4.0, "SF_15": 4.0, "cnty": "Lawrence", "st": "MO", "Zip": 65712.0, "O_14": 3.0, "Q_15": 1.0, "O_15": 2.0, "city": "MOUNT VERNON", "beds": 60.0, "SR_15": 2.0}, {"Diff_star": 0.0, "addr": "106 HOSPITAL DRIVE", "SR_14": 1.0, "Q_14": 4.0, "name": "GOLDEN LIVINGCENTER-SMITHVILLE", "SF_14": 2.0, "SF_15": 2.0, "cnty": "Clay", "st": "MO", "Zip": 64089.0, "O_14": 1.0, "Q_15": 2.0, "O_15": 1.0, "city": "SMITHVILLE", "beds": 100.0, "SR_15": 1.0}, {"Diff_star": 0.0, "addr": "400 WEST WALNUT LANE", "SR_14": 3.0, "Q_14": 3.0, "name": "WILLARD CARE CENTER", "SF_14": 2.0, "SF_15": 2.0, "cnty": "Greene", "st": "MO", "Zip": 65781.0, "O_14": 3.0, "Q_15": 2.0, "O_15": 3.0, "city": "WILLARD", "beds": 66.0, "SR_15": 3.0}, {"Diff_star": 0.0, "addr": "17451 EAST MEDICAL CENTER PARKWAY", "SR_14": 1.0, "Q_14": 4.0, "name": "GOLDEN LIVINGCENTER-INDEPENDENCE", "SF_14": 3.0, "SF_15": 3.0, "cnty": "Jackson", "st": "MO", "Zip": 64057.0, "O_14": 1.0, "Q_15": 3.0, "O_15": 1.0, "city": "INDEPENDENCE", "beds": 118.0, "SR_15": 1.0}, {"Diff_star": -1.0, "addr": "11278 SCHUETZ ROAD", "SR_14": 2.0, "Q_14": 2.0, "name": "ROSEWOOD CARE CENTER OF ST LOUIS", "SF_14": 4.0, "SF_15": 4.0, "cnty": "St. Louis", "st": "MO", "Zip": 63146.0, "O_14": 3.0, "Q_15": 1.0, "O_15": 2.0, "city": "SAINT LOUIS", "beds": 120.0, "SR_15": 2.0}, {"Diff_star": 0.0, "addr": "1300 COUNTY FARM ROAD", "SR_14": 3.0, "Q_14": 4.0, "name": "CASSVILLE HEALTH CARE AND REHAB", "SF_14": 1.0, "SF_15": 1.0, "cnty": "Barry", "st": "MO", "Zip": 65625.0, "O_14": 2.0, "Q_15": 4.0, "O_15": 2.0, "city": "CASSVILLE", "beds": 60.0, "SR_15": 3.0}, {"Diff_star": 0.0, "addr": "328 MUNGER LANE", "SR_14": 3.0, "Q_14": 3.0, "name": "WILLOW CARE REHABILITATION & HEALTH CARE CENTER", "SF_14": 3.0, "SF_15": 3.0, "cnty": "Marion", "st": "MO", "Zip": 63401.0, "O_14": 3.0, "Q_15": 2.0, "O_15": 3.0, "city": "HANNIBAL", "beds": 111.0, "SR_15": 3.0}, {"Diff_star": -1.0, "addr": "128 NORTH HARDESTY", "SR_14": 2.0, "Q_14": 3.0, "name": "GLENNON PLACE NURSING CENTER", "SF_14": 4.0, "SF_15": 4.0, "cnty": "Jackson", "st": "MO", "Zip": 64123.0, "O_14": 3.0, "Q_15": 1.0, "O_15": 2.0, "city": "KANSAS CITY", "beds": 120.0, "SR_15": 2.0}, {"Diff_star": 0.0, "addr": "1200 WEST HALL,  PO BOX 157", "SR_14": 5.0, "Q_14": 4.0, "name": "OZARK RIVERVIEW MANOR", "SF_14": 4.0, "SF_15": 3.0, "cnty": "Christian", "st": "MO", "Zip": 65721.0, "O_14": 5.0, "Q_15": 2.0, "O_15": 5.0, "city": "OZARK", "beds": 90.0, "SR_15": 5.0}, {"Diff_star": 0.0, "addr": "811 OWEN MILL ROAD,  PO BOX 945", "SR_14": 4.0, "Q_14": 4.0, "name": "LAKE STOCKTON HEALTHCARE FACILITY", "SF_14": 4.0, "SF_15": 4.0, "cnty": "Cedar", "st": "MO", "Zip": 65785.0, "O_14": 4.0, "Q_15": 4.0, "O_15": 4.0, "city": "STOCKTON", "beds": 75.0, "SR_15": 4.0}, {"Diff_star": 0.0, "addr": "301 SOUTH MAIN", "SR_14": 4.0, "Q_14": 4.0, "name": "GRANBY HOUSE", "SF_14": 5.0, "SF_15": 5.0, "cnty": "Newton", "st": "MO", "Zip": 64844.0, "O_14": 5.0, "Q_15": 4.0, "O_15": 5.0, "city": "GRANBY", "beds": 60.0, "SR_15": 4.0}, {"Diff_star": -1.0, "addr": "1734 MARKET STREET", "SR_14": 2.0, "Q_14": 5.0, "name": "LEVERING REGIONAL HEALTH CARE CENTER", "SF_14": 1.0, "SF_15": 1.0, "cnty": "Marion", "st": "MO", "Zip": 63401.0, "O_14": 2.0, "Q_15": 4.0, "O_15": 1.0, "city": "HANNIBAL", "beds": 179.0, "SR_15": 2.0}, {"Diff_star": 0.0, "addr": "1000 NORTH  INDUSTRIAL DRIVE, PO BOX 199", "SR_14": 5.0, "Q_14": 4.0, "name": "HOUSTON HOUSE", "SF_14": 4.0, "SF_15": 4.0, "cnty": "Texas", "st": "MO", "Zip": 65483.0, "O_14": 5.0, "Q_15": 5.0, "O_15": 5.0, "city": "HOUSTON", "beds": 96.0, "SR_15": 5.0}, {"Diff_star": -1.0, "addr": "631 WEST MAIN STREET", "SR_14": 5.0, "Q_14": 2.0, "name": "BUFFALO PRAIRIE CARE CENTER", "SF_14": 4.0, "SF_15": 4.0, "cnty": "Dallas", "st": "MO", "Zip": 65622.0, "O_14": 5.0, "Q_15": 1.0, "O_15": 4.0, "city": "BUFFALO", "beds": 60.0, "SR_15": 5.0}, {"Diff_star": 0.0, "addr": "220 EUEL POLK DRIVE", "SR_14": 4.0, "Q_14": 4.0, "name": "BRENT B TINNIN MANOR", "SF_14": 2.0, "SF_15": 2.0, "cnty": "Reynolds", "st": "MO", "Zip": 63638.0, "O_14": 4.0, "Q_15": 4.0, "O_15": 4.0, "city": "ELLINGTON", "beds": 60.0, "SR_15": 4.0}, {"Diff_star": 0.0, "addr": "3535 EAST CHEROKEE", "SR_14": 5.0, "Q_14": 5.0, "name": "GLENDALE GARDENS NURSING & REHAB", "SF_14": 4.0, "SF_15": 4.0, "cnty": "Greene", "st": "MO", "Zip": 65809.0, "O_14": 5.0, "Q_15": 4.0, "O_15": 5.0, "city": "SPRINGFIELD", "beds": 120.0, "SR_15": 5.0}, {"Diff_star": 0.0, "addr": "18540 STATE HIGHWAY 16", "SR_14": 4.0, "Q_14": 4.0, "name": "COUNTRY AIRE RETIREMENT ESTATES", "SF_14": 4.0, "SF_15": 4.0, "cnty": "Lewis", "st": "MO", "Zip": 63452.0, "O_14": 4.0, "Q_15": 4.0, "O_15": 4.0, "city": "LEWISTOWN", "beds": 60.0, "SR_15": 4.0}, {"Diff_star": 0.0, "addr": "233 EAST  NORTON ROAD", "SR_14": 5.0, "Q_14": 4.0, "name": "MARANATHA VILLAGE, INC", "SF_14": 2.0, "SF_15": 2.0, "cnty": "Greene", "st": "MO", "Zip": 65803.0, "O_14": 5.0, "Q_15": 3.0, "O_15": 5.0, "city": "SPRINGFIELD", "beds": 240.0, "SR_15": 5.0}, {"Diff_star": -1.0, "addr": "600 E SUNRISE DRIVE", "SR_14": 2.0, "Q_14": 5.0, "name": "REHABILITATION CENTER OF RAYMORE, THE", "SF_14": 3.0, "SF_15": 3.0, "cnty": "Cass", "st": "MO", "Zip": 64083.0, "O_14": 3.0, "Q_15": 4.0, "O_15": 2.0, "city": "RAYMORE", "beds": 142.0, "SR_15": 2.0}, {"Diff_star": -1.0, "addr": "2401 WEST GRAND", "SR_14": 1.0, "Q_14": 5.0, "name": "SPRINGFIELD SKILLED CARE CENTER", "SF_14": 2.0, "SF_15": 3.0, "cnty": "Greene", "st": "MO", "Zip": 65802.0, "O_14": 2.0, "Q_15": 4.0, "O_15": 1.0, "city": "SPRINGFIELD", "beds": 120.0, "SR_15": 1.0}, {"Diff_star": 0.0, "addr": "103 KENNEDY DRIVE", "SR_14": 1.0, "Q_14": 4.0, "name": "SIKESTON CONVALESCENT CENTER", "SF_14": 2.0, "SF_15": 2.0, "cnty": "Scott", "st": "MO", "Zip": 63801.0, "O_14": 1.0, "Q_15": 2.0, "O_15": 1.0, "city": "SIKESTON", "beds": 120.0, "SR_15": 1.0}, {"Diff_star": 0.0, "addr": "118 TRENTON ROAD", "SR_14": 4.0, "Q_14": 4.0, "name": "GRAND RIVER HEALTH CARE", "SF_14": 2.0, "SF_15": 2.0, "cnty": "Livingston", "st": "MO", "Zip": 64601.0, "O_14": 4.0, "Q_15": 3.0, "O_15": 4.0, "city": "CHILLICOTHE", "beds": 60.0, "SR_15": 4.0}, {"Diff_star": 0.0, "addr": "1525 WEST MONROE", "SR_14": 5.0, "Q_14": 4.0, "name": "GOLDEN LIVINGCENTER-PIN OAKS", "SF_14": 4.0, "SF_15": 3.0, "cnty": "Audrain", "st": "MO", "Zip": 65265.0, "O_14": 5.0, "Q_15": 3.0, "O_15": 5.0, "city": "MEXICO", "beds": 124.0, "SR_15": 5.0}, {"Diff_star": 0.0, "addr": "3038 WEST TRUMAN BLVD", "SR_14": 4.0, "Q_14": 3.0, "name": "GOLDEN LIVINGCENTER-JEFFERSON CITY", "SF_14": 4.0, "SF_15": 4.0, "cnty": "Cole", "st": "MO", "Zip": 65109.0, "O_14": 4.0, "Q_15": 2.0, "O_15": 4.0, "city": "JEFFERSON CITY", "beds": 87.0, "SR_15": 4.0}, {"Diff_star": 0.0, "addr": "1260 NORTH JOHNSON STREET", "SR_14": 3.0, "Q_14": 4.0, "name": "CLARK COUNTY NURSING HOME", "SF_14": 5.0, "SF_15": 5.0, "cnty": "Clark", "st": "MO", "Zip": 63445.0, "O_14": 4.0, "Q_15": 4.0, "O_15": 4.0, "city": "KAHOKA", "beds": 99.0, "SR_15": 3.0}, {"Diff_star": 0.0, "addr": "2963 DODDRIDGE AVENUE", "SR_14": 1.0, "Q_14": 4.0, "name": "STONEBRIDGE MARYLAND HEIGHTS", "SF_14": 1.0, "SF_15": 1.0, "cnty": "St. Louis", "st": "MO", "Zip": 63043.0, "O_14": 1.0, "Q_15": 3.0, "O_15": 1.0, "city": "MARYLAND HEIGHTS", "beds": 223.0, "SR_15": 1.0}, {"Diff_star": -1.0, "addr": "1010 STE GENEVIEVE DRIVE, PO BOX 426", "SR_14": 2.0, "Q_14": 5.0, "name": "ST GENEVIEVE CARE CENTER INC", "SF_14": 4.0, "SF_15": 3.0, "cnty": "Ste. Genevieve", "st": "MO", "Zip": 63670.0, "O_14": 4.0, "Q_15": 5.0, "O_15": 3.0, "city": "SAINTE GENEVIEVE", "beds": 60.0, "SR_15": 2.0}, {"Diff_star": 0.0, "addr": "2201 GLENN HENDREN DR", "SR_14": 1.0, "Q_14": 5.0, "name": "LIBERTY TERRACE HEALTHCARE AND REHABILITATION CTR", "SF_14": 4.0, "SF_15": 4.0, "cnty": "Clay", "st": "MO", "Zip": 64068.0, "O_14": 2.0, "Q_15": 5.0, "O_15": 2.0, "city": "LIBERTY", "beds": 143.0, "SR_15": 1.0}, {"Diff_star": 0.0, "addr": "914 CHICKESAW STREET,  PO BOX 1049", "SR_14": 5.0, "Q_14": 5.0, "name": "SENECA HOUSE", "SF_14": 4.0, "SF_15": 4.0, "cnty": "Newton", "st": "MO", "Zip": 64865.0, "O_14": 5.0, "Q_15": 4.0, "O_15": 5.0, "city": "SENECA", "beds": 80.0, "SR_15": 5.0}, {"Diff_star": -1.0, "addr": "12273 STATE HIGHWAY 77, PO BOX 68", "SR_14": 4.0, "Q_14": 5.0, "name": "CHAFFEE NURSING CENTER", "SF_14": 4.0, "SF_15": 4.0, "cnty": "Scott", "st": "MO", "Zip": 63740.0, "O_14": 5.0, "Q_15": 4.0, "O_15": 4.0, "city": "CHAFFEE", "beds": 71.0, "SR_15": 4.0}, {"Diff_star": 0.0, "addr": "1210 WEST ASHLAND", "SR_14": 5.0, "Q_14": 4.0, "name": "MEDICALODGES NEVADA", "SF_14": 3.0, "SF_15": 3.0, "cnty": "Vernon", "st": "MO", "Zip": 64772.0, "O_14": 5.0, "Q_15": 2.0, "O_15": 5.0, "city": "NEVADA", "beds": 100.0, "SR_15": 5.0}, {"Diff_star": 0.0, "addr": "3111 HIGHWAY A", "SR_14": 5.0, "Q_14": 4.0, "name": "ROCKY RIDGE MANOR", "SF_14": 4.0, "SF_15": 4.0, "cnty": "Wright", "st": "MO", "Zip": 65704.0, "O_14": 5.0, "Q_15": 2.0, "O_15": 5.0, "city": "MANSFIELD", "beds": 65.0, "SR_15": 5.0}, {"Diff_star": -1.0, "addr": "1035 PLAZA COURT NORTH", "SR_14": 4.0, "Q_14": 2.0, "name": "ST CLAIR NURSING CENTER", "SF_14": 4.0, "SF_15": 4.0, "cnty": "Franklin", "st": "MO", "Zip": 63077.0, "O_14": 4.0, "Q_15": 1.0, "O_15": 3.0, "city": "SAINT CLAIR", "beds": 79.0, "SR_15": 4.0}, {"Diff_star": 0.0, "addr": "540 NORTH HIGHWAY 51", "SR_14": 3.0, "Q_14": 4.0, "name": "PUXICO NURSING AND REHABILITATION CENTER", "SF_14": 4.0, "SF_15": 4.0, "cnty": "Stoddard", "st": "MO", "Zip": 63960.0, "O_14": 4.0, "Q_15": 4.0, "O_15": 4.0, "city": "PUXICO", "beds": 60.0, "SR_15": 3.0}, {"Diff_star": 0.0, "addr": "3105 BLUFF CREEK DRIVE", "SR_14": 4.0, "Q_14": 5.0, "name": "BLUFFS, THE", "SF_14": 3.0, "SF_15": 3.0, "cnty": "Boone", "st": "MO", "Zip": 65201.0, "O_14": 5.0, "Q_15": 5.0, "O_15": 5.0, "city": "COLUMBIA", "beds": 132.0, "SR_15": 4.0}, {"Diff_star": 0.0, "addr": "4335 WEST PINE BLVD", "SR_14": 1.0, "Q_14": 5.0, "name": "BERNARD CARE CENTER", "SF_14": 2.0, "SF_15": 2.0, "cnty": "St. Louis City", "st": "MO", "Zip": 63108.0, "O_14": 2.0, "Q_15": 4.0, "O_15": 2.0, "city": "SAINT LOUIS", "beds": 141.0, "SR_15": 2.0}, {"Diff_star": 0.0, "addr": "609 GOLF STREET", "SR_14": 2.0, "Q_14": 4.0, "name": "GOLDEN LIVINGCENTER-NEW HAVEN", "SF_14": 2.0, "SF_15": 2.0, "cnty": "Lafayette", "st": "MO", "Zip": 64076.0, "O_14": 2.0, "Q_15": 4.0, "O_15": 2.0, "city": "ODESSA", "beds": 60.0, "SR_15": 2.0}, {"Diff_star": -1.0, "addr": "2525 BOUTIN DRIVE", "SR_14": 2.0, "Q_14": 5.0, "name": "HEARTLAND CARE AND REHABILITATION CENTER", "SF_14": 3.0, "SF_15": 3.0, "cnty": "Cape Girardeau", "st": "MO", "Zip": 63701.0, "O_14": 3.0, "Q_15": 4.0, "O_15": 2.0, "city": "CAPE GIRARDEAU", "beds": 102.0, "SR_15": 2.0}, {"Diff_star": 0.0, "addr": "1015  NORTH GRAND AVENUE", "SR_14": 1.0, "Q_14": 3.0, "name": "CURRENT RIVER NURSING CENTER, INC", "SF_14": 3.0, "SF_15": 3.0, "cnty": "Ripley", "st": "MO", "Zip": 63935.0, "O_14": 1.0, "Q_15": 2.0, "O_15": 1.0, "city": "DONIPHAN", "beds": 120.0, "SR_15": 1.0}, {"Diff_star": -1.0, "addr": "307 N PINEVIEW STREET", "SR_14": 3.0, "Q_14": 4.0, "name": "PINE VIEW MANOR INC", "SF_14": 2.0, "SF_15": 2.0, "cnty": "Gentry", "st": "MO", "Zip": 64489.0, "O_14": 3.0, "Q_15": 1.0, "O_15": 2.0, "city": "STANBERRY", "beds": 70.0, "SR_15": 3.0}, {"Diff_star": -1.0, "addr": "809 EAST GORDON, PO BOX 68", "SR_14": 3.0, "Q_14": 3.0, "name": "MAR-SALINE MANOR CARE CENTER", "SF_14": 3.0, "SF_15": 3.0, "cnty": "Saline", "st": "MO", "Zip": 65340.0, "O_14": 3.0, "Q_15": 1.0, "O_15": 2.0, "city": "MARSHALL", "beds": 92.0, "SR_15": 3.0}, {"Diff_star": 0.0, "addr": "1101 WEST OUTER 21 ROAD", "SR_14": 4.0, "Q_14": 5.0, "name": "SOUTH COUNTY NURSING HOME INC", "SF_14": 1.0, "SF_15": 1.0, "cnty": "Jefferson", "st": "MO", "Zip": 63010.0, "O_14": 4.0, "Q_15": 5.0, "O_15": 4.0, "city": "ARNOLD", "beds": 153.0, "SR_15": 4.0}, {"Diff_star": 0.0, "addr": "11400 HIDDEN LAKE DRIVE, PO BOX 16567", "SR_14": 2.0, "Q_14": 3.0, "name": "HIDDEN LAKE CARE CENTER", "SF_14": 3.0, "SF_15": 3.0, "cnty": "Jackson", "st": "MO", "Zip": 64133.0, "O_14": 2.0, "Q_15": 2.0, "O_15": 2.0, "city": "RAYTOWN", "beds": 112.0, "SR_15": 2.0}, {"Diff_star": 0.0, "addr": "1501 SW 3RD STREET", "SR_14": 1.0, "Q_14": 4.0, "name": "LEE'S SUMMIT POINTE HEALTH & REHABILITATION", "SF_14": 1.0, "SF_15": 1.0, "cnty": "Jackson", "st": "MO", "Zip": 64081.0, "O_14": 1.0, "Q_15": 3.0, "O_15": 1.0, "city": "LEES SUMMIT", "beds": 60.0, "SR_15": 1.0}, {"Diff_star": -1.0, "addr": "307 EAST SOUTH STREET", "SR_14": 2.0, "Q_14": 5.0, "name": "ABC HEALTH CARE", "SF_14": 3.0, "SF_15": 3.0, "cnty": "Cass", "st": "MO", "Zip": 64701.0, "O_14": 3.0, "Q_15": 4.0, "O_15": 2.0, "city": "HARRISONVILLE", "beds": 60.0, "SR_15": 2.0}, {"Diff_star": -1.0, "addr": "105 SPRUCE STREET", "SR_14": 2.0, "Q_14": 5.0, "name": "CLARU DEVILLE NURSING CENTER", "SF_14": 4.0, "SF_15": 4.0, "cnty": "Madison", "st": "MO", "Zip": 63645.0, "O_14": 4.0, "Q_15": 3.0, "O_15": 3.0, "city": "FREDERICKTOWN", "beds": 90.0, "SR_15": 2.0}, {"Diff_star": -1.0, "addr": "1 GEORGIAN GARDENS DRIVE", "SR_14": 2.0, "Q_14": 5.0, "name": "GEORGIAN GARDENS", "SF_14": 1.0, "SF_15": 1.0, "cnty": "Washington", "st": "MO", "Zip": 63664.0, "O_14": 2.0, "Q_15": 4.0, "O_15": 1.0, "city": "POTOSI", "beds": 120.0, "SR_15": 2.0}, {"Diff_star": 0.0, "addr": "501 SOUTH PARK", "SR_14": 1.0, "Q_14": 1.0, "name": "FAYETTE CARING CENTER", "SF_14": 4.0, "SF_15": 4.0, "cnty": "Howard", "st": "MO", "Zip": 65248.0, "O_14": 1.0, "Q_15": 1.0, "O_15": 1.0, "city": "FAYETTE", "beds": 60.0, "SR_15": 1.0}, {"Diff_star": -1.0, "addr": "2150 WEST RANDOLPH STREET", "SR_14": 3.0, "Q_14": 3.0, "name": "CARRINGTON PLACE OF ST CHARLES", "SF_14": 4.0, "SF_15": 3.0, "cnty": "St. Charles", "st": "MO", "Zip": 63301.0, "O_14": 4.0, "Q_15": 2.0, "O_15": 3.0, "city": "SAINT CHARLES", "beds": 66.0, "SR_15": 3.0}, {"Diff_star": 0.0, "addr": "119 WEST FOREST", "SR_14": 5.0, "Q_14": 4.0, "name": "PARKVIEW HEALTH CARE FACILITY", "SF_14": 3.0, "SF_15": 3.0, "cnty": "Polk", "st": "MO", "Zip": 65613.0, "O_14": 5.0, "Q_15": 3.0, "O_15": 5.0, "city": "BOLIVAR", "beds": 78.0, "SR_15": 5.0}, {"Diff_star": 0.0, "addr": "1687 WEST WASHINGTON", "SR_14": 4.0, "Q_14": 4.0, "name": "WEBCO MANOR", "SF_14": 4.0, "SF_15": 4.0, "cnty": "Webster", "st": "MO", "Zip": 65706.0, "O_14": 4.0, "Q_15": 2.0, "O_15": 4.0, "city": "MARSHFIELD", "beds": 120.0, "SR_15": 4.0}, {"Diff_star": -1.0, "addr": "35625 HIGHWAY 72, PO BOX 746", "SR_14": 3.0, "Q_14": 4.0, "name": "SEVILLE CARE CENTER", "SF_14": 4.0, "SF_15": 3.0, "cnty": "Dent", "st": "MO", "Zip": 65560.0, "O_14": 4.0, "Q_15": 2.0, "O_15": 3.0, "city": "SALEM", "beds": 90.0, "SR_15": 3.0}, {"Diff_star": -1.0, "addr": "1450 ASHLEY ROAD", "SR_14": 1.0, "Q_14": 3.0, "name": "LAKEVIEW HEALTH CARE & REHABILITATION CENTER", "SF_14": 4.0, "SF_15": 4.0, "cnty": "Cooper", "st": "MO", "Zip": 65233.0, "O_14": 2.0, "Q_15": 1.0, "O_15": 1.0, "city": "BOONVILLE", "beds": 59.0, "SR_15": 1.0}, {"Diff_star": 0.0, "addr": "3201 PARKWOOD LANE", "SR_14": 1.0, "Q_14": 3.0, "name": "PARKWOOD SKILLED NURSING AND REHABILITATION CENTER", "SF_14": 3.0, "SF_15": 3.0, "cnty": "St. Louis", "st": "MO", "Zip": 63043.0, "O_14": 1.0, "Q_15": 1.0, "O_15": 1.0, "city": "MARYLAND HEIGHTS", "beds": 130.0, "SR_15": 1.0}, {"Diff_star": -1.0, "addr": "2415 NORTH KINGSHIGHWAY", "SR_14": 2.0, "Q_14": 5.0, "name": "NORTHVIEW VILLAGE", "SF_14": 2.0, "SF_15": 2.0, "cnty": "St. Louis City", "st": "MO", "Zip": 63113.0, "O_14": 3.0, "Q_15": 3.0, "O_15": 2.0, "city": "SAINT LOUIS", "beds": 310.0, "SR_15": 2.0}, {"Diff_star": -1.0, "addr": "902 MANOR DRIVE", "SR_14": 1.0, "Q_14": 5.0, "name": "CHARITON PARK HEALTH CARE CENTER", "SF_14": 1.0, "SF_15": 1.0, "cnty": "Chariton", "st": "MO", "Zip": 65281.0, "O_14": 2.0, "Q_15": 3.0, "O_15": 1.0, "city": "SALISBURY", "beds": 120.0, "SR_15": 1.0}, {"Diff_star": 1.0, "addr": "1101 WEST CLAY ROAD", "SR_14": 4.0, "Q_14": 4.0, "name": "GOOD SHEPHERD CARE CENTER", "SF_14": 3.0, "SF_15": 3.0, "cnty": "Morgan", "st": "MO", "Zip": 65084.0, "O_14": 4.0, "Q_15": 3.0, "O_15": 5.0, "city": "VERSAILLES", "beds": 117.0, "SR_15": 5.0}, {"Diff_star": -1.0, "addr": "800 CHAMBERS ROAD", "SR_14": 1.0, "Q_14": 5.0, "name": "CHRISTIAN CARE HOME", "SF_14": 3.0, "SF_15": 3.0, "cnty": "St. Louis", "st": "MO", "Zip": 63135.0, "O_14": 2.0, "Q_15": 4.0, "O_15": 1.0, "city": "FERGUSON", "beds": 150.0, "SR_15": 1.0}, {"Diff_star": 0.0, "addr": "1221 SOUTHGATE LANE", "SR_14": 2.0, "Q_14": 4.0, "name": "JEFFERSON CITY NURSING AND REHABILITATION CTR, LLC", "SF_14": 4.0, "SF_15": 2.0, "cnty": "Cole", "st": "MO", "Zip": 65110.0, "O_14": 3.0, "Q_15": 2.0, "O_15": 3.0, "city": "JEFFERSON CITY", "beds": 120.0, "SR_15": 3.0}, {"Diff_star": -1.0, "addr": "1802 ST FRANCIS, PO BOX 827", "SR_14": 4.0, "Q_14": 5.0, "name": "HERITAGE NURSING CENTER-SKILLED NURS BY AMERICARE", "SF_14": 4.0, "SF_15": 4.0, "cnty": "Dunklin", "st": "MO", "Zip": 63857.0, "O_14": 5.0, "Q_15": 3.0, "O_15": 4.0, "city": "KENNETT", "beds": 72.0, "SR_15": 4.0}, {"Diff_star": -1.0, "addr": "2323 SWOPE PARKWAY", "SR_14": 2.0, "Q_14": 5.0, "name": "PARKWAY HEALTH AND REHAB", "SF_14": 4.0, "SF_15": 4.0, "cnty": "Jackson", "st": "MO", "Zip": 64130.0, "O_14": 4.0, "Q_15": 3.0, "O_15": 3.0, "city": "KANSAS CITY", "beds": 97.0, "SR_15": 2.0}, {"Diff_star": 0.0, "addr": "4401 NORTH HANLEY ROAD", "SR_14": 2.0, "Q_14": 5.0, "name": "HERITAGE CARE CENTER", "SF_14": 3.0, "SF_15": 3.0, "cnty": "St. Louis", "st": "MO", "Zip": 63134.0, "O_14": 3.0, "Q_15": 5.0, "O_15": 3.0, "city": "SAINT LOUIS", "beds": 120.0, "SR_15": 2.0}, {"Diff_star": 0.0, "addr": "100 AUDSLEY DRIVE", "SR_14": 5.0, "Q_14": 5.0, "name": "GOLDEN LIVINGCENTER-GLASGOW", "SF_14": 3.0, "SF_15": 3.0, "cnty": "Howard", "st": "MO", "Zip": 65254.0, "O_14": 5.0, "Q_15": 5.0, "O_15": 5.0, "city": "GLASGOW", "beds": 59.0, "SR_15": 5.0}, {"Diff_star": 0.0, "addr": "PO BOX 370, 1600 EAST ROLLINS", "SR_14": 1.0, "Q_14": 2.0, "name": "VALLEY VIEW HEALTH & REHABILITATION", "SF_14": 3.0, "SF_15": 3.0, "cnty": "Randolph", "st": "MO", "Zip": 65270.0, "O_14": 1.0, "Q_15": 1.0, "O_15": 1.0, "city": "MOBERLY", "beds": 96.0, "SR_15": 1.0}, {"Diff_star": 0.0, "addr": "300 CEDAR STREET", "SR_14": 3.0, "Q_14": 3.0, "name": "TARKIO REHABILITATION & HEALTH CARE", "SF_14": 4.0, "SF_15": 4.0, "cnty": "Atchison", "st": "MO", "Zip": 64491.0, "O_14": 4.0, "Q_15": 2.0, "O_15": 4.0, "city": "TARKIO", "beds": 95.0, "SR_15": 3.0}, {"Diff_star": 0.0, "addr": "812 OLD EXETER ROAD", "SR_14": 1.0, "Q_14": 4.0, "name": "ROARING RIVER HEALTH AND REHABILITATION", "SF_14": 3.0, "SF_15": 3.0, "cnty": "Barry", "st": "MO", "Zip": 65625.0, "O_14": 1.0, "Q_15": 1.0, "O_15": 1.0, "city": "CASSVILLE", "beds": 90.0, "SR_15": 1.0}, {"Diff_star": 0.0, "addr": "1441 CHARIC DRIVE", "SR_14": 3.0, "Q_14": 4.0, "name": "BALLWIN RIDGE HEALTH & REHABILITATION", "SF_14": 3.0, "SF_15": 3.0, "cnty": "St. Louis", "st": "MO", "Zip": 63021.0, "O_14": 3.0, "Q_15": 3.0, "O_15": 3.0, "city": "WILDWOOD", "beds": 66.0, "SR_15": 3.0}, {"Diff_star": 0.0, "addr": "1218 WEST LOCUST, PO BOX 590", "SR_14": 5.0, "Q_14": 4.0, "name": "CITIZENS MEMORIAL HEALTHCARE FACILITY", "SF_14": 2.0, "SF_15": 2.0, "cnty": "Polk", "st": "MO", "Zip": 65613.0, "O_14": 5.0, "Q_15": 4.0, "O_15": 5.0, "city": "BOLIVAR", "beds": 111.0, "SR_15": 5.0}, {"Diff_star": 0.0, "addr": "1910 NURSING HOME ROAD, PO BOX 520", "SR_14": 4.0, "Q_14": 3.0, "name": "GASCONADE MANOR NURSING HOME", "SF_14": 2.0, "SF_15": 2.0, "cnty": "Gasconade", "st": "MO", "Zip": 65066.0, "O_14": 4.0, "Q_15": 3.0, "O_15": 4.0, "city": "OWENSVILLE", "beds": 79.0, "SR_15": 4.0}, {"Diff_star": 0.0, "addr": "117 SYCAMORE STREET, PO BOX 108", "SR_14": 3.0, "Q_14": 2.0, "name": "GREENVILLE NURSING AND REHABILITATION, LLC", "SF_14": 3.0, "SF_15": 3.0, "cnty": "Wayne", "st": "MO", "Zip": 63944.0, "O_14": 3.0, "Q_15": 2.0, "O_15": 3.0, "city": "GREENVILLE", "beds": 60.0, "SR_15": 3.0}, {"Diff_star": 0.0, "addr": "410 H ROAD", "SR_14": 1.0, "Q_14": 4.0, "name": "MINER NURSING CENTER", "SF_14": 5.0, "SF_15": 5.0, "cnty": "New Madrid", "st": "MO", "Zip": 63801.0, "O_14": 2.0, "Q_15": 3.0, "O_15": 2.0, "city": "SIKESTON", "beds": 70.0, "SR_15": 1.0}, {"Diff_star": 0.0, "addr": "290 WEST STATE HWY 162", "SR_14": 2.0, "Q_14": 4.0, "name": "PORTAGEVILLE NURSING AND REHABILITATION, LLC", "SF_14": 2.0, "SF_15": 2.0, "cnty": "New Madrid", "st": "MO", "Zip": 63873.0, "O_14": 2.0, "Q_15": 2.0, "O_15": 2.0, "city": "PORTAGEVILLE", "beds": 60.0, "SR_15": 2.0}, {"Diff_star": -1.0, "addr": "315 SOUTH TILLEY STREET", "SR_14": 2.0, "Q_14": 4.0, "name": "ADVANCE NURSING CENTER", "SF_14": 4.0, "SF_15": 3.0, "cnty": "Stoddard", "st": "MO", "Zip": 63730.0, "O_14": 3.0, "Q_15": 3.0, "O_15": 2.0, "city": "ADVANCE", "beds": 70.0, "SR_15": 2.0}, {"Diff_star": -1.0, "addr": "186 MILLAR ROAD, PO BOX 299", "SR_14": 2.0, "Q_14": 5.0, "name": "EAST PRAIRIE NURSING CENTER", "SF_14": 4.0, "SF_15": 4.0, "cnty": "Mississippi", "st": "MO", "Zip": 63845.0, "O_14": 4.0, "Q_15": 4.0, "O_15": 3.0, "city": "EAST PRAIRIE", "beds": 70.0, "SR_15": 2.0}, {"Diff_star": 0.0, "addr": "1204 NORTH OUTER ROAD, PO BOX 668", "SR_14": 2.0, "Q_14": 4.0, "name": "CROWLEY RIDGE CARE CENTER", "SF_14": 3.0, "SF_15": 3.0, "cnty": "Stoddard", "st": "MO", "Zip": 63841.0, "O_14": 2.0, "Q_15": 2.0, "O_15": 2.0, "city": "DEXTER", "beds": 90.0, "SR_15": 2.0}, {"Diff_star": 0.0, "addr": "702 HIGHWAY 34 WEST", "SR_14": 4.0, "Q_14": 5.0, "name": "WOODLAND HILLS-A STONEBRIDGE COMMUNITY", "SF_14": 3.0, "SF_15": 3.0, "cnty": "Bollinger", "st": "MO", "Zip": 63764.0, "O_14": 5.0, "Q_15": 5.0, "O_15": 5.0, "city": "MARBLE HILL", "beds": 98.0, "SR_15": 4.0}, {"Diff_star": -1.0, "addr": "940 MATTOX DRIVE", "SR_14": 4.0, "Q_14": 3.0, "name": "MERAMEC NURSING CENTER", "SF_14": 4.0, "SF_15": 4.0, "cnty": "Crawford", "st": "MO", "Zip": 63080.0, "O_14": 4.0, "Q_15": 1.0, "O_15": 3.0, "city": "SULLIVAN", "beds": 60.0, "SR_15": 4.0}, {"Diff_star": 0.0, "addr": "1001 EAST NORTH STREET", "SR_14": 4.0, "Q_14": 5.0, "name": "ELDON NURSING & REHAB", "SF_14": 4.0, "SF_15": 4.0, "cnty": "Miller", "st": "MO", "Zip": 65026.0, "O_14": 5.0, "Q_15": 5.0, "O_15": 5.0, "city": "ELDON", "beds": 90.0, "SR_15": 4.0}, {"Diff_star": 0.0, "addr": "2702 DEBBIE LANE,  PO BOX 340", "SR_14": 3.0, "Q_14": 3.0, "name": "OAKDALE CARE CENTER", "SF_14": 3.0, "SF_15": 3.0, "cnty": "Butler", "st": "MO", "Zip": 63902.0, "O_14": 3.0, "Q_15": 3.0, "O_15": 3.0, "city": "POPLAR BLUFF", "beds": 70.0, "SR_15": 3.0}, {"Diff_star": -1.0, "addr": "3144 STATE HIGHWAY FF", "SR_14": 2.0, "Q_14": 5.0, "name": "HERITAGE GARDENS OF SIKESTON", "SF_14": 4.0, "SF_15": 4.0, "cnty": "New Madrid", "st": "MO", "Zip": 63801.0, "O_14": 4.0, "Q_15": 4.0, "O_15": 3.0, "city": "SIKESTON", "beds": 100.0, "SR_15": 2.0}, {"Diff_star": 0.0, "addr": "700 EAST HIGHLAND AVENUE", "SR_14": 1.0, "Q_14": 1.0, "name": "NEVADA NURSING & REHAB", "SF_14": 4.0, "SF_15": 3.0, "cnty": "Vernon", "st": "MO", "Zip": 64772.0, "O_14": 1.0, "Q_15": 1.0, "O_15": 1.0, "city": "NEVADA", "beds": 68.0, "SR_15": 1.0}, {"Diff_star": 0.0, "addr": "610 WEST SUNSET STREET", "SR_14": 4.0, "Q_14": 5.0, "name": "MAPLES HEALTH AND REHABILITATION, THE", "SF_14": 4.0, "SF_15": 4.0, "cnty": "Greene", "st": "MO", "Zip": 65807.0, "O_14": 5.0, "Q_15": 5.0, "O_15": 5.0, "city": "SPRINGFIELD", "beds": 120.0, "SR_15": 4.0}, {"Diff_star": 0.0, "addr": "611 WEST MAIN STREET, PO BOX 431", "SR_14": 4.0, "Q_14": 4.0, "name": "MADISON MEDICAL CENTER", "SF_14": 5.0, "SF_15": 5.0, "cnty": "Madison", "st": "MO", "Zip": 63645.0, "O_14": 5.0, "Q_15": 3.0, "O_15": 5.0, "city": "FREDERICKTOWN", "beds": 119.0, "SR_15": 4.0}, {"Diff_star": -1.0, "addr": "103 EAST NURSERY", "SR_14": 4.0, "Q_14": 5.0, "name": "MEDICALODGES BUTLER", "SF_14": 4.0, "SF_15": 4.0, "cnty": "Bates", "st": "MO", "Zip": 64730.0, "O_14": 5.0, "Q_15": 3.0, "O_15": 4.0, "city": "BUTLER", "beds": 110.0, "SR_15": 4.0}, {"Diff_star": 0.0, "addr": "1300 BROADWAY", "SR_14": 4.0, "Q_14": 4.0, "name": "PLEASANT HILL HEALTH AND REHABILITATION CENTER", "SF_14": 1.0, "SF_15": 1.0, "cnty": "Cass", "st": "MO", "Zip": 64080.0, "O_14": 3.0, "Q_15": 3.0, "O_15": 3.0, "city": "PLEASANT HILL", "beds": 90.0, "SR_15": 4.0}, {"Diff_star": 0.0, "addr": "1609 SUNCHASE DRIVE", "SR_14": 5.0, "Q_14": 4.0, "name": "WARSAW HEALTH AND REHABILITATION CENTER", "SF_14": 3.0, "SF_15": 3.0, "cnty": "Benton", "st": "MO", "Zip": 65355.0, "O_14": 5.0, "Q_15": 3.0, "O_15": 5.0, "city": "WARSAW", "beds": 90.0, "SR_15": 5.0}, {"Diff_star": 0.0, "addr": "401 NORTH MEDICAL DRIVE, PO BOX 247", "SR_14": 5.0, "Q_14": 5.0, "name": "ASH GROVE HEALTHCARE FACILITY", "SF_14": 3.0, "SF_15": 3.0, "cnty": "Greene", "st": "MO", "Zip": 65604.0, "O_14": 5.0, "Q_15": 5.0, "O_15": 5.0, "city": "ASH GROVE", "beds": 82.0, "SR_15": 5.0}, {"Diff_star": 0.0, "addr": "400 BROAD STREET", "SR_14": 4.0, "Q_14": 4.0, "name": "DADE COUNTY NURSING HOME DISTRICT", "SF_14": 4.0, "SF_15": 4.0, "cnty": "Dade", "st": "MO", "Zip": 65661.0, "O_14": 4.0, "Q_15": 3.0, "O_15": 4.0, "city": "GREENFIELD", "beds": 114.0, "SR_15": 4.0}, {"Diff_star": 0.0, "addr": "202 EAST MILL STREET", "SR_14": 5.0, "Q_14": 4.0, "name": "BIG SPRING CARE CENTER", "SF_14": 3.0, "SF_15": 3.0, "cnty": "Polk", "st": "MO", "Zip": 65674.0, "O_14": 5.0, "Q_15": 4.0, "O_15": 5.0, "city": "HUMANSVILLE", "beds": 60.0, "SR_15": 5.0}, {"Diff_star": -1.0, "addr": "1010 HIGHWAY 24 & 36 EAST", "SR_14": 3.0, "Q_14": 5.0, "name": "MONROE CITY MANOR CARE CENTER", "SF_14": 3.0, "SF_15": 3.0, "cnty": "Marion", "st": "MO", "Zip": 63456.0, "O_14": 4.0, "Q_15": 3.0, "O_15": 3.0, "city": "MONROE CITY", "beds": 60.0, "SR_15": 3.0}, {"Diff_star": -1.0, "addr": "800 SOUTH WHITE OAK", "SR_14": 2.0, "Q_14": 4.0, "name": "MARSHFIELD CARE CENTER", "SF_14": 4.0, "SF_15": 3.0, "cnty": "Webster", "st": "MO", "Zip": 65706.0, "O_14": 3.0, "Q_15": 3.0, "O_15": 2.0, "city": "MARSHFIELD", "beds": 77.0, "SR_15": 2.0}, {"Diff_star": 0.0, "addr": "7301 ST CHARLES ROCK RD", "SR_14": 2.0, "Q_14": 5.0, "name": "NORMANDY NURSING CENTER", "SF_14": 2.0, "SF_15": 2.0, "cnty": "St. Louis", "st": "MO", "Zip": 63133.0, "O_14": 3.0, "Q_15": 5.0, "O_15": 3.0, "city": "SAINT LOUIS", "beds": 116.0, "SR_15": 2.0}, {"Diff_star": 0.0, "addr": "4600 LITTLE BLUE PARKWAY", "SR_14": 4.0, "Q_14": 4.0, "name": "MONTEREY PARK REHABILITATION & HEALTH CARE CENTER", "SF_14": 4.0, "SF_15": 4.0, "cnty": "Jackson", "st": "MO", "Zip": 64057.0, "O_14": 4.0, "Q_15": 4.0, "O_15": 4.0, "city": "INDEPENDENCE", "beds": 122.0, "SR_15": 4.0}, {"Diff_star": 0.0, "addr": "1200 HOMELIFE PLAZA", "SR_14": 5.0, "Q_14": 5.0, "name": "PRESBYTERIAN MANOR OF ROLLA", "SF_14": 5.0, "SF_15": 5.0, "cnty": "Phelps", "st": "MO", "Zip": 65401.0, "O_14": 5.0, "Q_15": 5.0, "O_15": 5.0, "city": "ROLLA", "beds": 30.0, "SR_15": 5.0}, {"Diff_star": 0.0, "addr": "811 CENTER STREET", "SR_14": 5.0, "Q_14": 3.0, "name": "FULTON PRESBYTERIAN MANOR", "SF_14": 5.0, "SF_15": 5.0, "cnty": "Callaway", "st": "MO", "Zip": 65251.0, "O_14": 5.0, "Q_15": 4.0, "O_15": 5.0, "city": "FULTON", "beds": 36.0, "SR_15": 5.0}, {"Diff_star": -1.0, "addr": "2 HIGHWAY  Y, PO BOX 707", "SR_14": 1.0, "Q_14": 5.0, "name": "STONECREST HEALTHCARE", "SF_14": 1.0, "SF_15": 1.0, "cnty": "Iron", "st": "MO", "Zip": 65566.0, "O_14": 2.0, "Q_15": 3.0, "O_15": 1.0, "city": "VIBURNUM", "beds": 60.0, "SR_15": 1.0}, {"Diff_star": 0.0, "addr": "500 CAYCE", "SR_14": 4.0, "Q_14": 5.0, "name": "PRESBYTERIAN MANOR OF FARMINGTON", "SF_14": 5.0, "SF_15": 5.0, "cnty": "St. Francois", "st": "MO", "Zip": 63640.0, "O_14": 5.0, "Q_15": 4.0, "O_15": 5.0, "city": "FARMINGTON", "beds": 90.0, "SR_15": 4.0}, {"Diff_star": -1.0, "addr": "1265 MCLARAN AVENUE", "SR_14": 3.0, "Q_14": 4.0, "name": "HILLSIDE MANOR HEALTHCARE AND REHAB CENTER", "SF_14": 4.0, "SF_15": 3.0, "cnty": "St. Louis City", "st": "MO", "Zip": 63147.0, "O_14": 4.0, "Q_15": 2.0, "O_15": 3.0, "city": "SAINT LOUIS", "beds": 208.0, "SR_15": 3.0}, {"Diff_star": 0.0, "addr": "2600 REDMAN ROAD", "SR_14": 1.0, "Q_14": 3.0, "name": "ST LOUIS PLACE HEALTH & REHABILITATION", "SF_14": 2.0, "SF_15": 2.0, "cnty": "St. Louis", "st": "MO", "Zip": 63136.0, "O_14": 1.0, "Q_15": 1.0, "O_15": 1.0, "city": "SAINT LOUIS", "beds": 120.0, "SR_15": 1.0}, {"Diff_star": 0.0, "addr": "230 SPENCER ROAD", "SR_14": 3.0, "Q_14": 5.0, "name": "ST PETERS MANOR CARE CENTER", "SF_14": 4.0, "SF_15": 4.0, "cnty": "St. Charles", "st": "MO", "Zip": 63376.0, "O_14": 5.0, "Q_15": 5.0, "O_15": 5.0, "city": "SAINT PETERS", "beds": 94.0, "SR_15": 3.0}, {"Diff_star": 0.0, "addr": "200 SOUTH ST", "SR_14": 5.0, "Q_14": 4.0, "name": "MONROE MANOR", "SF_14": 3.0, "SF_15": 3.0, "cnty": "Monroe", "st": "MO", "Zip": 65275.0, "O_14": 5.0, "Q_15": 2.0, "O_15": 5.0, "city": "PARIS", "beds": 117.0, "SR_15": 5.0}, {"Diff_star": 0.0, "addr": "814 WEST SOUTH AVENUE", "SR_14": 1.0, "Q_14": 5.0, "name": "PARKDALE MANOR CARE CENTER", "SF_14": 4.0, "SF_15": 4.0, "cnty": "Nodaway", "st": "MO", "Zip": 64468.0, "O_14": 2.0, "Q_15": 5.0, "O_15": 2.0, "city": "MARYVILLE", "beds": 92.0, "SR_15": 1.0}, {"Diff_star": 0.0, "addr": "649 WEST ROLLA STREET", "SR_14": 3.0, "Q_14": 5.0, "name": "HARTVILLE CARE  CENTER", "SF_14": 3.0, "SF_15": 3.0, "cnty": "Wright", "st": "MO", "Zip": 65667.0, "O_14": 4.0, "Q_15": 5.0, "O_15": 4.0, "city": "HARTVILLE", "beds": 58.0, "SR_15": 3.0}, {"Diff_star": 0.0, "addr": "205 SOUTH COLLEGE,  PO BOX 403", "SR_14": 4.0, "Q_14": 5.0, "name": "OZARKS METHODIST MANOR, THE", "SF_14": 2.0, "SF_15": 2.0, "cnty": "Lawrence", "st": "MO", "Zip": 65705.0, "O_14": 5.0, "Q_15": 5.0, "O_15": 5.0, "city": "MARIONVILLE", "beds": 78.0, "SR_15": 4.0}, {"Diff_star": -1.0, "addr": "930 NE DUNCAN ROAD", "SR_14": 2.0, "Q_14": 3.0, "name": "SHANGRI-LA REHAB & LIVING CENTER", "SF_14": 3.0, "SF_15": 3.0, "cnty": "Jackson", "st": "MO", "Zip": 64014.0, "O_14": 2.0, "Q_15": 1.0, "O_15": 1.0, "city": "BLUE SPRINGS", "beds": 120.0, "SR_15": 2.0}, {"Diff_star": -2.0, "addr": "10425 CHESTNUT DR", "SR_14": 2.0, "Q_14": 5.0, "name": "BLUE RIVER REHABILITATION CENTER", "SF_14": 4.0, "SF_15": 3.0, "cnty": "Jackson", "st": "MO", "Zip": 64137.0, "O_14": 4.0, "Q_15": 4.0, "O_15": 2.0, "city": "KANSAS CITY", "beds": 160.0, "SR_15": 2.0}, {"Diff_star": 0.0, "addr": "721 WEST HARRISON", "SR_14": 3.0, "Q_14": 3.0, "name": "BRUNSWICK NURSING HOME", "SF_14": 3.0, "SF_15": 3.0, "cnty": "Chariton", "st": "MO", "Zip": 65236.0, "O_14": 3.0, "Q_15": 3.0, "O_15": 3.0, "city": "BRUNSWICK", "beds": 60.0, "SR_15": 3.0}, {"Diff_star": 0.0, "addr": "111 EAST STREET", "SR_14": 2.0, "Q_14": 5.0, "name": "CLARENCE CARE CENTER", "SF_14": 4.0, "SF_15": 4.0, "cnty": "Shelby", "st": "MO", "Zip": 63437.0, "O_14": 4.0, "Q_15": 5.0, "O_15": 4.0, "city": "CLARENCE", "beds": 60.0, "SR_15": 2.0}, {"Diff_star": 0.0, "addr": "723 SOUTH LACLEDE STATION RD", "SR_14": 4.0, "Q_14": 4.0, "name": "LUTHERAN CONVALESCENT HOME", "SF_14": 4.0, "SF_15": 4.0, "cnty": "St. Louis", "st": "MO", "Zip": 63119.0, "O_14": 4.0, "Q_15": 4.0, "O_15": 4.0, "city": "WEBSTER GROVES", "beds": 160.0, "SR_15": 4.0}, {"Diff_star": 0.0, "addr": "477 COY BLVD, PO BOX 640", "SR_14": 4.0, "Q_14": 4.0, "name": "FORSYTH CARE CENTER", "SF_14": 4.0, "SF_15": 3.0, "cnty": "Taney", "st": "MO", "Zip": 65653.0, "O_14": 4.0, "Q_15": 2.0, "O_15": 4.0, "city": "FORSYTH", "beds": 120.0, "SR_15": 4.0}, {"Diff_star": -1.0, "addr": "518 E MARSHALL", "SR_14": 3.0, "Q_14": 5.0, "name": "SWEET SPRINGS VILLA", "SF_14": 4.0, "SF_15": 4.0, "cnty": "Saline", "st": "MO", "Zip": 65351.0, "O_14": 5.0, "Q_15": 4.0, "O_15": 4.0, "city": "SWEET SPRINGS", "beds": 120.0, "SR_15": 3.0}, {"Diff_star": 0.0, "addr": "250 NEW FLORISSANT ROAD SOUTH", "SR_14": 2.0, "Q_14": 4.0, "name": "CRYSTAL CREEK HEALTH AND REHABILITATION CENTER", "SF_14": 1.0, "SF_15": 1.0, "cnty": "St. Louis", "st": "MO", "Zip": 63031.0, "O_14": 1.0, "Q_15": 3.0, "O_15": 1.0, "city": "FLORISSANT", "beds": 158.0, "SR_15": 2.0}, {"Diff_star": -1.0, "addr": "851 THOROUGHFARE, PO BOX 399", "SR_14": 3.0, "Q_14": 5.0, "name": "GLENWOOD HEALTHCARE", "SF_14": 4.0, "SF_15": 4.0, "cnty": "Webster", "st": "MO", "Zip": 65746.0, "O_14": 5.0, "Q_15": 3.0, "O_15": 4.0, "city": "SEYMOUR", "beds": 60.0, "SR_15": 3.0}, {"Diff_star": 0.0, "addr": "1209 STOKELAN", "SR_14": 2.0, "Q_14": 5.0, "name": "MALDEN NURSING & REHAB", "SF_14": 4.0, "SF_15": 4.0, "cnty": "Dunklin", "st": "MO", "Zip": 63863.0, "O_14": 4.0, "Q_15": 5.0, "O_15": 4.0, "city": "MALDEN", "beds": 70.0, "SR_15": 2.0}, {"Diff_star": 0.0, "addr": "3520 CHOUTEAU AVE", "SR_14": 5.0, "Q_14": 5.0, "name": "LIFE CARE CENTER OF ST LOUIS", "SF_14": 4.0, "SF_15": 3.0, "cnty": "St. Louis City", "st": "MO", "Zip": 63103.0, "O_14": 5.0, "Q_15": 5.0, "O_15": 5.0, "city": "SAINT LOUIS", "beds": 100.0, "SR_15": 5.0}, {"Diff_star": 0.0, "addr": "111 DUNCAN MANSION ROAD", "SR_14": 3.0, "Q_14": 5.0, "name": "SILEX COMMUNITY CARE", "SF_14": 4.0, "SF_15": 4.0, "cnty": "Lincoln", "st": "MO", "Zip": 63377.0, "O_14": 5.0, "Q_15": 5.0, "O_15": 5.0, "city": "SILEX", "beds": 60.0, "SR_15": 3.0}, {"Diff_star": 0.0, "addr": "430 SALCEDO ROAD, PO BOX 707", "SR_14": 1.0, "Q_14": 4.0, "name": "CLEARVIEW NURSING CENTER", "SF_14": 4.0, "SF_15": 4.0, "cnty": "Scott", "st": "MO", "Zip": 63801.0, "O_14": 2.0, "Q_15": 2.0, "O_15": 2.0, "city": "SIKESTON", "beds": 90.0, "SR_15": 1.0}, {"Diff_star": 0.0, "addr": "201 SOUTH NORTHPARK LANE", "SR_14": 1.0, "Q_14": 4.0, "name": "SPRING RIVER CHRISTIAN VILLAGE INC", "SF_14": 3.0, "SF_15": 3.0, "cnty": "Jasper", "st": "MO", "Zip": 64801.0, "O_14": 1.0, "Q_15": 4.0, "O_15": 1.0, "city": "JOPLIN", "beds": 120.0, "SR_15": 1.0}, {"Diff_star": 0.0, "addr": "4700 BRANDON WOODS", "SR_14": 2.0, "Q_14": 4.0, "name": "SOUTH HAMPTON PLACE", "SF_14": 4.0, "SF_15": 4.0, "cnty": "Boone", "st": "MO", "Zip": 65203.0, "O_14": 3.0, "Q_15": 2.0, "O_15": 3.0, "city": "COLUMBIA", "beds": 100.0, "SR_15": 2.0}, {"Diff_star": 0.0, "addr": "1108 CLARKE STREET", "SR_14": 2.0, "Q_14": 4.0, "name": "HILLCREST CARE CENTER INC", "SF_14": 3.0, "SF_15": 3.0, "cnty": "Jefferson", "st": "MO", "Zip": 63020.0, "O_14": 2.0, "Q_15": 2.0, "O_15": 2.0, "city": "DE SOTO", "beds": 120.0, "SR_15": 2.0}, {"Diff_star": 0.0, "addr": "939 EAST BIRCH", "SR_14": 3.0, "Q_14": 3.0, "name": "LIVINGSTON MANOR CARE CENTER", "SF_14": 4.0, "SF_15": 4.0, "cnty": "Livingston", "st": "MO", "Zip": 64601.0, "O_14": 4.0, "Q_15": 2.0, "O_15": 4.0, "city": "CHILLICOTHE", "beds": 94.0, "SR_15": 3.0}, {"Diff_star": 0.0, "addr": "515 PICNIC STREET", "SR_14": 4.0, "Q_14": 3.0, "name": "NEW FLORENCE NURSING AND CARE CENTER", "SF_14": 2.0, "SF_15": 2.0, "cnty": "Montgomery", "st": "MO", "Zip": 63363.0, "O_14": 4.0, "Q_15": 2.0, "O_15": 4.0, "city": "NEW FLORENCE", "beds": 87.0, "SR_15": 4.0}, {"Diff_star": -1.0, "addr": "1025 CHESTERFIELD POINTE PARKWAY", "SR_14": 4.0, "Q_14": 5.0, "name": "GARDEN VIEW CARE CENTER OF CHESTERFIELD", "SF_14": "", "SF_15": "", "cnty": "St. Louis", "st": "MO", "Zip": 63017.0, "O_14": 5.0, "Q_15": 3.0, "O_15": 4.0, "city": "CHESTERFIELD", "beds": 36.0, "SR_15": 4.0}, {"Diff_star": 0.0, "addr": "501 MONROE,  PO BOX 19", "SR_14": 2.0, "Q_14": 5.0, "name": "OREGON CARE CENTER", "SF_14": 4.0, "SF_15": 4.0, "cnty": "Holt", "st": "MO", "Zip": 64473.0, "O_14": 4.0, "Q_15": 5.0, "O_15": 4.0, "city": "OREGON", "beds": 60.0, "SR_15": 2.0}, {"Diff_star": 0.0, "addr": "209 HICKORY STREET", "SR_14": 5.0, "Q_14": 5.0, "name": "LICKING PARK MANOR", "SF_14": 3.0, "SF_15": 3.0, "cnty": "Texas", "st": "MO", "Zip": 65542.0, "O_14": 5.0, "Q_15": 5.0, "O_15": 5.0, "city": "LICKING", "beds": 60.0, "SR_15": 5.0}, {"Diff_star": 0.0, "addr": "801 EUCLID, PO BOX 438", "SR_14": 1.0, "Q_14": 5.0, "name": "CAMERON NURSING AND REHABILITATION CENTER", "SF_14": 3.0, "SF_15": 3.0, "cnty": "Clinton", "st": "MO", "Zip": 64429.0, "O_14": 2.0, "Q_15": 5.0, "O_15": 2.0, "city": "CAMERON", "beds": 120.0, "SR_15": 1.0}, {"Diff_star": 0.0, "addr": "850 HIGHWAY 60, PO BOX 885", "SR_14": 5.0, "Q_14": 4.0, "name": "LACOBA HOMES INC", "SF_14": 4.0, "SF_15": 4.0, "cnty": "Barry", "st": "MO", "Zip": 65708.0, "O_14": 5.0, "Q_15": 3.0, "O_15": 5.0, "city": "MONETT", "beds": 72.0, "SR_15": 5.0}, {"Diff_star": 0.0, "addr": "#2 NAZARETH LANE", "SR_14": 4.0, "Q_14": 5.0, "name": "NAZARETH LIVING CENTER", "SF_14": 5.0, "SF_15": 5.0, "cnty": "St. Louis", "st": "MO", "Zip": 63129.0, "O_14": 5.0, "Q_15": 5.0, "O_15": 5.0, "city": "SAINT LOUIS", "beds": 52.0, "SR_15": 4.0}, {"Diff_star": 0.0, "addr": "12110 HOLMES ROAD", "SR_14": 1.0, "Q_14": 4.0, "name": "TIMBERLAKE CARE CENTER", "SF_14": 3.0, "SF_15": 3.0, "cnty": "Jackson", "st": "MO", "Zip": 64145.0, "O_14": 1.0, "Q_15": 3.0, "O_15": 1.0, "city": "KANSAS CITY", "beds": 122.0, "SR_15": 1.0}, {"Diff_star": -1.0, "addr": "601 NORTH GALLOWAY ROAD", "SR_14": 3.0, "Q_14": 3.0, "name": "TRI-COUNTY CARE CENTER", "SF_14": 4.0, "SF_15": 3.0, "cnty": "Audrain", "st": "MO", "Zip": 63382.0, "O_14": 4.0, "Q_15": 2.0, "O_15": 3.0, "city": "VANDALIA", "beds": 90.0, "SR_15": 3.0}, {"Diff_star": 0.0, "addr": "3300 NEW HAVEN ROAD", "SR_14": 3.0, "Q_14": 3.0, "name": "LENOIR HEALTH CARE CENTER", "SF_14": 4.0, "SF_15": 4.0, "cnty": "Boone", "st": "MO", "Zip": 65201.0, "O_14": 4.0, "Q_15": 2.0, "O_15": 4.0, "city": "COLUMBIA", "beds": 42.0, "SR_15": 3.0}, {"Diff_star": -1.0, "addr": "810 EAST EDWARDS STREET", "SR_14": 2.0, "Q_14": 3.0, "name": "VILLAGE CARE CENTER INC", "SF_14": 4.0, "SF_15": 4.0, "cnty": "Nodaway", "st": "MO", "Zip": 64468.0, "O_14": 3.0, "Q_15": 2.0, "O_15": 2.0, "city": "MARYVILLE", "beds": 46.0, "SR_15": 1.0}, {"Diff_star": 0.0, "addr": "116 EAST PRATT, PO BOX 129", "SR_14": 3.0, "Q_14": 3.0, "name": "MCLARNEY MANOR", "SF_14": 4.0, "SF_15": 4.0, "cnty": "Linn", "st": "MO", "Zip": 64628.0, "O_14": 4.0, "Q_15": 2.0, "O_15": 4.0, "city": "BROOKFIELD", "beds": 60.0, "SR_15": 3.0}, {"Diff_star": 0.0, "addr": "503 REGENT DRIVE", "SR_14": 1.0, "Q_14": 4.0, "name": "COUNTRY CLUB CARE CENTER OF WARRENSBURG", "SF_14": 2.0, "SF_15": 2.0, "cnty": "Johnson", "st": "MO", "Zip": 64093.0, "O_14": 1.0, "Q_15": 2.0, "O_15": 1.0, "city": "WARRENSBURG", "beds": 73.0, "SR_15": 1.0}, {"Diff_star": 0.0, "addr": "1002 CENTRAL", "SR_14": 2.0, "Q_14": 5.0, "name": "LA BELLE MANOR CARE CENTER", "SF_14": 3.0, "SF_15": 3.0, "cnty": "Lewis", "st": "MO", "Zip": 63447.0, "O_14": 3.0, "Q_15": 5.0, "O_15": 3.0, "city": "LA BELLE", "beds": 94.0, "SR_15": 2.0}, {"Diff_star": -1.0, "addr": "3001 EAST ELM", "SR_14": 3.0, "Q_14": 3.0, "name": "CROWN CARE CENTER", "SF_14": 3.0, "SF_15": 3.0, "cnty": "Cass", "st": "MO", "Zip": 64701.0, "O_14": 3.0, "Q_15": 1.0, "O_15": 2.0, "city": "HARRISONVILLE", "beds": 118.0, "SR_15": 3.0}, {"Diff_star": 0.0, "addr": "200 SOUTH GERHART", "SR_14": 4.0, "Q_14": 5.0, "name": "MONITEAU CARE CENTER", "SF_14": 2.0, "SF_15": 2.0, "cnty": "Moniteau", "st": "MO", "Zip": 65018.0, "O_14": 5.0, "Q_15": 5.0, "O_15": 5.0, "city": "CALIFORNIA", "beds": 60.0, "SR_15": 4.0}, {"Diff_star": 0.0, "addr": "1505 MINER, PO BOX 248", "SR_14": 4.0, "Q_14": 3.0, "name": "SARCOXIE NURSING CENTER", "SF_14": 2.0, "SF_15": 2.0, "cnty": "Jasper", "st": "MO", "Zip": 64862.0, "O_14": 4.0, "Q_15": 3.0, "O_15": 4.0, "city": "SARCOXIE", "beds": 40.0, "SR_15": 4.0}, {"Diff_star": 1.0, "addr": "1800 WEIN STREET, PO BOX 468", "SR_14": 5.0, "Q_14": 4.0, "name": "FRENE VALLEY HEALTH CENTER", "SF_14": 1.0, "SF_15": 1.0, "cnty": "Gasconade", "st": "MO", "Zip": 65041.0, "O_14": 4.0, "Q_15": 5.0, "O_15": 5.0, "city": "HERMANN", "beds": 118.0, "SR_15": 5.0}, {"Diff_star": -1.0, "addr": "210 ELDON DRIVE", "SR_14": 3.0, "Q_14": 2.0, "name": "CUBA MANOR INC", "SF_14": 4.0, "SF_15": 4.0, "cnty": "Crawford", "st": "MO", "Zip": 65453.0, "O_14": 4.0, "Q_15": 1.0, "O_15": 3.0, "city": "CUBA", "beds": 90.0, "SR_15": 3.0}, {"Diff_star": 0.0, "addr": "1349 HIGHWAY 61, PO BOX 700", "SR_14": 2.0, "Q_14": 5.0, "name": "FOUNTAINBLEAU NURSING CENTER", "SF_14": 3.0, "SF_15": 3.0, "cnty": "Jefferson", "st": "MO", "Zip": 63028.0, "O_14": 3.0, "Q_15": 5.0, "O_15": 3.0, "city": "FESTUS", "beds": 106.0, "SR_15": 2.0}, {"Diff_star": 0.0, "addr": "404 E THIRD STREET, PO BOX 307", "SR_14": 5.0, "Q_14": 4.0, "name": "GOLDEN AGE LIVING CENTER", "SF_14": 4.0, "SF_15": 4.0, "cnty": "Morgan", "st": "MO", "Zip": 65078.0, "O_14": 5.0, "Q_15": 4.0, "O_15": 5.0, "city": "STOVER", "beds": 61.0, "SR_15": 5.0}, {"Diff_star": 0.0, "addr": "505 WEST EVERGREEN", "SR_14": 1.0, "Q_14": 3.0, "name": "STRAFFORD CARE CENTER", "SF_14": 2.0, "SF_15": 2.0, "cnty": "Greene", "st": "MO", "Zip": 65757.0, "O_14": 1.0, "Q_15": 2.0, "O_15": 1.0, "city": "STRAFFORD", "beds": 78.0, "SR_15": 1.0}, {"Diff_star": -1.0, "addr": "5026 FARAON", "SR_14": 1.0, "Q_14": 3.0, "name": "ABBEY WOOD'S", "SF_14": 4.0, "SF_15": 4.0, "cnty": "Buchanan", "st": "MO", "Zip": 64506.0, "O_14": 2.0, "Q_15": 1.0, "O_15": 1.0, "city": "SAINT JOSEPH", "beds": 100.0, "SR_15": 1.0}, {"Diff_star": -1.0, "addr": "1220 EAST FAIRVIEW", "SR_14": 4.0, "Q_14": 5.0, "name": "ST LUKE'S NURSING CENTER INC", "SF_14": 3.0, "SF_15": 3.0, "cnty": "Jasper", "st": "MO", "Zip": 64836.0, "O_14": 5.0, "Q_15": 4.0, "O_15": 4.0, "city": "CARTHAGE", "beds": 89.0, "SR_15": 4.0}, {"Diff_star": 0.0, "addr": "1510 BLUFF STREET", "SR_14": 1.0, "Q_14": 5.0, "name": "FULTON NURSING & REHAB", "SF_14": 2.0, "SF_15": 2.0, "cnty": "Callaway", "st": "MO", "Zip": 65251.0, "O_14": 2.0, "Q_15": 5.0, "O_15": 2.0, "city": "FULTON", "beds": 100.0, "SR_15": 1.0}, {"Diff_star": 0.0, "addr": "3550 EAST BATTLEFIELD", "SR_14": 3.0, "Q_14": 3.0, "name": "JAMES RIVER CARE AND REHABILITATION CENTER, INC", "SF_14": 4.0, "SF_15": 4.0, "cnty": "Greene", "st": "MO", "Zip": 65809.0, "O_14": 4.0, "Q_15": 2.0, "O_15": 4.0, "city": "SPRINGFIELD", "beds": 120.0, "SR_15": 3.0}, {"Diff_star": 0.0, "addr": "801 SOUTH COLBY", "SR_14": 1.0, "Q_14": 5.0, "name": "HILL CREST MANOR", "SF_14": 4.0, "SF_15": 4.0, "cnty": "Caldwell", "st": "MO", "Zip": 64644.0, "O_14": 2.0, "Q_15": 5.0, "O_15": 2.0, "city": "HAMILTON", "beds": 90.0, "SR_15": 1.0}, {"Diff_star": 0.0, "addr": "210 WEST 8TH TERRACE", "SR_14": 3.0, "Q_14": 4.0, "name": "LAWSON MANOR & REHAB", "SF_14": 4.0, "SF_15": 4.0, "cnty": "Ray", "st": "MO", "Zip": 64062.0, "O_14": 4.0, "Q_15": 2.0, "O_15": 4.0, "city": "LAWSON", "beds": 60.0, "SR_15": 3.0}, {"Diff_star": 0.0, "addr": "1201 WEST 19TH STREET", "SR_14": 5.0, "Q_14": 5.0, "name": "MEYER CARE CENTER", "SF_14": 4.0, "SF_15": 5.0, "cnty": "Lafayette", "st": "MO", "Zip": 64037.0, "O_14": 5.0, "Q_15": 4.0, "O_15": 5.0, "city": "HIGGINSVILLE", "beds": 40.0, "SR_15": 5.0}, {"Diff_star": 0.0, "addr": "5000 SOUTH BROADWAY", "SR_14": 4.0, "Q_14": 5.0, "name": "CARRIE ELLIGSON GIETNER HOME", "SF_14": 1.0, "SF_15": 1.0, "cnty": "St. Louis City", "st": "MO", "Zip": 63111.0, "O_14": 4.0, "Q_15": 5.0, "O_15": 4.0, "city": "SAINT LOUIS", "beds": 120.0, "SR_15": 4.0}, {"Diff_star": -1.0, "addr": "400 CARE CENTER DRIVE", "SR_14": 2.0, "Q_14": 3.0, "name": "WARRENSBURG MANOR CARE CENTER", "SF_14": 4.0, "SF_15": 4.0, "cnty": "Johnson", "st": "MO", "Zip": 64093.0, "O_14": 3.0, "Q_15": 1.0, "O_15": 2.0, "city": "WARRENSBURG", "beds": 92.0, "SR_15": 2.0}, {"Diff_star": 0.0, "addr": "1016 W HIGHWAY 28", "SR_14": 4.0, "Q_14": 5.0, "name": "FRENE VALLEY HEALTHCARE SOUTH", "SF_14": 4.0, "SF_15": 2.0, "cnty": "Gasconade", "st": "MO", "Zip": 65066.0, "O_14": 5.0, "Q_15": 5.0, "O_15": 5.0, "city": "OWENSVILLE", "beds": 131.0, "SR_15": 4.0}, {"Diff_star": 0.0, "addr": "3421 GASCONADE", "SR_14": 3.0, "Q_14": 5.0, "name": "DUTCHTOWN CARE CENTER", "SF_14": 4.0, "SF_15": 4.0, "cnty": "St. Louis City", "st": "MO", "Zip": 63118.0, "O_14": 5.0, "Q_15": 5.0, "O_15": 5.0, "city": "SAINT LOUIS", "beds": 120.0, "SR_15": 3.0}, {"Diff_star": -1.0, "addr": "311 NORTH SPRING STREET", "SR_14": 2.0, "Q_14": 3.0, "name": "GIBBS CARE CENTER", "SF_14": 4.0, "SF_15": 4.0, "cnty": "Crawford", "st": "MO", "Zip": 65565.0, "O_14": 3.0, "Q_15": 1.0, "O_15": 2.0, "city": "STEELVILLE", "beds": 72.0, "SR_15": 2.0}, {"Diff_star": 0.0, "addr": "1180 OLD JACKSON ROAD", "SR_14": 2.0, "Q_14": 4.0, "name": "ST FRANCOIS MANOR", "SF_14": 4.0, "SF_15": 4.0, "cnty": "St. Francois", "st": "MO", "Zip": 63640.0, "O_14": 3.0, "Q_15": 3.0, "O_15": 3.0, "city": "FARMINGTON", "beds": 118.0, "SR_15": 2.0}, {"Diff_star": -1.0, "addr": "649 SOUTH WALNUT", "SR_14": 4.0, "Q_14": 5.0, "name": "ST ELIZABETH CARE CENTER", "SF_14": 1.0, "SF_15": 1.0, "cnty": "Miller", "st": "MO", "Zip": 65075.0, "O_14": 4.0, "Q_15": 5.0, "O_15": 3.0, "city": "SAINT ELIZABETH", "beds": 63.0, "SR_15": 3.0}, {"Diff_star": 0.0, "addr": "17108 US HIGHWAY 62", "SR_14": 3.0, "Q_14": 3.0, "name": "GENERAL BAPTIST NURSING HOME", "SF_14": 2.0, "SF_15": 2.0, "cnty": "Dunklin", "st": "MO", "Zip": 63933.0, "O_14": 3.0, "Q_15": 2.0, "O_15": 3.0, "city": "CAMPBELL", "beds": 90.0, "SR_15": 3.0}, {"Diff_star": 0.0, "addr": "603 HIGHWAY 62 WEST", "SR_14": 3.0, "Q_14": 2.0, "name": "BERTRAND NURSING AND REHAB CENTER", "SF_14": 2.0, "SF_15": 4.0, "cnty": "Mississippi", "st": "MO", "Zip": 63823.0, "O_14": 3.0, "Q_15": 1.0, "O_15": 3.0, "city": "BERTRAND", "beds": 58.0, "SR_15": 3.0}, {"Diff_star": 0.0, "addr": "6814 SOBBIE ROAD", "SR_14": 1.0, "Q_14": 4.0, "name": "PLEASANT VALLEY MANOR CARE CENTER", "SF_14": 2.0, "SF_15": 2.0, "cnty": "Clay", "st": "MO", "Zip": 64068.0, "O_14": 1.0, "Q_15": 2.0, "O_15": 1.0, "city": "LIBERTY", "beds": 102.0, "SR_15": 1.0}, {"Diff_star": 0.0, "addr": "37 NORTH CLARK AVENUE", "SR_14": 4.0, "Q_14": 5.0, "name": "OAK KNOLL NURSING HOME", "SF_14": 4.0, "SF_15": 4.0, "cnty": "St. Louis", "st": "MO", "Zip": 63135.0, "O_14": 5.0, "Q_15": 5.0, "O_15": 5.0, "city": "FERGUSON", "beds": 43.0, "SR_15": 4.0}, {"Diff_star": 0.0, "addr": "307 SOUTH HIGHWAY 21", "SR_14": 2.0, "Q_14": 2.0, "name": "POTOSI MANOR, INC", "SF_14": 1.0, "SF_15": 1.0, "cnty": "Washington", "st": "MO", "Zip": 63664.0, "O_14": 1.0, "Q_15": 1.0, "O_15": 1.0, "city": "POTOSI", "beds": 90.0, "SR_15": 2.0}, {"Diff_star": -1.0, "addr": "1600 SOUTH KINGSHIGHWAY", "SR_14": 2.0, "Q_14": 5.0, "name": "INDEPENDENCE MANOR CARE CENTER", "SF_14": 2.0, "SF_15": 2.0, "cnty": "Jackson", "st": "MO", "Zip": 64055.0, "O_14": 3.0, "Q_15": 4.0, "O_15": 2.0, "city": "INDEPENDENCE", "beds": 99.0, "SR_15": 2.0}, {"Diff_star": -1.0, "addr": "809 WEST BENTON, PO BOX 5", "SR_14": 3.0, "Q_14": 2.0, "name": "WINDSOR HEALTHCARE & REHAB CENTER", "SF_14": 3.0, "SF_15": 3.0, "cnty": "Henry", "st": "MO", "Zip": 65360.0, "O_14": 3.0, "Q_15": 1.0, "O_15": 2.0, "city": "WINDSOR", "beds": 60.0, "SR_15": 3.0}, {"Diff_star": 0.0, "addr": "2506 LINDEN TREE PARKWAY,  PO BOX 370", "SR_14": 4.0, "Q_14": 4.0, "name": "LIVING CENTER, THE", "SF_14": 4.0, "SF_15": 4.0, "cnty": "Saline", "st": "MO", "Zip": 65340.0, "O_14": 4.0, "Q_15": 3.0, "O_15": 4.0, "city": "MARSHALL", "beds": 99.0, "SR_15": 4.0}, {"Diff_star": -1.0, "addr": "3170 HIGHWAY 61 NORTH", "SR_14": 3.0, "Q_14": 4.0, "name": "LUTHER MANOR RETIREMENT & NURSING CENTER", "SF_14": 2.0, "SF_15": 2.0, "cnty": "Marion", "st": "MO", "Zip": 63401.0, "O_14": 3.0, "Q_15": 4.0, "O_15": 2.0, "city": "HANNIBAL", "beds": 64.0, "SR_15": 2.0}, {"Diff_star": -1.0, "addr": "1800 S SWOPE DRIVE", "SR_14": 2.0, "Q_14": 5.0, "name": "REHABILITATION CENTER OF INDEPENDENCE, THE", "SF_14": 1.0, "SF_15": 1.0, "cnty": "Jackson", "st": "MO", "Zip": 64057.0, "O_14": 2.0, "Q_15": 4.0, "O_15": 1.0, "city": "INDEPENDENCE", "beds": 130.0, "SR_15": 2.0}, {"Diff_star": 1.0, "addr": "142 SHELBY PLAZA ROAD, PO BOX 529", "SR_14": 4.0, "Q_14": 3.0, "name": "SALT RIVER COMMUNITY CARE", "SF_14": 4.0, "SF_15": 4.0, "cnty": "Shelby", "st": "MO", "Zip": 63468.0, "O_14": 4.0, "Q_15": 2.0, "O_15": 5.0, "city": "SHELBINA", "beds": 120.0, "SR_15": 5.0}, {"Diff_star": 0.0, "addr": "220 O'ROURKE DRIVE, PO BOX 1310", "SR_14": 1.0, "Q_14": 5.0, "name": "HILLVIEW NURSING & REHAB", "SF_14": 4.0, "SF_15": 4.0, "cnty": "Platte", "st": "MO", "Zip": 64079.0, "O_14": 2.0, "Q_15": 4.0, "O_15": 2.0, "city": "PLATTE CITY", "beds": 120.0, "SR_15": 1.0}, {"Diff_star": 0.0, "addr": "8575 NORTH GRANBY AVE", "SR_14": 1.0, "Q_14": 4.0, "name": "GARDEN VALLEY NURSING & REHABILITATION CENTER", "SF_14": 4.0, "SF_15": 4.0, "cnty": "Platte", "st": "MO", "Zip": 64154.0, "O_14": 2.0, "Q_15": 3.0, "O_15": 2.0, "city": "KANSAS CITY", "beds": 156.0, "SR_15": 1.0}, {"Diff_star": 0.0, "addr": "253 EAST HIGHWAY 116", "SR_14": 1.0, "Q_14": 5.0, "name": "CLINTON CARE AND REHAB CENTER", "SF_14": 4.0, "SF_15": 4.0, "cnty": "Clinton", "st": "MO", "Zip": 64477.0, "O_14": 2.0, "Q_15": 4.0, "O_15": 2.0, "city": "PLATTSBURG", "beds": 70.0, "SR_15": 1.0}, {"Diff_star": -1.0, "addr": "3625 MAGNOLIA AVENUE", "SR_14": 1.0, "Q_14": 5.0, "name": "BEAUVAIS MANOR HEALTHCARE & REHAB CENTER", "SF_14": 2.0, "SF_15": 2.0, "cnty": "St. Louis City", "st": "MO", "Zip": 63110.0, "O_14": 2.0, "Q_15": 4.0, "O_15": 1.0, "city": "SAINT LOUIS", "beds": 184.0, "SR_15": 1.0}, {"Diff_star": -1.0, "addr": "600 N E MEADOWVIEW DRIVE", "SR_14": 3.0, "Q_14": 2.0, "name": "WILSHIRE AT LAKEWOOD", "SF_14": 4.0, "SF_15": 4.0, "cnty": "Jackson", "st": "MO", "Zip": 64064.0, "O_14": 4.0, "Q_15": 1.0, "O_15": 3.0, "city": "LEES SUMMIT", "beds": 170.0, "SR_15": 3.0}, {"Diff_star": -1.0, "addr": "10 LAKE DRIVE", "SR_14": 1.0, "Q_14": 4.0, "name": "ST JOE MANOR", "SF_14": 4.0, "SF_15": 3.0, "cnty": "St. Francois", "st": "MO", "Zip": 63628.0, "O_14": 2.0, "Q_15": 2.0, "O_15": 1.0, "city": "BONNE TERRE", "beds": 136.0, "SR_15": 1.0}, {"Diff_star": -1.0, "addr": "200 THOMPSON DRIVE", "SR_14": 2.0, "Q_14": 2.0, "name": "TROY MANOR", "SF_14": 3.0, "SF_15": 3.0, "cnty": "Lincoln", "st": "MO", "Zip": 63379.0, "O_14": 2.0, "Q_15": 1.0, "O_15": 1.0, "city": "TROY", "beds": 130.0, "SR_15": 2.0}, {"Diff_star": -1.0, "addr": "9350 GREEN PARK ROAD", "SR_14": 2.0, "Q_14": 5.0, "name": "GREEN PARK SENIOR LIVING COMMUNITY", "SF_14": 2.0, "SF_15": 2.0, "cnty": "St. Louis", "st": "MO", "Zip": 63123.0, "O_14": 3.0, "Q_15": 4.0, "O_15": 2.0, "city": "SAINT LOUIS", "beds": 188.0, "SR_15": 2.0}, {"Diff_star": 0.0, "addr": "430 NORTH WEST STREET", "SR_14": 2.0, "Q_14": 1.0, "name": "PERRY OAKS NURSING & REHABILITATION CENTER", "SF_14": 4.0, "SF_15": 4.0, "cnty": "Perry", "st": "MO", "Zip": 63775.0, "O_14": 2.0, "Q_15": 1.0, "O_15": 2.0, "city": "PERRYVILLE", "beds": 156.0, "SR_15": 2.0}, {"Diff_star": 0.0, "addr": "200 WEST 12TH STREET", "SR_14": 2.0, "Q_14": 5.0, "name": "GOOD SHEPHERD NURSING HOME", "SF_14": 4.0, "SF_15": 4.0, "cnty": "Dade", "st": "MO", "Zip": 65682.0, "O_14": 4.0, "Q_15": 5.0, "O_15": 4.0, "city": "LOCKWOOD", "beds": 69.0, "SR_15": 2.0}, {"Diff_star": -1.0, "addr": "307 GRAND", "SR_14": 4.0, "Q_14": 3.0, "name": "CARROLL HOUSE", "SF_14": 5.0, "SF_15": 5.0, "cnty": "Carroll", "st": "MO", "Zip": 64633.0, "O_14": 5.0, "Q_15": 1.0, "O_15": 4.0, "city": "CARROLLTON", "beds": 54.0, "SR_15": 4.0}, {"Diff_star": 0.0, "addr": "300 SOUTH HENRY CLAY BLVD", "SR_14": 3.0, "Q_14": 4.0, "name": "ASHLAND HEALTHCARE", "SF_14": 2.0, "SF_15": 2.0, "cnty": "Boone", "st": "MO", "Zip": 65010.0, "O_14": 3.0, "Q_15": 3.0, "O_15": 3.0, "city": "ASHLAND", "beds": 60.0, "SR_15": 3.0}, {"Diff_star": 0.0, "addr": "804 WOLLARD BLVD", "SR_14": 1.0, "Q_14": 4.0, "name": "SHIRKEY NURSING AND REHABILITATION CENTER", "SF_14": 3.0, "SF_15": 3.0, "cnty": "Ray", "st": "MO", "Zip": 64085.0, "O_14": 1.0, "Q_15": 1.0, "O_15": 1.0, "city": "RICHMOND", "beds": 187.0, "SR_15": 1.0}, {"Diff_star": 0.0, "addr": "9500 BELLEFONTAINE ROAD", "SR_14": 1.0, "Q_14": 4.0, "name": "BELLEFONTAINE GARDENS NURSING & REHAB", "SF_14": 3.0, "SF_15": 3.0, "cnty": "St. Louis", "st": "MO", "Zip": 63137.0, "O_14": 1.0, "Q_15": 3.0, "O_15": 1.0, "city": "SAINT LOUIS", "beds": 96.0, "SR_15": 1.0}, {"Diff_star": 0.0, "addr": "2108 SOUTH MITCHELL", "SR_14": 1.0, "Q_14": 4.0, "name": "OAK GROVE NURSING & REHAB", "SF_14": 3.0, "SF_15": 3.0, "cnty": "Jackson", "st": "MO", "Zip": 64075.0, "O_14": 1.0, "Q_15": 3.0, "O_15": 1.0, "city": "OAK GROVE", "beds": 90.0, "SR_15": 1.0}, {"Diff_star": 0.0, "addr": "#1 ARBOR TERRACE", "SR_14": 5.0, "Q_14": 5.0, "name": "DELMAR GARDENS OF MERAMEC VALLEY", "SF_14": 4.0, "SF_15": 4.0, "cnty": "St. Louis", "st": "MO", "Zip": 63026.0, "O_14": 5.0, "Q_15": 4.0, "O_15": 5.0, "city": "FENTON", "beds": 152.0, "SR_15": 5.0}, {"Diff_star": 0.0, "addr": "2115 KAPPEL DRIVE", "SR_14": 1.0, "Q_14": 5.0, "name": "ESTATES OF ST LOUIS, THE", "SF_14": 4.0, "SF_15": 4.0, "cnty": "St. Louis", "st": "MO", "Zip": 63136.0, "O_14": 2.0, "Q_15": 5.0, "O_15": 2.0, "city": "SAINT LOUIS", "beds": 94.0, "SR_15": 1.0}, {"Diff_star": 0.0, "addr": "1157 HIGHWAY 17", "SR_14": 4.0, "Q_14": 5.0, "name": "MILLER COUNTY CARE AND REHABILITATION CENTER", "SF_14": 4.0, "SF_15": 3.0, "cnty": "Miller", "st": "MO", "Zip": 65082.0, "O_14": 5.0, "Q_15": 5.0, "O_15": 5.0, "city": "TUSCUMBIA", "beds": 79.0, "SR_15": 4.0}, {"Diff_star": 0.0, "addr": "3260 BAISCH DRIVE", "SR_14": 5.0, "Q_14": 4.0, "name": "BAISCH NURSING CENTER", "SF_14": 4.0, "SF_15": 4.0, "cnty": "Jefferson", "st": "MO", "Zip": 63020.0, "O_14": 5.0, "Q_15": 4.0, "O_15": 5.0, "city": "DE SOTO", "beds": 61.0, "SR_15": 5.0}, {"Diff_star": -1.0, "addr": "1311 E 28TH STREET", "SR_14": 1.0, "Q_14": 3.0, "name": "SUNNYVIEW NURSING HOME & APARTMENTS", "SF_14": 4.0, "SF_15": 4.0, "cnty": "Grundy", "st": "MO", "Zip": 64683.0, "O_14": 2.0, "Q_15": 1.0, "O_15": 1.0, "city": "TRENTON", "beds": 154.0, "SR_15": 1.0}, {"Diff_star": -1.0, "addr": "1115 K LAND DRIVE, PO BOX 740", "SR_14": 3.0, "Q_14": 5.0, "name": "MONTICELLO HOUSE", "SF_14": 2.0, "SF_15": 2.0, "cnty": "Cape Girardeau", "st": "MO", "Zip": 63755.0, "O_14": 4.0, "Q_15": 4.0, "O_15": 3.0, "city": "JACKSON", "beds": 75.0, "SR_15": 3.0}, {"Diff_star": -1.0, "addr": "3645 COOK AVE", "SR_14": 2.0, "Q_14": 5.0, "name": "GRAND MANOR NURSING & REHABILITATION CENTER", "SF_14": 4.0, "SF_15": 3.0, "cnty": "St. Louis City", "st": "MO", "Zip": 63113.0, "O_14": 4.0, "Q_15": 5.0, "O_15": 3.0, "city": "SAINT LOUIS", "beds": 120.0, "SR_15": 2.0}, {"Diff_star": 2.0, "addr": "12498 SE HIGHWAY 116", "SR_14": 1.0, "Q_14": 5.0, "name": "GOLDEN AGE NURSING HOME", "SF_14": 4.0, "SF_15": 4.0, "cnty": "Caldwell", "st": "MO", "Zip": 64624.0, "O_14": 2.0, "Q_15": 5.0, "O_15": 4.0, "city": "BRAYMER", "beds": 83.0, "SR_15": 2.0}, {"Diff_star": 0.0, "addr": "5303 BERMUDA DRIVE", "SR_14": 1.0, "Q_14": 4.0, "name": "OAKWOOD ESTATE NURSING AND REHABILITATION CENTER", "SF_14": 3.0, "SF_15": 3.0, "cnty": "St. Louis", "st": "MO", "Zip": 63121.0, "O_14": 1.0, "Q_15": 2.0, "O_15": 1.0, "city": "NORMANDY", "beds": 126.0, "SR_15": 1.0}, {"Diff_star": 0.0, "addr": "1127 TIMBER RUN DRIVE", "SR_14": 1.0, "Q_14": 5.0, "name": "CREVE COEUR MANOR", "SF_14": 3.0, "SF_15": 3.0, "cnty": "St. Louis", "st": "MO", "Zip": 63146.0, "O_14": 2.0, "Q_15": 5.0, "O_15": 2.0, "city": "SAINT LOUIS", "beds": 149.0, "SR_15": 1.0}, {"Diff_star": 0.0, "addr": "7001 CLEVELAND AVENUE", "SR_14": 1.0, "Q_14": 5.0, "name": "GREGORY RIDGE LIVING CENTER", "SF_14": 4.0, "SF_15": 3.0, "cnty": "Jackson", "st": "MO", "Zip": 64132.0, "O_14": 2.0, "Q_15": 5.0, "O_15": 2.0, "city": "KANSAS CITY", "beds": 116.0, "SR_15": 1.0}, {"Diff_star": 0.0, "addr": "601 EAST 14TH STREET, PO BOX 1706", "SR_14": 5.0, "Q_14": 1.0, "name": "BOTHWELL REGIONAL HEALTH CENTER", "SF_14": 5.0, "SF_15": 5.0, "cnty": "Pettis", "st": "MO", "Zip": 65301.0, "O_14": 4.0, "Q_15": 1.0, "O_15": 4.0, "city": "SEDALIA", "beds": 15.0, "SR_15": 5.0}, {"Diff_star": -1.0, "addr": "810 EAST WALNUT", "SR_14": 2.0, "Q_14": 5.0, "name": "CARMEL HILLS HEALTHCARE AND REHABILITATION CENTER", "SF_14": 4.0, "SF_15": 4.0, "cnty": "Jackson", "st": "MO", "Zip": 64050.0, "O_14": 4.0, "Q_15": 4.0, "O_15": 3.0, "city": "INDEPENDENCE", "beds": 194.0, "SR_15": 2.0}, {"Diff_star": 0.0, "addr": "300 WEST FAIRVIEW", "SR_14": 4.0, "Q_14": 4.0, "name": "KING CITY MANOR", "SF_14": 4.0, "SF_15": 4.0, "cnty": "Gentry", "st": "MO", "Zip": 64463.0, "O_14": 4.0, "Q_15": 4.0, "O_15": 4.0, "city": "KING CITY", "beds": 60.0, "SR_15": 4.0}, {"Diff_star": 0.0, "addr": "1337 WEST GRAND", "SR_14": 4.0, "Q_14": 2.0, "name": "DAVIESS COUNTY NURSING AND REHABILITATION", "SF_14": 4.0, "SF_15": 4.0, "cnty": "Daviess", "st": "MO", "Zip": 64640.0, "O_14": 4.0, "Q_15": 2.0, "O_15": 4.0, "city": "GALLATIN", "beds": 97.0, "SR_15": 4.0}, {"Diff_star": 0.0, "addr": "1622 EAST 28TH STREET", "SR_14": 1.0, "Q_14": 4.0, "name": "EASTVIEW MANOR CARE CENTER", "SF_14": 3.0, "SF_15": 3.0, "cnty": "Grundy", "st": "MO", "Zip": 64683.0, "O_14": 1.0, "Q_15": 2.0, "O_15": 1.0, "city": "TRENTON", "beds": 90.0, "SR_15": 1.0}, {"Diff_star": 0.0, "addr": "1502 WEST EDGEWOOD", "SR_14": 5.0, "Q_14": 5.0, "name": "MAGNOLIA SQUARE NURSING AND REHABILITATION CENTER", "SF_14": 4.0, "SF_15": 4.0, "cnty": "Greene", "st": "MO", "Zip": 65807.0, "O_14": 5.0, "Q_15": 5.0, "O_15": 5.0, "city": "SPRINGFIELD", "beds": 120.0, "SR_15": 5.0}, {"Diff_star": 0.0, "addr": "3060 ASHBY ROAD", "SR_14": 2.0, "Q_14": 4.0, "name": "BENTLEYS EXTENDED CARE", "SF_14": 4.0, "SF_15": 4.0, "cnty": "St. Louis", "st": "MO", "Zip": 63114.0, "O_14": 3.0, "Q_15": 3.0, "O_15": 3.0, "city": "OVERLAND", "beds": 72.0, "SR_15": 2.0}, {"Diff_star": 0.0, "addr": "3333 BROWN ROAD", "SR_14": 1.0, "Q_14": 4.0, "name": "ST JOHNS PLACE", "SF_14": 4.0, "SF_15": 4.0, "cnty": "St. Louis", "st": "MO", "Zip": 63114.0, "O_14": 2.0, "Q_15": 3.0, "O_15": 2.0, "city": "SAINT LOUIS", "beds": 94.0, "SR_15": 1.0}, {"Diff_star": 1.0, "addr": "1301 N ST JOE DRIVE", "SR_14": 4.0, "Q_14": 5.0, "name": "COUNTRY MEADOWS", "SF_14": 1.0, "SF_15": 4.0, "cnty": "St. Francois", "st": "MO", "Zip": 63601.0, "O_14": 4.0, "Q_15": 5.0, "O_15": 5.0, "city": "PARK HILLS", "beds": 72.0, "SR_15": 3.0}, {"Diff_star": 0.0, "addr": "11728 HIDDEN LAKE DRIVE", "SR_14": 4.0, "Q_14": 5.0, "name": "LUTHERAN SENIOR SERVICES AT HIDDEN LAKE", "SF_14": 5.0, "SF_15": 5.0, "cnty": "St. Louis", "st": "MO", "Zip": 63138.0, "O_14": 5.0, "Q_15": 4.0, "O_15": 5.0, "city": "SAINT LOUIS", "beds": 67.0, "SR_15": 4.0}, {"Diff_star": 0.0, "addr": "1301 PARTRIDGE AVENUE", "SR_14": 1.0, "Q_14": 5.0, "name": "U-CITY FOREST MANOR", "SF_14": 2.0, "SF_15": 2.0, "cnty": "St. Louis", "st": "MO", "Zip": 63130.0, "O_14": 2.0, "Q_15": 5.0, "O_15": 2.0, "city": "SAINT LOUIS", "beds": 120.0, "SR_15": 1.0}, {"Diff_star": -1.0, "addr": "610 HIGHWAY O, P.O. BOX 1068", "SR_14": 3.0, "Q_14": 2.0, "name": "LAURIE CARE CENTER", "SF_14": 4.0, "SF_15": 4.0, "cnty": "Morgan", "st": "MO", "Zip": 65038.0, "O_14": 4.0, "Q_15": 1.0, "O_15": 3.0, "city": "LAURIE", "beds": 110.0, "SR_15": 3.0}, {"Diff_star": 0.0, "addr": "1630 RADIO HILL ROAD", "SR_14": 3.0, "Q_14": 4.0, "name": "ASHLEY MANOR CARE CENTER", "SF_14": 3.0, "SF_15": 3.0, "cnty": "Cooper", "st": "MO", "Zip": 65233.0, "O_14": 3.0, "Q_15": 3.0, "O_15": 3.0, "city": "BOONVILLE", "beds": 52.0, "SR_15": 3.0}, {"Diff_star": 0.0, "addr": "2005 SOUTH LEXINGTON", "SR_14": 1.0, "Q_14": 5.0, "name": "HOLDEN MANOR CARE CENTER", "SF_14": 4.0, "SF_15": 4.0, "cnty": "Johnson", "st": "MO", "Zip": 64040.0, "O_14": 2.0, "Q_15": 5.0, "O_15": 2.0, "city": "HOLDEN", "beds": 52.0, "SR_15": 1.0}, {"Diff_star": 0.0, "addr": "2407 KENTUCKY STREET", "SR_14": 2.0, "Q_14": 4.0, "name": "MAPLE GROVE LODGE", "SF_14": 4.0, "SF_15": 4.0, "cnty": "Pike", "st": "MO", "Zip": 63353.0, "O_14": 3.0, "Q_15": 3.0, "O_15": 3.0, "city": "LOUISIANA", "beds": 90.0, "SR_15": 2.0}, {"Diff_star": 0.0, "addr": "205 E CLAY AVE, PO BOX 247", "SR_14": 5.0, "Q_14": 5.0, "name": "OAKRIDGE OF PLATTSBURG", "SF_14": 4.0, "SF_15": 4.0, "cnty": "Clinton", "st": "MO", "Zip": 64477.0, "O_14": 5.0, "Q_15": 5.0, "O_15": 5.0, "city": "PLATTSBURG", "beds": 60.0, "SR_15": 5.0}, {"Diff_star": -2.0, "addr": "21997 WHITE SANDS RD", "SR_14": 2.0, "Q_14": 2.0, "name": "RIVERVIEW AT THE PARK CARE AND REHABILITATION CTR", "SF_14": 4.0, "SF_15": 3.0, "cnty": "Ste. Genevieve", "st": "MO", "Zip": 63670.0, "O_14": 3.0, "Q_15": 1.0, "O_15": 1.0, "city": "SAINTE GENEVIEVE", "beds": 120.0, "SR_15": 2.0}, {"Diff_star": -1.0, "addr": "470 RAINBOW DRIVE, PO BOX 273", "SR_14": 3.0, "Q_14": 2.0, "name": "PLEASANT VIEW", "SF_14": 4.0, "SF_15": 4.0, "cnty": "Atchison", "st": "MO", "Zip": 64482.0, "O_14": 4.0, "Q_15": 3.0, "O_15": 3.0, "city": "ROCK PORT", "beds": 60.0, "SR_15": 2.0}, {"Diff_star": -1.0, "addr": "1201 S. POLK", "SR_14": 1.0, "Q_14": 5.0, "name": "SUNSET HOME", "SF_14": 3.0, "SF_15": 3.0, "cnty": "De Kalb", "st": "MO", "Zip": 64469.0, "O_14": 2.0, "Q_15": 4.0, "O_15": 1.0, "city": "MAYSVILLE", "beds": 60.0, "SR_15": 1.0}, {"Diff_star": 0.0, "addr": "1531 NEBRASKA STREET, PO BOX 308", "SR_14": 4.0, "Q_14": 5.0, "name": "TIFFANY HEIGHTS", "SF_14": 4.0, "SF_15": 4.0, "cnty": "Holt", "st": "MO", "Zip": 64470.0, "O_14": 5.0, "Q_15": 5.0, "O_15": 5.0, "city": "MOUND CITY", "beds": 60.0, "SR_15": 4.0}, {"Diff_star": 0.0, "addr": "717 NORTH SPRIGG", "SR_14": 4.0, "Q_14": 4.0, "name": "RATLIFF CARE CENTER", "SF_14": 5.0, "SF_15": 5.0, "cnty": "Cape Girardeau", "st": "MO", "Zip": 63701.0, "O_14": 5.0, "Q_15": 3.0, "O_15": 5.0, "city": "CAPE GIRARDEAU", "beds": 46.0, "SR_15": 4.0}, {"Diff_star": 0.0, "addr": "601 WEST MORGAN STREET", "SR_14": 3.0, "Q_14": 4.0, "name": "TIPTON OAK MANOR", "SF_14": 3.0, "SF_15": 3.0, "cnty": "Moniteau", "st": "MO", "Zip": 65081.0, "O_14": 3.0, "Q_15": 3.0, "O_15": 3.0, "city": "TIPTON", "beds": 66.0, "SR_15": 3.0}, {"Diff_star": 0.0, "addr": "1347 EAST VALLEY WATERMILL ROAD", "SR_14": 4.0, "Q_14": 3.0, "name": "WOODLAND MANOR", "SF_14": 4.0, "SF_15": 3.0, "cnty": "Greene", "st": "MO", "Zip": 65803.0, "O_14": 4.0, "Q_15": 3.0, "O_15": 4.0, "city": "SPRINGFIELD", "beds": 180.0, "SR_15": 4.0}, {"Diff_star": 0.0, "addr": "12827 HIGHWAY TT", "SR_14": 3.0, "Q_14": 5.0, "name": "BENCHMARK HEALTHCARE OF FESTUS", "SF_14": 3.0, "SF_15": 3.0, "cnty": "Jefferson", "st": "MO", "Zip": 63028.0, "O_14": 4.0, "Q_15": 5.0, "O_15": 4.0, "city": "FESTUS", "beds": 79.0, "SR_15": 3.0}, {"Diff_star": 0.0, "addr": "5500 SOUTH BROADWAY", "SR_14": 3.0, "Q_14": 5.0, "name": "RIVERVIEW, THE", "SF_14": 4.0, "SF_15": 4.0, "cnty": "St. Louis City", "st": "MO", "Zip": 63111.0, "O_14": 5.0, "Q_15": 5.0, "O_15": 5.0, "city": "SAINT LOUIS", "beds": 130.0, "SR_15": 3.0}, {"Diff_star": 0.0, "addr": "915 CARL ALLEN STREET", "SR_14": 1.0, "Q_14": 1.0, "name": "LAWRENCE COUNTY MANOR", "SF_14": 4.0, "SF_15": 4.0, "cnty": "Lawrence", "st": "MO", "Zip": 65712.0, "O_14": 1.0, "Q_15": 1.0, "O_15": 1.0, "city": "MOUNT VERNON", "beds": 90.0, "SR_15": 1.0}, {"Diff_star": 0.0, "addr": "1486 NORTH RIVERSIDE RD", "SR_14": 5.0, "Q_14": 4.0, "name": "OZARK NURSING AND CARE CENTER", "SF_14": 3.0, "SF_15": 3.0, "cnty": "Christian", "st": "MO", "Zip": 65721.0, "O_14": 5.0, "Q_15": 3.0, "O_15": 5.0, "city": "OZARK", "beds": 120.0, "SR_15": 5.0}, {"Diff_star": -1.0, "addr": "3002 NORTH 18TH ST", "SR_14": 2.0, "Q_14": 3.0, "name": "DIVERSICARE OF ST JOSEPH", "SF_14": 3.0, "SF_15": 3.0, "cnty": "Buchanan", "st": "MO", "Zip": 64505.0, "O_14": 2.0, "Q_15": 1.0, "O_15": 1.0, "city": "SAINT JOSEPH", "beds": 180.0, "SR_15": 2.0}, {"Diff_star": 0.0, "addr": "400 TRI-COUNTY LANE,  PO BOX 756", "SR_14": 4.0, "Q_14": 4.0, "name": "RICHLAND CARE CENTER INC", "SF_14": 1.0, "SF_15": 1.0, "cnty": "Pulaski", "st": "MO", "Zip": 65556.0, "O_14": 3.0, "Q_15": 3.0, "O_15": 3.0, "city": "RICHLAND", "beds": 86.0, "SR_15": 4.0}, {"Diff_star": 0.0, "addr": "5943 TELEGRAPH ROAD", "SR_14": 3.0, "Q_14": 5.0, "name": "BETHESDA SOUTHGATE", "SF_14": 4.0, "SF_15": 4.0, "cnty": "St. Louis", "st": "MO", "Zip": 63129.0, "O_14": 5.0, "Q_15": 5.0, "O_15": 5.0, "city": "SAINT LOUIS", "beds": 130.0, "SR_15": 3.0}, {"Diff_star": 0.0, "addr": "1501 CHARBONIER ROAD", "SR_14": 2.0, "Q_14": 4.0, "name": "BENTWOOD NURSING & REHAB", "SF_14": 2.0, "SF_15": 2.0, "cnty": "St. Louis", "st": "MO", "Zip": 63031.0, "O_14": 2.0, "Q_15": 4.0, "O_15": 2.0, "city": "FLORISSANT", "beds": 76.0, "SR_15": 2.0}, {"Diff_star": -1.0, "addr": "8033 HOLMES", "SR_14": 1.0, "Q_14": 5.0, "name": "HOLMESDALE HEALTHCARE AND REHABILITATION CENTER", "SF_14": 4.0, "SF_15": 3.0, "cnty": "Jackson", "st": "MO", "Zip": 64131.0, "O_14": 2.0, "Q_15": 4.0, "O_15": 1.0, "city": "KANSAS CITY", "beds": 100.0, "SR_15": 1.0}, {"Diff_star": 0.0, "addr": "111 MOCK AVENUE", "SR_14": 2.0, "Q_14": 4.0, "name": "ST MARYS MANOR", "SF_14": 4.0, "SF_15": 4.0, "cnty": "Jackson", "st": "MO", "Zip": 64014.0, "O_14": 3.0, "Q_15": 4.0, "O_15": 3.0, "city": "BLUE SPRINGS", "beds": 132.0, "SR_15": 2.0}, {"Diff_star": 0.0, "addr": "520 MANOR DRIVE", "SR_14": 5.0, "Q_14": 4.0, "name": "FULTON MANOR CARE CENTER", "SF_14": 4.0, "SF_15": 4.0, "cnty": "Callaway", "st": "MO", "Zip": 65251.0, "O_14": 5.0, "Q_15": 4.0, "O_15": 5.0, "city": "FULTON", "beds": 52.0, "SR_15": 5.0}, {"Diff_star": 0.0, "addr": "205 TIMBERLINE DRIVE", "SR_14": 5.0, "Q_14": 5.0, "name": "LINCOLN COMMUNITY CARE CENTER", "SF_14": 4.0, "SF_15": 3.0, "cnty": "Benton", "st": "MO", "Zip": 65338.0, "O_14": 5.0, "Q_15": 5.0, "O_15": 5.0, "city": "LINCOLN", "beds": 66.0, "SR_15": 5.0}, {"Diff_star": 0.0, "addr": "1317 NORTH 36TH STREET", "SR_14": 2.0, "Q_14": 5.0, "name": "LAVERNA VILLAGE OF ST JOSEPH", "SF_14": 3.0, "SF_15": 3.0, "cnty": "Buchanan", "st": "MO", "Zip": 64506.0, "O_14": 3.0, "Q_15": 5.0, "O_15": 3.0, "city": "SAINT JOSEPH", "beds": 120.0, "SR_15": 2.0}, {"Diff_star": 0.0, "addr": "ROUTE 3, BOX 53", "SR_14": 4.0, "Q_14": 3.0, "name": "KNOX COUNTY NURSING HOME DISTRICT", "SF_14": 4.0, "SF_15": 4.0, "cnty": "Knox", "st": "MO", "Zip": 63537.0, "O_14": 4.0, "Q_15": 2.0, "O_15": 4.0, "city": "EDINA", "beds": 59.0, "SR_15": 4.0}, {"Diff_star": -1.0, "addr": "9645 BIG BEND BLVD", "SR_14": 3.0, "Q_14": 5.0, "name": "BETHESDA DILWORTH", "SF_14": 4.0, "SF_15": 4.0, "cnty": "St. Louis", "st": "MO", "Zip": 63122.0, "O_14": 5.0, "Q_15": 4.0, "O_15": 4.0, "city": "SAINT LOUIS", "beds": 314.0, "SR_15": 3.0}, {"Diff_star": -1.0, "addr": "202 SOUTH WEST STREET, PO BOX 849", "SR_14": 3.0, "Q_14": 3.0, "name": "LUTHERAN NURSING HOME", "SF_14": 4.0, "SF_15": 4.0, "cnty": "Lafayette", "st": "MO", "Zip": 64020.0, "O_14": 4.0, "Q_15": 1.0, "O_15": 3.0, "city": "CONCORDIA", "beds": 113.0, "SR_15": 3.0}, {"Diff_star": -2.0, "addr": "322  OLD STATE ROAD", "SR_14": 2.0, "Q_14": 5.0, "name": "BETHESDA MEADOW", "SF_14": 4.0, "SF_15": 3.0, "cnty": "St. Louis", "st": "MO", "Zip": 63021.0, "O_14": 4.0, "Q_15": 4.0, "O_15": 2.0, "city": "ELLISVILLE", "beds": 210.0, "SR_15": 2.0}, {"Diff_star": 0.0, "addr": "600 BREEZE PARK DRIVE", "SR_14": 5.0, "Q_14": 5.0, "name": "LUTHERAN SENIOR SERVICES AT BREEZE PARK", "SF_14": 4.0, "SF_15": 4.0, "cnty": "St. Charles", "st": "MO", "Zip": 63304.0, "O_14": 5.0, "Q_15": 4.0, "O_15": 5.0, "city": "SAINT CHARLES", "beds": 65.0, "SR_15": 5.0}, {"Diff_star": 0.0, "addr": "4301 MADISON AVENUE", "SR_14": 4.0, "Q_14": 4.0, "name": "BISHOP SPENCER PLACE, INC, THE", "SF_14": 5.0, "SF_15": 5.0, "cnty": "Jackson", "st": "MO", "Zip": 64111.0, "O_14": 5.0, "Q_15": 4.0, "O_15": 5.0, "city": "KANSAS CITY", "beds": 57.0, "SR_15": 4.0}, {"Diff_star": 0.0, "addr": "3660 SUMMIT", "SR_14": 1.0, "Q_14": 5.0, "name": "SUMMIT, THE", "SF_14": 1.0, "SF_15": 1.0, "cnty": "Jackson", "st": "MO", "Zip": 64111.0, "O_14": 2.0, "Q_15": 5.0, "O_15": 2.0, "city": "KANSAS CITY", "beds": 64.0, "SR_15": 1.0}, {"Diff_star": 0.0, "addr": "403 WEST MAIN", "SR_14": 4.0, "Q_14": 4.0, "name": "GOOD SAMARITAN CARE CENTER", "SF_14": 5.0, "SF_15": 5.0, "cnty": "Benton", "st": "MO", "Zip": 65325.0, "O_14": 5.0, "Q_15": 3.0, "O_15": 5.0, "city": "COLE CAMP", "beds": 66.0, "SR_15": 4.0}, {"Diff_star": -1.0, "addr": "500 TRUMAN BOULEVARD", "SR_14": 2.0, "Q_14": 2.0, "name": "CARUTHERSVILLE NURSING CENTER", "SF_14": 4.0, "SF_15": 4.0, "cnty": "Pemiscot", "st": "MO", "Zip": 63830.0, "O_14": 3.0, "Q_15": 1.0, "O_15": 2.0, "city": "CARUTHERSVILLE", "beds": 94.0, "SR_15": 2.0}, {"Diff_star": -2.0, "addr": "1550 VILLAS DRIVE", "SR_14": 4.0, "Q_14": 4.0, "name": "VILLAS-A STONEBRIDGE COMMUNITY, THE", "SF_14": 4.0, "SF_15": 4.0, "cnty": "Jefferson", "st": "MO", "Zip": 63020.0, "O_14": 4.0, "Q_15": 3.0, "O_15": 2.0, "city": "DE SOTO", "beds": 51.0, "SR_15": 1.0}, {"Diff_star": 0.0, "addr": "503 EAST FOURTH", "SR_14": 2.0, "Q_14": 4.0, "name": "WORTH COUNTY CONVALESCENT CENTER", "SF_14": 4.0, "SF_15": 4.0, "cnty": "Worth", "st": "MO", "Zip": 64456.0, "O_14": 3.0, "Q_15": 2.0, "O_15": 3.0, "city": "GRANT CITY", "beds": 50.0, "SR_15": 2.0}, {"Diff_star": -1.0, "addr": "609 SOUTH RAILROAD STREET", "SR_14": 1.0, "Q_14": 5.0, "name": "SELLS REST HOME", "SF_14": 1.0, "SF_15": 1.0, "cnty": "New Madrid", "st": "MO", "Zip": 63867.0, "O_14": 2.0, "Q_15": 3.0, "O_15": 1.0, "city": "MATTHEWS", "beds": 98.0, "SR_15": 1.0}, {"Diff_star": 0.0, "addr": "9353 SOUTH  BROADWAY", "SR_14": 4.0, "Q_14": 4.0, "name": "COMMUNITY CARE CENTER OF LEMAY INC", "SF_14": 4.0, "SF_15": 4.0, "cnty": "St. Louis", "st": "MO", "Zip": 63125.0, "O_14": 4.0, "Q_15": 3.0, "O_15": 4.0, "city": "SAINT LOUIS", "beds": 60.0, "SR_15": 4.0}, {"Diff_star": 0.0, "addr": "610 PRIGGE ROAD", "SR_14": 1.0, "Q_14": 4.0, "name": "GREEN VALLEY NURSING & REHABILITATION CENTER", "SF_14": 3.0, "SF_15": 3.0, "cnty": "St. Louis", "st": "MO", "Zip": 63138.0, "O_14": 1.0, "Q_15": 2.0, "O_15": 1.0, "city": "SAINT LOUIS", "beds": 150.0, "SR_15": 1.0}, {"Diff_star": 0.0, "addr": "1899 HIGHWAY 63", "SR_14": 4.0, "Q_14": 4.0, "name": "WESTPHALIA HILLS-A STONEBRIDGE COMMUNITY", "SF_14": 4.0, "SF_15": 4.0, "cnty": "Osage", "st": "MO", "Zip": 65085.0, "O_14": 4.0, "Q_15": 2.0, "O_15": 4.0, "city": "WESTPHALIA", "beds": 64.0, "SR_15": 4.0}, {"Diff_star": -1.0, "addr": "2012 NIFONG BOULEVARD", "SR_14": 3.0, "Q_14": 2.0, "name": "COLUMBIA MANOR CARE CENTER", "SF_14": 5.0, "SF_15": 5.0, "cnty": "Boone", "st": "MO", "Zip": 65201.0, "O_14": 4.0, "Q_15": 1.0, "O_15": 3.0, "city": "COLUMBIA", "beds": 52.0, "SR_15": 3.0}, {"Diff_star": -1.0, "addr": "872 COLLEGE BOULEVARD", "SR_14": 3.0, "Q_14": 4.0, "name": "LAKESIDE MEADOWS-A STONEBRIDGE COMMUNITY", "SF_14": 4.0, "SF_15": 3.0, "cnty": "Camden", "st": "MO", "Zip": 65065.0, "O_14": 4.0, "Q_15": 2.0, "O_15": 3.0, "city": "OSAGE BEACH", "beds": 66.0, "SR_15": 3.0}, {"Diff_star": -2.0, "addr": "402 WEST FIRST STREET", "SR_14": 3.0, "Q_14": 3.0, "name": "ADRIAN MANOR HEALTH & REHABILITATION CENTER", "SF_14": 4.0, "SF_15": 2.0, "cnty": "Bates", "st": "MO", "Zip": 64720.0, "O_14": 4.0, "Q_15": 3.0, "O_15": 2.0, "city": "ADRIAN", "beds": 60.0, "SR_15": 2.0}, {"Diff_star": 0.0, "addr": "300 SOUTH ST CHARLES STREET", "SR_14": 4.0, "Q_14": 4.0, "name": "MOORE-PIKE NURSING HOME", "SF_14": 4.0, "SF_15": 4.0, "cnty": "Pike", "st": "MO", "Zip": 63334.0, "O_14": 4.0, "Q_15": 2.0, "O_15": 4.0, "city": "BOWLING GREEN", "beds": 55.0, "SR_15": 4.0}, {"Diff_star": -1.0, "addr": "1003 SOUTH CEDAR STREET", "SR_14": 3.0, "Q_14": 5.0, "name": "BEAUTIFUL SAVIOR HOME", "SF_14": 3.0, "SF_15": 3.0, "cnty": "Cass", "st": "MO", "Zip": 64012.0, "O_14": 4.0, "Q_15": 4.0, "O_15": 3.0, "city": "BELTON", "beds": 126.0, "SR_15": 3.0}, {"Diff_star": -1.0, "addr": "723 FIRST CAPITOL DRIVE", "SR_14": 4.0, "Q_14": 2.0, "name": "MOUNT CARMEL SENIOR LIVING - ST CHARLES, LLC", "SF_14": "", "SF_15": "", "cnty": "St. Charles", "st": "MO", "Zip": 63301.0, "O_14": 4.0, "Q_15": 1.0, "O_15": 3.0, "city": "SAINT CHARLES", "beds": 65.0, "SR_15": 4.0}, {"Diff_star": 0.0, "addr": "1202 HEARTLAND ROAD", "SR_14": 3.0, "Q_14": 4.0, "name": "LIVING COMMUNITY OF ST JOSEPH", "SF_14": 4.0, "SF_15": 4.0, "cnty": "Buchanan", "st": "MO", "Zip": 64506.0, "O_14": 4.0, "Q_15": 2.0, "O_15": 4.0, "city": "SAINT JOSEPH", "beds": 96.0, "SR_15": 3.0}, {"Diff_star": 0.0, "addr": "2601 FAIR STREET", "SR_14": 3.0, "Q_14": 5.0, "name": "INDIAN HILLS-A STONEBRIDGE COMMUNITY", "SF_14": 4.0, "SF_15": 4.0, "cnty": "Livingston", "st": "MO", "Zip": 64601.0, "O_14": 5.0, "Q_15": 5.0, "O_15": 5.0, "city": "CHILLICOTHE", "beds": 75.0, "SR_15": 3.0}, {"Diff_star": 0.0, "addr": "1415 WEST WHITE OAK", "SR_14": 3.0, "Q_14": 4.0, "name": "ROSEWOOD HEALTH AND REHAB CENTER", "SF_14": 3.0, "SF_15": 3.0, "cnty": "Jackson", "st": "MO", "Zip": 64050.0, "O_14": 3.0, "Q_15": 3.0, "O_15": 3.0, "city": "INDEPENDENCE", "beds": 300.0, "SR_15": 3.0}, {"Diff_star": -1.0, "addr": "904 HALL AVENUE, PO BOX 279", "SR_14": 2.0, "Q_14": 5.0, "name": "LA VERNA VILLAGE NURSING HOME", "SF_14": 4.0, "SF_15": 3.0, "cnty": "Andrew", "st": "MO", "Zip": 64485.0, "O_14": 4.0, "Q_15": 5.0, "O_15": 3.0, "city": "SAVANNAH", "beds": 120.0, "SR_15": 2.0}, {"Diff_star": -1.0, "addr": "434 E SIGLER AVENUE", "SR_14": 3.0, "Q_14": 4.0, "name": "SCOTLAND COUNTY CARE CENTER", "SF_14": 4.0, "SF_15": 3.0, "cnty": "Scotland", "st": "MO", "Zip": 63555.0, "O_14": 4.0, "Q_15": 3.0, "O_15": 3.0, "city": "MEMPHIS", "beds": 96.0, "SR_15": 3.0}, {"Diff_star": 0.0, "addr": "307 SOUTH WOODS MILL ROAD", "SR_14": 4.0, "Q_14": 5.0, "name": "BROOKING PARK", "SF_14": 5.0, "SF_15": 5.0, "cnty": "St. Louis", "st": "MO", "Zip": 63017.0, "O_14": 5.0, "Q_15": 5.0, "O_15": 5.0, "city": "CHESTERFIELD", "beds": 37.0, "SR_15": 4.0}, {"Diff_star": -1.0, "addr": "7068 SOUTH OUTER 364", "SR_14": 2.0, "Q_14": 5.0, "name": "DELMAR GARDENS OF O'FALLON", "SF_14": 4.0, "SF_15": 3.0, "cnty": "St. Charles", "st": "MO", "Zip": 63368.0, "O_14": 4.0, "Q_15": 5.0, "O_15": 3.0, "city": "O FALLON", "beds": 142.0, "SR_15": 2.0}, {"Diff_star": 0.0, "addr": "100 OLD STAGECOACH ROAD", "SR_14": 1.0, "Q_14": 4.0, "name": "LA PLATA NURSING HOME", "SF_14": 4.0, "SF_15": 4.0, "cnty": "Macon", "st": "MO", "Zip": 63549.0, "O_14": 2.0, "Q_15": 3.0, "O_15": 2.0, "city": "LA PLATA", "beds": 52.0, "SR_15": 1.0}, {"Diff_star": 0.0, "addr": "1002 WEST MAIN STREET", "SR_14": 4.0, "Q_14": 4.0, "name": "HEISINGER LUTHERAN HOME", "SF_14": 5.0, "SF_15": 5.0, "cnty": "Cole", "st": "MO", "Zip": 65109.0, "O_14": 5.0, "Q_15": 3.0, "O_15": 5.0, "city": "JEFFERSON CITY", "beds": 20.0, "SR_15": 4.0}, {"Diff_star": 0.0, "addr": "10000 WORNALL ROAD", "SR_14": 4.0, "Q_14": 5.0, "name": "KINGSWOOD", "SF_14": 4.0, "SF_15": 4.0, "cnty": "Jackson", "st": "MO", "Zip": 64114.0, "O_14": 5.0, "Q_15": 5.0, "O_15": 5.0, "city": "KANSAS CITY", "beds": 46.0, "SR_15": 4.0}, {"Diff_star": -1.0, "addr": "611 NORTH COLLEGE", "SR_14": 3.0, "Q_14": 5.0, "name": "PEARL'S II EDEN FOR ELDERS", "SF_14": 4.0, "SF_15": 4.0, "cnty": "Mercer", "st": "MO", "Zip": 64673.0, "O_14": 5.0, "Q_15": 4.0, "O_15": 4.0, "city": "PRINCETON", "beds": 60.0, "SR_15": 3.0}, {"Diff_star": 0.0, "addr": "706 SOUTH MITCHELL", "SR_14": 3.0, "Q_14": 4.0, "name": "RIDGE CREST NURSING CENTER", "SF_14": 4.0, "SF_15": 4.0, "cnty": "Johnson", "st": "MO", "Zip": 64093.0, "O_14": 4.0, "Q_15": 4.0, "O_15": 4.0, "city": "WARRENSBURG", "beds": 120.0, "SR_15": 3.0}, {"Diff_star": 0.0, "addr": "783 WEBER ROAD", "SR_14": 3.0, "Q_14": 5.0, "name": "COMMUNITY MANOR", "SF_14": 3.0, "SF_15": 3.0, "cnty": "St. Francois", "st": "MO", "Zip": 63640.0, "O_14": 4.0, "Q_15": 5.0, "O_15": 4.0, "city": "FARMINGTON", "beds": 90.0, "SR_15": 3.0}, {"Diff_star": 0.0, "addr": "1514 WEST LARK", "SR_14": 5.0, "Q_14": 4.0, "name": "NEIGHBORHOODS AT QUAIL CREEK, THE", "SF_14": 4.0, "SF_15": 4.0, "cnty": "Greene", "st": "MO", "Zip": 65810.0, "O_14": 5.0, "Q_15": 3.0, "O_15": 5.0, "city": "SPRINGFIELD", "beds": 112.0, "SR_15": 5.0}, {"Diff_star": 0.0, "addr": "PO BOX 170, 323 SOUTH HIGHWAY 169", "SR_14": 3.0, "Q_14": 3.0, "name": "GOWER CONVALESCENT CENTER, INC", "SF_14": 4.0, "SF_15": 4.0, "cnty": "Clinton", "st": "MO", "Zip": 64454.0, "O_14": 4.0, "Q_15": 3.0, "O_15": 4.0, "city": "GOWER", "beds": 82.0, "SR_15": 3.0}, {"Diff_star": 0.0, "addr": "205 PROSPECT, PO BOX 8", "SR_14": 4.0, "Q_14": 4.0, "name": "KATY MANOR", "SF_14": 3.0, "SF_15": 3.0, "cnty": "Cooper", "st": "MO", "Zip": 65276.0, "O_14": 4.0, "Q_15": 4.0, "O_15": 4.0, "city": "PILOT GROVE", "beds": 60.0, "SR_15": 4.0}, {"Diff_star": -1.0, "addr": "8100 WORNALL ROAD", "SR_14": 1.0, "Q_14": 5.0, "name": "ARMOUR OAKS SENIOR LIVING COMMUNITY", "SF_14": 4.0, "SF_15": 3.0, "cnty": "Jackson", "st": "MO", "Zip": 64114.0, "O_14": 2.0, "Q_15": 4.0, "O_15": 1.0, "city": "KANSAS CITY", "beds": 38.0, "SR_15": 1.0}, {"Diff_star": 0.0, "addr": "1500 WEST FOXWOOD DRIVE", "SR_14": 3.0, "Q_14": 4.0, "name": "FOXWOOD SPRINGS LIVING CENTER", "SF_14": 4.0, "SF_15": 4.0, "cnty": "Cass", "st": "MO", "Zip": 64083.0, "O_14": 4.0, "Q_15": 3.0, "O_15": 4.0, "city": "RAYMORE", "beds": 108.0, "SR_15": 3.0}, {"Diff_star": 0.0, "addr": "1707 WEST ELFINDALE STREET", "SR_14": 5.0, "Q_14": 4.0, "name": "MANOR AT ELFINDALE, THE", "SF_14": 4.0, "SF_15": 4.0, "cnty": "Greene", "st": "MO", "Zip": 65807.0, "O_14": 5.0, "Q_15": 3.0, "O_15": 5.0, "city": "SPRINGFIELD", "beds": 100.0, "SR_15": 5.0}, {"Diff_star": 0.0, "addr": "50 MERAMEC TRAILS DRIVE", "SR_14": 3.0, "Q_14": 3.0, "name": "LUTHERAN SENIOR SERVICES AT MERAMEC BLUFFS", "SF_14": 4.0, "SF_15": 4.0, "cnty": "St. Louis", "st": "MO", "Zip": 63021.0, "O_14": 4.0, "Q_15": 3.0, "O_15": 4.0, "city": "BALLWIN", "beds": 58.0, "SR_15": 3.0}, {"Diff_star": 0.0, "addr": "1313 SOUTH 25TH ST, PO BOX 430", "SR_14": 1.0, "Q_14": 4.0, "name": "CRESTVIEW HOME", "SF_14": 3.0, "SF_15": 3.0, "cnty": "Harrison", "st": "MO", "Zip": 64424.0, "O_14": 1.0, "Q_15": 4.0, "O_15": 1.0, "city": "BETHANY", "beds": 122.0, "SR_15": 1.0}, {"Diff_star": 0.0, "addr": "13612 BIG BEND ROAD", "SR_14": 4.0, "Q_14": 3.0, "name": "GARDEN VIEW CARE CENTER AT DOUGHERTY FERRY", "SF_14": "", "SF_15": "", "cnty": "St. Louis", "st": "MO", "Zip": 63088.0, "O_14": 4.0, "Q_15": 2.0, "O_15": 4.0, "city": "VALLEY PARK", "beds": 28.0, "SR_15": 4.0}, {"Diff_star": 0.0, "addr": "1024 ADAMS STREET", "SR_14": 4.0, "Q_14": 5.0, "name": "ADAMS STREET -A STONEBRIDGE COMMUNITY", "SF_14": 5.0, "SF_15": 5.0, "cnty": "Cole", "st": "MO", "Zip": 65101.0, "O_14": 5.0, "Q_15": 5.0, "O_15": 5.0, "city": "JEFFERSON CITY", "beds": 120.0, "SR_15": 4.0}, {"Diff_star": -1.0, "addr": "1700 MORNINGSIDE DRIVE", "SR_14": 4.0, "Q_14": 5.0, "name": "MORNINGSIDE CENTER", "SF_14": 4.0, "SF_15": 4.0, "cnty": "Livingston", "st": "MO", "Zip": 64601.0, "O_14": 5.0, "Q_15": 3.0, "O_15": 4.0, "city": "CHILLICOTHE", "beds": 60.0, "SR_15": 4.0}, {"Diff_star": 0.0, "addr": "1100 EAST MONTCLAIR", "SR_14": 3.0, "Q_14": 3.0, "name": "MERCY VILLA", "SF_14": 4.0, "SF_15": 4.0, "cnty": "Greene", "st": "MO", "Zip": 65807.0, "O_14": 4.0, "Q_15": 2.0, "O_15": 4.0, "city": "SPRINGFIELD", "beds": 146.0, "SR_15": 3.0}, {"Diff_star": 0.0, "addr": "HIGHWAY 63 NORTH, ROUTE 1, BOX 212", "SR_14": 1.0, "Q_14": 1.0, "name": "SCHUYLER COUNTY NURSING HOME", "SF_14": 4.0, "SF_15": 4.0, "cnty": "Schuyler", "st": "MO", "Zip": 63561.0, "O_14": 1.0, "Q_15": 1.0, "O_15": 1.0, "city": "QUEEN CITY", "beds": 60.0, "SR_15": 1.0}, {"Diff_star": 0.0, "addr": "2939 MAGAZINE AVE", "SR_14": 3.0, "Q_14": 5.0, "name": "GARRISON CARE CENTER", "SF_14": 2.0, "SF_15": 2.0, "cnty": "St. Louis City", "st": "MO", "Zip": 63106.0, "O_14": 4.0, "Q_15": 5.0, "O_15": 4.0, "city": "SAINT LOUIS", "beds": 90.0, "SR_15": 3.0}, {"Diff_star": 0.0, "addr": "3108 WEST TRUMAN BOULEVARD", "SR_14": 4.0, "Q_14": 3.0, "name": "OAK TREE VILLAS-A STONEBRIDGE COMMUNITY", "SF_14": 5.0, "SF_15": 5.0, "cnty": "Cole", "st": "MO", "Zip": 65109.0, "O_14": 5.0, "Q_15": 2.0, "O_15": 5.0, "city": "JEFFERSON CITY", "beds": 42.0, "SR_15": 4.0}, {"Diff_star": 0.0, "addr": "3980 SOUTH JACKSON DRIVE", "SR_14": 3.0, "Q_14": 4.0, "name": "VILLAGES OF JACKSON  CREEK, THE", "SF_14": 3.0, "SF_15": 3.0, "cnty": "Jackson", "st": "MO", "Zip": 64057.0, "O_14": 3.0, "Q_15": 4.0, "O_15": 3.0, "city": "INDEPENDENCE", "beds": 120.0, "SR_15": 3.0}, {"Diff_star": -1.0, "addr": "1003 MEADOWLARK LANE", "SR_14": 2.0, "Q_14": 3.0, "name": "EXCELSIOR SPRINGS NURSING & REHAB", "SF_14": 2.0, "SF_15": 2.0, "cnty": "Clay", "st": "MO", "Zip": 64024.0, "O_14": 2.0, "Q_15": 1.0, "O_15": 1.0, "city": "EXCELSIOR SPRINGS", "beds": 108.0, "SR_15": 2.0}, {"Diff_star": 0.0, "addr": "11515 TROOST", "SR_14": 1.0, "Q_14": 5.0, "name": "BRIDGEWOOD HEALTH CARE CENTER", "SF_14": 4.0, "SF_15": 3.0, "cnty": "Jackson", "st": "MO", "Zip": 64131.0, "O_14": 2.0, "Q_15": 5.0, "O_15": 2.0, "city": "KANSAS CITY", "beds": 162.0, "SR_15": 1.0}, {"Diff_star": 0.0, "addr": "11400 MEHL AVENUE", "SR_14": 2.0, "Q_14": 5.0, "name": "CRESTWOOD HEALTH CARE CENTER, LLC", "SF_14": 3.0, "SF_15": 3.0, "cnty": "St. Louis", "st": "MO", "Zip": 63033.0, "O_14": 3.0, "Q_15": 5.0, "O_15": 3.0, "city": "FLORISSANT", "beds": 150.0, "SR_15": 2.0}, {"Diff_star": 0.0, "addr": "5400 EXECUTIVE CENTRE PARKWAY", "SR_14": 4.0, "Q_14": 4.0, "name": "VILLAGES OF ST PETERS, THE", "SF_14": 4.0, "SF_15": 4.0, "cnty": "St. Charles", "st": "MO", "Zip": 63376.0, "O_14": 4.0, "Q_15": 3.0, "O_15": 4.0, "city": "SAINT PETERS", "beds": 130.0, "SR_15": 4.0}, {"Diff_star": 0.0, "addr": "1827 HWY B", "SR_14": 4.0, "Q_14": 5.0, "name": "ELSBERRY MISSOURI HEALTH CARE CENTER", "SF_14": 4.0, "SF_15": 4.0, "cnty": "Lincoln", "st": "MO", "Zip": 63343.0, "O_14": 5.0, "Q_15": 5.0, "O_15": 5.0, "city": "ELSBERRY", "beds": 56.0, "SR_15": 4.0}, {"Diff_star": 0.0, "addr": "1814 OAK STREET", "SR_14": 4.0, "Q_14": 5.0, "name": "PUTNAM COUNTY CARE CENTER", "SF_14": 1.0, "SF_15": 1.0, "cnty": "Putnam", "st": "MO", "Zip": 63565.0, "O_14": 4.0, "Q_15": 5.0, "O_15": 4.0, "city": "UNIONVILLE", "beds": 60.0, "SR_15": 4.0}, {"Diff_star": -1.0, "addr": "1616 WEISENBORN ROAD", "SR_14": 2.0, "Q_14": 2.0, "name": "RIVERSIDE PLACE", "SF_14": 4.0, "SF_15": 4.0, "cnty": "Buchanan", "st": "MO", "Zip": 64507.0, "O_14": 3.0, "Q_15": 1.0, "O_15": 2.0, "city": "SAINT JOSEPH", "beds": 90.0, "SR_15": 2.0}, {"Diff_star": -1.0, "addr": "4359 TAFT AVENUE", "SR_14": 3.0, "Q_14": 4.0, "name": "AVALON GARDEN", "SF_14": 4.0, "SF_15": 3.0, "cnty": "St. Louis City", "st": "MO", "Zip": 63116.0, "O_14": 4.0, "Q_15": 3.0, "O_15": 3.0, "city": "SAINT LOUIS", "beds": 77.0, "SR_15": 3.0}, {"Diff_star": -1.0, "addr": "800 SOUTH KINGSHIGHWAY", "SR_14": 2.0, "Q_14": 5.0, "name": "INDEPENDENCE CARE CENTER OF PERRY COUNTY", "SF_14": 2.0, "SF_15": 2.0, "cnty": "Perry", "st": "MO", "Zip": 63775.0, "O_14": 3.0, "Q_15": 3.0, "O_15": 2.0, "city": "PERRYVILLE", "beds": 123.0, "SR_15": 2.0}, {"Diff_star": 0.0, "addr": "12942 WORNALL ROAD", "SR_14": 1.0, "Q_14": 4.0, "name": "CORNER BROOK PLACE", "SF_14": 4.0, "SF_15": 4.0, "cnty": "Jackson", "st": "MO", "Zip": 64145.0, "O_14": 2.0, "Q_15": 3.0, "O_15": 2.0, "city": "KANSAS CITY", "beds": 180.0, "SR_15": 1.0}, {"Diff_star": -1.0, "addr": "894 LELAND AVENUE", "SR_14": 3.0, "Q_14": 4.0, "name": "ACKERT PARK SKILLED CARE COMMUNITY", "SF_14": 4.0, "SF_15": 3.0, "cnty": "St. Louis", "st": "MO", "Zip": 63130.0, "O_14": 4.0, "Q_15": 3.0, "O_15": 3.0, "city": "UNIVERSITY CITY", "beds": 130.0, "SR_15": 3.0}, {"Diff_star": 0.0, "addr": "300 EAST HORNBECK STREET, PO BOX 940", "SR_14": 2.0, "Q_14": 4.0, "name": "SENATH SOUTH NURSING AND REHABILITATION, LLC", "SF_14": 4.0, "SF_15": 4.0, "cnty": "Dunklin", "st": "MO", "Zip": 63876.0, "O_14": 3.0, "Q_15": 3.0, "O_15": 3.0, "city": "SENATH", "beds": 30.0, "SR_15": 2.0}, {"Diff_star": 0.0, "addr": "711 SOUTH  KIRKWOOD ROAD", "SR_14": 4.0, "Q_14": 5.0, "name": "MANOR GROVE, INCORPORATED", "SF_14": 5.0, "SF_15": 5.0, "cnty": "St. Louis", "st": "MO", "Zip": 63122.0, "O_14": 5.0, "Q_15": 5.0, "O_15": 5.0, "city": "KIRKWOOD", "beds": 38.0, "SR_15": 4.0}, {"Diff_star": -1.0, "addr": "13230 MANCHESTER ROAD", "SR_14": 4.0, "Q_14": 4.0, "name": "QUARTERS AT DES PERES, THE", "SF_14": 4.0, "SF_15": 3.0, "cnty": "St. Louis", "st": "MO", "Zip": 63131.0, "O_14": 4.0, "Q_15": 3.0, "O_15": 3.0, "city": "DES PERES", "beds": 147.0, "SR_15": 3.0}, {"Diff_star": 0.0, "addr": "3405 WEST MT VERNON", "SR_14": 4.0, "Q_14": 4.0, "name": "BROOKHAVEN NURSING & REHAB", "SF_14": 4.0, "SF_15": 3.0, "cnty": "Greene", "st": "MO", "Zip": 65802.0, "O_14": 4.0, "Q_15": 3.0, "O_15": 4.0, "city": "SPRINGFIELD", "beds": 90.0, "SR_15": 4.0}, {"Diff_star": 0.0, "addr": "22371 STATE HIGHWAY 46, PO BOX 307", "SR_14": 1.0, "Q_14": 4.0, "name": "NODAWAY NURSING HOME", "SF_14": 3.0, "SF_15": 3.0, "cnty": "Nodaway", "st": "MO", "Zip": 64468.0, "O_14": 1.0, "Q_15": 3.0, "O_15": 1.0, "city": "MARYVILLE", "beds": 60.0, "SR_15": 1.0}, {"Diff_star": 0.0, "addr": "1306 WEST MAIN STREET", "SR_14": 4.0, "Q_14": 5.0, "name": "ST JOSEPH'S BLUFFS", "SF_14": 4.0, "SF_15": 4.0, "cnty": "Cole", "st": "MO", "Zip": 65109.0, "O_14": 5.0, "Q_15": 5.0, "O_15": 5.0, "city": "JEFFERSON CITY", "beds": 27.0, "SR_15": 4.0}, {"Diff_star": 0.0, "addr": "1201 GARDEN PLAZA DRIVE", "SR_14": 3.0, "Q_14": 4.0, "name": "LIFE CARE CENTER OF FLORISSANT", "SF_14": 4.0, "SF_15": 4.0, "cnty": "St. Louis", "st": "MO", "Zip": 63033.0, "O_14": 4.0, "Q_15": 3.0, "O_15": 4.0, "city": "FLORISSANT", "beds": 90.0, "SR_15": 3.0}, {"Diff_star": 0.0, "addr": "206 NORTH MAIN STREET", "SR_14": 3.0, "Q_14": 4.0, "name": "VILLA THERESA HAVEN", "SF_14": 3.0, "SF_15": 3.0, "cnty": "St. Charles", "st": "MO", "Zip": 63366.0, "O_14": 3.0, "Q_15": 4.0, "O_15": 3.0, "city": "O FALLON", "beds": 50.0, "SR_15": 3.0}, {"Diff_star": 0.0, "addr": "3003 FALLING LEAF COURT", "SR_14": 4.0, "Q_14": 4.0, "name": "NEIGHBORHOODS REHAB & SKILLED NURSING BY TIGERPLAC", "SF_14": 5.0, "SF_15": 5.0, "cnty": "Boone", "st": "MO", "Zip": 65201.0, "O_14": 5.0, "Q_15": 2.0, "O_15": 5.0, "city": "COLUMBIA", "beds": 120.0, "SR_15": 4.0}, {"Diff_star": 0.0, "addr": "505 COUCH AVENUE", "SR_14": 5.0, "Q_14": 5.0, "name": "ABERDEEN HEIGHTS", "SF_14": 5.0, "SF_15": 5.0, "cnty": "St. Louis", "st": "MO", "Zip": 63122.0, "O_14": 5.0, "Q_15": 5.0, "O_15": 5.0, "city": "KIRKWOOD", "beds": 38.0, "SR_15": 5.0}, {"Diff_star": 0.0, "addr": "12349 DE PAUL DRIVE", "SR_14": 4.0, "Q_14": 5.0, "name": "SSM DEPAUL HEALTH CENTER- ANNA HOUSE", "SF_14": 4.0, "SF_15": 4.0, "cnty": "St. Louis", "st": "MO", "Zip": 63044.0, "O_14": 5.0, "Q_15": 5.0, "O_15": 5.0, "city": "BRIDGETON", "beds": 52.0, "SR_15": 4.0}, {"Diff_star": 0.0, "addr": "600 NORTH OHIO, PO BOX 98", "SR_14": 2.0, "Q_14": 4.0, "name": "APPLETON CITY MANOR", "SF_14": 3.0, "SF_15": 3.0, "cnty": "St. Clair", "st": "MO", "Zip": 64724.0, "O_14": 2.0, "Q_15": 3.0, "O_15": 2.0, "city": "APPLETON CITY", "beds": 60.0, "SR_15": 2.0}, {"Diff_star": 0.0, "addr": "1200 MCCUTCHEN ROAD", "SR_14": 1.0, "Q_14": 5.0, "name": "ROLLA HEALTH  & REHABILITATION SUITES", "SF_14": 4.0, "SF_15": 4.0, "cnty": "Phelps", "st": "MO", "Zip": 65401.0, "O_14": 2.0, "Q_15": 5.0, "O_15": 2.0, "city": "ROLLA", "beds": 120.0, "SR_15": 1.0}, {"Diff_star": 0.0, "addr": "7900 LEE'S SUMMIT ROAD", "SR_14": 4.0, "Q_14": 4.0, "name": "TRUMAN MEDICAL CENTER LAKEWOOD CARE CENTER", "SF_14": "", "SF_15": "", "cnty": "Jackson", "st": "MO", "Zip": 64139.0, "O_14": 4.0, "Q_15": 2.0, "O_15": 4.0, "city": "KANSAS CITY", "beds": 188.0, "SR_15": 4.0}, {"Diff_star": 0.0, "addr": "13277 STATE ROUTE D", "SR_14": 4.0, "Q_14": 4.0, "name": "SHADY LAWN LIVING CENTER", "SF_14": 5.0, "SF_15": 5.0, "cnty": "Andrew", "st": "MO", "Zip": 64485.0, "O_14": 5.0, "Q_15": 2.0, "O_15": 5.0, "city": "SAVANNAH", "beds": 88.0, "SR_15": 4.0}, {"Diff_star": 0.0, "addr": "300 SOUTH COTTONWOOD AVENUE", "SR_14": 4.0, "Q_14": 5.0, "name": "SONSHINE MANOR", "SF_14": 4.0, "SF_15": 4.0, "cnty": "Greene", "st": "MO", "Zip": 65738.0, "O_14": 5.0, "Q_15": 5.0, "O_15": 5.0, "city": "REPUBLIC", "beds": 69.0, "SR_15": 4.0}, {"Diff_star": 0.0, "addr": "3222 SOUTH JOHN DUFFY DRIVE", "SR_14": "", "Q_14": "", "name": "COMMUNITIES OF WILDWOOD RANCH", "SF_14": "", "SF_15": "", "cnty": "Jasper", "st": "MO", "Zip": 64804.0, "O_14": "", "Q_15": "", "O_15": "", "city": "JOPLIN", "beds": 120.0, "SR_15": ""}, {"Diff_star": 0.0, "addr": "TWO MCKNIGHT PLACE", "SR_14": "", "Q_14": "", "name": "MCKNIGHT PLACE EXTENDED CARE", "SF_14": "", "SF_15": "", "cnty": "St. Louis", "st": "MO", "Zip": 63124.0, "O_14": "", "Q_15": "", "O_15": "", "city": "SAINT LOUIS", "beds": 125.0, "SR_15": ""}, {"Diff_star": 0.0, "addr": "15600 WOODS CHAPEL ROAD", "SR_14": "", "Q_14": "", "name": "SEASONS CARE CENTER", "SF_14": "", "SF_15": "", "cnty": "Jackson", "st": "MO", "Zip": 64139.0, "O_14": "", "Q_15": "", "O_15": "", "city": "KANSAS CITY", "beds": 46.0, "SR_15": ""}, {"Diff_star": -1.0, "addr": "1203 N JACKSON, PO BOX 29", "SR_14": 4.0, "Q_14": 3.0, "name": "SALEM CARE CENTER", "SF_14": 4.0, "SF_15": 3.0, "cnty": "Dent", "st": "MO", "Zip": 65560.0, "O_14": 4.0, "Q_15": 1.0, "O_15": 3.0, "city": "SALEM", "beds": 60.0, "SR_15": 4.0}, {"Diff_star": 0.0, "addr": "2101 NORTH ASH STREET", "SR_14": 5.0, "Q_14": 2.0, "name": "PAUL L & MARTHA BARONE CARE CENTER", "SF_14": 3.0, "SF_15": 3.0, "cnty": "Vernon", "st": "MO", "Zip": 64772.0, "O_14": 5.0, "Q_15": 2.0, "O_15": 5.0, "city": "NEVADA", "beds": 40.0, "SR_15": 5.0}, {"Diff_star": 0.0, "addr": "8745 JAMES A REED RD", "SR_14": 3.0, "Q_14": 4.0, "name": "JEANNE JUGAN CENTER", "SF_14": 4.0, "SF_15": 4.0, "cnty": "Jackson", "st": "MO", "Zip": 64138.0, "O_14": 4.0, "Q_15": 3.0, "O_15": 4.0, "city": "KANSAS CITY", "beds": 51.0, "SR_15": 3.0}, {"Diff_star": 0.0, "addr": "3621 WARWICK BOULEVARD", "SR_14": 1.0, "Q_14": 4.0, "name": "CLARA MANOR NURSING HOME", "SF_14": 1.0, "SF_15": 1.0, "cnty": "Jackson", "st": "MO", "Zip": 64111.0, "O_14": 1.0, "Q_15": 4.0, "O_15": 1.0, "city": "KANSAS CITY", "beds": 90.0, "SR_15": 1.0}, {"Diff_star": 1.0, "addr": "630 W THIRD STREET", "SR_14": 3.0, "Q_14": 4.0, "name": "SULLIVAN COUNTY MEMORIAL HOSPITAL", "SF_14": 4.0, "SF_15": 4.0, "cnty": "Sullivan", "st": "MO", "Zip": 63556.0, "O_14": 4.0, "Q_15": 5.0, "O_15": 5.0, "city": "MILAN", "beds": 14.0, "SR_15": 3.0}, {"Diff_star": -1.0, "addr": "3333 W TENTH STREET", "SR_14": 4.0, "Q_14": 5.0, "name": "SYLVIA G THOMPSON RESIDENCE CENTER, INC", "SF_14": 3.0, "SF_15": 3.0, "cnty": "Pettis", "st": "MO", "Zip": 65301.0, "O_14": 5.0, "Q_15": 4.0, "O_15": 4.0, "city": "SEDALIA", "beds": 120.0, "SR_15": 4.0}, {"Diff_star": -1.0, "addr": "PO BOX 774, 35629 HIGHWAY 72", "SR_14": 1.0, "Q_14": 3.0, "name": "SALEM MEMORIAL DISTRICT HOSPITAL", "SF_14": 5.0, "SF_15": 5.0, "cnty": "Dent", "st": "MO", "Zip": 65560.0, "O_14": 2.0, "Q_15": 1.0, "O_15": 1.0, "city": "SALEM", "beds": 18.0, "SR_15": 1.0}, {"Diff_star": 0.0, "addr": "1714 W 16TH STREET", "SR_14": 3.0, "Q_14": 4.0, "name": "FAIR VIEW NURSING HOME", "SF_14": 3.0, "SF_15": 3.0, "cnty": "Pettis", "st": "MO", "Zip": 65301.0, "O_14": 3.0, "Q_15": 3.0, "O_15": 3.0, "city": "SEDALIA", "beds": 63.0, "SR_15": 3.0}, {"Diff_star": 0.0, "addr": "115 EAST 83RD STREET", "SR_14": 3.0, "Q_14": 5.0, "name": "HOPE CARE CENTER", "SF_14": 5.0, "SF_15": 5.0, "cnty": "Jackson", "st": "MO", "Zip": 64114.0, "O_14": 5.0, "Q_15": 5.0, "O_15": 5.0, "city": "KANSAS CITY", "beds": 16.0, "SR_15": 3.0}, {"Diff_star": 1.0, "addr": "PO BOX 489, HIGHWAY 61 AND REED STREET", "SR_14": 1.0, "Q_14": 3.0, "name": "PEMISCOT COUNTY MEMORIAL HOSPITAL", "SF_14": 3.0, "SF_15": 4.0, "cnty": "Pemiscot", "st": "MO", "Zip": 63851.0, "O_14": 1.0, "Q_15": 2.0, "O_15": 2.0, "city": "HAYTI", "beds": 66.0, "SR_15": 1.0}, {"Diff_star": 0.0, "addr": "5408 SOUTH BROADWAY", "SR_14": 4.0, "Q_14": 5.0, "name": "ST LOUIS ALTENHEIM", "SF_14": "", "SF_15": "", "cnty": "St. Louis City", "st": "MO", "Zip": 63111.0, "O_14": 5.0, "Q_15": 5.0, "O_15": 5.0, "city": "SAINT LOUIS", "beds": 14.0, "SR_15": 4.0}, {"Diff_star": -1.0, "addr": "404 MAIN STREET", "SR_14": 3.0, "Q_14": 2.0, "name": "FIESER NURSING CENTER", "SF_14": 2.0, "SF_15": 2.0, "cnty": "Jefferson", "st": "MO", "Zip": 63026.0, "O_14": 3.0, "Q_15": 1.0, "O_15": 2.0, "city": "FENTON", "beds": 60.0, "SR_15": 3.0}, {"Diff_star": 0.0, "addr": "1700 RAINBOW BOULEVARD", "SR_14": 2.0, "Q_14": 5.0, "name": "EXCELSIOR SPRINGS MEDICAL CENTER", "SF_14": 2.0, "SF_15": 2.0, "cnty": "Clay", "st": "MO", "Zip": 64024.0, "O_14": 3.0, "Q_15": 5.0, "O_15": 3.0, "city": "EXCELSIOR SPRINGS", "beds": 60.0, "SR_15": 2.0}, {"Diff_star": -2.0, "addr": "811 NORTH 9TH STREET", "SR_14": 2.0, "Q_14": 5.0, "name": "ST JOSEPH CHATEAU", "SF_14": 4.0, "SF_15": 3.0, "cnty": "Buchanan", "st": "MO", "Zip": 64501.0, "O_14": 4.0, "Q_15": 3.0, "O_15": 2.0, "city": "SAINT JOSEPH", "beds": 69.0, "SR_15": 2.0}, {"Diff_star": 1.0, "addr": "3225 NORTH FLORISSANT AVENUE", "SR_14": 4.0, "Q_14": 4.0, "name": "LITTLE SISTERS OF THE POOR", "SF_14": 4.0, "SF_15": 5.0, "cnty": "St. Louis City", "st": "MO", "Zip": 63107.0, "O_14": 4.0, "Q_15": 3.0, "O_15": 5.0, "city": "SAINT LOUIS", "beds": 67.0, "SR_15": 4.0}, {"Diff_star": 0.0, "addr": "2315 WALROND AVENUE", "SR_14": 1.0, "Q_14": 5.0, "name": "MYERS NURSING & CONVALESCENT CENTER", "SF_14": 1.0, "SF_15": 1.0, "cnty": "Jackson", "st": "MO", "Zip": 64127.0, "O_14": 2.0, "Q_15": 5.0, "O_15": 2.0, "city": "KANSAS CITY", "beds": 84.0, "SR_15": 1.0}, {"Diff_star": 0.0, "addr": "1800 SOUTH INGRAM", "SR_14": 2.0, "Q_14": 3.0, "name": "REST HAVEN CONVALESCENT AND RETIREMENT HOME", "SF_14": 2.0, "SF_15": 2.0, "cnty": "Pettis", "st": "MO", "Zip": 65301.0, "O_14": 2.0, "Q_15": 2.0, "O_15": 2.0, "city": "SEDALIA", "beds": 86.0, "SR_15": 2.0}, {"Diff_star": 0.0, "addr": "122 EAST MARKET STREET", "SR_14": 2.0, "Q_14": 5.0, "name": "JOHNSON COUNTY CARE CENTER", "SF_14": 1.0, "SF_15": 1.0, "cnty": "Johnson", "st": "MO", "Zip": 64093.0, "O_14": 2.0, "Q_15": 5.0, "O_15": 2.0, "city": "WARRENSBURG", "beds": 87.0, "SR_15": 2.0}]