[{"Diff_star": 0.0, "addr": "1320 WINFIELD STREET", "SR_14": 1.0, "Q_14": 3.0, "name": "JEFFERSON DAVIS COMMUNITY HOSPITAL ECF", "SF_14": 3.0, "SF_15": 3.0, "cnty": "Jefferson Davis", "st": "MS", "Zip": 39474.0, "O_14": 1.0, "Q_15": 2.0, "O_15": 1.0, "city": "PRENTISS", "beds": 60.0, "SR_15": 1.0}, {"Diff_star": -1.0, "addr": "562 EAST MAIN STREE/P. O. BOX 967", "SR_14": 1.0, "Q_14": 3.0, "name": "WINSTON CO NH", "SF_14": 4.0, "SF_15": 3.0, "cnty": "Winston", "st": "MS", "Zip": 39339.0, "O_14": 2.0, "Q_15": 1.0, "O_15": 1.0, "city": "LOUISVILLE", "beds": 120.0, "SR_15": 1.0}, {"Diff_star": -2.0, "addr": "56 ROCKPORT ROAD", "SR_14": 2.0, "Q_14": 5.0, "name": "LEXINGTON MANOR SENIOR CARE, LLC", "SF_14": 4.0, "SF_15": 3.0, "cnty": "Holmes", "st": "MS", "Zip": 39095.0, "O_14": 4.0, "Q_15": 4.0, "O_15": 2.0, "city": "LEXINGTON", "beds": 68.0, "SR_15": 2.0}, {"Diff_star": 0.0, "addr": "1530 BROAD AVE", "SR_14": 3.0, "Q_14": 4.0, "name": "BOYINGTON HEALTH AND REHABILITATION", "SF_14": 4.0, "SF_15": 4.0, "cnty": "Harrison", "st": "MS", "Zip": 39501.0, "O_14": 4.0, "Q_15": 2.0, "O_15": 4.0, "city": "GULFPORT", "beds": 180.0, "SR_15": 3.0}, {"Diff_star": -1.0, "addr": "2279 ATKINSON ROAD", "SR_14": 2.0, "Q_14": 3.0, "name": "BILOXI COMMUNITY LIVING CENTER", "SF_14": 4.0, "SF_15": 4.0, "cnty": "Harrison", "st": "MS", "Zip": 39531.0, "O_14": 3.0, "Q_15": 1.0, "O_15": 2.0, "city": "BILOXI", "beds": 180.0, "SR_15": 2.0}, {"Diff_star": -1.0, "addr": "935 WEST DR", "SR_14": 3.0, "Q_14": 5.0, "name": "CARE CENTER OF LAUREL", "SF_14": 2.0, "SF_15": 2.0, "cnty": "Jones", "st": "MS", "Zip": 39440.0, "O_14": 4.0, "Q_15": 3.0, "O_15": 3.0, "city": "LAUREL", "beds": 120.0, "SR_15": 3.0}, {"Diff_star": 0.0, "addr": "543 EAST MAIN STREET/PO BOX 542", "SR_14": 5.0, "Q_14": 2.0, "name": "LOUISVILLE HEALTHCARE LLC", "SF_14": 4.0, "SF_15": 4.0, "cnty": "Winston", "st": "MS", "Zip": 39339.0, "O_14": 5.0, "Q_15": 2.0, "O_15": 5.0, "city": "LOUISVILLE", "beds": 60.0, "SR_15": 5.0}, {"Diff_star": 0.0, "addr": "505 JACKSON ST", "SR_14": 4.0, "Q_14": 5.0, "name": "CARE CENTER OF ABERDEEN", "SF_14": 4.0, "SF_15": 3.0, "cnty": "Monroe", "st": "MS", "Zip": 39730.0, "O_14": 5.0, "Q_15": 5.0, "O_15": 5.0, "city": "ABERDEEN", "beds": 120.0, "SR_15": 4.0}, {"Diff_star": 0.0, "addr": "200 MEDICAL CIRCLE", "SR_14": 4.0, "Q_14": 4.0, "name": "GOLDEN LIVINGCENTER TYLERTOWN", "SF_14": "", "SF_15": "", "cnty": "Walthall", "st": "MS", "Zip": 39667.0, "O_14": 4.0, "Q_15": 3.0, "O_15": 4.0, "city": "TYLERTOWN", "beds": 60.0, "SR_15": 4.0}, {"Diff_star": 0.0, "addr": "415 MARION AVE", "SR_14": 1.0, "Q_14": 4.0, "name": "MCCOMB NURSING AND REHABILITATION CENTER LLC", "SF_14": 1.0, "SF_15": 1.0, "cnty": "Pike", "st": "MS", "Zip": 39648.0, "O_14": 1.0, "Q_15": 2.0, "O_15": 1.0, "city": "MCCOMB", "beds": 140.0, "SR_15": 1.0}, {"Diff_star": 0.0, "addr": "101 CUNNINGHAM DR", "SR_14": 4.0, "Q_14": 4.0, "name": "GOLDEN LIVINGCENTER - RIPLEY", "SF_14": 4.0, "SF_15": 3.0, "cnty": "Tippah", "st": "MS", "Zip": 38663.0, "O_14": 4.0, "Q_15": 3.0, "O_15": 4.0, "city": "RIPLEY", "beds": 140.0, "SR_15": 4.0}, {"Diff_star": -1.0, "addr": "3454 ALBERMARLE RD", "SR_14": 2.0, "Q_14": 4.0, "name": "HINDS COUNTY NURSING & REHABILITATION CTR LLC", "SF_14": 4.0, "SF_15": 3.0, "cnty": "Hinds", "st": "MS", "Zip": 39213.0, "O_14": 3.0, "Q_15": 2.0, "O_15": 2.0, "city": "JACKSON", "beds": 105.0, "SR_15": 2.0}, {"Diff_star": 0.0, "addr": "1950 GRANDVIEW DRIVE", "SR_14": 3.0, "Q_14": 4.0, "name": "GRENADA LIVING CENTER", "SF_14": 4.0, "SF_15": 4.0, "cnty": "Grenada", "st": "MS", "Zip": 38901.0, "O_14": 4.0, "Q_15": 2.0, "O_15": 4.0, "city": "GRENADA", "beds": 110.0, "SR_15": 3.0}, {"Diff_star": -1.0, "addr": "2273 SOUTH EASON BOULEVARD", "SR_14": 2.0, "Q_14": 4.0, "name": "GOLDEN LIVINGCENTER - EASON BOULEVARD", "SF_14": 4.0, "SF_15": 3.0, "cnty": "Lee", "st": "MS", "Zip": 38804.0, "O_14": 3.0, "Q_15": 4.0, "O_15": 2.0, "city": "TUPELO", "beds": 120.0, "SR_15": 2.0}, {"Diff_star": -1.0, "addr": "355 CROSSGATE BLVD", "SR_14": 5.0, "Q_14": 3.0, "name": "BRANDON NURSING AND REHABILITATION CENTER", "SF_14": 1.0, "SF_15": 1.0, "cnty": "Rankin", "st": "MS", "Zip": 39042.0, "O_14": 4.0, "Q_15": 1.0, "O_15": 3.0, "city": "BRANDON", "beds": 230.0, "SR_15": 5.0}, {"Diff_star": -1.0, "addr": "1101 EAST FRANKLIN STREET", "SR_14": 3.0, "Q_14": 2.0, "name": "GOLDEN LIVING CENTER-CARTHAGE", "SF_14": 2.0, "SF_15": 2.0, "cnty": "Leake", "st": "MS", "Zip": 39051.0, "O_14": 3.0, "Q_15": 1.0, "O_15": 2.0, "city": "CARTHAGE", "beds": 99.0, "SR_15": 3.0}, {"Diff_star": 0.0, "addr": "1730 DORCHESTER DR", "SR_14": 2.0, "Q_14": 5.0, "name": "GOLDEN LIVINGCENTER - SOUTHAVEN", "SF_14": 1.0, "SF_15": 1.0, "cnty": "De Soto", "st": "MS", "Zip": 38671.0, "O_14": 2.0, "Q_15": 5.0, "O_15": 2.0, "city": "SOUTHAVEN", "beds": 140.0, "SR_15": 2.0}, {"Diff_star": 0.0, "addr": "3701 JOANNE DRIVE", "SR_14": 2.0, "Q_14": 4.0, "name": "MS CARE CENTER OF ALCORN COUNTY, INC-SNF", "SF_14": 4.0, "SF_15": 4.0, "cnty": "Alcorn", "st": "MS", "Zip": 38834.0, "O_14": 3.0, "Q_15": 3.0, "O_15": 3.0, "city": "CORINTH", "beds": 125.0, "SR_15": 2.0}, {"Diff_star": -2.0, "addr": "1122 N ESHMAN AVENUE/P.O. BOX 817", "SR_14": 3.0, "Q_14": 5.0, "name": "WEST POINT COMMUNITY LIVING CN", "SF_14": 4.0, "SF_15": 3.0, "cnty": "Clay", "st": "MS", "Zip": 39773.0, "O_14": 5.0, "Q_15": 3.0, "O_15": 3.0, "city": "WEST POINT", "beds": 100.0, "SR_15": 3.0}, {"Diff_star": 0.0, "addr": "1600 RAYMOND RD", "SR_14": 2.0, "Q_14": 3.0, "name": "PLEASANT HILLS COM LIV CENTER", "SF_14": 1.0, "SF_15": 1.0, "cnty": "Hinds", "st": "MS", "Zip": 39204.0, "O_14": 1.0, "Q_15": 1.0, "O_15": 1.0, "city": "JACKSON", "beds": 120.0, "SR_15": 2.0}, {"Diff_star": 0.0, "addr": "800 STANSEL DR", "SR_14": 3.0, "Q_14": 5.0, "name": "RULEVILLE NURSING AND REHABILITATION CENTER LLC", "SF_14": 2.0, "SF_15": 2.0, "cnty": "Sunflower", "st": "MS", "Zip": 38771.0, "O_14": 4.0, "Q_15": 4.0, "O_15": 4.0, "city": "RULEVILLE", "beds": 111.0, "SR_15": 4.0}, {"Diff_star": -1.0, "addr": "4036 HIGHWAY 8 EAST", "SR_14": 1.0, "Q_14": 5.0, "name": "CLEVELAND NURSING AND REHABILITATION CENTER LLC", "SF_14": 3.0, "SF_15": 3.0, "cnty": "Bolivar", "st": "MS", "Zip": 38732.0, "O_14": 2.0, "Q_15": 4.0, "O_15": 1.0, "city": "CLEVELAND", "beds": 120.0, "SR_15": 1.0}, {"Diff_star": 0.0, "addr": "4540 MANHATTAN RD", "SR_14": 5.0, "Q_14": 4.0, "name": "MANHATTAN NURSING AND REHABILITATION CENTER LLC", "SF_14": 2.0, "SF_15": 2.0, "cnty": "Hinds", "st": "MS", "Zip": 39206.0, "O_14": 5.0, "Q_15": 3.0, "O_15": 5.0, "city": "JACKSON", "beds": 180.0, "SR_15": 5.0}, {"Diff_star": -1.0, "addr": "3680 LAKELAND LANE", "SR_14": 5.0, "Q_14": 3.0, "name": "LAKELAND NURSING AND REHABILITATION CENTER LLC", "SF_14": 3.0, "SF_15": 3.0, "cnty": "Hinds", "st": "MS", "Zip": 39216.0, "O_14": 5.0, "Q_15": 1.0, "O_15": 4.0, "city": "JACKSON", "beds": 105.0, "SR_15": 5.0}, {"Diff_star": 0.0, "addr": "156 E WALNUT AVE/BOX 918", "SR_14": 3.0, "Q_14": 4.0, "name": "GOLDEN LIVINGCENTER - EUPORA", "SF_14": 3.0, "SF_15": 2.0, "cnty": "Webster", "st": "MS", "Zip": 39744.0, "O_14": 3.0, "Q_15": 2.0, "O_15": 3.0, "city": "EUPORA", "beds": 119.0, "SR_15": 3.0}, {"Diff_star": 0.0, "addr": "4728 HIGHWAY 39 N/BOX 3604", "SR_14": 1.0, "Q_14": 5.0, "name": "GOLDEN LIVING CENTER-MERIDIAN", "SF_14": 2.0, "SF_15": 1.0, "cnty": "Lauderdale", "st": "MS", "Zip": 39301.0, "O_14": 2.0, "Q_15": 5.0, "O_15": 2.0, "city": "MERIDIAN", "beds": 120.0, "SR_15": 2.0}, {"Diff_star": -1.0, "addr": "1215 EARL FRYE DRIVE", "SR_14": 2.0, "Q_14": 5.0, "name": "GOLDEN LIVINGCENTER - AMORY", "SF_14": 3.0, "SF_15": 3.0, "cnty": "Monroe", "st": "MS", "Zip": 38821.0, "O_14": 3.0, "Q_15": 3.0, "O_15": 2.0, "city": "AMORY", "beds": 152.0, "SR_15": 2.0}, {"Diff_star": -1.0, "addr": "1900 CHADWICK DRIVE", "SR_14": 4.0, "Q_14": 5.0, "name": "CHADWICK NURSING AND REHABILITATION CENTER LLC", "SF_14": 2.0, "SF_15": 2.0, "cnty": "Hinds", "st": "MS", "Zip": 39204.0, "O_14": 5.0, "Q_15": 4.0, "O_15": 4.0, "city": "JACKSON", "beds": 102.0, "SR_15": 4.0}, {"Diff_star": 0.0, "addr": "116 SOUTH LAFAYETTE STREET", "SR_14": 4.0, "Q_14": 4.0, "name": "WILKINSON COUNTY SENIOR CARE", "SF_14": 2.0, "SF_15": 2.0, "cnty": "Wilkinson", "st": "MS", "Zip": 39631.0, "O_14": 4.0, "Q_15": 3.0, "O_15": 4.0, "city": "CENTREVILLE", "beds": 105.0, "SR_15": 4.0}, {"Diff_star": -1.0, "addr": "1410 WEST QUITMAN STREET", "SR_14": 2.0, "Q_14": 3.0, "name": "TISHOMINGO COMM LIVING CENTER", "SF_14": 3.0, "SF_15": 3.0, "cnty": "Tishomingo", "st": "MS", "Zip": 38852.0, "O_14": 2.0, "Q_15": 1.0, "O_15": 1.0, "city": "IUKA", "beds": 73.0, "SR_15": 2.0}, {"Diff_star": 0.0, "addr": "840 NORTH OAK AVENUE/P. O. BOX 369", "SR_14": 1.0, "Q_14": 4.0, "name": "WALTER B CROOK NURSING FACILITY", "SF_14": 2.0, "SF_15": 2.0, "cnty": "Sunflower", "st": "MS", "Zip": 38771.0, "O_14": 1.0, "Q_15": 3.0, "O_15": 1.0, "city": "RULEVILLE", "beds": 60.0, "SR_15": 1.0}, {"Diff_star": -1.0, "addr": "1005 CITY AVENUE NORTH", "SR_14": 2.0, "Q_14": 2.0, "name": "TIPPAH COUNTY NURSING HOME", "SF_14": 3.0, "SF_15": 3.0, "cnty": "Tippah", "st": "MS", "Zip": 38663.0, "O_14": 2.0, "Q_15": 1.0, "O_15": 1.0, "city": "RIPLEY", "beds": 40.0, "SR_15": 2.0}, {"Diff_star": -1.0, "addr": "1901 BRIAR RIDGE ROAD", "SR_14": 4.0, "Q_14": 5.0, "name": "TUPELO NURSING AND REHABILITATION CENTER", "SF_14": 1.0, "SF_15": 1.0, "cnty": "Lee", "st": "MS", "Zip": 38804.0, "O_14": 4.0, "Q_15": 4.0, "O_15": 3.0, "city": "TUPELO", "beds": 120.0, "SR_15": 4.0}, {"Diff_star": 0.0, "addr": "1001 HOLLAND AVENUE", "SR_14": 4.0, "Q_14": 4.0, "name": "NESHOBA COUNTY NURSING HOME", "SF_14": 4.0, "SF_15": 4.0, "cnty": "Neshoba", "st": "MS", "Zip": 39350.0, "O_14": 4.0, "Q_15": 2.0, "O_15": 4.0, "city": "PHILADELPHIA", "beds": 160.0, "SR_15": 4.0}, {"Diff_star": 0.0, "addr": "16056 BOUNDRY DRIVE/PO BOX 490", "SR_14": 5.0, "Q_14": 5.0, "name": "ASHLAND HEALTH AND RAHABILITATION", "SF_14": 3.0, "SF_15": 3.0, "cnty": "Benton", "st": "MS", "Zip": 38603.0, "O_14": 5.0, "Q_15": 4.0, "O_15": 5.0, "city": "ASHLAND", "beds": 60.0, "SR_15": 5.0}, {"Diff_star": 0.0, "addr": "154 WOODLAND ROAD      /   PO BOX 1469", "SR_14": 2.0, "Q_14": 4.0, "name": "GOLDEN LIVINGCENTER BATESVILLE", "SF_14": 3.0, "SF_15": 3.0, "cnty": "Panola", "st": "MS", "Zip": 38606.0, "O_14": 2.0, "Q_15": 2.0, "O_15": 2.0, "city": "BATESVILLE", "beds": 130.0, "SR_15": 2.0}, {"Diff_star": -1.0, "addr": "2850 PORTER'S CHAPEL ROAD", "SR_14": 2.0, "Q_14": 3.0, "name": "COVENANT HEALTH & REHAB OF VICKSBURG, LP", "SF_14": 2.0, "SF_15": 2.0, "cnty": "Warren", "st": "MS", "Zip": 39180.0, "O_14": 2.0, "Q_15": 1.0, "O_15": 1.0, "city": "VICKSBURG", "beds": 120.0, "SR_15": 2.0}, {"Diff_star": 0.0, "addr": "1620 READ ROAD", "SR_14": 4.0, "Q_14": 4.0, "name": "COVENANT HEALTH & REHAB OF PICAYUNE", "SF_14": "", "SF_15": "", "cnty": "Pearl River", "st": "MS", "Zip": 39466.0, "O_14": 4.0, "Q_15": 2.0, "O_15": 4.0, "city": "PICAYUNE", "beds": 120.0, "SR_15": 4.0}, {"Diff_star": -1.0, "addr": "1199 OCEAN SPRINGS ROAD", "SR_14": 4.0, "Q_14": 3.0, "name": "OCEAN SPRINGS HEALTH & REHABILITATION CENTER", "SF_14": 3.0, "SF_15": 3.0, "cnty": "Jackson", "st": "MS", "Zip": 39564.0, "O_14": 4.0, "Q_15": 1.0, "O_15": 3.0, "city": "OCEAN SPRINGS", "beds": 115.0, "SR_15": 4.0}, {"Diff_star": 0.0, "addr": "501 SOUTH LOCUST STREET", "SR_14": 1.0, "Q_14": 3.0, "name": "COURTYARD REHABILITATION AND HEALTHCARE", "SF_14": 1.0, "SF_15": 1.0, "cnty": "Pike", "st": "MS", "Zip": 39648.0, "O_14": 1.0, "Q_15": 1.0, "O_15": 1.0, "city": "MCCOMB", "beds": 145.0, "SR_15": 1.0}, {"Diff_star": 0.0, "addr": "925 CALHOUN AVENUE", "SR_14": 1.0, "Q_14": 4.0, "name": "OASIS HEALTH & REHAB OF YAZOO CITY, LLC", "SF_14": 1.0, "SF_15": 1.0, "cnty": "Yazoo", "st": "MS", "Zip": 39194.0, "O_14": 1.0, "Q_15": 3.0, "O_15": 1.0, "city": "YAZOO CITY", "beds": 180.0, "SR_15": 1.0}, {"Diff_star": -1.0, "addr": "102 WOODCHASE PARK DRIVE", "SR_14": 1.0, "Q_14": 3.0, "name": "TRINITY MISSION HEALTH & REHAB OF CLINTON", "SF_14": 4.0, "SF_15": 3.0, "cnty": "Hinds", "st": "MS", "Zip": 39056.0, "O_14": 2.0, "Q_15": 1.0, "O_15": 1.0, "city": "CLINTON", "beds": 145.0, "SR_15": 1.0}, {"Diff_star": -1.0, "addr": "908 S GEORGE STREET", "SR_14": 5.0, "Q_14": 2.0, "name": "BEDFORD CARE CENTER OF PETAL", "SF_14": 3.0, "SF_15": 3.0, "cnty": "Forrest", "st": "MS", "Zip": 39465.0, "O_14": 5.0, "Q_15": 1.0, "O_15": 4.0, "city": "PETAL", "beds": 60.0, "SR_15": 5.0}, {"Diff_star": 0.0, "addr": "925 WEST MANGUM AVENUE", "SR_14": 5.0, "Q_14": 4.0, "name": "BEDFORD CARE CENTER OF MENDENH", "SF_14": 3.0, "SF_15": 3.0, "cnty": "Simpson", "st": "MS", "Zip": 39114.0, "O_14": 5.0, "Q_15": 3.0, "O_15": 5.0, "city": "MENDENHALL", "beds": 60.0, "SR_15": 5.0}, {"Diff_star": 0.0, "addr": "1009 SOUTH MAIN STREET", "SR_14": 4.0, "Q_14": 4.0, "name": "BEDFORD CARE CENTER OF NEWTON", "SF_14": 4.0, "SF_15": 4.0, "cnty": "Newton", "st": "MS", "Zip": 39345.0, "O_14": 4.0, "Q_15": 3.0, "O_15": 4.0, "city": "NEWTON", "beds": 120.0, "SR_15": 4.0}, {"Diff_star": -1.0, "addr": "902 SGT JOHN A PITTMAN DRIVE", "SR_14": 3.0, "Q_14": 3.0, "name": "CRYSTAL HEALTH AND REHAB OF GREENWOOD, LLC", "SF_14": 4.0, "SF_15": 3.0, "cnty": "Leflore", "st": "MS", "Zip": 38930.0, "O_14": 4.0, "Q_15": 2.0, "O_15": 3.0, "city": "GREENWOOD", "beds": 110.0, "SR_15": 3.0}, {"Diff_star": 0.0, "addr": "1966 HILL DRIVE", "SR_14": 2.0, "Q_14": 4.0, "name": "GRACE HEALTH AND REHAB OF GRENADA, LLC", "SF_14": 2.0, "SF_15": 2.0, "cnty": "Grenada", "st": "MS", "Zip": 38901.0, "O_14": 2.0, "Q_15": 3.0, "O_15": 2.0, "city": "GRENADA", "beds": 137.0, "SR_15": 2.0}, {"Diff_star": 0.0, "addr": "#10 MEDICAL BOULEVARD", "SR_14": 4.0, "Q_14": 5.0, "name": "BEDFORD CARE CENTER OF HATTIES", "SF_14": 4.0, "SF_15": 4.0, "cnty": "Forrest", "st": "MS", "Zip": 39401.0, "O_14": 5.0, "Q_15": 5.0, "O_15": 5.0, "city": "HATTIESBURG", "beds": 148.0, "SR_15": 4.0}, {"Diff_star": -1.0, "addr": "202 BAY AVENUE WEST", "SR_14": 3.0, "Q_14": 2.0, "name": "PERRY COUNTY NURSING CENTER", "SF_14": 4.0, "SF_15": 4.0, "cnty": "Perry", "st": "MS", "Zip": 39476.0, "O_14": 4.0, "Q_15": 1.0, "O_15": 3.0, "city": "RICHTON", "beds": 60.0, "SR_15": 3.0}, {"Diff_star": 0.0, "addr": "1905 SOUTH ADAMS STREET", "SR_14": 4.0, "Q_14": 3.0, "name": "DANIEL HEALTH CARE INC", "SF_14": 4.0, "SF_15": 4.0, "cnty": "Itawamba", "st": "MS", "Zip": 38843.0, "O_14": 4.0, "Q_15": 2.0, "O_15": 4.0, "city": "FULTON", "beds": 130.0, "SR_15": 4.0}, {"Diff_star": -1.0, "addr": "739 4TH STREET SOUTH", "SR_14": 4.0, "Q_14": 2.0, "name": "NMMC BALDWYN NURSING FACILITY", "SF_14": 4.0, "SF_15": 3.0, "cnty": "Lee", "st": "MS", "Zip": 38824.0, "O_14": 4.0, "Q_15": 1.0, "O_15": 3.0, "city": "BALDWYN", "beds": 107.0, "SR_15": 4.0}, {"Diff_star": 0.0, "addr": "525 BROOKMAN DRIVE", "SR_14": 4.0, "Q_14": 5.0, "name": "COUNTRYBROOK LIVING CENTER", "SF_14": 3.0, "SF_15": 3.0, "cnty": "Lincoln", "st": "MS", "Zip": 39601.0, "O_14": 5.0, "Q_15": 5.0, "O_15": 5.0, "city": "BROOKHAVEN", "beds": 121.0, "SR_15": 4.0}, {"Diff_star": -1.0, "addr": "5427 GEX ROAD", "SR_14": 4.0, "Q_14": 3.0, "name": "WOODLAND VILLAGE NURSING CENTER", "SF_14": 4.0, "SF_15": 4.0, "cnty": "Hancock", "st": "MS", "Zip": 39525.0, "O_14": 4.0, "Q_15": 1.0, "O_15": 3.0, "city": "DIAMONDHEAD", "beds": 132.0, "SR_15": 4.0}, {"Diff_star": 0.0, "addr": "910 MAIN STREET", "SR_14": 3.0, "Q_14": 5.0, "name": "JEFFERSON COUNTY NURSING HOME", "SF_14": 4.0, "SF_15": 4.0, "cnty": "Jefferson", "st": "MS", "Zip": 39069.0, "O_14": 5.0, "Q_15": 5.0, "O_15": 5.0, "city": "FAYETTE", "beds": 60.0, "SR_15": 3.0}, {"Diff_star": 0.0, "addr": "1201 28TH AVENUE", "SR_14": 1.0, "Q_14": 3.0, "name": "QUEEN CITY NURSING  HOME CENTER", "SF_14": 3.0, "SF_15": 3.0, "cnty": "Lauderdale", "st": "MS", "Zip": 39301.0, "O_14": 1.0, "Q_15": 2.0, "O_15": 1.0, "city": "MERIDIAN", "beds": 84.0, "SR_15": 1.0}, {"Diff_star": 0.0, "addr": "5001 HARDY STREET", "SR_14": 5.0, "Q_14": 3.0, "name": "WESLEY MEDICAL CENTER TCU", "SF_14": 4.0, "SF_15": 4.0, "cnty": "Forrest", "st": "MS", "Zip": 39402.0, "O_14": 5.0, "Q_15": 3.0, "O_15": 5.0, "city": "HATTIESBURG", "beds": 25.0, "SR_15": 5.0}, {"Diff_star": 0.0, "addr": "587 JOHN R JUNKIN DRIVE", "SR_14": 4.0, "Q_14": 5.0, "name": "ADAMS COUNTY NURSING CENTER", "SF_14": 3.0, "SF_15": 3.0, "cnty": "Adams", "st": "MS", "Zip": 39120.0, "O_14": 5.0, "Q_15": 5.0, "O_15": 5.0, "city": "NATCHEZ", "beds": 100.0, "SR_15": 4.0}, {"Diff_star": -2.0, "addr": "627 MIDDLETON ROAD", "SR_14": 2.0, "Q_14": 3.0, "name": "WINONA MANOR HEALTH CARE AND REHABILITATION CENTER", "SF_14": 4.0, "SF_15": 3.0, "cnty": "Montgomery", "st": "MS", "Zip": 38967.0, "O_14": 3.0, "Q_15": 1.0, "O_15": 1.0, "city": "WINONA", "beds": 120.0, "SR_15": 2.0}, {"Diff_star": -1.0, "addr": "1001 HOSPITAL ROAD", "SR_14": 1.0, "Q_14": 5.0, "name": "STARKVILLE MANOR HEALTH CARE AND REHABILITATION CE", "SF_14": 2.0, "SF_15": 2.0, "cnty": "Oktibbeha", "st": "MS", "Zip": 39759.0, "O_14": 2.0, "Q_15": 3.0, "O_15": 1.0, "city": "STARKVILLE", "beds": 119.0, "SR_15": 1.0}, {"Diff_star": 0.0, "addr": "555 JOHN R. JUNKIN DRIVE", "SR_14": 2.0, "Q_14": 4.0, "name": "GLENBURNEY HEALTH CARE AND REHABILITATION CENTER", "SF_14": 2.0, "SF_15": 2.0, "cnty": "Adams", "st": "MS", "Zip": 39120.0, "O_14": 2.0, "Q_15": 3.0, "O_15": 2.0, "city": "NATCHEZ", "beds": 96.0, "SR_15": 2.0}, {"Diff_star": 0.0, "addr": "3401 MAIN STREET", "SR_14": 4.0, "Q_14": 4.0, "name": "SINGING RIVER HEALTH AND REHABILITATION CENTER", "SF_14": 3.0, "SF_15": 3.0, "cnty": "Jackson", "st": "MS", "Zip": 39563.0, "O_14": 4.0, "Q_15": 2.0, "O_15": 4.0, "city": "MOSS POINT", "beds": 160.0, "SR_15": 4.0}, {"Diff_star": -1.0, "addr": "519 BROOKMAN DRIVE", "SR_14": 2.0, "Q_14": 5.0, "name": "GOLDEN LIVINGCENTER - BROOK MANOR", "SF_14": 4.0, "SF_15": 4.0, "cnty": "Lincoln", "st": "MS", "Zip": 39601.0, "O_14": 4.0, "Q_15": 3.0, "O_15": 3.0, "city": "BROOKHAVEN", "beds": 58.0, "SR_15": 2.0}, {"Diff_star": -1.0, "addr": "1300 MELODY LANE/PO BOX 640", "SR_14": 3.0, "Q_14": 3.0, "name": "LEAKESVILLE REHABILITATION AND NURSING CENTER, INC", "SF_14": 4.0, "SF_15": 4.0, "cnty": "Greene", "st": "MS", "Zip": 39451.0, "O_14": 4.0, "Q_15": 1.0, "O_15": 3.0, "city": "LEAKESVILLE", "beds": 60.0, "SR_15": 3.0}, {"Diff_star": 0.0, "addr": "55 SUSANNE STREET", "SR_14": 5.0, "Q_14": 3.0, "name": "GLEN OAKS NURSING CENTER", "SF_14": 4.0, "SF_15": 4.0, "cnty": "George", "st": "MS", "Zip": 39452.0, "O_14": 5.0, "Q_15": 2.0, "O_15": 5.0, "city": "LUCEDALE", "beds": 60.0, "SR_15": 5.0}, {"Diff_star": -1.0, "addr": "16411 ROBINSON ROAD", "SR_14": 3.0, "Q_14": 3.0, "name": "LAKEVIEW NURSING CENTER", "SF_14": 5.0, "SF_15": 4.0, "cnty": "Harrison", "st": "MS", "Zip": 39503.0, "O_14": 4.0, "Q_15": 1.0, "O_15": 3.0, "city": "GULFPORT", "beds": 105.0, "SR_15": 4.0}, {"Diff_star": 0.0, "addr": "401 HIGHWAY 82 WEST", "SR_14": 3.0, "Q_14": 4.0, "name": "LIBERTY HEALTH & REHAB OF INDIANOLA, LLC", "SF_14": 2.0, "SF_15": 2.0, "cnty": "Sunflower", "st": "MS", "Zip": 38751.0, "O_14": 3.0, "Q_15": 2.0, "O_15": 3.0, "city": "INDIANOLA", "beds": 75.0, "SR_15": 3.0}, {"Diff_star": -1.0, "addr": "326 HIGHWAY 12 WEST", "SR_14": 2.0, "Q_14": 3.0, "name": "ATTALA COUNTY NURSING CENTER", "SF_14": 5.0, "SF_15": 5.0, "cnty": "Attala", "st": "MS", "Zip": 39090.0, "O_14": 3.0, "Q_15": 1.0, "O_15": 2.0, "city": "KOSCIUSKO", "beds": 120.0, "SR_15": 2.0}, {"Diff_star": 0.0, "addr": "2124 OLD HWY 61 SOUTH", "SR_14": 2.0, "Q_14": 5.0, "name": "CLAIBORNE COUNTY SENIOR CARE", "SF_14": 4.0, "SF_15": 4.0, "cnty": "Claiborne", "st": "MS", "Zip": 39150.0, "O_14": 4.0, "Q_15": 5.0, "O_15": 4.0, "city": "PORT GIBSON", "beds": 77.0, "SR_15": 2.0}, {"Diff_star": -1.0, "addr": "310 EMERALD DRIVE", "SR_14": 1.0, "Q_14": 5.0, "name": "AURORA HEALTH AND REHABILITATION", "SF_14": 3.0, "SF_15": 3.0, "cnty": "Lowndes", "st": "MS", "Zip": 39702.0, "O_14": 2.0, "Q_15": 4.0, "O_15": 1.0, "city": "COLUMBUS", "beds": 120.0, "SR_15": 1.0}, {"Diff_star": 0.0, "addr": "4403 HOSPITAL ROAD", "SR_14": 3.0, "Q_14": 4.0, "name": "PLAZA COMMUNITY LIVING CENTER", "SF_14": "", "SF_15": "", "cnty": "Jackson", "st": "MS", "Zip": 39581.0, "O_14": 3.0, "Q_15": 2.0, "O_15": 3.0, "city": "PASCAGOULA", "beds": 120.0, "SR_15": 3.0}, {"Diff_star": 0.0, "addr": "133 PINE STREET", "SR_14": 2.0, "Q_14": 4.0, "name": "PINE CREST GUEST HOME INC", "SF_14": 4.0, "SF_15": 4.0, "cnty": "Copiah", "st": "MS", "Zip": 39083.0, "O_14": 3.0, "Q_15": 4.0, "O_15": 3.0, "city": "HAZLEHURST", "beds": 120.0, "SR_15": 2.0}, {"Diff_star": 0.0, "addr": "1401 RIVER ROAD/BOX 1410", "SR_14": 5.0, "Q_14": 5.0, "name": "GREENWOOD LEFLORE SUB ACUTE UN", "SF_14": 5.0, "SF_15": 5.0, "cnty": "Leflore", "st": "MS", "Zip": 38930.0, "O_14": 5.0, "Q_15": 4.0, "O_15": 5.0, "city": "GREENWOOD", "beds": 16.0, "SR_15": 5.0}, {"Diff_star": -1.0, "addr": "907 EAST WALKER STREET/PO BOX 69", "SR_14": 1.0, "Q_14": 3.0, "name": "COURTYARDS COMM LIVING CENTER", "SF_14": 4.0, "SF_15": 4.0, "cnty": "Itawamba", "st": "MS", "Zip": 38843.0, "O_14": 2.0, "Q_15": 1.0, "O_15": 1.0, "city": "FULTON", "beds": 66.0, "SR_15": 1.0}, {"Diff_star": 0.0, "addr": "300 HWY 556/ROUTE 2 BOX 66", "SR_14": 4.0, "Q_14": 4.0, "name": "MEADVILLE CONVALESCENT HOME", "SF_14": 4.0, "SF_15": 4.0, "cnty": "Franklin", "st": "MS", "Zip": 39653.0, "O_14": 4.0, "Q_15": 3.0, "O_15": 4.0, "city": "MEADVILLE", "beds": 60.0, "SR_15": 4.0}, {"Diff_star": 0.0, "addr": "700 JEFFERSON STREET SOUTH/PO BOX 398", "SR_14": 5.0, "Q_14": 4.0, "name": "LAWRENCE CO NURSING CENTER", "SF_14": 4.0, "SF_15": 3.0, "cnty": "Lawrence", "st": "MS", "Zip": 39654.0, "O_14": 5.0, "Q_15": 2.0, "O_15": 5.0, "city": "MONTICELLO", "beds": 60.0, "SR_15": 5.0}, {"Diff_star": 0.0, "addr": "1207 SOUTH FIR AVENUE", "SR_14": 4.0, "Q_14": 4.0, "name": "COVINGTON CO  NURSING CENTER", "SF_14": 4.0, "SF_15": 4.0, "cnty": "Covington", "st": "MS", "Zip": 39428.0, "O_14": 4.0, "Q_15": 2.0, "O_15": 4.0, "city": "COLLINS", "beds": 60.0, "SR_15": 4.0}, {"Diff_star": 0.0, "addr": "1600 WEST CLAIBORNE AVENUE EXTENDED", "SR_14": 2.0, "Q_14": 5.0, "name": "RIVERVIEW NURSING & REHABILITATION CENTER", "SF_14": 2.0, "SF_15": 2.0, "cnty": "Leflore", "st": "MS", "Zip": 38930.0, "O_14": 3.0, "Q_15": 5.0, "O_15": 3.0, "city": "GREENWOOD", "beds": 80.0, "SR_15": 2.0}, {"Diff_star": -1.0, "addr": "402 ARNOLD AVENUE", "SR_14": 2.0, "Q_14": 5.0, "name": "RIVER HEIGHTS HEALTHCARE CENTER", "SF_14": 3.0, "SF_15": 3.0, "cnty": "Washington", "st": "MS", "Zip": 38701.0, "O_14": 3.0, "Q_15": 4.0, "O_15": 2.0, "city": "GREENVILLE", "beds": 60.0, "SR_15": 2.0}, {"Diff_star": 0.0, "addr": "230 KHAKI STREET", "SR_14": 4.0, "Q_14": 1.0, "name": "TISHOMINGO MANOR", "SF_14": 4.0, "SF_15": 4.0, "cnty": "Tishomingo", "st": "MS", "Zip": 38852.0, "O_14": 3.0, "Q_15": 1.0, "O_15": 3.0, "city": "IUKA", "beds": 105.0, "SR_15": 3.0}, {"Diff_star": 0.0, "addr": "570 NORTH SOLOMON STREET", "SR_14": 3.0, "Q_14": 5.0, "name": "ARBOR WALK HEALTHCARE CENTER", "SF_14": 4.0, "SF_15": 4.0, "cnty": "Washington", "st": "MS", "Zip": 38703.0, "O_14": 5.0, "Q_15": 5.0, "O_15": 5.0, "city": "GREENVILLE", "beds": 60.0, "SR_15": 3.0}, {"Diff_star": -1.0, "addr": "431 WEST RACE STREET / PO BOX 279", "SR_14": 1.0, "Q_14": 5.0, "name": "HERITAGE MANOR OF ROLLING FORK", "SF_14": 3.0, "SF_15": 3.0, "cnty": "Sharkey", "st": "MS", "Zip": 39159.0, "O_14": 2.0, "Q_15": 4.0, "O_15": 1.0, "city": "ROLLING FORK", "beds": 54.0, "SR_15": 1.0}, {"Diff_star": -1.0, "addr": "101 MILLS STREET", "SR_14": 3.0, "Q_14": 5.0, "name": "HAVEN HALL HEALTH CARE CENTER", "SF_14": 4.0, "SF_15": 4.0, "cnty": "Lincoln", "st": "MS", "Zip": 39601.0, "O_14": 5.0, "Q_15": 4.0, "O_15": 4.0, "city": "BROOKHAVEN", "beds": 81.0, "SR_15": 3.0}, {"Diff_star": 0.0, "addr": "230 AIRLINE ROAD", "SR_14": 3.0, "Q_14": 5.0, "name": "TRINITY HEALTHCARE CENTER", "SF_14": 4.0, "SF_15": 4.0, "cnty": "Lowndes", "st": "MS", "Zip": 39702.0, "O_14": 5.0, "Q_15": 5.0, "O_15": 5.0, "city": "COLUMBUS", "beds": 60.0, "SR_15": 3.0}, {"Diff_star": -1.0, "addr": "344 ARLINGTON AVENUE", "SR_14": 2.0, "Q_14": 3.0, "name": "CROWN HEALTH & REHAB OF NATCHEZ", "SF_14": 2.0, "SF_15": 2.0, "cnty": "Adams", "st": "MS", "Zip": 39120.0, "O_14": 2.0, "Q_15": 1.0, "O_15": 1.0, "city": "NATCHEZ", "beds": 58.0, "SR_15": 2.0}, {"Diff_star": -1.0, "addr": "1506 NORTH MAIN STREET", "SR_14": 2.0, "Q_14": 2.0, "name": "SONG HEALTH & REHAB OF COLUMBIA, LLC", "SF_14": 2.0, "SF_15": 2.0, "cnty": "Marion", "st": "MS", "Zip": 39429.0, "O_14": 2.0, "Q_15": 1.0, "O_15": 1.0, "city": "COLUMBIA", "beds": 119.0, "SR_15": 2.0}, {"Diff_star": 0.0, "addr": "200 DR MARTIN LUTHER KING JR DRIVE", "SR_14": 2.0, "Q_14": 5.0, "name": "JOY HEALTH & REHAB OF CLEVELAND, LLC", "SF_14": 1.0, "SF_15": 1.0, "cnty": "Bolivar", "st": "MS", "Zip": 38732.0, "O_14": 2.0, "Q_15": 5.0, "O_15": 2.0, "city": "CLEVELAND", "beds": 75.0, "SR_15": 2.0}, {"Diff_star": 0.0, "addr": "1315  HIGHWAY 4 EAST", "SR_14": 2.0, "Q_14": 5.0, "name": "TRINITY MISSION HEALTH & REHAB OF H S", "SF_14": 1.0, "SF_15": 1.0, "cnty": "Marshall", "st": "MS", "Zip": 38635.0, "O_14": 2.0, "Q_15": 5.0, "O_15": 2.0, "city": "HOLLY SPRINGS", "beds": 120.0, "SR_15": 2.0}, {"Diff_star": 0.0, "addr": "2520 5TH STREET NORTH", "SR_14": 5.0, "Q_14": 5.0, "name": "BAPTIST MEMORIAL HOSPITAL GT", "SF_14": 5.0, "SF_15": 5.0, "cnty": "Lowndes", "st": "MS", "Zip": 39705.0, "O_14": 5.0, "Q_15": 5.0, "O_15": 5.0, "city": "COLUMBUS", "beds": 23.0, "SR_15": 5.0}, {"Diff_star": -1.0, "addr": "302 ALCORN DRIVE", "SR_14": 1.0, "Q_14": 3.0, "name": "CORNERSTONE HEALTH AND REHAB OF CORINTH, LLC", "SF_14": 4.0, "SF_15": 3.0, "cnty": "Alcorn", "st": "MS", "Zip": 38834.0, "O_14": 2.0, "Q_15": 2.0, "O_15": 1.0, "city": "CORINTH", "beds": 95.0, "SR_15": 1.0}, {"Diff_star": -1.0, "addr": "530 HALL ST", "SR_14": 1.0, "Q_14": 5.0, "name": "AZALEA GARDENS NURSING CENTER", "SF_14": 2.0, "SF_15": 2.0, "cnty": "Stone", "st": "MS", "Zip": 39577.0, "O_14": 2.0, "Q_15": 4.0, "O_15": 1.0, "city": "WIGGINS", "beds": 103.0, "SR_15": 1.0}, {"Diff_star": 0.0, "addr": "60 SHADY LAWN PLACE", "SR_14": 4.0, "Q_14": 5.0, "name": "SHADY LAWN HEALTH AND REHABILITATION", "SF_14": 3.0, "SF_15": 3.0, "cnty": "Warren", "st": "MS", "Zip": 39180.0, "O_14": 5.0, "Q_15": 5.0, "O_15": 5.0, "city": "VICKSBURG", "beds": 100.0, "SR_15": 4.0}, {"Diff_star": 0.0, "addr": "314 ENOCHS ST", "SR_14": 3.0, "Q_14": 5.0, "name": "BILLDORA SENIOR CARE", "SF_14": 4.0, "SF_15": 4.0, "cnty": "Walthall", "st": "MS", "Zip": 39667.0, "O_14": 5.0, "Q_15": 5.0, "O_15": 5.0, "city": "TYLERTOWN", "beds": 77.0, "SR_15": 3.0}, {"Diff_star": -1.0, "addr": "6520 SUNSCOPE DRIVE", "SR_14": 2.0, "Q_14": 2.0, "name": "SUNPLEX SUB-ACUTE CENTER", "SF_14": 4.0, "SF_15": 4.0, "cnty": "Jackson", "st": "MS", "Zip": 39564.0, "O_14": 3.0, "Q_15": 1.0, "O_15": 2.0, "city": "OCEAN SPRINGS", "beds": 73.0, "SR_15": 2.0}, {"Diff_star": 0.0, "addr": "103 CUNNINGHAM DRIVE", "SR_14": 5.0, "Q_14": 5.0, "name": "REST HAVEN HEALTH AND REHABILITATION", "SF_14": 4.0, "SF_15": 4.0, "cnty": "Tippah", "st": "MS", "Zip": 38663.0, "O_14": 5.0, "Q_15": 5.0, "O_15": 5.0, "city": "RIPLEY", "beds": 60.0, "SR_15": 5.0}, {"Diff_star": 0.0, "addr": "865 NORTH STREET", "SR_14": 5.0, "Q_14": 4.0, "name": "COMPERE NH INC", "SF_14": 1.0, "SF_15": 1.0, "cnty": "Hinds", "st": "MS", "Zip": 39202.0, "O_14": 4.0, "Q_15": 2.0, "O_15": 4.0, "city": "JACKSON", "beds": 60.0, "SR_15": 5.0}, {"Diff_star": 0.0, "addr": "96 OLD HIGHWAY 80 EAST/P. O. BOX 459", "SR_14": 4.0, "Q_14": 5.0, "name": "MS CARE CENTER OF MORTON", "SF_14": 4.0, "SF_15": 4.0, "cnty": "Scott", "st": "MS", "Zip": 39117.0, "O_14": 5.0, "Q_15": 5.0, "O_15": 5.0, "city": "MORTON", "beds": 120.0, "SR_15": 4.0}, {"Diff_star": 0.0, "addr": "220 WILLOW AVENUE", "SR_14": 5.0, "Q_14": 5.0, "name": "MS CARE CENTER OF DEKALB", "SF_14": 4.0, "SF_15": 4.0, "cnty": "Kemper", "st": "MS", "Zip": 39328.0, "O_14": 5.0, "Q_15": 5.0, "O_15": 5.0, "city": "DE KALB", "beds": 60.0, "SR_15": 5.0}, {"Diff_star": 0.0, "addr": "1221 EAST UNION STREET", "SR_14": 3.0, "Q_14": 4.0, "name": "MS CARE CENTER OF GREENVILLE", "SF_14": 4.0, "SF_15": 4.0, "cnty": "Washington", "st": "MS", "Zip": 38703.0, "O_14": 4.0, "Q_15": 2.0, "O_15": 4.0, "city": "GREENVILLE", "beds": 116.0, "SR_15": 3.0}, {"Diff_star": 0.0, "addr": "1708 CHERRY STREET", "SR_14": 4.0, "Q_14": 5.0, "name": "VICKSBURG CONVALESCENT CENTER", "SF_14": 4.0, "SF_15": 4.0, "cnty": "Warren", "st": "MS", "Zip": 39180.0, "O_14": 5.0, "Q_15": 5.0, "O_15": 5.0, "city": "VICKSBURG", "beds": 100.0, "SR_15": 4.0}, {"Diff_star": -1.0, "addr": "81 WINDSOR BOULEVARD", "SR_14": 1.0, "Q_14": 2.0, "name": "THE WINDSOR PLACE", "SF_14": 4.0, "SF_15": 3.0, "cnty": "Lowndes", "st": "MS", "Zip": 39702.0, "O_14": 2.0, "Q_15": 1.0, "O_15": 1.0, "city": "COLUMBUS", "beds": 140.0, "SR_15": 1.0}, {"Diff_star": 0.0, "addr": "500 CCC ROAD", "SR_14": 4.0, "Q_14": 4.0, "name": "HUMPHREYS CO NURSING CENTER", "SF_14": 2.0, "SF_15": 2.0, "cnty": "Humphreys", "st": "MS", "Zip": 39038.0, "O_14": 4.0, "Q_15": 4.0, "O_15": 4.0, "city": "BELZONI", "beds": 60.0, "SR_15": 4.0}, {"Diff_star": -1.0, "addr": "101 KIRKLAND STREET", "SR_14": 4.0, "Q_14": 3.0, "name": "HILLTOP MANOR HEALTH AND REHABILITATION CENTER", "SF_14": 2.0, "SF_15": 2.0, "cnty": "Neshoba", "st": "MS", "Zip": 39365.0, "O_14": 4.0, "Q_15": 1.0, "O_15": 3.0, "city": "UNION", "beds": 60.0, "SR_15": 4.0}, {"Diff_star": 0.0, "addr": "3716 HIGHWAY 39 NORTH", "SR_14": 1.0, "Q_14": 4.0, "name": "THE OAKS REHABILITATION AND HEALTHCARE CENTER", "SF_14": 3.0, "SF_15": 3.0, "cnty": "Lauderdale", "st": "MS", "Zip": 39301.0, "O_14": 1.0, "Q_15": 2.0, "O_15": 1.0, "city": "MERIDIAN", "beds": 82.0, "SR_15": 1.0}, {"Diff_star": -1.0, "addr": "1036 WEST DRIVE", "SR_14": 3.0, "Q_14": 5.0, "name": "LAURELWOOD COMM LIVING CENTER", "SF_14": 3.0, "SF_15": 3.0, "cnty": "Jones", "st": "MS", "Zip": 39440.0, "O_14": 4.0, "Q_15": 4.0, "O_15": 3.0, "city": "LAUREL", "beds": 60.0, "SR_15": 3.0}, {"Diff_star": 0.0, "addr": "517 33RD STREET", "SR_14": 1.0, "Q_14": 5.0, "name": "MERIDIAN COMM LIVING CENTER", "SF_14": 4.0, "SF_15": 3.0, "cnty": "Lauderdale", "st": "MS", "Zip": 39305.0, "O_14": 2.0, "Q_15": 5.0, "O_15": 2.0, "city": "MERIDIAN", "beds": 58.0, "SR_15": 1.0}, {"Diff_star": 0.0, "addr": "200 LONG STREET/P. O. BOX 326", "SR_14": 1.0, "Q_14": 4.0, "name": "LONGWOOD COMM LIVING CENTER", "SF_14": 2.0, "SF_15": 2.0, "cnty": "Prentiss", "st": "MS", "Zip": 38829.0, "O_14": 1.0, "Q_15": 2.0, "O_15": 1.0, "city": "BOONEVILLE", "beds": 64.0, "SR_15": 1.0}, {"Diff_star": 0.0, "addr": "37 HILLCREST DRIVE", "SR_14": 3.0, "Q_14": 4.0, "name": "WINDHAM HOUSE OF HATTIESBURG", "SF_14": 4.0, "SF_15": 4.0, "cnty": "Forrest", "st": "MS", "Zip": 39402.0, "O_14": 4.0, "Q_15": 4.0, "O_15": 4.0, "city": "HATTIESBURG", "beds": 60.0, "SR_15": 3.0}, {"Diff_star": 0.0, "addr": "100 BURNHAM ROAD", "SR_14": 4.0, "Q_14": 5.0, "name": "BRANDON COURT", "SF_14": 2.0, "SF_15": 2.0, "cnty": "Rankin", "st": "MS", "Zip": 39042.0, "O_14": 5.0, "Q_15": 5.0, "O_15": 5.0, "city": "BRANDON", "beds": 100.0, "SR_15": 4.0}, {"Diff_star": -1.0, "addr": "1120 RITCHIE AVE/PO BOX 1304", "SR_14": 1.0, "Q_14": 2.0, "name": "CLARKSDALE NURSING CENTER", "SF_14": 4.0, "SF_15": 4.0, "cnty": "Coahoma", "st": "MS", "Zip": 38614.0, "O_14": 2.0, "Q_15": 1.0, "O_15": 1.0, "city": "CLARKSDALE", "beds": 112.0, "SR_15": 1.0}, {"Diff_star": 0.0, "addr": "118 SOUTH GLENFIELD ROAD", "SR_14": 2.0, "Q_14": 3.0, "name": "GRACELAND CARE CTR NEW ALBANY", "SF_14": 4.0, "SF_15": 4.0, "cnty": "Union", "st": "MS", "Zip": 38652.0, "O_14": 3.0, "Q_15": 2.0, "O_15": 3.0, "city": "NEW ALBANY", "beds": 120.0, "SR_15": 2.0}, {"Diff_star": 0.0, "addr": "1301 BELK BOULEVARD", "SR_14": 1.0, "Q_14": 4.0, "name": "GRACELAND CARE CENTER OF OXFORD", "SF_14": 4.0, "SF_15": 4.0, "cnty": "Lafayette", "st": "MS", "Zip": 38655.0, "O_14": 2.0, "Q_15": 2.0, "O_15": 2.0, "city": "OXFORD", "beds": 180.0, "SR_15": 1.0}, {"Diff_star": -1.0, "addr": "278 WEST EIGHTH STREET/P. O. BOX 547", "SR_14": 4.0, "Q_14": 3.0, "name": "GRACELAND CARE CTR OF PONTOTOC", "SF_14": 4.0, "SF_15": 3.0, "cnty": "Pontotoc", "st": "MS", "Zip": 38863.0, "O_14": 4.0, "Q_15": 1.0, "O_15": 3.0, "city": "PONTOTOC", "beds": 60.0, "SR_15": 4.0}, {"Diff_star": 0.0, "addr": "323 INDUSTRIAL PARK DRIVE", "SR_14": 3.0, "Q_14": 4.0, "name": "LIBERTY COMMUNITY LIVING CTR", "SF_14": 3.0, "SF_15": 3.0, "cnty": "Amite", "st": "MS", "Zip": 39645.0, "O_14": 3.0, "Q_15": 2.0, "O_15": 3.0, "city": "LIBERTY", "beds": 80.0, "SR_15": 3.0}, {"Diff_star": 0.0, "addr": "1018 ALBERTA AVENUE", "SR_14": 3.0, "Q_14": 4.0, "name": "MYRTLES NURSING CENTER, LLC", "SF_14": 4.0, "SF_15": 4.0, "cnty": "Marion", "st": "MS", "Zip": 39429.0, "O_14": 4.0, "Q_15": 2.0, "O_15": 4.0, "city": "COLUMBIA", "beds": 98.0, "SR_15": 3.0}, {"Diff_star": 0.0, "addr": "927 COOPER RD", "SR_14": 2.0, "Q_14": 1.0, "name": "FOREST HILL NURSING CENTER INC", "SF_14": 3.0, "SF_15": 3.0, "cnty": "Hinds", "st": "MS", "Zip": 39212.0, "O_14": 1.0, "Q_15": 1.0, "O_15": 1.0, "city": "JACKSON", "beds": 87.0, "SR_15": 2.0}, {"Diff_star": -1.0, "addr": "638 HIGHLAND COLONY PARKWAY", "SR_14": 2.0, "Q_14": 5.0, "name": "HIGHLAND HOME", "SF_14": 4.0, "SF_15": 3.0, "cnty": "Madison", "st": "MS", "Zip": 39157.0, "O_14": 4.0, "Q_15": 5.0, "O_15": 3.0, "city": "RIDGELAND", "beds": 120.0, "SR_15": 2.0}, {"Diff_star": -1.0, "addr": "3701 PETER QUINN DRIVE", "SR_14": 4.0, "Q_14": 5.0, "name": "MAGNOLIA SENIOR CARE, LLC", "SF_14": 4.0, "SF_15": 4.0, "cnty": "Hinds", "st": "MS", "Zip": 39213.0, "O_14": 5.0, "Q_15": 3.0, "O_15": 4.0, "city": "JACKSON", "beds": 60.0, "SR_15": 4.0}, {"Diff_star": -1.0, "addr": "1004 NORTH ST", "SR_14": 3.0, "Q_14": 5.0, "name": "BELHAVEN SENIOR CARE, LLC", "SF_14": 1.0, "SF_15": 1.0, "cnty": "Hinds", "st": "MS", "Zip": 39202.0, "O_14": 3.0, "Q_15": 3.0, "O_15": 2.0, "city": "JACKSON", "beds": 60.0, "SR_15": 3.0}, {"Diff_star": 0.0, "addr": "1017 JACKSON STREET", "SR_14": 5.0, "Q_14": 4.0, "name": "GREENE RURAL HEALTH CENTER", "SF_14": 4.0, "SF_15": 4.0, "cnty": "Greene", "st": "MS", "Zip": 39451.0, "O_14": 5.0, "Q_15": 4.0, "O_15": 5.0, "city": "LEAKESVILLE", "beds": 60.0, "SR_15": 5.0}, {"Diff_star": -1.0, "addr": "1401 FIRST AVENUE NORTHEAST", "SR_14": 1.0, "Q_14": 5.0, "name": "HILLCREST NURSING CENTER, LLC", "SF_14": 3.0, "SF_15": 3.0, "cnty": "Simpson", "st": "MS", "Zip": 39111.0, "O_14": 2.0, "Q_15": 3.0, "O_15": 1.0, "city": "MAGEE", "beds": 120.0, "SR_15": 1.0}, {"Diff_star": 0.0, "addr": "613 EAST LEE STREET", "SR_14": 2.0, "Q_14": 3.0, "name": "SARDIS COMMUNITY  NH", "SF_14": 3.0, "SF_15": 3.0, "cnty": "Panola", "st": "MS", "Zip": 38666.0, "O_14": 2.0, "Q_15": 2.0, "O_15": 2.0, "city": "SARDIS", "beds": 60.0, "SR_15": 2.0}, {"Diff_star": 0.0, "addr": "1714 WHITE STREET", "SR_14": 5.0, "Q_14": 5.0, "name": "CAMELLIA ESTATES", "SF_14": "", "SF_15": "", "cnty": "Pike", "st": "MS", "Zip": 39648.0, "O_14": 5.0, "Q_15": 3.0, "O_15": 5.0, "city": "MCCOMB", "beds": 30.0, "SR_15": 5.0}, {"Diff_star": -2.0, "addr": "3068 NAIL ROAD WEST", "SR_14": 3.0, "Q_14": 2.0, "name": "LANDMARK OF DESOTO", "SF_14": 4.0, "SF_15": 3.0, "cnty": "De Soto", "st": "MS", "Zip": 38637.0, "O_14": 4.0, "Q_15": 1.0, "O_15": 2.0, "city": "HORN LAKE", "beds": 60.0, "SR_15": 3.0}, {"Diff_star": 0.0, "addr": "1251 PINEHAVEN ROAD", "SR_14": 4.0, "Q_14": 5.0, "name": "CLINTON HEALTHCARE LLC - SNF", "SF_14": "", "SF_15": "", "cnty": "Hinds", "st": "MS", "Zip": 39056.0, "O_14": 5.0, "Q_15": 5.0, "O_15": 5.0, "city": "CLINTON", "beds": 121.0, "SR_15": 4.0}, {"Diff_star": 0.0, "addr": "868 MULBERRY STREET", "SR_14": 4.0, "Q_14": 4.0, "name": "VAIDEN COMMUNITY LIVING CENTER", "SF_14": 3.0, "SF_15": 3.0, "cnty": "Carroll", "st": "MS", "Zip": 39176.0, "O_14": 4.0, "Q_15": 4.0, "O_15": 4.0, "city": "VAIDEN", "beds": 60.0, "SR_15": 4.0}, {"Diff_star": -2.0, "addr": "3103 WISCONSIN AVENUE", "SR_14": 3.0, "Q_14": 5.0, "name": "HERITAGE HOUSE NURSING CENTER", "SF_14": 4.0, "SF_15": 3.0, "cnty": "Warren", "st": "MS", "Zip": 39180.0, "O_14": 5.0, "Q_15": 4.0, "O_15": 3.0, "city": "V'BURG", "beds": 60.0, "SR_15": 3.0}, {"Diff_star": 0.0, "addr": "1129 LANGLEY AVE", "SR_14": 1.0, "Q_14": 4.0, "name": "COMMUNITY PLACE", "SF_14": 3.0, "SF_15": 3.0, "cnty": "Hinds", "st": "MS", "Zip": 39204.0, "O_14": 1.0, "Q_15": 3.0, "O_15": 1.0, "city": "JACKSON", "beds": 60.0, "SR_15": 1.0}, {"Diff_star": 0.0, "addr": "1304 WALNUT ST", "SR_14": 5.0, "Q_14": 5.0, "name": "PINEVIEW HEALTH AND REHABILIATION CENTER", "SF_14": 4.0, "SF_15": 3.0, "cnty": "Wayne", "st": "MS", "Zip": 39367.0, "O_14": 5.0, "Q_15": 5.0, "O_15": 5.0, "city": "WAYNESBORO", "beds": 90.0, "SR_15": 5.0}, {"Diff_star": 0.0, "addr": "538 MENGE AVENUE", "SR_14": 4.0, "Q_14": 4.0, "name": "DIXIE WHITE HOUSE HEALTH AND REHABILIATION CENTER", "SF_14": 5.0, "SF_15": 5.0, "cnty": "Harrison", "st": "MS", "Zip": 39571.0, "O_14": 5.0, "Q_15": 3.0, "O_15": 5.0, "city": "PASS CHRISTIAN", "beds": 60.0, "SR_15": 4.0}, {"Diff_star": -2.0, "addr": "191 HIGHWAY 511 EAST", "SR_14": 5.0, "Q_14": 3.0, "name": "LAKESIDE HEALTH AND REHABILITATION CENTER", "SF_14": 4.0, "SF_15": 4.0, "cnty": "Clarke", "st": "MS", "Zip": 39355.0, "O_14": 5.0, "Q_15": 1.0, "O_15": 3.0, "city": "QUITMAN", "beds": 120.0, "SR_15": 4.0}, {"Diff_star": -2.0, "addr": "5090 GAUTIER VANCLEAVE ROAD", "SR_14": 4.0, "Q_14": 4.0, "name": "RIVER CHASE VILLAGE", "SF_14": 4.0, "SF_15": 3.0, "cnty": "Jackson", "st": "MS", "Zip": 39553.0, "O_14": 4.0, "Q_15": 4.0, "O_15": 2.0, "city": "GAUTIER", "beds": 60.0, "SR_15": 2.0}, {"Diff_star": 0.0, "addr": "1500 BROAD AVENUE", "SR_14": 4.0, "Q_14": 3.0, "name": "DRIFTWOOD NURSING CENTER", "SF_14": 4.0, "SF_15": 4.0, "cnty": "Harrison", "st": "MS", "Zip": 39501.0, "O_14": 4.0, "Q_15": 2.0, "O_15": 4.0, "city": "GULFPORT", "beds": 151.0, "SR_15": 4.0}, {"Diff_star": -1.0, "addr": "806 WEST GEORGETOWN STREET", "SR_14": 5.0, "Q_14": 2.0, "name": "COPIAH LIVING CENTER", "SF_14": 3.0, "SF_15": 3.0, "cnty": "Copiah", "st": "MS", "Zip": 39059.0, "O_14": 5.0, "Q_15": 1.0, "O_15": 4.0, "city": "CRYSTAL SPRINGS", "beds": 60.0, "SR_15": 5.0}, {"Diff_star": -2.0, "addr": "1935 NORTH THEOBOLD EXTENSION", "SR_14": 2.0, "Q_14": 5.0, "name": "LEGACY MANOR NURSING AND REHABILITATION", "SF_14": 4.0, "SF_15": 3.0, "cnty": "Washington", "st": "MS", "Zip": 38704.0, "O_14": 4.0, "Q_15": 3.0, "O_15": 2.0, "city": "GREENVILLE", "beds": 60.0, "SR_15": 2.0}, {"Diff_star": 0.0, "addr": "1108 CHURCH STREET", "SR_14": 2.0, "Q_14": 4.0, "name": "SHELBY HEALTH AND REHABILITATION CENTER", "SF_14": 4.0, "SF_15": 4.0, "cnty": "Bolivar", "st": "MS", "Zip": 38774.0, "O_14": 3.0, "Q_15": 3.0, "O_15": 3.0, "city": "SHELBY", "beds": 60.0, "SR_15": 2.0}, {"Diff_star": -1.0, "addr": "340 DESOTO AVE EXTENDED", "SR_14": 3.0, "Q_14": 5.0, "name": "GREENBOUGH NURSING CENTER", "SF_14": 3.0, "SF_15": 3.0, "cnty": "Coahoma", "st": "MS", "Zip": 38614.0, "O_14": 4.0, "Q_15": 4.0, "O_15": 3.0, "city": "CLARKSDALE", "beds": 60.0, "SR_15": 3.0}, {"Diff_star": -1.0, "addr": "7805 SOUTHCREST PARKWAY", "SR_14": 1.0, "Q_14": 3.0, "name": "DESOTO HEALTHCARE CENTER", "SF_14": 4.0, "SF_15": 4.0, "cnty": "De Soto", "st": "MS", "Zip": 38671.0, "O_14": 2.0, "Q_15": 1.0, "O_15": 1.0, "city": "SOUTHAVEN", "beds": 120.0, "SR_15": 1.0}, {"Diff_star": -1.0, "addr": "300 CAHAL STREET", "SR_14": 1.0, "Q_14": 5.0, "name": "BEDFORD CARE CTR-MONROE HALL", "SF_14": 3.0, "SF_15": 3.0, "cnty": "Forrest", "st": "MS", "Zip": 39401.0, "O_14": 2.0, "Q_15": 4.0, "O_15": 1.0, "city": "HATTIESBURG", "beds": 60.0, "SR_15": 1.0}, {"Diff_star": -1.0, "addr": "2002 5TH STREET NORTH", "SR_14": 3.0, "Q_14": 2.0, "name": "VINEYARD COURT NURSING CENTER", "SF_14": 4.0, "SF_15": 4.0, "cnty": "Lowndes", "st": "MS", "Zip": 39705.0, "O_14": 4.0, "Q_15": 1.0, "O_15": 3.0, "city": "COLUMBUS", "beds": 60.0, "SR_15": 3.0}, {"Diff_star": -1.0, "addr": "49 WILLOW CREEK LANE", "SR_14": 2.0, "Q_14": 4.0, "name": "WILLOW CREEK RETIREMENT CENTER", "SF_14": 3.0, "SF_15": 3.0, "cnty": "Hinds", "st": "MS", "Zip": 39272.0, "O_14": 2.0, "Q_15": 1.0, "O_15": 1.0, "city": "JACKSON", "beds": 88.0, "SR_15": 2.0}, {"Diff_star": 0.0, "addr": "307 REED RD", "SR_14": 4.0, "Q_14": 4.0, "name": "CARRINGTON, LLC D/B/A THE CARRINGTON", "SF_14": 4.0, "SF_15": 4.0, "cnty": "Oktibbeha", "st": "MS", "Zip": 39759.0, "O_14": 4.0, "Q_15": 3.0, "O_15": 4.0, "city": "STARKVILLE", "beds": 60.0, "SR_15": 4.0}, {"Diff_star": -1.0, "addr": "402 GETWELL DR", "SR_14": 2.0, "Q_14": 2.0, "name": "SENATOBIA CONVALESCENT CENTER & REHAB", "SF_14": 4.0, "SF_15": 4.0, "cnty": "Tate", "st": "MS", "Zip": 38668.0, "O_14": 3.0, "Q_15": 1.0, "O_15": 2.0, "city": "SENATOBIA", "beds": 120.0, "SR_15": 2.0}, {"Diff_star": 0.0, "addr": "1201 GUNTER ROAD", "SR_14": 4.0, "Q_14": 4.0, "name": "BRIAR HILL REST HOME", "SF_14": 4.0, "SF_15": 4.0, "cnty": "Rankin", "st": "MS", "Zip": 39073.0, "O_14": 4.0, "Q_15": 2.0, "O_15": 4.0, "city": "FLORENCE", "beds": 60.0, "SR_15": 4.0}, {"Diff_star": 0.0, "addr": "1308 HIGHWAY 51 NORTH", "SR_14": 2.0, "Q_14": 3.0, "name": "THE NICHOLS CENTER", "SF_14": 3.0, "SF_15": 3.0, "cnty": "Madison", "st": "MS", "Zip": 39110.0, "O_14": 2.0, "Q_15": 2.0, "O_15": 2.0, "city": "MADISON", "beds": 60.0, "SR_15": 2.0}, {"Diff_star": -1.0, "addr": "1126 EARL FRYE BOULEVARD, SOUTH", "SR_14": 4.0, "Q_14": 5.0, "name": "RIVER PLACE NURSING CENTER", "SF_14": 4.0, "SF_15": 4.0, "cnty": "Monroe", "st": "MS", "Zip": 38821.0, "O_14": 5.0, "Q_15": 3.0, "O_15": 4.0, "city": "AMORY", "beds": 60.0, "SR_15": 4.0}, {"Diff_star": 0.0, "addr": "1000 EAST MADISON", "SR_14": 2.0, "Q_14": 1.0, "name": "FLOY DYER NH", "SF_14": 4.0, "SF_15": 4.0, "cnty": "Chickasaw", "st": "MS", "Zip": 38851.0, "O_14": 2.0, "Q_15": 1.0, "O_15": 2.0, "city": "HOUSTON", "beds": 66.0, "SR_15": 2.0}, {"Diff_star": -1.0, "addr": "2901 HIGHWAY 82 EAST", "SR_14": 1.0, "Q_14": 4.0, "name": "GOLDEN AGE NH INC", "SF_14": 4.0, "SF_15": 3.0, "cnty": "Leflore", "st": "MS", "Zip": 38930.0, "O_14": 2.0, "Q_15": 2.0, "O_15": 1.0, "city": "GREENWOOD", "beds": 180.0, "SR_15": 1.0}, {"Diff_star": 0.0, "addr": "1436 EAST CENTRAL AVENUE", "SR_14": 3.0, "Q_14": 4.0, "name": "STONE COUNTY NURSING AND REHABILITATION CENTER,INC", "SF_14": 4.0, "SF_15": 4.0, "cnty": "Stone", "st": "MS", "Zip": 39577.0, "O_14": 4.0, "Q_15": 2.0, "O_15": 4.0, "city": "WIGGINS", "beds": 59.0, "SR_15": 3.0}, {"Diff_star": 0.0, "addr": "2800 WEST MAIN STREET", "SR_14": 1.0, "Q_14": 4.0, "name": "CEDARS HEALTH CENTER", "SF_14": 4.0, "SF_15": 4.0, "cnty": "Lee", "st": "MS", "Zip": 38801.0, "O_14": 2.0, "Q_15": 2.0, "O_15": 2.0, "city": "TUPELO", "beds": 140.0, "SR_15": 1.0}, {"Diff_star": 0.0, "addr": "503 SILVER CROSS DRIVE", "SR_14": 1.0, "Q_14": 4.0, "name": "SILVER CROSS HEALTH & REHAB", "SF_14": 5.0, "SF_15": 5.0, "cnty": "Lincoln", "st": "MS", "Zip": 39601.0, "O_14": 2.0, "Q_15": 2.0, "O_15": 2.0, "city": "BROOKHAVEN", "beds": 60.0, "SR_15": 1.0}, {"Diff_star": 0.0, "addr": "111 CHASE ST", "SR_14": 4.0, "Q_14": 5.0, "name": "TRINITY MISSION H & R GREAT OAKS, LLC", "SF_14": 4.0, "SF_15": 3.0, "cnty": "Marshall", "st": "MS", "Zip": 38611.0, "O_14": 5.0, "Q_15": 5.0, "O_15": 5.0, "city": "BYHALIA", "beds": 60.0, "SR_15": 4.0}, {"Diff_star": -1.0, "addr": "1111 BRATTON ROAD", "SR_14": 4.0, "Q_14": 5.0, "name": "UNION CO HEALTH AND REHAB CENTER, INC", "SF_14": 2.0, "SF_15": 2.0, "cnty": "Union", "st": "MS", "Zip": 38652.0, "O_14": 5.0, "Q_15": 4.0, "O_15": 4.0, "city": "NEW ALBANY", "beds": 60.0, "SR_15": 4.0}, {"Diff_star": -1.0, "addr": "804 EAST MAIN STREET", "SR_14": 4.0, "Q_14": 5.0, "name": "DUGAN MEMORIAL HOME", "SF_14": 3.0, "SF_15": 3.0, "cnty": "Clay", "st": "MS", "Zip": 39773.0, "O_14": 5.0, "Q_15": 3.0, "O_15": 4.0, "city": "WEST POINT", "beds": 60.0, "SR_15": 4.0}, {"Diff_star": 0.0, "addr": "1920 LISA DRIVE EXTENDED", "SR_14": 2.0, "Q_14": 5.0, "name": "WASHINGTON CARE CENTER", "SF_14": 4.0, "SF_15": 4.0, "cnty": "Washington", "st": "MS", "Zip": 38703.0, "O_14": 4.0, "Q_15": 5.0, "O_15": 4.0, "city": "GREENVILLE", "beds": 60.0, "SR_15": 2.0}, {"Diff_star": 0.0, "addr": "6615 P0PLAR SPRINGS DR", "SR_14": 1.0, "Q_14": 3.0, "name": "POPLAR SPRINGS NURSING CTR, LLC", "SF_14": 2.0, "SF_15": 2.0, "cnty": "Lauderdale", "st": "MS", "Zip": 39305.0, "O_14": 1.0, "Q_15": 1.0, "O_15": 1.0, "city": "MERIDIAN", "beds": 91.0, "SR_15": 1.0}, {"Diff_star": 0.0, "addr": "11 PECAN DRIVE", "SR_14": 5.0, "Q_14": 1.0, "name": "THE GROVE", "SF_14": 4.0, "SF_15": 4.0, "cnty": "Marion", "st": "MS", "Zip": 39429.0, "O_14": 4.0, "Q_15": 1.0, "O_15": 4.0, "city": "COLUMBIA", "beds": 80.0, "SR_15": 5.0}, {"Diff_star": 0.0, "addr": "830 SOUTH GLOSTER", "SR_14": 5.0, "Q_14": 5.0, "name": "NORTH MISSISSIPPI MED CTR SUB-ACUTE", "SF_14": 5.0, "SF_15": 5.0, "cnty": "Lee", "st": "MS", "Zip": 38801.0, "O_14": 5.0, "Q_15": 5.0, "O_15": 5.0, "city": "TUPELO", "beds": 29.0, "SR_15": 5.0}, {"Diff_star": 0.0, "addr": "25112 HIGHWAY 15, UNION, MS", "SR_14": 4.0, "Q_14": 4.0, "name": "J G ALEXANDER NURSING CENTER", "SF_14": 4.0, "SF_15": 4.0, "cnty": "Newton", "st": "MS", "Zip": 39365.0, "O_14": 4.0, "Q_15": 3.0, "O_15": 4.0, "city": "UNION", "beds": 60.0, "SR_15": 3.0}, {"Diff_star": 0.0, "addr": "1677 HIGHWAY 9 NORTH", "SR_14": 5.0, "Q_14": 5.0, "name": "SUNSHINE HEALTH CARE, INC", "SF_14": 4.0, "SF_15": 4.0, "cnty": "Pontotoc", "st": "MS", "Zip": 38863.0, "O_14": 5.0, "Q_15": 5.0, "O_15": 5.0, "city": "PONTOTOC", "beds": 60.0, "SR_15": 5.0}, {"Diff_star": 0.0, "addr": "100 LAUREN DRIVE", "SR_14": 5.0, "Q_14": 4.0, "name": "LANDMARK NURSING AND REHAB CENTER", "SF_14": 4.0, "SF_15": 4.0, "cnty": "Prentiss", "st": "MS", "Zip": 38829.0, "O_14": 5.0, "Q_15": 3.0, "O_15": 5.0, "city": "BOONEVILLE", "beds": 80.0, "SR_15": 5.0}, {"Diff_star": -1.0, "addr": "514 BAY STREET", "SR_14": 3.0, "Q_14": 3.0, "name": "HATTIESBURG HEALTH & REHAB CENTER", "SF_14": 4.0, "SF_15": 4.0, "cnty": "Forrest", "st": "MS", "Zip": 39401.0, "O_14": 4.0, "Q_15": 1.0, "O_15": 3.0, "city": "HATTIESBURG", "beds": 184.0, "SR_15": 3.0}, {"Diff_star": 0.0, "addr": "725 DUNBAR AVE", "SR_14": 1.0, "Q_14": 3.0, "name": "DUNBAR VILLAGE TERRACE", "SF_14": 5.0, "SF_15": 5.0, "cnty": "Hancock", "st": "MS", "Zip": 39520.0, "O_14": 2.0, "Q_15": 2.0, "O_15": 2.0, "city": "BAY SAINT LOUIS", "beds": 70.0, "SR_15": 1.0}, {"Diff_star": 0.0, "addr": "4347 WEST GAY ROAD", "SR_14": 4.0, "Q_14": 5.0, "name": "GREENBRIAR NURSING CENTER", "SF_14": 5.0, "SF_15": 5.0, "cnty": "Harrison", "st": "MS", "Zip": 39540.0, "O_14": 5.0, "Q_15": 4.0, "O_15": 5.0, "city": "DIBERVILLE", "beds": 106.0, "SR_15": 4.0}, {"Diff_star": 0.0, "addr": "176 HIGHWAY 9 SOUTH  BOX 1280", "SR_14": 1.0, "Q_14": 5.0, "name": "BRUCE COMMUNITY LIVING CENTER", "SF_14": 5.0, "SF_15": 5.0, "cnty": "Calhoun", "st": "MS", "Zip": 38915.0, "O_14": 2.0, "Q_15": 5.0, "O_15": 2.0, "city": "BRUCE", "beds": 35.0, "SR_15": 1.0}, {"Diff_star": 0.0, "addr": "5420 HIGHWAY 80 EAST", "SR_14": 5.0, "Q_14": "", "name": "WISTERIA GARDENS", "SF_14": 4.0, "SF_15": 4.0, "cnty": "Rankin", "st": "MS", "Zip": 39208.0, "O_14": 5.0, "Q_15": 3.0, "O_15": 5.0, "city": "PEARL", "beds": 52.0, "SR_15": 5.0}, {"Diff_star": -1.0, "addr": "1116 FOREST AVENUE", "SR_14": 1.0, "Q_14": 5.0, "name": "COTTAGE GROVE NURSING HOME", "SF_14": 3.0, "SF_15": 3.0, "cnty": "Hinds", "st": "MS", "Zip": 39206.0, "O_14": 2.0, "Q_15": 3.0, "O_15": 1.0, "city": "JACKSON", "beds": 120.0, "SR_15": 1.0}, {"Diff_star": -1.0, "addr": "2041 GRAND AVE", "SR_14": 3.0, "Q_14": 5.0, "name": "MARTHA COKER GREEN HOUSE HOME", "SF_14": 4.0, "SF_15": 4.0, "cnty": "Yazoo", "st": "MS", "Zip": 39194.0, "O_14": 5.0, "Q_15": 4.0, "O_15": 4.0, "city": "YAZOO CITY", "beds": 60.0, "SR_15": 3.0}, {"Diff_star": -2.0, "addr": "6434 A DALE DR", "SR_14": 3.0, "Q_14": 5.0, "name": "BEDFORD CARE CENTER OF MARION", "SF_14": 4.0, "SF_15": 3.0, "cnty": "Lauderdale", "st": "MS", "Zip": 39342.0, "O_14": 5.0, "Q_15": 4.0, "O_15": 3.0, "city": "MARION", "beds": 120.0, "SR_15": 3.0}, {"Diff_star": -1.0, "addr": "1421-A  EAST PEACE STREET/P. O. BOX 488", "SR_14": 1.0, "Q_14": 3.0, "name": "MADISON CO NH", "SF_14": 4.0, "SF_15": 3.0, "cnty": "Madison", "st": "MS", "Zip": 39046.0, "O_14": 2.0, "Q_15": 2.0, "O_15": 1.0, "city": "CANTON", "beds": 95.0, "SR_15": 1.0}, {"Diff_star": -1.0, "addr": "701 SOUTH HOLLY STREET", "SR_14": 3.0, "Q_14": 2.0, "name": "ARRINGTON LIVING CENTER", "SF_14": 5.0, "SF_15": 5.0, "cnty": "Covington", "st": "MS", "Zip": 39428.0, "O_14": 4.0, "Q_15": 1.0, "O_15": 3.0, "city": "COLLINS", "beds": 60.0, "SR_15": 3.0}, {"Diff_star": 0.0, "addr": "15481 BOWLING GREEN ROAD", "SR_14": 3.0, "Q_14": 4.0, "name": "HOLMES COUNTY LONG TERM CARE CENTER - DURANT", "SF_14": 4.0, "SF_15": 4.0, "cnty": "Holmes", "st": "MS", "Zip": 39063.0, "O_14": 4.0, "Q_15": 2.0, "O_15": 4.0, "city": "DURANT", "beds": 70.0, "SR_15": 3.0}, {"Diff_star": -1.0, "addr": "859 WINTER ST", "SR_14": 5.0, "Q_14": 2.0, "name": "GEORGE REGIONAL HEALTH & REHAB CENTER", "SF_14": 5.0, "SF_15": 5.0, "cnty": "George", "st": "MS", "Zip": 39452.0, "O_14": 5.0, "Q_15": 1.0, "O_15": 4.0, "city": "LUCEDALE", "beds": 41.0, "SR_15": 5.0}, {"Diff_star": 0.0, "addr": "1024 HIGHWAY 61 SOUTH", "SR_14": 3.0, "Q_14": 3.0, "name": "TUNICA NURSING HOME, LLC", "SF_14": 4.0, "SF_15": 4.0, "cnty": "Tunica", "st": "MS", "Zip": 38676.0, "O_14": 4.0, "Q_15": 2.0, "O_15": 4.0, "city": "TUNICA", "beds": 60.0, "SR_15": 4.0}, {"Diff_star": 0.0, "addr": "6051 US HIGHWAY 49 SOUTH", "SR_14": 4.0, "Q_14": 5.0, "name": "FORREST GENERAL HOSPITAL SKILLED NURSING UNIT", "SF_14": 5.0, "SF_15": 5.0, "cnty": "Forrest", "st": "MS", "Zip": 39401.0, "O_14": 5.0, "Q_15": 4.0, "O_15": 5.0, "city": "HATTIESBURG", "beds": 20.0, "SR_15": 4.0}, {"Diff_star": -2.0, "addr": "683 COUNTY HOME ROAD", "SR_14": 2.0, "Q_14": 2.0, "name": "JONES CO REST HOME", "SF_14": 4.0, "SF_15": 3.0, "cnty": "Jones", "st": "MS", "Zip": 39437.0, "O_14": 3.0, "Q_15": 1.0, "O_15": 1.0, "city": "ELLISVILLE", "beds": 122.0, "SR_15": 2.0}, {"Diff_star": -1.0, "addr": "6428 US HIGHWAY 11", "SR_14": 3.0, "Q_14": 4.0, "name": "LAMAR HEALTHCARE & REHABILITATION CENTER", "SF_14": 2.0, "SF_15": 2.0, "cnty": "Lamar", "st": "MS", "Zip": 39455.0, "O_14": 3.0, "Q_15": 1.0, "O_15": 2.0, "city": "LUMBERTON", "beds": 120.0, "SR_15": 3.0}, {"Diff_star": -2.0, "addr": "135 HOSPITAL CIRCLE", "SR_14": 3.0, "Q_14": 3.0, "name": "CHOCTAW RESIDENTIAL CENTER", "SF_14": 4.0, "SF_15": 3.0, "cnty": "Neshoba", "st": "MS", "Zip": 39350.0, "O_14": 4.0, "Q_15": 1.0, "O_15": 2.0, "city": "PHILADELPHIA", "beds": 120.0, "SR_15": 3.0}, {"Diff_star": 0.0, "addr": "211 WINDMILL DRIVE", "SR_14": "", "Q_14": "", "name": "NORTH POINTE HEALTH & REHABILITATION", "SF_14": "", "SF_15": "", "cnty": "Lauderdale", "st": "MS", "Zip": 39305.0, "O_14": "", "Q_15": "", "O_15": "", "city": "MERIDIAN", "beds": 60.0, "SR_15": ""}, {"Diff_star": 0.0, "addr": "11240 CANAL ROAD", "SR_14": "", "Q_14": "", "name": "GULFPORT CARE CENTER", "SF_14": "", "SF_15": "", "cnty": "Harrison", "st": "MS", "Zip": 39503.0, "O_14": "", "Q_15": "", "O_15": "", "city": "GULFPORT", "beds": 90.0, "SR_15": ""}, {"Diff_star": 0.0, "addr": "1451 NORTH LAKELAND DRIVE/PO BOX 4128", "SR_14": 1.0, "Q_14": 4.0, "name": "REGINALD P WHITE NURSING FACILITY", "SF_14": 4.0, "SF_15": 4.0, "cnty": "Lauderdale", "st": "MS", "Zip": 39307.0, "O_14": 2.0, "Q_15": 3.0, "O_15": 2.0, "city": "MERIDIAN", "beds": 105.0, "SR_15": 1.0}, {"Diff_star": -1.0, "addr": "305 WEST MOODY STREET", "SR_14": 1.0, "Q_14": 2.0, "name": "PEARL RIVER CO NURSING HOME", "SF_14": 5.0, "SF_15": 5.0, "cnty": "Pearl River", "st": "MS", "Zip": 39470.0, "O_14": 2.0, "Q_15": 1.0, "O_15": 1.0, "city": "POPLARVILLE", "beds": 120.0, "SR_15": 1.0}, {"Diff_star": 0.0, "addr": "512 ROCKWELL DRIVE / PO BOX 420", "SR_14": 1.0, "Q_14": 4.0, "name": "SHEARER-RICHARDSON MEMORIAL NURSING HOME", "SF_14": 4.0, "SF_15": 4.0, "cnty": "Chickasaw", "st": "MS", "Zip": 38860.0, "O_14": 2.0, "Q_15": 2.0, "O_15": 2.0, "city": "OKOLONA", "beds": 73.0, "SR_15": 1.0}, {"Diff_star": -1.0, "addr": "630 SOUTH MAIN STREET/P. O. BOX 728", "SR_14": 4.0, "Q_14": 5.0, "name": "YALOBUSHA COUNTY NURSING HOME", "SF_14": 4.0, "SF_15": 4.0, "cnty": "Yalobusha", "st": "MS", "Zip": 38965.0, "O_14": 5.0, "Q_15": 3.0, "O_15": 4.0, "city": "WATER VALLEY", "beds": 122.0, "SR_15": 4.0}, {"Diff_star": 0.0, "addr": "15 A SOUTH SIXTH STREET", "SR_14": 3.0, "Q_14": 4.0, "name": "JASPER CO NH", "SF_14": 5.0, "SF_15": 5.0, "cnty": "Jasper", "st": "MS", "Zip": 39422.0, "O_14": 4.0, "Q_15": 2.0, "O_15": 4.0, "city": "BAY SPRINGS", "beds": 110.0, "SR_15": 3.0}, {"Diff_star": -1.0, "addr": "901 E SUNFLOWER RD/PO BOX 1380", "SR_14": 3.0, "Q_14": 2.0, "name": "BOLIVAR MEDICAL CENTER LTC", "SF_14": 3.0, "SF_15": 3.0, "cnty": "Bolivar", "st": "MS", "Zip": 38732.0, "O_14": 3.0, "Q_15": 1.0, "O_15": 2.0, "city": "CLEVELAND", "beds": 35.0, "SR_15": 3.0}, {"Diff_star": 0.0, "addr": "201 SOUTH MARKET ST/P. O. BOX 230", "SR_14": 2.0, "Q_14": 3.0, "name": "TALLAHATCHIE GENERAL HOSP ECF", "SF_14": 1.0, "SF_15": 1.0, "cnty": "Tallahatchie", "st": "MS", "Zip": 38921.0, "O_14": 1.0, "Q_15": 1.0, "O_15": 1.0, "city": "CHARLESTON", "beds": 98.0, "SR_15": 2.0}, {"Diff_star": 0.0, "addr": "3550 HIGHWAY 468 WEST-  PO BOX207/BLDGS 69 AND 78", "SR_14": 4.0, "Q_14": 4.0, "name": "JNH-JAQUITH INN", "SF_14": 4.0, "SF_15": 4.0, "cnty": "Rankin", "st": "MS", "Zip": 39193.0, "O_14": 4.0, "Q_15": 2.0, "O_15": 4.0, "city": "WHITFIELD", "beds": 87.0, "SR_15": 4.0}, {"Diff_star": 0.0, "addr": "152 BURKE CC RD", "SR_14": 2.0, "Q_14": 4.0, "name": "CALHOUN CO NH", "SF_14": 4.0, "SF_15": 4.0, "cnty": "Calhoun", "st": "MS", "Zip": 38916.0, "O_14": 3.0, "Q_15": 2.0, "O_15": 3.0, "city": "CALHOUN CITY", "beds": 120.0, "SR_15": 2.0}, {"Diff_star": 0.0, "addr": "310 ELLIS STREET", "SR_14": 2.0, "Q_14": 3.0, "name": "BAPTIST LEAKE EXTENDED CARE FACILITY", "SF_14": 3.0, "SF_15": 3.0, "cnty": "Leake", "st": "MS", "Zip": 39051.0, "O_14": 2.0, "Q_15": 2.0, "O_15": 2.0, "city": "CARTHAGE", "beds": 44.0, "SR_15": 2.0}, {"Diff_star": 0.0, "addr": "606 NORTH JEFFERSON STREET", "SR_14": 5.0, "Q_14": 4.0, "name": "NOXUBEE COUNTY NURSING HOME", "SF_14": 5.0, "SF_15": 5.0, "cnty": "Noxubee", "st": "MS", "Zip": 39341.0, "O_14": 5.0, "Q_15": 3.0, "O_15": 5.0, "city": "MACON", "beds": 60.0, "SR_15": 5.0}, {"Diff_star": -1.0, "addr": "350 GETWELL DRIVE", "SR_14": 1.0, "Q_14": 2.0, "name": "QUITMAN COUNTY NURSING HOME", "SF_14": 4.0, "SF_15": 4.0, "cnty": "Quitman", "st": "MS", "Zip": 38646.0, "O_14": 2.0, "Q_15": 1.0, "O_15": 1.0, "city": "MARKS", "beds": 60.0, "SR_15": 1.0}, {"Diff_star": 0.0, "addr": "176 SOUTH MAIN STREET", "SR_14": 4.0, "Q_14": 4.0, "name": "NMMC - PONTOTOC NURSING HOME", "SF_14": 4.0, "SF_15": 4.0, "cnty": "Pontotoc", "st": "MS", "Zip": 38863.0, "O_14": 4.0, "Q_15": 4.0, "O_15": 4.0, "city": "PONTOTOC", "beds": 44.0, "SR_15": 4.0}, {"Diff_star": 0.0, "addr": "1100 WEST DRIVE", "SR_14": 4.0, "Q_14": 4.0, "name": "COMFORT CARE NURSING CENTER", "SF_14": 2.0, "SF_15": 2.0, "cnty": "Jones", "st": "MS", "Zip": 39440.0, "O_14": 4.0, "Q_15": 3.0, "O_15": 4.0, "city": "LAUREL", "beds": 126.0, "SR_15": 4.0}, {"Diff_star": 0.0, "addr": "70 MEDICAL PLAZA", "SR_14": 4.0, "Q_14": 1.0, "name": "WEBSTER HEALTH SERVICES, INC", "SF_14": 3.0, "SF_15": 3.0, "cnty": "Webster", "st": "MS", "Zip": 39744.0, "O_14": 3.0, "Q_15": 1.0, "O_15": 3.0, "city": "EUPORA", "beds": 36.0, "SR_15": 4.0}, {"Diff_star": 1.0, "addr": "309 MAGNOLIA DR/HIGHWAY 35 SOUTH", "SR_14": 2.0, "Q_14": 1.0, "name": "MS CARE CENTER OF RALEIGH", "SF_14": 4.0, "SF_15": 5.0, "cnty": "Smith", "st": "MS", "Zip": 39153.0, "O_14": 2.0, "Q_15": 1.0, "O_15": 3.0, "city": "RALEIGH", "beds": 121.0, "SR_15": 3.0}, {"Diff_star": 0.0, "addr": "3550 HWY 468 WEST/PO BOX 207, BLDGS 40 AND 41", "SR_14": 5.0, "Q_14": 4.0, "name": "JNH-MONROE INN", "SF_14": 4.0, "SF_15": 4.0, "cnty": "Rankin", "st": "MS", "Zip": 39193.0, "O_14": 5.0, "Q_15": 2.0, "O_15": 5.0, "city": "WHITFIELD", "beds": 44.0, "SR_15": 5.0}, {"Diff_star": -1.0, "addr": "3550 HWY 468 WEST - PO BOX 207 BLDGS 29 &33", "SR_14": 2.0, "Q_14": 5.0, "name": "JNH-JEFFERSON INN", "SF_14": 4.0, "SF_15": 4.0, "cnty": "Rankin", "st": "MS", "Zip": 39193.0, "O_14": 4.0, "Q_15": 3.0, "O_15": 3.0, "city": "WHITFIELD", "beds": 86.0, "SR_15": 2.0}, {"Diff_star": 0.0, "addr": "3550 HIGHWAY 468 WEST PO BOX 207, BUILDING 31 & 48", "SR_14": 4.0, "Q_14": 4.0, "name": "JNH-ADAMS INN", "SF_14": 4.0, "SF_15": 4.0, "cnty": "Rankin", "st": "MS", "Zip": 39193.0, "O_14": 4.0, "Q_15": 3.0, "O_15": 4.0, "city": "WHITFIELD", "beds": 133.0, "SR_15": 4.0}, {"Diff_star": 0.0, "addr": "3550 HIGHWAY 468 WEST PO BOX 207 BLGS 28 &34", "SR_14": 5.0, "Q_14": 5.0, "name": "JNH-MADISON INN", "SF_14": 4.0, "SF_15": 4.0, "cnty": "Rankin", "st": "MS", "Zip": 39193.0, "O_14": 5.0, "Q_15": 4.0, "O_15": 5.0, "city": "WHITFIELD", "beds": 85.0, "SR_15": 5.0}, {"Diff_star": 0.0, "addr": "1 LAYFAIR DRIVE SUITE 500", "SR_14": 4.0, "Q_14": 3.0, "name": "METHODIST SPECIALTY CARE CENTER", "SF_14": 5.0, "SF_15": 5.0, "cnty": "Rankin", "st": "MS", "Zip": 39232.0, "O_14": 5.0, "Q_15": 3.0, "O_15": 5.0, "city": "FLOWOOD", "beds": 60.0, "SR_15": 4.0}, {"Diff_star": 0.0, "addr": "300 B CAHAL STREET", "SR_14": 5.0, "Q_14": 5.0, "name": "BEDFORD ALZHEIMER'S CARE CENTER, LLC", "SF_14": 5.0, "SF_15": 5.0, "cnty": "Forrest", "st": "MS", "Zip": 39401.0, "O_14": 5.0, "Q_15": 4.0, "O_15": 5.0, "city": "HATTIESBURG", "beds": 20.0, "SR_15": 5.0}, {"Diff_star": 0.0, "addr": "1455 NORTH LAKELAND DRIVE", "SR_14": 5.0, "Q_14": 3.0, "name": "JAMES T CHAMPION", "SF_14": 5.0, "SF_15": 5.0, "cnty": "Lauderdale", "st": "MS", "Zip": 39307.0, "O_14": 5.0, "Q_15": 2.0, "O_15": 5.0, "city": "MERIDIAN", "beds": 105.0, "SR_15": 5.0}, {"Diff_star": 0.0, "addr": "311 WEST CHERRY STREET", "SR_14": 1.0, "Q_14": 5.0, "name": "CHOCTAW COUNTY  NURSING CENTER", "SF_14": 4.0, "SF_15": 4.0, "cnty": "Choctaw", "st": "MS", "Zip": 39735.0, "O_14": 2.0, "Q_15": 4.0, "O_15": 2.0, "city": "ACKERMAN", "beds": 60.0, "SR_15": 1.0}, {"Diff_star": 0.0, "addr": "2101 EAST PROPER STREET", "SR_14": 4.0, "Q_14": 4.0, "name": "WHITFIELD NURSING HOME", "SF_14": 5.0, "SF_15": 5.0, "cnty": "Alcorn", "st": "MS", "Zip": 38834.0, "O_14": 5.0, "Q_15": 3.0, "O_15": 5.0, "city": "CORINTH", "beds": 44.0, "SR_15": 4.0}, {"Diff_star": 0.0, "addr": "209 OAK CIRCLE/P. O. BOX 198", "SR_14": 1.0, "Q_14": 5.0, "name": "OAK GROVE RETIREMENT HOME", "SF_14": 2.0, "SF_15": 2.0, "cnty": "Bolivar", "st": "MS", "Zip": 38740.0, "O_14": 2.0, "Q_15": 5.0, "O_15": 2.0, "city": "DUNCAN", "beds": 60.0, "SR_15": 1.0}]