[{"Diff_star": 0.0, "addr": "401 LAMBERT ROAD P O BOX 708", "SR_14": 1.0, "Q_14": 5.0, "name": "AUTUMN CARE OF BISCOE", "SF_14": 2.0, "SF_15": 2.0, "cnty": "Montgomery", "st": "NC", "Zip": 27209.0, "O_14": 2.0, "Q_15": 5.0, "O_15": 2.0, "city": "BISCOE", "beds": 141.0, "SR_15": 1.0}, {"Diff_star": 0.0, "addr": "1417 W PETTIGREW STREET", "SR_14": 5.0, "Q_14": 4.0, "name": "HILLCREST CONVALESCENT CENTER", "SF_14": "", "SF_15": "", "cnty": "Durham", "st": "NC", "Zip": 27705.0, "O_14": 5.0, "Q_15": 4.0, "O_15": 5.0, "city": "DURHAM", "beds": 73.0, "SR_15": 5.0}, {"Diff_star": -2.0, "addr": "2006 S 16TH STREET", "SR_14": 2.0, "Q_14": 3.0, "name": "CYPRESS POINTE REHABILITATION CENTER", "SF_14": 4.0, "SF_15": 3.0, "cnty": "New Hanover", "st": "NC", "Zip": 28401.0, "O_14": 3.0, "Q_15": 1.0, "O_15": 1.0, "city": "WILMINGTON", "beds": 90.0, "SR_15": 2.0}, {"Diff_star": 0.0, "addr": "3350 SILAS CREEK PARKWAY", "SR_14": 5.0, "Q_14": 3.0, "name": "SILAS CREEK REHABILITATION CENTER", "SF_14": 2.0, "SF_15": 2.0, "cnty": "Forsyth", "st": "NC", "Zip": 27103.0, "O_14": 5.0, "Q_15": 2.0, "O_15": 5.0, "city": "WINSTON-SALEM", "beds": 90.0, "SR_15": 5.0}, {"Diff_star": 0.0, "addr": "615 RIDGE ROAD", "SR_14": 1.0, "Q_14": 4.0, "name": "PERSON MEMORIAL HOSPITAL", "SF_14": 3.0, "SF_15": 3.0, "cnty": "Person", "st": "NC", "Zip": 27573.0, "O_14": 1.0, "Q_15": 3.0, "O_15": 1.0, "city": "ROXBORO", "beds": 60.0, "SR_15": 1.0}, {"Diff_star": 0.0, "addr": "3724 WIRELESS DRIVE", "SR_14": 2.0, "Q_14": 5.0, "name": "BLUMENTHAL NURSING & REHABILITATION CENTER", "SF_14": 1.0, "SF_15": 1.0, "cnty": "Guilford", "st": "NC", "Zip": 27455.0, "O_14": 2.0, "Q_15": 5.0, "O_15": 2.0, "city": "GREENSBORO", "beds": 126.0, "SR_15": 2.0}, {"Diff_star": 0.0, "addr": "300 PROVIDENCE ROAD", "SR_14": 1.0, "Q_14": 4.0, "name": "GOLDEN LIVINGCENTER - DARTMOUTH", "SF_14": 4.0, "SF_15": 4.0, "cnty": "Mecklenburg", "st": "NC", "Zip": 28207.0, "O_14": 2.0, "Q_15": 1.0, "O_15": 2.0, "city": "CHARLOTTE", "beds": 133.0, "SR_15": 2.0}, {"Diff_star": 0.0, "addr": "513 EAST WHITAKER MILL ROAD", "SR_14": 5.0, "Q_14": 5.0, "name": "THE OAKS AT MAYVIEW", "SF_14": 3.0, "SF_15": 3.0, "cnty": "Wake", "st": "NC", "Zip": 27608.0, "O_14": 5.0, "Q_15": 5.0, "O_15": 5.0, "city": "RALEIGH", "beds": 51.0, "SR_15": 5.0}, {"Diff_star": 0.0, "addr": "500 BEAVERDAM ROAD", "SR_14": 1.0, "Q_14": 4.0, "name": "GOLDEN LIVINGCENTER - ASHEVILLE", "SF_14": 2.0, "SF_15": 2.0, "cnty": "Buncombe", "st": "NC", "Zip": 28804.0, "O_14": 1.0, "Q_15": 2.0, "O_15": 1.0, "city": "ASHEVILLE", "beds": 77.0, "SR_15": 1.0}, {"Diff_star": 1.0, "addr": "279 BRIAN CENTER DRIVE", "SR_14": 2.0, "Q_14": 3.0, "name": "BRIAN CENTER NURSING CARE/LEXI", "SF_14": 1.0, "SF_15": 2.0, "cnty": "Davidson", "st": "NC", "Zip": 27292.0, "O_14": 1.0, "Q_15": 2.0, "O_15": 2.0, "city": "LEXINGTON", "beds": 106.0, "SR_15": 2.0}, {"Diff_star": -1.0, "addr": "3223 CENTRAL AVENUE", "SR_14": 3.0, "Q_14": 5.0, "name": "PEAK RESOURCES - CHARLOTTE", "SF_14": 4.0, "SF_15": 4.0, "cnty": "Mecklenburg", "st": "NC", "Zip": 28205.0, "O_14": 5.0, "Q_15": 4.0, "O_15": 4.0, "city": "CHARLOTTE", "beds": 139.0, "SR_15": 3.0}, {"Diff_star": 0.0, "addr": "1201 CAROLINA STREET", "SR_14": 2.0, "Q_14": 4.0, "name": "GOLDEN LIVINGCENTER - GREENSBORO", "SF_14": 2.0, "SF_15": 2.0, "cnty": "Guilford", "st": "NC", "Zip": 27401.0, "O_14": 2.0, "Q_15": 2.0, "O_15": 2.0, "city": "GREENSBORO", "beds": 105.0, "SR_15": 2.0}, {"Diff_star": 0.0, "addr": "500 MOUNTAIN TOP DRIVE", "SR_14": 4.0, "Q_14": 3.0, "name": "CLAPPS CONVALESCENT NH", "SF_14": 2.0, "SF_15": 2.0, "cnty": "Randolph", "st": "NC", "Zip": 27203.0, "O_14": 4.0, "Q_15": 2.0, "O_15": 4.0, "city": "ASHEBORO", "beds": 96.0, "SR_15": 4.0}, {"Diff_star": -2.0, "addr": "5229 APPOMATTOX ROAD", "SR_14": 3.0, "Q_14": 5.0, "name": "CLAPPS NURSING CENTER INC", "SF_14": 3.0, "SF_15": 1.0, "cnty": "Guilford", "st": "NC", "Zip": 27313.0, "O_14": 4.0, "Q_15": 4.0, "O_15": 2.0, "city": "PLEASANT GARDEN", "beds": 118.0, "SR_15": 3.0}, {"Diff_star": 0.0, "addr": "2700 ROYAL COMMONS LANE", "SR_14": 2.0, "Q_14": 4.0, "name": "ROYAL PARK REHAB & HEALTH CTR OF MATTHEWS", "SF_14": 1.0, "SF_15": 1.0, "cnty": "Mecklenburg", "st": "NC", "Zip": 28105.0, "O_14": 1.0, "Q_15": 3.0, "O_15": 1.0, "city": "MATTHEWS", "beds": 169.0, "SR_15": 2.0}, {"Diff_star": -1.0, "addr": "1075 US HIGHWAY 17 SOUTH", "SR_14": 2.0, "Q_14": 5.0, "name": "W R WINSLOW MEMORIAL HOME", "SF_14": 3.0, "SF_15": 3.0, "cnty": "Pasquotank", "st": "NC", "Zip": 27909.0, "O_14": 3.0, "Q_15": 3.0, "O_15": 2.0, "city": "ELIZABETH CITY", "beds": 146.0, "SR_15": 2.0}, {"Diff_star": 0.0, "addr": "5755 SHATTALON DRIVE", "SR_14": 1.0, "Q_14": 5.0, "name": "LIBERTY COMMONS NSG & REHAB CTR OF SPRINGWOOD", "SF_14": 1.0, "SF_15": 1.0, "cnty": "Forsyth", "st": "NC", "Zip": 27105.0, "O_14": 2.0, "Q_15": 5.0, "O_15": 2.0, "city": "WINSTON-SALEM", "beds": 127.0, "SR_15": 1.0}, {"Diff_star": 0.0, "addr": "103 GOSSMAN DRIVE", "SR_14": 2.0, "Q_14": 4.0, "name": "ST JOSEPH OF THE PINES HEALTH", "SF_14": 3.0, "SF_15": 3.0, "cnty": "Moore", "st": "NC", "Zip": 28387.0, "O_14": 2.0, "Q_15": 3.0, "O_15": 2.0, "city": "SOUTHERN PINES", "beds": 176.0, "SR_15": 2.0}, {"Diff_star": 0.0, "addr": "418 CHESTNUT STREET", "SR_14": 3.0, "Q_14": 3.0, "name": "BLOWING ROCK REHAB DAVANT EXTENDED CARE CTR", "SF_14": 5.0, "SF_15": 5.0, "cnty": "Watauga", "st": "NC", "Zip": 28605.0, "O_14": 4.0, "Q_15": 2.0, "O_15": 4.0, "city": "BLOWING ROCK", "beds": 72.0, "SR_15": 3.0}, {"Diff_star": -1.0, "addr": "611 OLD US HIGHWAY 70 EAST", "SR_14": 1.0, "Q_14": 4.0, "name": "MOUNTAIN RIDGE HEALTH AND REHAB", "SF_14": 4.0, "SF_15": 3.0, "cnty": "Buncombe", "st": "NC", "Zip": 28711.0, "O_14": 2.0, "Q_15": 3.0, "O_15": 1.0, "city": "BLACK MOUNTAIN", "beds": 100.0, "SR_15": 1.0}, {"Diff_star": 0.0, "addr": "616 WADE AVENUE", "SR_14": 3.0, "Q_14": 4.0, "name": "RALEIGH REHABILITATION CENTER", "SF_14": 4.0, "SF_15": 4.0, "cnty": "Wake", "st": "NC", "Zip": 27605.0, "O_14": 4.0, "Q_15": 2.0, "O_15": 4.0, "city": "RALEIGH", "beds": 157.0, "SR_15": 3.0}, {"Diff_star": -1.0, "addr": "1721 BALD HILL LOOP", "SR_14": 3.0, "Q_14": 5.0, "name": "JACOB'S CREEK NURSING AND REHABILITATION CENTER", "SF_14": 3.0, "SF_15": 3.0, "cnty": "Rockingham", "st": "NC", "Zip": 27025.0, "O_14": 4.0, "Q_15": 4.0, "O_15": 3.0, "city": "MADISON", "beds": 170.0, "SR_15": 3.0}, {"Diff_star": 0.0, "addr": "405 SOUTH GREENE STREET", "SR_14": 1.0, "Q_14": 5.0, "name": "ANSON HEALTH AND REHABILITATION", "SF_14": 1.0, "SF_15": 1.0, "cnty": "Anson", "st": "NC", "Zip": 28170.0, "O_14": 2.0, "Q_15": 5.0, "O_15": 2.0, "city": "WADESBORO", "beds": 95.0, "SR_15": 1.0}, {"Diff_star": 0.0, "addr": "1515 W PETTIGREW STREET", "SR_14": 4.0, "Q_14": 4.0, "name": "PETTIGREW REHABILITATION CENTER", "SF_14": 4.0, "SF_15": 3.0, "cnty": "Durham", "st": "NC", "Zip": 27705.0, "O_14": 4.0, "Q_15": 3.0, "O_15": 4.0, "city": "DURHAM", "beds": 96.0, "SR_15": 4.0}, {"Diff_star": 0.0, "addr": "1150 PINE RUN DRIVE", "SR_14": 2.0, "Q_14": 4.0, "name": "WOODHAVEN NURS & ALZHEIMER'S C", "SF_14": 4.0, "SF_15": 4.0, "cnty": "Robeson", "st": "NC", "Zip": 28358.0, "O_14": 3.0, "Q_15": 3.0, "O_15": 3.0, "city": "LUMBERTON", "beds": 115.0, "SR_15": 2.0}, {"Diff_star": 0.0, "addr": "3100 ERWIN ROAD", "SR_14": 1.0, "Q_14": 5.0, "name": "PRUITTHEALTH-DURHAM", "SF_14": 4.0, "SF_15": 4.0, "cnty": "Durham", "st": "NC", "Zip": 27705.0, "O_14": 2.0, "Q_15": 5.0, "O_15": 2.0, "city": "DURHAM", "beds": 125.0, "SR_15": 1.0}, {"Diff_star": -1.0, "addr": "1804 FOREST HILLS ROAD", "SR_14": 4.0, "Q_14": 5.0, "name": "AVANTE AT WILSON", "SF_14": 3.0, "SF_15": 3.0, "cnty": "Wilson", "st": "NC", "Zip": 27893.0, "O_14": 5.0, "Q_15": 4.0, "O_15": 4.0, "city": "WILSON", "beds": 110.0, "SR_15": 4.0}, {"Diff_star": 0.0, "addr": "4748 OLD SALISBURY ROAD", "SR_14": 4.0, "Q_14": 5.0, "name": "ALSTON BROOK", "SF_14": 4.0, "SF_15": 4.0, "cnty": "Davidson", "st": "NC", "Zip": 27292.0, "O_14": 5.0, "Q_15": 5.0, "O_15": 5.0, "city": "LEXINGTON", "beds": 100.0, "SR_15": 4.0}, {"Diff_star": -1.0, "addr": "411 S LASALLE STREET", "SR_14": 1.0, "Q_14": 3.0, "name": "DURHAM NURSING & REHABILITATION CENTER", "SF_14": 4.0, "SF_15": 4.0, "cnty": "Durham", "st": "NC", "Zip": 27705.0, "O_14": 2.0, "Q_15": 1.0, "O_15": 1.0, "city": "DURHAM", "beds": 120.0, "SR_15": 1.0}, {"Diff_star": -1.0, "addr": "1839 ONSLOW DRIVE EXTENSION", "SR_14": 1.0, "Q_14": 5.0, "name": "CAROLINA RIVERS NURSING AND REHABILITATION CENTER", "SF_14": 3.0, "SF_15": 3.0, "cnty": "Onslow", "st": "NC", "Zip": 28540.0, "O_14": 2.0, "Q_15": 4.0, "O_15": 1.0, "city": "JACKSONVILLE", "beds": 120.0, "SR_15": 1.0}, {"Diff_star": -1.0, "addr": "25 SUNNYBROOK ROAD", "SR_14": 4.0, "Q_14": 5.0, "name": "SUNNYBROOK REHABILITATION CENTER", "SF_14": 4.0, "SF_15": 4.0, "cnty": "Wake", "st": "NC", "Zip": 27610.0, "O_14": 5.0, "Q_15": 4.0, "O_15": 4.0, "city": "RALEIGH", "beds": 95.0, "SR_15": 4.0}, {"Diff_star": 0.0, "addr": "200 TABERNACLE ROAD", "SR_14": 2.0, "Q_14": 5.0, "name": "HIGHLAND FARMS", "SF_14": 5.0, "SF_15": 5.0, "cnty": "Buncombe", "st": "NC", "Zip": 28711.0, "O_14": 4.0, "Q_15": 5.0, "O_15": 4.0, "city": "BLACK MOUNTAIN", "beds": 60.0, "SR_15": 2.0}, {"Diff_star": 0.0, "addr": "220 13TH AVENUE PLACE NW", "SR_14": 2.0, "Q_14": 5.0, "name": "BRIAN CENTER HEALTH & REHAB HICKORY VIEWMONT", "SF_14": 2.0, "SF_15": 2.0, "cnty": "Catawba", "st": "NC", "Zip": 28601.0, "O_14": 3.0, "Q_15": 5.0, "O_15": 3.0, "city": "HICKORY", "beds": 104.0, "SR_15": 2.0}, {"Diff_star": 0.0, "addr": "4230 NORTH ROXBORO ROAD", "SR_14": 4.0, "Q_14": 4.0, "name": "KINDRED TRANSITIONAL CARE & REHAB-ROSE MANOR", "SF_14": 4.0, "SF_15": 4.0, "cnty": "Durham", "st": "NC", "Zip": 27704.0, "O_14": 4.0, "Q_15": 2.0, "O_15": 4.0, "city": "DURHAM", "beds": 111.0, "SR_15": 4.0}, {"Diff_star": -1.0, "addr": "188 OSCAR JUSTICE ROAD", "SR_14": 4.0, "Q_14": 2.0, "name": "WHITE OAK MANOR - RUTHERFORDTO", "SF_14": 4.0, "SF_15": 3.0, "cnty": "Rutherford", "st": "NC", "Zip": 28139.0, "O_14": 4.0, "Q_15": 1.0, "O_15": 3.0, "city": "RUTHERFORDTON", "beds": 80.0, "SR_15": 4.0}, {"Diff_star": -1.0, "addr": "849 WATER WORKS ROAD", "SR_14": 2.0, "Q_14": 5.0, "name": "TRINITY GLEN", "SF_14": 4.0, "SF_15": 4.0, "cnty": "Forsyth", "st": "NC", "Zip": 27105.0, "O_14": 4.0, "Q_15": 2.0, "O_15": 3.0, "city": "WINSTON-SALEM", "beds": 217.0, "SR_15": 2.0}, {"Diff_star": 1.0, "addr": "511 WINDMILL STREET", "SR_14": 2.0, "Q_14": 3.0, "name": "WALNUT COVE HEALTH AND REHABILITATION CENTER", "SF_14": 1.0, "SF_15": 2.0, "cnty": "Stokes", "st": "NC", "Zip": 27052.0, "O_14": 1.0, "Q_15": 2.0, "O_15": 2.0, "city": "WALNUT COVE", "beds": 90.0, "SR_15": 2.0}, {"Diff_star": 0.0, "addr": "1795 WESTCHESTER DRIVE", "SR_14": 1.0, "Q_14": 5.0, "name": "WESTCHESTER MANOR AT PROVIDENCE PLACE", "SF_14": 2.0, "SF_15": 2.0, "cnty": "Guilford", "st": "NC", "Zip": 27262.0, "O_14": 2.0, "Q_15": 5.0, "O_15": 2.0, "city": "HIGH POINT", "beds": 129.0, "SR_15": 1.0}, {"Diff_star": 0.0, "addr": "1820 BROOKWOOD AVENUE", "SR_14": 5.0, "Q_14": 5.0, "name": "EDGEWOOD PLACE AT THE VILLAGE AT BROOKWOOD", "SF_14": 5.0, "SF_15": 4.0, "cnty": "Alamance", "st": "NC", "Zip": 27215.0, "O_14": 5.0, "Q_15": 4.0, "O_15": 5.0, "city": "BURLINGTON", "beds": 105.0, "SR_15": 5.0}, {"Diff_star": -1.0, "addr": "1900 W 1ST STREET", "SR_14": 2.0, "Q_14": 2.0, "name": "WINSTON SALEM NURSING & REHABILITATION CENTER", "SF_14": 3.0, "SF_15": 3.0, "cnty": "Forsyth", "st": "NC", "Zip": 27104.0, "O_14": 2.0, "Q_15": 1.0, "O_15": 1.0, "city": "WINSTON-SALEM", "beds": 230.0, "SR_15": 2.0}, {"Diff_star": 0.0, "addr": "1315 GREENSBORO ROAD", "SR_14": 5.0, "Q_14": 3.0, "name": "MARYFIELD NURSING HOME", "SF_14": 4.0, "SF_15": 4.0, "cnty": "Guilford", "st": "NC", "Zip": 27260.0, "O_14": 5.0, "Q_15": 3.0, "O_15": 5.0, "city": "HIGH POINT", "beds": 115.0, "SR_15": 5.0}, {"Diff_star": 0.0, "addr": "700 JOHNSON RIDGE ROAD", "SR_14": 2.0, "Q_14": 3.0, "name": "CHATHAM NURSING & REHABILITATION", "SF_14": 4.0, "SF_15": 4.0, "cnty": "Surry", "st": "NC", "Zip": 28621.0, "O_14": 3.0, "Q_15": 2.0, "O_15": 3.0, "city": "ELKIN", "beds": 99.0, "SR_15": 2.0}, {"Diff_star": 0.0, "addr": "12019 VERHOEFF DRIVE", "SR_14": 4.0, "Q_14": 4.0, "name": "HUNTERSVILLE OAKS", "SF_14": 4.0, "SF_15": 4.0, "cnty": "Mecklenburg", "st": "NC", "Zip": 28078.0, "O_14": 4.0, "Q_15": 2.0, "O_15": 4.0, "city": "HUNTERSVILLE", "beds": 270.0, "SR_15": 4.0}, {"Diff_star": 0.0, "addr": "1411 DOVE STREET", "SR_14": 2.0, "Q_14": 4.0, "name": "JESSE HELMS NURSING CENTER", "SF_14": 4.0, "SF_15": 4.0, "cnty": "Union", "st": "NC", "Zip": 28111.0, "O_14": 3.0, "Q_15": 3.0, "O_15": 3.0, "city": "MONROE", "beds": 70.0, "SR_15": 2.0}, {"Diff_star": 0.0, "addr": "208 CARY STREET", "SR_14": 1.0, "Q_14": 4.0, "name": "ENFIELD OAKS NURSING AND REHABILITATION CENTER", "SF_14": 1.0, "SF_15": 1.0, "cnty": "Halifax", "st": "NC", "Zip": 27823.0, "O_14": 1.0, "Q_15": 2.0, "O_15": 1.0, "city": "ENFIELD", "beds": 54.0, "SR_15": 1.0}, {"Diff_star": -2.0, "addr": "75 FISHER LOOP", "SR_14": 2.0, "Q_14": 3.0, "name": "MAGGIE VALLEY NURSING AND REHABILITATION", "SF_14": 4.0, "SF_15": 3.0, "cnty": "Haywood", "st": "NC", "Zip": 28751.0, "O_14": 3.0, "Q_15": 1.0, "O_15": 1.0, "city": "MAGGIE VALLEY", "beds": 114.0, "SR_15": 2.0}, {"Diff_star": 0.0, "addr": "600 FULLWOOD LANE", "SR_14": 4.0, "Q_14": 5.0, "name": "CARRINGTON PLACE", "SF_14": 3.0, "SF_15": 3.0, "cnty": "Mecklenburg", "st": "NC", "Zip": 28105.0, "O_14": 5.0, "Q_15": 5.0, "O_15": 5.0, "city": "MATTHEWS", "beds": 166.0, "SR_15": 4.0}, {"Diff_star": 0.0, "addr": "509 WEST GANNON AVENUE", "SR_14": 4.0, "Q_14": 5.0, "name": "ZEBULON REHABILITATION CENTER", "SF_14": 3.0, "SF_15": 3.0, "cnty": "Wake", "st": "NC", "Zip": 27597.0, "O_14": 5.0, "Q_15": 5.0, "O_15": 5.0, "city": "ZEBULON", "beds": 60.0, "SR_15": 4.0}, {"Diff_star": -1.0, "addr": "3830 N MAIN STREET", "SR_14": 1.0, "Q_14": 5.0, "name": "UNIHEALTH POST-ACUTE CARE-HIGH POINT", "SF_14": 2.0, "SF_15": 2.0, "cnty": "Forsyth", "st": "NC", "Zip": 27265.0, "O_14": 2.0, "Q_15": 3.0, "O_15": 1.0, "city": "HIGH POINT", "beds": 100.0, "SR_15": 1.0}, {"Diff_star": -1.0, "addr": "2140 MEDICAL PARK DRIVE", "SR_14": 4.0, "Q_14": 5.0, "name": "TRINITY RIDGE", "SF_14": 4.0, "SF_15": 4.0, "cnty": "Catawba", "st": "NC", "Zip": 28602.0, "O_14": 5.0, "Q_15": 4.0, "O_15": 4.0, "city": "HICKORY", "beds": 120.0, "SR_15": 4.0}, {"Diff_star": 0.0, "addr": "24724 US HIGHWAY 52 SOUTH", "SR_14": 3.0, "Q_14": 4.0, "name": "TRINITY PLACE", "SF_14": 4.0, "SF_15": 4.0, "cnty": "Stanly", "st": "NC", "Zip": 28001.0, "O_14": 4.0, "Q_15": 2.0, "O_15": 4.0, "city": "ALBEMARLE", "beds": 76.0, "SR_15": 3.0}, {"Diff_star": 0.0, "addr": "360 OLD BALSAM ROAD", "SR_14": 4.0, "Q_14": 3.0, "name": "AUTUMN CARE OF WAYNESVILLE", "SF_14": 3.0, "SF_15": 3.0, "cnty": "Haywood", "st": "NC", "Zip": 28786.0, "O_14": 4.0, "Q_15": 2.0, "O_15": 4.0, "city": "WAYNESVILLE", "beds": 90.0, "SR_15": 4.0}, {"Diff_star": 0.0, "addr": "500 EAST RHODE ISLAND AVENUE", "SR_14": 2.0, "Q_14": 4.0, "name": "PENICK VILLAGE", "SF_14": 4.0, "SF_15": 4.0, "cnty": "Moore", "st": "NC", "Zip": 28387.0, "O_14": 3.0, "Q_15": 2.0, "O_15": 3.0, "city": "SOUTHERN PINES", "beds": 24.0, "SR_15": 2.0}, {"Diff_star": 0.0, "addr": "2401 WAYNE MEMORIAL DRIVE", "SR_14": 1.0, "Q_14": 3.0, "name": "WILLOW CREEK NURSING AND REHABILITATION CENTER", "SF_14": 2.0, "SF_15": 2.0, "cnty": "Wayne", "st": "NC", "Zip": 27534.0, "O_14": 1.0, "Q_15": 2.0, "O_15": 1.0, "city": "GOLDSBORO", "beds": 200.0, "SR_15": 1.0}, {"Diff_star": -1.0, "addr": "635 STATESVILLE BOULEVARD", "SR_14": 3.0, "Q_14": 3.0, "name": "BRIAN CTR HEALTH & REHAB/SALISBURY", "SF_14": 1.0, "SF_15": 1.0, "cnty": "Rowan", "st": "NC", "Zip": 28144.0, "O_14": 2.0, "Q_15": 1.0, "O_15": 1.0, "city": "SALISBURY", "beds": 185.0, "SR_15": 3.0}, {"Diff_star": 0.0, "addr": "109 S HOLDEN ROAD", "SR_14": 3.0, "Q_14": 4.0, "name": "GOLDEN LIVINGCENTER - STARMOUNT", "SF_14": 1.0, "SF_15": 1.0, "cnty": "Guilford", "st": "NC", "Zip": 27407.0, "O_14": 2.0, "Q_15": 2.0, "O_15": 2.0, "city": "GREENSBORO", "beds": 126.0, "SR_15": 3.0}, {"Diff_star": 0.0, "addr": "3015 ENTERPRISE DRIVE", "SR_14": 4.0, "Q_14": 3.0, "name": "NORTHCHASE NURSING AND REHABILITATION CENTER", "SF_14": 4.0, "SF_15": 4.0, "cnty": "New Hanover", "st": "NC", "Zip": 28405.0, "O_14": 4.0, "Q_15": 2.0, "O_15": 4.0, "city": "WILMINGTON", "beds": 140.0, "SR_15": 4.0}, {"Diff_star": 0.0, "addr": "600 CAROLINA VILLAGE ROAD SUITE Z", "SR_14": 3.0, "Q_14": 5.0, "name": "CAROLINA VILLAGE INC", "SF_14": 5.0, "SF_15": 5.0, "cnty": "Henderson", "st": "NC", "Zip": 28792.0, "O_14": 5.0, "Q_15": 5.0, "O_15": 5.0, "city": "HENDERSONVILLE", "beds": 58.0, "SR_15": 3.0}, {"Diff_star": 0.0, "addr": "560 JOHNSON RIDGE ROAD", "SR_14": 3.0, "Q_14": 5.0, "name": "PRUITTHEALTH-ELKIN", "SF_14": 2.0, "SF_15": 2.0, "cnty": "Surry", "st": "NC", "Zip": 28621.0, "O_14": 4.0, "Q_15": 5.0, "O_15": 4.0, "city": "ELKIN", "beds": 100.0, "SR_15": 3.0}, {"Diff_star": 0.0, "addr": "228 SMITH CHAPEL ROAD BOX 569", "SR_14": 1.0, "Q_14": 5.0, "name": "MOUNT OLIVE CENTER", "SF_14": 1.0, "SF_15": 1.0, "cnty": "Wayne", "st": "NC", "Zip": 28365.0, "O_14": 2.0, "Q_15": 5.0, "O_15": 2.0, "city": "MOUNT OLIVE", "beds": 150.0, "SR_15": 1.0}, {"Diff_star": 0.0, "addr": "70 OAK STREET", "SR_14": 5.0, "Q_14": 4.0, "name": "WHITE OAK MANOR - TRYON", "SF_14": 3.0, "SF_15": 3.0, "cnty": "Polk", "st": "NC", "Zip": 28782.0, "O_14": 5.0, "Q_15": 2.0, "O_15": 5.0, "city": "TRYON", "beds": 70.0, "SR_15": 5.0}, {"Diff_star": -1.0, "addr": "520 VALLEY STREET", "SR_14": 2.0, "Q_14": 5.0, "name": "BRIAN CENTER HEALTH & REHABILITATION/STATESVILLE", "SF_14": 1.0, "SF_15": 1.0, "cnty": "Iredell", "st": "NC", "Zip": 28677.0, "O_14": 2.0, "Q_15": 3.0, "O_15": 1.0, "city": "STATESVILLE", "beds": 147.0, "SR_15": 2.0}, {"Diff_star": 0.0, "addr": "1007 HOWARD STREET", "SR_14": 1.0, "Q_14": 4.0, "name": "AUTUMN CARE OF MOCKSVILLE", "SF_14": 2.0, "SF_15": 2.0, "cnty": "Davie", "st": "NC", "Zip": 27028.0, "O_14": 1.0, "Q_15": 2.0, "O_15": 1.0, "city": "MOCKSVILLE", "beds": 96.0, "SR_15": 1.0}, {"Diff_star": 0.0, "addr": "515 LAKE CONCORD ROAD", "SR_14": 1.0, "Q_14": 5.0, "name": "AVANTE AT CONCORD", "SF_14": 3.0, "SF_15": 3.0, "cnty": "Cabarrus", "st": "NC", "Zip": 28025.0, "O_14": 2.0, "Q_15": 5.0, "O_15": 2.0, "city": "CONCORD", "beds": 120.0, "SR_15": 1.0}, {"Diff_star": 0.0, "addr": "3905 CLEMMONS ROAD", "SR_14": 1.0, "Q_14": 4.0, "name": "CLEMMONS NURSING & REHAB CENTER", "SF_14": 3.0, "SF_15": 3.0, "cnty": "Forsyth", "st": "NC", "Zip": 27012.0, "O_14": 1.0, "Q_15": 3.0, "O_15": 1.0, "city": "CLEMMONS", "beds": 120.0, "SR_15": 1.0}, {"Diff_star": -1.0, "addr": "801 GREENHAVEN DRIVE", "SR_14": 1.0, "Q_14": 5.0, "name": "GREENHAVEN HEALTH AND REHABILITATION CENTER", "SF_14": 2.0, "SF_15": 2.0, "cnty": "Guilford", "st": "NC", "Zip": 27406.0, "O_14": 2.0, "Q_15": 3.0, "O_15": 1.0, "city": "GREENSBORO", "beds": 120.0, "SR_15": 1.0}, {"Diff_star": 0.0, "addr": "1000 COLLEGE STREET", "SR_14": 2.0, "Q_14": 5.0, "name": "AVANTE AT WILKESBORO", "SF_14": 3.0, "SF_15": 3.0, "cnty": "Wilkes", "st": "NC", "Zip": 28697.0, "O_14": 3.0, "Q_15": 5.0, "O_15": 3.0, "city": "WILKESBORO", "beds": 120.0, "SR_15": 2.0}, {"Diff_star": 0.0, "addr": "4801 RANDOLPH ROAD", "SR_14": 2.0, "Q_14": 5.0, "name": "AVANTE AT CHARLOTTE", "SF_14": 3.0, "SF_15": 3.0, "cnty": "Mecklenburg", "st": "NC", "Zip": 28211.0, "O_14": 3.0, "Q_15": 5.0, "O_15": 3.0, "city": "CHARLOTTE", "beds": 100.0, "SR_15": 2.0}, {"Diff_star": 0.0, "addr": "2221  WEST RALEIGH BOULEVARD", "SR_14": 1.0, "Q_14": 3.0, "name": "SOUTH VILLAGE", "SF_14": 3.0, "SF_15": 3.0, "cnty": "Nash", "st": "NC", "Zip": 27803.0, "O_14": 1.0, "Q_15": 1.0, "O_15": 1.0, "city": "ROCKY MOUNT", "beds": 100.0, "SR_15": 1.0}, {"Diff_star": 0.0, "addr": "322 NUWAY CIRCLE", "SR_14": 4.0, "Q_14": 4.0, "name": "LENOIR HEALTHCARE CENTER", "SF_14": 1.0, "SF_15": 1.0, "cnty": "Caldwell", "st": "NC", "Zip": 28645.0, "O_14": 3.0, "Q_15": 4.0, "O_15": 3.0, "city": "LENOIR", "beds": 120.0, "SR_15": 4.0}, {"Diff_star": 0.0, "addr": "610 WEST FISHER STREET", "SR_14": 4.0, "Q_14": 1.0, "name": "BRIGHTMOOR NURSING CENTER", "SF_14": 1.0, "SF_15": 1.0, "cnty": "Rowan", "st": "NC", "Zip": 28145.0, "O_14": 2.0, "Q_15": 1.0, "O_15": 2.0, "city": "SALISBURY", "beds": 58.0, "SR_15": 4.0}, {"Diff_star": 0.0, "addr": "9200 GLENWATER DRIVE", "SR_14": 2.0, "Q_14": 4.0, "name": "UNIVERSITY PLACE NURSING AND REHABILITATION CENTER", "SF_14": 3.0, "SF_15": 3.0, "cnty": "Mecklenburg", "st": "NC", "Zip": 28262.0, "O_14": 2.0, "Q_15": 2.0, "O_15": 2.0, "city": "CHARLOTTE", "beds": 207.0, "SR_15": 2.0}, {"Diff_star": -1.0, "addr": "900 W DOLPHIN STREET", "SR_14": 1.0, "Q_14": 5.0, "name": "SILER CITY CENTER", "SF_14": 1.0, "SF_15": 1.0, "cnty": "Chatham", "st": "NC", "Zip": 27344.0, "O_14": 2.0, "Q_15": 4.0, "O_15": 1.0, "city": "SILER CITY", "beds": 150.0, "SR_15": 1.0}, {"Diff_star": -1.0, "addr": "706 PINEYWOOD ROAD", "SR_14": 3.0, "Q_14": 3.0, "name": "PINE RIDGE HEALTH AND REHABILITATION CENTER", "SF_14": 4.0, "SF_15": 4.0, "cnty": "Davidson", "st": "NC", "Zip": 27360.0, "O_14": 4.0, "Q_15": 1.0, "O_15": 3.0, "city": "THOMASVILLE", "beds": 154.0, "SR_15": 3.0}, {"Diff_star": 0.0, "addr": "119 GATLING STREET", "SR_14": 3.0, "Q_14": 1.0, "name": "ROANOKE RIVER NURSING AND REHABILITATION CENTER", "SF_14": 1.0, "SF_15": 1.0, "cnty": "Martin", "st": "NC", "Zip": 27892.0, "O_14": 1.0, "Q_15": 1.0, "O_15": 1.0, "city": "WILLIAMSTON", "beds": 154.0, "SR_15": 3.0}, {"Diff_star": -1.0, "addr": "33426 OLD SALISBURY ROAD BOX 1250", "SR_14": 2.0, "Q_14": 5.0, "name": "BETHANY WOODS NURSING AND REHABILITATION CENTER", "SF_14": 3.0, "SF_15": 3.0, "cnty": "Stanly", "st": "NC", "Zip": 28002.0, "O_14": 3.0, "Q_15": 3.0, "O_15": 2.0, "city": "ALBEMARLE", "beds": 180.0, "SR_15": 2.0}, {"Diff_star": 0.0, "addr": "925 NEW GARDEN ROAD", "SR_14": 2.0, "Q_14": 4.0, "name": "FRIENDS HOMES AT GUILFORD", "SF_14": 5.0, "SF_15": 5.0, "cnty": "Guilford", "st": "NC", "Zip": 27410.0, "O_14": 3.0, "Q_15": 4.0, "O_15": 3.0, "city": "GREENSBORO", "beds": 50.0, "SR_15": 2.0}, {"Diff_star": 0.0, "addr": "4911 BRIAN CENTER LANE", "SR_14": 1.0, "Q_14": 5.0, "name": "BRIAN CTR HEALTH & RETIREMENT", "SF_14": 5.0, "SF_15": 5.0, "cnty": "Forsyth", "st": "NC", "Zip": 27106.0, "O_14": 2.0, "Q_15": 5.0, "O_15": 2.0, "city": "WINSTON-SALEM", "beds": 40.0, "SR_15": 1.0}, {"Diff_star": 0.0, "addr": "209 BEASLEY STREET", "SR_14": 5.0, "Q_14": 4.0, "name": "KENANSVILLE HEALTH & REHABILITATION CENTER", "SF_14": "", "SF_15": "", "cnty": "Duplin", "st": "NC", "Zip": 28349.0, "O_14": 5.0, "Q_15": 2.0, "O_15": 5.0, "city": "KENANSVILLE", "beds": 92.0, "SR_15": 5.0}, {"Diff_star": 0.0, "addr": "716 SIPES STREET", "SR_14": 4.0, "Q_14": 4.0, "name": "WHITE OAK MANOR - KINGS MOUNTAIN", "SF_14": 3.0, "SF_15": 3.0, "cnty": "Cleveland", "st": "NC", "Zip": 28086.0, "O_14": 4.0, "Q_15": 3.0, "O_15": 4.0, "city": "KINGS MOUNTAIN", "beds": 154.0, "SR_15": 4.0}, {"Diff_star": 0.0, "addr": "1265 21 STREET NE", "SR_14": 4.0, "Q_14": 4.0, "name": "TRINITY VILLAGE", "SF_14": 4.0, "SF_15": 4.0, "cnty": "Catawba", "st": "NC", "Zip": 28601.0, "O_14": 4.0, "Q_15": 3.0, "O_15": 4.0, "city": "HICKORY", "beds": 104.0, "SR_15": 4.0}, {"Diff_star": 0.0, "addr": "820 KLUMAC ROAD", "SR_14": 2.0, "Q_14": 4.0, "name": "TRINITY OAKS", "SF_14": 4.0, "SF_15": 4.0, "cnty": "Rowan", "st": "NC", "Zip": 28144.0, "O_14": 3.0, "Q_15": 3.0, "O_15": 3.0, "city": "SALISBURY", "beds": 115.0, "SR_15": 2.0}, {"Diff_star": 0.0, "addr": "230 EAST PRESNELL STREET", "SR_14": 4.0, "Q_14": 4.0, "name": "RANDOLPH HEALTH AND REHABILITATION CENTER", "SF_14": 1.0, "SF_15": 1.0, "cnty": "Randolph", "st": "NC", "Zip": 27203.0, "O_14": 3.0, "Q_15": 2.0, "O_15": 3.0, "city": "ASHEBORO", "beds": 238.0, "SR_15": 4.0}, {"Diff_star": 1.0, "addr": "312 WARREN AVENUE", "SR_14": 3.0, "Q_14": 5.0, "name": "HARMONY HALL NURSING AND REHABILITATION CENTER", "SF_14": 3.0, "SF_15": 3.0, "cnty": "Lenoir", "st": "NC", "Zip": 28502.0, "O_14": 4.0, "Q_15": 5.0, "O_15": 5.0, "city": "KINSTON", "beds": 175.0, "SR_15": 4.0}, {"Diff_star": 0.0, "addr": "1410 EAST GASTON STREET", "SR_14": 2.0, "Q_14": 4.0, "name": "LINCOLNTON REHABILITATION CENTER", "SF_14": 2.0, "SF_15": 2.0, "cnty": "Lincoln", "st": "NC", "Zip": 28092.0, "O_14": 2.0, "Q_15": 2.0, "O_15": 2.0, "city": "LINCOLNTON", "beds": 120.0, "SR_15": 2.0}, {"Diff_star": 0.0, "addr": "1011 PORTERS NECK ROAD", "SR_14": 4.0, "Q_14": 4.0, "name": "DAVIS HEALTH CARE CENTER", "SF_14": 4.0, "SF_15": 4.0, "cnty": "New Hanover", "st": "NC", "Zip": 28411.0, "O_14": 4.0, "Q_15": 3.0, "O_15": 4.0, "city": "WILMINGTON", "beds": 199.0, "SR_15": 4.0}, {"Diff_star": 0.0, "addr": "102 LEONARD AVENUE", "SR_14": 2.0, "Q_14": 4.0, "name": "ABERNETHY LAURELS", "SF_14": 5.0, "SF_15": 5.0, "cnty": "Catawba", "st": "NC", "Zip": 28658.0, "O_14": 3.0, "Q_15": 4.0, "O_15": 3.0, "city": "NEWTON", "beds": 174.0, "SR_15": 2.0}, {"Diff_star": 1.0, "addr": "416 N HIGHLAND STREET", "SR_14": 2.0, "Q_14": 1.0, "name": "GASTONIA CARE AND REHABILITATION", "SF_14": 3.0, "SF_15": 3.0, "cnty": "Gaston", "st": "NC", "Zip": 28052.0, "O_14": 1.0, "Q_15": 1.0, "O_15": 2.0, "city": "GASTONIA", "beds": 118.0, "SR_15": 3.0}, {"Diff_star": -1.0, "addr": "211 MILTON BROWN HEIRS ROAD", "SR_14": 4.0, "Q_14": 3.0, "name": "GLENBRIDGE HEALTH AND REHABILTATION CENTER", "SF_14": 4.0, "SF_15": 4.0, "cnty": "Watauga", "st": "NC", "Zip": 28607.0, "O_14": 4.0, "Q_15": 1.0, "O_15": 3.0, "city": "BOONE", "beds": 124.0, "SR_15": 4.0}, {"Diff_star": 0.0, "addr": "1341 PARADISE ROAD P O BOX 566", "SR_14": 4.0, "Q_14": 4.0, "name": "CHOWAN RIVER NURSING AND REHABILITATION CENTER", "SF_14": 3.0, "SF_15": 3.0, "cnty": "Chowan", "st": "NC", "Zip": 27932.0, "O_14": 4.0, "Q_15": 3.0, "O_15": 4.0, "city": "EDENTON", "beds": 130.0, "SR_15": 4.0}, {"Diff_star": 0.0, "addr": "POST OFFICE BOX 339", "SR_14": 5.0, "Q_14": 4.0, "name": "AUTUMN CARE OF MARION", "SF_14": 4.0, "SF_15": 4.0, "cnty": "Mc Dowell", "st": "NC", "Zip": 28752.0, "O_14": 5.0, "Q_15": 3.0, "O_15": 5.0, "city": "MARION", "beds": 110.0, "SR_15": 5.0}, {"Diff_star": 0.0, "addr": "1570 NC 8 AND 89 HIGHWAY", "SR_14": 2.0, "Q_14": 3.0, "name": "STOKES COUNTY NURSING HOME", "SF_14": 2.0, "SF_15": 2.0, "cnty": "Stokes", "st": "NC", "Zip": 27016.0, "O_14": 2.0, "Q_15": 2.0, "O_15": 2.0, "city": "DANBURY", "beds": 40.0, "SR_15": 2.0}, {"Diff_star": -1.0, "addr": "903 W MAIN STREET BOX 879", "SR_14": 5.0, "Q_14": 3.0, "name": "YADKIN NURSING CARE CENTER", "SF_14": 3.0, "SF_15": 2.0, "cnty": "Yadkin", "st": "NC", "Zip": 27055.0, "O_14": 5.0, "Q_15": 2.0, "O_15": 4.0, "city": "YADKINVILLE", "beds": 147.0, "SR_15": 4.0}, {"Diff_star": 0.0, "addr": "2910 MACGREGOR DOWNS", "SR_14": 4.0, "Q_14": 4.0, "name": "GOLDEN LIVINGCENTER - GREENVILLE", "SF_14": 3.0, "SF_15": 3.0, "cnty": "Pitt", "st": "NC", "Zip": 27834.0, "O_14": 4.0, "Q_15": 4.0, "O_15": 4.0, "city": "GREENVILLE", "beds": 152.0, "SR_15": 4.0}, {"Diff_star": 0.0, "addr": "969 COX ROAD", "SR_14": 2.0, "Q_14": 4.0, "name": "BRIAN CTR HEALTH & REHAB/GASTO", "SF_14": 1.0, "SF_15": 1.0, "cnty": "Gaston", "st": "NC", "Zip": 28054.0, "O_14": 1.0, "Q_15": 2.0, "O_15": 1.0, "city": "GASTONIA", "beds": 162.0, "SR_15": 1.0}, {"Diff_star": 0.0, "addr": "4010 BRIDGES STREET EXTENSION", "SR_14": 5.0, "Q_14": 5.0, "name": "CRYSTAL BLUFFS REHABILITATION AND HEALTH CARE CENT", "SF_14": 2.0, "SF_15": 2.0, "cnty": "Carteret", "st": "NC", "Zip": 28557.0, "O_14": 5.0, "Q_15": 4.0, "O_15": 5.0, "city": "MOREHEAD CITY", "beds": 92.0, "SR_15": 5.0}, {"Diff_star": 0.0, "addr": "401 N MORGAN STREET", "SR_14": 3.0, "Q_14": 4.0, "name": "WHITE OAK MANOR - SHELBY", "SF_14": 3.0, "SF_15": 3.0, "cnty": "Cleveland", "st": "NC", "Zip": 28150.0, "O_14": 3.0, "Q_15": 2.0, "O_15": 3.0, "city": "SHELBY", "beds": 160.0, "SR_15": 3.0}, {"Diff_star": -1.0, "addr": "707 NORTH ELM STREET", "SR_14": 2.0, "Q_14": 2.0, "name": "TRIAD CENTER", "SF_14": 2.0, "SF_15": 2.0, "cnty": "Guilford", "st": "NC", "Zip": 27262.0, "O_14": 2.0, "Q_15": 1.0, "O_15": 1.0, "city": "HIGH POINT", "beds": 199.0, "SR_15": 2.0}, {"Diff_star": -1.0, "addr": "54 RED MULBERRY WAY", "SR_14": 2.0, "Q_14": 5.0, "name": "EMERALD HEALTH & REHAB CENTER", "SF_14": 1.0, "SF_15": 1.0, "cnty": "Harnett", "st": "NC", "Zip": 27546.0, "O_14": 2.0, "Q_15": 4.0, "O_15": 1.0, "city": "LILLINGTON", "beds": 96.0, "SR_15": 2.0}, {"Diff_star": 0.0, "addr": "91 VICTORIA ROAD", "SR_14": 1.0, "Q_14": 4.0, "name": "ASHEVILLE NURSING & REHABILITATION CENTER", "SF_14": 5.0, "SF_15": 5.0, "cnty": "Buncombe", "st": "NC", "Zip": 28801.0, "O_14": 2.0, "Q_15": 3.0, "O_15": 2.0, "city": "ASHEVILLE", "beds": 120.0, "SR_15": 1.0}, {"Diff_star": 0.0, "addr": "POST OFFICE BOX 1940", "SR_14": 3.0, "Q_14": 3.0, "name": "SMITHFIELD MANOR INC", "SF_14": 3.0, "SF_15": 3.0, "cnty": "Johnston", "st": "NC", "Zip": 27577.0, "O_14": 3.0, "Q_15": 2.0, "O_15": 3.0, "city": "SMITHFIELD", "beds": 160.0, "SR_15": 3.0}, {"Diff_star": 0.0, "addr": "205 RATTLESNAKE TRAIL", "SR_14": 3.0, "Q_14": 5.0, "name": "MANOR CARE HEALTH SVCS PINEHURST", "SF_14": 2.0, "SF_15": 2.0, "cnty": "Moore", "st": "NC", "Zip": 28374.0, "O_14": 4.0, "Q_15": 5.0, "O_15": 4.0, "city": "PINEHURST", "beds": 120.0, "SR_15": 3.0}, {"Diff_star": 0.0, "addr": "752 E CENTER AVENUE", "SR_14": 1.0, "Q_14": 4.0, "name": "BRIAN CENTER HEALTH AND RETIREMENT", "SF_14": 3.0, "SF_15": 3.0, "cnty": "Iredell", "st": "NC", "Zip": 28115.0, "O_14": 1.0, "Q_15": 3.0, "O_15": 1.0, "city": "MOORESVILLE", "beds": 131.0, "SR_15": 1.0}, {"Diff_star": 1.0, "addr": "1000 WESLEY PINES ROAD", "SR_14": 3.0, "Q_14": 4.0, "name": "WESLEY PINES RETIREMENT COMM", "SF_14": 4.0, "SF_15": 4.0, "cnty": "Robeson", "st": "NC", "Zip": 28358.0, "O_14": 4.0, "Q_15": 5.0, "O_15": 5.0, "city": "LUMBERTON", "beds": 62.0, "SR_15": 3.0}, {"Diff_star": -1.0, "addr": "2578 WEST 5TH STREET", "SR_14": 3.0, "Q_14": 5.0, "name": "UNIVERSAL HEALTH CARE / GREENVILLE", "SF_14": 1.0, "SF_15": 1.0, "cnty": "Pitt", "st": "NC", "Zip": 27834.0, "O_14": 3.0, "Q_15": 4.0, "O_15": 2.0, "city": "GREENVILLE", "beds": 120.0, "SR_15": 3.0}, {"Diff_star": -1.0, "addr": "468 HIGHWAY 70 EAST", "SR_14": 5.0, "Q_14": 3.0, "name": "HERITAGE HEALTHCARE AT TAYLOR PLACE", "SF_14": 3.0, "SF_15": 4.0, "cnty": "Carteret", "st": "NC", "Zip": 28577.0, "O_14": 5.0, "Q_15": 1.0, "O_15": 4.0, "city": "SEALEVEL", "beds": 104.0, "SR_15": 5.0}, {"Diff_star": 0.0, "addr": "430 BROOKWOOD AVENUE NE", "SR_14": 1.0, "Q_14": 4.0, "name": "UNIVERSAL HEALTH CARE & REHAB", "SF_14": 1.0, "SF_15": 1.0, "cnty": "Cabarrus", "st": "NC", "Zip": 28025.0, "O_14": 1.0, "Q_15": 3.0, "O_15": 1.0, "city": "CONCORD", "beds": 120.0, "SR_15": 1.0}, {"Diff_star": 0.0, "addr": "901 SOUTH HALSTEAD BOULEVARD", "SR_14": 3.0, "Q_14": 4.0, "name": "KINDRED TRANSITIONAL CARE & REHAB-ELIZABETH CITY", "SF_14": 4.0, "SF_15": 4.0, "cnty": "Pasquotank", "st": "NC", "Zip": 27909.0, "O_14": 4.0, "Q_15": 3.0, "O_15": 4.0, "city": "ELIZABETH CITY", "beds": 108.0, "SR_15": 3.0}, {"Diff_star": -1.0, "addr": "106 CAMERON STREET", "SR_14": 2.0, "Q_14": 2.0, "name": "PREMIER LIVING AND REHAB CENTER", "SF_14": 3.0, "SF_15": 3.0, "cnty": "Columbus", "st": "NC", "Zip": 28450.0, "O_14": 2.0, "Q_15": 1.0, "O_15": 1.0, "city": "LAKE WACCAMAW", "beds": 127.0, "SR_15": 2.0}, {"Diff_star": 0.0, "addr": "413 WINECOFF SCHOOL ROAD", "SR_14": 1.0, "Q_14": 4.0, "name": "FIVE OAKS MANOR", "SF_14": 3.0, "SF_15": 3.0, "cnty": "Cabarrus", "st": "NC", "Zip": 28027.0, "O_14": 1.0, "Q_15": 3.0, "O_15": 1.0, "city": "CONCORD", "beds": 160.0, "SR_15": 1.0}, {"Diff_star": 0.0, "addr": "109 FOOTHILLS DRIVE", "SR_14": 3.0, "Q_14": 5.0, "name": "GRACE HEIGHTS HEALTH & REHAB CTR", "SF_14": 4.0, "SF_15": 4.0, "cnty": "Burke", "st": "NC", "Zip": 28655.0, "O_14": 5.0, "Q_15": 5.0, "O_15": 5.0, "city": "MORGANTON", "beds": 120.0, "SR_15": 3.0}, {"Diff_star": -1.0, "addr": "4130 US HWY 64 EAST", "SR_14": 3.0, "Q_14": 5.0, "name": "MURPHY MEDICAL CENTER", "SF_14": 5.0, "SF_15": 5.0, "cnty": "Cherokee", "st": "NC", "Zip": 28906.0, "O_14": 5.0, "Q_15": 3.0, "O_15": 4.0, "city": "MURPHY", "beds": 134.0, "SR_15": 3.0}, {"Diff_star": 0.0, "addr": "542 ALLRED MILL ROAD", "SR_14": 3.0, "Q_14": 4.0, "name": "GOLDEN LIVINGCENTER - SURRY COMMUNITY", "SF_14": 4.0, "SF_15": 4.0, "cnty": "Surry", "st": "NC", "Zip": 27030.0, "O_14": 4.0, "Q_15": 3.0, "O_15": 4.0, "city": "MOUNT AIRY", "beds": 120.0, "SR_15": 3.0}, {"Diff_star": 0.0, "addr": "4761 WARD BOULEVARD", "SR_14": 5.0, "Q_14": 5.0, "name": "LONGLEAF NEURO-MEDICAL TREATMENT CENTER", "SF_14": 5.0, "SF_15": 5.0, "cnty": "Wilson", "st": "NC", "Zip": 27893.0, "O_14": 5.0, "Q_15": 4.0, "O_15": 5.0, "city": "WILSON", "beds": 248.0, "SR_15": 5.0}, {"Diff_star": 0.0, "addr": "410 BUCKNER BRANCH ROAD", "SR_14": 3.0, "Q_14": 5.0, "name": "MOUNTAIN VIEW MANOR NURSING CE", "SF_14": 2.0, "SF_15": 2.0, "cnty": "Swain", "st": "NC", "Zip": 28713.0, "O_14": 4.0, "Q_15": 5.0, "O_15": 4.0, "city": "BRYSON CITY", "beds": 120.0, "SR_15": 3.0}, {"Diff_star": 0.0, "addr": "5701 FAYETTEVILLE ROAD", "SR_14": 3.0, "Q_14": 4.0, "name": "GLENFLORA", "SF_14": 4.0, "SF_15": 4.0, "cnty": "Robeson", "st": "NC", "Zip": 28360.0, "O_14": 4.0, "Q_15": 3.0, "O_15": 4.0, "city": "LUMBERTON", "beds": 52.0, "SR_15": 3.0}, {"Diff_star": 0.0, "addr": "1000 WESTERN BOULEVARD", "SR_14": 4.0, "Q_14": 5.0, "name": "GOLDEN LIVINGCENTER - TARBORO", "SF_14": 4.0, "SF_15": 4.0, "cnty": "Edgecombe", "st": "NC", "Zip": 27886.0, "O_14": 5.0, "Q_15": 5.0, "O_15": 5.0, "city": "TARBORO", "beds": 159.0, "SR_15": 4.0}, {"Diff_star": 0.0, "addr": "106 MOUNTAIN VISTA ROAD", "SR_14": 3.0, "Q_14": 3.0, "name": "MOUNTAIN VISTA HEALTH PARK", "SF_14": 4.0, "SF_15": 4.0, "cnty": "Davidson", "st": "NC", "Zip": 27239.0, "O_14": 4.0, "Q_15": 2.0, "O_15": 4.0, "city": "DENTON", "beds": 60.0, "SR_15": 3.0}, {"Diff_star": 0.0, "addr": "237 TRYON ROAD", "SR_14": 1.0, "Q_14": 2.0, "name": "WILLOW RIDGE OF NC LLC", "SF_14": 1.0, "SF_15": 1.0, "cnty": "Rutherford", "st": "NC", "Zip": 28139.0, "O_14": 1.0, "Q_15": 1.0, "O_15": 1.0, "city": "RUTHERFORDTON", "beds": 150.0, "SR_15": 1.0}, {"Diff_star": 0.0, "addr": "380 BREVARD ROAD", "SR_14": 4.0, "Q_14": 4.0, "name": "ASTON PARK HEALTH CARE CENTER", "SF_14": 4.0, "SF_15": 3.0, "cnty": "Buncombe", "st": "NC", "Zip": 28806.0, "O_14": 4.0, "Q_15": 3.0, "O_15": 4.0, "city": "ASHEVILLE", "beds": 120.0, "SR_15": 4.0}, {"Diff_star": 0.0, "addr": "750 WEAVER DAIRY ROAD", "SR_14": 5.0, "Q_14": 5.0, "name": "CAROL WOODS", "SF_14": 5.0, "SF_15": 5.0, "cnty": "Orange", "st": "NC", "Zip": 27514.0, "O_14": 5.0, "Q_15": 5.0, "O_15": 5.0, "city": "CHAPEL HILL", "beds": 30.0, "SR_15": 5.0}, {"Diff_star": 0.0, "addr": "2616 EAST 5TH STREET", "SR_14": 2.0, "Q_14": 4.0, "name": "GOLDEN LIVINGCENTER - CHARLOTTE", "SF_14": 3.0, "SF_15": 3.0, "cnty": "Mecklenburg", "st": "NC", "Zip": 28204.0, "O_14": 2.0, "Q_15": 3.0, "O_15": 2.0, "city": "CHARLOTTE", "beds": 120.0, "SR_15": 2.0}, {"Diff_star": -1.0, "addr": "3000 HOLSTON LANE", "SR_14": 3.0, "Q_14": 5.0, "name": "CAPITAL NURSING AND REHABILITATION CENTER", "SF_14": 1.0, "SF_15": 1.0, "cnty": "Wake", "st": "NC", "Zip": 27610.0, "O_14": 3.0, "Q_15": 4.0, "O_15": 2.0, "city": "RALEIGH", "beds": 125.0, "SR_15": 3.0}, {"Diff_star": 0.0, "addr": "185 NORWOOD HOLLOW ROAD", "SR_14": 4.0, "Q_14": 3.0, "name": "LIFE CARE CENTER OF BANNER ELK", "SF_14": 1.0, "SF_15": 1.0, "cnty": "Avery", "st": "NC", "Zip": 28604.0, "O_14": 3.0, "Q_15": 2.0, "O_15": 3.0, "city": "BANNER ELK", "beds": 118.0, "SR_15": 4.0}, {"Diff_star": 0.0, "addr": "455 VICTORIA ROAD", "SR_14": 4.0, "Q_14": 5.0, "name": "STONECREEK HEALTH AND REHABILITATION", "SF_14": 3.0, "SF_15": 3.0, "cnty": "Buncombe", "st": "NC", "Zip": 28801.0, "O_14": 5.0, "Q_15": 5.0, "O_15": 5.0, "city": "ASHEVILLE", "beds": 120.0, "SR_15": 4.0}, {"Diff_star": -1.0, "addr": "1016 FLETCHER STREET", "SR_14": 3.0, "Q_14": 3.0, "name": "WESTWOOD HILLS NURSING AND REHABILITATION CENTER", "SF_14": 3.0, "SF_15": 3.0, "cnty": "Wilkes", "st": "NC", "Zip": 28697.0, "O_14": 3.0, "Q_15": 1.0, "O_15": 2.0, "city": "WILKESBORO", "beds": 176.0, "SR_15": 3.0}, {"Diff_star": 0.0, "addr": "345 MANOR ROAD", "SR_14": 3.0, "Q_14": 4.0, "name": "MADISON HEALTH AND REHABILITATION", "SF_14": 2.0, "SF_15": 2.0, "cnty": "Madison", "st": "NC", "Zip": 28754.0, "O_14": 3.0, "Q_15": 2.0, "O_15": 3.0, "city": "MARS HILL", "beds": 100.0, "SR_15": 3.0}, {"Diff_star": -1.0, "addr": "1402 PINCKNEY STREET", "SR_14": 4.0, "Q_14": 5.0, "name": "LIBERTY COMMONS N&R CTR OF COLUMBUS CTY", "SF_14": 3.0, "SF_15": 3.0, "cnty": "Columbus", "st": "NC", "Zip": 28472.0, "O_14": 5.0, "Q_15": 4.0, "O_15": 4.0, "city": "WHITEVILLE", "beds": 107.0, "SR_15": 4.0}, {"Diff_star": -1.0, "addr": "115 N COUNTRY CLUB ROAD", "SR_14": 3.0, "Q_14": 5.0, "name": "BRIAN CTR HLTH & REHAB  BREVARD", "SF_14": 2.0, "SF_15": 2.0, "cnty": "Transylvania", "st": "NC", "Zip": 28712.0, "O_14": 4.0, "Q_15": 3.0, "O_15": 3.0, "city": "BREVARD", "beds": 147.0, "SR_15": 3.0}, {"Diff_star": -1.0, "addr": "1199 HAYES FOREST DRIVE", "SR_14": 3.0, "Q_14": 5.0, "name": "BROOKRIDGE RETIREMENT COMMUNITY", "SF_14": "", "SF_15": "", "cnty": "Forsyth", "st": "NC", "Zip": 27106.0, "O_14": 4.0, "Q_15": 3.0, "O_15": 3.0, "city": "WINSTON-SALEM", "beds": 40.0, "SR_15": 3.0}, {"Diff_star": 0.0, "addr": "208 MERCER ROAD", "SR_14": 3.0, "Q_14": 4.0, "name": "ELIZABETHTOWN HEALTHCARE & REHAB CENTER", "SF_14": 2.0, "SF_15": 2.0, "cnty": "Bladen", "st": "NC", "Zip": 28337.0, "O_14": 3.0, "Q_15": 4.0, "O_15": 3.0, "city": "ELIZABETHTOWN", "beds": 94.0, "SR_15": 3.0}, {"Diff_star": 0.0, "addr": "2600 OLD CHERRY POINT ROAD", "SR_14": 5.0, "Q_14": 4.0, "name": "RIVERPOINT CREST NURSING AND REHABILITATION CENTER", "SF_14": 3.0, "SF_15": 3.0, "cnty": "Craven", "st": "NC", "Zip": 28563.0, "O_14": 5.0, "Q_15": 3.0, "O_15": 5.0, "city": "NEW BERN", "beds": 105.0, "SR_15": 5.0}, {"Diff_star": -1.0, "addr": "3532 DUNN ROAD", "SR_14": 4.0, "Q_14": 3.0, "name": "BETHESDA HEALTH CARE FACILITY", "SF_14": 1.0, "SF_15": 1.0, "cnty": "Cumberland", "st": "NC", "Zip": 28301.0, "O_14": 3.0, "Q_15": 1.0, "O_15": 2.0, "city": "EASTOVER", "beds": 85.0, "SR_15": 4.0}, {"Diff_star": 0.0, "addr": "1995 EAST CORNELIUS HARNETT BOULEVARD", "SR_14": 1.0, "Q_14": 3.0, "name": "UNIVERSAL HEALTH CARE LILLINGTON", "SF_14": 1.0, "SF_15": 1.0, "cnty": "Harnett", "st": "NC", "Zip": 27546.0, "O_14": 1.0, "Q_15": 1.0, "O_15": 1.0, "city": "LILLINGTON", "beds": 129.0, "SR_15": 1.0}, {"Diff_star": 0.0, "addr": "250 LOVERS LANE", "SR_14": 3.0, "Q_14": 3.0, "name": "RIVER TRACE NURSING AND REHABILITATION CENTER", "SF_14": 2.0, "SF_15": 2.0, "cnty": "Beaufort", "st": "NC", "Zip": 27889.0, "O_14": 3.0, "Q_15": 3.0, "O_15": 3.0, "city": "WASHINGTON", "beds": 140.0, "SR_15": 3.0}, {"Diff_star": 0.0, "addr": "3100 TRAMWAY ROAD", "SR_14": 4.0, "Q_14": 5.0, "name": "WESTFIELD REHABILITATION AND HEALTH CENTER", "SF_14": 4.0, "SF_15": 3.0, "cnty": "Lee", "st": "NC", "Zip": 27332.0, "O_14": 5.0, "Q_15": 5.0, "O_15": 5.0, "city": "SANFORD", "beds": 83.0, "SR_15": 4.0}, {"Diff_star": 0.0, "addr": "225 WHITE STREET", "SR_14": 4.0, "Q_14": 4.0, "name": "PREMIER NURSING AND REHABILITATION CENTER", "SF_14": 1.0, "SF_15": 1.0, "cnty": "Onslow", "st": "NC", "Zip": 28546.0, "O_14": 3.0, "Q_15": 3.0, "O_15": 3.0, "city": "JACKSONVILLE", "beds": 239.0, "SR_15": 4.0}, {"Diff_star": 0.0, "addr": "120 SOUTHWOOD DRIVE BOX 379", "SR_14": 1.0, "Q_14": 4.0, "name": "MARY GRAN NURSING CENTER", "SF_14": 1.0, "SF_15": 1.0, "cnty": "Sampson", "st": "NC", "Zip": 28328.0, "O_14": 1.0, "Q_15": 2.0, "O_15": 1.0, "city": "CLINTON", "beds": 212.0, "SR_15": 1.0}, {"Diff_star": 0.0, "addr": "107 MAGNOLIA DRIVE", "SR_14": 1.0, "Q_14": 5.0, "name": "MAGNOLIA LANE NURSING AND REHABILITATION CENTER", "SF_14": 4.0, "SF_15": 4.0, "cnty": "Burke", "st": "NC", "Zip": 28655.0, "O_14": 2.0, "Q_15": 5.0, "O_15": 2.0, "city": "MORGANTON", "beds": 121.0, "SR_15": 1.0}, {"Diff_star": -1.0, "addr": "78 WEAVER BOULEVARD", "SR_14": 2.0, "Q_14": 5.0, "name": "BRIAN CENTER H & REHAB WEAVERV", "SF_14": 2.0, "SF_15": 2.0, "cnty": "Buncombe", "st": "NC", "Zip": 28787.0, "O_14": 3.0, "Q_15": 3.0, "O_15": 2.0, "city": "WEAVERVILLE", "beds": 122.0, "SR_15": 2.0}, {"Diff_star": 0.0, "addr": "307 OAKLAND AVENUE", "SR_14": 2.0, "Q_14": 4.0, "name": "AUTUMN CARE OF DREXEL", "SF_14": 3.0, "SF_15": 3.0, "cnty": "Burke", "st": "NC", "Zip": 28619.0, "O_14": 2.0, "Q_15": 4.0, "O_15": 2.0, "city": "DREXEL", "beds": 100.0, "SR_15": 2.0}, {"Diff_star": 0.0, "addr": "1510 HEBRON STREET", "SR_14": 1.0, "Q_14": 4.0, "name": "GOLDEN LIVINGCENTER - HENDERSONVILLE", "SF_14": 2.0, "SF_15": 2.0, "cnty": "Henderson", "st": "NC", "Zip": 28739.0, "O_14": 1.0, "Q_15": 1.0, "O_15": 1.0, "city": "HENDERSONVILLE", "beds": 150.0, "SR_15": 1.0}, {"Diff_star": 0.0, "addr": "1602 E FRANKLIN STREET", "SR_14": 4.0, "Q_14": 4.0, "name": "SIGNATURE HEALTHCARE OF CHAPEL HILL", "SF_14": 4.0, "SF_15": 4.0, "cnty": "Orange", "st": "NC", "Zip": 27514.0, "O_14": 4.0, "Q_15": 4.0, "O_15": 4.0, "city": "CHAPEL HILL", "beds": 108.0, "SR_15": 4.0}, {"Diff_star": 0.0, "addr": "430  WEST HEALTH CENTER DRIVE", "SR_14": 4.0, "Q_14": 4.0, "name": "COLONY RIDGE NURSING AND REHABILITATION CENTER", "SF_14": 2.0, "SF_15": 2.0, "cnty": "Dare", "st": "NC", "Zip": 27959.0, "O_14": 4.0, "Q_15": 2.0, "O_15": 4.0, "city": "NAGS HEAD", "beds": 126.0, "SR_15": 4.0}, {"Diff_star": 0.0, "addr": "543 MAPLE AVENUE", "SR_14": 4.0, "Q_14": 5.0, "name": "AVANTE AT REIDSVILLE", "SF_14": 3.0, "SF_15": 3.0, "cnty": "Rockingham", "st": "NC", "Zip": 27320.0, "O_14": 5.0, "Q_15": 5.0, "O_15": 5.0, "city": "REIDSVILLE", "beds": 110.0, "SR_15": 4.0}, {"Diff_star": -1.0, "addr": "1624 HIGHLAND DRIVE", "SR_14": 2.0, "Q_14": 4.0, "name": "RIDGEWOOD MANOR", "SF_14": 4.0, "SF_15": 3.0, "cnty": "Beaufort", "st": "NC", "Zip": 27889.0, "O_14": 3.0, "Q_15": 4.0, "O_15": 2.0, "city": "WASHINGTON", "beds": 150.0, "SR_15": 2.0}, {"Diff_star": 0.0, "addr": "1101 NORTH MORGAN STREET", "SR_14": 3.0, "Q_14": 4.0, "name": "PEAK RESOURCES - SHELBY", "SF_14": 3.0, "SF_15": 3.0, "cnty": "Cleveland", "st": "NC", "Zip": 28150.0, "O_14": 3.0, "Q_15": 2.0, "O_15": 3.0, "city": "SHELBY", "beds": 100.0, "SR_15": 3.0}, {"Diff_star": 0.0, "addr": "3031 TATE BOULEVARD SE", "SR_14": 2.0, "Q_14": 3.0, "name": "BRIAN CTR HEALTH & REHABI HICK", "SF_14": 1.0, "SF_15": 1.0, "cnty": "Catawba", "st": "NC", "Zip": 28602.0, "O_14": 1.0, "Q_15": 1.0, "O_15": 1.0, "city": "HICKORY", "beds": 150.0, "SR_15": 2.0}, {"Diff_star": -1.0, "addr": "306 DEER PARK ROAD", "SR_14": 2.0, "Q_14": 4.0, "name": "SUNRISE REHABILITATION & CARE", "SF_14": 4.0, "SF_15": 3.0, "cnty": "Mc Dowell", "st": "NC", "Zip": 28761.0, "O_14": 3.0, "Q_15": 2.0, "O_15": 2.0, "city": "NEBO", "beds": 140.0, "SR_15": 2.0}, {"Diff_star": 0.0, "addr": "1555 WILLIS AVENUE", "SR_14": 5.0, "Q_14": 4.0, "name": "GOLDEN LIVINGCENTER - LUMBERTON", "SF_14": 4.0, "SF_15": 3.0, "cnty": "Robeson", "st": "NC", "Zip": 28358.0, "O_14": 5.0, "Q_15": 4.0, "O_15": 5.0, "city": "LUMBERTON", "beds": 122.0, "SR_15": 5.0}, {"Diff_star": 0.0, "addr": "3701 WADE COBLE DRIVE", "SR_14": 5.0, "Q_14": 5.0, "name": "TWIN LAKES COMMUNITY", "SF_14": 4.0, "SF_15": 4.0, "cnty": "Alamance", "st": "NC", "Zip": 27215.0, "O_14": 5.0, "Q_15": 5.0, "O_15": 5.0, "city": "BURLINGTON", "beds": 100.0, "SR_15": 5.0}, {"Diff_star": 0.0, "addr": "820 WELLINGTON AVENUE", "SR_14": 4.0, "Q_14": 4.0, "name": "WILMINGTON HEALTH AND REHABILITATION CENTER", "SF_14": 2.0, "SF_15": 2.0, "cnty": "New Hanover", "st": "NC", "Zip": 28401.0, "O_14": 4.0, "Q_15": 2.0, "O_15": 4.0, "city": "WILMINGTON", "beds": 120.0, "SR_15": 4.0}, {"Diff_star": 0.0, "addr": "515 BARBOUR ROAD", "SR_14": 2.0, "Q_14": 4.0, "name": "BARBOUR COURT NURSING AND REHABILITATION CENTER", "SF_14": 2.0, "SF_15": 2.0, "cnty": "Johnston", "st": "NC", "Zip": 27577.0, "O_14": 2.0, "Q_15": 2.0, "O_15": 2.0, "city": "SMITHFIELD", "beds": 205.0, "SR_15": 2.0}, {"Diff_star": 0.0, "addr": "4009 CRAIG AVENUE", "SR_14": 5.0, "Q_14": 4.0, "name": "WHITE OAK MANOR - CHARLOTTE", "SF_14": 4.0, "SF_15": 4.0, "cnty": "Mecklenburg", "st": "NC", "Zip": 28211.0, "O_14": 5.0, "Q_15": 3.0, "O_15": 5.0, "city": "CHARLOTTE", "beds": 180.0, "SR_15": 5.0}, {"Diff_star": 0.0, "addr": "864 US HWY 158 BUSINESS WEST", "SR_14": 2.0, "Q_14": 4.0, "name": "WARREN HILLS A PERSONAL CARE", "SF_14": 4.0, "SF_15": 4.0, "cnty": "Warren", "st": "NC", "Zip": 27589.0, "O_14": 3.0, "Q_15": 4.0, "O_15": 3.0, "city": "WARRENTON", "beds": 140.0, "SR_15": 2.0}, {"Diff_star": 0.0, "addr": "226 N OAKLAND AVENUE", "SR_14": 2.0, "Q_14": 4.0, "name": "BRIAN CENTER HEALTH & REHAB/EDEN", "SF_14": 1.0, "SF_15": 1.0, "cnty": "Rockingham", "st": "NC", "Zip": 27288.0, "O_14": 1.0, "Q_15": 3.0, "O_15": 1.0, "city": "EDEN", "beds": 112.0, "SR_15": 2.0}, {"Diff_star": 0.0, "addr": "200 TRADE STREET", "SR_14": 4.0, "Q_14": 5.0, "name": "THE FOUNTAINS AT THE ALBEMARLE", "SF_14": 4.0, "SF_15": 3.0, "cnty": "Edgecombe", "st": "NC", "Zip": 27886.0, "O_14": 5.0, "Q_15": 5.0, "O_15": 5.0, "city": "TARBORO", "beds": 30.0, "SR_15": 4.0}, {"Diff_star": 0.0, "addr": "5939 REDDMAN ROAD", "SR_14": 1.0, "Q_14": 4.0, "name": "BRIAN CENTER HEALTH & REHAB/CH", "SF_14": 3.0, "SF_15": 3.0, "cnty": "Mecklenburg", "st": "NC", "Zip": 28212.0, "O_14": 1.0, "Q_15": 2.0, "O_15": 1.0, "city": "CHARLOTTE", "beds": 120.0, "SR_15": 1.0}, {"Diff_star": 0.0, "addr": "812 SHEPARD STREET", "SR_14": 3.0, "Q_14": 3.0, "name": "HARBORVIEW HEALTH CARE CENTER", "SF_14": 2.0, "SF_15": 2.0, "cnty": "Carteret", "st": "NC", "Zip": 28557.0, "O_14": 3.0, "Q_15": 2.0, "O_15": 3.0, "city": "MOREHEAD CITY", "beds": 122.0, "SR_15": 3.0}, {"Diff_star": 0.0, "addr": "507 FREMONT STREET", "SR_14": 4.0, "Q_14": 3.0, "name": "PENDER MEMORIAL HOSP SNF", "SF_14": 4.0, "SF_15": 3.0, "cnty": "Pender", "st": "NC", "Zip": 28425.0, "O_14": 4.0, "Q_15": 2.0, "O_15": 4.0, "city": "BURGAW", "beds": 43.0, "SR_15": 4.0}, {"Diff_star": 0.0, "addr": "100 SUNSET STREET", "SR_14": 1.0, "Q_14": 4.0, "name": "CAMELOT MANOR NURSING CARE FAC", "SF_14": 2.0, "SF_15": 2.0, "cnty": "Caldwell", "st": "NC", "Zip": 28630.0, "O_14": 1.0, "Q_15": 3.0, "O_15": 1.0, "city": "GRANITE FALLS", "beds": 120.0, "SR_15": 1.0}, {"Diff_star": 0.0, "addr": "581 NC HIGHWAY 16 SOUTH", "SR_14": 2.0, "Q_14": 5.0, "name": "VALLEY NURSING CENTER", "SF_14": 4.0, "SF_15": 4.0, "cnty": "Alexander", "st": "NC", "Zip": 28681.0, "O_14": 4.0, "Q_15": 5.0, "O_15": 4.0, "city": "TAYLORSVILLE", "beds": 183.0, "SR_15": 2.0}, {"Diff_star": -1.0, "addr": "205 EAST KINGS HIGHWAY", "SR_14": 3.0, "Q_14": 3.0, "name": "MOREHEAD NURSING CENTER", "SF_14": 4.0, "SF_15": 4.0, "cnty": "Rockingham", "st": "NC", "Zip": 27288.0, "O_14": 4.0, "Q_15": 1.0, "O_15": 3.0, "city": "EDEN", "beds": 121.0, "SR_15": 3.0}, {"Diff_star": -1.0, "addr": "515 S GENERALS BOULEVARD", "SR_14": 4.0, "Q_14": 5.0, "name": "BRIAN CTR HLTH & RET/LINCOLNTON", "SF_14": 4.0, "SF_15": 3.0, "cnty": "Lincoln", "st": "NC", "Zip": 28093.0, "O_14": 5.0, "Q_15": 4.0, "O_15": 4.0, "city": "LINCOLNTON", "beds": 117.0, "SR_15": 4.0}, {"Diff_star": -1.0, "addr": "214 LANEFIELD ROAD", "SR_14": 4.0, "Q_14": 2.0, "name": "WARSAW HEALTH & REHABILITATION CENTER", "SF_14": 4.0, "SF_15": 4.0, "cnty": "Duplin", "st": "NC", "Zip": 28398.0, "O_14": 4.0, "Q_15": 1.0, "O_15": 3.0, "city": "WARSAW", "beds": 100.0, "SR_15": 4.0}, {"Diff_star": -1.0, "addr": "80 BROWNSBERGER CIRCLE", "SR_14": 2.0, "Q_14": 5.0, "name": "BEYSTONE HEALTH & REHABILITATION", "SF_14": 3.0, "SF_15": 3.0, "cnty": "Henderson", "st": "NC", "Zip": 28732.0, "O_14": 3.0, "Q_15": 4.0, "O_15": 2.0, "city": "FLETCHER", "beds": 50.0, "SR_15": 2.0}, {"Diff_star": -1.0, "addr": "1212 EAST SUNSET DRIVE", "SR_14": 2.0, "Q_14": 5.0, "name": "MONROE REHABILITATION CENTER", "SF_14": 2.0, "SF_15": 2.0, "cnty": "Union", "st": "NC", "Zip": 28112.0, "O_14": 3.0, "Q_15": 4.0, "O_15": 2.0, "city": "MONROE", "beds": 147.0, "SR_15": 2.0}, {"Diff_star": 0.0, "addr": "111 HARRILSON STREET", "SR_14": 3.0, "Q_14": 5.0, "name": "CAROLINA CARE CENTER", "SF_14": 4.0, "SF_15": 4.0, "cnty": "Gaston", "st": "NC", "Zip": 28021.0, "O_14": 5.0, "Q_15": 5.0, "O_15": 5.0, "city": "CHERRYVILLE", "beds": 119.0, "SR_15": 3.0}, {"Diff_star": 0.0, "addr": "1810 CONCORD LAKE ROAD", "SR_14": 1.0, "Q_14": 4.0, "name": "TRANSITIONAL HEALTH SERVICES OF KANNAPOLIS", "SF_14": 3.0, "SF_15": 3.0, "cnty": "Cabarrus", "st": "NC", "Zip": 28083.0, "O_14": 1.0, "Q_15": 4.0, "O_15": 1.0, "city": "KANNAPOLIS", "beds": 107.0, "SR_15": 1.0}, {"Diff_star": -1.0, "addr": "160 WINSTEAD AVENUE", "SR_14": 3.0, "Q_14": 5.0, "name": "ROCKY MOUNT REHABILITATION CENTER", "SF_14": 1.0, "SF_15": 1.0, "cnty": "Nash", "st": "NC", "Zip": 27804.0, "O_14": 3.0, "Q_15": 4.0, "O_15": 2.0, "city": "ROCKY MOUNT", "beds": 117.0, "SR_15": 3.0}, {"Diff_star": 0.0, "addr": "179 COMBS STREET", "SR_14": 3.0, "Q_14": 3.0, "name": "ALLEGHANY CENTER", "SF_14": 1.0, "SF_15": 1.0, "cnty": "Alleghany", "st": "NC", "Zip": 28675.0, "O_14": 2.0, "Q_15": 2.0, "O_15": 2.0, "city": "SPARTA", "beds": 90.0, "SR_15": 3.0}, {"Diff_star": 0.0, "addr": "1300 DON JUAN ROAD", "SR_14": 2.0, "Q_14": 3.0, "name": "BRIAN CENTER HEALTH & REHAB/HE", "SF_14": 3.0, "SF_15": 3.0, "cnty": "Perquimans", "st": "NC", "Zip": 27944.0, "O_14": 2.0, "Q_15": 2.0, "O_15": 2.0, "city": "HERTFORD", "beds": 78.0, "SR_15": 2.0}, {"Diff_star": 0.0, "addr": "245 OLD MURPHY ROAD", "SR_14": 4.0, "Q_14": 4.0, "name": "MACON VALLEY NURSING AND REHABILITATION CENTER", "SF_14": 4.0, "SF_15": 3.0, "cnty": "Macon", "st": "NC", "Zip": 28734.0, "O_14": 4.0, "Q_15": 3.0, "O_15": 4.0, "city": "FRANKLIN", "beds": 200.0, "SR_15": 4.0}, {"Diff_star": 0.0, "addr": "514 OLD MOUNT HOLLY ROAD", "SR_14": 1.0, "Q_14": 5.0, "name": "STANLEY TOTAL LIVING CENTER", "SF_14": 4.0, "SF_15": 4.0, "cnty": "Gaston", "st": "NC", "Zip": 28164.0, "O_14": 2.0, "Q_15": 5.0, "O_15": 2.0, "city": "STANLEY", "beds": 130.0, "SR_15": 1.0}, {"Diff_star": -1.0, "addr": "1086 MAIN STREET NORTH", "SR_14": 3.0, "Q_14": 5.0, "name": "BRIAN CENTER HEALTH & REHAB/YA", "SF_14": 3.0, "SF_15": 3.0, "cnty": "Caswell", "st": "NC", "Zip": 27379.0, "O_14": 4.0, "Q_15": 4.0, "O_15": 3.0, "city": "YANCEYVILLE", "beds": 157.0, "SR_15": 3.0}, {"Diff_star": 0.0, "addr": "1084 US 64 EAST", "SR_14": 4.0, "Q_14": 5.0, "name": "ROANOKE LANDING NURSING AND REHABILITATION CENTER", "SF_14": 1.0, "SF_15": 1.0, "cnty": "Washington", "st": "NC", "Zip": 27962.0, "O_14": 4.0, "Q_15": 5.0, "O_15": 4.0, "city": "PLYMOUTH", "beds": 114.0, "SR_15": 4.0}, {"Diff_star": 0.0, "addr": "804 SOUTH POPULAR STREET", "SR_14": 2.0, "Q_14": 4.0, "name": "POPLAR HEIGHTS CENTER", "SF_14": 4.0, "SF_15": 4.0, "cnty": "Bladen", "st": "NC", "Zip": 28337.0, "O_14": 3.0, "Q_15": 4.0, "O_15": 3.0, "city": "ELIZABETHTOWN", "beds": 90.0, "SR_15": 2.0}, {"Diff_star": -1.0, "addr": "311 W PHIFER STREET", "SR_14": 4.0, "Q_14": 3.0, "name": "AUTUMN CARE OF MARSHVILLE", "SF_14": 4.0, "SF_15": 4.0, "cnty": "Union", "st": "NC", "Zip": 28103.0, "O_14": 4.0, "Q_15": 1.0, "O_15": 3.0, "city": "MARSHVILLE", "beds": 110.0, "SR_15": 4.0}, {"Diff_star": -1.0, "addr": "1505 BRINGLE FERRY ROAD", "SR_14": 5.0, "Q_14": 2.0, "name": "AUTUMN CARE OF SALISBURY", "SF_14": 2.0, "SF_15": 2.0, "cnty": "Rowan", "st": "NC", "Zip": 28146.0, "O_14": 5.0, "Q_15": 1.0, "O_15": 4.0, "city": "SALISBURY", "beds": 100.0, "SR_15": 5.0}, {"Diff_star": -1.0, "addr": "218 LAUREL CREEK COURT", "SR_14": 4.0, "Q_14": 5.0, "name": "BRIAN CTR HEALTH & REHAB/SPRUC", "SF_14": 2.0, "SF_15": 2.0, "cnty": "Mitchell", "st": "NC", "Zip": 28777.0, "O_14": 5.0, "Q_15": 4.0, "O_15": 4.0, "city": "SPRUCE PINE", "beds": 127.0, "SR_15": 4.0}, {"Diff_star": 0.0, "addr": "2401 SOUTHSIDE BOULEVARD", "SR_14": 5.0, "Q_14": 5.0, "name": "KINDRED HOSPITAL EAST GREENSBORO", "SF_14": 4.0, "SF_15": 4.0, "cnty": "Guilford", "st": "NC", "Zip": 27406.0, "O_14": 5.0, "Q_15": 5.0, "O_15": 5.0, "city": "GREENSBORO", "beds": 23.0, "SR_15": 5.0}, {"Diff_star": 0.0, "addr": "400 VISION DRIVE", "SR_14": 5.0, "Q_14": 4.0, "name": "WOODLAND HILL CENTER", "SF_14": 1.0, "SF_15": 1.0, "cnty": "Randolph", "st": "NC", "Zip": 27203.0, "O_14": 4.0, "Q_15": 2.0, "O_15": 4.0, "city": "ASHEBORO", "beds": 100.0, "SR_15": 5.0}, {"Diff_star": 0.0, "addr": "830 ROCKFORD STREET", "SR_14": 4.0, "Q_14": 4.0, "name": "NORTHERN SURRY SNF", "SF_14": 2.0, "SF_15": 2.0, "cnty": "Surry", "st": "NC", "Zip": 27030.0, "O_14": 4.0, "Q_15": 3.0, "O_15": 4.0, "city": "MOUNT AIRY", "beds": 33.0, "SR_15": 4.0}, {"Diff_star": 0.0, "addr": "POST OFFICE BOX 8495", "SR_14": 4.0, "Q_14": 4.0, "name": "HUNTER HILLS NURSING AND REHABILITATION CENTER", "SF_14": 4.0, "SF_15": 3.0, "cnty": "Nash", "st": "NC", "Zip": 27804.0, "O_14": 4.0, "Q_15": 3.0, "O_15": 4.0, "city": "ROCKY MOUNT", "beds": 141.0, "SR_15": 4.0}, {"Diff_star": 0.0, "addr": "1206 N FULTON STREET", "SR_14": 1.0, "Q_14": 4.0, "name": "AUTUMN CARE OF RAEFORD", "SF_14": 3.0, "SF_15": 3.0, "cnty": "Hoke", "st": "NC", "Zip": 28376.0, "O_14": 1.0, "Q_15": 2.0, "O_15": 1.0, "city": "RAEFORD", "beds": 132.0, "SR_15": 1.0}, {"Diff_star": 0.0, "addr": "625 BETHANY CHURCH ROAD BOX 38", "SR_14": 3.0, "Q_14": 4.0, "name": "STANLY MANOR", "SF_14": 4.0, "SF_15": 4.0, "cnty": "Stanly", "st": "NC", "Zip": 28001.0, "O_14": 4.0, "Q_15": 3.0, "O_15": 4.0, "city": "ALBEMARLE", "beds": 90.0, "SR_15": 3.0}, {"Diff_star": 0.0, "addr": "1404 N LAFAYETTE STREET", "SR_14": 2.0, "Q_14": 4.0, "name": "CLEVELAND PINES NURSING CENTER", "SF_14": 2.0, "SF_15": 3.0, "cnty": "Cleveland", "st": "NC", "Zip": 28150.0, "O_14": 2.0, "Q_15": 3.0, "O_15": 2.0, "city": "SHELBY", "beds": 120.0, "SR_15": 2.0}, {"Diff_star": -1.0, "addr": "550 GLENWOOD DRIVE", "SR_14": 3.0, "Q_14": 5.0, "name": "MOORESVILLE CENTER", "SF_14": 3.0, "SF_15": 3.0, "cnty": "Iredell", "st": "NC", "Zip": 28115.0, "O_14": 4.0, "Q_15": 4.0, "O_15": 3.0, "city": "MOORESVILLE", "beds": 130.0, "SR_15": 3.0}, {"Diff_star": 0.0, "addr": "901 BETHESDA ROAD", "SR_14": 3.0, "Q_14": 5.0, "name": "THE OAKS", "SF_14": 1.0, "SF_15": 1.0, "cnty": "Forsyth", "st": "NC", "Zip": 27103.0, "O_14": 3.0, "Q_15": 5.0, "O_15": 3.0, "city": "WINSTON SALEM", "beds": 151.0, "SR_15": 3.0}, {"Diff_star": 1.0, "addr": "200 HERITAGE DRIVE", "SR_14": 3.0, "Q_14": 5.0, "name": "MOUNTAIN HOME HEALTH AND REHAB", "SF_14": 1.0, "SF_15": 2.0, "cnty": "Henderson", "st": "NC", "Zip": 28739.0, "O_14": 3.0, "Q_15": 5.0, "O_15": 4.0, "city": "HENDERSONVILLE", "beds": 134.0, "SR_15": 3.0}, {"Diff_star": 0.0, "addr": "710 JULIAN ROAD", "SR_14": 1.0, "Q_14": 2.0, "name": "SALISBURY CENTER", "SF_14": 1.0, "SF_15": 1.0, "cnty": "Rowan", "st": "NC", "Zip": 28147.0, "O_14": 1.0, "Q_15": 1.0, "O_15": 1.0, "city": "SALISBURY", "beds": 160.0, "SR_15": 1.0}, {"Diff_star": -1.0, "addr": "1404 S SALISBURY AVENUE", "SR_14": 1.0, "Q_14": 5.0, "name": "MAGNOLIA ESTATES SKILLED CARE", "SF_14": 1.0, "SF_15": 1.0, "cnty": "Rowan", "st": "NC", "Zip": 28159.0, "O_14": 2.0, "Q_15": 4.0, "O_15": 1.0, "city": "SPENCER", "beds": 70.0, "SR_15": 1.0}, {"Diff_star": 0.0, "addr": "3907 CARATOKE HIGHWAY", "SR_14": 4.0, "Q_14": 5.0, "name": "SENTARA NURSING CENTER", "SF_14": 3.0, "SF_15": 3.0, "cnty": "Currituck", "st": "NC", "Zip": 27917.0, "O_14": 5.0, "Q_15": 5.0, "O_15": 5.0, "city": "BARCO", "beds": 100.0, "SR_15": 4.0}, {"Diff_star": 0.0, "addr": "500 PROSPECT AVENUE", "SR_14": 1.0, "Q_14": 4.0, "name": "UNIVERSAL HEALTH CARE / OXFORD", "SF_14": 2.0, "SF_15": 2.0, "cnty": "Granville", "st": "NC", "Zip": 27565.0, "O_14": 1.0, "Q_15": 3.0, "O_15": 1.0, "city": "OXFORD", "beds": 160.0, "SR_15": 1.0}, {"Diff_star": -1.0, "addr": "290 KEEL ROAD", "SR_14": 4.0, "Q_14": 5.0, "name": "GRANTSBROOK NURSING AND REHABILITATION CENTER", "SF_14": 2.0, "SF_15": 2.0, "cnty": "Pamlico", "st": "NC", "Zip": 28529.0, "O_14": 5.0, "Q_15": 4.0, "O_15": 4.0, "city": "GRANTSBORO", "beds": 96.0, "SR_15": 4.0}, {"Diff_star": 0.0, "addr": "HIGHWAY 177 S BOX 1489", "SR_14": 1.0, "Q_14": 4.0, "name": "RICHMOND PINES HEALTHCARE AND REHABILITATION CENTE", "SF_14": 1.0, "SF_15": 1.0, "cnty": "Richmond", "st": "NC", "Zip": 28345.0, "O_14": 1.0, "Q_15": 2.0, "O_15": 1.0, "city": "HAMLET", "beds": 105.0, "SR_15": 1.0}, {"Diff_star": 0.0, "addr": "237 MULBERRY STREET", "SR_14": 5.0, "Q_14": 4.0, "name": "AUTUMN CARE OF SHALLOTTE", "SF_14": 4.0, "SF_15": 3.0, "cnty": "Brunswick", "st": "NC", "Zip": 28459.0, "O_14": 5.0, "Q_15": 2.0, "O_15": 5.0, "city": "SHALLOTTE", "beds": 130.0, "SR_15": 5.0}, {"Diff_star": -1.0, "addr": "540 WAUGH STREET", "SR_14": 3.0, "Q_14": 5.0, "name": "MARGATE HEALTH AND REHAB CENTER", "SF_14": 2.0, "SF_15": 2.0, "cnty": "Ashe", "st": "NC", "Zip": 28640.0, "O_14": 4.0, "Q_15": 4.0, "O_15": 3.0, "city": "JEFFERSON", "beds": 150.0, "SR_15": 3.0}, {"Diff_star": 0.0, "addr": "2200 ELM DRIVE", "SR_14": 5.0, "Q_14": 4.0, "name": "SCOTIA VILLAGE-SNF", "SF_14": 4.0, "SF_15": 4.0, "cnty": "Scotland", "st": "NC", "Zip": 28352.0, "O_14": 5.0, "Q_15": 4.0, "O_15": 5.0, "city": "LAURINBURG", "beds": 58.0, "SR_15": 5.0}, {"Diff_star": -2.0, "addr": "311 S CAMPBELL STREET", "SR_14": 2.0, "Q_14": 3.0, "name": "HUNTINGTON HEALTH CARE", "SF_14": 4.0, "SF_15": 3.0, "cnty": "Pender", "st": "NC", "Zip": 28425.0, "O_14": 3.0, "Q_15": 1.0, "O_15": 1.0, "city": "BURGAW", "beds": 98.0, "SR_15": 2.0}, {"Diff_star": -1.0, "addr": "323 BALDWIN ROAD  PO BOX 3427", "SR_14": 4.0, "Q_14": 3.0, "name": "WHITE OAK MANOR - BURLINGTON", "SF_14": 4.0, "SF_15": 4.0, "cnty": "Alamance", "st": "NC", "Zip": 27217.0, "O_14": 4.0, "Q_15": 1.0, "O_15": 3.0, "city": "BURLINGTON", "beds": 160.0, "SR_15": 4.0}, {"Diff_star": 0.0, "addr": "417 MOUNTAIN TRACE ROAD", "SR_14": 1.0, "Q_14": 2.0, "name": "MOUNTAIN TRACE REHABILITATION & NURSING CENTER", "SF_14": 2.0, "SF_15": 2.0, "cnty": "Jackson", "st": "NC", "Zip": 28779.0, "O_14": 1.0, "Q_15": 1.0, "O_15": 1.0, "city": "SYLVA", "beds": 106.0, "SR_15": 1.0}, {"Diff_star": -1.0, "addr": "70 SWEETEN CREEK ROAD", "SR_14": 3.0, "Q_14": 5.0, "name": "THE LAURELS OF GREENTREE RIDGE", "SF_14": 4.0, "SF_15": 3.0, "cnty": "Buncombe", "st": "NC", "Zip": 28803.0, "O_14": 5.0, "Q_15": 5.0, "O_15": 4.0, "city": "ASHEVILLE", "beds": 98.0, "SR_15": 3.0}, {"Diff_star": 0.0, "addr": "2727 SHAMROCK DRIVE", "SR_14": 1.0, "Q_14": 5.0, "name": "BRIAN CENTER NURSING CARE/SHAM", "SF_14": 2.0, "SF_15": 2.0, "cnty": "Mecklenburg", "st": "NC", "Zip": 28205.0, "O_14": 2.0, "Q_15": 5.0, "O_15": 2.0, "city": "CHARLOTTE", "beds": 100.0, "SR_15": 1.0}, {"Diff_star": -1.0, "addr": "POST OFFICE BOX 248", "SR_14": 4.0, "Q_14": 3.0, "name": "BROOKSIDE REHABILITATION AND CARE", "SF_14": 3.0, "SF_15": 3.0, "cnty": "Yancey", "st": "NC", "Zip": 28714.0, "O_14": 4.0, "Q_15": 1.0, "O_15": 3.0, "city": "BURNSVILLE", "beds": 140.0, "SR_15": 4.0}, {"Diff_star": -1.0, "addr": "557 BROOKDALE DRIVE", "SR_14": 3.0, "Q_14": 4.0, "name": "IREDELL MEMORIAL HOSPITAL INC", "SF_14": 5.0, "SF_15": 5.0, "cnty": "Iredell", "st": "NC", "Zip": 28677.0, "O_14": 4.0, "Q_15": 1.0, "O_15": 3.0, "city": "STATESVILLE", "beds": 48.0, "SR_15": 3.0}, {"Diff_star": 0.0, "addr": "4414 WILKINSON BLVD", "SR_14": 2.0, "Q_14": 4.0, "name": "MEADOWWOOD NURSING CENTER", "SF_14": 3.0, "SF_15": 3.0, "cnty": "Gaston", "st": "NC", "Zip": 28056.0, "O_14": 2.0, "Q_15": 3.0, "O_15": 2.0, "city": "GASTONIA", "beds": 50.0, "SR_15": 2.0}, {"Diff_star": -1.0, "addr": "101 CAROLINE AVENUE", "SR_14": 1.0, "Q_14": 5.0, "name": "LIBERTY COMMONS NSG AND REHAB CTR OF HALIFAX CTY", "SF_14": 1.0, "SF_15": 1.0, "cnty": "Halifax", "st": "NC", "Zip": 27890.0, "O_14": 2.0, "Q_15": 4.0, "O_15": 1.0, "city": "WELDON", "beds": 50.0, "SR_15": 1.0}, {"Diff_star": 0.0, "addr": "100 HEDRICK DRIVE", "SR_14": 1.0, "Q_14": 4.0, "name": "PIEDMONT CROSSING", "SF_14": 4.0, "SF_15": 4.0, "cnty": "Davidson", "st": "NC", "Zip": 27360.0, "O_14": 2.0, "Q_15": 3.0, "O_15": 2.0, "city": "THOMASVILLE", "beds": 114.0, "SR_15": 1.0}, {"Diff_star": -1.0, "addr": "901 RIDGE ROAD", "SR_14": 3.0, "Q_14": 3.0, "name": "ROXBORO HEALTHCARE & REHAB CENTER", "SF_14": 1.0, "SF_15": 1.0, "cnty": "Person", "st": "NC", "Zip": 27573.0, "O_14": 2.0, "Q_15": 1.0, "O_15": 1.0, "city": "ROXBORO", "beds": 140.0, "SR_15": 3.0}, {"Diff_star": -1.0, "addr": "1870 PISGAH DRIVE", "SR_14": 3.0, "Q_14": 5.0, "name": "BRIAN CTR HEALTH & REHAB/HENDERSONVILLE", "SF_14": 2.0, "SF_15": 2.0, "cnty": "Henderson", "st": "NC", "Zip": 28791.0, "O_14": 4.0, "Q_15": 4.0, "O_15": 3.0, "city": "HENDERSONVILLE", "beds": 120.0, "SR_15": 3.0}, {"Diff_star": 0.0, "addr": "HWY 305 NORTH", "SR_14": 3.0, "Q_14": 5.0, "name": "NORTHAMPTON NURSING AND REHABILITATION CENTER", "SF_14": 3.0, "SF_15": 3.0, "cnty": "Northampton", "st": "NC", "Zip": 27845.0, "O_14": 4.0, "Q_15": 5.0, "O_15": 4.0, "city": "JACKSON", "beds": 80.0, "SR_15": 3.0}, {"Diff_star": -3.0, "addr": "830 BETHANY CHURCH ROAD", "SR_14": 3.0, "Q_14": 5.0, "name": "FOREST CITY HEALTH AND REHABILITATION CENTER", "SF_14": 4.0, "SF_15": 3.0, "cnty": "Rutherford", "st": "NC", "Zip": 28043.0, "O_14": 5.0, "Q_15": 5.0, "O_15": 2.0, "city": "FOREST CITY", "beds": 100.0, "SR_15": 1.0}, {"Diff_star": 0.0, "addr": "1170 LINKHAW ROAD", "SR_14": 5.0, "Q_14": 4.0, "name": "HIGHLAND ACRES NURSING AND REHABILITATION CENTER", "SF_14": 2.0, "SF_15": 2.0, "cnty": "Robeson", "st": "NC", "Zip": 28358.0, "O_14": 5.0, "Q_15": 3.0, "O_15": 5.0, "city": "LUMBERTON", "beds": 90.0, "SR_15": 5.0}, {"Diff_star": -1.0, "addr": "2275 RUIN CREEK ROAD", "SR_14": 2.0, "Q_14": 5.0, "name": "SENIOR CITIZENS HOME", "SF_14": 3.0, "SF_15": 3.0, "cnty": "Vance", "st": "NC", "Zip": 27536.0, "O_14": 3.0, "Q_15": 4.0, "O_15": 2.0, "city": "HENDERSON", "beds": 60.0, "SR_15": 2.0}, {"Diff_star": -1.0, "addr": "204 DAIRY ROAD", "SR_14": 2.0, "Q_14": 5.0, "name": "BRIAN CENTER HLTH & RETIREMENT", "SF_14": 3.0, "SF_15": 3.0, "cnty": "Johnston", "st": "NC", "Zip": 27520.0, "O_14": 3.0, "Q_15": 4.0, "O_15": 2.0, "city": "CLAYTON", "beds": 90.0, "SR_15": 2.0}, {"Diff_star": 0.0, "addr": "1478 RIVER ROAD", "SR_14": 4.0, "Q_14": 4.0, "name": "BRUNSWICK COVE NURSING CENTER", "SF_14": 1.0, "SF_15": 1.0, "cnty": "Brunswick", "st": "NC", "Zip": 28479.0, "O_14": 3.0, "Q_15": 3.0, "O_15": 3.0, "city": "WINNABOW", "beds": 147.0, "SR_15": 4.0}, {"Diff_star": 0.0, "addr": "415 ELDERBERRY LANE", "SR_14": 3.0, "Q_14": 4.0, "name": "ELDERBERRY HEALTH CARE", "SF_14": 2.0, "SF_15": 2.0, "cnty": "Madison", "st": "NC", "Zip": 28753.0, "O_14": 3.0, "Q_15": 4.0, "O_15": 3.0, "city": "MARSHALL", "beds": 80.0, "SR_15": 3.0}, {"Diff_star": 0.0, "addr": "1245 PARK AVENUE", "SR_14": 4.0, "Q_14": 4.0, "name": "KERR LAKE NURSING AND REHABILITATION CENTER", "SF_14": 3.0, "SF_15": 3.0, "cnty": "Vance", "st": "NC", "Zip": 27536.0, "O_14": 4.0, "Q_15": 3.0, "O_15": 4.0, "city": "HENDERSON", "beds": 92.0, "SR_15": 4.0}, {"Diff_star": 0.0, "addr": "290 CLEAR CREEK ROAD", "SR_14": 4.0, "Q_14": 5.0, "name": "THE LAURELS OF HENDERSONVILLE", "SF_14": 4.0, "SF_15": 4.0, "cnty": "Henderson", "st": "NC", "Zip": 28792.0, "O_14": 5.0, "Q_15": 5.0, "O_15": 5.0, "city": "HENDERSONVILLE", "beds": 100.0, "SR_15": 4.0}, {"Diff_star": 0.0, "addr": "647 S RAILROAD STREET BOX 966", "SR_14": 4.0, "Q_14": 5.0, "name": "BRIAN CTR HLTH & REHABILITATIO", "SF_14": 2.0, "SF_15": 2.0, "cnty": "Duplin", "st": "NC", "Zip": 28466.0, "O_14": 5.0, "Q_15": 5.0, "O_15": 5.0, "city": "WALLACE", "beds": 80.0, "SR_15": 4.0}, {"Diff_star": 0.0, "addr": "711 SUSAN TART ROAD BOX 948", "SR_14": 1.0, "Q_14": 4.0, "name": "CORNERSTONE NURSING AND REHABILITATION CENTER", "SF_14": 2.0, "SF_15": 2.0, "cnty": "Harnett", "st": "NC", "Zip": 28334.0, "O_14": 1.0, "Q_15": 2.0, "O_15": 1.0, "city": "DUNN", "beds": 100.0, "SR_15": 1.0}, {"Diff_star": -1.0, "addr": "701 PLANTATION ESTATES DRIVE", "SR_14": 4.0, "Q_14": 5.0, "name": "WILLOWBROOKE COURT SC CTR AT PLANTATION ESTATES", "SF_14": "", "SF_15": "", "cnty": "Mecklenburg", "st": "NC", "Zip": 28105.0, "O_14": 5.0, "Q_15": 2.0, "O_15": 4.0, "city": "MATTHEWS", "beds": 16.0, "SR_15": 4.0}, {"Diff_star": 0.0, "addr": "600 BARRETT LANE", "SR_14": 5.0, "Q_14": 4.0, "name": "GIVENS HEALTH CENTER", "SF_14": 5.0, "SF_15": 5.0, "cnty": "Buncombe", "st": "NC", "Zip": 28803.0, "O_14": 5.0, "Q_15": 3.0, "O_15": 5.0, "city": "ASHEVILLE", "beds": 70.0, "SR_15": 5.0}, {"Diff_star": 0.0, "addr": "2030 HARPER AVENUE NW", "SR_14": 2.0, "Q_14": 5.0, "name": "GATEWAY REHABILITATION AND HEALTHCARE", "SF_14": 3.0, "SF_15": 3.0, "cnty": "Caldwell", "st": "NC", "Zip": 28645.0, "O_14": 3.0, "Q_15": 5.0, "O_15": 3.0, "city": "LENOIR", "beds": 118.0, "SR_15": 2.0}, {"Diff_star": -2.0, "addr": "116 LANE DRIVE", "SR_14": 2.0, "Q_14": 3.0, "name": "THE GRAYBRIER NURS & RETIREMENT CT", "SF_14": 4.0, "SF_15": 3.0, "cnty": "Randolph", "st": "NC", "Zip": 27370.0, "O_14": 3.0, "Q_15": 1.0, "O_15": 1.0, "city": "TRINITY", "beds": 128.0, "SR_15": 2.0}, {"Diff_star": 0.0, "addr": "5151 SARDIS ROAD", "SR_14": 4.0, "Q_14": 4.0, "name": "SARDIS OAKS", "SF_14": 4.0, "SF_15": 4.0, "cnty": "Mecklenburg", "st": "NC", "Zip": 28270.0, "O_14": 4.0, "Q_15": 4.0, "O_15": 4.0, "city": "CHARLOTTE", "beds": 124.0, "SR_15": 4.0}, {"Diff_star": 0.0, "addr": "2501 DOWNING STREET SW", "SR_14": 4.0, "Q_14": 5.0, "name": "BRIAN CENTER HEALTH AND REHAB", "SF_14": 3.0, "SF_15": 3.0, "cnty": "Wilson", "st": "NC", "Zip": 27895.0, "O_14": 5.0, "Q_15": 5.0, "O_15": 5.0, "city": "WILSON", "beds": 87.0, "SR_15": 4.0}, {"Diff_star": 0.0, "addr": "877 HILL EVERHART ROAD", "SR_14": 5.0, "Q_14": 5.0, "name": "ABBOTTS CREEK CENTER", "SF_14": 2.0, "SF_15": 2.0, "cnty": "Davidson", "st": "NC", "Zip": 27295.0, "O_14": 5.0, "Q_15": 5.0, "O_15": 5.0, "city": "LEXINGTON", "beds": 64.0, "SR_15": 5.0}, {"Diff_star": -1.0, "addr": "1704 NC HIGHWAY 39 N", "SR_14": 3.0, "Q_14": 4.0, "name": "FRANKLIN OAKS NURSING AND REHABILITATION CENTER", "SF_14": 4.0, "SF_15": 3.0, "cnty": "Franklin", "st": "NC", "Zip": 27549.0, "O_14": 4.0, "Q_15": 3.0, "O_15": 3.0, "city": "LOUISBURG", "beds": 166.0, "SR_15": 3.0}, {"Diff_star": 0.0, "addr": "305 FOURTEENTH STREET", "SR_14": 3.0, "Q_14": 4.0, "name": "SIGNATURE HEALTHCARE OF ROANOKE RAPIDS", "SF_14": 3.0, "SF_15": 2.0, "cnty": "Halifax", "st": "NC", "Zip": 27870.0, "O_14": 3.0, "Q_15": 2.0, "O_15": 3.0, "city": "ROANOKE RAPIDS", "beds": 108.0, "SR_15": 3.0}, {"Diff_star": -1.0, "addr": "779 WOODY DRIVE", "SR_14": 4.0, "Q_14": 5.0, "name": "PEAK RESOURCES - ALAMANCE, INC", "SF_14": 3.0, "SF_15": 3.0, "cnty": "Alamance", "st": "NC", "Zip": 27253.0, "O_14": 5.0, "Q_15": 4.0, "O_15": 4.0, "city": "GRAHAM", "beds": 120.0, "SR_15": 4.0}, {"Diff_star": 0.0, "addr": "1306 SOUTH KING STREET", "SR_14": 1.0, "Q_14": 2.0, "name": "BRIAN CENTER HLTH & REHAB", "SF_14": "", "SF_15": "", "cnty": "Bertie", "st": "NC", "Zip": 27983.0, "O_14": 1.0, "Q_15": 1.0, "O_15": 1.0, "city": "WINDSOR", "beds": 82.0, "SR_15": 1.0}, {"Diff_star": -1.0, "addr": "2640 DAVIE AVENUE", "SR_14": 2.0, "Q_14": 5.0, "name": "MAPLE LEAF HEALTH CARE", "SF_14": 3.0, "SF_15": 3.0, "cnty": "Iredell", "st": "NC", "Zip": 28625.0, "O_14": 3.0, "Q_15": 2.0, "O_15": 2.0, "city": "STATESVILLE", "beds": 94.0, "SR_15": 2.0}, {"Diff_star": 0.0, "addr": "100 SILVER BLUFF DRIVE", "SR_14": 3.0, "Q_14": 5.0, "name": "SILVER BLUFF INC", "SF_14": 4.0, "SF_15": 4.0, "cnty": "Haywood", "st": "NC", "Zip": 28716.0, "O_14": 5.0, "Q_15": 5.0, "O_15": 5.0, "city": "CANTON", "beds": 131.0, "SR_15": 3.0}, {"Diff_star": 0.0, "addr": "1285 WEST A STREET", "SR_14": 5.0, "Q_14": 3.0, "name": "BIG ELM RETIREMENT AND NURSING CENTERS", "SF_14": 3.0, "SF_15": 3.0, "cnty": "Cabarrus", "st": "NC", "Zip": 28081.0, "O_14": 5.0, "Q_15": 2.0, "O_15": 5.0, "city": "KANNAPOLIS", "beds": 50.0, "SR_15": 5.0}, {"Diff_star": 0.0, "addr": "1700 WAYNE MEMORIAL DRIVE", "SR_14": 4.0, "Q_14": 4.0, "name": "BRIAN CENTER HEALTH AND REHABILITATION/GOLDSBORO", "SF_14": 4.0, "SF_15": 3.0, "cnty": "Wayne", "st": "NC", "Zip": 27534.0, "O_14": 4.0, "Q_15": 3.0, "O_15": 4.0, "city": "GOLDSBORO", "beds": 130.0, "SR_15": 4.0}, {"Diff_star": 0.0, "addr": "280 SOUTH  BECKFORD DRIVE", "SR_14": 5.0, "Q_14": 4.0, "name": "KINDRED NURSING & REHABILITATION-HENDERSON", "SF_14": 3.0, "SF_15": 3.0, "cnty": "Vance", "st": "NC", "Zip": 27536.0, "O_14": 5.0, "Q_15": 4.0, "O_15": 5.0, "city": "HENDERSON", "beds": 78.0, "SR_15": 5.0}, {"Diff_star": -1.0, "addr": "204 OLD HIGHWAY 74 EAST", "SR_14": 3.0, "Q_14": 5.0, "name": "BRIAN CENTER HEALTH & RETIREMENT/MONROE", "SF_14": 4.0, "SF_15": 4.0, "cnty": "Union", "st": "NC", "Zip": 28112.0, "O_14": 5.0, "Q_15": 3.0, "O_15": 4.0, "city": "MONROE", "beds": 60.0, "SR_15": 3.0}, {"Diff_star": 0.0, "addr": "523 COUNTRY CLUB DRIVE", "SR_14": 1.0, "Q_14": 3.0, "name": "WHISPERING PINES NURSING & REHAB CENTER", "SF_14": 1.0, "SF_15": 2.0, "cnty": "Cumberland", "st": "NC", "Zip": 28301.0, "O_14": 1.0, "Q_15": 2.0, "O_15": 1.0, "city": "FAYETTEVILLE", "beds": 86.0, "SR_15": 1.0}, {"Diff_star": 0.0, "addr": "2778 COUNTRY CLUB DRIVE", "SR_14": 3.0, "Q_14": 4.0, "name": "WOODBURY WELLNESS CENTER INC", "SF_14": 3.0, "SF_15": 3.0, "cnty": "Pender", "st": "NC", "Zip": 28443.0, "O_14": 3.0, "Q_15": 2.0, "O_15": 3.0, "city": "HAMPSTEAD", "beds": 112.0, "SR_15": 3.0}, {"Diff_star": 0.0, "addr": "2300 ABERDEEN BOULEVARD", "SR_14": 1.0, "Q_14": 3.0, "name": "COURTLAND TERRACE", "SF_14": 1.0, "SF_15": 1.0, "cnty": "Gaston", "st": "NC", "Zip": 28054.0, "O_14": 1.0, "Q_15": 2.0, "O_15": 1.0, "city": "GASTONIA", "beds": 77.0, "SR_15": 1.0}, {"Diff_star": 0.0, "addr": "501 ESSEOLA CIRCLE", "SR_14": 2.0, "Q_14": 3.0, "name": "AUTUMN CARE OF SALUDA", "SF_14": 1.0, "SF_15": 1.0, "cnty": "Polk", "st": "NC", "Zip": 28773.0, "O_14": 1.0, "Q_15": 1.0, "O_15": 1.0, "city": "SALUDA", "beds": 99.0, "SR_15": 2.0}, {"Diff_star": -1.0, "addr": "1700 PAMALEE DRIVE", "SR_14": 1.0, "Q_14": 4.0, "name": "HIGHLAND HOUSE REHABILITATION AND HEALTHCARE", "SF_14": 4.0, "SF_15": 4.0, "cnty": "Cumberland", "st": "NC", "Zip": 28301.0, "O_14": 2.0, "Q_15": 1.0, "O_15": 1.0, "city": "FAYETTEVILLE", "beds": 106.0, "SR_15": 1.0}, {"Diff_star": 0.0, "addr": "728 PINEY GROVE ROAD", "SR_14": 4.0, "Q_14": 4.0, "name": "PINEY GROVE NURSING AND REHABILITATION CENTER", "SF_14": 2.0, "SF_15": 2.0, "cnty": "Forsyth", "st": "NC", "Zip": 27284.0, "O_14": 4.0, "Q_15": 3.0, "O_15": 4.0, "city": "KERNERSVILLE", "beds": 92.0, "SR_15": 4.0}, {"Diff_star": 0.0, "addr": "811 SNOWBIRD ROAD", "SR_14": 3.0, "Q_14": 4.0, "name": "GRAHAM HEALTHCARE AND REHABILITATION CENTER", "SF_14": 4.0, "SF_15": 4.0, "cnty": "Graham", "st": "NC", "Zip": 28771.0, "O_14": 4.0, "Q_15": 2.0, "O_15": 4.0, "city": "ROBBINSVILLE", "beds": 80.0, "SR_15": 3.0}, {"Diff_star": -1.0, "addr": "300 NORTH MAIN STREET", "SR_14": 2.0, "Q_14": 5.0, "name": "RICH SQUARE HEALTH CARE CENTER", "SF_14": 2.0, "SF_15": 2.0, "cnty": "Northampton", "st": "NC", "Zip": 27869.0, "O_14": 3.0, "Q_15": 5.0, "O_15": 2.0, "city": "RICH SQUARE", "beds": 69.0, "SR_15": 1.0}, {"Diff_star": 0.0, "addr": "1303 HEALTH DRIVE", "SR_14": 2.0, "Q_14": 4.0, "name": "PRUITTHEALTH-NEUSE", "SF_14": 2.0, "SF_15": 2.0, "cnty": "Craven", "st": "NC", "Zip": 28560.0, "O_14": 2.0, "Q_15": 2.0, "O_15": 2.0, "city": "NEW BERN", "beds": 110.0, "SR_15": 2.0}, {"Diff_star": -1.0, "addr": "202 SMOKETREE WAY", "SR_14": 3.0, "Q_14": 4.0, "name": "LOUISBURG NURSING CENTER", "SF_14": 4.0, "SF_15": 3.0, "cnty": "Franklin", "st": "NC", "Zip": 27549.0, "O_14": 4.0, "Q_15": 4.0, "O_15": 3.0, "city": "LOUISBURG", "beds": 92.0, "SR_15": 3.0}, {"Diff_star": 0.0, "addr": "604 STOKES STREET  EAST", "SR_14": 3.0, "Q_14": 4.0, "name": "CREEKSIDE CARE & REHABILITATION CENTER", "SF_14": 2.0, "SF_15": 2.0, "cnty": "Hertford", "st": "NC", "Zip": 27910.0, "O_14": 3.0, "Q_15": 2.0, "O_15": 3.0, "city": "AHOSKIE", "beds": 151.0, "SR_15": 3.0}, {"Diff_star": 0.0, "addr": "250 BISHOP LANE", "SR_14": 1.0, "Q_14": 5.0, "name": "BRIAN CENTER HEALTH & RETIREMENT/CABARRUS", "SF_14": 4.0, "SF_15": 3.0, "cnty": "Cabarrus", "st": "NC", "Zip": 28025.0, "O_14": 2.0, "Q_15": 5.0, "O_15": 2.0, "city": "CONCORD", "beds": 90.0, "SR_15": 1.0}, {"Diff_star": -1.0, "addr": "2502 S NC 119", "SR_14": 3.0, "Q_14": 3.0, "name": "THE PRESBYTERIAN HOME OF HAWFIELDS", "SF_14": 2.0, "SF_15": 2.0, "cnty": "Alamance", "st": "NC", "Zip": 27302.0, "O_14": 3.0, "Q_15": 1.0, "O_15": 2.0, "city": "MEBANE", "beds": 117.0, "SR_15": 3.0}, {"Diff_star": 0.0, "addr": "907 CUNNINGHAM ROAD", "SR_14": 3.0, "Q_14": 5.0, "name": "SIGNATURE HEALTHCARE OF KINSTON", "SF_14": 1.0, "SF_15": 1.0, "cnty": "Lenoir", "st": "NC", "Zip": 28501.0, "O_14": 3.0, "Q_15": 5.0, "O_15": 3.0, "city": "KINSTON", "beds": 114.0, "SR_15": 3.0}, {"Diff_star": 0.0, "addr": "1304 SE SECOND STREET", "SR_14": 4.0, "Q_14": 4.0, "name": "GREENDALE FOREST NURSING AND REHABILITATION CENTER", "SF_14": 4.0, "SF_15": 4.0, "cnty": "Greene", "st": "NC", "Zip": 28580.0, "O_14": 4.0, "Q_15": 3.0, "O_15": 4.0, "city": "SNOW HILL", "beds": 115.0, "SR_15": 4.0}, {"Diff_star": 0.0, "addr": "POST OFFICE BOX 40", "SR_14": 4.0, "Q_14": 3.0, "name": "GOLDEN YEARS NURSING HOME", "SF_14": 1.0, "SF_15": 1.0, "cnty": "Cumberland", "st": "NC", "Zip": 28342.0, "O_14": 3.0, "Q_15": 2.0, "O_15": 3.0, "city": "FALCON", "beds": 58.0, "SR_15": 4.0}, {"Diff_star": -1.0, "addr": "4420 LAKE BOONE TRAIL", "SR_14": 3.0, "Q_14": 5.0, "name": "REX REHAB & NSG CARE CENTER", "SF_14": 4.0, "SF_15": 4.0, "cnty": "Wake", "st": "NC", "Zip": 27607.0, "O_14": 5.0, "Q_15": 4.0, "O_15": 4.0, "city": "RALEIGH", "beds": 120.0, "SR_15": 3.0}, {"Diff_star": 0.0, "addr": "300 BLAKE BOULEVARD", "SR_14": 1.0, "Q_14": 3.0, "name": "PINEHURST HEALTHCARE & REHAB", "SF_14": 2.0, "SF_15": 2.0, "cnty": "Moore", "st": "NC", "Zip": 28374.0, "O_14": 1.0, "Q_15": 2.0, "O_15": 1.0, "city": "PINEHURST", "beds": 144.0, "SR_15": 1.0}, {"Diff_star": 0.0, "addr": "836 HOSPITAL DRIVE", "SR_14": 2.0, "Q_14": 4.0, "name": "PRUITTHEALTH-TRENT", "SF_14": 3.0, "SF_15": 3.0, "cnty": "Craven", "st": "NC", "Zip": 28560.0, "O_14": 2.0, "Q_15": 2.0, "O_15": 2.0, "city": "NEW BERN", "beds": 116.0, "SR_15": 2.0}, {"Diff_star": 0.0, "addr": "403 CRESTVIEW AVENUE", "SR_14": 3.0, "Q_14": 5.0, "name": "WILSON PINES NURSING AND REHABILITATION CENTER", "SF_14": 3.0, "SF_15": 3.0, "cnty": "Wilson", "st": "NC", "Zip": 27893.0, "O_14": 4.0, "Q_15": 5.0, "O_15": 4.0, "city": "WILSON", "beds": 95.0, "SR_15": 3.0}, {"Diff_star": -1.0, "addr": "630 FODALE AVENUE", "SR_14": 1.0, "Q_14": 3.0, "name": "OCEAN TRAIL HEALTHCARE & REHAB CENTER", "SF_14": 4.0, "SF_15": "", "cnty": "Brunswick", "st": "NC", "Zip": 28461.0, "O_14": 2.0, "Q_15": 1.0, "O_15": 1.0, "city": "SOUTHPORT", "beds": 99.0, "SR_15": 1.0}, {"Diff_star": 0.0, "addr": "1022 EASTERN AVENUE", "SR_14": 2.0, "Q_14": 4.0, "name": "UNIVERSAL HEALTH CARE/NASHVILLE", "SF_14": 1.0, "SF_15": 1.0, "cnty": "Nash", "st": "NC", "Zip": 27856.0, "O_14": 1.0, "Q_15": 2.0, "O_15": 1.0, "city": "NASHVILLE", "beds": 60.0, "SR_15": 2.0}, {"Diff_star": -1.0, "addr": "920 JR HIGH SCHOOL ROAD", "SR_14": 1.0, "Q_14": 5.0, "name": "SCOTLAND MANOR HEALTH CARE CENTER", "SF_14": 2.0, "SF_15": 2.0, "cnty": "Halifax", "st": "NC", "Zip": 27874.0, "O_14": 2.0, "Q_15": 4.0, "O_15": 1.0, "city": "SCOTLAND NECK", "beds": 62.0, "SR_15": 1.0}, {"Diff_star": 0.0, "addr": "2461 LEGION ROAD", "SR_14": 1.0, "Q_14": 2.0, "name": "CUMBERLAND NURSING AND REHABILITATION CENTER", "SF_14": 1.0, "SF_15": 1.0, "cnty": "Cumberland", "st": "NC", "Zip": 28306.0, "O_14": 1.0, "Q_15": 1.0, "O_15": 1.0, "city": "FAYETTEVILLE", "beds": 120.0, "SR_15": 1.0}, {"Diff_star": 0.0, "addr": "2575 W 5TH STREET", "SR_14": 1.0, "Q_14": 1.0, "name": "GREENFIELD PLACE", "SF_14": 4.0, "SF_15": 4.0, "cnty": "Pitt", "st": "NC", "Zip": 27834.0, "O_14": 1.0, "Q_15": 1.0, "O_15": 1.0, "city": "GREENVILLE", "beds": 130.0, "SR_15": 1.0}, {"Diff_star": 0.0, "addr": "804 SOUTH LONG DRIVE", "SR_14": 2.0, "Q_14": 4.0, "name": "ROCKINGHAM MANOR", "SF_14": 2.0, "SF_15": 2.0, "cnty": "Richmond", "st": "NC", "Zip": 28379.0, "O_14": 2.0, "Q_15": 3.0, "O_15": 2.0, "city": "ROCKINGHAM", "beds": 118.0, "SR_15": 2.0}, {"Diff_star": 0.0, "addr": "1601 PURDUE DRIVE", "SR_14": 5.0, "Q_14": 4.0, "name": "THE REHAB AND HC CTR AT VILLAGE GR", "SF_14": 2.0, "SF_15": 2.0, "cnty": "Cumberland", "st": "NC", "Zip": 28304.0, "O_14": 5.0, "Q_15": 4.0, "O_15": 5.0, "city": "FAYETTEVILLE", "beds": 170.0, "SR_15": 5.0}, {"Diff_star": 0.0, "addr": "440 INGRAM ROAD EXT BOX 1750", "SR_14": 4.0, "Q_14": 3.0, "name": "VILLAGE CARE OF KING", "SF_14": 4.0, "SF_15": 3.0, "cnty": "Stokes", "st": "NC", "Zip": 27021.0, "O_14": 4.0, "Q_15": 2.0, "O_15": 4.0, "city": "KING", "beds": 96.0, "SR_15": 4.0}, {"Diff_star": 0.0, "addr": "620 JOHNS ROAD", "SR_14": 3.0, "Q_14": 4.0, "name": "SCOTTISH PINES REHABILITATION AND NURSING CENTER", "SF_14": 2.0, "SF_15": 2.0, "cnty": "Scotland", "st": "NC", "Zip": 28352.0, "O_14": 3.0, "Q_15": 3.0, "O_15": 3.0, "city": "LAURINBURG", "beds": 99.0, "SR_15": 3.0}, {"Diff_star": -1.0, "addr": "4351 SOUTH MAIN STREET", "SR_14": 3.0, "Q_14": 5.0, "name": "HERITAGE HEALTHCARE OF FARMVILLE", "SF_14": 2.0, "SF_15": 2.0, "cnty": "Pitt", "st": "NC", "Zip": 27828.0, "O_14": 4.0, "Q_15": 4.0, "O_15": 3.0, "city": "FARMVILLE", "beds": 56.0, "SR_15": 3.0}, {"Diff_star": 0.0, "addr": "931 N ASPEN STREET", "SR_14": 3.0, "Q_14": 4.0, "name": "CARDINAL HEALTHCARE AND REHAB", "SF_14": 1.0, "SF_15": 1.0, "cnty": "Lincoln", "st": "NC", "Zip": 28092.0, "O_14": 2.0, "Q_15": 2.0, "O_15": 2.0, "city": "LINCOLNTON", "beds": 83.0, "SR_15": 3.0}, {"Diff_star": 1.0, "addr": "1370 WEST D STREET", "SR_14": 4.0, "Q_14": 4.0, "name": "WILKES REGIONAL MEDICAL CTR SN", "SF_14": 4.0, "SF_15": 4.0, "cnty": "Wilkes", "st": "NC", "Zip": 28659.0, "O_14": 4.0, "Q_15": 5.0, "O_15": 5.0, "city": "NORTH WILKESBORO", "beds": 10.0, "SR_15": 4.0}, {"Diff_star": 0.0, "addr": "620 TOM HUNTER ROAD", "SR_14": 2.0, "Q_14": 4.0, "name": "HUNTER WOODS NURSING AND REHAB", "SF_14": 1.0, "SF_15": 1.0, "cnty": "Mecklenburg", "st": "NC", "Zip": 28256.0, "O_14": 1.0, "Q_15": 3.0, "O_15": 1.0, "city": "CHARLOTTE", "beds": 120.0, "SR_15": 2.0}, {"Diff_star": 0.0, "addr": "1101 HARTWELL STREET", "SR_14": 1.0, "Q_14": 5.0, "name": "THE LAURELS OF FOREST GLENN", "SF_14": 5.0, "SF_15": 5.0, "cnty": "Wake", "st": "NC", "Zip": 27529.0, "O_14": 2.0, "Q_15": 5.0, "O_15": 2.0, "city": "GARNER", "beds": 120.0, "SR_15": 1.0}, {"Diff_star": 0.0, "addr": "7700 US 158 EAST", "SR_14": 4.0, "Q_14": 4.0, "name": "COUNTRYSIDE MANOR", "SF_14": 4.0, "SF_15": 4.0, "cnty": "Guilford", "st": "NC", "Zip": 27357.0, "O_14": 4.0, "Q_15": 3.0, "O_15": 4.0, "city": "STOKESDALE", "beds": 60.0, "SR_15": 4.0}, {"Diff_star": -1.0, "addr": "1131 NORTH CHURCH STREET", "SR_14": 2.0, "Q_14": 5.0, "name": "HEARTLAND LIVING & REHAB AT THE MOSES H CONE MEM H", "SF_14": 2.0, "SF_15": 2.0, "cnty": "Guilford", "st": "NC", "Zip": 27401.0, "O_14": 3.0, "Q_15": 4.0, "O_15": 2.0, "city": "GREENSBORO", "beds": 106.0, "SR_15": 2.0}, {"Diff_star": -1.0, "addr": "2051 COUNTY CLUB ROAD", "SR_14": 2.0, "Q_14": 3.0, "name": "AMBASSADOR HEALTH & REHAB OF WADESBORO, LLC", "SF_14": 4.0, "SF_15": 3.0, "cnty": "Anson", "st": "NC", "Zip": 28170.0, "O_14": 3.0, "Q_15": 2.0, "O_15": 2.0, "city": "WADESBORO", "beds": 66.0, "SR_15": 2.0}, {"Diff_star": 0.0, "addr": "104 HOLCOMBE COVE ROAD", "SR_14": 1.0, "Q_14": 5.0, "name": "PISGAH MANOR HEALTH CARE CENTER", "SF_14": 3.0, "SF_15": 3.0, "cnty": "Buncombe", "st": "NC", "Zip": 28715.0, "O_14": 2.0, "Q_15": 5.0, "O_15": 2.0, "city": "CANDLER", "beds": 118.0, "SR_15": 1.0}, {"Diff_star": -1.0, "addr": "8990 HIGHWAY 17 SOUTH", "SR_14": 3.0, "Q_14": 5.0, "name": "BROOK STONE LIVING CENTER", "SF_14": 2.0, "SF_15": 2.0, "cnty": "Jones", "st": "NC", "Zip": 28573.0, "O_14": 4.0, "Q_15": 4.0, "O_15": 3.0, "city": "POLLOCKSVILLE", "beds": 80.0, "SR_15": 3.0}, {"Diff_star": -1.0, "addr": "7615 DALLAS CHERRYVILLE HIGHWAY", "SR_14": 3.0, "Q_14": 5.0, "name": "PEAK RESOURCES-CHERRYVILLE", "SF_14": 5.0, "SF_15": 5.0, "cnty": "Gaston", "st": "NC", "Zip": 28021.0, "O_14": 5.0, "Q_15": 4.0, "O_15": 4.0, "city": "CHERRYVILLE", "beds": 54.0, "SR_15": 3.0}, {"Diff_star": 0.0, "addr": "1349 CRABTREE ROAD", "SR_14": 2.0, "Q_14": 4.0, "name": "SMOKY MOUNTAIN HEALTH AND REHABILITATION CENTER", "SF_14": 4.0, "SF_15": 4.0, "cnty": "Haywood", "st": "NC", "Zip": 28785.0, "O_14": 3.0, "Q_15": 3.0, "O_15": 3.0, "city": "WAYNESVILLE", "beds": 50.0, "SR_15": 2.0}, {"Diff_star": 0.0, "addr": "200 FLOWER-PRIDGEN DRIVE", "SR_14": 3.0, "Q_14": 4.0, "name": "SHORELAND HLTH CARE & RETIREME", "SF_14": 1.0, "SF_15": 2.0, "cnty": "Columbus", "st": "NC", "Zip": 28472.0, "O_14": 2.0, "Q_15": 3.0, "O_15": 2.0, "city": "WHITEVILLE", "beds": 89.0, "SR_15": 2.0}, {"Diff_star": 0.0, "addr": "193 ASHEVILLE HIGHWAY", "SR_14": 2.0, "Q_14": 4.0, "name": "SKYLAND CARE CENTER", "SF_14": 2.0, "SF_15": 2.0, "cnty": "Jackson", "st": "NC", "Zip": 28779.0, "O_14": 2.0, "Q_15": 3.0, "O_15": 2.0, "city": "SYLVA", "beds": 94.0, "SR_15": 2.0}, {"Diff_star": -1.0, "addr": "204 OLD BRICKYARD ROAD", "SR_14": 5.0, "Q_14": 3.0, "name": "WILKES SENIOR VILLAGE", "SF_14": 4.0, "SF_15": 4.0, "cnty": "Wilkes", "st": "NC", "Zip": 28659.0, "O_14": 5.0, "Q_15": 3.0, "O_15": 4.0, "city": "NORTH WILKESBORO", "beds": 111.0, "SR_15": 4.0}, {"Diff_star": 0.0, "addr": "6590 TRYON ROAD", "SR_14": 1.0, "Q_14": 4.0, "name": "CARY HEALTH AND REHABILITATION", "SF_14": 2.0, "SF_15": 2.0, "cnty": "Wake", "st": "NC", "Zip": 27518.0, "O_14": 1.0, "Q_15": 3.0, "O_15": 1.0, "city": "CARY", "beds": 120.0, "SR_15": 1.0}, {"Diff_star": -1.0, "addr": "1403 CONNER DRIVE", "SR_14": 3.0, "Q_14": 5.0, "name": "THREE RIVERS HEALTH AND REHAB", "SF_14": 4.0, "SF_15": 4.0, "cnty": "Bertie", "st": "NC", "Zip": 27983.0, "O_14": 5.0, "Q_15": 4.0, "O_15": 4.0, "city": "WINDSOR", "beds": 60.0, "SR_15": 3.0}, {"Diff_star": 0.0, "addr": "1735 TODDVILLE ROAD", "SR_14": 1.0, "Q_14": 4.0, "name": "CHARLOTTE HEALTH & REHABILITATION CENTER", "SF_14": 3.0, "SF_15": 3.0, "cnty": "Mecklenburg", "st": "NC", "Zip": 28214.0, "O_14": 1.0, "Q_15": 2.0, "O_15": 1.0, "city": "CHARLOTTE", "beds": 120.0, "SR_15": 1.0}, {"Diff_star": 0.0, "addr": "38 CARTERS ROAD", "SR_14": 2.0, "Q_14": 4.0, "name": "DOWN EAST HEALTH AND REHAB CEN", "SF_14": 1.0, "SF_15": 1.0, "cnty": "Gates", "st": "NC", "Zip": 27938.0, "O_14": 1.0, "Q_15": 2.0, "O_15": 1.0, "city": "GATESVILLE", "beds": 70.0, "SR_15": 2.0}, {"Diff_star": 0.0, "addr": "1719 SWAN QUARTER ROAD", "SR_14": 2.0, "Q_14": 4.0, "name": "CROSS CREEK HEALTH CARE", "SF_14": 2.0, "SF_15": 2.0, "cnty": "Hyde", "st": "NC", "Zip": 27885.0, "O_14": 2.0, "Q_15": 3.0, "O_15": 2.0, "city": "SWANQUARTER", "beds": 80.0, "SR_15": 2.0}, {"Diff_star": -1.0, "addr": "6000 FAYETTEVILLE ROAD", "SR_14": 5.0, "Q_14": 4.0, "name": "BRIAN CENTER HEALTH AND REHABILITATION/DURHAM", "SF_14": 4.0, "SF_15": 4.0, "cnty": "Durham", "st": "NC", "Zip": 27713.0, "O_14": 5.0, "Q_15": 2.0, "O_15": 4.0, "city": "DURHAM", "beds": 120.0, "SR_15": 4.0}, {"Diff_star": -1.0, "addr": "310 E WARDELL DRIVE", "SR_14": 5.0, "Q_14": 3.0, "name": "PEMBROKE CENTER", "SF_14": 2.0, "SF_15": 2.0, "cnty": "Robeson", "st": "NC", "Zip": 28372.0, "O_14": 5.0, "Q_15": 1.0, "O_15": 4.0, "city": "PEMBROKE", "beds": 84.0, "SR_15": 5.0}, {"Diff_star": 0.0, "addr": "1287 NEWSOME STREET", "SR_14": 4.0, "Q_14": 4.0, "name": "CENTRAL CONTINUING CARE", "SF_14": 3.0, "SF_15": 3.0, "cnty": "Surry", "st": "NC", "Zip": 27030.0, "O_14": 4.0, "Q_15": 2.0, "O_15": 4.0, "city": "MOUNT AIRY", "beds": 120.0, "SR_15": 4.0}, {"Diff_star": 0.0, "addr": "516 WALL STREET", "SR_14": 3.0, "Q_14": 4.0, "name": "BRIAN CENTER HEALTH AND REHAB/WAYNESVILLE", "SF_14": 3.0, "SF_15": 3.0, "cnty": "Haywood", "st": "NC", "Zip": 28786.0, "O_14": 3.0, "Q_15": 3.0, "O_15": 3.0, "city": "WAYNESVILLE", "beds": 90.0, "SR_15": 3.0}, {"Diff_star": 0.0, "addr": "1038 COLLEGE STREET", "SR_14": 3.0, "Q_14": 3.0, "name": "BRANTWOOD NH & RETIREMENT CENT", "SF_14": 1.0, "SF_15": 1.0, "cnty": "Granville", "st": "NC", "Zip": 27565.0, "O_14": 2.0, "Q_15": 2.0, "O_15": 2.0, "city": "OXFORD", "beds": 80.0, "SR_15": 3.0}, {"Diff_star": 0.0, "addr": "3016 CANE CREEK ROAD", "SR_14": 2.0, "Q_14": 4.0, "name": "FLESHERS FAIRVIEW HEALTH CARE", "SF_14": 4.0, "SF_15": 4.0, "cnty": "Buncombe", "st": "NC", "Zip": 28730.0, "O_14": 3.0, "Q_15": 2.0, "O_15": 3.0, "city": "FAIRVIEW", "beds": 106.0, "SR_15": 2.0}, {"Diff_star": 0.0, "addr": "2346 BARRINGTON CIRCLE", "SR_14": 2.0, "Q_14": 4.0, "name": "HAYMOUNT REHABILITATION & NURSING CENTER, INC", "SF_14": 1.0, "SF_15": 1.0, "cnty": "Cumberland", "st": "NC", "Zip": 28303.0, "O_14": 1.0, "Q_15": 2.0, "O_15": 1.0, "city": "FAYETTEVILLE", "beds": 98.0, "SR_15": 2.0}, {"Diff_star": 0.0, "addr": "1010 LAKEVIEW DRIVE", "SR_14": 2.0, "Q_14": 5.0, "name": "PINEVILLE REHABILITATION AND LIVING CTR", "SF_14": 1.0, "SF_15": 1.0, "cnty": "Mecklenburg", "st": "NC", "Zip": 28134.0, "O_14": 2.0, "Q_15": 5.0, "O_15": 2.0, "city": "PINEVILLE", "beds": 106.0, "SR_15": 2.0}, {"Diff_star": 1.0, "addr": "142 BERMUDA VILLAGE DRIVE", "SR_14": 3.0, "Q_14": 4.0, "name": "BERMUDA VILLAGE RETIREMENT CEN", "SF_14": "", "SF_15": "", "cnty": "Davie", "st": "NC", "Zip": 27006.0, "O_14": 3.0, "Q_15": 5.0, "O_15": 4.0, "city": "BERMUDA RUN", "beds": 3.0, "SR_15": 3.0}, {"Diff_star": 0.0, "addr": "968 EAST WAIT AVENUE", "SR_14": 1.0, "Q_14": 3.0, "name": "HILLSIDE NURSING CENTER OF WAK", "SF_14": 4.0, "SF_15": 4.0, "cnty": "Wake", "st": "NC", "Zip": 27587.0, "O_14": 2.0, "Q_15": 2.0, "O_15": 2.0, "city": "WAKE FOREST", "beds": 130.0, "SR_15": 1.0}, {"Diff_star": 0.0, "addr": "1984 US HIGHWAY 70", "SR_14": 1.0, "Q_14": 2.0, "name": "ASHEVILLE HEALTH CARE CENTER", "SF_14": 3.0, "SF_15": 3.0, "cnty": "Buncombe", "st": "NC", "Zip": 28778.0, "O_14": 1.0, "Q_15": 1.0, "O_15": 1.0, "city": "SWANNANOA", "beds": 106.0, "SR_15": 1.0}, {"Diff_star": 0.0, "addr": "17 CORNELIA DRIVE", "SR_14": 5.0, "Q_14": 5.0, "name": "LEXINGTON HEALTH CARE CENTER", "SF_14": 3.0, "SF_15": 3.0, "cnty": "Davidson", "st": "NC", "Zip": 27292.0, "O_14": 5.0, "Q_15": 5.0, "O_15": 5.0, "city": "LEXINGTON", "beds": 90.0, "SR_15": 5.0}, {"Diff_star": -2.0, "addr": "1987 HILTON STREET", "SR_14": 2.0, "Q_14": 5.0, "name": "ALAMANCE HEALTH CARE CENTER", "SF_14": 4.0, "SF_15": 3.0, "cnty": "Alamance", "st": "NC", "Zip": 27217.0, "O_14": 4.0, "Q_15": 3.0, "O_15": 2.0, "city": "BURLINGTON", "beds": 180.0, "SR_15": 2.0}, {"Diff_star": 0.0, "addr": "72 CHATHAM BUSINESS PARK", "SR_14": 1.0, "Q_14": 4.0, "name": "THE LAURELS OF CHATHAM", "SF_14": 4.0, "SF_15": 4.0, "cnty": "Chatham", "st": "NC", "Zip": 27312.0, "O_14": 2.0, "Q_15": 2.0, "O_15": 2.0, "city": "PITTSBORO", "beds": 140.0, "SR_15": 1.0}, {"Diff_star": 0.0, "addr": "1705 SOUTH TARBORO STREET", "SR_14": 3.0, "Q_14": 5.0, "name": "WILMED NURSING CARE CENTER", "SF_14": 4.0, "SF_15": 4.0, "cnty": "Wilson", "st": "NC", "Zip": 27893.0, "O_14": 5.0, "Q_15": 5.0, "O_15": 5.0, "city": "WILSON", "beds": 90.0, "SR_15": 3.0}, {"Diff_star": 0.0, "addr": "149 FAIR HAVEN DRIVE", "SR_14": 2.0, "Q_14": 5.0, "name": "FAIR HAVEN HOME INC", "SF_14": 4.0, "SF_15": 4.0, "cnty": "Rutherford", "st": "NC", "Zip": 28018.0, "O_14": 4.0, "Q_15": 5.0, "O_15": 4.0, "city": "BOSTIC", "beds": 30.0, "SR_15": 2.0}, {"Diff_star": 0.0, "addr": "551 KENT STREET", "SR_14": 1.0, "Q_14": 4.0, "name": "VALLEY VIEW CARE & REHAB CENTER", "SF_14": 1.0, "SF_15": 1.0, "cnty": "Cherokee", "st": "NC", "Zip": 28901.0, "O_14": 1.0, "Q_15": 3.0, "O_15": 1.0, "city": "ANDREWS", "beds": 76.0, "SR_15": 1.0}, {"Diff_star": 0.0, "addr": "215 LASH DRIVE", "SR_14": 4.0, "Q_14": 3.0, "name": "THE LAURELS OF SALISBURY", "SF_14": 4.0, "SF_15": 4.0, "cnty": "Rowan", "st": "NC", "Zip": 28147.0, "O_14": 4.0, "Q_15": 2.0, "O_15": 4.0, "city": "SALISBURY", "beds": 60.0, "SR_15": 4.0}, {"Diff_star": 0.0, "addr": "801 PINEHURST AVENUE", "SR_14": 1.0, "Q_14": 4.0, "name": "PEAK RESOURCES - PINELAKE", "SF_14": 2.0, "SF_15": 2.0, "cnty": "Moore", "st": "NC", "Zip": 28327.0, "O_14": 1.0, "Q_15": 2.0, "O_15": 1.0, "city": "CARTHAGE", "beds": 90.0, "SR_15": 1.0}, {"Diff_star": -1.0, "addr": "921 JUNIOR HIGH SCHOOL ROAD", "SR_14": 4.0, "Q_14": 3.0, "name": "OUR COMMUNITY HOSPITAL", "SF_14": 4.0, "SF_15": 4.0, "cnty": "Halifax", "st": "NC", "Zip": 27874.0, "O_14": 4.0, "Q_15": 1.0, "O_15": 3.0, "city": "SCOTLAND NECK", "beds": 60.0, "SR_15": 4.0}, {"Diff_star": 0.0, "addr": "213 RICHMOND HILL DRIVE", "SR_14": 4.0, "Q_14": 4.0, "name": "WESTERN NORTH CAROLINA BAPTIST HOME", "SF_14": 4.0, "SF_15": 4.0, "cnty": "Buncombe", "st": "NC", "Zip": 28806.0, "O_14": 4.0, "Q_15": 2.0, "O_15": 4.0, "city": "ASHEVILLE", "beds": 80.0, "SR_15": 4.0}, {"Diff_star": 0.0, "addr": "86 VALLEY HIDEAWAY DRIVE", "SR_14": 1.0, "Q_14": 4.0, "name": "CLAY COUNTY CARE CENTER", "SF_14": 3.0, "SF_15": 3.0, "cnty": "Clay", "st": "NC", "Zip": 28904.0, "O_14": 1.0, "Q_15": 3.0, "O_15": 1.0, "city": "HAYESVILLE", "beds": 90.0, "SR_15": 1.0}, {"Diff_star": -1.0, "addr": "321 EAST CARVER STREET", "SR_14": 1.0, "Q_14": 4.0, "name": "CARVER LIVING CENTER", "SF_14": 4.0, "SF_15": 3.0, "cnty": "Durham", "st": "NC", "Zip": 27704.0, "O_14": 2.0, "Q_15": 2.0, "O_15": 1.0, "city": "DURHAM", "beds": 232.0, "SR_15": 1.0}, {"Diff_star": -1.0, "addr": "1000 TANDALL PLACE", "SR_14": 1.0, "Q_14": 5.0, "name": "WELLINGTON REHABILITATION AND HEALTHCARE", "SF_14": 1.0, "SF_15": 1.0, "cnty": "Wake", "st": "NC", "Zip": 27545.0, "O_14": 2.0, "Q_15": 3.0, "O_15": 1.0, "city": "KNIGHTDALE", "beds": 80.0, "SR_15": 1.0}, {"Diff_star": 0.0, "addr": "190 HOSPITAL DRIVE", "SR_14": 3.0, "Q_14": 4.0, "name": "HIGHLANDS CASHIERS HOSPITAL IN", "SF_14": 4.0, "SF_15": 4.0, "cnty": "Macon", "st": "NC", "Zip": 28741.0, "O_14": 4.0, "Q_15": 3.0, "O_15": 4.0, "city": "HIGHLANDS", "beds": 84.0, "SR_15": 3.0}, {"Diff_star": 0.0, "addr": "100 RICEVILLE ROAD", "SR_14": 3.0, "Q_14": 5.0, "name": "THE LAURELS OF SUMMIT RIDGE", "SF_14": 4.0, "SF_15": 4.0, "cnty": "Buncombe", "st": "NC", "Zip": 28805.0, "O_14": 5.0, "Q_15": 5.0, "O_15": 5.0, "city": "ASHEVILLE", "beds": 60.0, "SR_15": 3.0}, {"Diff_star": 0.0, "addr": "300 MEADOWLAND DRIVE", "SR_14": 4.0, "Q_14": 5.0, "name": "BROOKSHIRE NURSING CENTER", "SF_14": 4.0, "SF_15": 4.0, "cnty": "Orange", "st": "NC", "Zip": 27278.0, "O_14": 5.0, "Q_15": 5.0, "O_15": 5.0, "city": "HILLSBOROUGH", "beds": 100.0, "SR_15": 4.0}, {"Diff_star": 0.0, "addr": "1770 OAK HOLLOW ROAD", "SR_14": 5.0, "Q_14": 4.0, "name": "ALEXANDRIA PLACE", "SF_14": 4.0, "SF_15": 4.0, "cnty": "Gaston", "st": "NC", "Zip": 28054.0, "O_14": 5.0, "Q_15": 4.0, "O_15": 5.0, "city": "GASTONIA", "beds": 60.0, "SR_15": 5.0}, {"Diff_star": 1.0, "addr": "620 HEATHWOOD DRIVE", "SR_14": 1.0, "Q_14": 4.0, "name": "FORREST OAKES HEALTHCARE CENTER", "SF_14": 2.0, "SF_15": 4.0, "cnty": "Stanly", "st": "NC", "Zip": 28001.0, "O_14": 1.0, "Q_15": 2.0, "O_15": 2.0, "city": "ALBEMARLE", "beds": 60.0, "SR_15": 1.0}, {"Diff_star": -2.0, "addr": "5680 WINDY HILL DRIVE", "SR_14": 2.0, "Q_14": 2.0, "name": "OAK FOREST HEALTH AND REHABILITATION", "SF_14": 4.0, "SF_15": 3.0, "cnty": "Forsyth", "st": "NC", "Zip": 27105.0, "O_14": 3.0, "Q_15": 1.0, "O_15": 1.0, "city": "WINSTON SALEM", "beds": 170.0, "SR_15": 2.0}, {"Diff_star": 0.0, "addr": "4000 GLENAIRE CIRCLE", "SR_14": 4.0, "Q_14": 5.0, "name": "GLENAIRE", "SF_14": 5.0, "SF_15": 5.0, "cnty": "Wake", "st": "NC", "Zip": 27511.0, "O_14": 5.0, "Q_15": 5.0, "O_15": 5.0, "city": "CARY", "beds": 71.0, "SR_15": 4.0}, {"Diff_star": 0.0, "addr": "95 LOCUST STREET", "SR_14": 1.0, "Q_14": 4.0, "name": "COLLEGE PINES HEALTH AND REHAB CENTER", "SF_14": 4.0, "SF_15": 4.0, "cnty": "Burke", "st": "NC", "Zip": 28612.0, "O_14": 2.0, "Q_15": 3.0, "O_15": 2.0, "city": "CONNELLYS SPRINGS", "beds": 100.0, "SR_15": 1.0}, {"Diff_star": 0.0, "addr": "25 REYNOLDS MOUNTAIN BOULEVARD", "SR_14": 2.0, "Q_14": 4.0, "name": "EMERALD RIDGE REHAB AND CARE CENTER", "SF_14": 2.0, "SF_15": 2.0, "cnty": "Buncombe", "st": "NC", "Zip": 28804.0, "O_14": 2.0, "Q_15": 2.0, "O_15": 2.0, "city": "ASHEVILLE", "beds": 100.0, "SR_15": 2.0}, {"Diff_star": -1.0, "addr": "308 WEST MEADOWVIEW ROAD", "SR_14": 3.0, "Q_14": 5.0, "name": "MAPLE GROVE HEALTH AND REHABILITATION CENTER", "SF_14": 2.0, "SF_15": 2.0, "cnty": "Guilford", "st": "NC", "Zip": 27406.0, "O_14": 4.0, "Q_15": 3.0, "O_15": 3.0, "city": "GREENSBORO", "beds": 210.0, "SR_15": 3.0}, {"Diff_star": -1.0, "addr": "115 WHITE ROAD", "SR_14": 4.0, "Q_14": 5.0, "name": "UNIVERSAL HEALTH CARE/KING", "SF_14": 1.0, "SF_15": 1.0, "cnty": "Stokes", "st": "NC", "Zip": 27021.0, "O_14": 4.0, "Q_15": 3.0, "O_15": 3.0, "city": "KING", "beds": 96.0, "SR_15": 4.0}, {"Diff_star": -1.0, "addr": "625 ASHLAND STREET", "SR_14": 2.0, "Q_14": 2.0, "name": "WESTWOOD HEALTH AND REHABILITA", "SF_14": 2.0, "SF_15": 2.0, "cnty": "Guilford", "st": "NC", "Zip": 27263.0, "O_14": 2.0, "Q_15": 1.0, "O_15": 1.0, "city": "ARCHDALE", "beds": 68.0, "SR_15": 2.0}, {"Diff_star": -1.0, "addr": "2065 LYON STREET", "SR_14": 4.0, "Q_14": 5.0, "name": "BELAIRE HEALTH CARE CENTER", "SF_14": 3.0, "SF_15": 3.0, "cnty": "Gaston", "st": "NC", "Zip": 28052.0, "O_14": 5.0, "Q_15": 4.0, "O_15": 4.0, "city": "GASTONIA", "beds": 80.0, "SR_15": 4.0}, {"Diff_star": 0.0, "addr": "2059 TORREDGE ROAD", "SR_14": 4.0, "Q_14": 5.0, "name": "PEAK RESOURCES - TREYBURN", "SF_14": 4.0, "SF_15": 3.0, "cnty": "Durham", "st": "NC", "Zip": 27712.0, "O_14": 5.0, "Q_15": 5.0, "O_15": 5.0, "city": "DURHAM", "beds": 132.0, "SR_15": 4.0}, {"Diff_star": 0.0, "addr": "619 LAUREL LAKE DRIVE", "SR_14": 4.0, "Q_14": 4.0, "name": "WILLOWBROOKE COURT SC CTR AT TRYON ESTATES", "SF_14": 4.0, "SF_15": 4.0, "cnty": "Polk", "st": "NC", "Zip": 28722.0, "O_14": 4.0, "Q_15": 4.0, "O_15": 4.0, "city": "COLUMBUS", "beds": 33.0, "SR_15": 4.0}, {"Diff_star": 0.0, "addr": "2041 WILLOW ROAD", "SR_14": 2.0, "Q_14": 4.0, "name": "GUILFORD HEALTH CARE CENTER", "SF_14": 4.0, "SF_15": 4.0, "cnty": "Guilford", "st": "NC", "Zip": 27406.0, "O_14": 3.0, "Q_15": 2.0, "O_15": 3.0, "city": "GREENSBORO", "beds": 110.0, "SR_15": 2.0}, {"Diff_star": -1.0, "addr": "300 MORRIS ROAD", "SR_14": 2.0, "Q_14": 5.0, "name": "THE OAKS-BREVARD", "SF_14": 4.0, "SF_15": 3.0, "cnty": "Transylvania", "st": "NC", "Zip": 28712.0, "O_14": 4.0, "Q_15": 5.0, "O_15": 3.0, "city": "BREVARD", "beds": 120.0, "SR_15": 2.0}, {"Diff_star": 0.0, "addr": "400 THOMPSON STREET", "SR_14": 2.0, "Q_14": 4.0, "name": "LIFE CARE CENTER OF HENDERSONV", "SF_14": 4.0, "SF_15": 4.0, "cnty": "Henderson", "st": "NC", "Zip": 28792.0, "O_14": 3.0, "Q_15": 4.0, "O_15": 3.0, "city": "HENDERSONVILLE", "beds": 80.0, "SR_15": 2.0}, {"Diff_star": 0.0, "addr": "518 OLD US HIGHWAY 221", "SR_14": 2.0, "Q_14": 4.0, "name": "OAK GROVE HEALTH CARE CENTER", "SF_14": 2.0, "SF_15": 2.0, "cnty": "Rutherford", "st": "NC", "Zip": 28139.0, "O_14": 2.0, "Q_15": 4.0, "O_15": 2.0, "city": "RUTHERFORDTON", "beds": 60.0, "SR_15": 2.0}, {"Diff_star": 1.0, "addr": "3003 KENSINGTON PARK DRIVE", "SR_14": 2.0, "Q_14": 3.0, "name": "BAYVIEW NURSING & REHAB CENTER", "SF_14": 3.0, "SF_15": 5.0, "cnty": "Craven", "st": "NC", "Zip": 28560.0, "O_14": 2.0, "Q_15": 3.0, "O_15": 3.0, "city": "NEW BERN", "beds": 60.0, "SR_15": 2.0}, {"Diff_star": 0.0, "addr": "333 EAST LEE STREET", "SR_14": 1.0, "Q_14": 5.0, "name": "WILLOWBROOK REHABILITATION AND CARE CENTER", "SF_14": 1.0, "SF_15": 1.0, "cnty": "Yadkin", "st": "NC", "Zip": 27055.0, "O_14": 2.0, "Q_15": 5.0, "O_15": 2.0, "city": "YADKINVILLE", "beds": 76.0, "SR_15": 1.0}, {"Diff_star": 0.0, "addr": "1901 RANDOLPH ROAD", "SR_14": 5.0, "Q_14": 3.0, "name": "PRESBYTERIAN ORTHOPAEDIC HOSP-TRANSITIONAL CARE", "SF_14": 1.0, "SF_15": 1.0, "cnty": "Mecklenburg", "st": "NC", "Zip": 28207.0, "O_14": 4.0, "Q_15": 4.0, "O_15": 4.0, "city": "CHARLOTTE", "beds": 16.0, "SR_15": 5.0}, {"Diff_star": 0.0, "addr": "121 RACINE DRIVE", "SR_14": 2.0, "Q_14": 5.0, "name": "LIBERTY COMMONS REHABILITATION CENTER", "SF_14": 2.0, "SF_15": 2.0, "cnty": "New Hanover", "st": "NC", "Zip": 28403.0, "O_14": 3.0, "Q_15": 5.0, "O_15": 3.0, "city": "WILMINGTON", "beds": 100.0, "SR_15": 2.0}, {"Diff_star": 0.0, "addr": "2415 SANDY PORTER ROAD", "SR_14": 1.0, "Q_14": 4.0, "name": "MECKLENBURG HEALTH & REHABILITATION CENTER", "SF_14": 4.0, "SF_15": 4.0, "cnty": "Mecklenburg", "st": "NC", "Zip": 28273.0, "O_14": 2.0, "Q_15": 2.0, "O_15": 2.0, "city": "CHARLOTTE", "beds": 100.0, "SR_15": 1.0}, {"Diff_star": 0.0, "addr": "180 SOUTHWOOD DRIVE BOX 708", "SR_14": 3.0, "Q_14": 3.0, "name": "SOUTHWOOD NURSING AND RETIREME", "SF_14": 1.0, "SF_15": 1.0, "cnty": "Sampson", "st": "NC", "Zip": 28328.0, "O_14": 2.0, "Q_15": 2.0, "O_15": 2.0, "city": "CLINTON", "beds": 100.0, "SR_15": 3.0}, {"Diff_star": 0.0, "addr": "6001 WILORA LAKE ROAD", "SR_14": 2.0, "Q_14": 3.0, "name": "WILORA LAKE HEALTHCARE CENTER", "SF_14": 2.0, "SF_15": 2.0, "cnty": "Mecklenburg", "st": "NC", "Zip": 28212.0, "O_14": 2.0, "Q_15": 2.0, "O_15": 2.0, "city": "CHARLOTTE", "beds": 70.0, "SR_15": 2.0}, {"Diff_star": -1.0, "addr": "6100 W FRIENDLY AVENUE", "SR_14": 4.0, "Q_14": 4.0, "name": "FRIENDS HOMES WEST", "SF_14": "", "SF_15": "", "cnty": "Guilford", "st": "NC", "Zip": 27410.0, "O_14": 4.0, "Q_15": 2.0, "O_15": 3.0, "city": "GREENSBORO", "beds": 10.0, "SR_15": 3.0}, {"Diff_star": 0.0, "addr": "55 ECHOTA CHURCH ROAD", "SR_14": 1.0, "Q_14": 4.0, "name": "TSALI CARE CENTER", "SF_14": 5.0, "SF_15": 5.0, "cnty": "Swain", "st": "NC", "Zip": 28719.0, "O_14": 2.0, "Q_15": 3.0, "O_15": 2.0, "city": "CHEROKEE", "beds": 72.0, "SR_15": 1.0}, {"Diff_star": 0.0, "addr": "3864 SWEETEN CREEK ROAD", "SR_14": 2.0, "Q_14": 4.0, "name": "THE OAKS AT SWEETEN CREEK", "SF_14": 4.0, "SF_15": 4.0, "cnty": "Buncombe", "st": "NC", "Zip": 28704.0, "O_14": 3.0, "Q_15": 3.0, "O_15": 3.0, "city": "ARDEN", "beds": 100.0, "SR_15": 2.0}, {"Diff_star": -1.0, "addr": "604 LUCAS ROAD", "SR_14": 4.0, "Q_14": 5.0, "name": "HARNETT WOODS NURSING AND REHABILITATION CENTER", "SF_14": 2.0, "SF_15": 2.0, "cnty": "Harnett", "st": "NC", "Zip": 28334.0, "O_14": 5.0, "Q_15": 3.0, "O_15": 4.0, "city": "DUNN", "beds": 100.0, "SR_15": 4.0}, {"Diff_star": 0.0, "addr": "2000 SALEMTOWNE DRIVE", "SR_14": 5.0, "Q_14": 4.0, "name": "SALEMTOWNE", "SF_14": 5.0, "SF_15": 5.0, "cnty": "Forsyth", "st": "NC", "Zip": 27106.0, "O_14": 5.0, "Q_15": 4.0, "O_15": 5.0, "city": "WINSTON SALEM", "beds": 33.0, "SR_15": 5.0}, {"Diff_star": 0.0, "addr": "400 PELT DRIVE", "SR_14": 1.0, "Q_14": 4.0, "name": "WOODLANDS NURSING & REHABILITATION CENTER", "SF_14": 3.0, "SF_15": 3.0, "cnty": "Cumberland", "st": "NC", "Zip": 28301.0, "O_14": 1.0, "Q_15": 3.0, "O_15": 1.0, "city": "FAYETTEVILLE", "beds": 80.0, "SR_15": 1.0}, {"Diff_star": 0.0, "addr": "5804 OLD PROVIDENCE ROAD", "SR_14": 5.0, "Q_14": 5.0, "name": "BROOKDALE CARRIAGE CLUB PROVIDENCE", "SF_14": "", "SF_15": "", "cnty": "Mecklenburg", "st": "NC", "Zip": 28226.0, "O_14": 5.0, "Q_15": 5.0, "O_15": 5.0, "city": "CHARLOTTE", "beds": 14.0, "SR_15": 5.0}, {"Diff_star": 0.0, "addr": "1450 SHAIRE CENTER DRIVE", "SR_14": 2.0, "Q_14": 4.0, "name": "SHAIRE NURSING CENTER", "SF_14": 4.0, "SF_15": 4.0, "cnty": "Caldwell", "st": "NC", "Zip": 28645.0, "O_14": 3.0, "Q_15": 3.0, "O_15": 3.0, "city": "LENOIR", "beds": 60.0, "SR_15": 2.0}, {"Diff_star": 0.0, "addr": "HOSPITAL DRIVE", "SR_14": 4.0, "Q_14": 4.0, "name": "TRANSYLVANIA REGIONAL HOSPITAL INC", "SF_14": 5.0, "SF_15": 5.0, "cnty": "Transylvania", "st": "NC", "Zip": 28712.0, "O_14": 5.0, "Q_15": 4.0, "O_15": 5.0, "city": "BREVARD", "beds": 10.0, "SR_15": 4.0}, {"Diff_star": -1.0, "addr": "110 MCCOTTER BOULEVARD", "SR_14": 4.0, "Q_14": 5.0, "name": "CHERRY POINT BAY NURSING AND REHABILITATION CENTER", "SF_14": 3.0, "SF_15": 3.0, "cnty": "Craven", "st": "NC", "Zip": 28532.0, "O_14": 5.0, "Q_15": 4.0, "O_15": 4.0, "city": "HAVELOCK", "beds": 70.0, "SR_15": 4.0}, {"Diff_star": 0.0, "addr": "1930 WEST SUGAR CREEK ROAD", "SR_14": 2.0, "Q_14": 5.0, "name": "SATURN NURSING AND REHABILITATION CENTER", "SF_14": 1.0, "SF_15": 1.0, "cnty": "Mecklenburg", "st": "NC", "Zip": 28262.0, "O_14": 2.0, "Q_15": 5.0, "O_15": 2.0, "city": "CHARLOTTE", "beds": 120.0, "SR_15": 2.0}, {"Diff_star": 0.0, "addr": "128 SNOW HILL ROAD", "SR_14": 2.0, "Q_14": 4.0, "name": "AYDEN COURT NURSING AND REHABILITATION CENTER", "SF_14": 3.0, "SF_15": 3.0, "cnty": "Pitt", "st": "NC", "Zip": 28513.0, "O_14": 2.0, "Q_15": 2.0, "O_15": 2.0, "city": "AYDEN", "beds": 82.0, "SR_15": 2.0}, {"Diff_star": 0.0, "addr": "210 FOXHALL ROAD", "SR_14": 4.0, "Q_14": 4.0, "name": "CROATAN RIDGE NURSING AND REHABILITATION CENTER", "SF_14": 4.0, "SF_15": 4.0, "cnty": "Carteret", "st": "NC", "Zip": 28570.0, "O_14": 4.0, "Q_15": 2.0, "O_15": 4.0, "city": "NEWPORT", "beds": 64.0, "SR_15": 4.0}, {"Diff_star": -1.0, "addr": "214 COCHRAN AVENUE", "SR_14": 3.0, "Q_14": 5.0, "name": "NC STATE VETERANS NURSING HOME", "SF_14": 4.0, "SF_15": 4.0, "cnty": "Cumberland", "st": "NC", "Zip": 28301.0, "O_14": 5.0, "Q_15": 4.0, "O_15": 4.0, "city": "FAYETTEVILLE", "beds": 150.0, "SR_15": 3.0}, {"Diff_star": 0.0, "addr": "104 COLLEGE DRIVE", "SR_14": 2.0, "Q_14": 4.0, "name": "HENDERSONVILLE HEALTH AND REHABILITATION", "SF_14": 4.0, "SF_15": 4.0, "cnty": "Henderson", "st": "NC", "Zip": 28731.0, "O_14": 3.0, "Q_15": 3.0, "O_15": 3.0, "city": "FLAT ROCK", "beds": 130.0, "SR_15": 2.0}, {"Diff_star": -1.0, "addr": "2780 X-RAY DRIVE", "SR_14": 3.0, "Q_14": 5.0, "name": "PEAK RESOURCES -  GASTONIA", "SF_14": 1.0, "SF_15": 1.0, "cnty": "Gaston", "st": "NC", "Zip": 28054.0, "O_14": 3.0, "Q_15": 4.0, "O_15": 2.0, "city": "GASTONIA", "beds": 120.0, "SR_15": 3.0}, {"Diff_star": 0.0, "addr": "6920 MARCHING DUCK DRIVE", "SR_14": 5.0, "Q_14": 3.0, "name": "THE STEWART HEALTH CENTER", "SF_14": "", "SF_15": "", "cnty": "Mecklenburg", "st": "NC", "Zip": 28210.0, "O_14": 5.0, "Q_15": 5.0, "O_15": 5.0, "city": "CHARLOTTE", "beds": 6.0, "SR_15": 5.0}, {"Diff_star": 0.0, "addr": "791 BOONE STATION DRIVE", "SR_14": 3.0, "Q_14": 4.0, "name": "LIBERTY COMMONS N&R ALAMANCE", "SF_14": 2.0, "SF_15": 2.0, "cnty": "Alamance", "st": "NC", "Zip": 27215.0, "O_14": 3.0, "Q_15": 3.0, "O_15": 3.0, "city": "BURLINGTON", "beds": 90.0, "SR_15": 3.0}, {"Diff_star": 0.0, "addr": "8200 LITCHFORD ROAD", "SR_14": 4.0, "Q_14": 5.0, "name": "LITCHFORD FALLS HEALTHCARE", "SF_14": 2.0, "SF_15": 2.0, "cnty": "Wake", "st": "NC", "Zip": 27615.0, "O_14": 5.0, "Q_15": 5.0, "O_15": 5.0, "city": "RALEIGH", "beds": 90.0, "SR_15": 4.0}, {"Diff_star": 0.0, "addr": "1221 BROAD STREET", "SR_14": 4.0, "Q_14": 4.0, "name": "WINDSOR POINT CONTINUING CARE", "SF_14": 5.0, "SF_15": 5.0, "cnty": "Harnett", "st": "NC", "Zip": 27526.0, "O_14": 5.0, "Q_15": 4.0, "O_15": 5.0, "city": "FUQUAY VARINA", "beds": 45.0, "SR_15": 4.0}, {"Diff_star": 0.0, "addr": "2600 CROASDAILE FARM", "SR_14": 4.0, "Q_14": 4.0, "name": "CROASDAILE VILLAGE", "SF_14": 4.0, "SF_15": 3.0, "cnty": "Durham", "st": "NC", "Zip": 27705.0, "O_14": 4.0, "Q_15": 2.0, "O_15": 4.0, "city": "DURHAM", "beds": 114.0, "SR_15": 4.0}, {"Diff_star": -1.0, "addr": "3315 FAITH CHURCH ROAD", "SR_14": 3.0, "Q_14": 3.0, "name": "LAKE PARK NURSING AND REHABILITATION CENTER", "SF_14": 2.0, "SF_15": 2.0, "cnty": "Union", "st": "NC", "Zip": 28079.0, "O_14": 3.0, "Q_15": 1.0, "O_15": 2.0, "city": "INDIAN TRAIL", "beds": 120.0, "SR_15": 3.0}, {"Diff_star": -1.0, "addr": "4412 SOUTH MAIN STREET", "SR_14": 2.0, "Q_14": 5.0, "name": "LIBERTY COMMONS NSG & REH ROWA", "SF_14": 5.0, "SF_15": 5.0, "cnty": "Rowan", "st": "NC", "Zip": 28147.0, "O_14": 4.0, "Q_15": 4.0, "O_15": 3.0, "city": "SALISBURY", "beds": 90.0, "SR_15": 2.0}, {"Diff_star": 0.0, "addr": "924 N HOWE STREET", "SR_14": 2.0, "Q_14": 5.0, "name": "J ARTHUR DOSHER MEM HOSP", "SF_14": 5.0, "SF_15": 5.0, "cnty": "Brunswick", "st": "NC", "Zip": 28461.0, "O_14": 4.0, "Q_15": 5.0, "O_15": 4.0, "city": "SOUTHPORT", "beds": 64.0, "SR_15": 2.0}, {"Diff_star": -1.0, "addr": "4600 CUMBERLAND ROAD", "SR_14": 2.0, "Q_14": 3.0, "name": "CAROLINA REHAB CENTER OF CUMBERLAND", "SF_14": 4.0, "SF_15": 3.0, "cnty": "Cumberland", "st": "NC", "Zip": 28306.0, "O_14": 3.0, "Q_15": 2.0, "O_15": 2.0, "city": "FAYETTEVILLE", "beds": 136.0, "SR_15": 2.0}, {"Diff_star": 0.0, "addr": "700 SOUTH HOLDEN ROAD", "SR_14": 1.0, "Q_14": 5.0, "name": "WHITESTONE  A MASONIC AND EASTERN STAR COMMUNITY", "SF_14": 4.0, "SF_15": 4.0, "cnty": "Guilford", "st": "NC", "Zip": 27407.0, "O_14": 2.0, "Q_15": 5.0, "O_15": 2.0, "city": "GREENSBORO", "beds": 60.0, "SR_15": 1.0}, {"Diff_star": 0.0, "addr": "5725 CAROLINA BEACH ROAD", "SR_14": 5.0, "Q_14": 4.0, "name": "AUTUMN CARE OF MYRTLE GROVE", "SF_14": 4.0, "SF_15": 4.0, "cnty": "New Hanover", "st": "NC", "Zip": 28408.0, "O_14": 5.0, "Q_15": 4.0, "O_15": 5.0, "city": "WILMINGTON", "beds": 90.0, "SR_15": 5.0}, {"Diff_star": -1.0, "addr": "911 SOUTH HUGHES STREET", "SR_14": 4.0, "Q_14": 5.0, "name": "REX REHAB & NURSING CARE CENTER OF APEX", "SF_14": 4.0, "SF_15": 4.0, "cnty": "Wake", "st": "NC", "Zip": 27502.0, "O_14": 5.0, "Q_15": 4.0, "O_15": 4.0, "city": "APEX", "beds": 107.0, "SR_15": 4.0}, {"Diff_star": 0.0, "addr": "915 PEE DEE ROAD", "SR_14": 1.0, "Q_14": 5.0, "name": "KINGSWOOD NURSING CENTER", "SF_14": 4.0, "SF_15": 4.0, "cnty": "Moore", "st": "NC", "Zip": 28315.0, "O_14": 2.0, "Q_15": 5.0, "O_15": 2.0, "city": "ABERDEEN", "beds": 100.0, "SR_15": 1.0}, {"Diff_star": -1.0, "addr": "911 WESTERN BOULEVARD", "SR_14": 4.0, "Q_14": 3.0, "name": "TARBORO NURSING CENTER", "SF_14": 3.0, "SF_15": 3.0, "cnty": "Edgecombe", "st": "NC", "Zip": 27886.0, "O_14": 4.0, "Q_15": 1.0, "O_15": 3.0, "city": "TARBORO", "beds": 118.0, "SR_15": 4.0}, {"Diff_star": -1.0, "addr": "2001 VANHAVEN DRIVE", "SR_14": 1.0, "Q_14": 5.0, "name": "AUTUMN CARE OF STATESVILLE", "SF_14": 3.0, "SF_15": 3.0, "cnty": "Iredell", "st": "NC", "Zip": 28625.0, "O_14": 2.0, "Q_15": 4.0, "O_15": 1.0, "city": "STATESVILLE", "beds": 103.0, "SR_15": 1.0}, {"Diff_star": 0.0, "addr": "1000 HICKORY STREET", "SR_14": 5.0, "Q_14": 2.0, "name": "CYPRESS GLEN RETIREMENT COMMUN", "SF_14": "", "SF_15": "", "cnty": "Pitt", "st": "NC", "Zip": 27858.0, "O_14": 5.0, "Q_15": 2.0, "O_15": 5.0, "city": "GREENVILLE", "beds": 6.0, "SR_15": 5.0}, {"Diff_star": -1.0, "addr": "3609 BOND STREET", "SR_14": 4.0, "Q_14": 3.0, "name": "TOWER NURSING AND REHABILITATION CENTER", "SF_14": 2.0, "SF_15": 2.0, "cnty": "Wake", "st": "NC", "Zip": 27604.0, "O_14": 4.0, "Q_15": 1.0, "O_15": 3.0, "city": "RALEIGH", "beds": 180.0, "SR_15": 4.0}, {"Diff_star": 0.0, "addr": "1210 EASTERN AVENUE", "SR_14": 2.0, "Q_14": 4.0, "name": "AUTUMN CARE OF NASH", "SF_14": 4.0, "SF_15": 4.0, "cnty": "Nash", "st": "NC", "Zip": 27856.0, "O_14": 3.0, "Q_15": 3.0, "O_15": 3.0, "city": "NASHVILLE", "beds": 60.0, "SR_15": 2.0}, {"Diff_star": 0.0, "addr": "6300 ROBERTA ROAD", "SR_14": 4.0, "Q_14": 5.0, "name": "PRUITTHEALTH-TOWN CENTER", "SF_14": 2.0, "SF_15": 2.0, "cnty": "Cabarrus", "st": "NC", "Zip": 28075.0, "O_14": 5.0, "Q_15": 5.0, "O_15": 5.0, "city": "HARRISBURG", "beds": 70.0, "SR_15": 4.0}, {"Diff_star": 0.0, "addr": "920 4TH STREET  SOUTH WEST", "SR_14": 3.0, "Q_14": 5.0, "name": "CONOVER NURSING AND REHAB CTR", "SF_14": 5.0, "SF_15": 5.0, "cnty": "Catawba", "st": "NC", "Zip": 28613.0, "O_14": 5.0, "Q_15": 5.0, "O_15": 5.0, "city": "CONOVER", "beds": 90.0, "SR_15": 3.0}, {"Diff_star": 0.0, "addr": "155 BLAKE BOULEVARD", "SR_14": 2.0, "Q_14": 4.0, "name": "INN AT QUAIL HAVEN VILLAGE", "SF_14": 2.0, "SF_15": 2.0, "cnty": "Moore", "st": "NC", "Zip": 28374.0, "O_14": 2.0, "Q_15": 4.0, "O_15": 2.0, "city": "PINEHURST", "beds": 60.0, "SR_15": 2.0}, {"Diff_star": 0.0, "addr": "2315 HIGHWAY 242 NORTH", "SR_14": 2.0, "Q_14": 4.0, "name": "LIBERTY COMMONS NSG & REH JOHN", "SF_14": 1.0, "SF_15": 1.0, "cnty": "Johnston", "st": "NC", "Zip": 27504.0, "O_14": 1.0, "Q_15": 3.0, "O_15": 1.0, "city": "BENSON", "beds": 100.0, "SR_15": 2.0}, {"Diff_star": -1.0, "addr": "1028 BLAIR STREET", "SR_14": 2.0, "Q_14": 3.0, "name": "LIBERTYWOOD NURSING CENTER", "SF_14": 4.0, "SF_15": 4.0, "cnty": "Davidson", "st": "NC", "Zip": 27360.0, "O_14": 3.0, "Q_15": 2.0, "O_15": 2.0, "city": "THOMASVILLE", "beds": 120.0, "SR_15": 1.0}, {"Diff_star": 0.0, "addr": "272 HIGHWAY 70", "SR_14": 5.0, "Q_14": 4.0, "name": "SNUG HARBOR ON NELSON BAY", "SF_14": 5.0, "SF_15": 5.0, "cnty": "Carteret", "st": "NC", "Zip": 28577.0, "O_14": 5.0, "Q_15": 3.0, "O_15": 5.0, "city": "SEALEVEL", "beds": 22.0, "SR_15": 5.0}, {"Diff_star": 0.0, "addr": "86 OLD AIRPORT ROAD", "SR_14": 1.0, "Q_14": 4.0, "name": "UNIVERSAL HEALTH CARE/FLETCHER", "SF_14": 1.0, "SF_15": 1.0, "cnty": "Henderson", "st": "NC", "Zip": 28732.0, "O_14": 1.0, "Q_15": 3.0, "O_15": 1.0, "city": "FLETCHER", "beds": 90.0, "SR_15": 1.0}, {"Diff_star": -1.0, "addr": "7166 JORDON ROAD", "SR_14": 3.0, "Q_14": 5.0, "name": "UNIVERSAL HEALTH CARE/RAMSEUR", "SF_14": 3.0, "SF_15": 1.0, "cnty": "Randolph", "st": "NC", "Zip": 27316.0, "O_14": 4.0, "Q_15": 4.0, "O_15": 3.0, "city": "RAMSEUR", "beds": 90.0, "SR_15": 4.0}, {"Diff_star": 0.0, "addr": "3700 TAYLOR GLEN LANE", "SR_14": 4.0, "Q_14": 5.0, "name": "THE GARDENS OF TAYLOR GLEN RET COM", "SF_14": "", "SF_15": "", "cnty": "Cabarrus", "st": "NC", "Zip": 28027.0, "O_14": 5.0, "Q_15": 5.0, "O_15": 5.0, "city": "CONCORD", "beds": 8.0, "SR_15": 4.0}, {"Diff_star": 0.0, "addr": "3647 MILLER BRIDGE ROAD", "SR_14": 2.0, "Q_14": 5.0, "name": "CAROLINA REHAB CENTER OF BURKE", "SF_14": 4.0, "SF_15": 4.0, "cnty": "Burke", "st": "NC", "Zip": 28612.0, "O_14": 4.0, "Q_15": 4.0, "O_15": 4.0, "city": "CONNELLY SPG", "beds": 90.0, "SR_15": 3.0}, {"Diff_star": 0.0, "addr": "1575 JOHN KNOX DRIVE", "SR_14": 4.0, "Q_14": 4.0, "name": "RIVER LANDING AT SANDY RIDGE", "SF_14": 5.0, "SF_15": 5.0, "cnty": "Guilford", "st": "NC", "Zip": 27235.0, "O_14": 5.0, "Q_15": 4.0, "O_15": 5.0, "city": "COLFAX", "beds": 60.0, "SR_15": 4.0}, {"Diff_star": 0.0, "addr": "5201 CLARKS FORK DRIVE", "SR_14": 1.0, "Q_14": 4.0, "name": "UNIVERSAL HEALTH CARE/NORTH RALEIGH", "SF_14": 3.0, "SF_15": 3.0, "cnty": "Wake", "st": "NC", "Zip": 27616.0, "O_14": 1.0, "Q_15": 3.0, "O_15": 1.0, "city": "RALEIGH", "beds": 112.0, "SR_15": 1.0}, {"Diff_star": 0.0, "addr": "618-A S MAIN STREET", "SR_14": 5.0, "Q_14": 4.0, "name": "PENN NURSING CENTER", "SF_14": 4.0, "SF_15": 4.0, "cnty": "Rockingham", "st": "NC", "Zip": 27320.0, "O_14": 5.0, "Q_15": 3.0, "O_15": 5.0, "city": "REIDSVILLE", "beds": 82.0, "SR_15": 5.0}, {"Diff_star": 0.0, "addr": "1601 BRENNER AVE, BUILDNG #10", "SR_14": 3.0, "Q_14": 4.0, "name": "NORTH CAROLINA STATE VETERANS NURSING HOME SALISBU", "SF_14": 4.0, "SF_15": 4.0, "cnty": "Rowan", "st": "NC", "Zip": 28145.0, "O_14": 4.0, "Q_15": 4.0, "O_15": 4.0, "city": "SALISBURY", "beds": 99.0, "SR_15": 3.0}, {"Diff_star": 0.0, "addr": "310 COMMERCE DRIVE", "SR_14": 4.0, "Q_14": 3.0, "name": "LIBERTY COMMONS NSG AND REHAB CTR OF LEE COUNTY", "SF_14": 2.0, "SF_15": 2.0, "cnty": "Lee", "st": "NC", "Zip": 27330.0, "O_14": 4.0, "Q_15": 2.0, "O_15": 4.0, "city": "SANFORD", "beds": 80.0, "SR_15": 4.0}, {"Diff_star": 0.0, "addr": "101 GREEN CEDAR LANE", "SR_14": 4.0, "Q_14": 5.0, "name": "THE CEDARS OF CHAPEL HILL", "SF_14": "", "SF_15": "", "cnty": "Orange", "st": "NC", "Zip": 27517.0, "O_14": 5.0, "Q_15": 5.0, "O_15": 5.0, "city": "CHAPEL HILL", "beds": 11.0, "SR_15": 4.0}, {"Diff_star": -1.0, "addr": "2702 FARRELL ROAD", "SR_14": 2.0, "Q_14": 5.0, "name": "SANFORD HEALTH & REHABILITATION CO", "SF_14": 3.0, "SF_15": 3.0, "cnty": "Lee", "st": "NC", "Zip": 27330.0, "O_14": 3.0, "Q_15": 4.0, "O_15": 2.0, "city": "SANFORD", "beds": 131.0, "SR_15": 2.0}, {"Diff_star": 0.0, "addr": "5100 MACKAY ROAD", "SR_14": 2.0, "Q_14": 4.0, "name": "ADAMS FARM LIVING & REHABILITATION", "SF_14": 2.0, "SF_15": 2.0, "cnty": "Guilford", "st": "NC", "Zip": 27282.0, "O_14": 2.0, "Q_15": 3.0, "O_15": 2.0, "city": "JAMESTOWN", "beds": 120.0, "SR_15": 2.0}, {"Diff_star": 0.0, "addr": "2305 SILVER STREAM LANE", "SR_14": 4.0, "Q_14": 4.0, "name": "SILVER STREAM HEALTH AND REHABILITATION CENTER", "SF_14": 3.0, "SF_15": 3.0, "cnty": "New Hanover", "st": "NC", "Zip": 28401.0, "O_14": 4.0, "Q_15": 3.0, "O_15": 4.0, "city": "WILMINGTON", "beds": 110.0, "SR_15": 4.0}, {"Diff_star": -2.0, "addr": "2420 LAKE WHEELER ROAD", "SR_14": 3.0, "Q_14": 5.0, "name": "PRUITTHEALTH-RALEIGH", "SF_14": 4.0, "SF_15": 3.0, "cnty": "Wake", "st": "NC", "Zip": 27603.0, "O_14": 5.0, "Q_15": 4.0, "O_15": 3.0, "city": "RALEIGH", "beds": 150.0, "SR_15": 3.0}, {"Diff_star": 0.0, "addr": "300 CLYNELISH CLOSE", "SR_14": 5.0, "Q_14": 5.0, "name": "THE ARBOR", "SF_14": 5.0, "SF_15": 5.0, "cnty": "Chatham", "st": "NC", "Zip": 27312.0, "O_14": 5.0, "Q_15": 5.0, "O_15": 5.0, "city": "PITTSBORO", "beds": 16.0, "SR_15": 5.0}, {"Diff_star": -1.0, "addr": "13825 HUNTON LANE", "SR_14": 3.0, "Q_14": 3.0, "name": "OLDE KNOX COMMONS AT THE VILLAGES OF MECKLENBURG", "SF_14": 3.0, "SF_15": 2.0, "cnty": "Mecklenburg", "st": "NC", "Zip": 28078.0, "O_14": 3.0, "Q_15": 1.0, "O_15": 2.0, "city": "HUNTERSVILLE", "beds": 114.0, "SR_15": 3.0}, {"Diff_star": 0.0, "addr": "2701 PICKETT ROAD", "SR_14": 5.0, "Q_14": 5.0, "name": "THE FOREST AT DUKE INC", "SF_14": "", "SF_15": "", "cnty": "Durham", "st": "NC", "Zip": 27705.0, "O_14": 5.0, "Q_15": 4.0, "O_15": 5.0, "city": "DURHAM", "beds": 4.0, "SR_15": 5.0}, {"Diff_star": 0.0, "addr": "316 NC HIGHWAY 801 SOUTH", "SR_14": 1.0, "Q_14": 5.0, "name": "BERMUDA COMMONS NURSING AND REHABILITATION CENTER", "SF_14": 2.0, "SF_15": 2.0, "cnty": "Davie", "st": "NC", "Zip": 27006.0, "O_14": 2.0, "Q_15": 5.0, "O_15": 2.0, "city": "ADVANCE", "beds": 117.0, "SR_15": 1.0}, {"Diff_star": -1.0, "addr": "3625 WILLARD FARROW DRIVE", "SR_14": 4.0, "Q_14": 5.0, "name": "ASBURY CARE CENTER", "SF_14": 4.0, "SF_15": 4.0, "cnty": "Mecklenburg", "st": "NC", "Zip": 28215.0, "O_14": 5.0, "Q_15": 2.0, "O_15": 4.0, "city": "CHARLOTTE", "beds": 105.0, "SR_15": 4.0}, {"Diff_star": 0.0, "addr": "3701 WADE COBLE DRIVE", "SR_14": 5.0, "Q_14": 5.0, "name": "TWIN LAKES COMMUNITY MEMORY CARE", "SF_14": 5.0, "SF_15": 5.0, "cnty": "Alamance", "st": "NC", "Zip": 27215.0, "O_14": 5.0, "Q_15": 5.0, "O_15": 5.0, "city": "BURLINGTON", "beds": 16.0, "SR_15": 5.0}, {"Diff_star": 0.0, "addr": "8710 CYPRESS CLUB DRIVE", "SR_14": 5.0, "Q_14": 5.0, "name": "THE ROSEWOOD HEALTH CENTER", "SF_14": 5.0, "SF_15": 5.0, "cnty": "Wake", "st": "NC", "Zip": 27615.0, "O_14": 5.0, "Q_15": 4.0, "O_15": 5.0, "city": "RALEIGH", "beds": 36.0, "SR_15": 5.0}, {"Diff_star": 0.0, "addr": "1 MARITHE COURT", "SR_14": 5.0, "Q_14": 4.0, "name": "CAMDEN PLACE HEALTH AND REHAB, LLC", "SF_14": 4.0, "SF_15": 4.0, "cnty": "Guilford", "st": "NC", "Zip": 27407.0, "O_14": 5.0, "Q_15": 4.0, "O_15": 5.0, "city": "GREENSBORO", "beds": 135.0, "SR_15": 5.0}, {"Diff_star": -1.0, "addr": "5533 BURLINGTON ROAD", "SR_14": 3.0, "Q_14": 5.0, "name": "ASHTON PLACE HEALTH AND REHAB", "SF_14": 1.0, "SF_15": 1.0, "cnty": "Guilford", "st": "NC", "Zip": 27301.0, "O_14": 3.0, "Q_15": 4.0, "O_15": 2.0, "city": "MC LEANSVILLE", "beds": 134.0, "SR_15": 3.0}, {"Diff_star": 0.0, "addr": "1070 OLD OCEAN HIGHWAY", "SR_14": 5.0, "Q_14": 5.0, "name": "UNIVERSAL HEALTH CARE / BRUNSWICK", "SF_14": 4.0, "SF_15": 4.0, "cnty": "Brunswick", "st": "NC", "Zip": 28422.0, "O_14": 5.0, "Q_15": 4.0, "O_15": 5.0, "city": "BOLIVIA", "beds": 90.0, "SR_15": 5.0}, {"Diff_star": 0.0, "addr": "700 HOWIE MINE ROAD", "SR_14": 2.0, "Q_14": 4.0, "name": "WHITE OAK OF WAXHAW", "SF_14": 4.0, "SF_15": 4.0, "cnty": "Union", "st": "NC", "Zip": 28173.0, "O_14": 3.0, "Q_15": 2.0, "O_15": 3.0, "city": "WAXHAW", "beds": 100.0, "SR_15": 2.0}, {"Diff_star": 0.0, "addr": "5935 MOUNT SINAI ROAD", "SR_14": 1.0, "Q_14": 5.0, "name": "PRUITTHEALTH-CAROLINA POINT", "SF_14": 3.0, "SF_15": 4.0, "cnty": "Durham", "st": "NC", "Zip": 27705.0, "O_14": 2.0, "Q_15": 5.0, "O_15": 2.0, "city": "DURHAM", "beds": 138.0, "SR_15": 1.0}, {"Diff_star": 0.0, "addr": "2005 SHANNON GRAY COURT", "SR_14": 4.0, "Q_14": 4.0, "name": "THE SHANNON GRAY REHABILITATION & RECOVERY CENTER", "SF_14": 4.0, "SF_15": 3.0, "cnty": "Guilford", "st": "NC", "Zip": 27282.0, "O_14": 4.0, "Q_15": 2.0, "O_15": 4.0, "city": "JAMESTOWN", "beds": 150.0, "SR_15": 4.0}, {"Diff_star": -1.0, "addr": "1401 71ST SCHOOL ROAD", "SR_14": 2.0, "Q_14": 4.0, "name": "AUTUMN CARE OF FAYETTEVILLE", "SF_14": 2.0, "SF_15": 2.0, "cnty": "Cumberland", "st": "NC", "Zip": 28314.0, "O_14": 2.0, "Q_15": 3.0, "O_15": 1.0, "city": "FAYETTEVILLE", "beds": 90.0, "SR_15": 1.0}, {"Diff_star": 0.0, "addr": "631 JUNCTION CREEK DRIVE", "SR_14": 5.0, "Q_14": 3.0, "name": "TRINITY GROVE", "SF_14": 4.0, "SF_15": 4.0, "cnty": "New Hanover", "st": "NC", "Zip": 28412.0, "O_14": 5.0, "Q_15": 2.0, "O_15": 5.0, "city": "WILMINGTON", "beds": 100.0, "SR_15": 5.0}, {"Diff_star": 0.0, "addr": "3830 BLUE RIDGE ROAD", "SR_14": 4.0, "Q_14": 5.0, "name": "CRABTREE VALLEY REHAB CENTER", "SF_14": 1.0, "SF_15": 3.0, "cnty": "Wake", "st": "NC", "Zip": 27612.0, "O_14": 4.0, "Q_15": 4.0, "O_15": 4.0, "city": "RALEIGH", "beds": 134.0, "SR_15": 4.0}, {"Diff_star": 0.0, "addr": "1617  HENDERSONVELLE ROAD", "SR_14": 5.0, "Q_14": 5.0, "name": "DEERFIELD EPISCOPAL  RETIREMENT", "SF_14": 4.0, "SF_15": 4.0, "cnty": "Buncombe", "st": "NC", "Zip": 28803.0, "O_14": 5.0, "Q_15": 5.0, "O_15": 5.0, "city": "ASHEVILLE", "beds": 62.0, "SR_15": 5.0}, {"Diff_star": 0.0, "addr": "3800 INDEPENDENCE BOULEVARD", "SR_14": 1.0, "Q_14": 4.0, "name": "AZALEA HEALTH & REHAB CENTER", "SF_14": 3.0, "SF_15": 3.0, "cnty": "New Hanover", "st": "NC", "Zip": 28412.0, "O_14": 1.0, "Q_15": 4.0, "O_15": 1.0, "city": "WILMINGTON", "beds": 80.0, "SR_15": 1.0}, {"Diff_star": 0.0, "addr": "62 LAKE EDEN ROAD", "SR_14": 1.0, "Q_14": 5.0, "name": "NC STATE VETERANS HOME-BLACK MOUNTAIN", "SF_14": 4.0, "SF_15": 4.0, "cnty": "Buncombe", "st": "NC", "Zip": 28711.0, "O_14": 2.0, "Q_15": 4.0, "O_15": 2.0, "city": "BLACK MOUNTAIN", "beds": 100.0, "SR_15": 1.0}, {"Diff_star": 0.0, "addr": "2105 HOMESTEAD HILLS DRIVE", "SR_14": 4.0, "Q_14": 4.0, "name": "HOMESTEAD HILLS", "SF_14": 4.0, "SF_15": 4.0, "cnty": "Forsyth", "st": "NC", "Zip": 27103.0, "O_14": 4.0, "Q_15": 2.0, "O_15": 4.0, "city": "WINSTON SALEM", "beds": 40.0, "SR_15": 4.0}, {"Diff_star": 0.0, "addr": "2150 HULL ROAD", "SR_14": 5.0, "Q_14": 4.0, "name": "NC STATE VETERANS HOME-KINSTON", "SF_14": 5.0, "SF_15": 5.0, "cnty": "Lenoir", "st": "NC", "Zip": 28504.0, "O_14": 5.0, "Q_15": 2.0, "O_15": 5.0, "city": "KINSTON", "beds": 100.0, "SR_15": 5.0}, {"Diff_star": 0.0, "addr": "410 S JUDD PARKWAY SE", "SR_14": 5.0, "Q_14": 4.0, "name": "UNIVERSAL HEALTH CARE/FUQUAY-VARINA", "SF_14": 3.0, "SF_15": 3.0, "cnty": "Harnett", "st": "NC", "Zip": 27526.0, "O_14": 5.0, "Q_15": 4.0, "O_15": 5.0, "city": "FUQUAY VARINA", "beds": 69.0, "SR_15": 5.0}, {"Diff_star": 0.0, "addr": "10506 CLEAR CREEK COMMERCE DRIVE", "SR_14": "", "Q_14": "", "name": "CLEAR CREEK NURSING & REHABILITATION CENTER", "SF_14": "", "SF_15": "", "cnty": "Mecklenburg", "st": "NC", "Zip": 28227.0, "O_14": "", "Q_15": "", "O_15": "", "city": "MINT HILL", "beds": 120.0, "SR_15": ""}, {"Diff_star": 0.0, "addr": "10011 PROVIDENCE ROAD WEST", "SR_14": "", "Q_14": "", "name": "PAVILION HEALTH CENTER AT BRIGHTMORE", "SF_14": "", "SF_15": "", "cnty": "Mecklenburg", "st": "NC", "Zip": 28277.0, "O_14": "", "Q_15": "", "O_15": "", "city": "CHARLOTTE", "beds": 120.0, "SR_15": ""}, {"Diff_star": 0.0, "addr": "5100 SHARON ROAD", "SR_14": "", "Q_14": "", "name": "SHARON TOWERS", "SF_14": "", "SF_15": "", "cnty": "Mecklenburg", "st": "NC", "Zip": 28210.0, "O_14": "", "Q_15": "", "O_15": "", "city": "CHARLOTTE", "beds": 19.0, "SR_15": ""}, {"Diff_star": 0.0, "addr": "7449 FAIR OAKS DRIVE", "SR_14": "", "Q_14": "", "name": "TRINITY ELMS", "SF_14": "", "SF_15": "", "cnty": "Davidson", "st": "NC", "Zip": 27012.0, "O_14": "", "Q_15": "", "O_15": "", "city": "CLEMMONS", "beds": 100.0, "SR_15": ""}, {"Diff_star": 0.0, "addr": "3510 WEST HIGHWAY 74", "SR_14": "", "Q_14": "", "name": "PRUITTHEALTH-UNION POINTE", "SF_14": "", "SF_15": "", "cnty": "Union", "st": "NC", "Zip": 28110.0, "O_14": "", "Q_15": "", "O_15": "", "city": "MONROE", "beds": 90.0, "SR_15": ""}, {"Diff_star": 0.0, "addr": "932 OLD US HIGHWAY 70", "SR_14": 2.0, "Q_14": 5.0, "name": "BLACK MOUNTAIN NEURO-MEDICAL TREATMENT CENTER", "SF_14": "", "SF_15": "", "cnty": "Buncombe", "st": "NC", "Zip": 28711.0, "O_14": 3.0, "Q_15": 5.0, "O_15": 3.0, "city": "BLACK MOUNTAIN", "beds": 163.0, "SR_15": 2.0}, {"Diff_star": 0.0, "addr": "400 OLD SMITHFIELD ROAD", "SR_14": 5.0, "Q_14": 5.0, "name": "O'BERRY NEURO-MEDICAL TREATMENT CENTER", "SF_14": "", "SF_15": "", "cnty": "Wayne", "st": "NC", "Zip": 27533.0, "O_14": 5.0, "Q_15": 5.0, "O_15": 5.0, "city": "GOLDSBORO", "beds": 96.0, "SR_15": 5.0}]