[{"Diff_star": 0.0, "addr": "1315 S UNIVERSITY DR", "SR_14": 1.0, "Q_14": 5.0, "name": "MANOR CARE HEALTH SERVICES", "SF_14": 4.0, "SF_15": 3.0, "cnty": "Cass", "st": "ND", "Zip": 58103.0, "O_14": 2.0, "Q_15": 5.0, "O_15": 2.0, "city": "FARGO", "beds": 131.0, "SR_15": 1.0}, {"Diff_star": 0.0, "addr": "600 S MAIN ST", "SR_14": 1.0, "Q_14": 5.0, "name": "MANOR CARE HEALTH SERVICES", "SF_14": 4.0, "SF_15": 4.0, "cnty": "Ward", "st": "ND", "Zip": 58701.0, "O_14": 2.0, "Q_15": 5.0, "O_15": 2.0, "city": "MINOT", "beds": 114.0, "SR_15": 1.0}, {"Diff_star": 0.0, "addr": "800 MAIN AVENUE SOUTH", "SR_14": 2.0, "Q_14": 4.0, "name": "HEART OF AMERICA CARE CENTER", "SF_14": 4.0, "SF_15": 4.0, "cnty": "Pierce", "st": "ND", "Zip": 58368.0, "O_14": 3.0, "Q_15": 2.0, "O_15": 3.0, "city": "RUGBY", "beds": 60.0, "SR_15": 2.0}, {"Diff_star": -1.0, "addr": "1307 N 7TH ST", "SR_14": 1.0, "Q_14": 5.0, "name": "ST CATHERINES LIVING CENTER", "SF_14": 2.0, "SF_15": 2.0, "cnty": "Richland", "st": "ND", "Zip": 58075.0, "O_14": 2.0, "Q_15": 4.0, "O_15": 1.0, "city": "WAHPETON", "beds": 100.0, "SR_15": 1.0}, {"Diff_star": 0.0, "addr": "810 N WELO ST", "SR_14": 4.0, "Q_14": 4.0, "name": "TIOGA MEDICAL CENTER LTC", "SF_14": 5.0, "SF_15": 5.0, "cnty": "Williams", "st": "ND", "Zip": 58852.0, "O_14": 5.0, "Q_15": 3.0, "O_15": 5.0, "city": "TIOGA", "beds": 30.0, "SR_15": 4.0}, {"Diff_star": 0.0, "addr": "604 ASH AVE E", "SR_14": 3.0, "Q_14": 4.0, "name": "MARIAN MANOR HEALTHCARE CENTER", "SF_14": 5.0, "SF_15": 5.0, "cnty": "Morton", "st": "ND", "Zip": 58631.0, "O_14": 4.0, "Q_15": 2.0, "O_15": 4.0, "city": "GLEN ULLIN", "beds": 81.0, "SR_15": 3.0}, {"Diff_star": 0.0, "addr": "325 E BREWSTER ST", "SR_14": 3.0, "Q_14": 4.0, "name": "ST ALOISIUS MEDICAL CENTER NURSING HOME", "SF_14": 4.0, "SF_15": 4.0, "cnty": "Wells", "st": "ND", "Zip": 58341.0, "O_14": 4.0, "Q_15": 2.0, "O_15": 4.0, "city": "HARVEY", "beds": 95.0, "SR_15": 3.0}, {"Diff_star": 0.0, "addr": "613 1ST AVE SW", "SR_14": 5.0, "Q_14": 3.0, "name": "ST GERARD'S COMMUNITY OF CARE", "SF_14": 4.0, "SF_15": 4.0, "cnty": "Richland", "st": "ND", "Zip": 58041.0, "O_14": 5.0, "Q_15": 2.0, "O_15": 5.0, "city": "HANKINSON", "beds": 37.0, "SR_15": 5.0}, {"Diff_star": 0.0, "addr": "1200 ROBERTS AVE NE", "SR_14": 4.0, "Q_14": 3.0, "name": "GRIGGS COUNTY CARE CENTER", "SF_14": 4.0, "SF_15": 4.0, "cnty": "Griggs", "st": "ND", "Zip": 58425.0, "O_14": 4.0, "Q_15": 2.0, "O_15": 4.0, "city": "COOPERSTOWN", "beds": 48.0, "SR_15": 4.0}, {"Diff_star": 0.0, "addr": "750 MAIN ST E", "SR_14": 5.0, "Q_14": 5.0, "name": "LUTHER MEMORIAL HOME", "SF_14": 4.0, "SF_15": 4.0, "cnty": "Traill", "st": "ND", "Zip": 58257.0, "O_14": 5.0, "Q_15": 3.0, "O_15": 5.0, "city": "MAYVILLE", "beds": 99.0, "SR_15": 5.0}, {"Diff_star": 0.0, "addr": "1226 1ST AVE N", "SR_14": 4.0, "Q_14": 3.0, "name": "LUTHERAN HOME OF THE GOOD SHEPHERD", "SF_14": 4.0, "SF_15": 4.0, "cnty": "Eddy", "st": "ND", "Zip": 58356.0, "O_14": 4.0, "Q_15": 2.0, "O_15": 4.0, "city": "NEW ROCKFORD", "beds": 74.0, "SR_15": 4.0}, {"Diff_star": 0.0, "addr": "1104  HWY 12", "SR_14": 2.0, "Q_14": 4.0, "name": "WESTERN HORIZONS CARE CENTER", "SF_14": 4.0, "SF_15": 4.0, "cnty": "Adams", "st": "ND", "Zip": 58639.0, "O_14": 3.0, "Q_15": 4.0, "O_15": 3.0, "city": "HETTINGER", "beds": 43.0, "SR_15": 2.0}, {"Diff_star": 0.0, "addr": "615 6TH ST SE", "SR_14": 2.0, "Q_14": 4.0, "name": "MOUNTRAIL BETHEL HOME", "SF_14": 5.0, "SF_15": 5.0, "cnty": "Mountrail", "st": "ND", "Zip": 58784.0, "O_14": 3.0, "Q_15": 3.0, "O_15": 3.0, "city": "STANLEY", "beds": 52.0, "SR_15": 2.0}, {"Diff_star": 0.0, "addr": "1 E MAIN ST", "SR_14": 3.0, "Q_14": 5.0, "name": "GOLDEN ACRES MANOR", "SF_14": 4.0, "SF_15": 4.0, "cnty": "Foster", "st": "ND", "Zip": 58421.0, "O_14": 5.0, "Q_15": 5.0, "O_15": 5.0, "city": "CARRINGTON", "beds": 60.0, "SR_15": 3.0}, {"Diff_star": 0.0, "addr": "1351 N BROADWAY", "SR_14": 2.0, "Q_14": 4.0, "name": "ROSEWOOD ON BROADWAY", "SF_14": 4.0, "SF_15": 4.0, "cnty": "Cass", "st": "ND", "Zip": 58102.0, "O_14": 3.0, "Q_15": 3.0, "O_15": 3.0, "city": "FARGO", "beds": 111.0, "SR_15": 2.0}, {"Diff_star": -1.0, "addr": "201 8TH ST N", "SR_14": 3.0, "Q_14": 5.0, "name": "PRINCE OF PEACE CARE CENTER", "SF_14": 4.0, "SF_15": 4.0, "cnty": "Dickey", "st": "ND", "Zip": 58436.0, "O_14": 5.0, "Q_15": 4.0, "O_15": 4.0, "city": "ELLENDALE", "beds": 53.0, "SR_15": 3.0}, {"Diff_star": 0.0, "addr": "409 S 3RD ST", "SR_14": 3.0, "Q_14": 5.0, "name": "STRASBURG NURSING HOME", "SF_14": 5.0, "SF_15": 5.0, "cnty": "Emmons", "st": "ND", "Zip": 58573.0, "O_14": 5.0, "Q_15": 5.0, "O_15": 5.0, "city": "STRASBURG", "beds": 55.0, "SR_15": 3.0}, {"Diff_star": 0.0, "addr": "1116 9TH AVE", "SR_14": 4.0, "Q_14": 5.0, "name": "MAPLE MANOR CARE CENTER", "SF_14": 4.0, "SF_15": 4.0, "cnty": "Cavalier", "st": "ND", "Zip": 58249.0, "O_14": 5.0, "Q_15": 5.0, "O_15": 5.0, "city": "LANGDON", "beds": 63.0, "SR_15": 4.0}, {"Diff_star": 0.0, "addr": "950 DAKOTA AVE", "SR_14": 5.0, "Q_14": 4.0, "name": "HATTON PRAIRIE VILLAGE", "SF_14": 4.0, "SF_15": 4.0, "cnty": "Traill", "st": "ND", "Zip": 58240.0, "O_14": 5.0, "Q_15": 4.0, "O_15": 5.0, "city": "HATTON", "beds": 42.0, "SR_15": 5.0}, {"Diff_star": 1.0, "addr": "108 E NYHUS AVE", "SR_14": 2.0, "Q_14": 4.0, "name": "NELSON COUNTY HEALTH SYSTEM CARE CENTER", "SF_14": 4.0, "SF_15": 4.0, "cnty": "Nelson", "st": "ND", "Zip": 58254.0, "O_14": 3.0, "Q_15": 3.0, "O_15": 4.0, "city": "MCVILLE", "beds": 39.0, "SR_15": 3.0}, {"Diff_star": -1.0, "addr": "118 22ND ST NE", "SR_14": 1.0, "Q_14": 3.0, "name": "KNIFE RIVER CARE CENTER", "SF_14": 5.0, "SF_15": 5.0, "cnty": "Mercer", "st": "ND", "Zip": 58523.0, "O_14": 2.0, "Q_15": 1.0, "O_15": 1.0, "city": "BEULAH", "beds": 86.0, "SR_15": 1.0}, {"Diff_star": 0.0, "addr": "802 2ND ST NW", "SR_14": 4.0, "Q_14": 4.0, "name": "SOUTHWEST HEALTHCARE SERVS", "SF_14": 5.0, "SF_15": 5.0, "cnty": "Bowman", "st": "ND", "Zip": 58623.0, "O_14": 5.0, "Q_15": 3.0, "O_15": 5.0, "city": "BOWMAN", "beds": 40.0, "SR_15": 4.0}, {"Diff_star": 0.0, "addr": "500 DELANO AVE", "SR_14": 4.0, "Q_14": 5.0, "name": "PEMBILIER NURSING CENTER", "SF_14": 5.0, "SF_15": 5.0, "cnty": "Pembina", "st": "ND", "Zip": 58282.0, "O_14": 5.0, "Q_15": 5.0, "O_15": 5.0, "city": "WALHALLA", "beds": 30.0, "SR_15": 4.0}, {"Diff_star": 0.0, "addr": "3400 NEBRASKA DRIVE", "SR_14": 4.0, "Q_14": 4.0, "name": "BAPTIST HEALTH CARE CENTER", "SF_14": 4.0, "SF_15": 4.0, "cnty": "Burleigh", "st": "ND", "Zip": 58503.0, "O_14": 4.0, "Q_15": 2.0, "O_15": 4.0, "city": "BISMARCK", "beds": 140.0, "SR_15": 4.0}, {"Diff_star": 0.0, "addr": "2425 HILLVIEW AVE", "SR_14": 4.0, "Q_14": 4.0, "name": "MISSOURI SLOPE LUTH CARE CTR", "SF_14": 4.0, "SF_15": 4.0, "cnty": "Burleigh", "st": "ND", "Zip": 58501.0, "O_14": 4.0, "Q_15": 2.0, "O_15": 4.0, "city": "BISMARCK", "beds": 255.0, "SR_15": 4.0}, {"Diff_star": -1.0, "addr": "1021 N 26TH ST", "SR_14": 3.0, "Q_14": 3.0, "name": "SANFORD HEALTH ST VINCENT'S LIVING CENTER", "SF_14": 4.0, "SF_15": 4.0, "cnty": "Burleigh", "st": "ND", "Zip": 58501.0, "O_14": 4.0, "Q_15": 1.0, "O_15": 3.0, "city": "BISMARCK", "beds": 101.0, "SR_15": 3.0}, {"Diff_star": 0.0, "addr": "12 3RD ST SE", "SR_14": 5.0, "Q_14": 5.0, "name": "SANFORD HILLSBORO CARE CENTER", "SF_14": 5.0, "SF_15": 5.0, "cnty": "Traill", "st": "ND", "Zip": 58045.0, "O_14": 5.0, "Q_15": 5.0, "O_15": 5.0, "city": "HILLSBORO", "beds": 36.0, "SR_15": 4.0}, {"Diff_star": 0.0, "addr": "242 10TH ST W", "SR_14": 1.0, "Q_14": 5.0, "name": "ST LUKES HOME", "SF_14": 5.0, "SF_15": 4.0, "cnty": "Stark", "st": "ND", "Zip": 58601.0, "O_14": 2.0, "Q_15": 5.0, "O_15": 2.0, "city": "DICKINSON", "beds": 88.0, "SR_15": 1.0}, {"Diff_star": -1.0, "addr": "609 4TH AVE NE", "SR_14": 1.0, "Q_14": 5.0, "name": "BENEDICTINE LIVING CENTER OF GARRISON", "SF_14": 4.0, "SF_15": 3.0, "cnty": "Mclean", "st": "ND", "Zip": 58540.0, "O_14": 2.0, "Q_15": 4.0, "O_15": 1.0, "city": "GARRISON", "beds": 52.0, "SR_15": 1.0}, {"Diff_star": -1.0, "addr": "1011 BOUNDARY ST NW", "SR_14": 1.0, "Q_14": 4.0, "name": "SANFORD HEALTH SUNSET DRIVE CONTINUING CARE CENTER", "SF_14": 5.0, "SF_15": 5.0, "cnty": "Morton", "st": "ND", "Zip": 58554.0, "O_14": 2.0, "Q_15": 1.0, "O_15": 1.0, "city": "MANDAN", "beds": 128.0, "SR_15": 1.0}, {"Diff_star": 1.0, "addr": "400 S 4TH ST", "SR_14": 4.0, "Q_14": 4.0, "name": "WISHEK LIVING CENTER", "SF_14": 4.0, "SF_15": 4.0, "cnty": "Mcintosh", "st": "ND", "Zip": 58495.0, "O_14": 4.0, "Q_15": 4.0, "O_15": 5.0, "city": "WISHEK", "beds": 60.0, "SR_15": 5.0}, {"Diff_star": 0.0, "addr": "2900 14TH AVE S", "SR_14": 3.0, "Q_14": 3.0, "name": "VALLEY ELDERCARE CTR", "SF_14": 4.0, "SF_15": 4.0, "cnty": "Grand Forks", "st": "ND", "Zip": 58201.0, "O_14": 4.0, "Q_15": 2.0, "O_15": 4.0, "city": "GRAND FORKS", "beds": 212.0, "SR_15": 3.0}, {"Diff_star": 0.0, "addr": "701 11TH ST", "SR_14": 4.0, "Q_14": 5.0, "name": "TOWNER COUNTY LIVING CTR", "SF_14": 5.0, "SF_15": 5.0, "cnty": "Towner", "st": "ND", "Zip": 58324.0, "O_14": 5.0, "Q_15": 3.0, "O_15": 5.0, "city": "CANDO", "beds": 33.0, "SR_15": 4.0}, {"Diff_star": 0.0, "addr": "620 14TH AVE NE", "SR_14": 2.0, "Q_14": 2.0, "name": "EVENTIDE HEARTLAND", "SF_14": 4.0, "SF_15": 4.0, "cnty": "Ramsey", "st": "ND", "Zip": 58301.0, "O_14": 3.0, "Q_15": 2.0, "O_15": 3.0, "city": "DEVILS LAKE", "beds": 82.0, "SR_15": 2.0}, {"Diff_star": 0.0, "addr": "1515 2ND AVE WEST", "SR_14": 1.0, "Q_14": 5.0, "name": "BETHEL LUTHERAN NURSING & REHABILITATION CENTER", "SF_14": 4.0, "SF_15": 4.0, "cnty": "Williams", "st": "ND", "Zip": 58801.0, "O_14": 2.0, "Q_15": 4.0, "O_15": 2.0, "city": "WILLISTON", "beds": 168.0, "SR_15": 1.0}, {"Diff_star": 0.0, "addr": "709 4TH AVE NE", "SR_14": 3.0, "Q_14": 5.0, "name": "MCKENZIE COUNTY HEALTHCARE SYSTEMS LONG TERM CARE", "SF_14": 4.0, "SF_15": 4.0, "cnty": "Mckenzie", "st": "ND", "Zip": 58854.0, "O_14": 5.0, "Q_15": 5.0, "O_15": 5.0, "city": "WATFORD CITY", "beds": 47.0, "SR_15": 3.0}, {"Diff_star": -1.0, "addr": "305 8TH AVE NE", "SR_14": 1.0, "Q_14": 3.0, "name": "TRINITY HOMES", "SF_14": 5.0, "SF_15": 5.0, "cnty": "Ward", "st": "ND", "Zip": 58702.0, "O_14": 2.0, "Q_15": 1.0, "O_15": 1.0, "city": "MINOT", "beds": 230.0, "SR_15": 1.0}, {"Diff_star": -1.0, "addr": "4 N PARK ST", "SR_14": 3.0, "Q_14": 2.0, "name": "NORTHWOOD DEACONESS HEALTH CNT", "SF_14": 5.0, "SF_15": 5.0, "cnty": "Grand Forks", "st": "ND", "Zip": 58267.0, "O_14": 4.0, "Q_15": 1.0, "O_15": 3.0, "city": "NORTHWOOD", "beds": 56.0, "SR_15": 3.0}, {"Diff_star": 0.0, "addr": "979 CENTRAL AVE N", "SR_14": 1.0, "Q_14": 5.0, "name": "SHEYENNE CARE CENTER", "SF_14": 4.0, "SF_15": 4.0, "cnty": "Barnes", "st": "ND", "Zip": 58072.0, "O_14": 2.0, "Q_15": 3.0, "O_15": 2.0, "city": "VALLEY CITY", "beds": 170.0, "SR_15": 1.0}, {"Diff_star": 0.0, "addr": "1300 2ND PL NE", "SR_14": 1.0, "Q_14": 4.0, "name": "EVENTIDE JAMESTOWN", "SF_14": 4.0, "SF_15": 4.0, "cnty": "Stutsman", "st": "ND", "Zip": 58401.0, "O_14": 2.0, "Q_15": 3.0, "O_15": 2.0, "city": "JAMESTOWN", "beds": 115.0, "SR_15": 1.0}, {"Diff_star": -1.0, "addr": "3102 S UNIVERSITY DR", "SR_14": 4.0, "Q_14": 5.0, "name": "VILLA MARIA", "SF_14": 4.0, "SF_15": 4.0, "cnty": "Cass", "st": "ND", "Zip": 58103.0, "O_14": 5.0, "Q_15": 3.0, "O_15": 4.0, "city": "FARGO", "beds": 140.0, "SR_15": 4.0}, {"Diff_star": 0.0, "addr": "15 1ST ST NE", "SR_14": 2.0, "Q_14": 4.0, "name": "DUNSEITH COM NURSING HOME", "SF_14": 4.0, "SF_15": 4.0, "cnty": "Rolette", "st": "ND", "Zip": 58329.0, "O_14": 3.0, "Q_15": 2.0, "O_15": 3.0, "city": "DUNSEITH", "beds": 30.0, "SR_15": 2.0}, {"Diff_star": 0.0, "addr": "804 STATE STREET", "SR_14": 1.0, "Q_14": 5.0, "name": "ROLETTE COMMUNITY CARE CENTER", "SF_14": 4.0, "SF_15": 4.0, "cnty": "Rolette", "st": "ND", "Zip": 58366.0, "O_14": 2.0, "Q_15": 4.0, "O_15": 2.0, "city": "ROLETTE", "beds": 40.0, "SR_15": 1.0}, {"Diff_star": 0.0, "addr": "501 19TH ST NE", "SR_14": 2.0, "Q_14": 5.0, "name": "AVE MARIA VILLAGE", "SF_14": 4.0, "SF_15": 4.0, "cnty": "Stutsman", "st": "ND", "Zip": 58401.0, "O_14": 4.0, "Q_15": 5.0, "O_15": 4.0, "city": "JAMESTOWN", "beds": 100.0, "SR_15": 2.0}, {"Diff_star": -1.0, "addr": "333 EASTERN AVE", "SR_14": 3.0, "Q_14": 2.0, "name": "LUTHERAN SUNSET HOME", "SF_14": 5.0, "SF_15": 5.0, "cnty": "Walsh", "st": "ND", "Zip": 58237.0, "O_14": 4.0, "Q_15": 1.0, "O_15": 3.0, "city": "GRAFTON", "beds": 100.0, "SR_15": 3.0}, {"Diff_star": -1.0, "addr": "3534 UNIVERSITY DR S", "SR_14": 3.0, "Q_14": 5.0, "name": "ELIM CARE CENTER", "SF_14": 4.0, "SF_15": 4.0, "cnty": "Cass", "st": "ND", "Zip": 58104.0, "O_14": 5.0, "Q_15": 3.0, "O_15": 4.0, "city": "FARGO", "beds": 136.0, "SR_15": 3.0}, {"Diff_star": 0.0, "addr": "201 S UNIVERSITY DR", "SR_14": 4.0, "Q_14": 5.0, "name": "BETHANY ON UNIVERSITY", "SF_14": 4.0, "SF_15": 4.0, "cnty": "Cass", "st": "ND", "Zip": 58103.0, "O_14": 5.0, "Q_15": 5.0, "O_15": 5.0, "city": "FARGO", "beds": 172.0, "SR_15": 4.0}, {"Diff_star": -1.0, "addr": "804 MAIN ST W", "SR_14": 2.0, "Q_14": 4.0, "name": "WEDGEWOOD MANOR", "SF_14": 4.0, "SF_15": 3.0, "cnty": "Pembina", "st": "ND", "Zip": 58220.0, "O_14": 3.0, "Q_15": 2.0, "O_15": 2.0, "city": "CAVALIER", "beds": 50.0, "SR_15": 2.0}, {"Diff_star": -1.0, "addr": "301 COUNTY RD 12B", "SR_14": 2.0, "Q_14": 5.0, "name": "GOOD SAMARITAN SOCIETY - PARK RIVER", "SF_14": 5.0, "SF_15": 5.0, "cnty": "Walsh", "st": "ND", "Zip": 58270.0, "O_14": 4.0, "Q_15": 4.0, "O_15": 3.0, "city": "PARK RIVER", "beds": 54.0, "SR_15": 2.0}, {"Diff_star": -1.0, "addr": "851 4TH AVE E", "SR_14": 2.0, "Q_14": 5.0, "name": "ST BENEDICTS HEALTH CENTER", "SF_14": 4.0, "SF_15": 4.0, "cnty": "Stark", "st": "ND", "Zip": 58601.0, "O_14": 4.0, "Q_15": 4.0, "O_15": 3.0, "city": "DICKINSON", "beds": 164.0, "SR_15": 2.0}, {"Diff_star": -1.0, "addr": "612 CENTER AVE N", "SR_14": 3.0, "Q_14": 5.0, "name": "ASHLEY MEDICAL CENTER NURSING HOME", "SF_14": 3.0, "SF_15": 3.0, "cnty": "Mcintosh", "st": "ND", "Zip": 58413.0, "O_14": 4.0, "Q_15": 3.0, "O_15": 3.0, "city": "ASHLEY", "beds": 44.0, "SR_15": 3.0}, {"Diff_star": 0.0, "addr": "95 HILL TOP DR", "SR_14": 4.0, "Q_14": 4.0, "name": "HILL TOP HOME OF COMFORT INC", "SF_14": 4.0, "SF_15": 4.0, "cnty": "Dunn", "st": "ND", "Zip": 58640.0, "O_14": 4.0, "Q_15": 3.0, "O_15": 4.0, "city": "KILLDEER", "beds": 52.0, "SR_15": 4.0}, {"Diff_star": -1.0, "addr": "725 E 10TH ST", "SR_14": 1.0, "Q_14": 4.0, "name": "GOOD SAMARITAN SOCIETY - BOTTINEAU", "SF_14": 4.0, "SF_15": 3.0, "cnty": "Bottineau", "st": "ND", "Zip": 58318.0, "O_14": 2.0, "Q_15": 3.0, "O_15": 1.0, "city": "BOTTINEAU", "beds": 65.0, "SR_15": 1.0}, {"Diff_star": 0.0, "addr": "602 E MAIN ST", "SR_14": 2.0, "Q_14": 4.0, "name": "GOOD SAMARITAN SOCIETY - MOHALL", "SF_14": 5.0, "SF_15": 5.0, "cnty": "Renville", "st": "ND", "Zip": 58761.0, "O_14": 3.0, "Q_15": 3.0, "O_15": 3.0, "city": "MOHALL", "beds": 57.0, "SR_15": 2.0}, {"Diff_star": -2.0, "addr": "213 N 9TH ST", "SR_14": 2.0, "Q_14": 5.0, "name": "GOOD SAMARITAN SOCIETY - OAKES", "SF_14": 4.0, "SF_15": 4.0, "cnty": "Dickey", "st": "ND", "Zip": 58474.0, "O_14": 4.0, "Q_15": 3.0, "O_15": 2.0, "city": "OAKES", "beds": 88.0, "SR_15": 1.0}, {"Diff_star": 0.0, "addr": "113 5TH ST S", "SR_14": 4.0, "Q_14": 5.0, "name": "ANETA PARKVIEW HEALTH CTR", "SF_14": 5.0, "SF_15": 5.0, "cnty": "Nelson", "st": "ND", "Zip": 58212.0, "O_14": 5.0, "Q_15": 5.0, "O_15": 5.0, "city": "ANETA", "beds": 39.0, "SR_15": 4.0}, {"Diff_star": 0.0, "addr": "501 E FRONT ST", "SR_14": 4.0, "Q_14": 4.0, "name": "GOOD SAMARITAN SOCIETY - LARIMORE", "SF_14": 4.0, "SF_15": 4.0, "cnty": "Grand Forks", "st": "ND", "Zip": 58251.0, "O_14": 4.0, "Q_15": 3.0, "O_15": 4.0, "city": "LARIMORE", "beds": 45.0, "SR_15": 4.0}, {"Diff_star": 0.0, "addr": "401 MILLIONAIRE AVE", "SR_14": 2.0, "Q_14": 4.0, "name": "GOOD SAMARITAN SOCIETY - MOTT", "SF_14": 4.0, "SF_15": 4.0, "cnty": "Hettinger", "st": "ND", "Zip": 58646.0, "O_14": 3.0, "Q_15": 2.0, "O_15": 3.0, "city": "MOTT", "beds": 42.0, "SR_15": 2.0}, {"Diff_star": -1.0, "addr": "302 7TH AVE NE", "SR_14": 1.0, "Q_14": 5.0, "name": "GOOD SAMARITAN SOCIETY - DEVILS LAKE", "SF_14": 3.0, "SF_15": 3.0, "cnty": "Ramsey", "st": "ND", "Zip": 58301.0, "O_14": 2.0, "Q_15": 4.0, "O_15": 1.0, "city": "DEVILS LAKE", "beds": 48.0, "SR_15": 1.0}, {"Diff_star": 0.0, "addr": "1303 27TH STREET NW", "SR_14": 3.0, "Q_14": 5.0, "name": "DAKOTA  ALPHA", "SF_14": 5.0, "SF_15": 5.0, "cnty": "Morton", "st": "ND", "Zip": 58554.0, "O_14": 5.0, "Q_15": 5.0, "O_15": 5.0, "city": "MANDAN", "beds": 20.0, "SR_15": 3.0}, {"Diff_star": -1.0, "addr": "311 E 4TH ST", "SR_14": 4.0, "Q_14": 2.0, "name": "NAPOLEON CARE CENTER", "SF_14": 4.0, "SF_15": 4.0, "cnty": "Logan", "st": "ND", "Zip": 58561.0, "O_14": 4.0, "Q_15": 1.0, "O_15": 3.0, "city": "NAPOLEON", "beds": 44.0, "SR_15": 4.0}, {"Diff_star": 0.0, "addr": "483 4TH ST SW", "SR_14": 5.0, "Q_14": 3.0, "name": "FOUR SEASONS HEALTH CARE INC", "SF_14": 4.0, "SF_15": 4.0, "cnty": "Sargent", "st": "ND", "Zip": 58032.0, "O_14": 5.0, "Q_15": 2.0, "O_15": 5.0, "city": "FORMAN", "beds": 32.0, "SR_15": 5.0}, {"Diff_star": 0.0, "addr": "608 4TH AVE SW", "SR_14": 4.0, "Q_14": 5.0, "name": "GOOD SAMARITAN SOCIETY - LAKOTA", "SF_14": 4.0, "SF_15": 3.0, "cnty": "Nelson", "st": "ND", "Zip": 58344.0, "O_14": 5.0, "Q_15": 5.0, "O_15": 5.0, "city": "LAKOTA", "beds": 44.0, "SR_15": 4.0}, {"Diff_star": 0.0, "addr": "201 14TH ST NW", "SR_14": 1.0, "Q_14": 5.0, "name": "SANFORD HEALTH CONTINUING CARE CENTER OFF COLLINS", "SF_14": 5.0, "SF_15": 5.0, "cnty": "Morton", "st": "ND", "Zip": 58554.0, "O_14": 2.0, "Q_15": 2.0, "O_15": 2.0, "city": "MANDAN", "beds": 64.0, "SR_15": 1.0}, {"Diff_star": -1.0, "addr": "315 1ST ST SE", "SR_14": 3.0, "Q_14": 5.0, "name": "ST ROSE CARE CENTER", "SF_14": 4.0, "SF_15": 3.0, "cnty": "La Moure", "st": "ND", "Zip": 58458.0, "O_14": 5.0, "Q_15": 5.0, "O_15": 4.0, "city": "LAMOURE", "beds": 44.0, "SR_15": 3.0}, {"Diff_star": 0.0, "addr": "110 HILLCREST DR", "SR_14": 2.0, "Q_14": 5.0, "name": "MARYHILL MANOR", "SF_14": 4.0, "SF_15": 4.0, "cnty": "Ransom", "st": "ND", "Zip": 58027.0, "O_14": 4.0, "Q_15": 5.0, "O_15": 4.0, "city": "ENDERLIN", "beds": 54.0, "SR_15": 2.0}, {"Diff_star": 0.0, "addr": "300 MAIN ST S", "SR_14": 1.0, "Q_14": 3.0, "name": "SOURIS VALLEY CARE CENTER", "SF_14": 3.0, "SF_15": 3.0, "cnty": "Mchenry", "st": "ND", "Zip": 58790.0, "O_14": 1.0, "Q_15": 1.0, "O_15": 1.0, "city": "VELVA", "beds": 50.0, "SR_15": 1.0}, {"Diff_star": 0.0, "addr": "100 ELM AVE", "SR_14": 1.0, "Q_14": 5.0, "name": "ELM CREST MANOR", "SF_14": 5.0, "SF_15": 5.0, "cnty": "Morton", "st": "ND", "Zip": 58563.0, "O_14": 2.0, "Q_15": 4.0, "O_15": 2.0, "city": "NEW SALEM", "beds": 68.0, "SR_15": 1.0}, {"Diff_star": -1.0, "addr": "705 SE 4TH ST", "SR_14": 2.0, "Q_14": 2.0, "name": "ST LUKES SUNRISE CARE CENTER", "SF_14": 4.0, "SF_15": 4.0, "cnty": "Divide", "st": "ND", "Zip": 58730.0, "O_14": 3.0, "Q_15": 1.0, "O_15": 2.0, "city": "CROSBY", "beds": 42.0, "SR_15": 2.0}, {"Diff_star": -1.0, "addr": "4000 24TH AVE S", "SR_14": 4.0, "Q_14": 5.0, "name": "WOODSIDE VILLAGE", "SF_14": 4.0, "SF_15": 4.0, "cnty": "Grand Forks", "st": "ND", "Zip": 58201.0, "O_14": 5.0, "Q_15": 4.0, "O_15": 4.0, "city": "GRAND FORKS", "beds": 118.0, "SR_15": 4.0}, {"Diff_star": 0.0, "addr": "150 COUNTY RD 34", "SR_14": 2.0, "Q_14": 4.0, "name": "GOOD SAMARITAN SOCIETY - ARTHUR", "SF_14": 4.0, "SF_15": 4.0, "cnty": "Cass", "st": "ND", "Zip": 58006.0, "O_14": 3.0, "Q_15": 2.0, "O_15": 3.0, "city": "ARTHUR", "beds": 31.0, "SR_15": 2.0}, {"Diff_star": 0.0, "addr": "1600 VETERANS DRIVE", "SR_14": 5.0, "Q_14": 3.0, "name": "NORTH DAKOTA VETERANS HOME", "SF_14": 5.0, "SF_15": 5.0, "cnty": "Ransom", "st": "ND", "Zip": 58054.0, "O_14": 5.0, "Q_15": 2.0, "O_15": 5.0, "city": "LISBON", "beds": 52.0, "SR_15": 5.0}, {"Diff_star": 0.0, "addr": "407 3RD AVE SE", "SR_14": 3.0, "Q_14": 4.0, "name": "GARRISON MEM HOSP NSG FAC", "SF_14": 5.0, "SF_15": 5.0, "cnty": "Mclean", "st": "ND", "Zip": 58540.0, "O_14": 4.0, "Q_15": 4.0, "O_15": 4.0, "city": "GARRISON", "beds": 28.0, "SR_15": 3.0}, {"Diff_star": -1.0, "addr": "501 3RD AVE W", "SR_14": 2.0, "Q_14": 5.0, "name": "PARKSIDE LUTHERAN HOME", "SF_14": 4.0, "SF_15": 4.0, "cnty": "Ransom", "st": "ND", "Zip": 58054.0, "O_14": 4.0, "Q_15": 4.0, "O_15": 3.0, "city": "LISBON", "beds": 40.0, "SR_15": 2.0}, {"Diff_star": 0.0, "addr": "900 E BROADWAY", "SR_14": 5.0, "Q_14": 5.0, "name": "ST ALEXIUS MEDICAL CTR TCU", "SF_14": 5.0, "SF_15": 5.0, "cnty": "Burleigh", "st": "ND", "Zip": 58506.0, "O_14": 5.0, "Q_15": 2.0, "O_15": 5.0, "city": "BISMARCK", "beds": 19.0, "SR_15": 5.0}, {"Diff_star": -1.0, "addr": "212 3RD AVENUE WEST", "SR_14": 1.0, "Q_14": 2.0, "name": "RICHARDTON HEALTH CENTER INC", "SF_14": 4.0, "SF_15": 4.0, "cnty": "Stark", "st": "ND", "Zip": 58652.0, "O_14": 2.0, "Q_15": 1.0, "O_15": 1.0, "city": "RICHARDTON", "beds": 20.0, "SR_15": 1.0}, {"Diff_star": 0.0, "addr": "4255 30TH AVE S", "SR_14": 5.0, "Q_14": 5.0, "name": "BETHANY ON 42ND", "SF_14": 4.0, "SF_15": 5.0, "cnty": "Cass", "st": "ND", "Zip": 58104.0, "O_14": 5.0, "Q_15": 5.0, "O_15": 5.0, "city": "FARGO", "beds": 116.0, "SR_15": 3.0}, {"Diff_star": 0.0, "addr": "125 13TH AVENUE WEST", "SR_14": 2.0, "Q_14": 4.0, "name": "SHEYENNE CROSSINGS CARE CENTER/TCU", "SF_14": 4.0, "SF_15": 4.0, "cnty": "Cass", "st": "ND", "Zip": 58078.0, "O_14": 3.0, "Q_15": 4.0, "O_15": 3.0, "city": "WEST FARGO", "beds": 64.0, "SR_15": 2.0}, {"Diff_star": 1.0, "addr": "301 LORRAIN DRIVE", "SR_14": 2.0, "Q_14": 4.0, "name": "GOOD SAMARITAN SOCIETY - BISMARCK", "SF_14": 3.0, "SF_15": 3.0, "cnty": "Burleigh", "st": "ND", "Zip": 58503.0, "O_14": 2.0, "Q_15": 5.0, "O_15": 3.0, "city": "BISMARCK", "beds": 48.0, "SR_15": 2.0}, {"Diff_star": 0.0, "addr": "4580 COLEMAN STREET", "SR_14": 1.0, "Q_14": 4.0, "name": "ST GABRIEL'S COMMUNITY", "SF_14": 5.0, "SF_15": 5.0, "cnty": "Burleigh", "st": "ND", "Zip": 58503.0, "O_14": 2.0, "Q_15": 3.0, "O_15": 2.0, "city": "BISMARCK", "beds": 72.0, "SR_15": 1.0}]