[{"Diff_star": -1.0, "addr": "1750 SOUTH 20TH STREET", "SR_14": 5.0, "Q_14": 3.0, "name": "SUMNER PLACE", "SF_14": 4.0, "SF_15": 4.0, "cnty": "Lancaster", "st": "NE", "Zip": 68502.0, "O_14": 5.0, "Q_15": 1.0, "O_15": 4.0, "city": "LINCOLN", "beds": 104.0, "SR_15": 5.0}, {"Diff_star": -1.0, "addr": "2200 SOUTH 52ND STREET", "SR_14": 3.0, "Q_14": 2.0, "name": "ST JANE DE CHANTAL LONG TERM CARE SERVICES", "SF_14": 5.0, "SF_15": 5.0, "cnty": "Lancaster", "st": "NE", "Zip": 68506.0, "O_14": 4.0, "Q_15": 1.0, "O_15": 3.0, "city": "LINCOLN", "beds": 125.0, "SR_15": 3.0}, {"Diff_star": 0.0, "addr": "4102 WOOLWORTH AVENUE", "SR_14": 4.0, "Q_14": 4.0, "name": "DOUGLAS COUNTY HEALTH CENTER", "SF_14": 5.0, "SF_15": 5.0, "cnty": "Douglas", "st": "NE", "Zip": 68105.0, "O_14": 5.0, "Q_15": 3.0, "O_15": 5.0, "city": "OMAHA", "beds": 254.0, "SR_15": 4.0}, {"Diff_star": -1.0, "addr": "6315 O STREET", "SR_14": 5.0, "Q_14": 2.0, "name": "EASTMONT TOWERS", "SF_14": "", "SF_15": "", "cnty": "Lancaster", "st": "NE", "Zip": 68510.0, "O_14": 5.0, "Q_15": 2.0, "O_15": 4.0, "city": "LINCOLN", "beds": 20.0, "SR_15": 4.0}, {"Diff_star": -1.0, "addr": "4735 SOUTH 54TH STREET", "SR_14": 3.0, "Q_14": 3.0, "name": "HOMESTEAD NURSING & REHABILITATION CENTER", "SF_14": 3.0, "SF_15": 3.0, "cnty": "Lancaster", "st": "NE", "Zip": 68516.0, "O_14": 3.0, "Q_15": 1.0, "O_15": 2.0, "city": "LINCOLN", "beds": 173.0, "SR_15": 3.0}, {"Diff_star": 1.0, "addr": "2525 SOUTH 135TH AVENUE", "SR_14": 1.0, "Q_14": 4.0, "name": "MONTCLAIR NURSING AND REHABILITATION CENTER", "SF_14": 3.0, "SF_15": 4.0, "cnty": "Douglas", "st": "NE", "Zip": 68144.0, "O_14": 1.0, "Q_15": 4.0, "O_15": 2.0, "city": "OMAHA", "beds": 175.0, "SR_15": 1.0}, {"Diff_star": -1.0, "addr": "1720 BURTON DRIVE", "SR_14": 4.0, "Q_14": 5.0, "name": "FALLS CITY NURSING AND REHABILITATION CENTER", "SF_14": 4.0, "SF_15": 4.0, "cnty": "Richardson", "st": "NE", "Zip": 68355.0, "O_14": 5.0, "Q_15": 4.0, "O_15": 4.0, "city": "FALLS CITY", "beds": 63.0, "SR_15": 4.0}, {"Diff_star": 0.0, "addr": "4720 RANDOLPH STREET", "SR_14": 4.0, "Q_14": 4.0, "name": "TABITHA NURSING HOME", "SF_14": 5.0, "SF_15": 5.0, "cnty": "Lancaster", "st": "NE", "Zip": 68510.0, "O_14": 5.0, "Q_15": 2.0, "O_15": 5.0, "city": "LINCOLN", "beds": 215.0, "SR_15": 4.0}, {"Diff_star": 0.0, "addr": "7410 MERCY ROAD", "SR_14": 1.0, "Q_14": 5.0, "name": "NEBRASKA SKILLED NURSING & REHAB", "SF_14": 4.0, "SF_15": 4.0, "cnty": "Douglas", "st": "NE", "Zip": 68124.0, "O_14": 2.0, "Q_15": 4.0, "O_15": 2.0, "city": "OMAHA", "beds": 174.0, "SR_15": 1.0}, {"Diff_star": 0.0, "addr": "323 SOUTH 132ND STREET", "SR_14": 3.0, "Q_14": 5.0, "name": "ROSE BLUMKIN JEWISH HOME", "SF_14": 5.0, "SF_15": 5.0, "cnty": "Douglas", "st": "NE", "Zip": 68154.0, "O_14": 5.0, "Q_15": 5.0, "O_15": 5.0, "city": "OMAHA", "beds": 105.0, "SR_15": 4.0}, {"Diff_star": 0.0, "addr": "P O BOX 367, 615 EAST 9TH STREET", "SR_14": 4.0, "Q_14": 4.0, "name": "MIDWEST COVENANT HOME", "SF_14": 4.0, "SF_15": 4.0, "cnty": "Polk", "st": "NE", "Zip": 68666.0, "O_14": 4.0, "Q_15": 2.0, "O_15": 4.0, "city": "STROMSBURG", "beds": 58.0, "SR_15": 4.0}, {"Diff_star": 0.0, "addr": "P O BOX 950, 1633 SWEETWATER", "SR_14": 2.0, "Q_14": 5.0, "name": "HIGHLAND PARK CARE CENTER", "SF_14": 4.0, "SF_15": 4.0, "cnty": "Box Butte", "st": "NE", "Zip": 69301.0, "O_14": 4.0, "Q_15": 5.0, "O_15": 4.0, "city": "ALLIANCE", "beds": 60.0, "SR_15": 2.0}, {"Diff_star": 1.0, "addr": "200 LEVI LANE", "SR_14": 2.0, "Q_14": 5.0, "name": "GOLD CREST RETIREMENT CENTER", "SF_14": 3.0, "SF_15": 3.0, "cnty": "Gage", "st": "NE", "Zip": 68301.0, "O_14": 3.0, "Q_15": 5.0, "O_15": 4.0, "city": "ADAMS", "beds": 52.0, "SR_15": 3.0}, {"Diff_star": -1.0, "addr": "4405 NORMAL BLVD", "SR_14": 2.0, "Q_14": 2.0, "name": "THE AMBASSADOR LINCOLN", "SF_14": 4.0, "SF_15": 4.0, "cnty": "Lancaster", "st": "NE", "Zip": 68506.0, "O_14": 3.0, "Q_15": 1.0, "O_15": 2.0, "city": "LINCOLN", "beds": 122.0, "SR_15": 2.0}, {"Diff_star": 0.0, "addr": "1320 11TH AVENUE", "SR_14": 4.0, "Q_14": 5.0, "name": "HOLDREGE MEMORIAL HOMES, INC", "SF_14": 4.0, "SF_15": 3.0, "cnty": "Phelps", "st": "NE", "Zip": 68949.0, "O_14": 5.0, "Q_15": 5.0, "O_15": 5.0, "city": "HOLDREGE", "beds": 85.0, "SR_15": 4.0}, {"Diff_star": 0.0, "addr": "2325 LODGE DRIVE", "SR_14": 3.0, "Q_14": 4.0, "name": "THE LODGE AT HERITAGE ESTATES", "SF_14": 4.0, "SF_15": 4.0, "cnty": "Scott Bluff", "st": "NE", "Zip": 69341.0, "O_14": 4.0, "Q_15": 2.0, "O_15": 4.0, "city": "GERING", "beds": 102.0, "SR_15": 3.0}, {"Diff_star": -2.0, "addr": "P O BOX 2149, 926 EAST E STREET", "SR_14": 2.0, "Q_14": 4.0, "name": "GOOD SAMARITAN SOCIETY - HASTINGS VILLAGE", "SF_14": 4.0, "SF_15": 3.0, "cnty": "Adams", "st": "NE", "Zip": 68902.0, "O_14": 3.0, "Q_15": 1.0, "O_15": 1.0, "city": "HASTINGS", "beds": 177.0, "SR_15": 2.0}, {"Diff_star": 0.0, "addr": "309 NORTH MADISON STREET", "SR_14": 2.0, "Q_14": 4.0, "name": "PARK VIEW HAVEN NURSING HOME", "SF_14": 4.0, "SF_15": 4.0, "cnty": "Cedar", "st": "NE", "Zip": 68727.0, "O_14": 3.0, "Q_15": 3.0, "O_15": 3.0, "city": "COLERIDGE", "beds": 35.0, "SR_15": 2.0}, {"Diff_star": 0.0, "addr": "260 SOUTH 10TH STREET", "SR_14": 5.0, "Q_14": 5.0, "name": "DAVID PLACE", "SF_14": 4.0, "SF_15": 3.0, "cnty": "Butler", "st": "NE", "Zip": 68632.0, "O_14": 5.0, "Q_15": 3.0, "O_15": 5.0, "city": "DAVID CITY", "beds": 86.0, "SR_15": 5.0}, {"Diff_star": 0.0, "addr": "3501 DAKOTA AVENUE", "SR_14": 3.0, "Q_14": 4.0, "name": "REGENCY SQUARE CARE CENTER", "SF_14": 5.0, "SF_15": 2.0, "cnty": "Dakota", "st": "NE", "Zip": 68776.0, "O_14": 4.0, "Q_15": 2.0, "O_15": 4.0, "city": "SOUTH SIOUX CITY", "beds": 72.0, "SR_15": 4.0}, {"Diff_star": -1.0, "addr": "2305 SOUTH 10TH STREET", "SR_14": 1.0, "Q_14": 5.0, "name": "ST. JOSEPH VILLA NURSING CENTER", "SF_14": 2.0, "SF_15": 2.0, "cnty": "Douglas", "st": "NE", "Zip": 68108.0, "O_14": 2.0, "Q_15": 4.0, "O_15": 1.0, "city": "OMAHA", "beds": 184.0, "SR_15": 1.0}, {"Diff_star": 0.0, "addr": "P O BOX 1087, 309 WEST 7TH STREET", "SR_14": 1.0, "Q_14": 3.0, "name": "HILLCREST NURSING HOME", "SF_14": 4.0, "SF_15": 4.0, "cnty": "Red Willow", "st": "NE", "Zip": 69001.0, "O_14": 2.0, "Q_15": 2.0, "O_15": 2.0, "city": "MCCOOK", "beds": 100.0, "SR_15": 1.0}, {"Diff_star": 0.0, "addr": "2116 WEST FAIDLEY AVENUE", "SR_14": 5.0, "Q_14": 5.0, "name": "CHI HEALTH ST FRANCIS", "SF_14": "", "SF_15": "", "cnty": "Hall", "st": "NE", "Zip": 68803.0, "O_14": 5.0, "Q_15": 5.0, "O_15": 5.0, "city": "GRAND ISLAND", "beds": 36.0, "SR_15": 5.0}, {"Diff_star": 0.0, "addr": "3200 G STREET", "SR_14": 2.0, "Q_14": 3.0, "name": "MATNEY'S COLONIAL MANOR", "SF_14": 2.0, "SF_15": 2.0, "cnty": "Dakota", "st": "NE", "Zip": 68776.0, "O_14": 2.0, "Q_15": 3.0, "O_15": 2.0, "city": "SOUTH SIOUX CITY", "beds": 77.0, "SR_15": 2.0}, {"Diff_star": 0.0, "addr": "4000 WEST PHILIP AVENUE", "SR_14": 2.0, "Q_14": 4.0, "name": "LINDEN COURT", "SF_14": 4.0, "SF_15": 4.0, "cnty": "Lincoln", "st": "NE", "Zip": 69101.0, "O_14": 3.0, "Q_15": 3.0, "O_15": 3.0, "city": "NORTH PLATTE", "beds": 125.0, "SR_15": 2.0}, {"Diff_star": 0.0, "addr": "P O BOX 1990, 10 EAST 31ST STREET", "SR_14": 3.0, "Q_14": 3.0, "name": "CHI HEALTH GOOD SAMARITAN", "SF_14": 5.0, "SF_15": 5.0, "cnty": "Buffalo", "st": "NE", "Zip": 68848.0, "O_14": 4.0, "Q_15": 3.0, "O_15": 4.0, "city": "KEARNEY", "beds": 22.0, "SR_15": 3.0}, {"Diff_star": 0.0, "addr": "6809 N 68TH PLAZA", "SR_14": 1.0, "Q_14": 4.0, "name": "IMMANUEL FONTENELLE", "SF_14": 4.0, "SF_15": 4.0, "cnty": "Douglas", "st": "NE", "Zip": 68152.0, "O_14": 2.0, "Q_15": 2.0, "O_15": 2.0, "city": "OMAHA", "beds": 165.0, "SR_15": 1.0}, {"Diff_star": -2.0, "addr": "3119 WEST FAIDLEY AVENUE", "SR_14": 5.0, "Q_14": 2.0, "name": "TIFFANY SQUARE CARE CENTER", "SF_14": 4.0, "SF_15": 4.0, "cnty": "Hall", "st": "NE", "Zip": 68803.0, "O_14": 5.0, "Q_15": 1.0, "O_15": 3.0, "city": "GRAND ISLAND", "beds": 103.0, "SR_15": 4.0}, {"Diff_star": 0.0, "addr": "P O BOX 107, 401 DARLENE STREET", "SR_14": 4.0, "Q_14": 2.0, "name": "GOLDEN LIVINGCENTER - HARTINGTON", "SF_14": 4.0, "SF_15": 4.0, "cnty": "Cedar", "st": "NE", "Zip": 68739.0, "O_14": 4.0, "Q_15": 2.0, "O_15": 4.0, "city": "HARTINGTON", "beds": 47.0, "SR_15": 4.0}, {"Diff_star": 0.0, "addr": "P O BOX 429, 1203 NORTH 13TH STREET", "SR_14": 4.0, "Q_14": 5.0, "name": "HERITAGE OF BEL AIR", "SF_14": 5.0, "SF_15": 5.0, "cnty": "Madison", "st": "NE", "Zip": 68702.0, "O_14": 5.0, "Q_15": 4.0, "O_15": 5.0, "city": "NORFOLK", "beds": 108.0, "SR_15": 4.0}, {"Diff_star": -1.0, "addr": "1035 DIAMOND STREET", "SR_14": 1.0, "Q_14": 3.0, "name": "LOGAN VALLEY MANOR", "SF_14": 4.0, "SF_15": 4.0, "cnty": "Burt", "st": "NE", "Zip": 68038.0, "O_14": 2.0, "Q_15": 1.0, "O_15": 1.0, "city": "LYONS", "beds": 65.0, "SR_15": 1.0}, {"Diff_star": 0.0, "addr": "1720 NORTH SPRUCE", "SR_14": 1.0, "Q_14": 4.0, "name": "INDIAN HILLS HEALTHCARE COMMUNITY", "SF_14": 3.0, "SF_15": 3.0, "cnty": "Keith", "st": "NE", "Zip": 69153.0, "O_14": 1.0, "Q_15": 2.0, "O_15": 1.0, "city": "OGALLALA", "beds": 82.0, "SR_15": 1.0}, {"Diff_star": -1.0, "addr": "P O BOX 625, 2855 40TH AVENUE", "SR_14": 3.0, "Q_14": 5.0, "name": "GOLDEN LIVINGCENTER - COLUMBUS", "SF_14": 3.0, "SF_15": 3.0, "cnty": "Platte", "st": "NE", "Zip": 68602.0, "O_14": 4.0, "Q_15": 4.0, "O_15": 3.0, "city": "COLUMBUS", "beds": 145.0, "SR_15": 3.0}, {"Diff_star": -1.0, "addr": "318 WEST 18TH STREET", "SR_14": 5.0, "Q_14": 4.0, "name": "GOLDEN LIVINGCENTER - COZAD", "SF_14": 4.0, "SF_15": 4.0, "cnty": "Dawson", "st": "NE", "Zip": 69130.0, "O_14": 5.0, "Q_15": 1.0, "O_15": 4.0, "city": "COZAD", "beds": 67.0, "SR_15": 5.0}, {"Diff_star": 0.0, "addr": "510 CENTENNIAL CIRCLE", "SR_14": 1.0, "Q_14": 3.0, "name": "CENTENNIAL PARK RETIREMENT VILLAGE", "SF_14": 3.0, "SF_15": 3.0, "cnty": "Lincoln", "st": "NE", "Zip": 69101.0, "O_14": 1.0, "Q_15": 3.0, "O_15": 1.0, "city": "NORTH PLATTE", "beds": 68.0, "SR_15": 1.0}, {"Diff_star": 0.0, "addr": "111 WEST 36TH STREET", "SR_14": 1.0, "Q_14": 2.0, "name": "GOLDEN LIVINGCENTER - SCOTTSBLUFF", "SF_14": 2.0, "SF_15": 2.0, "cnty": "Scott Bluff", "st": "NE", "Zip": 69361.0, "O_14": 1.0, "Q_15": 1.0, "O_15": 1.0, "city": "SCOTTSBLUFF", "beds": 160.0, "SR_15": 1.0}, {"Diff_star": 0.0, "addr": "1006 M STREET", "SR_14": 4.0, "Q_14": 5.0, "name": "GOLDEN LIVINGCENTER - FRANKLIN", "SF_14": 4.0, "SF_15": 4.0, "cnty": "Franklin", "st": "NE", "Zip": 68939.0, "O_14": 5.0, "Q_15": 5.0, "O_15": 5.0, "city": "FRANKLIN", "beds": 42.0, "SR_15": 4.0}, {"Diff_star": -1.0, "addr": "5505 GROVER STREET", "SR_14": 2.0, "Q_14": 3.0, "name": "GOLDEN LIVINGCENTER - OMAHA", "SF_14": 3.0, "SF_15": 3.0, "cnty": "Douglas", "st": "NE", "Zip": 68106.0, "O_14": 2.0, "Q_15": 1.0, "O_15": 1.0, "city": "OMAHA", "beds": 155.0, "SR_15": 1.0}, {"Diff_star": 0.0, "addr": "12856 DEAUVILLE DRIVE", "SR_14": 1.0, "Q_14": 4.0, "name": "GOOD SAMARITAN SOCIETY - MILLARD", "SF_14": 4.0, "SF_15": 5.0, "cnty": "Douglas", "st": "NE", "Zip": 68137.0, "O_14": 2.0, "Q_15": 3.0, "O_15": 2.0, "city": "OMAHA", "beds": 106.0, "SR_15": 1.0}, {"Diff_star": -1.0, "addr": "1900 VICKI LANE", "SR_14": 2.0, "Q_14": 4.0, "name": "GOLDEN LIVINGCENTER - NORFOLK", "SF_14": 3.0, "SF_15": 3.0, "cnty": "Madison", "st": "NE", "Zip": 68701.0, "O_14": 2.0, "Q_15": 2.0, "O_15": 1.0, "city": "NORFOLK", "beds": 67.0, "SR_15": 1.0}, {"Diff_star": 1.0, "addr": "P O BOX 407, 301 17TH STREET", "SR_14": 4.0, "Q_14": 4.0, "name": "STANTON HEALTH CENTER", "SF_14": 3.0, "SF_15": 3.0, "cnty": "Stanton", "st": "NE", "Zip": 68779.0, "O_14": 4.0, "Q_15": 5.0, "O_15": 5.0, "city": "STANTON", "beds": 70.0, "SR_15": 4.0}, {"Diff_star": 0.0, "addr": "2550 NORTH NYE AVENUE", "SR_14": 2.0, "Q_14": 4.0, "name": "ARBOR MANOR", "SF_14": 1.0, "SF_15": 1.0, "cnty": "Dodge", "st": "NE", "Zip": 68025.0, "O_14": 1.0, "Q_15": 3.0, "O_15": 1.0, "city": "FREMONT", "beds": 147.0, "SR_15": 2.0}, {"Diff_star": 0.0, "addr": "602 SOUTH 18TH STREET", "SR_14": 3.0, "Q_14": 4.0, "name": "GOLDEN LIVINGCENTER - PLATTSMOUTH", "SF_14": 3.0, "SF_15": 3.0, "cnty": "Cass", "st": "NE", "Zip": 68048.0, "O_14": 3.0, "Q_15": 2.0, "O_15": 3.0, "city": "PLATTSMOUTH", "beds": 111.0, "SR_15": 3.0}, {"Diff_star": 0.0, "addr": "610 NORTH DARR AVENUE", "SR_14": 1.0, "Q_14": 4.0, "name": "GOLDEN LIVINGCENTER - GRAND ISLAND PARK PLACE", "SF_14": 3.0, "SF_15": 3.0, "cnty": "Hall", "st": "NE", "Zip": 68803.0, "O_14": 1.0, "Q_15": 2.0, "O_15": 1.0, "city": "GRAND ISLAND", "beds": 85.0, "SR_15": 1.0}, {"Diff_star": 0.0, "addr": "1405 WEST HWY 34", "SR_14": 3.0, "Q_14": 4.0, "name": "GOLDEN LIVINGCENTER - GRAND ISLAND LAKEVIEW", "SF_14": 3.0, "SF_15": 3.0, "cnty": "Hall", "st": "NE", "Zip": 68801.0, "O_14": 3.0, "Q_15": 2.0, "O_15": 3.0, "city": "GRAND ISLAND", "beds": 95.0, "SR_15": 3.0}, {"Diff_star": 0.0, "addr": "4809 REDMAN AVENUE", "SR_14": 1.0, "Q_14": 2.0, "name": "GOLDEN LIVINGCENTER - SORENSEN", "SF_14": 3.0, "SF_15": 3.0, "cnty": "Douglas", "st": "NE", "Zip": 68104.0, "O_14": 1.0, "Q_15": 1.0, "O_15": 1.0, "city": "OMAHA", "beds": 74.0, "SR_15": 1.0}, {"Diff_star": -1.0, "addr": "PO BOX 756, 1102 NORTH HARRISON", "SR_14": 3.0, "Q_14": 3.0, "name": "GOLDEN LIVINGCENTER - O'NEILL", "SF_14": 3.0, "SF_15": 3.0, "cnty": "Holt", "st": "NE", "Zip": 68763.0, "O_14": 3.0, "Q_15": 1.0, "O_15": 2.0, "city": "O' NEILL", "beds": 84.0, "SR_15": 3.0}, {"Diff_star": 0.0, "addr": "1420 NORTH 10TH STREET", "SR_14": 4.0, "Q_14": 4.0, "name": "GOLDEN LIVINGCENTER - NEBRASKA CITY", "SF_14": 4.0, "SF_15": 4.0, "cnty": "Otoe", "st": "NE", "Zip": 68410.0, "O_14": 4.0, "Q_15": 2.0, "O_15": 4.0, "city": "NEBRASKA CITY", "beds": 64.0, "SR_15": 4.0}, {"Diff_star": -1.0, "addr": "2023 COLFAX STREET", "SR_14": 3.0, "Q_14": 5.0, "name": "GOLDEN LIVINGCENTER - SCHUYLER", "SF_14": 3.0, "SF_15": 3.0, "cnty": "Colfax", "st": "NE", "Zip": 68661.0, "O_14": 4.0, "Q_15": 4.0, "O_15": 3.0, "city": "SCHUYLER", "beds": 53.0, "SR_15": 3.0}, {"Diff_star": 0.0, "addr": "703 SOUTH VIVIAN", "SR_14": 1.0, "Q_14": 5.0, "name": "GOLDEN LIVINGCENTER - WAUSA", "SF_14": 4.0, "SF_15": 4.0, "cnty": "Knox", "st": "NE", "Zip": 68786.0, "O_14": 2.0, "Q_15": 4.0, "O_15": 2.0, "city": "WAUSA", "beds": 42.0, "SR_15": 1.0}, {"Diff_star": -1.0, "addr": "1322 U STREET", "SR_14": 3.0, "Q_14": 2.0, "name": "GOOD SAMARITAN SOCIETY - AUBURN", "SF_14": 3.0, "SF_15": 3.0, "cnty": "Nemaha", "st": "NE", "Zip": 68305.0, "O_14": 3.0, "Q_15": 1.0, "O_15": 2.0, "city": "AUBURN", "beds": 102.0, "SR_15": 3.0}, {"Diff_star": -1.0, "addr": "1435 TOLEDO STREET", "SR_14": 1.0, "Q_14": 3.0, "name": "GOLDEN LIVINGCENTER - SIDNEY", "SF_14": 4.0, "SF_15": 4.0, "cnty": "Cheyenne", "st": "NE", "Zip": 69162.0, "O_14": 2.0, "Q_15": 1.0, "O_15": 1.0, "city": "SIDNEY", "beds": 41.0, "SR_15": 1.0}, {"Diff_star": -2.0, "addr": "2800 TOWLE STREET", "SR_14": 2.0, "Q_14": 2.0, "name": "FALLS CITY HEALTHCARE COMMUNITY", "SF_14": 4.0, "SF_15": 3.0, "cnty": "Richardson", "st": "NE", "Zip": 68355.0, "O_14": 3.0, "Q_15": 1.0, "O_15": 1.0, "city": "FALLS CITY", "beds": 101.0, "SR_15": 2.0}, {"Diff_star": 0.0, "addr": "P O BOX 648, 202 NORTH ESTHER", "SR_14": 3.0, "Q_14": 4.0, "name": "GOLDEN LIVINGCENTER - FULLERTON", "SF_14": 1.0, "SF_15": 1.0, "cnty": "Nance", "st": "NE", "Zip": 68638.0, "O_14": 2.0, "Q_15": 3.0, "O_15": 2.0, "city": "FULLERTON", "beds": 75.0, "SR_15": 3.0}, {"Diff_star": 0.0, "addr": "212 SUNRISE DRIVE", "SR_14": 3.0, "Q_14": 5.0, "name": "GOLDEN LIVINGCENTER - CLARKSON", "SF_14": 4.0, "SF_15": 4.0, "cnty": "Colfax", "st": "NE", "Zip": 68629.0, "O_14": 5.0, "Q_15": 5.0, "O_15": 5.0, "city": "CLARKSON", "beds": 51.0, "SR_15": 3.0}, {"Diff_star": 0.0, "addr": "300 WEST MEIGS STREET", "SR_14": 1.0, "Q_14": 4.0, "name": "GOLDEN LIVINGCENTER - VALHAVEN", "SF_14": 1.0, "SF_15": 1.0, "cnty": "Douglas", "st": "NE", "Zip": 68064.0, "O_14": 1.0, "Q_15": 4.0, "O_15": 1.0, "city": "VALLEY", "beds": 66.0, "SR_15": 1.0}, {"Diff_star": 0.0, "addr": "823 M STREET", "SR_14": 3.0, "Q_14": 5.0, "name": "GOLDEN LIVINGCENTER - TEKAMAH", "SF_14": 4.0, "SF_15": 4.0, "cnty": "Burt", "st": "NE", "Zip": 68061.0, "O_14": 5.0, "Q_15": 5.0, "O_15": 5.0, "city": "TEKAMAH", "beds": 44.0, "SR_15": 3.0}, {"Diff_star": -1.0, "addr": "450 EAST 23RD STREET", "SR_14": 4.0, "Q_14": 5.0, "name": "DUNKLAU GARDENS", "SF_14": 4.0, "SF_15": 4.0, "cnty": "Dodge", "st": "NE", "Zip": 68025.0, "O_14": 5.0, "Q_15": 4.0, "O_15": 4.0, "city": "FREMONT", "beds": 112.0, "SR_15": 4.0}, {"Diff_star": 0.0, "addr": "224 EAST SOUTH E STREET", "SR_14": 2.0, "Q_14": 5.0, "name": "GOLDEN LIVINGCENTER - BROKEN BOW", "SF_14": 1.0, "SF_15": 1.0, "cnty": "Custer", "st": "NE", "Zip": 68822.0, "O_14": 2.0, "Q_15": 5.0, "O_15": 2.0, "city": "BROKEN BOW", "beds": 79.0, "SR_15": 2.0}, {"Diff_star": 0.0, "addr": "P O BOX 66, 1100 NORTH T STREET", "SR_14": 2.0, "Q_14": 5.0, "name": "GOLDEN LIVINGCENTER - NELIGH", "SF_14": 1.0, "SF_15": 1.0, "cnty": "Antelope", "st": "NE", "Zip": 68756.0, "O_14": 2.0, "Q_15": 5.0, "O_15": 2.0, "city": "NELIGH", "beds": 70.0, "SR_15": 2.0}, {"Diff_star": 0.0, "addr": "1800 14TH AVENUE", "SR_14": 5.0, "Q_14": 4.0, "name": "THE AMBASSADOR NEBRASKA CITY", "SF_14": 4.0, "SF_15": 3.0, "cnty": "Otoe", "st": "NE", "Zip": 68410.0, "O_14": 5.0, "Q_15": 3.0, "O_15": 5.0, "city": "NEBRASKA CITY", "beds": 55.0, "SR_15": 5.0}, {"Diff_star": 0.0, "addr": "1540 NORTH 72ND STREET", "SR_14": 3.0, "Q_14": 4.0, "name": "THE AMBASSADOR OMAHA", "SF_14": 5.0, "SF_15": 5.0, "cnty": "Douglas", "st": "NE", "Zip": 68114.0, "O_14": 4.0, "Q_15": 4.0, "O_15": 4.0, "city": "OMAHA", "beds": 156.0, "SR_15": 3.0}, {"Diff_star": 0.0, "addr": "1800 IRVING STREET", "SR_14": 3.0, "Q_14": 5.0, "name": "BEATRICE HEALTH AND REHABILITATION", "SF_14": 4.0, "SF_15": 4.0, "cnty": "Gage", "st": "NE", "Zip": 68310.0, "O_14": 5.0, "Q_15": 5.0, "O_15": 5.0, "city": "BEATRICE", "beds": 87.0, "SR_15": 3.0}, {"Diff_star": 0.0, "addr": "P O BOX 159, 2600 NORTH LINCOLN AVENUE", "SR_14": 5.0, "Q_14": 4.0, "name": "YORK GENERAL HEARTHSTONE", "SF_14": 4.0, "SF_15": 3.0, "cnty": "York", "st": "NE", "Zip": 68467.0, "O_14": 5.0, "Q_15": 4.0, "O_15": 5.0, "city": "YORK", "beds": 129.0, "SR_15": 5.0}, {"Diff_star": 0.0, "addr": "1100 WEST 1ST STREET", "SR_14": 5.0, "Q_14": 3.0, "name": "CRESTVIEW CARE CENTER", "SF_14": 4.0, "SF_15": 4.0, "cnty": "Seward", "st": "NE", "Zip": 68405.0, "O_14": 5.0, "Q_15": 2.0, "O_15": 5.0, "city": "MILFORD", "beds": 54.0, "SR_15": 5.0}, {"Diff_star": 0.0, "addr": "1702 HILLCREST DRIVE", "SR_14": 2.0, "Q_14": 5.0, "name": "HILLCREST HEALTH & REHAB", "SF_14": 5.0, "SF_15": 5.0, "cnty": "Sarpy", "st": "NE", "Zip": 68005.0, "O_14": 4.0, "Q_15": 5.0, "O_15": 4.0, "city": "BELLEVUE", "beds": 114.0, "SR_15": 2.0}, {"Diff_star": 0.0, "addr": "20275 HOPPER STREET", "SR_14": 2.0, "Q_14": 4.0, "name": "LIFE CARE CENTER OF ELKHORN", "SF_14": 3.0, "SF_15": 3.0, "cnty": "Douglas", "st": "NE", "Zip": 68022.0, "O_14": 2.0, "Q_15": 3.0, "O_15": 2.0, "city": "ELKHORN", "beds": 135.0, "SR_15": 2.0}, {"Diff_star": 0.0, "addr": "811 EAST 14TH STREET", "SR_14": 2.0, "Q_14": 4.0, "name": "CAREAGE CAMPUS OF CARE", "SF_14": 4.0, "SF_15": 4.0, "cnty": "Wayne", "st": "NE", "Zip": 68787.0, "O_14": 3.0, "Q_15": 4.0, "O_15": 3.0, "city": "WAYNE", "beds": 60.0, "SR_15": 2.0}, {"Diff_star": 0.0, "addr": "6032 VILLE DE SANTE DRIVE", "SR_14": 2.0, "Q_14": 4.0, "name": "LIFE CARE CENTER OF OMAHA", "SF_14": 1.0, "SF_15": 3.0, "cnty": "Douglas", "st": "NE", "Zip": 68104.0, "O_14": 1.0, "Q_15": 3.0, "O_15": 1.0, "city": "OMAHA", "beds": 128.0, "SR_15": 1.0}, {"Diff_star": 0.0, "addr": "P O BOX F-1, 1622 WALNUT STREET", "SR_14": 4.0, "Q_14": 5.0, "name": "GOOD SAMARITAN SOCIETY - SYRACUSE", "SF_14": 4.0, "SF_15": 4.0, "cnty": "Otoe", "st": "NE", "Zip": 68446.0, "O_14": 5.0, "Q_15": 5.0, "O_15": 5.0, "city": "SYRACUSE", "beds": 88.0, "SR_15": 4.0}, {"Diff_star": 0.0, "addr": "P O BOX 189, 515 EAST MAIN STREET", "SR_14": 1.0, "Q_14": 2.0, "name": "PIERCE MANOR", "SF_14": 3.0, "SF_15": 3.0, "cnty": "Pierce", "st": "NE", "Zip": 68767.0, "O_14": 1.0, "Q_15": 1.0, "O_15": 1.0, "city": "PIERCE", "beds": 75.0, "SR_15": 1.0}, {"Diff_star": 0.0, "addr": "1700 FURNAS STREET", "SR_14": 1.0, "Q_14": 4.0, "name": "ASHLAND CARE CENTER", "SF_14": 3.0, "SF_15": 3.0, "cnty": "Saunders", "st": "NE", "Zip": 68003.0, "O_14": 1.0, "Q_15": 3.0, "O_15": 1.0, "city": "ASHLAND", "beds": 97.0, "SR_15": 1.0}, {"Diff_star": 0.0, "addr": "P O BOX 307, 333 MAPLE STREET", "SR_14": 2.0, "Q_14": 4.0, "name": "SUTHERLAND CARE CENTER", "SF_14": 5.0, "SF_15": 5.0, "cnty": "Lincoln", "st": "NE", "Zip": 69165.0, "O_14": 3.0, "Q_15": 3.0, "O_15": 3.0, "city": "SUTHERLAND", "beds": 60.0, "SR_15": 2.0}, {"Diff_star": 0.0, "addr": "143 NORTH FULLERTON STREET", "SR_14": 1.0, "Q_14": 1.0, "name": "AINSWORTH CARE CENTER, LLC", "SF_14": 3.0, "SF_15": 2.0, "cnty": "Brown", "st": "NE", "Zip": 69210.0, "O_14": 1.0, "Q_15": 1.0, "O_15": 1.0, "city": "AINSWORTH", "beds": 46.0, "SR_15": 1.0}, {"Diff_star": 0.0, "addr": "11041 NORTH 137TH ST", "SR_14": 2.0, "Q_14": 2.0, "name": "WAVERLY CARE CENTER", "SF_14": 4.0, "SF_15": 4.0, "cnty": "Lancaster", "st": "NE", "Zip": 68462.0, "O_14": 3.0, "Q_15": 2.0, "O_15": 3.0, "city": "WAVERLY", "beds": 54.0, "SR_15": 2.0}, {"Diff_star": 0.0, "addr": "P O BOX 156, 414 NORTH WILSON", "SR_14": 2.0, "Q_14": 5.0, "name": "BLUE HILL CARE CENTER", "SF_14": 4.0, "SF_15": 4.0, "cnty": "Webster", "st": "NE", "Zip": 68930.0, "O_14": 4.0, "Q_15": 5.0, "O_15": 4.0, "city": "BLUE HILL", "beds": 62.0, "SR_15": 2.0}, {"Diff_star": -1.0, "addr": "700 HIGHWAY 6", "SR_14": 1.0, "Q_14": 5.0, "name": "GRETNA CARE CENTER", "SF_14": 2.0, "SF_15": 2.0, "cnty": "Sarpy", "st": "NE", "Zip": 68028.0, "O_14": 2.0, "Q_15": 4.0, "O_15": 1.0, "city": "GRETNA", "beds": 63.0, "SR_15": 1.0}, {"Diff_star": 0.0, "addr": "2720 SOUTH 17TH AVENUE", "SR_14": 4.0, "Q_14": 5.0, "name": "CENTRAL CITY CARE CENTER", "SF_14": 2.0, "SF_15": 2.0, "cnty": "Merrick", "st": "NE", "Zip": 68826.0, "O_14": 5.0, "Q_15": 5.0, "O_15": 5.0, "city": "CENTRAL CITY", "beds": 63.0, "SR_15": 4.0}, {"Diff_star": 0.0, "addr": "2242 WRIGHT STREET", "SR_14": 1.0, "Q_14": 5.0, "name": "GOOD SHEPHERD LUTHERAN HOME", "SF_14": 4.0, "SF_15": 4.0, "cnty": "Washington", "st": "NE", "Zip": 68008.0, "O_14": 2.0, "Q_15": 5.0, "O_15": 2.0, "city": "BLAIR", "beds": 84.0, "SR_15": 1.0}, {"Diff_star": 0.0, "addr": "2824 NORTH 66TH AVENUE", "SR_14": 4.0, "Q_14": 4.0, "name": "MAPLE CREST CARE CENTER", "SF_14": 4.0, "SF_15": 4.0, "cnty": "Douglas", "st": "NE", "Zip": 68104.0, "O_14": 4.0, "Q_15": 4.0, "O_15": 4.0, "city": "OMAHA", "beds": 175.0, "SR_15": 4.0}, {"Diff_star": 0.0, "addr": "420 GORDON AVENUE", "SR_14": 2.0, "Q_14": 4.0, "name": "CREST VIEW HEALTHCARE COMMUNITY", "SF_14": 4.0, "SF_15": 4.0, "cnty": "Dawes", "st": "NE", "Zip": 69337.0, "O_14": 3.0, "Q_15": 4.0, "O_15": 3.0, "city": "CHADRON", "beds": 70.0, "SR_15": 2.0}, {"Diff_star": 0.0, "addr": "1105 9TH STREET", "SR_14": 2.0, "Q_14": 5.0, "name": "WISNER CARE CENTER", "SF_14": 5.0, "SF_15": 5.0, "cnty": "Cuming", "st": "NE", "Zip": 68791.0, "O_14": 4.0, "Q_15": 5.0, "O_15": 4.0, "city": "WISNER", "beds": 38.0, "SR_15": 2.0}, {"Diff_star": 0.0, "addr": "1112 15TH STREET", "SR_14": 4.0, "Q_14": 4.0, "name": "MORYS HAVEN", "SF_14": 3.0, "SF_15": 3.0, "cnty": "Platte", "st": "NE", "Zip": 68601.0, "O_14": 4.0, "Q_15": 3.0, "O_15": 4.0, "city": "COLUMBUS", "beds": 48.0, "SR_15": 4.0}, {"Diff_star": -1.0, "addr": "106 5TH STREET", "SR_14": 1.0, "Q_14": 5.0, "name": "ROSE BROOK CARE CENTER", "SF_14": 3.0, "SF_15": 3.0, "cnty": "Clay", "st": "NE", "Zip": 68935.0, "O_14": 2.0, "Q_15": 4.0, "O_15": 1.0, "city": "EDGAR", "beds": 47.0, "SR_15": 1.0}, {"Diff_star": 0.0, "addr": "P O BOX 59, 425 SOUTH EMPIRE AVENUE", "SR_14": 4.0, "Q_14": 1.0, "name": "EXETER CARE CENTER", "SF_14": 4.0, "SF_15": 4.0, "cnty": "Fillmore", "st": "NE", "Zip": 68351.0, "O_14": 3.0, "Q_15": 1.0, "O_15": 3.0, "city": "EXETER", "beds": 56.0, "SR_15": 4.0}, {"Diff_star": 0.0, "addr": "P O BOX 307, 300 NORTH SECOND ST", "SR_14": 2.0, "Q_14": 4.0, "name": "GOOD SAMARITAN SOCIETY - BLOOMFIELD", "SF_14": 4.0, "SF_15": 4.0, "cnty": "Knox", "st": "NE", "Zip": 68718.0, "O_14": 3.0, "Q_15": 3.0, "O_15": 3.0, "city": "BLOOMFIELD", "beds": 70.0, "SR_15": 2.0}, {"Diff_star": 0.0, "addr": "P O BOX 513, 438 12TH STREET", "SR_14": 5.0, "Q_14": 3.0, "name": "PAWNEE MANOR", "SF_14": 3.0, "SF_15": 3.0, "cnty": "Pawnee", "st": "NE", "Zip": 68420.0, "O_14": 5.0, "Q_15": 2.0, "O_15": 5.0, "city": "PAWNEE CITY", "beds": 64.0, "SR_15": 5.0}, {"Diff_star": -1.0, "addr": "960 PROSPECT ROAD", "SR_14": 2.0, "Q_14": 2.0, "name": "WEST POINT LIVING CENTER", "SF_14": 4.0, "SF_15": 3.0, "cnty": "Cuming", "st": "NE", "Zip": 68788.0, "O_14": 3.0, "Q_15": 2.0, "O_15": 2.0, "city": "WEST POINT", "beds": 64.0, "SR_15": 2.0}, {"Diff_star": 0.0, "addr": "1505 NORTH ADAMS STREET", "SR_14": 1.0, "Q_14": 3.0, "name": "PLUM CREEK HEALTHCARE COMMUNITY", "SF_14": 1.0, "SF_15": 3.0, "cnty": "Dawson", "st": "NE", "Zip": 68850.0, "O_14": 1.0, "Q_15": 1.0, "O_15": 1.0, "city": "LEXINGTON", "beds": 66.0, "SR_15": 1.0}, {"Diff_star": -1.0, "addr": "401 NORTH 18TH STREET", "SR_14": 2.0, "Q_14": 5.0, "name": "ST. JOSEPH'S REHABILITATION & CARE CENTER", "SF_14": 5.0, "SF_15": 5.0, "cnty": "Madison", "st": "NE", "Zip": 68701.0, "O_14": 4.0, "Q_15": 3.0, "O_15": 3.0, "city": "NORFOLK", "beds": 83.0, "SR_15": 2.0}, {"Diff_star": -1.0, "addr": "1350 CENTENNIAL AVENUE", "SR_14": 2.0, "Q_14": 3.0, "name": "UTICA COMMUNITY CARE CENTER", "SF_14": 4.0, "SF_15": 4.0, "cnty": "Seward", "st": "NE", "Zip": 68456.0, "O_14": 3.0, "Q_15": 1.0, "O_15": 2.0, "city": "UTICA", "beds": 41.0, "SR_15": 2.0}, {"Diff_star": 0.0, "addr": "P O BOX 429, 2520 AVENUE M", "SR_14": 4.0, "Q_14": 5.0, "name": "HILLTOP ESTATES", "SF_14": 4.0, "SF_15": 4.0, "cnty": "Dawson", "st": "NE", "Zip": 69138.0, "O_14": 5.0, "Q_15": 5.0, "O_15": 5.0, "city": "GOTHENBURG", "beds": 64.0, "SR_15": 4.0}, {"Diff_star": 0.0, "addr": "6101 NORMAL BLVD", "SR_14": 5.0, "Q_14": 5.0, "name": "HOLMES LAKE REHABILITATION & CARE CENTER", "SF_14": "", "SF_15": "", "cnty": "Lancaster", "st": "NE", "Zip": 68506.0, "O_14": 5.0, "Q_15": 4.0, "O_15": 5.0, "city": "LINCOLN", "beds": 51.0, "SR_15": 5.0}, {"Diff_star": 0.0, "addr": "2900 WEST E STREET", "SR_14": 1.0, "Q_14": 5.0, "name": "NORTH PLATTE CARE CENTER, LLC", "SF_14": 4.0, "SF_15": 4.0, "cnty": "Lincoln", "st": "NE", "Zip": 69101.0, "O_14": 2.0, "Q_15": 4.0, "O_15": 2.0, "city": "NORTH PLATTE", "beds": 71.0, "SR_15": 1.0}, {"Diff_star": 0.0, "addr": "P O BOX 10, 100 WEST ELM AVENUE", "SR_14": 2.0, "Q_14": 5.0, "name": "HAVEN HOME", "SF_14": 2.0, "SF_15": 2.0, "cnty": "Adams", "st": "NE", "Zip": 68956.0, "O_14": 3.0, "Q_15": 5.0, "O_15": 3.0, "city": "KENESAW", "beds": 76.0, "SR_15": 2.0}, {"Diff_star": 0.0, "addr": "715 NORTH ST. JOSEPH AVENUE", "SR_14": 5.0, "Q_14": 3.0, "name": "MARY LANNING HEALTHCARE LONG TERM CARE", "SF_14": 5.0, "SF_15": 5.0, "cnty": "Adams", "st": "NE", "Zip": 68901.0, "O_14": 5.0, "Q_15": 5.0, "O_15": 5.0, "city": "HASTINGS", "beds": 9.0, "SR_15": 5.0}, {"Diff_star": 0.0, "addr": "830 EAST 1ST STREET", "SR_14": 2.0, "Q_14": 3.0, "name": "CRETE MANOR", "SF_14": 3.0, "SF_15": 2.0, "cnty": "Saline", "st": "NE", "Zip": 68333.0, "O_14": 2.0, "Q_15": 1.0, "O_15": 2.0, "city": "CRETE", "beds": 104.0, "SR_15": 3.0}, {"Diff_star": 0.0, "addr": "611 NORTH MAIN", "SR_14": 4.0, "Q_14": 5.0, "name": "WILBER CARE CENTER", "SF_14": 3.0, "SF_15": 3.0, "cnty": "Saline", "st": "NE", "Zip": 68465.0, "O_14": 5.0, "Q_15": 5.0, "O_15": 5.0, "city": "WILBER", "beds": 66.0, "SR_15": 4.0}, {"Diff_star": 0.0, "addr": "7915 NORTH 30TH STREET", "SR_14": 1.0, "Q_14": 5.0, "name": "FLORENCE HOME", "SF_14": 4.0, "SF_15": 3.0, "cnty": "Douglas", "st": "NE", "Zip": 68112.0, "O_14": 2.0, "Q_15": 4.0, "O_15": 2.0, "city": "OMAHA", "beds": 116.0, "SR_15": 2.0}, {"Diff_star": 0.0, "addr": "P O BOX 970, 1016 EAST 6TH STREET", "SR_14": 1.0, "Q_14": 4.0, "name": "GOOD SAMARITAN SOCIETY - ALLIANCE", "SF_14": "", "SF_15": "", "cnty": "Box Butte", "st": "NE", "Zip": 69301.0, "O_14": 1.0, "Q_15": 4.0, "O_15": 1.0, "city": "ALLIANCE", "beds": 77.0, "SR_15": 1.0}, {"Diff_star": 0.0, "addr": "P O BOX 448, 601 MAIN STREET", "SR_14": 3.0, "Q_14": 5.0, "name": "GOOD SAMARITAN SOCIETY - ARAPAHOE", "SF_14": 4.0, "SF_15": 4.0, "cnty": "Furnas", "st": "NE", "Zip": 68922.0, "O_14": 5.0, "Q_15": 5.0, "O_15": 5.0, "city": "ARAPAHOE", "beds": 30.0, "SR_15": 3.0}, {"Diff_star": -1.0, "addr": "P O BOX 180, 601 WEST 4TH STREET", "SR_14": 3.0, "Q_14": 2.0, "name": "GOOD SAMARITAN SOCIETY - VALENTINE", "SF_14": 2.0, "SF_15": 2.0, "cnty": "Cherry", "st": "NE", "Zip": 69201.0, "O_14": 3.0, "Q_15": 1.0, "O_15": 2.0, "city": "VALENTINE", "beds": 58.0, "SR_15": 3.0}, {"Diff_star": 0.0, "addr": "409 NEELY STREET", "SR_14": 1.0, "Q_14": 5.0, "name": "GOOD SAMARITAN SOCIETY - ATKINSON", "SF_14": 4.0, "SF_15": 4.0, "cnty": "Holt", "st": "NE", "Zip": 68713.0, "O_14": 2.0, "Q_15": 5.0, "O_15": 2.0, "city": "ATKINSON", "beds": 61.0, "SR_15": 1.0}, {"Diff_star": -1.0, "addr": "702 CEDAR AVENUE", "SR_14": 1.0, "Q_14": 2.0, "name": "HILLCREST CARE CENTER", "SF_14": 4.0, "SF_15": 3.0, "cnty": "Cedar", "st": "NE", "Zip": 68745.0, "O_14": 2.0, "Q_15": 2.0, "O_15": 1.0, "city": "LAUREL", "beds": 36.0, "SR_15": 1.0}, {"Diff_star": 0.0, "addr": "210 BROADWAY", "SR_14": 2.0, "Q_14": 5.0, "name": "BUTTE SENIOR LIVING", "SF_14": 4.0, "SF_15": 4.0, "cnty": "Boyd", "st": "NE", "Zip": 68722.0, "O_14": 4.0, "Q_15": 5.0, "O_15": 4.0, "city": "BUTTE", "beds": 40.0, "SR_15": 2.0}, {"Diff_star": 0.0, "addr": "P O BOX 67, 811 SOUTH MAIN STREET", "SR_14": 3.0, "Q_14": 5.0, "name": "COLONIAL MANOR OF RANDOLPH", "SF_14": 4.0, "SF_15": 4.0, "cnty": "Cedar", "st": "NE", "Zip": 68771.0, "O_14": 5.0, "Q_15": 5.0, "O_15": 5.0, "city": "RANDOLPH", "beds": 44.0, "SR_15": 3.0}, {"Diff_star": 0.0, "addr": "719 NORTH BROWN STREET", "SR_14": 3.0, "Q_14": 5.0, "name": "GOOD SAMARITAN SOCIETY - COLONIAL VILLA", "SF_14": 4.0, "SF_15": 4.0, "cnty": "Harlan", "st": "NE", "Zip": 68920.0, "O_14": 5.0, "Q_15": 5.0, "O_15": 5.0, "city": "ALMA", "beds": 53.0, "SR_15": 3.0}, {"Diff_star": 0.0, "addr": "200 VALLEY VIEW DRIVE", "SR_14": 4.0, "Q_14": 4.0, "name": "LEGACY GARDEN REHABILITATION & LIVING CENTER", "SF_14": 4.0, "SF_15": 4.0, "cnty": "Thurston", "st": "NE", "Zip": 68047.0, "O_14": 4.0, "Q_15": 4.0, "O_15": 4.0, "city": "PENDER", "beds": 42.0, "SR_15": 4.0}, {"Diff_star": 0.0, "addr": "1710 IDAHO STREET", "SR_14": 2.0, "Q_14": 4.0, "name": "GOOD SAMARITAN SOCIETY - SUPERIOR", "SF_14": 4.0, "SF_15": 4.0, "cnty": "Nuckolls", "st": "NE", "Zip": 68978.0, "O_14": 3.0, "Q_15": 3.0, "O_15": 3.0, "city": "SUPERIOR", "beds": 71.0, "SR_15": 2.0}, {"Diff_star": 0.0, "addr": "3410 CENTRAL AVENUE", "SR_14": 3.0, "Q_14": 4.0, "name": "GOOD SAMARITAN SOCIETY - ST JOHNS", "SF_14": 4.0, "SF_15": 4.0, "cnty": "Buffalo", "st": "NE", "Zip": 68847.0, "O_14": 4.0, "Q_15": 2.0, "O_15": 4.0, "city": "KEARNEY", "beds": 77.0, "SR_15": 3.0}, {"Diff_star": 0.0, "addr": "PO BOX 130, 706 JAMES STREET", "SR_14": 3.0, "Q_14": 3.0, "name": "ALPINE VILLAGE RETIREMENT CENTER", "SF_14": 5.0, "SF_15": 5.0, "cnty": "Knox", "st": "NE", "Zip": 68783.0, "O_14": 4.0, "Q_15": 2.0, "O_15": 4.0, "city": "VERDIGRE", "beds": 58.0, "SR_15": 3.0}, {"Diff_star": -1.0, "addr": "P O BOX 628, 410 BALL PARK ROAD", "SR_14": 3.0, "Q_14": 3.0, "name": "ELMS HEALTH CARE CENTER", "SF_14": 4.0, "SF_15": 3.0, "cnty": "Dixon", "st": "NE", "Zip": 68770.0, "O_14": 4.0, "Q_15": 2.0, "O_15": 3.0, "city": "PONCA", "beds": 42.0, "SR_15": 3.0}, {"Diff_star": -1.0, "addr": "2201 EAST 32ND STREET", "SR_14": 2.0, "Q_14": 5.0, "name": "GOOD SAMARITAN SOCIETY - ST LUKE'S VILLAGE", "SF_14": 4.0, "SF_15": 4.0, "cnty": "Buffalo", "st": "NE", "Zip": 68847.0, "O_14": 4.0, "Q_15": 4.0, "O_15": 3.0, "city": "KEARNEY", "beds": 60.0, "SR_15": 2.0}, {"Diff_star": -1.0, "addr": "600 CENTER DRIVE", "SR_14": 2.0, "Q_14": 2.0, "name": "GOOD SAMARITAN SOCIETY - OSCEOLA", "SF_14": 4.0, "SF_15": 4.0, "cnty": "Polk", "st": "NE", "Zip": 68651.0, "O_14": 3.0, "Q_15": 1.0, "O_15": 2.0, "city": "OSCEOLA", "beds": 47.0, "SR_15": 2.0}, {"Diff_star": -1.0, "addr": "105 EAST D STREET", "SR_14": 3.0, "Q_14": 3.0, "name": "GOOD SAMARITAN SOCIETY - WYMORE", "SF_14": 4.0, "SF_15": 3.0, "cnty": "Gage", "st": "NE", "Zip": 68466.0, "O_14": 4.0, "Q_15": 2.0, "O_15": 3.0, "city": "WYMORE", "beds": 40.0, "SR_15": 3.0}, {"Diff_star": -1.0, "addr": "815 LOGAN STREET", "SR_14": 2.0, "Q_14": 4.0, "name": "GOOD SAMARITAN SOCIETY - SCRIBNER", "SF_14": 4.0, "SF_15": 3.0, "cnty": "Dodge", "st": "NE", "Zip": 68057.0, "O_14": 3.0, "Q_15": 2.0, "O_15": 2.0, "city": "SCRIBNER", "beds": 73.0, "SR_15": 2.0}, {"Diff_star": 0.0, "addr": "P O BOX 271, 1222 SOUTH 7TH STREET", "SR_14": 3.0, "Q_14": 5.0, "name": "GOOD SAMARITAN SOCIETY - ALBION", "SF_14": 4.0, "SF_15": 4.0, "cnty": "Boone", "st": "NE", "Zip": 68620.0, "O_14": 5.0, "Q_15": 5.0, "O_15": 5.0, "city": "ALBION", "beds": 60.0, "SR_15": 3.0}, {"Diff_star": 0.0, "addr": "1401 EAST STREET", "SR_14": 5.0, "Q_14": 4.0, "name": "GOOD SAMARITAN SOCIETY - WOOD RIVER", "SF_14": 3.0, "SF_15": 3.0, "cnty": "Hall", "st": "NE", "Zip": 68883.0, "O_14": 5.0, "Q_15": 3.0, "O_15": 5.0, "city": "WOOD RIVER", "beds": 61.0, "SR_15": 5.0}, {"Diff_star": -1.0, "addr": "PO BOX 250, 600 WEST KIMBALL STREET", "SR_14": 1.0, "Q_14": 2.0, "name": "CALLAWAY GOOD LIFE CENTER, INC", "SF_14": 5.0, "SF_15": 5.0, "cnty": "Custer", "st": "NE", "Zip": 68825.0, "O_14": 2.0, "Q_15": 1.0, "O_15": 1.0, "city": "CALLAWAY", "beds": 35.0, "SR_15": 1.0}, {"Diff_star": 0.0, "addr": "301 NORTH 13TH STREET", "SR_14": 2.0, "Q_14": 5.0, "name": "CLOVERLODGE CARE CENTER", "SF_14": 2.0, "SF_15": 2.0, "cnty": "Boone", "st": "NE", "Zip": 68660.0, "O_14": 3.0, "Q_15": 5.0, "O_15": 3.0, "city": "ST EDWARD", "beds": 55.0, "SR_15": 2.0}, {"Diff_star": 0.0, "addr": "411 WEST GENOA", "SR_14": 3.0, "Q_14": 5.0, "name": "GOOD SAMARITAN SOCIETY - RAVENNA", "SF_14": 4.0, "SF_15": 4.0, "cnty": "Buffalo", "st": "NE", "Zip": 68869.0, "O_14": 5.0, "Q_15": 5.0, "O_15": 5.0, "city": "RAVENNA", "beds": 61.0, "SR_15": 3.0}, {"Diff_star": 0.0, "addr": "401 S 22ND STREET", "SR_14": 3.0, "Q_14": 4.0, "name": "GOOD SAMARITAN SOCIETY - BEATRICE", "SF_14": 3.0, "SF_15": 3.0, "cnty": "Gage", "st": "NE", "Zip": 68310.0, "O_14": 3.0, "Q_15": 2.0, "O_15": 3.0, "city": "BEATRICE", "beds": 80.0, "SR_15": 3.0}, {"Diff_star": 0.0, "addr": "424 HARRISON", "SR_14": 3.0, "Q_14": 3.0, "name": "COLONIAL HAVEN", "SF_14": 4.0, "SF_15": 4.0, "cnty": "Cuming", "st": "NE", "Zip": 68716.0, "O_14": 4.0, "Q_15": 2.0, "O_15": 4.0, "city": "BEEMER", "beds": 34.0, "SR_15": 3.0}, {"Diff_star": 0.0, "addr": "255 F STREET", "SR_14": 4.0, "Q_14": 4.0, "name": "FAIRVIEW MANOR", "SF_14": 4.0, "SF_15": 4.0, "cnty": "Fillmore", "st": "NE", "Zip": 68354.0, "O_14": 4.0, "Q_15": 4.0, "O_15": 4.0, "city": "FAIRMONT", "beds": 40.0, "SR_15": 4.0}, {"Diff_star": -1.0, "addr": "703 NORTH MAIN STREET", "SR_14": 4.0, "Q_14": 3.0, "name": "COUNTRYSIDE HOME", "SF_14": 5.0, "SF_15": 5.0, "cnty": "Madison", "st": "NE", "Zip": 68748.0, "O_14": 5.0, "Q_15": 1.0, "O_15": 4.0, "city": "MADISON", "beds": 70.0, "SR_15": 4.0}, {"Diff_star": 0.0, "addr": "901 SOUTH 4TH STREET", "SR_14": 3.0, "Q_14": 5.0, "name": "COMMUNITY PRIDE CARE CENTER", "SF_14": 4.0, "SF_15": 4.0, "cnty": "Madison", "st": "NE", "Zip": 68715.0, "O_14": 5.0, "Q_15": 5.0, "O_15": 5.0, "city": "BATTLE CREEK", "beds": 47.0, "SR_15": 3.0}, {"Diff_star": 0.0, "addr": "306 ASH STREET", "SR_14": 4.0, "Q_14": 5.0, "name": "WAKEFIELD HEALTH CARE CENTER", "SF_14": 5.0, "SF_15": 5.0, "cnty": "Dixon", "st": "NE", "Zip": 68784.0, "O_14": 5.0, "Q_15": 5.0, "O_15": 5.0, "city": "WAKEFIELD", "beds": 49.0, "SR_15": 4.0}, {"Diff_star": 0.0, "addr": "245 SOUTH 22ND STREET", "SR_14": 3.0, "Q_14": 2.0, "name": "CROWELL MEMORIAL HOME", "SF_14": 4.0, "SF_15": 4.0, "cnty": "Washington", "st": "NE", "Zip": 68008.0, "O_14": 4.0, "Q_15": 2.0, "O_15": 4.0, "city": "BLAIR", "beds": 88.0, "SR_15": 3.0}, {"Diff_star": 0.0, "addr": "P O BOX 310, 318 N 3RD STREET", "SR_14": 2.0, "Q_14": 3.0, "name": "PIONEER MANOR NURSING HOME", "SF_14": 4.0, "SF_15": 4.0, "cnty": "Sheridan", "st": "NE", "Zip": 69347.0, "O_14": 3.0, "Q_15": 2.0, "O_15": 3.0, "city": "HAY SPRINGS", "beds": 57.0, "SR_15": 2.0}, {"Diff_star": 0.0, "addr": "109 NORTH 2ND STREET", "SR_14": 3.0, "Q_14": 5.0, "name": "MID-NEBRASKA LUTHERAN HOME", "SF_14": 4.0, "SF_15": 4.0, "cnty": "Madison", "st": "NE", "Zip": 68758.0, "O_14": 5.0, "Q_15": 5.0, "O_15": 5.0, "city": "NEWMAN GROVE", "beds": 45.0, "SR_15": 3.0}, {"Diff_star": 0.0, "addr": "P O BOX 315, 607 SMITH AVENUE", "SR_14": 3.0, "Q_14": 5.0, "name": "ELWOOD CARE CENTER", "SF_14": 4.0, "SF_15": 4.0, "cnty": "Gosper", "st": "NE", "Zip": 68937.0, "O_14": 5.0, "Q_15": 5.0, "O_15": 5.0, "city": "ELWOOD", "beds": 43.0, "SR_15": 3.0}, {"Diff_star": 0.0, "addr": "412 WEST 18TH STREET", "SR_14": 2.0, "Q_14": 4.0, "name": "MT CARMEL HOME- KEENS MEMORIAL", "SF_14": 4.0, "SF_15": 4.0, "cnty": "Buffalo", "st": "NE", "Zip": 68847.0, "O_14": 3.0, "Q_15": 3.0, "O_15": 3.0, "city": "KEARNEY", "beds": 75.0, "SR_15": 2.0}, {"Diff_star": -1.0, "addr": "1104 THIRD AVENUE", "SR_14": 4.0, "Q_14": 5.0, "name": "DUFF MEMORIAL NURSING HOME", "SF_14": 4.0, "SF_15": 4.0, "cnty": "Otoe", "st": "NE", "Zip": 68410.0, "O_14": 5.0, "Q_15": 4.0, "O_15": 4.0, "city": "NEBRASKA CITY", "beds": 60.0, "SR_15": 4.0}, {"Diff_star": 0.0, "addr": "910 SOUTH 40TH STREET", "SR_14": 1.0, "Q_14": 4.0, "name": "THE REHABILITATION CENTER OF OMAHA LLC", "SF_14": 4.0, "SF_15": 4.0, "cnty": "Douglas", "st": "NE", "Zip": 68105.0, "O_14": 2.0, "Q_15": 3.0, "O_15": 2.0, "city": "OMAHA", "beds": 61.0, "SR_15": 1.0}, {"Diff_star": 0.0, "addr": "9401 ANDERMATT DRIVE", "SR_14": 5.0, "Q_14": 5.0, "name": "SOUTHLAKE VILLAGE REHABILITATION & CARE CENTER", "SF_14": 5.0, "SF_15": 5.0, "cnty": "Lancaster", "st": "NE", "Zip": 68526.0, "O_14": 5.0, "Q_15": 4.0, "O_15": 5.0, "city": "LINCOLN", "beds": 126.0, "SR_15": 5.0}, {"Diff_star": -2.0, "addr": "PO BOX 520, 427 LEGION STREET", "SR_14": 2.0, "Q_14": 2.0, "name": "SUNRISE HEIGHTS OF WAUNETA", "SF_14": 4.0, "SF_15": 3.0, "cnty": "Chase", "st": "NE", "Zip": 69045.0, "O_14": 3.0, "Q_15": 1.0, "O_15": 1.0, "city": "WAUNETA", "beds": 36.0, "SR_15": 2.0}, {"Diff_star": -2.0, "addr": "800 STOEGER DRIVE", "SR_14": 3.0, "Q_14": 3.0, "name": "WEDGEWOOD CARE CENTER", "SF_14": 4.0, "SF_15": 3.0, "cnty": "Hall", "st": "NE", "Zip": 68803.0, "O_14": 4.0, "Q_15": 2.0, "O_15": 2.0, "city": "GRAND ISLAND", "beds": 76.0, "SR_15": 2.0}, {"Diff_star": 0.0, "addr": "607 NEBRASKA STREET", "SR_14": 5.0, "Q_14": 5.0, "name": "HERITAGE OF EMERSON, INC.", "SF_14": 4.0, "SF_15": 3.0, "cnty": "Dakota", "st": "NE", "Zip": 68733.0, "O_14": 5.0, "Q_15": 4.0, "O_15": 5.0, "city": "EMERSON", "beds": 38.0, "SR_15": 5.0}, {"Diff_star": -1.0, "addr": "505 O STREET", "SR_14": 3.0, "Q_14": 5.0, "name": "SKYVIEW AT BRIDGEPORT", "SF_14": 4.0, "SF_15": 4.0, "cnty": "Morrill", "st": "NE", "Zip": 69336.0, "O_14": 5.0, "Q_15": 4.0, "O_15": 4.0, "city": "BRIDGEPORT", "beds": 40.0, "SR_15": 3.0}, {"Diff_star": 0.0, "addr": "636 NORTH LOCUST STREET", "SR_14": 3.0, "Q_14": 4.0, "name": "HERITAGE OF RED CLOUD", "SF_14": 4.0, "SF_15": 4.0, "cnty": "Webster", "st": "NE", "Zip": 68970.0, "O_14": 4.0, "Q_15": 3.0, "O_15": 4.0, "city": "RED CLOUD", "beds": 43.0, "SR_15": 3.0}, {"Diff_star": 0.0, "addr": "1405 HERITAGE DRIVE", "SR_14": 4.0, "Q_14": 4.0, "name": "BROOKEFIELD PARK", "SF_14": 5.0, "SF_15": 5.0, "cnty": "Howard", "st": "NE", "Zip": 68873.0, "O_14": 5.0, "Q_15": 3.0, "O_15": 5.0, "city": "ST PAUL", "beds": 70.0, "SR_15": 4.0}, {"Diff_star": 0.0, "addr": "RR 2 BOX 46, 1005 NORTH 8TH STREET", "SR_14": 4.0, "Q_14": 5.0, "name": "ROSE LANE HOME", "SF_14": 4.0, "SF_15": 4.0, "cnty": "Sherman", "st": "NE", "Zip": 68853.0, "O_14": 5.0, "Q_15": 5.0, "O_15": 5.0, "city": "LOUP CITY", "beds": 64.0, "SR_15": 4.0}, {"Diff_star": 0.0, "addr": "400 EAST BIRCHWOOD DRIVE", "SR_14": 4.0, "Q_14": 4.0, "name": "HOOPER CARE CENTER", "SF_14": 4.0, "SF_15": 3.0, "cnty": "Dodge", "st": "NE", "Zip": 68031.0, "O_14": 4.0, "Q_15": 4.0, "O_15": 4.0, "city": "HOOPER", "beds": 48.0, "SR_15": 4.0}, {"Diff_star": 0.0, "addr": "501 NORTH 13TH STREET", "SR_14": 5.0, "Q_14": 5.0, "name": "HERITAGE CROSSINGS", "SF_14": 4.0, "SF_15": 4.0, "cnty": "Fillmore", "st": "NE", "Zip": 68361.0, "O_14": 5.0, "Q_15": 5.0, "O_15": 5.0, "city": "GENEVA", "beds": 68.0, "SR_15": 5.0}, {"Diff_star": 0.0, "addr": "1400 MARK DRIVE", "SR_14": 3.0, "Q_14": 4.0, "name": "SOUTH HAVEN LIVING CENTER", "SF_14": 5.0, "SF_15": 5.0, "cnty": "Saunders", "st": "NE", "Zip": 68066.0, "O_14": 4.0, "Q_15": 4.0, "O_15": 4.0, "city": "WAHOO", "beds": 84.0, "SR_15": 3.0}, {"Diff_star": 0.0, "addr": "PO BOX A, 610 224TH STREET", "SR_14": 4.0, "Q_14": 4.0, "name": "SUNRISE COUNTRY MANOR", "SF_14": 2.0, "SF_15": 2.0, "cnty": "Seward", "st": "NE", "Zip": 68405.0, "O_14": 4.0, "Q_15": 2.0, "O_15": 4.0, "city": "MILFORD", "beds": 75.0, "SR_15": 4.0}, {"Diff_star": 0.0, "addr": "2700 LAVERNA STREET", "SR_14": 3.0, "Q_14": 4.0, "name": "NYE POINTE HEALTH & REHAB CTR", "SF_14": 4.0, "SF_15": 4.0, "cnty": "Dodge", "st": "NE", "Zip": 68025.0, "O_14": 4.0, "Q_15": 3.0, "O_15": 4.0, "city": "FREMONT", "beds": 43.0, "SR_15": 3.0}, {"Diff_star": 0.0, "addr": "1133 NORTH THIRD ST", "SR_14": 3.0, "Q_14": 2.0, "name": "BELLE TERRACE", "SF_14": 2.0, "SF_15": 2.0, "cnty": "Johnson", "st": "NE", "Zip": 68450.0, "O_14": 3.0, "Q_15": 2.0, "O_15": 3.0, "city": "TECUMSEH", "beds": 67.0, "SR_15": 3.0}, {"Diff_star": 0.0, "addr": "7350 GRACELAND DRIVE", "SR_14": 1.0, "Q_14": 4.0, "name": "SKYLINE NURSING AND REHABILITATION", "SF_14": 4.0, "SF_15": 4.0, "cnty": "Douglas", "st": "NE", "Zip": 68134.0, "O_14": 2.0, "Q_15": 2.0, "O_15": 2.0, "city": "OMAHA", "beds": 100.0, "SR_15": 1.0}, {"Diff_star": 1.0, "addr": "3110 SCOTT CIRCLE", "SR_14": 2.0, "Q_14": 4.0, "name": "RIDGECREST REHABILITATION CENTER", "SF_14": 3.0, "SF_15": 3.0, "cnty": "Douglas", "st": "NE", "Zip": 68112.0, "O_14": 2.0, "Q_15": 2.0, "O_15": 3.0, "city": "OMAHA", "beds": 108.0, "SR_15": 3.0}, {"Diff_star": -1.0, "addr": "4835 SOUTH 49TH STREET", "SR_14": 3.0, "Q_14": 5.0, "name": "OMAHA NURSING AND REHABILITATION CENTER", "SF_14": 4.0, "SF_15": 4.0, "cnty": "Douglas", "st": "NE", "Zip": 68117.0, "O_14": 5.0, "Q_15": 4.0, "O_15": 4.0, "city": "OMAHA", "beds": 70.0, "SR_15": 3.0}, {"Diff_star": -1.0, "addr": "P O BOX 646, 407 DAKOTA STREET", "SR_14": 2.0, "Q_14": 3.0, "name": "SARAH ANN HESTER MEMORIAL HOME", "SF_14": 4.0, "SF_15": 3.0, "cnty": "Dundy", "st": "NE", "Zip": 69021.0, "O_14": 3.0, "Q_15": 4.0, "O_15": 2.0, "city": "BENKELMAN", "beds": 56.0, "SR_15": 2.0}, {"Diff_star": 0.0, "addr": "4330 SOUTH 144TH STREET", "SR_14": 3.0, "Q_14": 5.0, "name": "BROOKESTONE VILLAGE REHABILITATION AND CARE CENTER", "SF_14": 5.0, "SF_15": 5.0, "cnty": "Douglas", "st": "NE", "Zip": 68137.0, "O_14": 5.0, "Q_15": 5.0, "O_15": 5.0, "city": "OMAHA", "beds": 140.0, "SR_15": 4.0}, {"Diff_star": 0.0, "addr": "930 2ND STREET", "SR_14": 4.0, "Q_14": 4.0, "name": "PARKVIEW HOME, INC.", "SF_14": 4.0, "SF_15": 4.0, "cnty": "Dodge", "st": "NE", "Zip": 68633.0, "O_14": 4.0, "Q_15": 3.0, "O_15": 4.0, "city": "DODGE", "beds": 62.0, "SR_15": 4.0}, {"Diff_star": 0.0, "addr": "P O BOX 350, 507 NORTH MAIN STREET", "SR_14": 4.0, "Q_14": 4.0, "name": "PARKSIDE MANOR", "SF_14": 4.0, "SF_15": 4.0, "cnty": "Holt", "st": "NE", "Zip": 68780.0, "O_14": 4.0, "Q_15": 2.0, "O_15": 4.0, "city": "STUART", "beds": 40.0, "SR_15": 4.0}, {"Diff_star": 0.0, "addr": "1923 WEST 4TH AVENUE", "SR_14": 2.0, "Q_14": 4.0, "name": "CHRISTIAN HOMES HEALTH CARE CENTER", "SF_14": 4.0, "SF_15": 4.0, "cnty": "Phelps", "st": "NE", "Zip": 68949.0, "O_14": 3.0, "Q_15": 3.0, "O_15": 3.0, "city": "HOLDREGE", "beds": 89.0, "SR_15": 2.0}, {"Diff_star": -2.0, "addr": "1120 WALNUT ST", "SR_14": 3.0, "Q_14": 2.0, "name": "BIRCHWOOD MANOR", "SF_14": 3.0, "SF_15": 2.0, "cnty": "Dodge", "st": "NE", "Zip": 68649.0, "O_14": 3.0, "Q_15": 1.0, "O_15": 1.0, "city": "NORTH BEND", "beds": 53.0, "SR_15": 2.0}, {"Diff_star": 0.0, "addr": "1043 10TH STREET", "SR_14": 5.0, "Q_14": 5.0, "name": "COLONIAL ACRES NURSING HOME", "SF_14": 4.0, "SF_15": 3.0, "cnty": "Richardson", "st": "NE", "Zip": 68376.0, "O_14": 5.0, "Q_15": 5.0, "O_15": 5.0, "city": "HUMBOLDT", "beds": 49.0, "SR_15": 5.0}, {"Diff_star": 0.0, "addr": "927 SEVENTH STREET", "SR_14": 3.0, "Q_14": 4.0, "name": "ST. JOSEPH'S VILLA, INC.", "SF_14": 4.0, "SF_15": 4.0, "cnty": "Butler", "st": "NE", "Zip": 68632.0, "O_14": 4.0, "Q_15": 4.0, "O_15": 4.0, "city": "DAVID CITY", "beds": 58.0, "SR_15": 3.0}, {"Diff_star": 0.0, "addr": "P O BOX 526, FIRST & PADDOCK STREET", "SR_14": 2.0, "Q_14": 5.0, "name": "PONDEROSA VILLA", "SF_14": 4.0, "SF_15": 4.0, "cnty": "Dawes", "st": "NE", "Zip": 69339.0, "O_14": 4.0, "Q_15": 5.0, "O_15": 4.0, "city": "CRAWFORD", "beds": 35.0, "SR_15": 2.0}, {"Diff_star": -1.0, "addr": "1507 GOLD COAST ROAD", "SR_14": 4.0, "Q_14": 5.0, "name": "HUNTINGTON PARK CARE CENTER", "SF_14": 5.0, "SF_15": 5.0, "cnty": "Sarpy", "st": "NE", "Zip": 68046.0, "O_14": 5.0, "Q_15": 5.0, "O_15": 4.0, "city": "PAPILLION", "beds": 111.0, "SR_15": 2.0}, {"Diff_star": 0.0, "addr": "P O BOX 757, 933 GRANT STREET", "SR_14": 2.0, "Q_14": 3.0, "name": "IMPERIAL MANOR NURSING HOME", "SF_14": 5.0, "SF_15": 5.0, "cnty": "Chase", "st": "NE", "Zip": 69033.0, "O_14": 3.0, "Q_15": 3.0, "O_15": 3.0, "city": "IMPERIAL", "beds": 53.0, "SR_15": 2.0}, {"Diff_star": -1.0, "addr": "71434 HWY 25, BOX 97", "SR_14": 2.0, "Q_14": 2.0, "name": "EL DORADO MANOR NURSING HOME", "SF_14": 5.0, "SF_15": 5.0, "cnty": "Hitchcock", "st": "NE", "Zip": 69044.0, "O_14": 3.0, "Q_15": 1.0, "O_15": 2.0, "city": "TRENTON", "beds": 40.0, "SR_15": 2.0}, {"Diff_star": 0.0, "addr": "125 EAST 23RD STREET", "SR_14": 4.0, "Q_14": 4.0, "name": "MOTHER HULL HOME", "SF_14": 4.0, "SF_15": 4.0, "cnty": "Buffalo", "st": "NE", "Zip": 68847.0, "O_14": 4.0, "Q_15": 2.0, "O_15": 4.0, "city": "KEARNEY", "beds": 58.0, "SR_15": 4.0}, {"Diff_star": 0.0, "addr": "810 EAST 7TH STREET", "SR_14": 1.0, "Q_14": 3.0, "name": "KIMBALL COUNTY MANOR", "SF_14": 4.0, "SF_15": 4.0, "cnty": "Kimball", "st": "NE", "Zip": 69145.0, "O_14": 2.0, "Q_15": 2.0, "O_15": 2.0, "city": "KIMBALL", "beds": 49.0, "SR_15": 1.0}, {"Diff_star": 0.0, "addr": "P O BOX 340, 295 NORTH 8TH STREET", "SR_14": 3.0, "Q_14": 4.0, "name": "COMMUNITY MEMORIAL HEALTH CENTER LTC", "SF_14": 4.0, "SF_15": 4.0, "cnty": "Garfield", "st": "NE", "Zip": 68823.0, "O_14": 4.0, "Q_15": 2.0, "O_15": 4.0, "city": "BURWELL", "beds": 55.0, "SR_15": 3.0}, {"Diff_star": 0.0, "addr": "PO BOX 97, 100 MINOR AVENUE", "SR_14": 4.0, "Q_14": 5.0, "name": "BERTRAND NURSING HOME", "SF_14": 4.0, "SF_15": 3.0, "cnty": "Phelps", "st": "NE", "Zip": 68927.0, "O_14": 5.0, "Q_15": 5.0, "O_15": 5.0, "city": "BERTRAND", "beds": 26.0, "SR_15": 4.0}, {"Diff_star": 0.0, "addr": "P O BOX 166, 220 PARK AVENUE", "SR_14": 5.0, "Q_14": 4.0, "name": "BLUE VALLEY LUTHERAN NURSING HOME", "SF_14": 5.0, "SF_15": 5.0, "cnty": "Thayer", "st": "NE", "Zip": 68370.0, "O_14": 5.0, "Q_15": 4.0, "O_15": 5.0, "city": "HEBRON", "beds": 64.0, "SR_15": 5.0}, {"Diff_star": -1.0, "addr": "P O BOX A, 106 EAST 13TH STREET", "SR_14": 1.0, "Q_14": 2.0, "name": "CHIMNEY ROCK VILLA", "SF_14": 4.0, "SF_15": 4.0, "cnty": "Morrill", "st": "NE", "Zip": 69334.0, "O_14": 2.0, "Q_15": 1.0, "O_15": 1.0, "city": "BAYARD", "beds": 49.0, "SR_15": 1.0}, {"Diff_star": 0.0, "addr": "P O BOX 667, 1203 4TH STREET", "SR_14": 4.0, "Q_14": 4.0, "name": "PARKVIEW HAVEN NURSING HOME", "SF_14": 5.0, "SF_15": 5.0, "cnty": "Thayer", "st": "NE", "Zip": 68340.0, "O_14": 5.0, "Q_15": 2.0, "O_15": 5.0, "city": "DESHLER", "beds": 51.0, "SR_15": 4.0}, {"Diff_star": 0.0, "addr": "P O BOX 667, 909 17TH STREET", "SR_14": 5.0, "Q_14": 4.0, "name": "HERITAGE CARE CENTER", "SF_14": 5.0, "SF_15": 5.0, "cnty": "Jefferson", "st": "NE", "Zip": 68352.0, "O_14": 5.0, "Q_15": 5.0, "O_15": 5.0, "city": "FAIRBURY", "beds": 100.0, "SR_15": 5.0}, {"Diff_star": 1.0, "addr": "1515 5TH STREET", "SR_14": 2.0, "Q_14": 4.0, "name": "HAMILTON MANOR", "SF_14": 3.0, "SF_15": 3.0, "cnty": "Hamilton", "st": "NE", "Zip": 68818.0, "O_14": 2.0, "Q_15": 5.0, "O_15": 3.0, "city": "AURORA", "beds": 107.0, "SR_15": 2.0}, {"Diff_star": 0.0, "addr": "P O BOX 307, 605 DONALD AVENUE", "SR_14": 2.0, "Q_14": 5.0, "name": "HEMINGFORD COMMUNITY CARE CENTER", "SF_14": 3.0, "SF_15": 3.0, "cnty": "Box Butte", "st": "NE", "Zip": 69348.0, "O_14": 3.0, "Q_15": 5.0, "O_15": 3.0, "city": "HEMINGFORD", "beds": 33.0, "SR_15": 2.0}, {"Diff_star": 0.0, "addr": "225 NORTH 56TH STREET", "SR_14": 4.0, "Q_14": 4.0, "name": "GATEWAY SENIOR LIVING", "SF_14": 5.0, "SF_15": 5.0, "cnty": "Lancaster", "st": "NE", "Zip": 68504.0, "O_14": 5.0, "Q_15": 3.0, "O_15": 5.0, "city": "LINCOLN", "beds": 80.0, "SR_15": 4.0}, {"Diff_star": 0.0, "addr": "410 WEST 5TH STREET", "SR_14": 4.0, "Q_14": 5.0, "name": "LOUISVILLE CARE CENTER", "SF_14": 4.0, "SF_15": 3.0, "cnty": "Cass", "st": "NE", "Zip": 68037.0, "O_14": 5.0, "Q_15": 5.0, "O_15": 5.0, "city": "LOUISVILLE", "beds": 61.0, "SR_15": 4.0}, {"Diff_star": 0.0, "addr": "610 SOUTH POLK STREET", "SR_14": 2.0, "Q_14": 5.0, "name": "PAPILLION MANOR", "SF_14": 5.0, "SF_15": 5.0, "cnty": "Sarpy", "st": "NE", "Zip": 68046.0, "O_14": 4.0, "Q_15": 5.0, "O_15": 4.0, "city": "PAPILLION", "beds": 110.0, "SR_15": 2.0}, {"Diff_star": -1.0, "addr": "P O BOX 70, 905 FLOYD STREET", "SR_14": 2.0, "Q_14": 5.0, "name": "BEAVER CITY MANOR", "SF_14": 4.0, "SF_15": 4.0, "cnty": "Furnas", "st": "NE", "Zip": 68926.0, "O_14": 4.0, "Q_15": 3.0, "O_15": 3.0, "city": "BEAVER CITY", "beds": 28.0, "SR_15": 2.0}, {"Diff_star": -1.0, "addr": "515 WEST FIRST STREET", "SR_14": 2.0, "Q_14": 4.0, "name": "BETHANY HOME, INC.", "SF_14": 4.0, "SF_15": 4.0, "cnty": "Kearney", "st": "NE", "Zip": 68959.0, "O_14": 3.0, "Q_15": 4.0, "O_15": 2.0, "city": "MINDEN", "beds": 58.0, "SR_15": 1.0}, {"Diff_star": 0.0, "addr": "2100 CIRCLE DRIVE", "SR_14": 2.0, "Q_14": 4.0, "name": "NORTHFIELD RETIREMENT COMMUNITIES CARE CENTER", "SF_14": 4.0, "SF_15": 4.0, "cnty": "Scott Bluff", "st": "NE", "Zip": 69361.0, "O_14": 3.0, "Q_15": 3.0, "O_15": 3.0, "city": "SCOTTSBLUFF", "beds": 66.0, "SR_15": 2.0}, {"Diff_star": -1.0, "addr": "P O BOX 546, 400 EAST 7TH STREET", "SR_14": 3.0, "Q_14": 5.0, "name": "HARVARD REST HAVEN", "SF_14": 5.0, "SF_15": 5.0, "cnty": "Clay", "st": "NE", "Zip": 68944.0, "O_14": 5.0, "Q_15": 4.0, "O_15": 4.0, "city": "HARVARD", "beds": 37.0, "SR_15": 3.0}, {"Diff_star": 0.0, "addr": "P O BOX 219, 101 HARPER STREET", "SR_14": 3.0, "Q_14": 3.0, "name": "PLAINVIEW MANOR", "SF_14": 3.0, "SF_15": 3.0, "cnty": "Pierce", "st": "NE", "Zip": 68769.0, "O_14": 3.0, "Q_15": 3.0, "O_15": 3.0, "city": "PLAINVIEW", "beds": 39.0, "SR_15": 3.0}, {"Diff_star": 0.0, "addr": "9220 WESTERN AVENUE", "SR_14": 2.0, "Q_14": 5.0, "name": "BRIGHTON GARDENS OF OMAHA", "SF_14": 4.0, "SF_15": 4.0, "cnty": "Douglas", "st": "NE", "Zip": 68114.0, "O_14": 4.0, "Q_15": 5.0, "O_15": 4.0, "city": "OMAHA", "beds": 45.0, "SR_15": 2.0}, {"Diff_star": 0.0, "addr": "1001 SOUTH STREET", "SR_14": 4.0, "Q_14": 4.0, "name": "LANCASTER REHABILITATION CENTER, LLC", "SF_14": 4.0, "SF_15": 4.0, "cnty": "Lancaster", "st": "NE", "Zip": 68502.0, "O_14": 4.0, "Q_15": 3.0, "O_15": 4.0, "city": "LINCOLN", "beds": 293.0, "SR_15": 4.0}, {"Diff_star": 0.0, "addr": "600 BROOKESTONE MEADOWS PLAZA", "SR_14": 4.0, "Q_14": 4.0, "name": "BROOKESTONE MEADOWS REHABILITATION AND CARE CENTER", "SF_14": 5.0, "SF_15": 5.0, "cnty": "Douglas", "st": "NE", "Zip": 68022.0, "O_14": 5.0, "Q_15": 4.0, "O_15": 5.0, "city": "ELKHORN", "beds": 140.0, "SR_15": 4.0}, {"Diff_star": 0.0, "addr": "1106 NORTH SAUNDERS", "SR_14": 5.0, "Q_14": 4.0, "name": "SUTTON COMMUNITY HOME, INC.", "SF_14": 5.0, "SF_15": 5.0, "cnty": "Clay", "st": "NE", "Zip": 68979.0, "O_14": 5.0, "Q_15": 4.0, "O_15": 5.0, "city": "SUTTON", "beds": 31.0, "SR_15": 5.0}, {"Diff_star": 0.0, "addr": "3210 N CLARKSON", "SR_14": 4.0, "Q_14": 5.0, "name": "NYE LEGACY HEALTH & REHABILITATION CENTER", "SF_14": 5.0, "SF_15": 5.0, "cnty": "Dodge", "st": "NE", "Zip": 68025.0, "O_14": 5.0, "Q_15": 4.0, "O_15": 5.0, "city": "FREMONT", "beds": 100.0, "SR_15": 4.0}, {"Diff_star": 0.0, "addr": "446 & 624 PINEWOOD AVENUE", "SR_14": 5.0, "Q_14": 5.0, "name": "RIDGEWOOD REHABILITATION & CARE CENTER", "SF_14": 4.0, "SF_15": 4.0, "cnty": "Seward", "st": "NE", "Zip": 68434.0, "O_14": 5.0, "Q_15": 5.0, "O_15": 5.0, "city": "SEWARD", "beds": 87.0, "SR_15": 5.0}, {"Diff_star": 0.0, "addr": "17600 ARBOR STREET", "SR_14": 4.0, "Q_14": 5.0, "name": "THE LIGHTHOUSE AT LAKESIDE VILLAGE", "SF_14": 5.0, "SF_15": 5.0, "cnty": "Douglas", "st": "NE", "Zip": 68130.0, "O_14": 5.0, "Q_15": 5.0, "O_15": 5.0, "city": "OMAHA", "beds": 36.0, "SR_15": 4.0}, {"Diff_star": 0.0, "addr": "207 SOUTH ENGDAHL AVENUE", "SR_14": 4.0, "Q_14": 3.0, "name": "OAKLAND HEIGHTS", "SF_14": 3.0, "SF_15": 3.0, "cnty": "Burt", "st": "NE", "Zip": 68045.0, "O_14": 4.0, "Q_15": 2.0, "O_15": 4.0, "city": "OAKLAND", "beds": 45.0, "SR_15": 4.0}, {"Diff_star": 0.0, "addr": "P O BOX 277, 2200 NORTH H STREET", "SR_14": 4.0, "Q_14": 5.0, "name": "GARDENSIDE LTC-JCHC", "SF_14": 4.0, "SF_15": 4.0, "cnty": "Jefferson", "st": "NE", "Zip": 68352.0, "O_14": 5.0, "Q_15": 5.0, "O_15": 5.0, "city": "FAIRBURY", "beds": 39.0, "SR_15": 4.0}, {"Diff_star": 0.0, "addr": "P O BOX 9, 1540 GROVE STREET", "SR_14": 5.0, "Q_14": 5.0, "name": "TABITHA NURSING CENTER AT CRETE", "SF_14": 5.0, "SF_15": 5.0, "cnty": "Saline", "st": "NE", "Zip": 68333.0, "O_14": 5.0, "Q_15": 5.0, "O_15": 5.0, "city": "CRETE", "beds": 44.0, "SR_15": 5.0}, {"Diff_star": 0.0, "addr": "P O BOX 289, 1603 MAIN STREET", "SR_14": 3.0, "Q_14": 5.0, "name": "AVERA CREIGHTON CARE CENTRE", "SF_14": 4.0, "SF_15": 4.0, "cnty": "Knox", "st": "NE", "Zip": 68729.0, "O_14": 5.0, "Q_15": 5.0, "O_15": 5.0, "city": "CREIGHTON", "beds": 47.0, "SR_15": 3.0}, {"Diff_star": 0.0, "addr": "4061 TIMBERLINE STREET & 4055 TIMBERLINE STREET", "SR_14": 4.0, "Q_14": 4.0, "name": "GOOD SAMARITAN SOCIETY - GRAND ISLAND VILLAGE", "SF_14": 5.0, "SF_15": 5.0, "cnty": "Hall", "st": "NE", "Zip": 68803.0, "O_14": 5.0, "Q_15": 2.0, "O_15": 5.0, "city": "GRAND ISLAND", "beds": 28.0, "SR_15": 4.0}, {"Diff_star": 0.0, "addr": "201 E O'CONNOR AVENUE", "SR_14": 4.0, "Q_14": 5.0, "name": "GREELEY CARE HOME", "SF_14": 4.0, "SF_15": 4.0, "cnty": "Greeley", "st": "NE", "Zip": 68842.0, "O_14": 5.0, "Q_15": 5.0, "O_15": 5.0, "city": "GREELEY", "beds": 26.0, "SR_15": 4.0}, {"Diff_star": -1.0, "addr": "1723 23RD STREET", "SR_14": 1.0, "Q_14": 3.0, "name": "MITCHELL CARE CENTER", "SF_14": 4.0, "SF_15": 3.0, "cnty": "Scott Bluff", "st": "NE", "Zip": 69357.0, "O_14": 2.0, "Q_15": 2.0, "O_15": 1.0, "city": "MITCHELL", "beds": 50.0, "SR_15": 1.0}, {"Diff_star": 0.0, "addr": "6120 SOUTH 34TH STREET", "SR_14": "", "Q_14": "", "name": "TABITHA AT THE LANDING", "SF_14": "", "SF_15": "", "cnty": "Lancaster", "st": "NE", "Zip": 68516.0, "O_14": "", "Q_15": "", "O_15": "", "city": "LINCOLN", "beds": 17.0, "SR_15": ""}, {"Diff_star": 0.0, "addr": "1131 PAPILLION PARKWAY", "SR_14": "", "Q_14": "", "name": "OLD MILL REHABILITATION (OMAHA TCU)", "SF_14": "", "SF_15": "", "cnty": "Douglas", "st": "NE", "Zip": 68154.0, "O_14": "", "Q_15": "", "O_15": "", "city": "OMAHA", "beds": 44.0, "SR_15": ""}, {"Diff_star": 0.0, "addr": "645 OSAGE STREET", "SR_14": "", "Q_14": "", "name": "SIDNEY REGIONAL MEDICAL CENTER-EXTENDED CARE", "SF_14": "", "SF_15": "", "cnty": "Cheyenne", "st": "NE", "Zip": 69162.0, "O_14": "", "Q_15": "", "O_15": "", "city": "SIDNEY", "beds": 63.0, "SR_15": ""}, {"Diff_star": 0.0, "addr": "4715 38TH STREET", "SR_14": "", "Q_14": "", "name": "BROOKESTONE ACRES", "SF_14": "", "SF_15": "", "cnty": "Platte", "st": "NE", "Zip": 68601.0, "O_14": "", "Q_15": "", "O_15": "", "city": "COLUMBUS", "beds": 80.0, "SR_15": ""}, {"Diff_star": 0.0, "addr": "1715 26TH STREET", "SR_14": "", "Q_14": "", "name": "LITZENBERG MEMORIAL COUNTY HOSPITAL", "SF_14": "", "SF_15": "", "cnty": "Merrick", "st": "NE", "Zip": 68826.0, "O_14": "", "Q_15": "", "O_15": "", "city": "CENTRAL CITY", "beds": 46.0, "SR_15": ""}, {"Diff_star": 0.0, "addr": "P O BOX 250, 145 MEMORIAL DRIVE", "SR_14": 2.0, "Q_14": 4.0, "name": "JENNIE M MELHAM MEDICAL CENTER", "SF_14": 5.0, "SF_15": 5.0, "cnty": "Custer", "st": "NE", "Zip": 68822.0, "O_14": 3.0, "Q_15": 4.0, "O_15": 3.0, "city": "BROKEN BOW", "beds": 50.0, "SR_15": 2.0}, {"Diff_star": 0.0, "addr": "6404 NORTH 70TH PLAZA", "SR_14": 4.0, "Q_14": 4.0, "name": "QUALITY LIVING, INC", "SF_14": "", "SF_15": "", "cnty": "Douglas", "st": "NE", "Zip": 68104.0, "O_14": 4.0, "Q_15": 3.0, "O_15": 4.0, "city": "OMAHA", "beds": 114.0, "SR_15": 4.0}, {"Diff_star": 0.0, "addr": "P O BOX 250", "SR_14": 2.0, "Q_14": 3.0, "name": "CARL T. CURTIS HEALTH EDUCATION CENTER", "SF_14": 5.0, "SF_15": 5.0, "cnty": "Thurston", "st": "NE", "Zip": 68039.0, "O_14": 3.0, "Q_15": 2.0, "O_15": 3.0, "city": "MACY", "beds": 25.0, "SR_15": 2.0}, {"Diff_star": 0.0, "addr": "905 SECOND STREET", "SR_14": 3.0, "Q_14": 5.0, "name": "WARREN MEMORIAL HOSPITAL LTC", "SF_14": 5.0, "SF_15": 5.0, "cnty": "Saline", "st": "NE", "Zip": 68359.0, "O_14": 5.0, "Q_15": 5.0, "O_15": 5.0, "city": "FRIEND", "beds": 51.0, "SR_15": 3.0}, {"Diff_star": 0.0, "addr": "1621 FRONT STREET", "SR_14": 1.0, "Q_14": 4.0, "name": "HENDERSON CARE CENTER", "SF_14": 5.0, "SF_15": 5.0, "cnty": "York", "st": "NE", "Zip": 68371.0, "O_14": 2.0, "Q_15": 3.0, "O_15": 2.0, "city": "HENDERSON", "beds": 42.0, "SR_15": 1.0}, {"Diff_star": -1.0, "addr": "P O BOX 578, 206 NW 4TH STREET", "SR_14": 1.0, "Q_14": 4.0, "name": "PIONEER MEMORIAL COMMUNITY HOSPITAL", "SF_14": 4.0, "SF_15": 3.0, "cnty": "Hooker", "st": "NE", "Zip": 69152.0, "O_14": 2.0, "Q_15": 4.0, "O_15": 1.0, "city": "MULLEN", "beds": 30.0, "SR_15": 1.0}, {"Diff_star": 0.0, "addr": "1100 WEST 2ND", "SR_14": 2.0, "Q_14": 2.0, "name": "REGIONAL WEST GARDEN COUNTY NURSING HOME", "SF_14": 3.0, "SF_15": 3.0, "cnty": "Garden", "st": "NE", "Zip": 69154.0, "O_14": 2.0, "Q_15": 2.0, "O_15": 2.0, "city": "OSHKOSH", "beds": 40.0, "SR_15": 2.0}, {"Diff_star": 0.0, "addr": "1423 SEVENTH STREET", "SR_14": 5.0, "Q_14": 5.0, "name": "MEMORIAL COMMUNITY CARE", "SF_14": 5.0, "SF_15": 5.0, "cnty": "Hamilton", "st": "NE", "Zip": 68818.0, "O_14": 5.0, "Q_15": 4.0, "O_15": 5.0, "city": "AURORA", "beds": 48.0, "SR_15": 5.0}, {"Diff_star": -1.0, "addr": "P O BOX 488, WEST HWY 6 & 34", "SR_14": 2.0, "Q_14": 3.0, "name": "CAMBRIDGE MANOR", "SF_14": 3.0, "SF_15": 3.0, "cnty": "Furnas", "st": "NE", "Zip": 69022.0, "O_14": 2.0, "Q_15": 1.0, "O_15": 1.0, "city": "CAMBRIDGE", "beds": 34.0, "SR_15": 2.0}, {"Diff_star": 0.0, "addr": "902 CENTRAL AVENUE", "SR_14": 2.0, "Q_14": 1.0, "name": "GOLDEN OURS CONVALESCENT HOME", "SF_14": 4.0, "SF_15": 4.0, "cnty": "Perkins", "st": "NE", "Zip": 69140.0, "O_14": 2.0, "Q_15": 1.0, "O_15": 2.0, "city": "GRANT", "beds": 50.0, "SR_15": 2.0}, {"Diff_star": 0.0, "addr": "1760 COUNTY RD J", "SR_14": 5.0, "Q_14": 5.0, "name": "SAUNDERS MEDICAL CENTER", "SF_14": 4.0, "SF_15": 5.0, "cnty": "Saunders", "st": "NE", "Zip": 68066.0, "O_14": 5.0, "Q_15": 4.0, "O_15": 5.0, "city": "WAHOO", "beds": 60.0, "SR_15": 4.0}, {"Diff_star": 0.0, "addr": "500 EAST 10TH STREET", "SR_14": 2.0, "Q_14": 1.0, "name": "GORDON COUNTRYSIDE CARE", "SF_14": 5.0, "SF_15": 5.0, "cnty": "Sheridan", "st": "NE", "Zip": 69343.0, "O_14": 2.0, "Q_15": 1.0, "O_15": 2.0, "city": "GORDON", "beds": 32.0, "SR_15": 2.0}, {"Diff_star": 0.0, "addr": "P O BOX 310, 606/706 EWING AVENUE", "SR_14": 3.0, "Q_14": 4.0, "name": "GENOA COMMUNITY HOSPITAL/LTC", "SF_14": 4.0, "SF_15": 4.0, "cnty": "Nance", "st": "NE", "Zip": 68640.0, "O_14": 4.0, "Q_15": 3.0, "O_15": 4.0, "city": "GENOA", "beds": 39.0, "SR_15": 3.0}, {"Diff_star": 0.0, "addr": "100 EAST SOUTH STREET", "SR_14": 4.0, "Q_14": 5.0, "name": "ROCK COUNTY HOSPITAL LTC", "SF_14": 4.0, "SF_15": 4.0, "cnty": "Rock", "st": "NE", "Zip": 68714.0, "O_14": 5.0, "Q_15": 5.0, "O_15": 5.0, "city": "BASSETT", "beds": 30.0, "SR_15": 4.0}, {"Diff_star": 0.0, "addr": "P O BOX 166, 755 SOUTH 3RD STREET", "SR_14": 4.0, "Q_14": 5.0, "name": "BLUE VALLEY LUTHERAN CARE HOME", "SF_14": 4.0, "SF_15": 3.0, "cnty": "Thayer", "st": "NE", "Zip": 68370.0, "O_14": 5.0, "Q_15": 5.0, "O_15": 5.0, "city": "HEBRON", "beds": 64.0, "SR_15": 4.0}, {"Diff_star": 0.0, "addr": "220 SOUTH 26TH STREET", "SR_14": 3.0, "Q_14": 4.0, "name": "VALLEY COUNTY HEALTH SYSTEM LONG TERM CARE", "SF_14": 5.0, "SF_15": 5.0, "cnty": "Valley", "st": "NE", "Zip": 68862.0, "O_14": 4.0, "Q_15": 3.0, "O_15": 4.0, "city": "ORD", "beds": 53.0, "SR_15": 3.0}, {"Diff_star": 0.0, "addr": "P O BOX 428, 589 VINCENT AVENUE", "SR_14": 1.0, "Q_14": 3.0, "name": "MILLER MEMORIAL CARE CENTER, LLC", "SF_14": 5.0, "SF_15": 5.0, "cnty": "Deuel", "st": "NE", "Zip": 69129.0, "O_14": 2.0, "Q_15": 3.0, "O_15": 2.0, "city": "CHAPPELL", "beds": 24.0, "SR_15": 1.0}, {"Diff_star": -1.0, "addr": "727 EAST 1ST STREET", "SR_14": 1.0, "Q_14": 2.0, "name": "KEARNEY COUNTY HEALTH SERVICES", "SF_14": 5.0, "SF_15": 5.0, "cnty": "Kearney", "st": "NE", "Zip": 68959.0, "O_14": 2.0, "Q_15": 1.0, "O_15": 1.0, "city": "MINDEN", "beds": 34.0, "SR_15": 1.0}, {"Diff_star": 0.0, "addr": "6082 GRAND LODGE AVENUE", "SR_14": 4.0, "Q_14": 5.0, "name": "HILLCREST COUNTRY ESTATES", "SF_14": 5.0, "SF_15": 5.0, "cnty": "Sarpy", "st": "NE", "Zip": 68133.0, "O_14": 5.0, "Q_15": 5.0, "O_15": 5.0, "city": "PAPILLION", "beds": 39.0, "SR_15": 4.0}]