[{"Diff_star": 0.0, "addr": "100 PLAINSBORO ROAD", "SR_14": 2.0, "Q_14": 5.0, "name": "MERWICK CARE & REHABILITATION CENTER", "SF_14": 4.0, "SF_15": 4.0, "cnty": "Middlesex", "st": "NJ", "Zip": 8536.0, "O_14": 4.0, "Q_15": 5.0, "O_15": 4.0, "city": "PLAINSBORO", "beds": 200.0, "SR_15": 2.0}, {"Diff_star": -1.0, "addr": "1621 ROUTE 22 WEST", "SR_14": 2.0, "Q_14": 5.0, "name": "SOMERSET VALLEY REHABILITATION AND NURSING CENTER", "SF_14": 4.0, "SF_15": 3.0, "cnty": "Somerset", "st": "NJ", "Zip": 8805.0, "O_14": 4.0, "Q_15": 5.0, "O_15": 3.0, "city": "BOUND BROOK", "beds": 64.0, "SR_15": 2.0}, {"Diff_star": 0.0, "addr": "144 GALES DRIVE", "SR_14": 1.0, "Q_14": 5.0, "name": "MANORCARE HEALTH SERVICES-NEW PROVIDENCE", "SF_14": 3.0, "SF_15": 3.0, "cnty": "Union", "st": "NJ", "Zip": 7974.0, "O_14": 2.0, "Q_15": 5.0, "O_15": 2.0, "city": "NEW PROVIDENCE", "beds": 106.0, "SR_15": 1.0}, {"Diff_star": 0.0, "addr": "18 W LAUREL ROAD", "SR_14": 2.0, "Q_14": 5.0, "name": "LAUREL MANOR HEALTHCARE AND REHABILITATION CENTER", "SF_14": 3.0, "SF_15": 3.0, "cnty": "Camden", "st": "NJ", "Zip": 8084.0, "O_14": 3.0, "Q_15": 5.0, "O_15": 3.0, "city": "STRATFORD", "beds": 104.0, "SR_15": 2.0}, {"Diff_star": 0.0, "addr": "40 WATCHUNG WAY", "SR_14": 2.0, "Q_14": 4.0, "name": "RUNNELLS CENTER FOR REHABILITATION & HEALTHCARE", "SF_14": 4.0, "SF_15": 4.0, "cnty": "Union", "st": "NJ", "Zip": 7922.0, "O_14": 3.0, "Q_15": 3.0, "O_15": 3.0, "city": "BERKELEY HEIGHTS", "beds": 300.0, "SR_15": 2.0}, {"Diff_star": -2.0, "addr": "225 W JERSEY STREET", "SR_14": 3.0, "Q_14": 5.0, "name": "ELMORA HILLS HEALTH & REHABILITATION CENTER", "SF_14": 4.0, "SF_15": 3.0, "cnty": "Union", "st": "NJ", "Zip": 7202.0, "O_14": 5.0, "Q_15": 4.0, "O_15": 3.0, "city": "ELIZABETH", "beds": 200.0, "SR_15": 3.0}, {"Diff_star": -1.0, "addr": "1412 MARLTON PIKE", "SR_14": 1.0, "Q_14": 5.0, "name": "MANORCARE HEALTH  SERVICES - CHERRY HILL", "SF_14": 4.0, "SF_15": 3.0, "cnty": "Camden", "st": "NJ", "Zip": 8034.0, "O_14": 2.0, "Q_15": 4.0, "O_15": 1.0, "city": "CHERRY HILL", "beds": 108.0, "SR_15": 1.0}, {"Diff_star": 0.0, "addr": "849 BIG OAK ROAD", "SR_14": 2.0, "Q_14": 5.0, "name": "EAGLEVIEW HEALTH AND REHABILITATION", "SF_14": 4.0, "SF_15": 4.0, "cnty": "Salem", "st": "NJ", "Zip": 8318.0, "O_14": 4.0, "Q_15": 5.0, "O_15": 4.0, "city": "PITTSGROVE", "beds": 84.0, "SR_15": 2.0}, {"Diff_star": -1.0, "addr": "625 STATE HIGHWAY 34", "SR_14": 2.0, "Q_14": 5.0, "name": "MADISON CENTER", "SF_14": 3.0, "SF_15": 3.0, "cnty": "Monmouth", "st": "NJ", "Zip": 7747.0, "O_14": 3.0, "Q_15": 2.0, "O_15": 2.0, "city": "MATAWAN", "beds": 183.0, "SR_15": 2.0}, {"Diff_star": -1.0, "addr": "230 E RIDGEWOOD AVE", "SR_14": 2.0, "Q_14": 5.0, "name": "BERGEN REGIONAL MEDICAL CENTER", "SF_14": 3.0, "SF_15": 3.0, "cnty": "Bergen", "st": "NJ", "Zip": 7652.0, "O_14": 3.0, "Q_15": 2.0, "O_15": 2.0, "city": "PARAMUS", "beds": 574.0, "SR_15": 2.0}, {"Diff_star": 0.0, "addr": "400 WEST BLACKWELL ST", "SR_14": 4.0, "Q_14": 2.0, "name": "DWELLING PLACE AT ST CLARE'S", "SF_14": 5.0, "SF_15": 5.0, "cnty": "Morris", "st": "NJ", "Zip": 7801.0, "O_14": 5.0, "Q_15": 2.0, "O_15": 5.0, "city": "DOVER", "beds": 25.0, "SR_15": 4.0}, {"Diff_star": 0.0, "addr": "155 HAZEL STREET", "SR_14": 2.0, "Q_14": 4.0, "name": "DAUGHTERS OF MIRIAM CENTER", "SF_14": 4.0, "SF_15": 4.0, "cnty": "Passaic", "st": "NJ", "Zip": 7011.0, "O_14": 3.0, "Q_15": 3.0, "O_15": 3.0, "city": "CLIFTON", "beds": 210.0, "SR_15": 2.0}, {"Diff_star": 0.0, "addr": "300 MEADOW LAKES", "SR_14": 4.0, "Q_14": 5.0, "name": "PRESBYTERIAN HOME - MEADOW  LAKES", "SF_14": 4.0, "SF_15": 4.0, "cnty": "Mercer", "st": "NJ", "Zip": 8520.0, "O_14": 5.0, "Q_15": 5.0, "O_15": 5.0, "city": "HIGHTSTOWN", "beds": 60.0, "SR_15": 3.0}, {"Diff_star": 0.0, "addr": "1155 PLEASANT VALLEY WAY", "SR_14": 2.0, "Q_14": 4.0, "name": "DAUGHTERS OF ISRAEL PLEASANT VALLEY HOME", "SF_14": 4.0, "SF_15": 4.0, "cnty": "Essex", "st": "NJ", "Zip": 7052.0, "O_14": 3.0, "Q_15": 3.0, "O_15": 3.0, "city": "WEST ORANGE", "beds": 303.0, "SR_15": 2.0}, {"Diff_star": 0.0, "addr": "3718 CHURCH ROAD", "SR_14": 1.0, "Q_14": 4.0, "name": "MOUNT LAUREL CENTER FOR REHAB AND HEALTHCARE", "SF_14": 2.0, "SF_15": 2.0, "cnty": "Burlington", "st": "NJ", "Zip": 8054.0, "O_14": 1.0, "Q_15": 1.0, "O_15": 1.0, "city": "MOUNT LAUREL", "beds": 220.0, "SR_15": 1.0}, {"Diff_star": -1.0, "addr": "25 E LINDSLEY ROAD", "SR_14": 3.0, "Q_14": 4.0, "name": "ARBOR GLEN CENTER", "SF_14": 2.0, "SF_15": 3.0, "cnty": "Essex", "st": "NJ", "Zip": 7009.0, "O_14": 3.0, "Q_15": 3.0, "O_15": 2.0, "city": "CEDAR GROVE", "beds": 122.0, "SR_15": 2.0}, {"Diff_star": 0.0, "addr": "1104 TEANECK ROAD", "SR_14": 2.0, "Q_14": 4.0, "name": "TEANECK NURSING CENTER", "SF_14": 1.0, "SF_15": 1.0, "cnty": "Bergen", "st": "NJ", "Zip": 7666.0, "O_14": 1.0, "Q_15": 3.0, "O_15": 1.0, "city": "TEANECK", "beds": 107.0, "SR_15": 2.0}, {"Diff_star": 0.0, "addr": "20 SUMMIT STREET", "SR_14": 3.0, "Q_14": 5.0, "name": "SUMMIT RIDGE CENTER", "SF_14": 3.0, "SF_15": 3.0, "cnty": "Essex", "st": "NJ", "Zip": 7052.0, "O_14": 4.0, "Q_15": 5.0, "O_15": 4.0, "city": "WEST ORANGE", "beds": 152.0, "SR_15": 3.0}, {"Diff_star": 0.0, "addr": "118 PARSONAGE ROAD", "SR_14": 2.0, "Q_14": 4.0, "name": "ROOSEVELT CARE CENTER", "SF_14": 4.0, "SF_15": 4.0, "cnty": "Middlesex", "st": "NJ", "Zip": 8837.0, "O_14": 3.0, "Q_15": 3.0, "O_15": 3.0, "city": "EDISON", "beds": 356.0, "SR_15": 2.0}, {"Diff_star": -1.0, "addr": "521 PINE BROOK ROAD", "SR_14": 4.0, "Q_14": 5.0, "name": "LINCOLN PARK RENAISSANCE REHAB & NURSING", "SF_14": 4.0, "SF_15": 4.0, "cnty": "Morris", "st": "NJ", "Zip": 7035.0, "O_14": 5.0, "Q_15": 4.0, "O_15": 4.0, "city": "LINCOLN PARK", "beds": 189.0, "SR_15": 4.0}, {"Diff_star": 0.0, "addr": "1 O'BRIEN LANE", "SR_14": 3.0, "Q_14": 4.0, "name": "ANDOVER SUBACUTE AND REHAB I", "SF_14": 4.0, "SF_15": 4.0, "cnty": "Sussex", "st": "NJ", "Zip": 7821.0, "O_14": 4.0, "Q_15": 4.0, "O_15": 4.0, "city": "ANDOVER", "beds": 159.0, "SR_15": 3.0}, {"Diff_star": 0.0, "addr": "1700 WYNWOOD DRIVE", "SR_14": 2.0, "Q_14": 4.0, "name": "CINNAMINSON CENTER", "SF_14": 3.0, "SF_15": 3.0, "cnty": "Burlington", "st": "NJ", "Zip": 8077.0, "O_14": 2.0, "Q_15": 2.0, "O_15": 2.0, "city": "CINNAMINSON", "beds": 114.0, "SR_15": 2.0}, {"Diff_star": -1.0, "addr": "115 SUNSET ROAD", "SR_14": 1.0, "Q_14": 5.0, "name": "BURLINGTON WOODS", "SF_14": 2.0, "SF_15": 2.0, "cnty": "Burlington", "st": "NJ", "Zip": 8016.0, "O_14": 2.0, "Q_15": 4.0, "O_15": 1.0, "city": "BURLINGTON", "beds": 215.0, "SR_15": 1.0}, {"Diff_star": -1.0, "addr": "51 MADISON AVE", "SR_14": 1.0, "Q_14": 3.0, "name": "PINE ACRES CONVALESCENT CENTER", "SF_14": 4.0, "SF_15": 3.0, "cnty": "Morris", "st": "NJ", "Zip": 7940.0, "O_14": 2.0, "Q_15": 1.0, "O_15": 1.0, "city": "MADISON", "beds": 102.0, "SR_15": 1.0}, {"Diff_star": -1.0, "addr": "1100 CLEMATIS AVE", "SR_14": 3.0, "Q_14": 5.0, "name": "OUR LADYS RESIDENCE", "SF_14": 4.0, "SF_15": 4.0, "cnty": "Atlantic", "st": "NJ", "Zip": 8232.0, "O_14": 5.0, "Q_15": 3.0, "O_15": 4.0, "city": "PLEASANTVILLE", "beds": 214.0, "SR_15": 3.0}, {"Diff_star": -1.0, "addr": "101 WALNUT ST", "SR_14": 2.0, "Q_14": 5.0, "name": "NEPTUNE REHAB AND CARE CENTER", "SF_14": 3.0, "SF_15": 3.0, "cnty": "Monmouth", "st": "NJ", "Zip": 7753.0, "O_14": 3.0, "Q_15": 4.0, "O_15": 2.0, "city": "NEPTUNE", "beds": 105.0, "SR_15": 2.0}, {"Diff_star": 0.0, "addr": "200 RT 10 WEST", "SR_14": 2.0, "Q_14": 5.0, "name": "MERRY HEART NURSING HOME", "SF_14": 4.0, "SF_15": 4.0, "cnty": "Morris", "st": "NJ", "Zip": 7876.0, "O_14": 4.0, "Q_15": 5.0, "O_15": 4.0, "city": "SUCCASUNNA", "beds": 113.0, "SR_15": 2.0}, {"Diff_star": 0.0, "addr": "438 SALEM-WOODSTOWN ROAD", "SR_14": 4.0, "Q_14": 4.0, "name": "GOLDEN REHABILITATION AND NURSING CENTER", "SF_14": 2.0, "SF_15": 2.0, "cnty": "Salem", "st": "NJ", "Zip": 8079.0, "O_14": 4.0, "Q_15": 2.0, "O_15": 4.0, "city": "SALEM", "beds": 116.0, "SR_15": 4.0}, {"Diff_star": -1.0, "addr": "210 ST MARY'S DRIVE", "SR_14": 2.0, "Q_14": 5.0, "name": "ST MARYS CATHOLIC HOME", "SF_14": 3.0, "SF_15": 3.0, "cnty": "Camden", "st": "NJ", "Zip": 8003.0, "O_14": 3.0, "Q_15": 4.0, "O_15": 2.0, "city": "CHERRY HILL", "beds": 215.0, "SR_15": 2.0}, {"Diff_star": 0.0, "addr": "99 MANHEIM AVENUE", "SR_14": 1.0, "Q_14": 2.0, "name": "SOUTH JERSEY EXTENDED CARE", "SF_14": 1.0, "SF_15": 1.0, "cnty": "Cumberland", "st": "NJ", "Zip": 8302.0, "O_14": 1.0, "Q_15": 1.0, "O_15": 1.0, "city": "BRIDGETON", "beds": 167.0, "SR_15": 1.0}, {"Diff_star": 0.0, "addr": "1610 RARITAN ROAD", "SR_14": 1.0, "Q_14": 5.0, "name": "ASHBROOK CARE & REHABILITATION CENTER", "SF_14": 4.0, "SF_15": 4.0, "cnty": "Union", "st": "NJ", "Zip": 7076.0, "O_14": 2.0, "Q_15": 5.0, "O_15": 2.0, "city": "SCOTCH PLAINS", "beds": 114.0, "SR_15": 1.0}, {"Diff_star": 0.0, "addr": "787 NORTHFIELD AVE", "SR_14": 3.0, "Q_14": 5.0, "name": "STRATFORD MANOR REHABILITATION AND CARE CENTER", "SF_14": 2.0, "SF_15": 2.0, "cnty": "Essex", "st": "NJ", "Zip": 7052.0, "O_14": 4.0, "Q_15": 5.0, "O_15": 4.0, "city": "WEST ORANGE", "beds": 131.0, "SR_15": 3.0}, {"Diff_star": 0.0, "addr": "3025 CHAPEL AVENUE WEST", "SR_14": 1.0, "Q_14": 4.0, "name": "AVISTA HEALTHCARE", "SF_14": 4.0, "SF_15": 4.0, "cnty": "Camden", "st": "NJ", "Zip": 8002.0, "O_14": 2.0, "Q_15": 4.0, "O_15": 2.0, "city": "CHERRY HILL", "beds": 162.0, "SR_15": 1.0}, {"Diff_star": 0.0, "addr": "1506 GULLY ROAD", "SR_14": 3.0, "Q_14": 4.0, "name": "TOWER LODGE CARE CENTER", "SF_14": 3.0, "SF_15": 3.0, "cnty": "Monmouth", "st": "NJ", "Zip": 7719.0, "O_14": 3.0, "Q_15": 2.0, "O_15": 3.0, "city": "WALL", "beds": 60.0, "SR_15": 3.0}, {"Diff_star": 0.0, "addr": "430 SCHOOLEY'S MOUNTAIN RD", "SR_14": 3.0, "Q_14": 5.0, "name": "HEATH VILLAGE", "SF_14": 4.0, "SF_15": 4.0, "cnty": "Morris", "st": "NJ", "Zip": 7840.0, "O_14": 5.0, "Q_15": 5.0, "O_15": 5.0, "city": "HACKETTSTOWN", "beds": 99.0, "SR_15": 3.0}, {"Diff_star": 0.0, "addr": "309 BRIDGEBORO ROAD", "SR_14": 4.0, "Q_14": 5.0, "name": "EVERGREENS, THE", "SF_14": 4.0, "SF_15": 4.0, "cnty": "Burlington", "st": "NJ", "Zip": 8057.0, "O_14": 5.0, "Q_15": 5.0, "O_15": 5.0, "city": "MOORESTOWN", "beds": 34.0, "SR_15": 4.0}, {"Diff_star": 0.0, "addr": "198 STEVENS AVE", "SR_14": 1.0, "Q_14": 5.0, "name": "ALARIS HEALTH AT JERSEY CITY", "SF_14": 4.0, "SF_15": 3.0, "cnty": "Hudson", "st": "NJ", "Zip": 7305.0, "O_14": 2.0, "Q_15": 5.0, "O_15": 2.0, "city": "JERSEY CITY", "beds": 183.0, "SR_15": 1.0}, {"Diff_star": -2.0, "addr": "360 CHESTNUT STREET", "SR_14": 3.0, "Q_14": 5.0, "name": "CHESTNUT HILL CONV CENTER", "SF_14": 2.0, "SF_15": 2.0, "cnty": "Passaic", "st": "NJ", "Zip": 7055.0, "O_14": 4.0, "Q_15": 4.0, "O_15": 2.0, "city": "PASSAIC", "beds": 101.0, "SR_15": 2.0}, {"Diff_star": -1.0, "addr": "1040 HIGHWAY 36", "SR_14": 3.0, "Q_14": 5.0, "name": "CARE ONE AT KING JAMES", "SF_14": 4.0, "SF_15": 4.0, "cnty": "Monmouth", "st": "NJ", "Zip": 7716.0, "O_14": 5.0, "Q_15": 4.0, "O_15": 4.0, "city": "ATLANTIC HIGHLANDS", "beds": 127.0, "SR_15": 3.0}, {"Diff_star": 0.0, "addr": "205 BIRCHWOOD AVE", "SR_14": 1.0, "Q_14": 5.0, "name": "CRANFORD REHAB & NURSING CENTER", "SF_14": 2.0, "SF_15": 2.0, "cnty": "Union", "st": "NJ", "Zip": 7016.0, "O_14": 2.0, "Q_15": 5.0, "O_15": 2.0, "city": "CRANFORD", "beds": 180.0, "SR_15": 1.0}, {"Diff_star": 0.0, "addr": "188 HIGHWAY 34", "SR_14": 1.0, "Q_14": 4.0, "name": "CARE ONE AT HOLMDEL", "SF_14": 2.0, "SF_15": 2.0, "cnty": "Monmouth", "st": "NJ", "Zip": 7733.0, "O_14": 1.0, "Q_15": 3.0, "O_15": 1.0, "city": "HOLMDEL", "beds": 130.0, "SR_15": 1.0}, {"Diff_star": 0.0, "addr": "2240 WHITEHORSE-MERCERVILLE ROAD", "SR_14": 4.0, "Q_14": 4.0, "name": "MERCERVILLE CENTER", "SF_14": 2.0, "SF_15": 2.0, "cnty": "Mercer", "st": "NJ", "Zip": 8619.0, "O_14": 4.0, "Q_15": 3.0, "O_15": 4.0, "city": "MERCERVILLE", "beds": 114.0, "SR_15": 4.0}, {"Diff_star": -1.0, "addr": "59 BIRCH STREET", "SR_14": 3.0, "Q_14": 5.0, "name": "DOCTORS SUBACUTE CARE", "SF_14": 4.0, "SF_15": 3.0, "cnty": "Passaic", "st": "NJ", "Zip": 7522.0, "O_14": 5.0, "Q_15": 5.0, "O_15": 4.0, "city": "PATERSON", "beds": 49.0, "SR_15": 3.0}, {"Diff_star": 0.0, "addr": "1340 PARK AVE", "SR_14": 3.0, "Q_14": 4.0, "name": "JFK HARTWYCK AT CEDAR BROOK", "SF_14": 4.0, "SF_15": 4.0, "cnty": "Union", "st": "NJ", "Zip": 7060.0, "O_14": 4.0, "Q_15": 3.0, "O_15": 4.0, "city": "PLAINFIELD", "beds": 106.0, "SR_15": 3.0}, {"Diff_star": 0.0, "addr": "296 HAMBURG TURNPIKE", "SR_14": 4.0, "Q_14": 3.0, "name": "REGENCY GARDENS NURSING CENTER", "SF_14": 2.0, "SF_15": 2.0, "cnty": "Passaic", "st": "NJ", "Zip": 7470.0, "O_14": 4.0, "Q_15": 2.0, "O_15": 4.0, "city": "WAYNE", "beds": 120.0, "SR_15": 4.0}, {"Diff_star": 0.0, "addr": "234 CHESTNUT STREET", "SR_14": 3.0, "Q_14": 5.0, "name": "CORNELL HALL CARE & REHABILITATION CENTER", "SF_14": 4.0, "SF_15": 4.0, "cnty": "Union", "st": "NJ", "Zip": 7083.0, "O_14": 5.0, "Q_15": 5.0, "O_15": 5.0, "city": "UNION", "beds": 177.0, "SR_15": 3.0}, {"Diff_star": 0.0, "addr": "2050 SIXTH AVE", "SR_14": 3.0, "Q_14": 4.0, "name": "MEDICENTER REHABILITATION AND NURSING", "SF_14": 3.0, "SF_15": 3.0, "cnty": "Monmouth", "st": "NJ", "Zip": 7753.0, "O_14": 3.0, "Q_15": 2.0, "O_15": 3.0, "city": "NEPTUNE CITY", "beds": 110.0, "SR_15": 3.0}, {"Diff_star": 0.0, "addr": "1048 GROVE STREET", "SR_14": 3.0, "Q_14": 4.0, "name": "ELIZABETH NURSING AND REHAB", "SF_14": 3.0, "SF_15": 3.0, "cnty": "Union", "st": "NJ", "Zip": 7202.0, "O_14": 3.0, "Q_15": 3.0, "O_15": 3.0, "city": "ELIZABETH", "beds": 102.0, "SR_15": 3.0}, {"Diff_star": 0.0, "addr": "728 BUNN DRIVE", "SR_14": 4.0, "Q_14": 4.0, "name": "PRINCETON CARE CENTER", "SF_14": 2.0, "SF_15": 2.0, "cnty": "Mercer", "st": "NJ", "Zip": 8540.0, "O_14": 4.0, "Q_15": 3.0, "O_15": 4.0, "city": "PRINCETON", "beds": 119.0, "SR_15": 4.0}, {"Diff_star": -1.0, "addr": "130 TERHUNE DRIVE", "SR_14": 3.0, "Q_14": 2.0, "name": "ADVANCED CARE CENTER AT LAKEVIEW", "SF_14": 4.0, "SF_15": 4.0, "cnty": "Passaic", "st": "NJ", "Zip": 7470.0, "O_14": 4.0, "Q_15": 1.0, "O_15": 3.0, "city": "WAYNE", "beds": 120.0, "SR_15": 3.0}, {"Diff_star": 0.0, "addr": "1501 STATE HWY 33", "SR_14": 2.0, "Q_14": 4.0, "name": "ARCADIA NURSING AND REHAB", "SF_14": 3.0, "SF_15": 3.0, "cnty": "Mercer", "st": "NJ", "Zip": 8690.0, "O_14": 2.0, "Q_15": 3.0, "O_15": 2.0, "city": "HAMILTON SQUARE", "beds": 126.0, "SR_15": 2.0}, {"Diff_star": 0.0, "addr": "9020 WALL STREET", "SR_14": 4.0, "Q_14": 5.0, "name": "HUDSONVIEW HEALTH CARE CENTER", "SF_14": 2.0, "SF_15": 2.0, "cnty": "Hudson", "st": "NJ", "Zip": 7047.0, "O_14": 5.0, "Q_15": 5.0, "O_15": 5.0, "city": "NORTH BERGEN", "beds": 273.0, "SR_15": 4.0}, {"Diff_star": -1.0, "addr": "112 FRANKLIN CORNER ROAD", "SR_14": 1.0, "Q_14": 5.0, "name": "ATRIUM POST ACUTE CARE OF LAWRENCEVILLE", "SF_14": 4.0, "SF_15": 3.0, "cnty": "Mercer", "st": "NJ", "Zip": 8648.0, "O_14": 2.0, "Q_15": 4.0, "O_15": 1.0, "city": "LAWRENCEVILLE", "beds": 100.0, "SR_15": 1.0}, {"Diff_star": -1.0, "addr": "485 RIVER AVE", "SR_14": 3.0, "Q_14": 5.0, "name": "ATLANTIC COAST REHAB & HEALTH", "SF_14": 4.0, "SF_15": 4.0, "cnty": "Ocean", "st": "NJ", "Zip": 8701.0, "O_14": 5.0, "Q_15": 3.0, "O_15": 4.0, "city": "LAKEWOOD", "beds": 160.0, "SR_15": 3.0}, {"Diff_star": 0.0, "addr": "622 S LAUREL AVENUE", "SR_14": 5.0, "Q_14": 5.0, "name": "ARNOLD WALTER NURSING HOME", "SF_14": 3.0, "SF_15": 3.0, "cnty": "Monmouth", "st": "NJ", "Zip": 7730.0, "O_14": 5.0, "Q_15": 4.0, "O_15": 5.0, "city": "HAZLET", "beds": 202.0, "SR_15": 5.0}, {"Diff_star": -1.0, "addr": "415 SOUTHERN BLVD", "SR_14": 1.0, "Q_14": 4.0, "name": "KING JAMES CARE CTR OF CHATHAM", "SF_14": 4.0, "SF_15": 3.0, "cnty": "Morris", "st": "NJ", "Zip": 7928.0, "O_14": 2.0, "Q_15": 2.0, "O_15": 1.0, "city": "CHATHAM", "beds": 108.0, "SR_15": 1.0}, {"Diff_star": 0.0, "addr": "1515 LAMBERTS MILL ROAD", "SR_14": 4.0, "Q_14": 4.0, "name": "WESTFIELD CENTER", "SF_14": 4.0, "SF_15": 3.0, "cnty": "Union", "st": "NJ", "Zip": 7090.0, "O_14": 4.0, "Q_15": 2.0, "O_15": 4.0, "city": "WESTFIELD", "beds": 227.0, "SR_15": 4.0}, {"Diff_star": 0.0, "addr": "439 BELLEVUE AVENUE", "SR_14": 1.0, "Q_14": 2.0, "name": "PROVIDENCE NURSING AND REHABILITATION CENTER", "SF_14": 2.0, "SF_15": 2.0, "cnty": "Mercer", "st": "NJ", "Zip": 8618.0, "O_14": 1.0, "Q_15": 1.0, "O_15": 1.0, "city": "TRENTON", "beds": 106.0, "SR_15": 1.0}, {"Diff_star": -1.0, "addr": "395 LAKESIDE BLVD", "SR_14": 2.0, "Q_14": 5.0, "name": "CRYSTAL LAKE HLTHCARE & REHAB", "SF_14": 1.0, "SF_15": 1.0, "cnty": "Ocean", "st": "NJ", "Zip": 8721.0, "O_14": 2.0, "Q_15": 4.0, "O_15": 1.0, "city": "BAYVILLE", "beds": 235.0, "SR_15": 2.0}, {"Diff_star": -1.0, "addr": "1045 E CHESTNUT AVE", "SR_14": 3.0, "Q_14": 4.0, "name": "BISHOP MCCARTHY RESIDENCE", "SF_14": 4.0, "SF_15": 3.0, "cnty": "Cumberland", "st": "NJ", "Zip": 8360.0, "O_14": 4.0, "Q_15": 3.0, "O_15": 3.0, "city": "VINELAND", "beds": 182.0, "SR_15": 3.0}, {"Diff_star": 0.0, "addr": "2381 LAWRENCEVILLE ROAD", "SR_14": 5.0, "Q_14": 5.0, "name": "ST LAWRENCE REHAB CENTER", "SF_14": 5.0, "SF_15": 5.0, "cnty": "Mercer", "st": "NJ", "Zip": 8648.0, "O_14": 5.0, "Q_15": 5.0, "O_15": 5.0, "city": "LAWRENCEVILLE", "beds": 80.0, "SR_15": 5.0}, {"Diff_star": 0.0, "addr": "62 RICHMOND AVENUE", "SR_14": 4.0, "Q_14": 5.0, "name": "VIRTUA HEALTH & REHAB MT HOLLY", "SF_14": 4.0, "SF_15": 4.0, "cnty": "Burlington", "st": "NJ", "Zip": 8048.0, "O_14": 5.0, "Q_15": 5.0, "O_15": 5.0, "city": "LUMBERTON", "beds": 180.0, "SR_15": 4.0}, {"Diff_star": 0.0, "addr": "532 FARVIEW AVE", "SR_14": 5.0, "Q_14": 5.0, "name": "DELLRIDGE HEALTH & REHABILITATION CENTER", "SF_14": 3.0, "SF_15": 3.0, "cnty": "Bergen", "st": "NJ", "Zip": 7652.0, "O_14": 5.0, "Q_15": 5.0, "O_15": 5.0, "city": "PARAMUS", "beds": 96.0, "SR_15": 5.0}, {"Diff_star": 0.0, "addr": "95 MT KEMBLE AVENUE", "SR_14": 4.0, "Q_14": 5.0, "name": "ATLANTIC REHABILITATION INSTITUTE", "SF_14": 5.0, "SF_15": 5.0, "cnty": "Morris", "st": "NJ", "Zip": 7960.0, "O_14": 5.0, "Q_15": 5.0, "O_15": 5.0, "city": "MORRISTOWN", "beds": 40.0, "SR_15": 4.0}, {"Diff_star": -1.0, "addr": "1165 EASTON AVE", "SR_14": 2.0, "Q_14": 5.0, "name": "WILLOW CREEK REHAB AND CARE CE", "SF_14": 2.0, "SF_15": 2.0, "cnty": "Somerset", "st": "NJ", "Zip": 8873.0, "O_14": 3.0, "Q_15": 3.0, "O_15": 2.0, "city": "SOMERSET", "beds": 180.0, "SR_15": 2.0}, {"Diff_star": 0.0, "addr": "1350 INMAN AVENUE", "SR_14": 1.0, "Q_14": 5.0, "name": "CARE ONE AT THE HIGHLANDS", "SF_14": 5.0, "SF_15": 5.0, "cnty": "Middlesex", "st": "NJ", "Zip": 8820.0, "O_14": 2.0, "Q_15": 5.0, "O_15": 2.0, "city": "EDISON", "beds": 122.0, "SR_15": 1.0}, {"Diff_star": 0.0, "addr": "555 CHESTNUT RIDGE ROAD", "SR_14": 5.0, "Q_14": 5.0, "name": "WOODCLIFF LAKE HEALTH & REHABILITATION CENTER", "SF_14": 4.0, "SF_15": 4.0, "cnty": "Bergen", "st": "NJ", "Zip": 7677.0, "O_14": 5.0, "Q_15": 5.0, "O_15": 5.0, "city": "WOODCLIFF LAKE", "beds": 114.0, "SR_15": 5.0}, {"Diff_star": 0.0, "addr": "875 ROUTE 202-206 NORTH", "SR_14": 3.0, "Q_14": 5.0, "name": "GREEN KNOLL CENTER", "SF_14": 3.0, "SF_15": 3.0, "cnty": "Somerset", "st": "NJ", "Zip": 8807.0, "O_14": 4.0, "Q_15": 5.0, "O_15": 4.0, "city": "BRIDGEWATER", "beds": 176.0, "SR_15": 3.0}, {"Diff_star": -1.0, "addr": "1515 HULSE ROAD", "SR_14": 3.0, "Q_14": 5.0, "name": "CLAREMONT CENTER", "SF_14": 2.0, "SF_15": 2.0, "cnty": "Ocean", "st": "NJ", "Zip": 8742.0, "O_14": 4.0, "Q_15": 4.0, "O_15": 3.0, "city": "PT PLEASANT", "beds": 118.0, "SR_15": 3.0}, {"Diff_star": 0.0, "addr": "89 AVENUE AT THE COMMON", "SR_14": 4.0, "Q_14": 5.0, "name": "MERIDIAN NURSING & REHAB AT SHREWSBURY", "SF_14": 4.0, "SF_15": 3.0, "cnty": "Monmouth", "st": "NJ", "Zip": 7702.0, "O_14": 5.0, "Q_15": 5.0, "O_15": 5.0, "city": "SHREWSBURY", "beds": 140.0, "SR_15": 4.0}, {"Diff_star": 0.0, "addr": "249 HIGH STREET", "SR_14": 1.0, "Q_14": 4.0, "name": "BARN HILL CARE CENTER", "SF_14": 4.0, "SF_15": 4.0, "cnty": "Sussex", "st": "NJ", "Zip": 7860.0, "O_14": 2.0, "Q_15": 4.0, "O_15": 2.0, "city": "NEWTON", "beds": 154.0, "SR_15": 1.0}, {"Diff_star": 0.0, "addr": "200 REYNOLDS AVE", "SR_14": 3.0, "Q_14": 4.0, "name": "TROY HILLS CENTER", "SF_14": 3.0, "SF_15": 3.0, "cnty": "Morris", "st": "NJ", "Zip": 7054.0, "O_14": 3.0, "Q_15": 4.0, "O_15": 3.0, "city": "PARSIPPANY", "beds": 130.0, "SR_15": 3.0}, {"Diff_star": -1.0, "addr": "633 ROUTE 28", "SR_14": 2.0, "Q_14": 5.0, "name": "REHAB AT RIVER'S EDGE", "SF_14": 4.0, "SF_15": 4.0, "cnty": "Somerset", "st": "NJ", "Zip": 8869.0, "O_14": 4.0, "Q_15": 4.0, "O_15": 3.0, "city": "RARITAN", "beds": 138.0, "SR_15": 2.0}, {"Diff_star": 0.0, "addr": "303 ROCK AVE", "SR_14": 1.0, "Q_14": 5.0, "name": "ABINGDON CARE & REHABILITATION CENTER", "SF_14": 4.0, "SF_15": 3.0, "cnty": "Somerset", "st": "NJ", "Zip": 8812.0, "O_14": 2.0, "Q_15": 5.0, "O_15": 2.0, "city": "GREEN BROOK", "beds": 180.0, "SR_15": 1.0}, {"Diff_star": -1.0, "addr": "1140 BLACK OAK RIDGE ROAD", "SR_14": 3.0, "Q_14": 5.0, "name": "LLANFAIR HOUSE CARE & REHABILITATION CENTER", "SF_14": 4.0, "SF_15": 3.0, "cnty": "Passaic", "st": "NJ", "Zip": 7470.0, "O_14": 5.0, "Q_15": 5.0, "O_15": 4.0, "city": "WAYNE", "beds": 180.0, "SR_15": 3.0}, {"Diff_star": 0.0, "addr": "84 COLD HILL ROAD", "SR_14": 4.0, "Q_14": 4.0, "name": "HOLLY MANOR CENTER", "SF_14": 4.0, "SF_15": 3.0, "cnty": "Morris", "st": "NJ", "Zip": 7945.0, "O_14": 4.0, "Q_15": 2.0, "O_15": 4.0, "city": "MENDHAM", "beds": 124.0, "SR_15": 4.0}, {"Diff_star": 0.0, "addr": "ONE MEDFORD LEAS WAY", "SR_14": 4.0, "Q_14": 4.0, "name": "MEDFORD LEAS", "SF_14": 5.0, "SF_15": 5.0, "cnty": "Burlington", "st": "NJ", "Zip": 8055.0, "O_14": 5.0, "Q_15": 4.0, "O_15": 5.0, "city": "MEDFORD", "beds": 67.0, "SR_15": 4.0}, {"Diff_star": 0.0, "addr": "865 STONE STREET", "SR_14": 1.0, "Q_14": 5.0, "name": "ROBERT WOOD JOHNSON UNIVERSITY HOSPITAL AT RAHWAY", "SF_14": 5.0, "SF_15": 5.0, "cnty": "Union", "st": "NJ", "Zip": 7065.0, "O_14": 2.0, "Q_15": 5.0, "O_15": 2.0, "city": "RAHWAY", "beds": 24.0, "SR_15": 1.0}, {"Diff_star": 0.0, "addr": "101 NORTH GROVE STREET", "SR_14": 1.0, "Q_14": 5.0, "name": "NEW GROVE MANOR", "SF_14": 1.0, "SF_15": 1.0, "cnty": "Essex", "st": "NJ", "Zip": 7017.0, "O_14": 2.0, "Q_15": 5.0, "O_15": 2.0, "city": "EAST ORANGE", "beds": 185.0, "SR_15": 1.0}, {"Diff_star": 0.0, "addr": "794 N FORKLANDING ROAD", "SR_14": 1.0, "Q_14": 3.0, "name": "STERLING MANOR", "SF_14": 4.0, "SF_15": 3.0, "cnty": "Burlington", "st": "NJ", "Zip": 8052.0, "O_14": 2.0, "Q_15": 2.0, "O_15": 2.0, "city": "MAPLE SHADE", "beds": 124.0, "SR_15": 2.0}, {"Diff_star": -3.0, "addr": "3371 ROUTE 27", "SR_14": 4.0, "Q_14": 5.0, "name": "FRANKLIN CARE CENTER", "SF_14": 4.0, "SF_15": 3.0, "cnty": "Somerset", "st": "NJ", "Zip": 8823.0, "O_14": 5.0, "Q_15": 5.0, "O_15": 2.0, "city": "FRANKLIN PARK", "beds": 180.0, "SR_15": 1.0}, {"Diff_star": 0.0, "addr": "301 UNION ST", "SR_14": 4.0, "Q_14": 5.0, "name": "CARE ONE AT WELLINGTON", "SF_14": 4.0, "SF_15": 4.0, "cnty": "Bergen", "st": "NJ", "Zip": 7601.0, "O_14": 5.0, "Q_15": 5.0, "O_15": 5.0, "city": "HACKENSACK", "beds": 128.0, "SR_15": 4.0}, {"Diff_star": 0.0, "addr": "689 WEST MAIN ST", "SR_14": 3.0, "Q_14": 4.0, "name": "MANOR, THE", "SF_14": 4.0, "SF_15": 4.0, "cnty": "Monmouth", "st": "NJ", "Zip": 7728.0, "O_14": 4.0, "Q_15": 2.0, "O_15": 4.0, "city": "FREEHOLD", "beds": 123.0, "SR_15": 3.0}, {"Diff_star": 0.0, "addr": "77 MADISON AVENUE", "SR_14": 1.0, "Q_14": 3.0, "name": "MORRIS HILLS CENTER", "SF_14": 3.0, "SF_15": 3.0, "cnty": "Morris", "st": "NJ", "Zip": 7960.0, "O_14": 1.0, "Q_15": 2.0, "O_15": 1.0, "city": "MORRISTOWN", "beds": 287.0, "SR_15": 1.0}, {"Diff_star": -1.0, "addr": "330 FRANKLIN TPK", "SR_14": 3.0, "Q_14": 4.0, "name": "RIDGEWOOD CENTER", "SF_14": 3.0, "SF_15": 3.0, "cnty": "Bergen", "st": "NJ", "Zip": 7450.0, "O_14": 3.0, "Q_15": 4.0, "O_15": 2.0, "city": "RIDGEWOOD", "beds": 90.0, "SR_15": 2.0}, {"Diff_star": 0.0, "addr": "425 WOODBURY-TURNERSVILLE ROAD", "SR_14": 1.0, "Q_14": 4.0, "name": "ELMWOOD HILLS HEALTHCARE CENTER LLC", "SF_14": 3.0, "SF_15": 3.0, "cnty": "Camden", "st": "NJ", "Zip": 8012.0, "O_14": 1.0, "Q_15": 4.0, "O_15": 1.0, "city": "BLACKWOOD", "beds": 300.0, "SR_15": 1.0}, {"Diff_star": -1.0, "addr": "ONE FRIENDS DRIVE", "SR_14": 2.0, "Q_14": 3.0, "name": "FRIENDS VILLAGE AT WOODSTOWN", "SF_14": 4.0, "SF_15": 4.0, "cnty": "Salem", "st": "NJ", "Zip": 8098.0, "O_14": 3.0, "Q_15": 1.0, "O_15": 2.0, "city": "WOODSTOWN", "beds": 60.0, "SR_15": 2.0}, {"Diff_star": -1.0, "addr": "133 COUNTY ROAD", "SR_14": 4.0, "Q_14": 5.0, "name": "COUNTY MANOR REHABILITATION & HCC", "SF_14": 3.0, "SF_15": 4.0, "cnty": "Bergen", "st": "NJ", "Zip": 7670.0, "O_14": 5.0, "Q_15": 3.0, "O_15": 4.0, "city": "TENAFLY", "beds": 69.0, "SR_15": 3.0}, {"Diff_star": 0.0, "addr": "902 JACKSONVILLE ROAD", "SR_14": 1.0, "Q_14": 5.0, "name": "MASONIC HOME OF NEW JERSEY", "SF_14": 4.0, "SF_15": 4.0, "cnty": "Burlington", "st": "NJ", "Zip": 8016.0, "O_14": 2.0, "Q_15": 4.0, "O_15": 2.0, "city": "BURLINGTON", "beds": 264.0, "SR_15": 1.0}, {"Diff_star": -1.0, "addr": "20 BREAKNECK ROAD", "SR_14": 4.0, "Q_14": 5.0, "name": "OAKLAND CARE CENTER", "SF_14": 3.0, "SF_15": 3.0, "cnty": "Bergen", "st": "NJ", "Zip": 7436.0, "O_14": 5.0, "Q_15": 4.0, "O_15": 4.0, "city": "OAKLAND", "beds": 215.0, "SR_15": 4.0}, {"Diff_star": 0.0, "addr": "1511 CLEMENTS BRIDGE RD", "SR_14": 1.0, "Q_14": 5.0, "name": "DEPTFORD CENTER FOR REHABILITATION AND HEALTHCARE", "SF_14": 1.0, "SF_15": 1.0, "cnty": "Gloucester", "st": "NJ", "Zip": 8096.0, "O_14": 2.0, "Q_15": 5.0, "O_15": 2.0, "city": "DEPTFORD", "beds": 240.0, "SR_15": 1.0}, {"Diff_star": 0.0, "addr": "185 TUCKERTON ROAD", "SR_14": 3.0, "Q_14": 4.0, "name": "MEDFORD CARE CENTER", "SF_14": 4.0, "SF_15": 4.0, "cnty": "Burlington", "st": "NJ", "Zip": 8055.0, "O_14": 4.0, "Q_15": 2.0, "O_15": 4.0, "city": "MEDFORD", "beds": 180.0, "SR_15": 3.0}, {"Diff_star": -1.0, "addr": "139 GRANT AVE", "SR_14": 2.0, "Q_14": 5.0, "name": "GATEWAY CARE CENTER", "SF_14": 3.0, "SF_15": 3.0, "cnty": "Monmouth", "st": "NJ", "Zip": 7724.0, "O_14": 3.0, "Q_15": 3.0, "O_15": 2.0, "city": "EATONTOWN", "beds": 178.0, "SR_15": 2.0}, {"Diff_star": 0.0, "addr": "140 PARK AVE", "SR_14": 3.0, "Q_14": 5.0, "name": "WINDSOR GARDENS CARE CENTER", "SF_14": 4.0, "SF_15": 4.0, "cnty": "Essex", "st": "NJ", "Zip": 7017.0, "O_14": 5.0, "Q_15": 5.0, "O_15": 5.0, "city": "EAST ORANGE", "beds": 215.0, "SR_15": 3.0}, {"Diff_star": 0.0, "addr": "2721 ROUTE 9", "SR_14": 1.0, "Q_14": 3.0, "name": "OCEANVIEW CENTER FOR REHABILITATION", "SF_14": 3.0, "SF_15": 3.0, "cnty": "Cape May", "st": "NJ", "Zip": 8230.0, "O_14": 1.0, "Q_15": 1.0, "O_15": 1.0, "city": "OCEAN VIEW", "beds": 120.0, "SR_15": 1.0}, {"Diff_star": -2.0, "addr": "303 ELM STREET", "SR_14": 2.0, "Q_14": 5.0, "name": "ARISTACARE AT ALAMEDA CENTER", "SF_14": 4.0, "SF_15": 3.0, "cnty": "Middlesex", "st": "NJ", "Zip": 8861.0, "O_14": 4.0, "Q_15": 4.0, "O_15": 2.0, "city": "PERTH AMBOY", "beds": 250.0, "SR_15": 2.0}, {"Diff_star": 0.0, "addr": "270 ROUTE 28", "SR_14": 3.0, "Q_14": 5.0, "name": "BRIDGEWAY CARE AND REHAB CENTER AT BRIDGEWATER", "SF_14": 3.0, "SF_15": 3.0, "cnty": "Somerset", "st": "NJ", "Zip": 8807.0, "O_14": 4.0, "Q_15": 5.0, "O_15": 4.0, "city": "BRIDGEWATER", "beds": 148.0, "SR_15": 3.0}, {"Diff_star": 0.0, "addr": "2150 ROUTE 38", "SR_14": 1.0, "Q_14": 3.0, "name": "CADBURY NURSING & REHABILITATION CENTER", "SF_14": 4.0, "SF_15": 4.0, "cnty": "Camden", "st": "NJ", "Zip": 8002.0, "O_14": 2.0, "Q_15": 2.0, "O_15": 2.0, "city": "CHERRY HILL", "beds": 120.0, "SR_15": 1.0}, {"Diff_star": 0.0, "addr": "NEW ROAD AND CENTRAL AVE", "SR_14": 2.0, "Q_14": 4.0, "name": "LINWOOD CARE CENTER", "SF_14": 3.0, "SF_15": 3.0, "cnty": "Atlantic", "st": "NJ", "Zip": 8221.0, "O_14": 2.0, "Q_15": 2.0, "O_15": 2.0, "city": "LINWOOD", "beds": 174.0, "SR_15": 2.0}, {"Diff_star": 0.0, "addr": "1302 LAUREL OAK ROAD", "SR_14": 4.0, "Q_14": 5.0, "name": "VOORHEES CARE & REHABILITATION CENTER, THE", "SF_14": 4.0, "SF_15": 4.0, "cnty": "Camden", "st": "NJ", "Zip": 8043.0, "O_14": 5.0, "Q_15": 5.0, "O_15": 5.0, "city": "VOORHEES", "beds": 240.0, "SR_15": 4.0}, {"Diff_star": -1.0, "addr": "901 ERNSTON ROAD", "SR_14": 3.0, "Q_14": 4.0, "name": "BRIARWOOD CARE & REHABILITATION CENTER, THE", "SF_14": 4.0, "SF_15": 4.0, "cnty": "Middlesex", "st": "NJ", "Zip": 8879.0, "O_14": 4.0, "Q_15": 2.0, "O_15": 3.0, "city": "SOUTH AMBOY", "beds": 212.0, "SR_15": 2.0}, {"Diff_star": 0.0, "addr": "962 RIVER AVE", "SR_14": 5.0, "Q_14": 3.0, "name": "LEISURE CHATEAU REHABILITATION", "SF_14": 2.0, "SF_15": 2.0, "cnty": "Ocean", "st": "NJ", "Zip": 8701.0, "O_14": 5.0, "Q_15": 2.0, "O_15": 5.0, "city": "LAKEWOOD", "beds": 242.0, "SR_15": 5.0}, {"Diff_star": 0.0, "addr": "206 BERGEN AVE", "SR_14": 3.0, "Q_14": 5.0, "name": "ALARIS HEALTH AT KEARNY", "SF_14": 4.0, "SF_15": 4.0, "cnty": "Hudson", "st": "NJ", "Zip": 7032.0, "O_14": 5.0, "Q_15": 5.0, "O_15": 5.0, "city": "KEARNY", "beds": 120.0, "SR_15": 3.0}, {"Diff_star": 0.0, "addr": "502 ROUTE 9 NORTH", "SR_14": 2.0, "Q_14": 4.0, "name": "OCEANA REHABILITATION AND NC", "SF_14": 3.0, "SF_15": 3.0, "cnty": "Cape May", "st": "NJ", "Zip": 8210.0, "O_14": 2.0, "Q_15": 2.0, "O_15": 2.0, "city": "CAPE MAY COURT HOUSE", "beds": 116.0, "SR_15": 2.0}, {"Diff_star": -1.0, "addr": "315 EAST LINDSLEY ROAD", "SR_14": 2.0, "Q_14": 5.0, "name": "ST VINCENT'S NURSING HOME", "SF_14": 4.0, "SF_15": 3.0, "cnty": "Essex", "st": "NJ", "Zip": 7009.0, "O_14": 4.0, "Q_15": 5.0, "O_15": 3.0, "city": "CEDAR GROVE", "beds": 151.0, "SR_15": 2.0}, {"Diff_star": 0.0, "addr": "35 COTTAGE STREET", "SR_14": 5.0, "Q_14": 5.0, "name": "BERKELEY HEIGHTS NURSING AND REHABILITATION CENTER", "SF_14": 5.0, "SF_15": 5.0, "cnty": "Union", "st": "NJ", "Zip": 7922.0, "O_14": 5.0, "Q_15": 4.0, "O_15": 5.0, "city": "BERKELEY HEIGHTS", "beds": 130.0, "SR_15": 5.0}, {"Diff_star": 0.0, "addr": "1770 TOBIAS AVENUE", "SR_14": 2.0, "Q_14": 3.0, "name": "ARISTACARE AT MANCHESTER", "SF_14": 4.0, "SF_15": 4.0, "cnty": "Ocean", "st": "NJ", "Zip": 8759.0, "O_14": 3.0, "Q_15": 2.0, "O_15": 3.0, "city": "MANCHESTER", "beds": 165.0, "SR_15": 2.0}, {"Diff_star": 0.0, "addr": "1777 LAWRENCE STREET", "SR_14": 2.0, "Q_14": 5.0, "name": "ALARIS HEALTH AT RIVERTON", "SF_14": 4.0, "SF_15": 4.0, "cnty": "Union", "st": "NJ", "Zip": 7065.0, "O_14": 4.0, "Q_15": 5.0, "O_15": 4.0, "city": "RAHWAY", "beds": 122.0, "SR_15": 2.0}, {"Diff_star": -1.0, "addr": "919 GREEN GROVE ROAD", "SR_14": 3.0, "Q_14": 5.0, "name": "IMPERIAL CARE CENTER", "SF_14": 3.0, "SF_15": 3.0, "cnty": "Monmouth", "st": "NJ", "Zip": 7753.0, "O_14": 4.0, "Q_15": 4.0, "O_15": 3.0, "city": "NEPTUNE", "beds": 121.0, "SR_15": 3.0}, {"Diff_star": 0.0, "addr": "400 W STIMPSON AVE", "SR_14": 3.0, "Q_14": 4.0, "name": "DELAIRE NURSING & CONV CENTER", "SF_14": 2.0, "SF_15": 2.0, "cnty": "Union", "st": "NJ", "Zip": 7036.0, "O_14": 3.0, "Q_15": 3.0, "O_15": 3.0, "city": "LINDEN", "beds": 240.0, "SR_15": 3.0}, {"Diff_star": 0.0, "addr": "255 EAST MAIN ST", "SR_14": 3.0, "Q_14": 4.0, "name": "LUTHERAN CROSSINGS ENCHANCED LIVING AT MOORESTOWN", "SF_14": 3.0, "SF_15": 3.0, "cnty": "Burlington", "st": "NJ", "Zip": 8057.0, "O_14": 3.0, "Q_15": 3.0, "O_15": 3.0, "city": "MOORESTOWN", "beds": 201.0, "SR_15": 3.0}, {"Diff_star": 0.0, "addr": "390 RED SCHOOL LANE", "SR_14": 3.0, "Q_14": 4.0, "name": "LOPATCONG CENTER", "SF_14": 2.0, "SF_15": 2.0, "cnty": "Warren", "st": "NJ", "Zip": 8865.0, "O_14": 3.0, "Q_15": 4.0, "O_15": 3.0, "city": "PHILLIPSBURG", "beds": 153.0, "SR_15": 3.0}, {"Diff_star": 0.0, "addr": "398 POMPTON AVENUE", "SR_14": 2.0, "Q_14": 5.0, "name": "CANTERBURY AT CEDAR GROVE", "SF_14": 4.0, "SF_15": 4.0, "cnty": "Essex", "st": "NJ", "Zip": 7009.0, "O_14": 4.0, "Q_15": 5.0, "O_15": 4.0, "city": "CEDAR GROVE", "beds": 180.0, "SR_15": 2.0}, {"Diff_star": 0.0, "addr": "TWO COOPER PLAZA", "SR_14": 3.0, "Q_14": 4.0, "name": "MAJESTIC CENTER FOR REHAB & SUB-ACUTE CARE", "SF_14": 4.0, "SF_15": 4.0, "cnty": "Camden", "st": "NJ", "Zip": 8103.0, "O_14": 4.0, "Q_15": 4.0, "O_15": 4.0, "city": "CAMDEN", "beds": 120.0, "SR_15": 3.0}, {"Diff_star": 0.0, "addr": "1211 RT 72 WEST", "SR_14": 2.0, "Q_14": 5.0, "name": "MANAHAWKIN CONV CTR", "SF_14": 1.0, "SF_15": 1.0, "cnty": "Ocean", "st": "NJ", "Zip": 8050.0, "O_14": 2.0, "Q_15": 5.0, "O_15": 2.0, "city": "MANAHAWKIN", "beds": 120.0, "SR_15": 2.0}, {"Diff_star": -1.0, "addr": "2601 EVESHAM ROAD", "SR_14": 5.0, "Q_14": 3.0, "name": "KRESSON VIEW CENTER", "SF_14": 1.0, "SF_15": 1.0, "cnty": "Camden", "st": "NJ", "Zip": 8043.0, "O_14": 4.0, "Q_15": 1.0, "O_15": 3.0, "city": "VOORHEES", "beds": 240.0, "SR_15": 5.0}, {"Diff_star": 0.0, "addr": "43 N WHITE HORSE PIKE", "SR_14": 1.0, "Q_14": 4.0, "name": "HAMMONTON CENTER FOR REHABILITATION AND HEALTHCARE", "SF_14": 4.0, "SF_15": 4.0, "cnty": "Atlantic", "st": "NJ", "Zip": 8037.0, "O_14": 2.0, "Q_15": 4.0, "O_15": 2.0, "city": "HAMMONTON", "beds": 220.0, "SR_15": 1.0}, {"Diff_star": 0.0, "addr": "66 WEST JIMMIE LEEDS ROAD", "SR_14": 2.0, "Q_14": 4.0, "name": "HEALTH CENTER AT GALLOWAY, THE", "SF_14": 2.0, "SF_15": 2.0, "cnty": "Atlantic", "st": "NJ", "Zip": 8205.0, "O_14": 2.0, "Q_15": 2.0, "O_15": 2.0, "city": "GALLOWAY TOWNSHIP", "beds": 120.0, "SR_15": 2.0}, {"Diff_star": 0.0, "addr": "930 CHURCH STREET", "SR_14": 1.0, "Q_14": 4.0, "name": "MAINLAND MANOR NRS & REHAB CTR", "SF_14": 4.0, "SF_15": 4.0, "cnty": "Atlantic", "st": "NJ", "Zip": 8232.0, "O_14": 2.0, "Q_15": 3.0, "O_15": 2.0, "city": "PLEASANTVILLE", "beds": 140.0, "SR_15": 1.0}, {"Diff_star": -1.0, "addr": "1049 BURNT TAVERN ROAD", "SR_14": 1.0, "Q_14": 4.0, "name": "WILLOW SPRINGS REHABILITATION AND HEALTHCARE CTR", "SF_14": 4.0, "SF_15": 3.0, "cnty": "Ocean", "st": "NJ", "Zip": 8724.0, "O_14": 2.0, "Q_15": 4.0, "O_15": 1.0, "city": "BRICK", "beds": 148.0, "SR_15": 1.0}, {"Diff_star": -1.0, "addr": "1311 DURHAM AVENUE", "SR_14": 3.0, "Q_14": 5.0, "name": "ARISTACARE AT CEDAR OAKS", "SF_14": 4.0, "SF_15": 3.0, "cnty": "Middlesex", "st": "NJ", "Zip": 7080.0, "O_14": 5.0, "Q_15": 5.0, "O_15": 4.0, "city": "SOUTH PLAINFIELD", "beds": 230.0, "SR_15": 3.0}, {"Diff_star": -1.0, "addr": "53 WALTER STREET", "SR_14": 4.0, "Q_14": 5.0, "name": "GREENWOOD HOUSE HOME FOR THE JEWISH AGED", "SF_14": 4.0, "SF_15": 4.0, "cnty": "Mercer", "st": "NJ", "Zip": 8628.0, "O_14": 5.0, "Q_15": 4.0, "O_15": 4.0, "city": "TRENTON", "beds": 137.0, "SR_15": 4.0}, {"Diff_star": 1.0, "addr": "536 RIDGE ROAD", "SR_14": 2.0, "Q_14": 5.0, "name": "WATERVIEW CENTER", "SF_14": 4.0, "SF_15": 4.0, "cnty": "Essex", "st": "NJ", "Zip": 7009.0, "O_14": 4.0, "Q_15": 5.0, "O_15": 5.0, "city": "CEDAR GROVE", "beds": 190.0, "SR_15": 3.0}, {"Diff_star": -1.0, "addr": "40 NORWOOD AVENUE", "SR_14": 4.0, "Q_14": 3.0, "name": "ARISTACARE AT NORWOOD TERRACE", "SF_14": 2.0, "SF_15": 2.0, "cnty": "Union", "st": "NJ", "Zip": 7060.0, "O_14": 4.0, "Q_15": 1.0, "O_15": 3.0, "city": "PLAINFIELD", "beds": 120.0, "SR_15": 4.0}, {"Diff_star": 0.0, "addr": "1001 CENTER ST", "SR_14": 4.0, "Q_14": 5.0, "name": "SEACREST VILLAGE", "SF_14": 3.0, "SF_15": 3.0, "cnty": "Ocean", "st": "NJ", "Zip": 8087.0, "O_14": 5.0, "Q_15": 5.0, "O_15": 5.0, "city": "LITTLE EGG HARBOR TW", "beds": 171.0, "SR_15": 4.0}, {"Diff_star": -1.0, "addr": "3001 EVESHAM ROAD", "SR_14": 4.0, "Q_14": 5.0, "name": "VOORHEES CENTER", "SF_14": 2.0, "SF_15": 2.0, "cnty": "Camden", "st": "NJ", "Zip": 8043.0, "O_14": 5.0, "Q_15": 4.0, "O_15": 4.0, "city": "VOORHEES", "beds": 190.0, "SR_15": 4.0}, {"Diff_star": 0.0, "addr": "56 HAMILTON AVENUE", "SR_14": 3.0, "Q_14": 4.0, "name": "HAMILTON PLAZA NURSING & REHABILITATION CENTER", "SF_14": 2.0, "SF_15": 2.0, "cnty": "Passaic", "st": "NJ", "Zip": 7055.0, "O_14": 3.0, "Q_15": 3.0, "O_15": 3.0, "city": "PASSAIC", "beds": 120.0, "SR_15": 3.0}, {"Diff_star": -1.0, "addr": "859 WEST BAY AVE", "SR_14": 2.0, "Q_14": 5.0, "name": "BARNEGAT REHABILITATION AND NURSING CENTER", "SF_14": 2.0, "SF_15": 2.0, "cnty": "Ocean", "st": "NJ", "Zip": 8005.0, "O_14": 3.0, "Q_15": 3.0, "O_15": 2.0, "city": "BARNEGAT", "beds": 115.0, "SR_15": 2.0}, {"Diff_star": 0.0, "addr": "1059 EDINBURG ROAD", "SR_14": 5.0, "Q_14": 4.0, "name": "HAMILTON CONTINUING CARE", "SF_14": 4.0, "SF_15": 3.0, "cnty": "Mercer", "st": "NJ", "Zip": 8690.0, "O_14": 5.0, "Q_15": 4.0, "O_15": 5.0, "city": "HAMILTON", "beds": 180.0, "SR_15": 5.0}, {"Diff_star": -1.0, "addr": "145 STATE PARK ROAD", "SR_14": 4.0, "Q_14": 3.0, "name": "FOREST MANOR HCC", "SF_14": 1.0, "SF_15": 1.0, "cnty": "Warren", "st": "NJ", "Zip": 7844.0, "O_14": 3.0, "Q_15": 1.0, "O_15": 2.0, "city": "HOPE", "beds": 120.0, "SR_15": 4.0}, {"Diff_star": 0.0, "addr": "5101 NORTH PARK DRIVE", "SR_14": 1.0, "Q_14": 4.0, "name": "COOPER RIVER WEST", "SF_14": 2.0, "SF_15": 2.0, "cnty": "Camden", "st": "NJ", "Zip": 8109.0, "O_14": 1.0, "Q_15": 2.0, "O_15": 1.0, "city": "PENNSAUKEN", "beds": 180.0, "SR_15": 1.0}, {"Diff_star": -1.0, "addr": "1 LEISURE COURT", "SR_14": 4.0, "Q_14": 5.0, "name": "HUNTERDON CARE CENTER", "SF_14": 4.0, "SF_15": 4.0, "cnty": "Hunterdon", "st": "NJ", "Zip": 8822.0, "O_14": 5.0, "Q_15": 4.0, "O_15": 4.0, "city": "FLEMINGTON", "beds": 185.0, "SR_15": 4.0}, {"Diff_star": -1.0, "addr": "144 MAGNOLIA DRIVE", "SR_14": 1.0, "Q_14": 3.0, "name": "COURT HOUSE CENTER", "SF_14": 4.0, "SF_15": 3.0, "cnty": "Cape May", "st": "NJ", "Zip": 8210.0, "O_14": 2.0, "Q_15": 2.0, "O_15": 1.0, "city": "CAPE MAY COURT HOUSE", "beds": 120.0, "SR_15": 1.0}, {"Diff_star": 0.0, "addr": "1433 RINGWOOD AVE", "SR_14": 2.0, "Q_14": 5.0, "name": "WANAQUE CENTER FOR NURSING & REHABILITATION, THE", "SF_14": 4.0, "SF_15": 4.0, "cnty": "Passaic", "st": "NJ", "Zip": 7420.0, "O_14": 4.0, "Q_15": 5.0, "O_15": 4.0, "city": "HASKELL", "beds": 227.0, "SR_15": 2.0}, {"Diff_star": -1.0, "addr": "535 EGG HARBOR ROAD", "SR_14": 2.0, "Q_14": 4.0, "name": "KENNEDY HEALTH CARE CENTER", "SF_14": 4.0, "SF_15": 3.0, "cnty": "Gloucester", "st": "NJ", "Zip": 8080.0, "O_14": 3.0, "Q_15": 4.0, "O_15": 2.0, "city": "SEWELL", "beds": 190.0, "SR_15": 2.0}, {"Diff_star": -1.0, "addr": "1640 SOUTH LINCOLN AVENUE", "SR_14": 4.0, "Q_14": 5.0, "name": "LINCOLN SPECIALTY CARE CENTER", "SF_14": 2.0, "SF_15": 2.0, "cnty": "Cumberland", "st": "NJ", "Zip": 8360.0, "O_14": 5.0, "Q_15": 4.0, "O_15": 4.0, "city": "VINELAND", "beds": 180.0, "SR_15": 4.0}, {"Diff_star": 0.0, "addr": "261 TERHUNE DRIVE", "SR_14": 4.0, "Q_14": 5.0, "name": "OAK RIDGE REHABILITATION & NC", "SF_14": 3.0, "SF_15": 3.0, "cnty": "Passaic", "st": "NJ", "Zip": 7470.0, "O_14": 5.0, "Q_15": 5.0, "O_15": 5.0, "city": "WAYNE", "beds": 120.0, "SR_15": 4.0}, {"Diff_star": 0.0, "addr": "325 JERSEY STREET", "SR_14": 3.0, "Q_14": 4.0, "name": "RIVERSIDE NURSING AND REHABILITATION CENTER", "SF_14": 3.0, "SF_15": 3.0, "cnty": "Mercer", "st": "NJ", "Zip": 8611.0, "O_14": 3.0, "Q_15": 2.0, "O_15": 3.0, "city": "TRENTON", "beds": 131.0, "SR_15": 3.0}, {"Diff_star": 0.0, "addr": "65 JAY STREET", "SR_14": 1.0, "Q_14": 5.0, "name": "SINAI POST ACUTE NURSING AND REHAB CENTER", "SF_14": 3.0, "SF_15": 3.0, "cnty": "Essex", "st": "NJ", "Zip": 7103.0, "O_14": 2.0, "Q_15": 5.0, "O_15": 2.0, "city": "NEWARK", "beds": 430.0, "SR_15": 1.0}, {"Diff_star": 0.0, "addr": "449 S PENNSVILLE-AUBURN ROAD", "SR_14": 2.0, "Q_14": 4.0, "name": "SOUTHGATE HEALTH CARE CTR", "SF_14": 4.0, "SF_15": 4.0, "cnty": "Salem", "st": "NJ", "Zip": 8069.0, "O_14": 3.0, "Q_15": 3.0, "O_15": 3.0, "city": "CARNEYS POINT", "beds": 150.0, "SR_15": 2.0}, {"Diff_star": 0.0, "addr": "150 NEW PROVIDENCE ROAD", "SR_14": 4.0, "Q_14": 5.0, "name": "CHILDRENS SPECIALIZED HOSPITAL MOUNTAINSIDE", "SF_14": 5.0, "SF_15": 5.0, "cnty": "Union", "st": "NJ", "Zip": 7092.0, "O_14": 5.0, "Q_15": 5.0, "O_15": 5.0, "city": "MOUNTAINSIDE", "beds": 46.0, "SR_15": 4.0}, {"Diff_star": 0.0, "addr": "11 HISTORY LANE", "SR_14": 1.0, "Q_14": 5.0, "name": "CARE ONE AT JACKSON", "SF_14": 4.0, "SF_15": 4.0, "cnty": "Ocean", "st": "NJ", "Zip": 8527.0, "O_14": 2.0, "Q_15": 5.0, "O_15": 2.0, "city": "JACKSON", "beds": 186.0, "SR_15": 1.0}, {"Diff_star": 0.0, "addr": "54 N SHARP STREET", "SR_14": 4.0, "Q_14": 4.0, "name": "MILLVILLE CENTER", "SF_14": 4.0, "SF_15": 4.0, "cnty": "Cumberland", "st": "NJ", "Zip": 8332.0, "O_14": 4.0, "Q_15": 4.0, "O_15": 4.0, "city": "MILLVILLE", "beds": 167.0, "SR_15": 4.0}, {"Diff_star": -1.0, "addr": "1020 PITNEY ROAD", "SR_14": 2.0, "Q_14": 3.0, "name": "ABSECON MANOR NURS/REHAB CNTR", "SF_14": 4.0, "SF_15": 4.0, "cnty": "Atlantic", "st": "NJ", "Zip": 8201.0, "O_14": 3.0, "Q_15": 1.0, "O_15": 2.0, "city": "ABSECON", "beds": 162.0, "SR_15": 2.0}, {"Diff_star": 0.0, "addr": "1399 CHAPEL AVE WEST", "SR_14": 2.0, "Q_14": 4.0, "name": "ARISTACARE AT CHERRY HILL", "SF_14": 4.0, "SF_15": 4.0, "cnty": "Camden", "st": "NJ", "Zip": 8002.0, "O_14": 3.0, "Q_15": 4.0, "O_15": 3.0, "city": "CHERRY HILL", "beds": 120.0, "SR_15": 2.0}, {"Diff_star": 0.0, "addr": "550 JESSUP ROAD", "SR_14": 1.0, "Q_14": 5.0, "name": "MANORCARE HEALTH SERVICES-WEST DEPTFORD", "SF_14": 4.0, "SF_15": 3.0, "cnty": "Gloucester", "st": "NJ", "Zip": 8066.0, "O_14": 2.0, "Q_15": 5.0, "O_15": 2.0, "city": "WEST DEPTFORD", "beds": 156.0, "SR_15": 1.0}, {"Diff_star": 0.0, "addr": "165 FAIRFIELD AVE", "SR_14": 5.0, "Q_14": 5.0, "name": "WEST CALDWELL CC", "SF_14": 3.0, "SF_15": 3.0, "cnty": "Essex", "st": "NJ", "Zip": 7006.0, "O_14": 5.0, "Q_15": 5.0, "O_15": 5.0, "city": "WEST CALDWELL", "beds": 180.0, "SR_15": 5.0}, {"Diff_star": 0.0, "addr": "99 MULFORD ROAD", "SR_14": 1.0, "Q_14": 4.0, "name": "ANDOVER SUBACUTE AND REHAB II", "SF_14": 2.0, "SF_15": 2.0, "cnty": "Sussex", "st": "NJ", "Zip": 7821.0, "O_14": 1.0, "Q_15": 3.0, "O_15": 1.0, "city": "ANDOVER", "beds": 543.0, "SR_15": 1.0}, {"Diff_star": 0.0, "addr": "499 PINE BROOK ROAD", "SR_14": 1.0, "Q_14": 5.0, "name": "LINCOLN PARK CARE CENTER", "SF_14": 4.0, "SF_15": 4.0, "cnty": "Morris", "st": "NJ", "Zip": 7035.0, "O_14": 2.0, "Q_15": 5.0, "O_15": 2.0, "city": "LINCOLN PARK", "beds": 547.0, "SR_15": 1.0}, {"Diff_star": -1.0, "addr": "2048 OAK TREE ROAD", "SR_14": 3.0, "Q_14": 5.0, "name": "HARTWYCK AT OAK TREE", "SF_14": 4.0, "SF_15": 4.0, "cnty": "Middlesex", "st": "NJ", "Zip": 8820.0, "O_14": 5.0, "Q_15": 4.0, "O_15": 4.0, "city": "EDISON", "beds": 120.0, "SR_15": 3.0}, {"Diff_star": 0.0, "addr": "715 NORTH BEERS STREET", "SR_14": 4.0, "Q_14": 5.0, "name": "BAYSHORE HEALTH CARE CENTER", "SF_14": 3.0, "SF_15": 3.0, "cnty": "Monmouth", "st": "NJ", "Zip": 7733.0, "O_14": 5.0, "Q_15": 5.0, "O_15": 5.0, "city": "HOLMDEL", "beds": 231.0, "SR_15": 4.0}, {"Diff_star": -1.0, "addr": "15 DELLWOOD LANE", "SR_14": 4.0, "Q_14": 5.0, "name": "MARGARET MCLAUGHLIN MCCARRICK", "SF_14": 4.0, "SF_15": 4.0, "cnty": "Somerset", "st": "NJ", "Zip": 8873.0, "O_14": 5.0, "Q_15": 4.0, "O_15": 4.0, "city": "SOMERSET", "beds": 120.0, "SR_15": 4.0}, {"Diff_star": 0.0, "addr": "6819 BOULEVARD EAST", "SR_14": 5.0, "Q_14": 5.0, "name": "ALARIS HEALTH AT BOULEVARD EAST", "SF_14": 4.0, "SF_15": 4.0, "cnty": "Hudson", "st": "NJ", "Zip": 7093.0, "O_14": 5.0, "Q_15": 4.0, "O_15": 5.0, "city": "GUTTENBERG", "beds": 108.0, "SR_15": 5.0}, {"Diff_star": -1.0, "addr": "620 MONTGOMERY STREET", "SR_14": 1.0, "Q_14": 5.0, "name": "LIBERTY HOUSE NURSING HOME", "SF_14": 2.0, "SF_15": 2.0, "cnty": "Hudson", "st": "NJ", "Zip": 7302.0, "O_14": 2.0, "Q_15": 4.0, "O_15": 1.0, "city": "JERSEY CITY", "beds": 180.0, "SR_15": 1.0}, {"Diff_star": 0.0, "addr": "1400 ROUTE 70", "SR_14": 5.0, "Q_14": 4.0, "name": "LEISURE PARK HEALTH CENTER", "SF_14": 3.0, "SF_15": 3.0, "cnty": "Ocean", "st": "NJ", "Zip": 8701.0, "O_14": 5.0, "Q_15": 3.0, "O_15": 5.0, "city": "LAKEWOOD", "beds": 60.0, "SR_15": 5.0}, {"Diff_star": -1.0, "addr": "1420 SOUTH BLACK HORSE PIKE", "SR_14": 2.0, "Q_14": 5.0, "name": "MEADOWVIEW NURSING & RESPIRATO", "SF_14": 4.0, "SF_15": 4.0, "cnty": "Gloucester", "st": "NJ", "Zip": 8094.0, "O_14": 4.0, "Q_15": 4.0, "O_15": 3.0, "city": "WILLIAMSTOWN", "beds": 180.0, "SR_15": 2.0}, {"Diff_star": -1.0, "addr": "1180 ROUTE 22 WEST", "SR_14": 3.0, "Q_14": 5.0, "name": "MANOR CARE MOUNTAINSIDE", "SF_14": 4.0, "SF_15": 4.0, "cnty": "Union", "st": "NJ", "Zip": 7092.0, "O_14": 5.0, "Q_15": 3.0, "O_15": 4.0, "city": "MOUNTAINSIDE", "beds": 151.0, "SR_15": 3.0}, {"Diff_star": -1.0, "addr": "600 PEMBERTON BROWN MILLS RD", "SR_14": 4.0, "Q_14": 5.0, "name": "ASPEN HILLS HEALTHCARE CENTER", "SF_14": 4.0, "SF_15": 3.0, "cnty": "Burlington", "st": "NJ", "Zip": 8068.0, "O_14": 5.0, "Q_15": 3.0, "O_15": 4.0, "city": "PEMBERTON", "beds": 172.0, "SR_15": 4.0}, {"Diff_star": 0.0, "addr": "25 FIFTH AVENUE", "SR_14": 3.0, "Q_14": 5.0, "name": "LAKELAND HEALTH CARE CENTER", "SF_14": 2.0, "SF_15": 2.0, "cnty": "Passaic", "st": "NJ", "Zip": 7420.0, "O_14": 4.0, "Q_15": 5.0, "O_15": 4.0, "city": "HASKELL", "beds": 201.0, "SR_15": 3.0}, {"Diff_star": 0.0, "addr": "400 LOCUST STREET", "SR_14": 3.0, "Q_14": 5.0, "name": "HARROGATE", "SF_14": 4.0, "SF_15": 4.0, "cnty": "Ocean", "st": "NJ", "Zip": 8701.0, "O_14": 5.0, "Q_15": 5.0, "O_15": 5.0, "city": "LAKEWOOD", "beds": 68.0, "SR_15": 3.0}, {"Diff_star": -1.0, "addr": "315 WEST MILL ROAD", "SR_14": 3.0, "Q_14": 5.0, "name": "PALACE REHABILITATION AND CARE CENTER, THE", "SF_14": 3.0, "SF_15": 3.0, "cnty": "Burlington", "st": "NJ", "Zip": 8052.0, "O_14": 4.0, "Q_15": 4.0, "O_15": 3.0, "city": "MAPLE SHADE", "beds": 165.0, "SR_15": 3.0}, {"Diff_star": 0.0, "addr": "1351 OLD FREEHOLD ROAD", "SR_14": 3.0, "Q_14": 5.0, "name": "BEY LEA VILLAGE NURSING & REHABILITATION CENTER", "SF_14": 4.0, "SF_15": 4.0, "cnty": "Ocean", "st": "NJ", "Zip": 8753.0, "O_14": 5.0, "Q_15": 5.0, "O_15": 5.0, "city": "TOMS RIVER", "beds": 120.0, "SR_15": 3.0}, {"Diff_star": 0.0, "addr": "1931 LAKEWOOD ROAD", "SR_14": 4.0, "Q_14": 4.0, "name": "GREEN ACRES MANOR", "SF_14": 5.0, "SF_15": 5.0, "cnty": "Ocean", "st": "NJ", "Zip": 8755.0, "O_14": 5.0, "Q_15": 3.0, "O_15": 5.0, "city": "TOMS RIVER", "beds": 185.0, "SR_15": 4.0}, {"Diff_star": -2.0, "addr": "480 PARKWAY DRIVE", "SR_14": 2.0, "Q_14": 5.0, "name": "PARK CRESCENT HEALTHCARE & REHABILITATION CENTER", "SF_14": 4.0, "SF_15": 3.0, "cnty": "Essex", "st": "NJ", "Zip": 7017.0, "O_14": 4.0, "Q_15": 4.0, "O_15": 2.0, "city": "EAST ORANGE", "beds": 190.0, "SR_15": 2.0}, {"Diff_star": 0.0, "addr": "1105 -1115 LINDEN STREET", "SR_14": 2.0, "Q_14": 5.0, "name": "ABIGAIL HOUSE FOR NURSING & REHABILITATION LLC", "SF_14": 2.0, "SF_15": 2.0, "cnty": "Camden", "st": "NJ", "Zip": 8101.0, "O_14": 3.0, "Q_15": 5.0, "O_15": 3.0, "city": "CAMDEN", "beds": 188.0, "SR_15": 2.0}, {"Diff_star": 0.0, "addr": "120 PARK END PLACE", "SR_14": 4.0, "Q_14": 5.0, "name": "BROOKHAVEN HEALTH CARE CENTER", "SF_14": 3.0, "SF_15": 3.0, "cnty": "Essex", "st": "NJ", "Zip": 7018.0, "O_14": 5.0, "Q_15": 5.0, "O_15": 5.0, "city": "EAST ORANGE", "beds": 122.0, "SR_15": 4.0}, {"Diff_star": 0.0, "addr": "ONE DAVID BRAINERD DRIVE", "SR_14": 3.0, "Q_14": 5.0, "name": "MONROE VILLAGE HEALTH CARE CENTER", "SF_14": 4.0, "SF_15": 4.0, "cnty": "Middlesex", "st": "NJ", "Zip": 8831.0, "O_14": 5.0, "Q_15": 5.0, "O_15": 5.0, "city": "MONROE TOWNSHIP", "beds": 60.0, "SR_15": 3.0}, {"Diff_star": -1.0, "addr": "201 FIFTH AVENUE", "SR_14": 3.0, "Q_14": 5.0, "name": "CARNEYS POINT REHABILITATION AND NURSING CENTER", "SF_14": 4.0, "SF_15": 3.0, "cnty": "Salem", "st": "NJ", "Zip": 8069.0, "O_14": 5.0, "Q_15": 5.0, "O_15": 4.0, "city": "CARNEYS POINT", "beds": 161.0, "SR_15": 3.0}, {"Diff_star": -1.0, "addr": "1400 WOODLAND AVE", "SR_14": 3.0, "Q_14": 5.0, "name": "WOODLANDS, THE", "SF_14": 3.0, "SF_15": 3.0, "cnty": "Union", "st": "NJ", "Zip": 7060.0, "O_14": 4.0, "Q_15": 3.0, "O_15": 3.0, "city": "PLAINFIELD", "beds": 120.0, "SR_15": 3.0}, {"Diff_star": 0.0, "addr": "475 JACK MARTIN BLVD", "SR_14": 1.0, "Q_14": 4.0, "name": "LAURELTON VILLAGE", "SF_14": 3.0, "SF_15": 3.0, "cnty": "Ocean", "st": "NJ", "Zip": 8724.0, "O_14": 1.0, "Q_15": 4.0, "O_15": 1.0, "city": "BRICK", "beds": 180.0, "SR_15": 1.0}, {"Diff_star": 0.0, "addr": "963 OCEAN AVE", "SR_14": 3.0, "Q_14": 5.0, "name": "CONCORD HEALTHCARE & REHABILITATION CENTER", "SF_14": 3.0, "SF_15": 3.0, "cnty": "Ocean", "st": "NJ", "Zip": 8701.0, "O_14": 4.0, "Q_15": 5.0, "O_15": 4.0, "city": "LAKEWOOD", "beds": 120.0, "SR_15": 3.0}, {"Diff_star": 0.0, "addr": "69 MAPLE ROAD", "SR_14": 4.0, "Q_14": 5.0, "name": "MILFORD MANOR", "SF_14": 1.0, "SF_15": 1.0, "cnty": "Passaic", "st": "NJ", "Zip": 7480.0, "O_14": 4.0, "Q_15": 5.0, "O_15": 4.0, "city": "WEST MILFORD", "beds": 120.0, "SR_15": 4.0}, {"Diff_star": 0.0, "addr": "10 BRUNSWICK AVENUE", "SR_14": 1.0, "Q_14": 5.0, "name": "JFK HARTWYCK AT EDISON ESTATES", "SF_14": 3.0, "SF_15": 3.0, "cnty": "Middlesex", "st": "NJ", "Zip": 8817.0, "O_14": 2.0, "Q_15": 5.0, "O_15": 2.0, "city": "EDISON", "beds": 280.0, "SR_15": 1.0}, {"Diff_star": 0.0, "addr": "1417 BRACE ROAD", "SR_14": 1.0, "Q_14": 5.0, "name": "ALARIS HEALTH AT CHERRY HILL", "SF_14": 4.0, "SF_15": 4.0, "cnty": "Camden", "st": "NJ", "Zip": 8034.0, "O_14": 2.0, "Q_15": 4.0, "O_15": 2.0, "city": "CHERRY HILL", "beds": 246.0, "SR_15": 1.0}, {"Diff_star": 0.0, "addr": "104 PENSION ROAD", "SR_14": 2.0, "Q_14": 3.0, "name": "PINE BROOK CARE CENTER", "SF_14": 1.0, "SF_15": 1.0, "cnty": "Monmouth", "st": "NJ", "Zip": 7726.0, "O_14": 1.0, "Q_15": 1.0, "O_15": 1.0, "city": "ENGLISHTOWN", "beds": 132.0, "SR_15": 2.0}, {"Diff_star": 0.0, "addr": "2385 SPRINGFIELD AVENUE", "SR_14": 4.0, "Q_14": 5.0, "name": "SOUTH MOUNTAIN HC", "SF_14": 4.0, "SF_15": 4.0, "cnty": "Union", "st": "NJ", "Zip": 7088.0, "O_14": 5.0, "Q_15": 5.0, "O_15": 5.0, "city": "VAUXHALL", "beds": 195.0, "SR_15": 4.0}, {"Diff_star": -1.0, "addr": "229 BATH AVENUE", "SR_14": 2.0, "Q_14": 4.0, "name": "MONMOUTH CARE CENTER", "SF_14": 2.0, "SF_15": 2.0, "cnty": "Monmouth", "st": "NJ", "Zip": 7740.0, "O_14": 2.0, "Q_15": 1.0, "O_15": 1.0, "city": "LONG BRANCH", "beds": 120.0, "SR_15": 2.0}, {"Diff_star": 0.0, "addr": "100 CHAPIN AVENUE", "SR_14": 5.0, "Q_14": 5.0, "name": "CHAPIN HILL AT RED BANK", "SF_14": 2.0, "SF_15": 2.0, "cnty": "Monmouth", "st": "NJ", "Zip": 7701.0, "O_14": 5.0, "Q_15": 5.0, "O_15": 5.0, "city": "RED BANK", "beds": 180.0, "SR_15": 5.0}, {"Diff_star": -1.0, "addr": "175 BARTLEY ROAD", "SR_14": 4.0, "Q_14": 5.0, "name": "BARTLEY HEALTHCARE NURSING & REHABILITATION", "SF_14": 2.0, "SF_15": 2.0, "cnty": "Ocean", "st": "NJ", "Zip": 8527.0, "O_14": 5.0, "Q_15": 4.0, "O_15": 4.0, "city": "JACKSON", "beds": 234.0, "SR_15": 4.0}, {"Diff_star": -1.0, "addr": "1304 LAUREL OAK ROAD", "SR_14": 4.0, "Q_14": 5.0, "name": "VOORHEES PEDIATRIC FACILITY", "SF_14": 5.0, "SF_15": 5.0, "cnty": "Camden", "st": "NJ", "Zip": 8043.0, "O_14": 5.0, "Q_15": 5.0, "O_15": 4.0, "city": "VOORHEES", "beds": 119.0, "SR_15": 2.0}, {"Diff_star": 0.0, "addr": "100 MCCLELLAN STREET", "SR_14": 4.0, "Q_14": 5.0, "name": "BUCKINGHAM AT NORWOOD, THE", "SF_14": 4.0, "SF_15": 4.0, "cnty": "Bergen", "st": "NJ", "Zip": 7648.0, "O_14": 5.0, "Q_15": 5.0, "O_15": 5.0, "city": "NORWOOD", "beds": 240.0, "SR_15": 4.0}, {"Diff_star": 0.0, "addr": "2020 RT 23 NORTH", "SR_14": 3.0, "Q_14": 3.0, "name": "WAYNEVIEW CARE CENTER", "SF_14": 3.0, "SF_15": 2.0, "cnty": "Passaic", "st": "NJ", "Zip": 7470.0, "O_14": 3.0, "Q_15": 2.0, "O_15": 3.0, "city": "WAYNE", "beds": 170.0, "SR_15": 3.0}, {"Diff_star": 0.0, "addr": "APPLEWOOD DRIVE", "SR_14": 4.0, "Q_14": 4.0, "name": "APPLEWOOD ESTATES", "SF_14": 4.0, "SF_15": 4.0, "cnty": "Monmouth", "st": "NJ", "Zip": 7728.0, "O_14": 4.0, "Q_15": 3.0, "O_15": 4.0, "city": "FREEHOLD", "beds": 60.0, "SR_15": 4.0}, {"Diff_star": -1.0, "addr": "3000 HILLTOP ROAD", "SR_14": 2.0, "Q_14": 5.0, "name": "WHITING HEALTH CARE", "SF_14": 2.0, "SF_15": 2.0, "cnty": "Ocean", "st": "NJ", "Zip": 8759.0, "O_14": 3.0, "Q_15": 3.0, "O_15": 2.0, "city": "WHITING", "beds": 200.0, "SR_15": 2.0}, {"Diff_star": 0.0, "addr": "4 MOORE ROAD", "SR_14": 1.0, "Q_14": 3.0, "name": "CREST HAVEN NURSING AND REHABILITATION CENTER", "SF_14": 4.0, "SF_15": 4.0, "cnty": "Cape May", "st": "NJ", "Zip": 8210.0, "O_14": 2.0, "Q_15": 2.0, "O_15": 2.0, "city": "CAPE MAY COURT HOUSE", "beds": 180.0, "SR_15": 1.0}, {"Diff_star": 0.0, "addr": "50 POLIFLY ROAD", "SR_14": 5.0, "Q_14": 5.0, "name": "REGENT CARE CENTER", "SF_14": 3.0, "SF_15": 3.0, "cnty": "Bergen", "st": "NJ", "Zip": 7601.0, "O_14": 5.0, "Q_15": 5.0, "O_15": 5.0, "city": "HACKENSACK", "beds": 180.0, "SR_15": 5.0}, {"Diff_star": 0.0, "addr": "114 HAYES MILL ROAD", "SR_14": 2.0, "Q_14": 5.0, "name": "FOUNTAINS AT CEDAR PARKE, THE", "SF_14": 2.0, "SF_15": 2.0, "cnty": "Camden", "st": "NJ", "Zip": 8004.0, "O_14": 3.0, "Q_15": 5.0, "O_15": 3.0, "city": "ATCO", "beds": 60.0, "SR_15": 2.0}, {"Diff_star": 0.0, "addr": "50 LACEY ROAD", "SR_14": 1.0, "Q_14": 4.0, "name": "CRESTWOOD MANOR", "SF_14": 3.0, "SF_15": 3.0, "cnty": "Ocean", "st": "NJ", "Zip": 8759.0, "O_14": 1.0, "Q_15": 4.0, "O_15": 1.0, "city": "WHITING", "beds": 64.0, "SR_15": 1.0}, {"Diff_star": -1.0, "addr": "2303 WEST BANGS AVE", "SR_14": 3.0, "Q_14": 5.0, "name": "KING MANOR CARE AND REHABILITATION CENTER", "SF_14": 4.0, "SF_15": 4.0, "cnty": "Monmouth", "st": "NJ", "Zip": 7753.0, "O_14": 5.0, "Q_15": 4.0, "O_15": 4.0, "city": "NEPTUNE", "beds": 120.0, "SR_15": 3.0}, {"Diff_star": 0.0, "addr": "525 MONMOUTH STREET", "SR_14": 4.0, "Q_14": 4.0, "name": "ALARIS HEALTH AT HAMILTON PARK", "SF_14": 4.0, "SF_15": 4.0, "cnty": "Hudson", "st": "NJ", "Zip": 7302.0, "O_14": 4.0, "Q_15": 4.0, "O_15": 4.0, "city": "JERSEY CITY", "beds": 260.0, "SR_15": 4.0}, {"Diff_star": -1.0, "addr": "16 CRATETOWN ROAD", "SR_14": 4.0, "Q_14": 5.0, "name": "ROLLING HILLS CARE CENTER", "SF_14": 4.0, "SF_15": 4.0, "cnty": "Hunterdon", "st": "NJ", "Zip": 8833.0, "O_14": 5.0, "Q_15": 4.0, "O_15": 4.0, "city": "LEBANON", "beds": 67.0, "SR_15": 4.0}, {"Diff_star": 0.0, "addr": "540 WEST HANOVER AVENUE", "SR_14": 1.0, "Q_14": 4.0, "name": "MORRIS VIEW HEALTHCARE CENTER", "SF_14": 5.0, "SF_15": 5.0, "cnty": "Morris", "st": "NJ", "Zip": 7950.0, "O_14": 2.0, "Q_15": 2.0, "O_15": 2.0, "city": "MORRIS PLAINS", "beds": 283.0, "SR_15": 1.0}, {"Diff_star": 0.0, "addr": "350 OXFORD ROAD", "SR_14": 4.0, "Q_14": 3.0, "name": "WARREN HAVEN", "SF_14": 4.0, "SF_15": 4.0, "cnty": "Warren", "st": "NJ", "Zip": 7863.0, "O_14": 4.0, "Q_15": 2.0, "O_15": 4.0, "city": "OXFORD", "beds": 180.0, "SR_15": 4.0}, {"Diff_star": -1.0, "addr": "1 LINDBERG AVENUE", "SR_14": 2.0, "Q_14": 5.0, "name": "AMBOY CARE CENTER", "SF_14": 1.0, "SF_15": 1.0, "cnty": "Middlesex", "st": "NJ", "Zip": 8861.0, "O_14": 2.0, "Q_15": 4.0, "O_15": 1.0, "city": "PERTH AMBOY", "beds": 179.0, "SR_15": 2.0}, {"Diff_star": -1.0, "addr": "800 RIVER ROAD", "SR_14": 2.0, "Q_14": 5.0, "name": "WOODCREST HEALTH CARE CENTER", "SF_14": 2.0, "SF_15": 2.0, "cnty": "Bergen", "st": "NJ", "Zip": 7646.0, "O_14": 3.0, "Q_15": 4.0, "O_15": 2.0, "city": "NEW MILFORD", "beds": 236.0, "SR_15": 2.0}, {"Diff_star": 0.0, "addr": "7600 RIVER ROAD", "SR_14": 5.0, "Q_14": 5.0, "name": "HARBORAGE", "SF_14": 3.0, "SF_15": 3.0, "cnty": "Hudson", "st": "NJ", "Zip": 7047.0, "O_14": 5.0, "Q_15": 5.0, "O_15": 5.0, "city": "NORTH BERGEN", "beds": 247.0, "SR_15": 5.0}, {"Diff_star": 0.0, "addr": "96 PARKWAY AVENUE", "SR_14": 2.0, "Q_14": 5.0, "name": "ALARIS HEALTH AT ROCHELLE PARK", "SF_14": 3.0, "SF_15": 3.0, "cnty": "Bergen", "st": "NJ", "Zip": 7662.0, "O_14": 3.0, "Q_15": 5.0, "O_15": 3.0, "city": "ROCHELLE PARK", "beds": 240.0, "SR_15": 2.0}, {"Diff_star": 0.0, "addr": "23 SCHOOLHOUSE ROAD", "SR_14": 2.0, "Q_14": 5.0, "name": "ARISTACARE AT WHITING", "SF_14": 4.0, "SF_15": 4.0, "cnty": "Ocean", "st": "NJ", "Zip": 8759.0, "O_14": 4.0, "Q_15": 5.0, "O_15": 4.0, "city": "WHITING", "beds": 180.0, "SR_15": 2.0}, {"Diff_star": 0.0, "addr": "178-198 OGDEN AVE", "SR_14": 4.0, "Q_14": 5.0, "name": "ALARIS HEALTH AT HARBOR VIEW", "SF_14": 4.0, "SF_15": 3.0, "cnty": "Hudson", "st": "NJ", "Zip": 7307.0, "O_14": 5.0, "Q_15": 5.0, "O_15": 5.0, "city": "JERSEY CITY", "beds": 180.0, "SR_15": 4.0}, {"Diff_star": 0.0, "addr": "843 WILBUR AVENUE", "SR_14": 3.0, "Q_14": 4.0, "name": "PHILLIPSBURG CENTER", "SF_14": 2.0, "SF_15": 2.0, "cnty": "Warren", "st": "NJ", "Zip": 8865.0, "O_14": 3.0, "Q_15": 2.0, "O_15": 3.0, "city": "PHILLIPSBURG", "beds": 60.0, "SR_15": 3.0}, {"Diff_star": 0.0, "addr": "94 STEVENS ROAD", "SR_14": 4.0, "Q_14": 5.0, "name": "HAMPTON RIDGE HEALTHCARE AND REHABILITATION", "SF_14": 3.0, "SF_15": 3.0, "cnty": "Ocean", "st": "NJ", "Zip": 8755.0, "O_14": 5.0, "Q_15": 5.0, "O_15": 5.0, "city": "TOMS RIVER", "beds": 204.0, "SR_15": 4.0}, {"Diff_star": 0.0, "addr": "221 COUNTY ROAD", "SR_14": 3.0, "Q_14": 4.0, "name": "CARE ONE AT CRESSKILL", "SF_14": 4.0, "SF_15": 4.0, "cnty": "Bergen", "st": "NJ", "Zip": 7626.0, "O_14": 4.0, "Q_15": 3.0, "O_15": 4.0, "city": "CRESSKILL", "beds": 100.0, "SR_15": 3.0}, {"Diff_star": 0.0, "addr": "3325 HIGHWAY 35", "SR_14": 5.0, "Q_14": 4.0, "name": "REGENCY PARK NURSING CENTER", "SF_14": 3.0, "SF_15": 3.0, "cnty": "Monmouth", "st": "NJ", "Zip": 7730.0, "O_14": 5.0, "Q_15": 2.0, "O_15": 5.0, "city": "HAZLET", "beds": 170.0, "SR_15": 5.0}, {"Diff_star": 0.0, "addr": "290 RED SCHOOL LANE", "SR_14": 5.0, "Q_14": 5.0, "name": "BRAKELEY PARK CENTER", "SF_14": 4.0, "SF_15": 3.0, "cnty": "Warren", "st": "NJ", "Zip": 8865.0, "O_14": 5.0, "Q_15": 3.0, "O_15": 5.0, "city": "PHILLIPSBURG", "beds": 120.0, "SR_15": 5.0}, {"Diff_star": 0.0, "addr": "29 NORTH VERMONT AVE", "SR_14": 2.0, "Q_14": 4.0, "name": "EASTERN PINES CONV CTR", "SF_14": 3.0, "SF_15": 3.0, "cnty": "Atlantic", "st": "NJ", "Zip": 8401.0, "O_14": 2.0, "Q_15": 4.0, "O_15": 2.0, "city": "ATLANTIC CITY", "beds": 151.0, "SR_15": 2.0}, {"Diff_star": 0.0, "addr": "1-3 ST JOSEPH'S TERRACE", "SR_14": 5.0, "Q_14": 5.0, "name": "ST JOSEPH'S HOME AL & NC, INC", "SF_14": 4.0, "SF_15": 4.0, "cnty": "Middlesex", "st": "NJ", "Zip": 7095.0, "O_14": 5.0, "Q_15": 5.0, "O_15": 5.0, "city": "WOODBRIDGE", "beds": 51.0, "SR_15": 5.0}, {"Diff_star": 0.0, "addr": "4 PLAZA DRIVE", "SR_14": 3.0, "Q_14": 5.0, "name": "HOLIDAY CARE CENTER", "SF_14": 2.0, "SF_15": 2.0, "cnty": "Ocean", "st": "NJ", "Zip": 8757.0, "O_14": 4.0, "Q_15": 5.0, "O_15": 4.0, "city": "TOMS RIVER", "beds": 180.0, "SR_15": 3.0}, {"Diff_star": 0.0, "addr": "6989 RT18", "SR_14": 1.0, "Q_14": 3.0, "name": "GOLDEN LIVINGCENTER - OLD BRIDGE", "SF_14": 3.0, "SF_15": 3.0, "cnty": "Middlesex", "st": "NJ", "Zip": 8857.0, "O_14": 1.0, "Q_15": 1.0, "O_15": 1.0, "city": "OLD BRIDGE", "beds": 140.0, "SR_15": 1.0}, {"Diff_star": 0.0, "addr": "311 S LIVINGSTON AVE", "SR_14": 1.0, "Q_14": 5.0, "name": "INGLEMOOR REHABILITATION AND CARE CENTER OF LIVING", "SF_14": 4.0, "SF_15": 4.0, "cnty": "Essex", "st": "NJ", "Zip": 7039.0, "O_14": 2.0, "Q_15": 5.0, "O_15": 2.0, "city": "LIVINGSTON", "beds": 130.0, "SR_15": 1.0}, {"Diff_star": 0.0, "addr": "512 UNION STREET", "SR_14": 1.0, "Q_14": 4.0, "name": "WATERS EDGE HEALTHCARE & REHAB", "SF_14": 1.0, "SF_15": 1.0, "cnty": "Mercer", "st": "NJ", "Zip": 8611.0, "O_14": 1.0, "Q_15": 2.0, "O_15": 1.0, "city": "TRENTON", "beds": 215.0, "SR_15": 1.0}, {"Diff_star": 0.0, "addr": "527 RIVER AVE", "SR_14": 4.0, "Q_14": 4.0, "name": "FOUNTAIN VIEW CARE CENTER", "SF_14": 3.0, "SF_15": 3.0, "cnty": "Ocean", "st": "NJ", "Zip": 8701.0, "O_14": 4.0, "Q_15": 2.0, "O_15": 4.0, "city": "LAKEWOOD", "beds": 123.0, "SR_15": 4.0}, {"Diff_star": -1.0, "addr": "12-15 SADDLE RIVER ROAD", "SR_14": 3.0, "Q_14": 4.0, "name": "MAPLE GLEN CENTER", "SF_14": 4.0, "SF_15": 3.0, "cnty": "Bergen", "st": "NJ", "Zip": 7410.0, "O_14": 4.0, "Q_15": 3.0, "O_15": 3.0, "city": "FAIRLAWN", "beds": 161.0, "SR_15": 3.0}, {"Diff_star": -1.0, "addr": "21 POCONO ROAD", "SR_14": 4.0, "Q_14": 5.0, "name": "FRANCISCAN OAKS HC", "SF_14": 4.0, "SF_15": 4.0, "cnty": "Morris", "st": "NJ", "Zip": 7834.0, "O_14": 5.0, "Q_15": 4.0, "O_15": 4.0, "city": "DENVILLE", "beds": 84.0, "SR_15": 4.0}, {"Diff_star": 0.0, "addr": "2305 RANCOCAS ROAD", "SR_14": 2.0, "Q_14": 4.0, "name": "MARCELLA CENTER", "SF_14": 4.0, "SF_15": 4.0, "cnty": "Burlington", "st": "NJ", "Zip": 8016.0, "O_14": 3.0, "Q_15": 3.0, "O_15": 3.0, "city": "BURLINGTON", "beds": 156.0, "SR_15": 2.0}, {"Diff_star": 0.0, "addr": "77 EAST 43RD STREET", "SR_14": 1.0, "Q_14": 5.0, "name": "ALARIS HEALTH AT PASSAIC COUNTY", "SF_14": 3.0, "SF_15": 3.0, "cnty": "Passaic", "st": "NJ", "Zip": 7514.0, "O_14": 2.0, "Q_15": 5.0, "O_15": 2.0, "city": "PATERSON", "beds": 180.0, "SR_15": 1.0}, {"Diff_star": -1.0, "addr": "1361 ROUTE 72 WEST", "SR_14": 4.0, "Q_14": 5.0, "name": "SOUTHERN OCEAN CENTER", "SF_14": 3.0, "SF_15": 3.0, "cnty": "Ocean", "st": "NJ", "Zip": 8050.0, "O_14": 5.0, "Q_15": 4.0, "O_15": 4.0, "city": "MANAHAWKIN", "beds": 136.0, "SR_15": 4.0}, {"Diff_star": -1.0, "addr": "1750 ROUTE 37 WEST", "SR_14": 2.0, "Q_14": 5.0, "name": "ARBORS CARE CENTER", "SF_14": 2.0, "SF_15": 2.0, "cnty": "Ocean", "st": "NJ", "Zip": 8757.0, "O_14": 3.0, "Q_15": 4.0, "O_15": 2.0, "city": "TOMS RIVER", "beds": 120.0, "SR_15": 2.0}, {"Diff_star": 0.0, "addr": "1120 ALPS ROAD", "SR_14": 2.0, "Q_14": 5.0, "name": "ATRIUM AT WAYNE SUBACUTE & REHABILITATION, THE", "SF_14": 3.0, "SF_15": 3.0, "cnty": "Passaic", "st": "NJ", "Zip": 7470.0, "O_14": 3.0, "Q_15": 5.0, "O_15": 3.0, "city": "WAYNE", "beds": 209.0, "SR_15": 2.0}, {"Diff_star": -1.0, "addr": "189 APPLEGARTH ROAD", "SR_14": 2.0, "Q_14": 5.0, "name": "GARDENS AT MONROE HEALTHCARE AND REHABILITATION, T", "SF_14": 4.0, "SF_15": 3.0, "cnty": "Middlesex", "st": "NJ", "Zip": 8831.0, "O_14": 4.0, "Q_15": 5.0, "O_15": 3.0, "city": "MONROE TOWNSHIP", "beds": 136.0, "SR_15": 2.0}, {"Diff_star": 0.0, "addr": "1633 HIGHWAY 22", "SR_14": 4.0, "Q_14": 5.0, "name": "MCAULEY HALL HEALTH CARE CENTE", "SF_14": 3.0, "SF_15": 3.0, "cnty": "Somerset", "st": "NJ", "Zip": 7069.0, "O_14": 5.0, "Q_15": 5.0, "O_15": 5.0, "city": "WATCHUNG", "beds": 74.0, "SR_15": 4.0}, {"Diff_star": 0.0, "addr": "1 BISHOPS DRIVE", "SR_14": 4.0, "Q_14": 5.0, "name": "MORRIS HALL/ST JOSEPH'S NURSING CENTER", "SF_14": 3.0, "SF_15": 3.0, "cnty": "Mercer", "st": "NJ", "Zip": 8648.0, "O_14": 5.0, "Q_15": 5.0, "O_15": 5.0, "city": "LAWRENCEVILLE", "beds": 120.0, "SR_15": 4.0}, {"Diff_star": 0.0, "addr": "600 KINDERKAMACK ROAD", "SR_14": 2.0, "Q_14": 4.0, "name": "ORADELL HEALTH CARE CENTER", "SF_14": 3.0, "SF_15": 3.0, "cnty": "Bergen", "st": "NJ", "Zip": 7649.0, "O_14": 2.0, "Q_15": 4.0, "O_15": 2.0, "city": "ORADELL", "beds": 154.0, "SR_15": 2.0}, {"Diff_star": 0.0, "addr": "22 WEST JIMMIE LEEDS ROAD", "SR_14": 1.0, "Q_14": 4.0, "name": "SEASHORE GARDENS LIVING CENTER", "SF_14": 2.0, "SF_15": 2.0, "cnty": "Atlantic", "st": "NJ", "Zip": 8205.0, "O_14": 1.0, "Q_15": 2.0, "O_15": 1.0, "city": "GALLOWAY TOWNSHIP", "beds": 151.0, "SR_15": 1.0}, {"Diff_star": 0.0, "addr": "1213 WESTFIELD AVENUE", "SR_14": 3.0, "Q_14": 5.0, "name": "CLARK NURSING AND REHAB CNTR", "SF_14": 3.0, "SF_15": 3.0, "cnty": "Union", "st": "NJ", "Zip": 7066.0, "O_14": 4.0, "Q_15": 5.0, "O_15": 4.0, "city": "CLARK", "beds": 140.0, "SR_15": 3.0}, {"Diff_star": 0.0, "addr": "415 JACK MARTIN BLVD", "SR_14": 5.0, "Q_14": 5.0, "name": "MERIDIAN NURSING AND REHABILITATION AT BRICK", "SF_14": 4.0, "SF_15": 4.0, "cnty": "Ocean", "st": "NJ", "Zip": 8724.0, "O_14": 5.0, "Q_15": 5.0, "O_15": 5.0, "city": "BRICK", "beds": 137.0, "SR_15": 5.0}, {"Diff_star": 0.0, "addr": "298 BROADWAY", "SR_14": 1.0, "Q_14": 3.0, "name": "BROADWAY HOUSE FOR CONTINUING", "SF_14": 5.0, "SF_15": 5.0, "cnty": "Essex", "st": "NJ", "Zip": 7104.0, "O_14": 2.0, "Q_15": 2.0, "O_15": 2.0, "city": "NEWARK", "beds": 78.0, "SR_15": 1.0}, {"Diff_star": 0.0, "addr": "615 23RD STREET", "SR_14": 3.0, "Q_14": 5.0, "name": "ALARIS HEALTH AT CASTLE HILL", "SF_14": 3.0, "SF_15": 3.0, "cnty": "Hudson", "st": "NJ", "Zip": 7087.0, "O_14": 4.0, "Q_15": 5.0, "O_15": 4.0, "city": "UNION CITY", "beds": 215.0, "SR_15": 3.0}, {"Diff_star": 0.0, "addr": "1 VETERANS DRIVE", "SR_14": 2.0, "Q_14": 4.0, "name": "N J VETERANS MEM HOME PARAMUS", "SF_14": 4.0, "SF_15": 4.0, "cnty": "Bergen", "st": "NJ", "Zip": 7652.0, "O_14": 3.0, "Q_15": 3.0, "O_15": 3.0, "city": "PARAMUS", "beds": 336.0, "SR_15": 2.0}, {"Diff_star": 0.0, "addr": "507 ROUTE 530", "SR_14": 5.0, "Q_14": 5.0, "name": "HAMILTON PLACE AT THE PINES AT WHITING", "SF_14": 1.0, "SF_15": 1.0, "cnty": "Ocean", "st": "NJ", "Zip": 8759.0, "O_14": 5.0, "Q_15": 5.0, "O_15": 5.0, "city": "WHITING", "beds": 66.0, "SR_15": 5.0}, {"Diff_star": 0.0, "addr": "255 UNION AVE", "SR_14": 2.0, "Q_14": 4.0, "name": "HEALTH CENTER AT BLOOMINGDALE", "SF_14": 3.0, "SF_15": 3.0, "cnty": "Passaic", "st": "NJ", "Zip": 7403.0, "O_14": 2.0, "Q_15": 3.0, "O_15": 2.0, "city": "BLOOMINGDALE", "beds": 120.0, "SR_15": 2.0}, {"Diff_star": 0.0, "addr": "333 GRAND AVE", "SR_14": 4.0, "Q_14": 4.0, "name": "INGLEMOOR CENTER", "SF_14": 4.0, "SF_15": 3.0, "cnty": "Bergen", "st": "NJ", "Zip": 7631.0, "O_14": 4.0, "Q_15": 4.0, "O_15": 4.0, "city": "ENGLEWOOD", "beds": 62.0, "SR_15": 4.0}, {"Diff_star": 0.0, "addr": "700 TOWNBANK ROAD", "SR_14": 4.0, "Q_14": 4.0, "name": "NORTH CAPE CENTER", "SF_14": 3.0, "SF_15": 3.0, "cnty": "Cape May", "st": "NJ", "Zip": 8204.0, "O_14": 4.0, "Q_15": 3.0, "O_15": 4.0, "city": "CAPE MAY", "beds": 120.0, "SR_15": 4.0}, {"Diff_star": 0.0, "addr": "1801 OAKTREE ROAD", "SR_14": 2.0, "Q_14": 4.0, "name": "BRIGHTON GARDENS OF EDISON", "SF_14": 5.0, "SF_15": 4.0, "cnty": "Middlesex", "st": "NJ", "Zip": 8820.0, "O_14": 3.0, "Q_15": 3.0, "O_15": 3.0, "city": "EDISON", "beds": 30.0, "SR_15": 2.0}, {"Diff_star": 0.0, "addr": "135 SOUTH CENTER STREET", "SR_14": 2.0, "Q_14": 5.0, "name": "ALARIS HEALTH AT ST MARY'S", "SF_14": 4.0, "SF_15": 4.0, "cnty": "Essex", "st": "NJ", "Zip": 7050.0, "O_14": 4.0, "Q_15": 5.0, "O_15": 4.0, "city": "ORANGE", "beds": 188.0, "SR_15": 2.0}, {"Diff_star": -1.0, "addr": "292 APPLEGARTH ROAD", "SR_14": 4.0, "Q_14": 3.0, "name": "CRANBURY CENTER", "SF_14": 4.0, "SF_15": 4.0, "cnty": "Middlesex", "st": "NJ", "Zip": 8831.0, "O_14": 4.0, "Q_15": 1.0, "O_15": 3.0, "city": "MONROE TOWNSHIP", "beds": 154.0, "SR_15": 4.0}, {"Diff_star": 0.0, "addr": "2501 RAMSHORN DRIVE", "SR_14": 4.0, "Q_14": 5.0, "name": "SUNNYSIDE MANOR, INC", "SF_14": 4.0, "SF_15": 4.0, "cnty": "Monmouth", "st": "NJ", "Zip": 8736.0, "O_14": 5.0, "Q_15": 5.0, "O_15": 5.0, "city": "MANASQUAN", "beds": 54.0, "SR_15": 4.0}, {"Diff_star": -1.0, "addr": "65 NORTH SUSSEX STREET", "SR_14": 3.0, "Q_14": 5.0, "name": "REGENCY GRANDE NURS & REHAB CE", "SF_14": 4.0, "SF_15": 4.0, "cnty": "Morris", "st": "NJ", "Zip": 7801.0, "O_14": 5.0, "Q_15": 4.0, "O_15": 4.0, "city": "DOVER", "beds": 155.0, "SR_15": 3.0}, {"Diff_star": 0.0, "addr": "8000 FELLOWSHIP DRIVE", "SR_14": 4.0, "Q_14": 4.0, "name": "SKILLED NURSING AT FELLOWSHIP VILLAGE", "SF_14": 5.0, "SF_15": 5.0, "cnty": "Somerset", "st": "NJ", "Zip": 7920.0, "O_14": 5.0, "Q_15": 4.0, "O_15": 5.0, "city": "BASKING RIDGE", "beds": 54.0, "SR_15": 4.0}, {"Diff_star": 1.0, "addr": "110 GROVE AVE", "SR_14": 2.0, "Q_14": 5.0, "name": "ALARIS HEALTH AT CEDAR GROVE", "SF_14": 4.0, "SF_15": 4.0, "cnty": "Essex", "st": "NJ", "Zip": 7009.0, "O_14": 4.0, "Q_15": 5.0, "O_15": 5.0, "city": "CEDAR GROVE", "beds": 230.0, "SR_15": 3.0}, {"Diff_star": 0.0, "addr": "235 DOLPHIN AVE", "SR_14": 1.0, "Q_14": 4.0, "name": "MEADOWVIEW NURSING AND REHABILITATION CENTER", "SF_14": 2.0, "SF_15": 2.0, "cnty": "Atlantic", "st": "NJ", "Zip": 8225.0, "O_14": 1.0, "Q_15": 2.0, "O_15": 1.0, "city": "NORTHFIELD", "beds": 180.0, "SR_15": 1.0}, {"Diff_star": 0.0, "addr": "155 FORTIETH STREET", "SR_14": 5.0, "Q_14": 5.0, "name": "ALARIS HEALTH AT ESSEX", "SF_14": 3.0, "SF_15": 3.0, "cnty": "Essex", "st": "NJ", "Zip": 7111.0, "O_14": 5.0, "Q_15": 5.0, "O_15": 5.0, "city": "IRVINGTON", "beds": 212.0, "SR_15": 5.0}, {"Diff_star": 0.0, "addr": "100 KINDERKAMACK ROAD", "SR_14": 5.0, "Q_14": 5.0, "name": "EMERSON HEALTH CARE CENTER", "SF_14": 3.0, "SF_15": 3.0, "cnty": "Bergen", "st": "NJ", "Zip": 7630.0, "O_14": 5.0, "Q_15": 5.0, "O_15": 5.0, "city": "EMERSON", "beds": 155.0, "SR_15": 5.0}, {"Diff_star": 0.0, "addr": "305 OLDHAM ROAD", "SR_14": 1.0, "Q_14": 4.0, "name": "PREAKNESS HEALTHCARE CENTER", "SF_14": 4.0, "SF_15": 4.0, "cnty": "Passaic", "st": "NJ", "Zip": 7470.0, "O_14": 2.0, "Q_15": 2.0, "O_15": 2.0, "city": "WAYNE", "beds": 406.0, "SR_15": 1.0}, {"Diff_star": 0.0, "addr": "2 DEER PARK DRIVE", "SR_14": 4.0, "Q_14": 5.0, "name": "PARK PLACE CENTER", "SF_14": 3.0, "SF_15": 3.0, "cnty": "Middlesex", "st": "NJ", "Zip": 8852.0, "O_14": 5.0, "Q_15": 5.0, "O_15": 5.0, "city": "MONMOUTH JUNCTION", "beds": 96.0, "SR_15": 4.0}, {"Diff_star": 0.0, "addr": "111-115 GATES AVENUE", "SR_14": 4.0, "Q_14": 5.0, "name": "GATES MANOR", "SF_14": 3.0, "SF_15": 3.0, "cnty": "Essex", "st": "NJ", "Zip": 7042.0, "O_14": 5.0, "Q_15": 5.0, "O_15": 5.0, "city": "MONTCLAIR", "beds": 64.0, "SR_15": 4.0}, {"Diff_star": 0.0, "addr": "3 INDUSTRIAL WAY EAST", "SR_14": 3.0, "Q_14": 4.0, "name": "JERSEY SHORE CENTER", "SF_14": 3.0, "SF_15": 3.0, "cnty": "Monmouth", "st": "NJ", "Zip": 7724.0, "O_14": 3.0, "Q_15": 4.0, "O_15": 3.0, "city": "EATONTOWN", "beds": 158.0, "SR_15": 3.0}, {"Diff_star": 0.0, "addr": "160 MAIN STREET", "SR_14": 4.0, "Q_14": 5.0, "name": "MERIDIAN NURSING AND REHABILITATION AT OCEAN GROVE", "SF_14": 4.0, "SF_15": 4.0, "cnty": "Monmouth", "st": "NJ", "Zip": 7756.0, "O_14": 5.0, "Q_15": 5.0, "O_15": 5.0, "city": "OCEAN GROVE", "beds": 147.0, "SR_15": 4.0}, {"Diff_star": 0.0, "addr": "195 BELGROVE DRIVE", "SR_14": 3.0, "Q_14": 5.0, "name": "ALARIS HEALTH AT BELGROVE", "SF_14": 4.0, "SF_15": 4.0, "cnty": "Hudson", "st": "NJ", "Zip": 7032.0, "O_14": 5.0, "Q_15": 5.0, "O_15": 5.0, "city": "KEARNY", "beds": 120.0, "SR_15": 3.0}, {"Diff_star": 0.0, "addr": "380 DEMOTT LANE", "SR_14": 3.0, "Q_14": 4.0, "name": "REGENCY HERITAGE NURSING AND REHABILITATION CENTER", "SF_14": 2.0, "SF_15": 2.0, "cnty": "Somerset", "st": "NJ", "Zip": 8873.0, "O_14": 3.0, "Q_15": 3.0, "O_15": 3.0, "city": "SOMERSET", "beds": 265.0, "SR_15": 3.0}, {"Diff_star": 0.0, "addr": "117 COUNTY ROAD 513", "SR_14": 2.0, "Q_14": 3.0, "name": "VALLEY VIEW HEALTH CARE CTR", "SF_14": 3.0, "SF_15": 3.0, "cnty": "Hunterdon", "st": "NJ", "Zip": 8825.0, "O_14": 2.0, "Q_15": 2.0, "O_15": 2.0, "city": "FRENCHTOWN", "beds": 45.0, "SR_15": 2.0}, {"Diff_star": 0.0, "addr": "300 OLD HOOK ROAD", "SR_14": 3.0, "Q_14": 5.0, "name": "CARE ONE AT VALLEY", "SF_14": 5.0, "SF_15": 5.0, "cnty": "Bergen", "st": "NJ", "Zip": 7675.0, "O_14": 5.0, "Q_15": 5.0, "O_15": 5.0, "city": "WESTWOOD", "beds": 120.0, "SR_15": 3.0}, {"Diff_star": 0.0, "addr": "5000 WINDROW DRIVE", "SR_14": 4.0, "Q_14": 5.0, "name": "PAVILLIONS AT FORRESTAL HEALTH AND REHABILITATION", "SF_14": 1.0, "SF_15": 1.0, "cnty": "Mercer", "st": "NJ", "Zip": 8540.0, "O_14": 4.0, "Q_15": 5.0, "O_15": 4.0, "city": "PRINCETON", "beds": 180.0, "SR_15": 4.0}, {"Diff_star": 0.0, "addr": "560 BERKELEY AVENUE", "SR_14": 4.0, "Q_14": 5.0, "name": "WHITE HOUSE HLTHCR & REHAB CTR", "SF_14": 3.0, "SF_15": 3.0, "cnty": "Essex", "st": "NJ", "Zip": 7050.0, "O_14": 5.0, "Q_15": 5.0, "O_15": 5.0, "city": "ORANGE", "beds": 176.0, "SR_15": 4.0}, {"Diff_star": 1.0, "addr": "810 NEWMAN SPRINGS RD", "SR_14": 4.0, "Q_14": 4.0, "name": "DE LA SALLE HALL", "SF_14": 2.0, "SF_15": 2.0, "cnty": "Monmouth", "st": "NJ", "Zip": 7738.0, "O_14": 4.0, "Q_15": 5.0, "O_15": 5.0, "city": "LINCROFT", "beds": 32.0, "SR_15": 4.0}, {"Diff_star": 0.0, "addr": "497 MT PROSPECT AVE", "SR_14": 1.0, "Q_14": 5.0, "name": "FOREST HILL HEALTHCARE CENTER", "SF_14": 2.0, "SF_15": 2.0, "cnty": "Essex", "st": "NJ", "Zip": 7104.0, "O_14": 2.0, "Q_15": 5.0, "O_15": 2.0, "city": "NEWARK", "beds": 120.0, "SR_15": 1.0}, {"Diff_star": -2.0, "addr": "301 SICOMAC AVE", "SR_14": 3.0, "Q_14": 5.0, "name": "CHRISTIAN HEALTH CARE CENTER", "SF_14": 4.0, "SF_15": 4.0, "cnty": "Bergen", "st": "NJ", "Zip": 7481.0, "O_14": 5.0, "Q_15": 4.0, "O_15": 3.0, "city": "WYCKOFF", "beds": 298.0, "SR_15": 2.0}, {"Diff_star": -1.0, "addr": "175 WEST HUDSON AVE", "SR_14": 4.0, "Q_14": 5.0, "name": "ACTORS FUND HOME, THE", "SF_14": 4.0, "SF_15": 4.0, "cnty": "Bergen", "st": "NJ", "Zip": 7631.0, "O_14": 5.0, "Q_15": 4.0, "O_15": 4.0, "city": "ENGLEWOOD", "beds": 82.0, "SR_15": 4.0}, {"Diff_star": -1.0, "addr": "129 MORRIS TURNPIKE", "SR_14": 3.0, "Q_14": 5.0, "name": "HOMESTEAD REHABILITATION & HEALTH CARE CENTER", "SF_14": 4.0, "SF_15": 3.0, "cnty": "Sussex", "st": "NJ", "Zip": 7860.0, "O_14": 5.0, "Q_15": 5.0, "O_15": 4.0, "city": "NEWTON", "beds": 102.0, "SR_15": 3.0}, {"Diff_star": 0.0, "addr": "111 ROUTE 516", "SR_14": 2.0, "Q_14": 5.0, "name": "SUMMER HILL NURSING HOME", "SF_14": 3.0, "SF_15": 3.0, "cnty": "Middlesex", "st": "NJ", "Zip": 8857.0, "O_14": 3.0, "Q_15": 5.0, "O_15": 3.0, "city": "OLD BRIDGE", "beds": 120.0, "SR_15": 2.0}, {"Diff_star": 0.0, "addr": "9 RIDGEDALE AVE", "SR_14": 4.0, "Q_14": 3.0, "name": "CHESHIRE HOME", "SF_14": 5.0, "SF_15": 5.0, "cnty": "Morris", "st": "NJ", "Zip": 7932.0, "O_14": 5.0, "Q_15": 3.0, "O_15": 5.0, "city": "FLORHAM PARK", "beds": 35.0, "SR_15": 4.0}, {"Diff_star": 0.0, "addr": "ROUTE 1 & 18", "SR_14": 5.0, "Q_14": 5.0, "name": "ROSE MOUNTAIN CARE CENTER", "SF_14": 4.0, "SF_15": 3.0, "cnty": "Middlesex", "st": "NJ", "Zip": 8901.0, "O_14": 5.0, "Q_15": 2.0, "O_15": 5.0, "city": "NEW BRUNSWICK", "beds": 112.0, "SR_15": 5.0}, {"Diff_star": -1.0, "addr": "100 WEST MAGNOLIA AVENUE", "SR_14": 1.0, "Q_14": 5.0, "name": "MAYWOOD CENTER FOR HEALTH AND REHABILITATION", "SF_14": 3.0, "SF_15": 3.0, "cnty": "Bergen", "st": "NJ", "Zip": 7607.0, "O_14": 2.0, "Q_15": 4.0, "O_15": 1.0, "city": "MAYWOOD", "beds": 120.0, "SR_15": 1.0}, {"Diff_star": 0.0, "addr": "115 DUTCHLANE ROAD", "SR_14": 4.0, "Q_14": 4.0, "name": "MONMOUTH CO CARE JL MONTGOMERY", "SF_14": 4.0, "SF_15": 4.0, "cnty": "Monmouth", "st": "NJ", "Zip": 7728.0, "O_14": 4.0, "Q_15": 3.0, "O_15": 4.0, "city": "FREEHOLD", "beds": 174.0, "SR_15": 4.0}, {"Diff_star": 0.0, "addr": "140 SHEPHERD LANE", "SR_14": 5.0, "Q_14": 4.0, "name": "ST JOSEPH'S HOME FOR ELDERLY", "SF_14": 5.0, "SF_15": 5.0, "cnty": "Passaic", "st": "NJ", "Zip": 7512.0, "O_14": 5.0, "Q_15": 3.0, "O_15": 5.0, "city": "TOTOWA", "beds": 41.0, "SR_15": 5.0}, {"Diff_star": 0.0, "addr": "ONE BAY AVE", "SR_14": 3.0, "Q_14": 5.0, "name": "HACKENSACK-UMC MOUNTAINSIDE", "SF_14": 5.0, "SF_15": 5.0, "cnty": "Essex", "st": "NJ", "Zip": 7042.0, "O_14": 5.0, "Q_15": 5.0, "O_15": 5.0, "city": "MONTCLAIR", "beds": 18.0, "SR_15": 3.0}, {"Diff_star": -1.0, "addr": "600 LINCOLN PARK EAST", "SR_14": 1.0, "Q_14": 5.0, "name": "CRANFORD PARK REHABILITATION & HEALTHCARE CENTER", "SF_14": 2.0, "SF_15": 2.0, "cnty": "Union", "st": "NJ", "Zip": 7016.0, "O_14": 2.0, "Q_15": 4.0, "O_15": 1.0, "city": "CRANFORD", "beds": 100.0, "SR_15": 1.0}, {"Diff_star": 0.0, "addr": "250 BLOOMFIELD AVE", "SR_14": 4.0, "Q_14": 5.0, "name": "JOB HAINES HOME FOR AGED PEOPL", "SF_14": 5.0, "SF_15": 5.0, "cnty": "Essex", "st": "NJ", "Zip": 7003.0, "O_14": 5.0, "Q_15": 5.0, "O_15": 5.0, "city": "BLOOMFIELD", "beds": 40.0, "SR_15": 4.0}, {"Diff_star": 0.0, "addr": "266 S ORANGE AVE", "SR_14": 2.0, "Q_14": 5.0, "name": "NEW COMMUNITY EXTENDED CARE FACILITY", "SF_14": 4.0, "SF_15": 4.0, "cnty": "Essex", "st": "NJ", "Zip": 7103.0, "O_14": 4.0, "Q_15": 5.0, "O_15": 4.0, "city": "NEWARK", "beds": 180.0, "SR_15": 2.0}, {"Diff_star": 0.0, "addr": "2201 BAY AVENUE", "SR_14": 5.0, "Q_14": 5.0, "name": "SHORES AT WESLEY MANOR, THE", "SF_14": 4.0, "SF_15": 4.0, "cnty": "Cape May", "st": "NJ", "Zip": 8226.0, "O_14": 5.0, "Q_15": 4.0, "O_15": 5.0, "city": "OCEAN CITY", "beds": 60.0, "SR_15": 5.0}, {"Diff_star": 0.0, "addr": "154 SUNNY SLOPE DRIVE", "SR_14": 1.0, "Q_14": 5.0, "name": "CUMBERLAND MANOR NURSING AND REHABILITATION CENTER", "SF_14": 1.0, "SF_15": 1.0, "cnty": "Cumberland", "st": "NJ", "Zip": 8302.0, "O_14": 2.0, "Q_15": 5.0, "O_15": 2.0, "city": "BRIDGETON", "beds": 196.0, "SR_15": 1.0}, {"Diff_star": 0.0, "addr": "2350 HOSPITAL ROAD", "SR_14": 1.0, "Q_14": 4.0, "name": "MONMOUTH CO CARE G L THOMPSON", "SF_14": 4.0, "SF_15": 4.0, "cnty": "Monmouth", "st": "NJ", "Zip": 8720.0, "O_14": 2.0, "Q_15": 4.0, "O_15": 2.0, "city": "ALLENWOOD", "beds": 135.0, "SR_15": 1.0}, {"Diff_star": 0.0, "addr": "70 MAIN STREET", "SR_14": 3.0, "Q_14": 5.0, "name": "ARMENIAN NURSING AND REHABILITATION CENTER", "SF_14": 5.0, "SF_15": 5.0, "cnty": "Bergen", "st": "NJ", "Zip": 7630.0, "O_14": 5.0, "Q_15": 5.0, "O_15": 5.0, "city": "EMERSON", "beds": 86.0, "SR_15": 3.0}, {"Diff_star": 0.0, "addr": "460 HADDON AVE", "SR_14": 3.0, "Q_14": 5.0, "name": "COLLINGSWOOD MANOR", "SF_14": 5.0, "SF_15": 5.0, "cnty": "Camden", "st": "NJ", "Zip": 8108.0, "O_14": 5.0, "Q_15": 5.0, "O_15": 5.0, "city": "COLLINGSWOOD", "beds": 60.0, "SR_15": 3.0}, {"Diff_star": 1.0, "addr": "256 COUNTY HOUSE ROAD", "SR_14": 2.0, "Q_14": 5.0, "name": "SHADY LANE GLOUCESTER CO HOME", "SF_14": 2.0, "SF_15": 3.0, "cnty": "Gloucester", "st": "NJ", "Zip": 8020.0, "O_14": 3.0, "Q_15": 5.0, "O_15": 4.0, "city": "CLARKSBORO", "beds": 60.0, "SR_15": 3.0}, {"Diff_star": 1.0, "addr": "1 SUMMIT AVENUE", "SR_14": 3.0, "Q_14": 4.0, "name": "VALLEY VIEW CARE CENTER", "SF_14": 3.0, "SF_15": 3.0, "cnty": "Sussex", "st": "NJ", "Zip": 7860.0, "O_14": 3.0, "Q_15": 5.0, "O_15": 4.0, "city": "NEWTON", "beds": 34.0, "SR_15": 3.0}, {"Diff_star": 0.0, "addr": "198 OLD BERGEN ROAD", "SR_14": 1.0, "Q_14": 4.0, "name": "ST ANN'S HOME FOR AGED", "SF_14": 4.0, "SF_15": 4.0, "cnty": "Hudson", "st": "NJ", "Zip": 7305.0, "O_14": 2.0, "Q_15": 3.0, "O_15": 2.0, "city": "JERSEY CITY", "beds": 120.0, "SR_15": 1.0}, {"Diff_star": -1.0, "addr": "524 WARDELL ROAD", "SR_14": 1.0, "Q_14": 5.0, "name": "LIBERTY ROYAL REHAB AND HCC", "SF_14": 4.0, "SF_15": 3.0, "cnty": "Monmouth", "st": "NJ", "Zip": 7753.0, "O_14": 2.0, "Q_15": 4.0, "O_15": 1.0, "city": "TINTON FALLS", "beds": 100.0, "SR_15": 1.0}, {"Diff_star": 0.0, "addr": "103 PLEASANT VALLEY WAY", "SR_14": 2.0, "Q_14": 5.0, "name": "GREEN HILL", "SF_14": 4.0, "SF_15": 4.0, "cnty": "Essex", "st": "NJ", "Zip": 7052.0, "O_14": 4.0, "Q_15": 5.0, "O_15": 4.0, "city": "WEST ORANGE", "beds": 77.0, "SR_15": 2.0}, {"Diff_star": 0.0, "addr": "1990 ROUTE 18 NORTH", "SR_14": 5.0, "Q_14": 5.0, "name": "REFORMED CHURCH HOME", "SF_14": 4.0, "SF_15": 4.0, "cnty": "Middlesex", "st": "NJ", "Zip": 8857.0, "O_14": 5.0, "Q_15": 5.0, "O_15": 5.0, "city": "OLD BRIDGE", "beds": 108.0, "SR_15": 5.0}, {"Diff_star": 0.0, "addr": "99 EAST MAIN STREET", "SR_14": 4.0, "Q_14": 4.0, "name": "WILEY MISSION", "SF_14": 5.0, "SF_15": 5.0, "cnty": "Burlington", "st": "NJ", "Zip": 8053.0, "O_14": 5.0, "Q_15": 3.0, "O_15": 5.0, "city": "MARLTON", "beds": 67.0, "SR_15": 4.0}, {"Diff_star": 0.0, "addr": "111 FINDERNE AVENUE", "SR_14": 1.0, "Q_14": 5.0, "name": "N J EASTERN STAR HOME", "SF_14": 4.0, "SF_15": 4.0, "cnty": "Somerset", "st": "NJ", "Zip": 8807.0, "O_14": 2.0, "Q_15": 4.0, "O_15": 2.0, "city": "BRIDGEWATER", "beds": 50.0, "SR_15": 1.0}, {"Diff_star": 1.0, "addr": "1579 OLD FREEHOLD ROAD", "SR_14": 2.0, "Q_14": 5.0, "name": "ROSE GARDEN NURSING AND REHABILITATION CENTER", "SF_14": 2.0, "SF_15": 3.0, "cnty": "Ocean", "st": "NJ", "Zip": 8753.0, "O_14": 3.0, "Q_15": 4.0, "O_15": 4.0, "city": "TOMS RIVER", "beds": 124.0, "SR_15": 4.0}, {"Diff_star": 0.0, "addr": "798 WILLOW GROVE STREET", "SR_14": 2.0, "Q_14": 5.0, "name": "HOUSE OF THE GOOD SHEPHERD", "SF_14": 4.0, "SF_15": 4.0, "cnty": "Warren", "st": "NJ", "Zip": 7840.0, "O_14": 4.0, "Q_15": 5.0, "O_15": 4.0, "city": "HACKETTSTOWN", "beds": 62.0, "SR_15": 2.0}, {"Diff_star": 0.0, "addr": "2300 HAMILTON AVE", "SR_14": 1.0, "Q_14": 5.0, "name": "HAMILTON GROVE HEALTHCARE AND REHABILITATION, LLC", "SF_14": 3.0, "SF_15": 3.0, "cnty": "Mercer", "st": "NJ", "Zip": 8619.0, "O_14": 2.0, "Q_15": 5.0, "O_15": 2.0, "city": "HAMILTON", "beds": 218.0, "SR_15": 1.0}, {"Diff_star": -1.0, "addr": "39 EAST MOUNTAIN ROAD", "SR_14": 2.0, "Q_14": 5.0, "name": "FOOTHILL ACRES REHABILITATION & NURSING CENTER", "SF_14": 4.0, "SF_15": 4.0, "cnty": "Somerset", "st": "NJ", "Zip": 8844.0, "O_14": 4.0, "Q_15": 4.0, "O_15": 3.0, "city": "HILLSBOROUGH", "beds": 200.0, "SR_15": 2.0}, {"Diff_star": 0.0, "addr": "W-90 RIDGEWOOD AVE", "SR_14": 3.0, "Q_14": 5.0, "name": "CARE ONE AT RIDGEWOOD AVENUE", "SF_14": 4.0, "SF_15": 4.0, "cnty": "Bergen", "st": "NJ", "Zip": 7652.0, "O_14": 5.0, "Q_15": 5.0, "O_15": 5.0, "city": "PARAMUS", "beds": 110.0, "SR_15": 3.0}, {"Diff_star": -1.0, "addr": "535 N OAK AVE", "SR_14": 2.0, "Q_14": 5.0, "name": "PITMAN MANOR", "SF_14": 3.0, "SF_15": 3.0, "cnty": "Gloucester", "st": "NJ", "Zip": 8071.0, "O_14": 3.0, "Q_15": 4.0, "O_15": 2.0, "city": "PITMAN", "beds": 72.0, "SR_15": 2.0}, {"Diff_star": 0.0, "addr": "28 WASHINGTON STREET", "SR_14": 4.0, "Q_14": 5.0, "name": "CLOVER REST HOME", "SF_14": 4.0, "SF_15": 4.0, "cnty": "Warren", "st": "NJ", "Zip": 7832.0, "O_14": 5.0, "Q_15": 5.0, "O_15": 5.0, "city": "COLUMBIA", "beds": 33.0, "SR_15": 4.0}, {"Diff_star": 0.0, "addr": "29 EAST 29TH STREET", "SR_14": 5.0, "Q_14": 5.0, "name": "BAYONNE HOSPITAL CENTER TCU", "SF_14": 5.0, "SF_15": 5.0, "cnty": "Hudson", "st": "NJ", "Zip": 7002.0, "O_14": 5.0, "Q_15": 5.0, "O_15": 5.0, "city": "BAYONNE", "beds": 17.0, "SR_15": 5.0}, {"Diff_star": -1.0, "addr": "114 PITTSTOWN ROAD", "SR_14": 3.0, "Q_14": 4.0, "name": "COUNTRY ARCH CARE CENTER", "SF_14": 4.0, "SF_15": 3.0, "cnty": "Hunterdon", "st": "NJ", "Zip": 8867.0, "O_14": 4.0, "Q_15": 2.0, "O_15": 3.0, "city": "PITTSTOWN", "beds": 130.0, "SR_15": 3.0}, {"Diff_star": 1.0, "addr": "304 S. VAN DIEN AVE", "SR_14": 4.0, "Q_14": 4.0, "name": "VAN DYK MANOR OF RIDGEWOOD", "SF_14": 4.0, "SF_15": 4.0, "cnty": "Bergen", "st": "NJ", "Zip": 7450.0, "O_14": 4.0, "Q_15": 5.0, "O_15": 5.0, "city": "RIDGEWOOD", "beds": 96.0, "SR_15": 4.0}, {"Diff_star": 0.0, "addr": "42 NORTH MOUNTAIN AVE", "SR_14": 3.0, "Q_14": 4.0, "name": "VAN DYK MANOR MONTCLAIR", "SF_14": 4.0, "SF_15": 4.0, "cnty": "Essex", "st": "NJ", "Zip": 7042.0, "O_14": 4.0, "Q_15": 2.0, "O_15": 4.0, "city": "MONTCLAIR", "beds": 70.0, "SR_15": 3.0}, {"Diff_star": 0.0, "addr": "35 B PIERMONT ROAD", "SR_14": 5.0, "Q_14": 5.0, "name": "BERGEN COUNTY HEALTH CARE CTR", "SF_14": 5.0, "SF_15": 5.0, "cnty": "Bergen", "st": "NJ", "Zip": 7647.0, "O_14": 5.0, "Q_15": 4.0, "O_15": 5.0, "city": "ROCKLEIGH", "beds": 110.0, "SR_15": 5.0}, {"Diff_star": -1.0, "addr": "32 LAUREL AVENUE", "SR_14": 4.0, "Q_14": 5.0, "name": "LAUREL BAY HEALTH & REHABILITATION CENTER", "SF_14": 1.0, "SF_15": 1.0, "cnty": "Monmouth", "st": "NJ", "Zip": 7734.0, "O_14": 4.0, "Q_15": 4.0, "O_15": 3.0, "city": "KEANSBURG", "beds": 123.0, "SR_15": 4.0}, {"Diff_star": -1.0, "addr": "120 NOYES DRIVE", "SR_14": 1.0, "Q_14": 5.0, "name": "PLAZA REGENCY AT PARK RIDGE", "SF_14": 3.0, "SF_15": 3.0, "cnty": "Bergen", "st": "NJ", "Zip": 7656.0, "O_14": 2.0, "Q_15": 4.0, "O_15": 1.0, "city": "PARK RIDGE", "beds": 210.0, "SR_15": 1.0}, {"Diff_star": 0.0, "addr": "200 BRISTOL GLEN DRIVE", "SR_14": 2.0, "Q_14": 4.0, "name": "BRISTOL GLEN SNF", "SF_14": 5.0, "SF_15": 5.0, "cnty": "Sussex", "st": "NJ", "Zip": 7860.0, "O_14": 3.0, "Q_15": 4.0, "O_15": 3.0, "city": "NEWTON", "beds": 60.0, "SR_15": 2.0}, {"Diff_star": 0.0, "addr": "TWO MORRIS ROAD", "SR_14": 4.0, "Q_14": 2.0, "name": "HOLY NAME FRIARY", "SF_14": 5.0, "SF_15": 5.0, "cnty": "Passaic", "st": "NJ", "Zip": 7456.0, "O_14": 5.0, "Q_15": 2.0, "O_15": 5.0, "city": "RINGWOOD", "beds": 29.0, "SR_15": 4.0}, {"Diff_star": 0.0, "addr": "655 EAST JERSEY STREET", "SR_14": 3.0, "Q_14": 5.0, "name": "TRINITAS HOSPITAL", "SF_14": 2.0, "SF_15": 2.0, "cnty": "Union", "st": "NJ", "Zip": 7206.0, "O_14": 4.0, "Q_15": 5.0, "O_15": 4.0, "city": "ELIZABETH", "beds": 120.0, "SR_15": 3.0}, {"Diff_star": 0.0, "addr": "94 STEVENS ROAD", "SR_14": 5.0, "Q_14": 5.0, "name": "CHILDRENS SPECIALIZED HOSPITAL TOMS RIVER", "SF_14": 5.0, "SF_15": 5.0, "cnty": "Ocean", "st": "NJ", "Zip": 8755.0, "O_14": 5.0, "Q_15": 5.0, "O_15": 5.0, "city": "TOMS RIVER", "beds": 26.0, "SR_15": 5.0}, {"Diff_star": 0.0, "addr": "100 MONROE STREET", "SR_14": 3.0, "Q_14": 4.0, "name": "FRIENDS RETIREMENT CONCEPTS", "SF_14": 4.0, "SF_15": 4.0, "cnty": "Somerset", "st": "NJ", "Zip": 8807.0, "O_14": 4.0, "Q_15": 4.0, "O_15": 4.0, "city": "BRIDGEWATER", "beds": 64.0, "SR_15": 3.0}, {"Diff_star": 0.0, "addr": "509 N BROAD STREET", "SR_14": 5.0, "Q_14": 1.0, "name": "INSPIRA TRANSITIONAL CARE UNIT WOODBURY", "SF_14": 4.0, "SF_15": 4.0, "cnty": "Gloucester", "st": "NJ", "Zip": 8096.0, "O_14": 4.0, "Q_15": 1.0, "O_15": 4.0, "city": "WOODBURY", "beds": 17.0, "SR_15": 5.0}, {"Diff_star": 0.0, "addr": "303 BANK AVE", "SR_14": 2.0, "Q_14": 5.0, "name": "BAPTIST HOME OF SOUTH JERSEY", "SF_14": 3.0, "SF_15": 3.0, "cnty": "Burlington", "st": "NJ", "Zip": 8077.0, "O_14": 3.0, "Q_15": 5.0, "O_15": 3.0, "city": "RIVERTON", "beds": 60.0, "SR_15": 2.0}, {"Diff_star": 0.0, "addr": "5 BROOK END DRIVE", "SR_14": 5.0, "Q_14": 5.0, "name": "ALARIS HEALTH AT WEST ORANGE", "SF_14": 4.0, "SF_15": 4.0, "cnty": "Essex", "st": "NJ", "Zip": 7052.0, "O_14": 5.0, "Q_15": 5.0, "O_15": 5.0, "city": "WEST ORANGE", "beds": 120.0, "SR_15": 5.0}, {"Diff_star": 0.0, "addr": "61 MAPLEWOOD AVENUE", "SR_14": 5.0, "Q_14": 4.0, "name": "ELMS OF CRANBURY, THE", "SF_14": 4.0, "SF_15": 4.0, "cnty": "Middlesex", "st": "NJ", "Zip": 8512.0, "O_14": 5.0, "Q_15": 4.0, "O_15": 5.0, "city": "CRANBURY", "beds": 120.0, "SR_15": 5.0}, {"Diff_star": -1.0, "addr": "537 PAVONIA AVENUE", "SR_14": 3.0, "Q_14": 5.0, "name": "MARGARET ANNA CUSACK CARE CENTER", "SF_14": 4.0, "SF_15": 4.0, "cnty": "Hudson", "st": "NJ", "Zip": 7306.0, "O_14": 5.0, "Q_15": 4.0, "O_15": 4.0, "city": "JERSEY CITY", "beds": 139.0, "SR_15": 3.0}, {"Diff_star": 0.0, "addr": "75 OLD TOMS RIVER ROAD", "SR_14": 4.0, "Q_14": 4.0, "name": "SHORROCK GARDENS CARE CENTER", "SF_14": 2.0, "SF_15": 2.0, "cnty": "Ocean", "st": "NJ", "Zip": 8723.0, "O_14": 4.0, "Q_15": 3.0, "O_15": 4.0, "city": "BRICK", "beds": 180.0, "SR_15": 4.0}, {"Diff_star": 0.0, "addr": "231 WARNER STREET", "SR_14": 1.0, "Q_14": 4.0, "name": "SHORE MEADOWS REHAB & NURSING CENTER", "SF_14": 3.0, "SF_15": 3.0, "cnty": "Ocean", "st": "NJ", "Zip": 8757.0, "O_14": 1.0, "Q_15": 2.0, "O_15": 1.0, "city": "TOMS RIVER", "beds": 149.0, "SR_15": 1.0}, {"Diff_star": 0.0, "addr": "1314 BRUNSWICK AVENUE", "SR_14": 1.0, "Q_14": 4.0, "name": "ROYAL HEALTH GATE NRSG REHAB", "SF_14": 2.0, "SF_15": 2.0, "cnty": "Mercer", "st": "NJ", "Zip": 8638.0, "O_14": 1.0, "Q_15": 3.0, "O_15": 1.0, "city": "TRENTON", "beds": 149.0, "SR_15": 1.0}, {"Diff_star": 0.0, "addr": "151 NINTH AVENUE", "SR_14": 4.0, "Q_14": 3.0, "name": "ARCADIA NURSING & REHABILITATION CENTER", "SF_14": 3.0, "SF_15": 3.0, "cnty": "Ocean", "st": "NJ", "Zip": 8087.0, "O_14": 4.0, "Q_15": 2.0, "O_15": 4.0, "city": "LITTLE EGG HARBOR TW", "beds": 115.0, "SR_15": 4.0}, {"Diff_star": 0.0, "addr": "459 PASSAIC AVENUE", "SR_14": 3.0, "Q_14": 4.0, "name": "LUTHERAN SOCIAL MINISTRIES CRA", "SF_14": 4.0, "SF_15": 4.0, "cnty": "Essex", "st": "NJ", "Zip": 7006.0, "O_14": 4.0, "Q_15": 3.0, "O_15": 4.0, "city": "WEST CALDWELL", "beds": 66.0, "SR_15": 3.0}, {"Diff_star": 0.0, "addr": "300 BROADWAY", "SR_14": 2.0, "Q_14": 5.0, "name": "NEW VISTA", "SF_14": 3.0, "SF_15": 3.0, "cnty": "Essex", "st": "NJ", "Zip": 7104.0, "O_14": 3.0, "Q_15": 5.0, "O_15": 3.0, "city": "NEWARK", "beds": 340.0, "SR_15": 2.0}, {"Diff_star": -1.0, "addr": "132 EVERGREEN RD", "SR_14": 1.0, "Q_14": 3.0, "name": "NEW JERSEY VETERANS MEMORIAL HOME MENLO", "SF_14": 5.0, "SF_15": 5.0, "cnty": "Middlesex", "st": "NJ", "Zip": 8818.0, "O_14": 2.0, "Q_15": 1.0, "O_15": 1.0, "city": "EDISON", "beds": 328.0, "SR_15": 1.0}, {"Diff_star": 0.0, "addr": "336 PROSPECT AVE", "SR_14": 3.0, "Q_14": 5.0, "name": "PROSPECT HEIGHTS CC", "SF_14": 3.0, "SF_15": 3.0, "cnty": "Bergen", "st": "NJ", "Zip": 7601.0, "O_14": 4.0, "Q_15": 5.0, "O_15": 4.0, "city": "HACKENSACK", "beds": 196.0, "SR_15": 3.0}, {"Diff_star": 0.0, "addr": "100 LONG-A-COMING LANE", "SR_14": 3.0, "Q_14": 5.0, "name": "VIRTUA H & R C AT BERLIN", "SF_14": 3.0, "SF_15": 3.0, "cnty": "Camden", "st": "NJ", "Zip": 8009.0, "O_14": 4.0, "Q_15": 5.0, "O_15": 4.0, "city": "BERLIN", "beds": 128.0, "SR_15": 3.0}, {"Diff_star": 0.0, "addr": "18 BUTLER BOULEVARD", "SR_14": 1.0, "Q_14": 4.0, "name": "TALLWOODS CARE CENTER", "SF_14": 3.0, "SF_15": 3.0, "cnty": "Ocean", "st": "NJ", "Zip": 8721.0, "O_14": 1.0, "Q_15": 3.0, "O_15": 1.0, "city": "BAYVILLE", "beds": 180.0, "SR_15": 1.0}, {"Diff_star": 0.0, "addr": "40 FRENEAU AVENUE", "SR_14": 3.0, "Q_14": 4.0, "name": "VICTORIA HEALTHCARE CENTER", "SF_14": 3.0, "SF_15": 3.0, "cnty": "Monmouth", "st": "NJ", "Zip": 7747.0, "O_14": 3.0, "Q_15": 2.0, "O_15": 3.0, "city": "MATAWAN", "beds": 130.0, "SR_15": 3.0}, {"Diff_star": -1.0, "addr": "870 EAST ROUTE 70", "SR_14": 3.0, "Q_14": 5.0, "name": "CARE ONE AT EVESHAM", "SF_14": 2.0, "SF_15": 2.0, "cnty": "Burlington", "st": "NJ", "Zip": 8053.0, "O_14": 4.0, "Q_15": 5.0, "O_15": 3.0, "city": "MARLTON", "beds": 144.0, "SR_15": 2.0}, {"Diff_star": 0.0, "addr": "3200 HUDSON AVENUE", "SR_14": 2.0, "Q_14": 5.0, "name": "MANHATTANVIEW NURSING HOME", "SF_14": 2.0, "SF_15": 2.0, "cnty": "Hudson", "st": "NJ", "Zip": 7087.0, "O_14": 3.0, "Q_15": 5.0, "O_15": 3.0, "city": "UNION CITY", "beds": 127.0, "SR_15": 2.0}, {"Diff_star": 0.0, "addr": "1205 NORTH CHURCH STREET", "SR_14": 5.0, "Q_14": 5.0, "name": "BRANDYWINE SENIOR CARE AT MOORESTOWN", "SF_14": 4.0, "SF_15": 4.0, "cnty": "Burlington", "st": "NJ", "Zip": 8057.0, "O_14": 5.0, "Q_15": 5.0, "O_15": 5.0, "city": "MOORESTOWN", "beds": 37.0, "SR_15": 5.0}, {"Diff_star": -1.0, "addr": "78 SLIKER ROAD", "SR_14": 3.0, "Q_14": 2.0, "name": "LITTLE BROOK NURSING AND CONVALESCENT HOME", "SF_14": 2.0, "SF_15": 2.0, "cnty": "Hunterdon", "st": "NJ", "Zip": 7830.0, "O_14": 3.0, "Q_15": 1.0, "O_15": 2.0, "city": "CALIFON", "beds": 36.0, "SR_15": 3.0}, {"Diff_star": -2.0, "addr": "100 MAZDABROOK ROAD", "SR_14": 3.0, "Q_14": 4.0, "name": "CARE ONE AT MORRIS", "SF_14": 4.0, "SF_15": 4.0, "cnty": "Morris", "st": "NJ", "Zip": 7054.0, "O_14": 4.0, "Q_15": 4.0, "O_15": 2.0, "city": "PARSIPPANY TROY HILL", "beds": 118.0, "SR_15": 1.0}, {"Diff_star": -1.0, "addr": "3002 ESSEX ROAD", "SR_14": 5.0, "Q_14": 5.0, "name": "CONTINUING CARE AT SEABROOK", "SF_14": 5.0, "SF_15": 4.0, "cnty": "Monmouth", "st": "NJ", "Zip": 7753.0, "O_14": 5.0, "Q_15": 4.0, "O_15": 4.0, "city": "TINTON FALLS", "beds": 86.0, "SR_15": 4.0}, {"Diff_star": 0.0, "addr": "7 RYERSON AVENUE", "SR_14": 5.0, "Q_14": 4.0, "name": "ST CATHERINE OF SIENA", "SF_14": 5.0, "SF_15": 5.0, "cnty": "Essex", "st": "NJ", "Zip": 7006.0, "O_14": 5.0, "Q_15": 3.0, "O_15": 5.0, "city": "CALDWELL", "beds": 30.0, "SR_15": 5.0}, {"Diff_star": 0.0, "addr": "599 CRANBURY ROAD", "SR_14": 1.0, "Q_14": 5.0, "name": "CARE ONE AT EAST BRUNSWICK", "SF_14": 3.0, "SF_15": 3.0, "cnty": "Middlesex", "st": "NJ", "Zip": 8816.0, "O_14": 2.0, "Q_15": 5.0, "O_15": 2.0, "city": "EAST BRUNSWICK", "beds": 132.0, "SR_15": 1.0}, {"Diff_star": 0.0, "addr": "10 LINK DRIVE", "SR_14": 4.0, "Q_14": 5.0, "name": "JEWISH HOME AT ROCKLEIGH", "SF_14": 4.0, "SF_15": 4.0, "cnty": "Bergen", "st": "NJ", "Zip": 7647.0, "O_14": 5.0, "Q_15": 5.0, "O_15": 5.0, "city": "ROCKLEIGH", "beds": 180.0, "SR_15": 4.0}, {"Diff_star": 0.0, "addr": "1660 WHITEHORSE-HAMILTON SQUARE ROAD", "SR_14": 1.0, "Q_14": 5.0, "name": "CARE ONE AT HAMILTON", "SF_14": 4.0, "SF_15": 4.0, "cnty": "Mercer", "st": "NJ", "Zip": 8619.0, "O_14": 2.0, "Q_15": 5.0, "O_15": 2.0, "city": "HAMILTON", "beds": 61.0, "SR_15": 1.0}, {"Diff_star": -1.0, "addr": "595 COUNTY AVENUE", "SR_14": 3.0, "Q_14": 5.0, "name": "ALARIS HEALTH AT THE FOUNTAINS", "SF_14": 4.0, "SF_15": 4.0, "cnty": "Hudson", "st": "NJ", "Zip": 7094.0, "O_14": 5.0, "Q_15": 4.0, "O_15": 4.0, "city": "SECAUCUS", "beds": 334.0, "SR_15": 3.0}, {"Diff_star": 0.0, "addr": "493 BLACK OAK RIDGE ROAD", "SR_14": 1.0, "Q_14": 5.0, "name": "CARE ONE AT WAYNE - SNF", "SF_14": 5.0, "SF_15": 5.0, "cnty": "Passaic", "st": "NJ", "Zip": 7470.0, "O_14": 2.0, "Q_15": 4.0, "O_15": 2.0, "city": "WAYNE", "beds": 73.0, "SR_15": 1.0}, {"Diff_star": 0.0, "addr": "1140 ROUTE 72 WEST", "SR_14": 5.0, "Q_14": 2.0, "name": "SOUTHERN OCEAN MEDICAL CENTER", "SF_14": 5.0, "SF_15": 5.0, "cnty": "Ocean", "st": "NJ", "Zip": 8050.0, "O_14": 5.0, "Q_15": 2.0, "O_15": 5.0, "city": "MANAHAWKIN", "beds": 20.0, "SR_15": 5.0}, {"Diff_star": 0.0, "addr": "68 PASSAIC AVENUE", "SR_14": 1.0, "Q_14": 5.0, "name": "CARE ONE AT LIVINGSTON", "SF_14": 5.0, "SF_15": 5.0, "cnty": "Essex", "st": "NJ", "Zip": 7039.0, "O_14": 2.0, "Q_15": 5.0, "O_15": 2.0, "city": "LIVINGSTON", "beds": 112.0, "SR_15": 1.0}, {"Diff_star": 0.0, "addr": "190  PARK AVENUE", "SR_14": 5.0, "Q_14": 5.0, "name": "SAINT ANNE VILLA", "SF_14": 4.0, "SF_15": 4.0, "cnty": "Morris", "st": "NJ", "Zip": 7932.0, "O_14": 5.0, "Q_15": 5.0, "O_15": 5.0, "city": "FLORHAM PARK", "beds": 80.0, "SR_15": 5.0}, {"Diff_star": -1.0, "addr": "895 WESTFIELD ROAD", "SR_14": 3.0, "Q_14": 4.0, "name": "CARE ONE AT MOORESTOWN", "SF_14": 5.0, "SF_15": 5.0, "cnty": "Burlington", "st": "NJ", "Zip": 8057.0, "O_14": 4.0, "Q_15": 1.0, "O_15": 3.0, "city": "MOORESTOWN", "beds": 65.0, "SR_15": 3.0}, {"Diff_star": 0.0, "addr": "456 RAHWAY AVENUE", "SR_14": 2.0, "Q_14": 5.0, "name": "PLAZA HEALTHCARE & REHABILITATION CENTER", "SF_14": 1.0, "SF_15": 1.0, "cnty": "Union", "st": "NJ", "Zip": 7202.0, "O_14": 2.0, "Q_15": 5.0, "O_15": 2.0, "city": "ELIZABETH", "beds": 128.0, "SR_15": 2.0}, {"Diff_star": 0.0, "addr": "2621 HIGHWAY 138", "SR_14": 3.0, "Q_14": 5.0, "name": "CARE ONE AT WALL", "SF_14": 4.0, "SF_15": 4.0, "cnty": "Monmouth", "st": "NJ", "Zip": 7719.0, "O_14": 5.0, "Q_15": 5.0, "O_15": 5.0, "city": "WALL", "beds": 138.0, "SR_15": 3.0}, {"Diff_star": 0.0, "addr": "100 HOLLINSHEAD SPRING ROAD", "SR_14": 5.0, "Q_14": 5.0, "name": "STONEBRIDGE AT MONTGOMERY HEALTH CARE CENTER", "SF_14": 4.0, "SF_15": 4.0, "cnty": "Somerset", "st": "NJ", "Zip": 8558.0, "O_14": 5.0, "Q_15": 5.0, "O_15": 5.0, "city": "SKILLMAN", "beds": 40.0, "SR_15": 5.0}, {"Diff_star": 0.0, "addr": "1201 PARKWAY AVENUE", "SR_14": 2.0, "Q_14": 5.0, "name": "CARE ONE AT MERCER-BUCKS", "SF_14": 4.0, "SF_15": 4.0, "cnty": "Mercer", "st": "NJ", "Zip": 8628.0, "O_14": 4.0, "Q_15": 5.0, "O_15": 4.0, "city": "EWING", "beds": 100.0, "SR_15": 2.0}, {"Diff_star": -1.0, "addr": "151 MADISON AVENUE", "SR_14": 3.0, "Q_14": 5.0, "name": "CARE ONE AT MADISON AVENUE", "SF_14": 5.0, "SF_15": 5.0, "cnty": "Morris", "st": "NJ", "Zip": 7960.0, "O_14": 5.0, "Q_15": 4.0, "O_15": 4.0, "city": "MORRISTOWN", "beds": 178.0, "SR_15": 3.0}, {"Diff_star": 0.0, "addr": "99 ROUTE 37 WEST", "SR_14": 5.0, "Q_14": 5.0, "name": "COMMUNITY MEDICAL CENTER TCU", "SF_14": "", "SF_15": "", "cnty": "Ocean", "st": "NJ", "Zip": 8755.0, "O_14": 5.0, "Q_15": 5.0, "O_15": 5.0, "city": "TOMS RIVER", "beds": 25.0, "SR_15": 5.0}, {"Diff_star": 0.0, "addr": "4 CEDAR CREST VILLAGE DRIVE", "SR_14": 5.0, "Q_14": 5.0, "name": "CEDAR CREST/MOUNTAINVIEW GARDENS", "SF_14": 4.0, "SF_15": 4.0, "cnty": "Morris", "st": "NJ", "Zip": 7444.0, "O_14": 5.0, "Q_15": 5.0, "O_15": 5.0, "city": "POMPTON PLAINS", "beds": 113.0, "SR_15": 5.0}, {"Diff_star": 0.0, "addr": "199 POWERVILLE ROAD", "SR_14": 4.0, "Q_14": 5.0, "name": "MERRY HEART OF BOONTON TOWNSHIP", "SF_14": 4.0, "SF_15": 4.0, "cnty": "Morris", "st": "NJ", "Zip": 7005.0, "O_14": 5.0, "Q_15": 5.0, "O_15": 5.0, "city": "BOONTON", "beds": 117.0, "SR_15": 4.0}, {"Diff_star": 0.0, "addr": "96 PARKWAY", "SR_14": 3.0, "Q_14": 5.0, "name": "ALARIS HEALTH AT THE CHATEAU", "SF_14": 5.0, "SF_15": 5.0, "cnty": "Bergen", "st": "NJ", "Zip": 7662.0, "O_14": 5.0, "Q_15": 5.0, "O_15": 5.0, "city": "ROCHELLE PARK", "beds": 73.0, "SR_15": 3.0}, {"Diff_star": 0.0, "addr": "61 W JIMMIE LEEDS ROAD", "SR_14": 3.0, "Q_14": 3.0, "name": "RENAISSANCE PAVILION", "SF_14": 4.0, "SF_15": 4.0, "cnty": "Atlantic", "st": "NJ", "Zip": 8240.0, "O_14": 4.0, "Q_15": 3.0, "O_15": 4.0, "city": "POMONA", "beds": 29.0, "SR_15": 3.0}, {"Diff_star": -1.0, "addr": "524 NORTH WEST BLVD", "SR_14": 1.0, "Q_14": 2.0, "name": "NEW JERSEY VETERANS MEMORIAL VINELAND", "SF_14": 5.0, "SF_15": 5.0, "cnty": "Cumberland", "st": "NJ", "Zip": 8360.0, "O_14": 2.0, "Q_15": 1.0, "O_15": 1.0, "city": "VINELAND", "beds": 300.0, "SR_15": 1.0}, {"Diff_star": -1.0, "addr": "85 HARRETON ROAD", "SR_14": 2.0, "Q_14": 5.0, "name": "ALLENDALE NURSING HOME", "SF_14": 4.0, "SF_15": 4.0, "cnty": "Bergen", "st": "NJ", "Zip": 7401.0, "O_14": 4.0, "Q_15": 4.0, "O_15": 3.0, "city": "ALLENDALE", "beds": 120.0, "SR_15": 2.0}, {"Diff_star": 0.0, "addr": "1100 LAUREL OAK ROAD", "SR_14": 2.0, "Q_14": 4.0, "name": "LIONS GATE", "SF_14": 5.0, "SF_15": 5.0, "cnty": "Camden", "st": "NJ", "Zip": 8043.0, "O_14": 3.0, "Q_15": 2.0, "O_15": 3.0, "city": "VOORHEES", "beds": 110.0, "SR_15": 2.0}, {"Diff_star": 0.0, "addr": "1086 DUMONT CIRCLE", "SR_14": 2.0, "Q_14": 4.0, "name": "MANORCARE HEALTH SERVICES - VOORHEES", "SF_14": 3.0, "SF_15": 3.0, "cnty": "Camden", "st": "NJ", "Zip": 8043.0, "O_14": 2.0, "Q_15": 3.0, "O_15": 2.0, "city": "VOORHEES", "beds": 120.0, "SR_15": 2.0}, {"Diff_star": 0.0, "addr": "1725 MERIDIAN TRAIL", "SR_14": 4.0, "Q_14": 5.0, "name": "MERIDIAN SUBACUTE REHABILITATION", "SF_14": 5.0, "SF_15": 5.0, "cnty": "Monmouth", "st": "NJ", "Zip": 7719.0, "O_14": 5.0, "Q_15": 5.0, "O_15": 5.0, "city": "WALL", "beds": 130.0, "SR_15": 4.0}, {"Diff_star": 0.0, "addr": "544 TEANECK ROAD", "SR_14": 2.0, "Q_14": 5.0, "name": "CARE ONE AT TEANECK", "SF_14": 3.0, "SF_15": 3.0, "cnty": "Bergen", "st": "NJ", "Zip": 7666.0, "O_14": 3.0, "Q_15": 5.0, "O_15": 3.0, "city": "TEANECK", "beds": 128.0, "SR_15": 2.0}, {"Diff_star": 0.0, "addr": "214 WEST JIMMIE LEEDS ROAD", "SR_14": 1.0, "Q_14": 5.0, "name": "ROYAL SUITES HEALTH CARE & REHABILITATION", "SF_14": 3.0, "SF_15": 3.0, "cnty": "Atlantic", "st": "NJ", "Zip": 8205.0, "O_14": 2.0, "Q_15": 5.0, "O_15": 2.0, "city": "GALLOWAY TOWNSHIP", "beds": 186.0, "SR_15": 1.0}, {"Diff_star": 0.0, "addr": "3419 HIGHWAY 9", "SR_14": 3.0, "Q_14": 5.0, "name": "WEDGWOOD GARDENS CARE CENTER", "SF_14": 3.0, "SF_15": 3.0, "cnty": "Monmouth", "st": "NJ", "Zip": 7728.0, "O_14": 4.0, "Q_15": 5.0, "O_15": 4.0, "city": "FREEHOLD", "beds": 151.0, "SR_15": 3.0}, {"Diff_star": 0.0, "addr": "ONE CLARA MAASS DRIVE", "SR_14": 4.0, "Q_14": 4.0, "name": "CLARA MAASS MEDICAL CENTER", "SF_14": 5.0, "SF_15": 5.0, "cnty": "Essex", "st": "NJ", "Zip": 7109.0, "O_14": 5.0, "Q_15": 4.0, "O_15": 5.0, "city": "BELLEVILLE", "beds": 20.0, "SR_15": 4.0}, {"Diff_star": 0.0, "addr": "378 FRIES MILL ROAD", "SR_14": 4.0, "Q_14": 5.0, "name": "MANORCARE HEALTH SERVICES-WASHINGTON TOWNSHIP", "SF_14": 4.0, "SF_15": 3.0, "cnty": "Gloucester", "st": "NJ", "Zip": 8080.0, "O_14": 5.0, "Q_15": 5.0, "O_15": 5.0, "city": "SEWELL", "beds": 120.0, "SR_15": 4.0}, {"Diff_star": 0.0, "addr": "680 BROADWAY SUITE 301", "SR_14": 5.0, "Q_14": 5.0, "name": "BARNERT SUBACUTE REHABILITATION CENTER, LLC", "SF_14": 4.0, "SF_15": 4.0, "cnty": "Passaic", "st": "NJ", "Zip": 7514.0, "O_14": 5.0, "Q_15": 5.0, "O_15": 5.0, "city": "PATERSON", "beds": 60.0, "SR_15": 5.0}, {"Diff_star": 0.0, "addr": "3809 BAYSHORE ROAD", "SR_14": 5.0, "Q_14": 5.0, "name": "VICTORIA MANOR", "SF_14": 4.0, "SF_15": 3.0, "cnty": "Cape May", "st": "NJ", "Zip": 8204.0, "O_14": 5.0, "Q_15": 4.0, "O_15": 5.0, "city": "NORTH CAPE MAY", "beds": 120.0, "SR_15": 5.0}, {"Diff_star": -1.0, "addr": "1133 MARLBORO ROAD", "SR_14": 2.0, "Q_14": 4.0, "name": "ROOSEVELT CARE CENTER AT OLD BRIDGE", "SF_14": 4.0, "SF_15": 4.0, "cnty": "Middlesex", "st": "NJ", "Zip": 8857.0, "O_14": 3.0, "Q_15": 1.0, "O_15": 2.0, "city": "OLD BRIDGE", "beds": 180.0, "SR_15": 2.0}, {"Diff_star": 0.0, "addr": "395 AMWELL ROAD", "SR_14": 1.0, "Q_14": 5.0, "name": "BRIDGEWAY CARE AND REHAB CENTER AT HILLSBOROUGH", "SF_14": 5.0, "SF_15": 5.0, "cnty": "Somerset", "st": "NJ", "Zip": 8844.0, "O_14": 2.0, "Q_15": 5.0, "O_15": 2.0, "city": "HILLSBOROUGH", "beds": 126.0, "SR_15": 1.0}, {"Diff_star": 0.0, "addr": "101 WHIPPANY ROAD", "SR_14": 1.0, "Q_14": 5.0, "name": "CARE ONE AT HANOVER TOWNSHIP", "SF_14": 4.0, "SF_15": 5.0, "cnty": "Morris", "st": "NJ", "Zip": 7981.0, "O_14": 2.0, "Q_15": 5.0, "O_15": 2.0, "city": "WHIPPANY", "beds": 94.0, "SR_15": 1.0}, {"Diff_star": 0.0, "addr": "308 WILLOW AVENUE", "SR_14": 5.0, "Q_14": 5.0, "name": "HOBOKEN UNIVERSITY MEDICAL CENTER TCU", "SF_14": 5.0, "SF_15": 5.0, "cnty": "Hudson", "st": "NJ", "Zip": 7030.0, "O_14": 5.0, "Q_15": 5.0, "O_15": 5.0, "city": "HOBOKEN", "beds": 15.0, "SR_15": 5.0}, {"Diff_star": -1.0, "addr": "113 SOUTH ROUTE 73", "SR_14": 2.0, "Q_14": 3.0, "name": "POWERBACK REHABILITATION, ROUTE 73", "SF_14": 5.0, "SF_15": 5.0, "cnty": "Camden", "st": "NJ", "Zip": 8043.0, "O_14": 3.0, "Q_15": 1.0, "O_15": 2.0, "city": "VOORHEES", "beds": 120.0, "SR_15": 2.0}, {"Diff_star": 0.0, "addr": "6818 DELILAH ROAD", "SR_14": 1.0, "Q_14": 5.0, "name": "EGG HARBOR CARE CENTER", "SF_14": 3.0, "SF_15": 3.0, "cnty": "Atlantic", "st": "NJ", "Zip": 8234.0, "O_14": 2.0, "Q_15": 5.0, "O_15": 2.0, "city": "EGG HARBOR TOWNSHIP", "beds": 106.0, "SR_15": 1.0}, {"Diff_star": 0.0, "addr": "40 RIVERSIDE AVENUE", "SR_14": 5.0, "Q_14": 5.0, "name": "ATRIUM AT NAVESINK HARBOR, THE", "SF_14": 5.0, "SF_15": 5.0, "cnty": "Monmouth", "st": "NJ", "Zip": 7701.0, "O_14": 5.0, "Q_15": 5.0, "O_15": 5.0, "city": "RED BANK", "beds": 43.0, "SR_15": 5.0}, {"Diff_star": 0.0, "addr": "685 SALINA ROAD", "SR_14": "", "Q_14": "", "name": "ADVANCED SUBACUTE REHABILITATION CENTER AT SEWELL", "SF_14": "", "SF_15": "", "cnty": "Gloucester", "st": "NJ", "Zip": 8080.0, "O_14": "", "Q_15": "", "O_15": "", "city": "SEWELL", "beds": 139.0, "SR_15": ""}]