[{"Diff_star": 0.0, "addr": "635 HARKLE ROAD", "SR_14": 1.0, "Q_14": 4.0, "name": "SANTA FE CARE CENTER", "SF_14": 3.0, "SF_15": 3.0, "cnty": "Santa Fe", "st": "NM", "Zip": 87505.0, "O_14": 1.0, "Q_15": 4.0, "O_15": 1.0, "city": "SANTA FE", "beds": 120.0, "SR_15": 1.0}, {"Diff_star": 0.0, "addr": "2216 LESTER DRIVE NE", "SR_14": 3.0, "Q_14": 4.0, "name": "ST JOHN HEALTHCARE AND REHABILITATION CENTER", "SF_14": 2.0, "SF_15": 2.0, "cnty": "Bernalillo", "st": "NM", "Zip": 87112.0, "O_14": 3.0, "Q_15": 3.0, "O_15": 3.0, "city": "ALBUQUERQUE", "beds": 140.0, "SR_15": 3.0}, {"Diff_star": 0.0, "addr": "4210 SABANA GRANDE SE", "SR_14": 3.0, "Q_14": 4.0, "name": "RIO RANCHO CENTER", "SF_14": 2.0, "SF_15": 2.0, "cnty": "Sandoval", "st": "NM", "Zip": 87124.0, "O_14": 3.0, "Q_15": 2.0, "O_15": 3.0, "city": "RIO RANCHO", "beds": 120.0, "SR_15": 3.0}, {"Diff_star": 0.0, "addr": "5900 FOREST HILLS DRIVE NE", "SR_14": 4.0, "Q_14": 5.0, "name": "REHABILITATION CENTER OF ALBUQUERQUE, LLC  (THE)", "SF_14": 3.0, "SF_15": 3.0, "cnty": "Bernalillo", "st": "NM", "Zip": 87109.0, "O_14": 5.0, "Q_15": 5.0, "O_15": 5.0, "city": "ALBUQUERQUE", "beds": 120.0, "SR_15": 4.0}, {"Diff_star": 0.0, "addr": "10501 LAGRIMA DE ORO NE", "SR_14": 5.0, "Q_14": 5.0, "name": "LA VIDA LLENA", "SF_14": 4.0, "SF_15": 4.0, "cnty": "Bernalillo", "st": "NM", "Zip": 87111.0, "O_14": 5.0, "Q_15": 5.0, "O_15": 5.0, "city": "ALBUQUERQUE", "beds": 50.0, "SR_15": 5.0}, {"Diff_star": -1.0, "addr": "8100 PALOMAS AVENUE", "SR_14": 3.0, "Q_14": 4.0, "name": "LAS PALOMAS CENTER", "SF_14": 4.0, "SF_15": 3.0, "cnty": "Bernalillo", "st": "NM", "Zip": 87109.0, "O_14": 4.0, "Q_15": 3.0, "O_15": 3.0, "city": "ALBUQUERQUE", "beds": 120.0, "SR_15": 3.0}, {"Diff_star": 0.0, "addr": "5901 OURAY ROAD NW", "SR_14": 4.0, "Q_14": 5.0, "name": "LADERA CENTER", "SF_14": 1.0, "SF_15": 1.0, "cnty": "Bernalillo", "st": "NM", "Zip": 87120.0, "O_14": 4.0, "Q_15": 5.0, "O_15": 4.0, "city": "ALBUQUERQUE", "beds": 120.0, "SR_15": 4.0}, {"Diff_star": -1.0, "addr": "1650 GALISTEO STREET", "SR_14": 2.0, "Q_14": 5.0, "name": "CASA REAL", "SF_14": 2.0, "SF_15": 3.0, "cnty": "Santa Fe", "st": "NM", "Zip": 87505.0, "O_14": 3.0, "Q_15": 5.0, "O_15": 2.0, "city": "SANTA FE", "beds": 118.0, "SR_15": 1.0}, {"Diff_star": 0.0, "addr": "2029 SAGECREST COURT", "SR_14": 1.0, "Q_14": 4.0, "name": "SAGECREST NURSING AND REHABILITATION", "SF_14": 2.0, "SF_15": 2.0, "cnty": "Dona Ana", "st": "NM", "Zip": 88011.0, "O_14": 1.0, "Q_15": 3.0, "O_15": 1.0, "city": "LAS CRUCES", "beds": 120.0, "SR_15": 1.0}, {"Diff_star": -1.0, "addr": "5715 NORTH LOVINGTON HIGHWAY", "SR_14": 4.0, "Q_14": 5.0, "name": "HOBBS OPERATING COMP DBA HOBBS HEALTHCARE CENTER", "SF_14": 2.0, "SF_15": 2.0, "cnty": "Lea", "st": "NM", "Zip": 88240.0, "O_14": 5.0, "Q_15": 3.0, "O_15": 4.0, "city": "HOBBS", "beds": 118.0, "SR_15": 4.0}, {"Diff_star": -1.0, "addr": "7900 CONSTITUTION AVENUE NE", "SR_14": 1.0, "Q_14": 5.0, "name": "ST THERESA HEALTHCARE AND REHABILITATION CENTER", "SF_14": "", "SF_15": "", "cnty": "Bernalillo", "st": "NM", "Zip": 87110.0, "O_14": 2.0, "Q_15": 4.0, "O_15": 1.0, "city": "ALBUQUERQUE", "beds": 134.0, "SR_15": 1.0}, {"Diff_star": -1.0, "addr": "205 MOONGLOW AVE.", "SR_14": 3.0, "Q_14": 3.0, "name": "CASA ARENA BLANCA NURSING CENTER", "SF_14": "", "SF_15": "", "cnty": "Otero", "st": "NM", "Zip": 88310.0, "O_14": 3.0, "Q_15": 1.0, "O_15": 2.0, "city": "ALAMOGORDO", "beds": 117.0, "SR_15": 3.0}, {"Diff_star": -1.0, "addr": "3200 MISSION ARCH DRIVE", "SR_14": 4.0, "Q_14": 3.0, "name": "MISSION ARCH CENTER", "SF_14": "", "SF_15": "", "cnty": "Chaves", "st": "NM", "Zip": 88201.0, "O_14": 4.0, "Q_15": 1.0, "O_15": 3.0, "city": "ROSWELL", "beds": 120.0, "SR_15": 4.0}, {"Diff_star": -1.0, "addr": "500 LOUISIANA BOULEVARD NE", "SR_14": 1.0, "Q_14": 5.0, "name": "PRINCETON PLACE", "SF_14": 3.0, "SF_15": 3.0, "cnty": "Bernalillo", "st": "NM", "Zip": 87108.0, "O_14": 2.0, "Q_15": 3.0, "O_15": 1.0, "city": "ALBUQUERQUE", "beds": 369.0, "SR_15": 1.0}, {"Diff_star": -1.0, "addr": "1005 LUJAN HILL ROAD", "SR_14": 2.0, "Q_14": 5.0, "name": "CASA DE ORO CENTER", "SF_14": 3.0, "SF_15": 3.0, "cnty": "Dona Ana", "st": "NM", "Zip": 88005.0, "O_14": 3.0, "Q_15": 4.0, "O_15": 2.0, "city": "LAS CRUCES", "beds": 158.0, "SR_15": 2.0}, {"Diff_star": 0.0, "addr": "10500 ACADEMY ROAD NE", "SR_14": 4.0, "Q_14": 5.0, "name": "MONTEBELLO ON ACADEMY (THE)", "SF_14": 4.0, "SF_15": 4.0, "cnty": "Bernalillo", "st": "NM", "Zip": 87111.0, "O_14": 5.0, "Q_15": 5.0, "O_15": 5.0, "city": "ALBUQUERQUE", "beds": 60.0, "SR_15": 4.0}, {"Diff_star": 0.0, "addr": "10101 LAGRIMA DE ORO ROAD NE", "SR_14": 3.0, "Q_14": 5.0, "name": "CANYON TRANSITIONAL REHABILITATION CENTER, LLC", "SF_14": 4.0, "SF_15": 4.0, "cnty": "Bernalillo", "st": "NM", "Zip": 87111.0, "O_14": 5.0, "Q_15": 5.0, "O_15": 5.0, "city": "ALBUQUERQUE", "beds": 74.0, "SR_15": 3.0}, {"Diff_star": 0.0, "addr": "1011 SOMBRILLO COURT", "SR_14": 1.0, "Q_14": 5.0, "name": "SOMBRILLO NURSING FACILITY", "SF_14": 4.0, "SF_15": 3.0, "cnty": "Los Alamos", "st": "NM", "Zip": 87544.0, "O_14": 2.0, "Q_15": 5.0, "O_15": 2.0, "city": "LOS ALAMOS", "beds": 66.0, "SR_15": 1.0}, {"Diff_star": 0.0, "addr": "1600 WEST AVE I", "SR_14": 5.0, "Q_14": 5.0, "name": "GOOD SAMARITAN  - LOVINGTON", "SF_14": 4.0, "SF_15": 4.0, "cnty": "Lea", "st": "NM", "Zip": 88260.0, "O_14": 5.0, "Q_15": 4.0, "O_15": 5.0, "city": "LOVINGTON", "beds": 62.0, "SR_15": 5.0}, {"Diff_star": -1.0, "addr": "840 LOBO CANYON ROAD", "SR_14": 4.0, "Q_14": 2.0, "name": "GOOD SAMARITAN SOCIETY -  GRANTS", "SF_14": 3.0, "SF_15": 3.0, "cnty": "Cibola", "st": "NM", "Zip": 87020.0, "O_14": 4.0, "Q_15": 1.0, "O_15": 3.0, "city": "GRANTS", "beds": 80.0, "SR_15": 4.0}, {"Diff_star": 0.0, "addr": "720 HACIENDA STREET", "SR_14": 1.0, "Q_14": 4.0, "name": "ESPANOLA VALLEY NURSING AND REHAB", "SF_14": 2.0, "SF_15": 2.0, "cnty": "Rio Arriba", "st": "NM", "Zip": 87532.0, "O_14": 1.0, "Q_15": 2.0, "O_15": 1.0, "city": "ESPANOLA", "beds": 120.0, "SR_15": 1.0}, {"Diff_star": 0.0, "addr": "1509 UNIVERSITY BOULEVARD NE", "SR_14": 1.0, "Q_14": 4.0, "name": "PALOMA BLANCA HEALTH AND REHABILITATION", "SF_14": 3.0, "SF_15": 3.0, "cnty": "Bernalillo", "st": "NM", "Zip": 87102.0, "O_14": 1.0, "Q_15": 3.0, "O_15": 1.0, "city": "ALBUQUERQUE", "beds": 119.0, "SR_15": 1.0}, {"Diff_star": -1.0, "addr": "3101 NORTH FLORIDA AVENUE", "SR_14": 1.0, "Q_14": 2.0, "name": "GOOD SAMARITAN SOCIETY BETTY DARE", "SF_14": 4.0, "SF_15": 2.0, "cnty": "Otero", "st": "NM", "Zip": 88310.0, "O_14": 2.0, "Q_15": 1.0, "O_15": 1.0, "city": "ALAMOGORDO", "beds": 90.0, "SR_15": 2.0}, {"Diff_star": -1.0, "addr": "1400 NORTH SILVER STREET", "SR_14": 1.0, "Q_14": 3.0, "name": "SIERRA HEALTH CARE CENTER", "SF_14": 4.0, "SF_15": 4.0, "cnty": "Sierra", "st": "NM", "Zip": 87901.0, "O_14": 2.0, "Q_15": 1.0, "O_15": 1.0, "city": "T OR C", "beds": 90.0, "SR_15": 1.0}, {"Diff_star": 0.0, "addr": "9150 MCMAHON BOULEVARD NW", "SR_14": 5.0, "Q_14": 4.0, "name": "SKIES HEALTHCARE & REHABILITATION CENTER, LLC", "SF_14": 2.0, "SF_15": 2.0, "cnty": "Bernalillo", "st": "NM", "Zip": 87114.0, "O_14": 5.0, "Q_15": 5.0, "O_15": 5.0, "city": "ALBUQUERQUE", "beds": 120.0, "SR_15": 5.0}, {"Diff_star": 0.0, "addr": "2301 COLLINS DRIVE", "SR_14": 1.0, "Q_14": 2.0, "name": "VIDA ENCANTADA NURSING & REHAB", "SF_14": 3.0, "SF_15": 3.0, "cnty": "San Miguel", "st": "NM", "Zip": 87701.0, "O_14": 1.0, "Q_15": 2.0, "O_15": 1.0, "city": "LAS VEGAS", "beds": 102.0, "SR_15": 1.0}, {"Diff_star": 0.0, "addr": "803 HACIENDA LANE", "SR_14": 1.0, "Q_14": 4.0, "name": "BLOOMFIELD NURSING AND REHAB", "SF_14": 3.0, "SF_15": 3.0, "cnty": "San Juan", "st": "NM", "Zip": 87413.0, "O_14": 1.0, "Q_15": 4.0, "O_15": 1.0, "city": "BLOOMFIELD", "beds": 95.0, "SR_15": 1.0}, {"Diff_star": 0.0, "addr": "3025 TERRACE DRIVE", "SR_14": 3.0, "Q_14": 4.0, "name": "GOOD SAMARITAN SOCIETY LAS CRUCES VILLAGE", "SF_14": 4.0, "SF_15": 4.0, "cnty": "Dona Ana", "st": "NM", "Zip": 88011.0, "O_14": 4.0, "Q_15": 3.0, "O_15": 4.0, "city": "LAS CRUCES", "beds": 94.0, "SR_15": 3.0}, {"Diff_star": 0.0, "addr": "1831 CAMINO DEL LLANO", "SR_14": 1.0, "Q_14": 4.0, "name": "BELEN MEADOWS HEALTHCARE AND REHABILITATION CENTER", "SF_14": 3.0, "SF_15": 3.0, "cnty": "Valencia", "st": "NM", "Zip": 87002.0, "O_14": 1.0, "Q_15": 3.0, "O_15": 1.0, "city": "BELEN", "beds": 120.0, "SR_15": 1.0}, {"Diff_star": -1.0, "addr": "103 HOSPITAL LOOP NE", "SR_14": 2.0, "Q_14": 5.0, "name": "ALBUQUERQUE HEIGHTS HEALTHCARE AND REHABILITATION", "SF_14": 3.0, "SF_15": 3.0, "cnty": "Bernalillo", "st": "NM", "Zip": 87109.0, "O_14": 3.0, "Q_15": 4.0, "O_15": 2.0, "city": "ALBUQUERQUE", "beds": 134.0, "SR_15": 2.0}, {"Diff_star": -1.0, "addr": "3720 CHURCH ROCK ROAD", "SR_14": 2.0, "Q_14": 5.0, "name": "RED ROCKS CARE CENTER", "SF_14": 3.0, "SF_15": 3.0, "cnty": "Mckinley", "st": "NM", "Zip": 87301.0, "O_14": 3.0, "Q_15": 5.0, "O_15": 2.0, "city": "GALLUP", "beds": 102.0, "SR_15": 1.0}, {"Diff_star": 0.0, "addr": "500 CARE LANE", "SR_14": 2.0, "Q_14": 4.0, "name": "GOOD SAMARITAN SOCIETY - FOUR CORNERS VILLAGE", "SF_14": 4.0, "SF_15": 4.0, "cnty": "San Juan", "st": "NM", "Zip": 87410.0, "O_14": 3.0, "Q_15": 3.0, "O_15": 3.0, "city": "AZTEC", "beds": 88.0, "SR_15": 2.0}, {"Diff_star": 0.0, "addr": "1203 HIGHWAY 60 WEST", "SR_14": 3.0, "Q_14": 4.0, "name": "GOOD SAMARITAN SOCIETY- SOCORRO", "SF_14": 4.0, "SF_15": 4.0, "cnty": "Socorro", "st": "NM", "Zip": 87801.0, "O_14": 4.0, "Q_15": 3.0, "O_15": 4.0, "city": "SOCORRO", "beds": 66.0, "SR_15": 3.0}, {"Diff_star": -1.0, "addr": "5201 ROMA AVENUE NE", "SR_14": 3.0, "Q_14": 4.0, "name": "GOOD SAMARITAN SOCIETY - MANZANO DEL SOL", "SF_14": 4.0, "SF_15": 3.0, "cnty": "Bernalillo", "st": "NM", "Zip": 87108.0, "O_14": 4.0, "Q_15": 3.0, "O_15": 3.0, "city": "ALBUQUERQUE", "beds": 117.0, "SR_15": 3.0}, {"Diff_star": 0.0, "addr": "1400 WEST 21ST STREET", "SR_14": 4.0, "Q_14": 5.0, "name": "ST ANTHONY HEALTHCARE AND REHAB CENTER, L", "SF_14": "", "SF_15": "", "cnty": "Curry", "st": "NM", "Zip": 88101.0, "O_14": 5.0, "Q_15": 5.0, "O_15": 5.0, "city": "CLOVIS", "beds": 70.0, "SR_15": 4.0}, {"Diff_star": -1.0, "addr": "1201 NORTH NORRIS STREET", "SR_14": 4.0, "Q_14": 5.0, "name": "CLOVIS HEALTHCARE AND REHABILITATION CENTER", "SF_14": 3.0, "SF_15": 3.0, "cnty": "Curry", "st": "NM", "Zip": 88101.0, "O_14": 5.0, "Q_15": 4.0, "O_15": 4.0, "city": "CLOVIS", "beds": 90.0, "SR_15": 4.0}, {"Diff_star": 1.0, "addr": "2221 DILLON", "SR_14": 3.0, "Q_14": 3.0, "name": "RETIREMENT RANCHES INC.", "SF_14": 4.0, "SF_15": "", "cnty": "Curry", "st": "NM", "Zip": 88101.0, "O_14": 4.0, "Q_15": 2.0, "O_15": 5.0, "city": "CLOVIS", "beds": 104.0, "SR_15": 5.0}, {"Diff_star": 0.0, "addr": "900 WEST ASH STREET", "SR_14": 2.0, "Q_14": 3.0, "name": "MIMBRES MEMORIAL NURSING HOME", "SF_14": 4.0, "SF_15": 4.0, "cnty": "Luna", "st": "NM", "Zip": 88031.0, "O_14": 3.0, "Q_15": 2.0, "O_15": 3.0, "city": "DEMING", "beds": 66.0, "SR_15": 2.0}, {"Diff_star": 0.0, "addr": "1900 WESTRIDGE ROAD", "SR_14": 4.0, "Q_14": 4.0, "name": "LANDSUN HOMES, INC.", "SF_14": 5.0, "SF_15": 5.0, "cnty": "Eddy", "st": "NM", "Zip": 88220.0, "O_14": 5.0, "Q_15": 4.0, "O_15": 5.0, "city": "CARLSBAD", "beds": 105.0, "SR_15": 4.0}, {"Diff_star": 0.0, "addr": "1629 BOWE LANE SW", "SR_14": 5.0, "Q_14": 5.0, "name": "SOUTH VALLEY CARE CENTER, LLC", "SF_14": 1.0, "SF_15": 1.0, "cnty": "Bernalillo", "st": "NM", "Zip": 87105.0, "O_14": 5.0, "Q_15": 5.0, "O_15": 5.0, "city": "ALBUQUERQUE", "beds": 62.0, "SR_15": 5.0}, {"Diff_star": -1.0, "addr": "1660 HOSPITAL DRIVE", "SR_14": 2.0, "Q_14": 1.0, "name": "RATON NURSING AND REHAB CENTER", "SF_14": 5.0, "SF_15": "", "cnty": "Colfax", "st": "NM", "Zip": 87740.0, "O_14": 2.0, "Q_15": 1.0, "O_15": 1.0, "city": "RATON", "beds": 80.0, "SR_15": 1.0}, {"Diff_star": 0.0, "addr": "806 WEST MAPLE STREET", "SR_14": 4.0, "Q_14": 4.0, "name": "SAN JUAN CENTER", "SF_14": 2.0, "SF_15": 2.0, "cnty": "San Juan", "st": "NM", "Zip": 87401.0, "O_14": 4.0, "Q_15": 4.0, "O_15": 4.0, "city": "FARMINGTON", "beds": 93.0, "SR_15": 4.0}, {"Diff_star": 0.0, "addr": "1601 SOUTH MAIN STREET", "SR_14": 3.0, "Q_14": 4.0, "name": "CASA MARIA HEALTHCARE CENTER AND PECOS VALLEY REHA", "SF_14": "", "SF_15": "", "cnty": "Chaves", "st": "NM", "Zip": 88203.0, "O_14": 3.0, "Q_15": 3.0, "O_15": 3.0, "city": "ROSWELL", "beds": 118.0, "SR_15": 3.0}, {"Diff_star": 0.0, "addr": "1905 WEST PIERCE ST", "SR_14": 2.0, "Q_14": 4.0, "name": "NORTHGATE UNIT OF LAKEVIEW CHRISTIAN HOME NURSING", "SF_14": "", "SF_15": "", "cnty": "Eddy", "st": "NM", "Zip": 88220.0, "O_14": 2.0, "Q_15": 3.0, "O_15": 2.0, "city": "CARLSBAD", "beds": 112.0, "SR_15": 2.0}, {"Diff_star": 0.0, "addr": "3514 FOWLER AVE", "SR_14": 1.0, "Q_14": 3.0, "name": "SILVER CITY CARE CENTER", "SF_14": 3.0, "SF_15": 3.0, "cnty": "Grant", "st": "NM", "Zip": 88061.0, "O_14": 1.0, "Q_15": 2.0, "O_15": 1.0, "city": "SILVER CITY", "beds": 100.0, "SR_15": 1.0}, {"Diff_star": -1.0, "addr": "992 SOUTH BROADWAY", "SR_14": 2.0, "Q_14": 5.0, "name": "NEW MEXICO STATE VETERANS HOME", "SF_14": 4.0, "SF_15": 4.0, "cnty": "Sierra", "st": "NM", "Zip": 87901.0, "O_14": 4.0, "Q_15": 3.0, "O_15": 3.0, "city": "TRUTH OR CONSEQUENCE", "beds": 145.0, "SR_15": 2.0}, {"Diff_star": 0.0, "addr": "8300 CONSTITUTION AVENUE NE", "SR_14": 3.0, "Q_14": 2.0, "name": "KASEMAN SUBACUTE AND REHABILITATION", "SF_14": 5.0, "SF_15": 5.0, "cnty": "Bernalillo", "st": "NM", "Zip": 87110.0, "O_14": 4.0, "Q_15": 3.0, "O_15": 4.0, "city": "ALBUQUERQUE", "beds": 55.0, "SR_15": 3.0}, {"Diff_star": 0.0, "addr": "419 HARDING STREET", "SR_14": 4.0, "Q_14": 4.0, "name": "CLAYTON NURSING AND REHAB", "SF_14": 3.0, "SF_15": 3.0, "cnty": "Union", "st": "NM", "Zip": 88415.0, "O_14": 4.0, "Q_15": 4.0, "O_15": 4.0, "city": "CLAYTON", "beds": 45.0, "SR_15": 4.0}, {"Diff_star": 0.0, "addr": "2430 WEST PIERCE STREET", "SR_14": 4.0, "Q_14": 4.0, "name": "CARLSBAD MEDICAL CENTER - TCU", "SF_14": "", "SF_15": "", "cnty": "Eddy", "st": "NM", "Zip": 88220.0, "O_14": 4.0, "Q_15": 4.0, "O_15": 4.0, "city": "CARLSBAD", "beds": 15.0, "SR_15": 4.0}, {"Diff_star": -1.0, "addr": "5419 N LOVINGTON HIGHWAY", "SR_14": 5.0, "Q_14": 3.0, "name": "LEA REGIONAL MEDICAL CENTER - TRANSITIONAL CARE UN", "SF_14": 5.0, "SF_15": 5.0, "cnty": "Lea", "st": "NM", "Zip": 88240.0, "O_14": 5.0, "Q_15": 1.0, "O_15": 4.0, "city": "HOBBS", "beds": 16.0, "SR_15": 5.0}, {"Diff_star": 0.0, "addr": "1101 WEST MURRAY DRIVE", "SR_14": 3.0, "Q_14": 5.0, "name": "LIFE CARE CENTER OF FARMINGTON", "SF_14": 3.0, "SF_15": 3.0, "cnty": "San Juan", "st": "NM", "Zip": 87401.0, "O_14": 4.0, "Q_15": 5.0, "O_15": 4.0, "city": "FARMINGTON", "beds": 144.0, "SR_15": 3.0}, {"Diff_star": 0.0, "addr": "3695 HOT SPRINGS BOULEVARD", "SR_14": 2.0, "Q_14": 4.0, "name": "NM BEHAVIORAL HEALTH INSTITUTE AT LAS VEGAS(THE)", "SF_14": 5.0, "SF_15": 5.0, "cnty": "San Miguel", "st": "NM", "Zip": 87701.0, "O_14": 3.0, "Q_15": 2.0, "O_15": 3.0, "city": "LAS VEGAS", "beds": 176.0, "SR_15": 2.0}, {"Diff_star": 0.0, "addr": "1340 MAESTAS ROAD", "SR_14": 2.0, "Q_14": 4.0, "name": "TAOS LIVING CENTER", "SF_14": 4.0, "SF_15": 4.0, "cnty": "Taos", "st": "NM", "Zip": 87571.0, "O_14": 3.0, "Q_15": 2.0, "O_15": 3.0, "city": "TAOS", "beds": 102.0, "SR_15": 2.0}, {"Diff_star": -4.0, "addr": "2905 EAST MISSOURI", "SR_14": 5.0, "Q_14": 2.0, "name": "CASA DEL SOL CENTER", "SF_14": 3.0, "SF_15": 1.0, "cnty": "Dona Ana", "st": "NM", "Zip": 88011.0, "O_14": 5.0, "Q_15": 1.0, "O_15": 1.0, "city": "LAS CRUCES", "beds": 62.0, "SR_15": 3.0}, {"Diff_star": 0.0, "addr": "2884 NORTH ROAD RUNNER PARKWAY", "SR_14": 4.0, "Q_14": 1.0, "name": "VILLAGE AT NORTHRISE (THE) - DESERT WILLOW I", "SF_14": 5.0, "SF_15": 5.0, "cnty": "Dona Ana", "st": "NM", "Zip": 88011.0, "O_14": 4.0, "Q_15": 1.0, "O_15": 4.0, "city": "LAS CRUCES", "beds": 30.0, "SR_15": 4.0}, {"Diff_star": 0.0, "addr": "2101 BENSING ROAD", "SR_14": 3.0, "Q_14": 4.0, "name": "COUNTRY COTTAGE CARE AND REHAB", "SF_14": "", "SF_15": "", "cnty": "Lea", "st": "NM", "Zip": 88240.0, "O_14": 3.0, "Q_15": 3.0, "O_15": 3.0, "city": "HOBBS", "beds": 55.0, "SR_15": 3.0}, {"Diff_star": 0.0, "addr": "800 SAGUARO TRAIL", "SR_14": 2.0, "Q_14": 5.0, "name": "CEDAR RIDGE INN", "SF_14": 4.0, "SF_15": 4.0, "cnty": "San Juan", "st": "NM", "Zip": 87401.0, "O_14": 4.0, "Q_15": 5.0, "O_15": 4.0, "city": "FARMINGTON", "beds": 101.0, "SR_15": 2.0}, {"Diff_star": 0.0, "addr": "1604 WEST 18TH STREET", "SR_14": 2.0, "Q_14": 4.0, "name": "HEARTLAND CONTINUING CARE CENTER", "SF_14": 2.0, "SF_15": 2.0, "cnty": "Roosevelt", "st": "NM", "Zip": 88130.0, "O_14": 2.0, "Q_15": 4.0, "O_15": 2.0, "city": "PORTALES", "beds": 80.0, "SR_15": 2.0}, {"Diff_star": -1.0, "addr": "454 LIPAN AVE", "SR_14": 2.0, "Q_14": 2.0, "name": "MESCALERO CARE CENTER", "SF_14": 2.0, "SF_15": 2.0, "cnty": "Otero", "st": "NM", "Zip": 88340.0, "O_14": 2.0, "Q_15": 1.0, "O_15": 1.0, "city": "MESCALERO", "beds": 40.0, "SR_15": 2.0}, {"Diff_star": -1.0, "addr": "1515 SOUTH SUNSET", "SR_14": 2.0, "Q_14": 5.0, "name": "SUNSET VILLA CARE CENTER", "SF_14": "", "SF_15": "", "cnty": "Chaves", "st": "NM", "Zip": 88203.0, "O_14": 3.0, "Q_15": 3.0, "O_15": 2.0, "city": "ROSWELL", "beds": 52.0, "SR_15": 2.0}, {"Diff_star": 0.0, "addr": "306 NIZHONI BLVD", "SR_14": 1.0, "Q_14": 4.0, "name": "MCKINLEY CENTER", "SF_14": 2.0, "SF_15": 2.0, "cnty": "Mckinley", "st": "NM", "Zip": 87301.0, "O_14": 1.0, "Q_15": 3.0, "O_15": 1.0, "city": "GALLUP", "beds": 62.0, "SR_15": 1.0}, {"Diff_star": 0.0, "addr": "2701 RICHMOND DRIVE NE", "SR_14": 4.0, "Q_14": 5.0, "name": "ADVANCED HEALTH CARE OF ALBUQUERQUE", "SF_14": 5.0, "SF_15": 5.0, "cnty": "Bernalillo", "st": "NM", "Zip": 87107.0, "O_14": 5.0, "Q_15": 5.0, "O_15": 5.0, "city": "ALBUQUERQUE", "beds": 47.0, "SR_15": 4.0}, {"Diff_star": 0.0, "addr": "41 FORT BAYARD ROAD", "SR_14": 3.0, "Q_14": 4.0, "name": "FORT BAYARD MEDICAL CENTER", "SF_14": 5.0, "SF_15": 5.0, "cnty": "Grant", "st": "NM", "Zip": 88026.0, "O_14": 4.0, "Q_15": 2.0, "O_15": 4.0, "city": "SANTA CLARA", "beds": 200.0, "SR_15": 3.0}, {"Diff_star": -1.0, "addr": "603 HADECO", "SR_14": 3.0, "Q_14": 4.0, "name": "SUNSHINE HAVEN AT LORDSBURG", "SF_14": 4.0, "SF_15": 2.0, "cnty": "Hidalgo", "st": "NM", "Zip": 88045.0, "O_14": 4.0, "Q_15": 5.0, "O_15": 3.0, "city": "LORDSBURG", "beds": 67.0, "SR_15": 2.0}, {"Diff_star": 0.0, "addr": "414 CAMINO DE LA PLACITA #24", "SR_14": 3.0, "Q_14": 5.0, "name": "TAOS RETIREMENT VILLAGE", "SF_14": 4.0, "SF_15": 4.0, "cnty": "Taos", "st": "NM", "Zip": 87571.0, "O_14": 5.0, "Q_15": 5.0, "O_15": 5.0, "city": "TAOS", "beds": 20.0, "SR_15": 3.0}, {"Diff_star": 0.0, "addr": "8820 HORIZON BOULEVARD NE", "SR_14": 3.0, "Q_14": 2.0, "name": "MEDICAL RESORT AT FIESTA PARK (THE)", "SF_14": 2.0, "SF_15": 2.0, "cnty": "Bernalillo", "st": "NM", "Zip": 87113.0, "O_14": 3.0, "Q_15": 1.0, "O_15": 3.0, "city": "ALBUQUERQUE", "beds": 85.0, "SR_15": 4.0}, {"Diff_star": 0.0, "addr": "5123 JUAN TABO BOULEVARD NE", "SR_14": 5.0, "Q_14": 5.0, "name": "ST CATHERINE HEALTHCARE AND REHABILITATION CENTER,", "SF_14": 4.0, "SF_15": 3.0, "cnty": "Bernalillo", "st": "NM", "Zip": 87111.0, "O_14": 5.0, "Q_15": 5.0, "O_15": 5.0, "city": "ALBUQUERQUE", "beds": 178.0, "SR_15": 5.0}, {"Diff_star": 0.0, "addr": "3620 LAS ESTANCIAS DR SW", "SR_14": "", "Q_14": "", "name": "THE RIO AT LAS ESTANCIAS", "SF_14": "", "SF_15": "", "cnty": "Bernalillo", "st": "NM", "Zip": 87105.0, "O_14": "", "Q_15": "", "O_15": "", "city": "ALBUQUERQUE", "beds": 120.0, "SR_15": ""}, {"Diff_star": 0.0, "addr": "I-40 EXIT 108 1/2 MILE SOUTH STATE ROAD 23", "SR_14": 2.0, "Q_14": 5.0, "name": "LAGUNA RAINBOW NURSING CENTER", "SF_14": 3.0, "SF_15": 3.0, "cnty": "Cibola", "st": "NM", "Zip": 87007.0, "O_14": 3.0, "Q_15": 5.0, "O_15": 3.0, "city": "CASA BLANCA", "beds": 58.0, "SR_15": 2.0}, {"Diff_star": 0.0, "addr": "900 SOUTH 6TH STREET", "SR_14": 3.0, "Q_14": "", "name": "MINERS COLFAX MEDICAL CENTER", "SF_14": 5.0, "SF_15": 5.0, "cnty": "Colfax", "st": "NM", "Zip": 87740.0, "O_14": 4.0, "Q_15": "", "O_15": 4.0, "city": "RATON", "beds": 37.0, "SR_15": 3.0}, {"Diff_star": 0.0, "addr": "615 PROSPECT AVENUE", "SR_14": 4.0, "Q_14": 5.0, "name": "COLFAX GENERAL LTC", "SF_14": 4.0, "SF_15": 4.0, "cnty": "Colfax", "st": "NM", "Zip": 87747.0, "O_14": 5.0, "Q_15": 5.0, "O_15": 5.0, "city": "SPRINGER", "beds": 34.0, "SR_15": 4.0}]