[{"Diff_star": 0.0, "addr": "6202 EAST 61ST STREET", "SR_14": 1.0, "Q_14": 3.0, "name": "MAPLEWOOD CARE CENTER", "SF_14": 2.0, "SF_15": 2.0, "cnty": "Tulsa", "st": "OK", "Zip": 74136.0, "O_14": 1.0, "Q_15": 1.0, "O_15": 1.0, "city": "TULSA", "beds": 180.0, "SR_15": 1.0}, {"Diff_star": 1.0, "addr": "ONE CLARK BASS BLVD", "SR_14": 5.0, "Q_14": 1.0, "name": "MCALESTER REGIONAL HOSPITAL, SNF", "SF_14": "", "SF_15": "", "cnty": "Pittsburg", "st": "OK", "Zip": 74501.0, "O_14": 4.0, "Q_15": 2.0, "O_15": 5.0, "city": "MCALESTER", "beds": 20.0, "SR_15": 5.0}, {"Diff_star": 0.0, "addr": "600 SOUTH MONROE STREET", "SR_14": 5.0, "Q_14": 1.0, "name": "INTEGRIS BASS BAPTIST HEALTH CENTER", "SF_14": 5.0, "SF_15": 5.0, "cnty": "Garfield", "st": "OK", "Zip": 73701.0, "O_14": 4.0, "Q_15": 1.0, "O_15": 4.0, "city": "ENID", "beds": 21.0, "SR_15": 5.0}, {"Diff_star": 0.0, "addr": "1407 WHISENNANT DRIVE", "SR_14": 5.0, "Q_14": 5.0, "name": "DUNCAN REGIONAL HOSPITAL, INC.", "SF_14": 5.0, "SF_15": 5.0, "cnty": "Stephens", "st": "OK", "Zip": 73533.0, "O_14": 5.0, "Q_15": 3.0, "O_15": 5.0, "city": "DUNCAN", "beds": 16.0, "SR_15": 5.0}, {"Diff_star": 0.0, "addr": "2425 SOUTH MEMORIAL", "SR_14": 3.0, "Q_14": 5.0, "name": "MANORCARE HEALTH SERVICES-TULSA", "SF_14": 4.0, "SF_15": 4.0, "cnty": "Tulsa", "st": "OK", "Zip": 74129.0, "O_14": 5.0, "Q_15": 5.0, "O_15": 5.0, "city": "TULSA", "beds": 118.0, "SR_15": 3.0}, {"Diff_star": 0.0, "addr": "2900 PARKLAWN DRIVE", "SR_14": 1.0, "Q_14": 5.0, "name": "MANORCARE HEALTH SERVICES-MIDWEST CITY", "SF_14": 1.0, "SF_15": 1.0, "cnty": "Oklahoma", "st": "OK", "Zip": 73110.0, "O_14": 2.0, "Q_15": 5.0, "O_15": 2.0, "city": "MIDWEST CITY", "beds": 116.0, "SR_15": 1.0}, {"Diff_star": 0.0, "addr": "905 BEALL ROAD", "SR_14": 1.0, "Q_14": 3.0, "name": "CIMARRON NURSING CENTER", "SF_14": 3.0, "SF_15": 3.0, "cnty": "Kingfisher", "st": "OK", "Zip": 73750.0, "O_14": 1.0, "Q_15": 2.0, "O_15": 1.0, "city": "KINGFISHER", "beds": 92.0, "SR_15": 1.0}, {"Diff_star": 0.0, "addr": "940 SOUTHWEST 84TH STREET", "SR_14": 2.0, "Q_14": 4.0, "name": "GRACE LIVING CENTER-BROOKWOOD", "SF_14": 3.0, "SF_15": 3.0, "cnty": "Oklahoma", "st": "OK", "Zip": 73139.0, "O_14": 2.0, "Q_15": 3.0, "O_15": 2.0, "city": "OKLAHOMA CITY", "beds": 120.0, "SR_15": 2.0}, {"Diff_star": -1.0, "addr": "7000 NORTHWEST 32ND STREET", "SR_14": 3.0, "Q_14": 4.0, "name": "GRACE LIVING CENTER-BETHANY", "SF_14": 4.0, "SF_15": 3.0, "cnty": "Oklahoma", "st": "OK", "Zip": 73008.0, "O_14": 4.0, "Q_15": 2.0, "O_15": 3.0, "city": "BETHANY", "beds": 161.0, "SR_15": 3.0}, {"Diff_star": 0.0, "addr": "1244 WOODLAND LOOP DRIVE", "SR_14": 4.0, "Q_14": 1.0, "name": "HERITAGE VILLA NURSING CENTER", "SF_14": 3.0, "SF_15": 3.0, "cnty": "Washington", "st": "OK", "Zip": 74006.0, "O_14": 3.0, "Q_15": 1.0, "O_15": 3.0, "city": "BARTLESVILLE", "beds": 100.0, "SR_15": 4.0}, {"Diff_star": -1.0, "addr": "3434 KENTUCKY PLACE", "SR_14": 3.0, "Q_14": 2.0, "name": "BARTLESVILLE HEALTH AND REHABILITATION COMMUNITY", "SF_14": 2.0, "SF_15": 2.0, "cnty": "Washington", "st": "OK", "Zip": 74006.0, "O_14": 3.0, "Q_15": 1.0, "O_15": 2.0, "city": "BARTLESVILLE", "beds": 119.0, "SR_15": 3.0}, {"Diff_star": 0.0, "addr": "1901 PARKVIEW DRIVE", "SR_14": 5.0, "Q_14": 4.0, "name": "GRACE LIVING CENTER-EL RENO", "SF_14": 2.0, "SF_15": 2.0, "cnty": "Canadian", "st": "OK", "Zip": 73036.0, "O_14": 5.0, "Q_15": 3.0, "O_15": 5.0, "city": "EL RENO", "beds": 120.0, "SR_15": 5.0}, {"Diff_star": 0.0, "addr": "103 HAR-BER ROAD", "SR_14": 1.0, "Q_14": 2.0, "name": "GRAND LAKE VILLA", "SF_14": 4.0, "SF_15": 4.0, "cnty": "Delaware", "st": "OK", "Zip": 74345.0, "O_14": 2.0, "Q_15": 1.0, "O_15": 2.0, "city": "GROVE", "beds": 100.0, "SR_15": 2.0}, {"Diff_star": 0.0, "addr": "1100 WEST GEORGIA", "SR_14": 1.0, "Q_14": 2.0, "name": "OAK HILL CARE CENTER", "SF_14": 2.0, "SF_15": 2.0, "cnty": "Oklahoma", "st": "OK", "Zip": 73049.0, "O_14": 1.0, "Q_15": 1.0, "O_15": 1.0, "city": "JONES", "beds": 160.0, "SR_15": 1.0}, {"Diff_star": 0.0, "addr": "13500 BRANDON PLACE", "SR_14": 2.0, "Q_14": 4.0, "name": "QUAIL CREEK NURSING AND REHABILITATION CENTER", "SF_14": 2.0, "SF_15": 2.0, "cnty": "Oklahoma", "st": "OK", "Zip": 73142.0, "O_14": 2.0, "Q_15": 3.0, "O_15": 2.0, "city": "OKLAHOMA CITY", "beds": 118.0, "SR_15": 2.0}, {"Diff_star": -1.0, "addr": "201 48TH AVENUE SOUTHWEST", "SR_14": 4.0, "Q_14": 3.0, "name": "GRACE LIVING CENTER-NORMAN", "SF_14": 4.0, "SF_15": 3.0, "cnty": "Cleveland", "st": "OK", "Zip": 73072.0, "O_14": 4.0, "Q_15": 1.0, "O_15": 3.0, "city": "NORMAN", "beds": 136.0, "SR_15": 4.0}, {"Diff_star": 0.0, "addr": "1305 SOUTHEAST ADAMS", "SR_14": 1.0, "Q_14": 1.0, "name": "MEMORIAL HEIGHTS NURSING CENTER", "SF_14": 1.0, "SF_15": 1.0, "cnty": "Mccurtain", "st": "OK", "Zip": 74745.0, "O_14": 1.0, "Q_15": 1.0, "O_15": 1.0, "city": "IDABEL", "beds": 118.0, "SR_15": 1.0}, {"Diff_star": 0.0, "addr": "614 CHERRY STREET", "SR_14": 5.0, "Q_14": 1.0, "name": "GRACE LIVING CENTER-TAHLEQUAH EAST SHAWNEE", "SF_14": 2.0, "SF_15": 2.0, "cnty": "Cherokee", "st": "OK", "Zip": 74465.0, "O_14": 4.0, "Q_15": 1.0, "O_15": 4.0, "city": "TAHLEQUAH", "beds": 125.0, "SR_15": 5.0}, {"Diff_star": 0.0, "addr": "3401 WEST  GORE", "SR_14": 5.0, "Q_14": 5.0, "name": "COMANCHE COUNTY MEMORIAL HOSPITAL SKILLED NURSING", "SF_14": 5.0, "SF_15": 5.0, "cnty": "Comanche", "st": "OK", "Zip": 73505.0, "O_14": 5.0, "Q_15": 5.0, "O_15": 5.0, "city": "LAWTON", "beds": 18.0, "SR_15": 5.0}, {"Diff_star": -1.0, "addr": "500 SOUTH YORK", "SR_14": 3.0, "Q_14": 5.0, "name": "YORK MANOR NURSING HOME", "SF_14": 4.0, "SF_15": 4.0, "cnty": "Muskogee", "st": "OK", "Zip": 74403.0, "O_14": 5.0, "Q_15": 4.0, "O_15": 4.0, "city": "MUSKOGEE", "beds": 60.0, "SR_15": 3.0}, {"Diff_star": 0.0, "addr": "1201 DIERKS STREET", "SR_14": 4.0, "Q_14": 4.0, "name": "MCCURTAIN MANOR NURSING HOME", "SF_14": 4.0, "SF_15": 4.0, "cnty": "Mccurtain", "st": "OK", "Zip": 74728.0, "O_14": 4.0, "Q_15": 4.0, "O_15": 4.0, "city": "BROKEN BOW", "beds": 60.0, "SR_15": 4.0}, {"Diff_star": 0.0, "addr": "5600 SOUTH WALKER", "SR_14": 4.0, "Q_14": 5.0, "name": "MANORCARE HEALTH SERVICES-SOUTHWEST", "SF_14": 3.0, "SF_15": 3.0, "cnty": "Oklahoma", "st": "OK", "Zip": 73109.0, "O_14": 5.0, "Q_15": 5.0, "O_15": 5.0, "city": "OKLAHOMA CITY", "beds": 112.0, "SR_15": 4.0}, {"Diff_star": 0.0, "addr": "321 SOUTHEAST 2ND STREET", "SR_14": 2.0, "Q_14": 2.0, "name": "CHECOTAH NURSING CENTER", "SF_14": 2.0, "SF_15": 2.0, "cnty": "Mcintosh", "st": "OK", "Zip": 74426.0, "O_14": 2.0, "Q_15": 2.0, "O_15": 2.0, "city": "CHECOTAH", "beds": 82.0, "SR_15": 2.0}, {"Diff_star": 0.0, "addr": "2400 WEST MODELLE", "SR_14": 4.0, "Q_14": 1.0, "name": "GRACE LIVING CENTER-CLINTON", "SF_14": 3.0, "SF_15": 3.0, "cnty": "Custer", "st": "OK", "Zip": 73601.0, "O_14": 3.0, "Q_15": 1.0, "O_15": 3.0, "city": "CLINTON", "beds": 100.0, "SR_15": 4.0}, {"Diff_star": 0.0, "addr": "2300 IOWA AVENUE", "SR_14": 4.0, "Q_14": 5.0, "name": "GRACE LIVING CENTER-CHICKASHA", "SF_14": 4.0, "SF_15": 4.0, "cnty": "Grady", "st": "OK", "Zip": 73023.0, "O_14": 5.0, "Q_15": 5.0, "O_15": 5.0, "city": "CHICKASHA", "beds": 120.0, "SR_15": 4.0}, {"Diff_star": -1.0, "addr": "1622 EAST BROADWAY", "SR_14": 4.0, "Q_14": 5.0, "name": "BROADWAY MANOR NURSING HOME", "SF_14": 4.0, "SF_15": 4.0, "cnty": "Muskogee", "st": "OK", "Zip": 74403.0, "O_14": 5.0, "Q_15": 3.0, "O_15": 4.0, "city": "MUSKOGEE", "beds": 105.0, "SR_15": 4.0}, {"Diff_star": 0.0, "addr": "1700 EAST 141ST  STREET", "SR_14": 2.0, "Q_14": 2.0, "name": "GLENNWOOD HEALTHCARE, INC", "SF_14": 1.0, "SF_15": 1.0, "cnty": "Tulsa", "st": "OK", "Zip": 74033.0, "O_14": 1.0, "Q_15": 1.0, "O_15": 1.0, "city": "GLENPOOL", "beds": 119.0, "SR_15": 1.0}, {"Diff_star": -1.0, "addr": "430 BARTLES ROAD", "SR_14": 3.0, "Q_14": 2.0, "name": "MEDICALODGES DEWEY", "SF_14": 4.0, "SF_15": 4.0, "cnty": "Washington", "st": "OK", "Zip": 74029.0, "O_14": 4.0, "Q_15": 1.0, "O_15": 3.0, "city": "DEWEY", "beds": 58.0, "SR_15": 3.0}, {"Diff_star": -2.0, "addr": "2400 SOUTHWEST 55TH STREET", "SR_14": 2.0, "Q_14": 2.0, "name": "GRACE LIVING CENTER-SOUTHWEST O K C", "SF_14": 4.0, "SF_15": 3.0, "cnty": "Oklahoma", "st": "OK", "Zip": 73119.0, "O_14": 3.0, "Q_15": 1.0, "O_15": 1.0, "city": "OKLAHOMA CITY", "beds": 120.0, "SR_15": 2.0}, {"Diff_star": -1.0, "addr": "1921 NORTHEAST 21ST STREET", "SR_14": 1.0, "Q_14": 2.0, "name": "GRACE LIVING CENTER-NORTHEAST O K C", "SF_14": 4.0, "SF_15": 3.0, "cnty": "Oklahoma", "st": "OK", "Zip": 73111.0, "O_14": 2.0, "Q_15": 1.0, "O_15": 1.0, "city": "OKLAHOMA CITY", "beds": 105.0, "SR_15": 1.0}, {"Diff_star": 0.0, "addr": "2520 SOUTH RANKIN", "SR_14": 4.0, "Q_14": 3.0, "name": "GRACE LIVING CENTER-EDMOND", "SF_14": 4.0, "SF_15": 4.0, "cnty": "Oklahoma", "st": "OK", "Zip": 73013.0, "O_14": 4.0, "Q_15": 3.0, "O_15": 4.0, "city": "EDMOND", "beds": 132.0, "SR_15": 4.0}, {"Diff_star": 0.0, "addr": "4717 WEST OKMULGEE", "SR_14": 3.0, "Q_14": 4.0, "name": "GRACE LIVING CENTER-MUSKOGEE", "SF_14": 1.0, "SF_15": 1.0, "cnty": "Muskogee", "st": "OK", "Zip": 74401.0, "O_14": 2.0, "Q_15": 4.0, "O_15": 2.0, "city": "MUSKOGEE", "beds": 105.0, "SR_15": 3.0}, {"Diff_star": 0.0, "addr": "1811 9TH STREET NORTHWEST", "SR_14": 1.0, "Q_14": 3.0, "name": "ELMBROOK HOME", "SF_14": 3.0, "SF_15": 3.0, "cnty": "Carter", "st": "OK", "Zip": 73401.0, "O_14": 1.0, "Q_15": 2.0, "O_15": 1.0, "city": "ARDMORE", "beds": 126.0, "SR_15": 1.0}, {"Diff_star": -1.0, "addr": "700 WEST JONES", "SR_14": 1.0, "Q_14": 2.0, "name": "BROKEN BOW NURSING HOME", "SF_14": 4.0, "SF_15": 3.0, "cnty": "Mccurtain", "st": "OK", "Zip": 74728.0, "O_14": 2.0, "Q_15": 1.0, "O_15": 1.0, "city": "BROKEN BOW", "beds": 105.0, "SR_15": 1.0}, {"Diff_star": 0.0, "addr": "1501 CLAYTON AVENUE", "SR_14": 1.0, "Q_14": 3.0, "name": "THE OAKS HEALTHCARE CENTER", "SF_14": 1.0, "SF_15": 1.0, "cnty": "Le Flore", "st": "OK", "Zip": 74953.0, "O_14": 1.0, "Q_15": 1.0, "O_15": 1.0, "city": "POTEAU", "beds": 158.0, "SR_15": 1.0}, {"Diff_star": 0.0, "addr": "1340 EAST 61ST STREET", "SR_14": 2.0, "Q_14": 4.0, "name": "AMBASSADOR MANOR NURSING CENTER", "SF_14": 4.0, "SF_15": 4.0, "cnty": "Tulsa", "st": "OK", "Zip": 74136.0, "O_14": 3.0, "Q_15": 3.0, "O_15": 3.0, "city": "TULSA", "beds": 171.0, "SR_15": 2.0}, {"Diff_star": 0.0, "addr": "1709 SOUTH MAIN", "SR_14": 2.0, "Q_14": 3.0, "name": "VILLAGE HEALTH CARE CENTER", "SF_14": 2.0, "SF_15": 2.0, "cnty": "Tulsa", "st": "OK", "Zip": 74012.0, "O_14": 2.0, "Q_15": 2.0, "O_15": 2.0, "city": "BROKEN ARROW", "beds": 90.0, "SR_15": 2.0}, {"Diff_star": 0.0, "addr": "5170 SOUTH VANDALIA", "SR_14": 2.0, "Q_14": 5.0, "name": "SOUTHERN HILLS REHABILITATION CENTER", "SF_14": 4.0, "SF_15": 4.0, "cnty": "Tulsa", "st": "OK", "Zip": 74135.0, "O_14": 4.0, "Q_15": 5.0, "O_15": 4.0, "city": "TULSA", "beds": 106.0, "SR_15": 2.0}, {"Diff_star": 0.0, "addr": "615 EAST REDWOOD", "SR_14": 3.0, "Q_14": 4.0, "name": "SEQUOYAH MANOR, LLC", "SF_14": 3.0, "SF_15": 3.0, "cnty": "Sequoyah", "st": "OK", "Zip": 74955.0, "O_14": 3.0, "Q_15": 4.0, "O_15": 3.0, "city": "SALLISAW", "beds": 162.0, "SR_15": 3.0}, {"Diff_star": 0.0, "addr": "841 NORTH 38TH STREET", "SR_14": 2.0, "Q_14": 3.0, "name": "BRENTWOOD EXTENDED CARE & REHAB", "SF_14": 1.0, "SF_15": 1.0, "cnty": "Muskogee", "st": "OK", "Zip": 74401.0, "O_14": 1.0, "Q_15": 2.0, "O_15": 1.0, "city": "MUSKOGEE", "beds": 90.0, "SR_15": 2.0}, {"Diff_star": 0.0, "addr": "810 EAST CALIFORNIA", "SR_14": 5.0, "Q_14": 3.0, "name": "WYNNEWOOD CARE CENTER", "SF_14": 1.0, "SF_15": 1.0, "cnty": "Garvin", "st": "OK", "Zip": 73098.0, "O_14": 4.0, "Q_15": 2.0, "O_15": 4.0, "city": "WYNNEWOOD", "beds": 79.0, "SR_15": 5.0}, {"Diff_star": 0.0, "addr": "1215 WEST 10TH STREET", "SR_14": 1.0, "Q_14": 4.0, "name": "GRACE LIVING CENTER-STILLWATER", "SF_14": 3.0, "SF_15": 3.0, "cnty": "Payne", "st": "OK", "Zip": 74074.0, "O_14": 1.0, "Q_15": 2.0, "O_15": 1.0, "city": "STILLWATER", "beds": 112.0, "SR_15": 1.0}, {"Diff_star": 0.0, "addr": "410 NORTH 30TH STREET", "SR_14": 1.0, "Q_14": 1.0, "name": "ENID SENIOR CARE", "SF_14": 4.0, "SF_15": 4.0, "cnty": "Garfield", "st": "OK", "Zip": 73701.0, "O_14": 1.0, "Q_15": 1.0, "O_15": 1.0, "city": "ENID", "beds": 102.0, "SR_15": 1.0}, {"Diff_star": 0.0, "addr": "1400 NORTHWEST 122ND STREET", "SR_14": 2.0, "Q_14": 5.0, "name": "THE FOUNTAINS AT CANTERBURY HEALTH CENTER", "SF_14": 3.0, "SF_15": 3.0, "cnty": "Oklahoma", "st": "OK", "Zip": 73114.0, "O_14": 3.0, "Q_15": 4.0, "O_15": 3.0, "city": "OKLAHOMA CITY", "beds": 97.0, "SR_15": 3.0}, {"Diff_star": 0.0, "addr": "1201 NORTH VINITA AVENUE", "SR_14": 4.0, "Q_14": 3.0, "name": "GRACE LIVING CENTER-TAHLEQUAH UNIVERSITY NORTHWEST", "SF_14": 4.0, "SF_15": 3.0, "cnty": "Cherokee", "st": "OK", "Zip": 74464.0, "O_14": 4.0, "Q_15": 3.0, "O_15": 4.0, "city": "TAHLEQUAH", "beds": 139.0, "SR_15": 4.0}, {"Diff_star": 0.0, "addr": "400 SOUTH SCOTT STREET", "SR_14": 3.0, "Q_14": 4.0, "name": "GRACE LIVING CENTER-DEL CITY", "SF_14": 3.0, "SF_15": 3.0, "cnty": "Oklahoma", "st": "OK", "Zip": 73115.0, "O_14": 3.0, "Q_15": 2.0, "O_15": 3.0, "city": "DEL CITY", "beds": 61.0, "SR_15": 3.0}, {"Diff_star": 0.0, "addr": "200 HOME STREET", "SR_14": 3.0, "Q_14": 2.0, "name": "POCOLA HEALTH AND REHAB", "SF_14": 2.0, "SF_15": 2.0, "cnty": "Le Flore", "st": "OK", "Zip": 74902.0, "O_14": 3.0, "Q_15": 2.0, "O_15": 3.0, "city": "POCOLA", "beds": 90.0, "SR_15": 3.0}, {"Diff_star": 0.0, "addr": "505 EAST WILSHIRE BLVD", "SR_14": 5.0, "Q_14": 4.0, "name": "GRACE LIVING CENTER-WILSHIRE & BROADWAY", "SF_14": 5.0, "SF_15": 5.0, "cnty": "Oklahoma", "st": "OK", "Zip": 73105.0, "O_14": 5.0, "Q_15": 3.0, "O_15": 5.0, "city": "OKLAHOMA CITY", "beds": 56.0, "SR_15": 5.0}, {"Diff_star": 0.0, "addr": "3500 HASKELL BLVD", "SR_14": 3.0, "Q_14": 3.0, "name": "EASTGATE VILLAGE RETIREMENT CENTER", "SF_14": 2.0, "SF_15": 2.0, "cnty": "Muskogee", "st": "OK", "Zip": 74403.0, "O_14": 3.0, "Q_15": 2.0, "O_15": 3.0, "city": "MUSKOGEE", "beds": 110.0, "SR_15": 3.0}, {"Diff_star": 0.0, "addr": "1100 NORTH ASH STREET", "SR_14": 4.0, "Q_14": 3.0, "name": "WESTBROOK HEALTHCARE, INC", "SF_14": 3.0, "SF_15": 3.0, "cnty": "Jefferson", "st": "OK", "Zip": 73573.0, "O_14": 4.0, "Q_15": 2.0, "O_15": 4.0, "city": "WAURIKA", "beds": 83.0, "SR_15": 4.0}, {"Diff_star": 0.0, "addr": "2024 TURNER ROAD", "SR_14": 2.0, "Q_14": 1.0, "name": "SHAWN MANOR NURSING HOME", "SF_14": 1.0, "SF_15": 1.0, "cnty": "Kay", "st": "OK", "Zip": 74604.0, "O_14": 1.0, "Q_15": 1.0, "O_15": 1.0, "city": "PONCA CITY", "beds": 96.0, "SR_15": 2.0}, {"Diff_star": -1.0, "addr": "429 E DOWNS AVENUE", "SR_14": 5.0, "Q_14": 2.0, "name": "GRACE LIVING CENTER-WOODWARD", "SF_14": 1.0, "SF_15": 1.0, "cnty": "Woodward", "st": "OK", "Zip": 73801.0, "O_14": 4.0, "Q_15": 1.0, "O_15": 3.0, "city": "WOODWARD", "beds": 80.0, "SR_15": 5.0}, {"Diff_star": 0.0, "addr": "801 HWY 48 NORTH", "SR_14": 2.0, "Q_14": 4.0, "name": "HERITAGE VILLAGE NURSING HOME", "SF_14": 4.0, "SF_15": 3.0, "cnty": "Hughes", "st": "OK", "Zip": 74848.0, "O_14": 3.0, "Q_15": 5.0, "O_15": 3.0, "city": "HOLDENVILLE", "beds": 118.0, "SR_15": 2.0}, {"Diff_star": -1.0, "addr": "1103 WEST CHEROKEE", "SR_14": 4.0, "Q_14": 5.0, "name": "LINDSAY MANOR NURSING HOME", "SF_14": 2.0, "SF_15": 2.0, "cnty": "Garvin", "st": "OK", "Zip": 73052.0, "O_14": 5.0, "Q_15": 3.0, "O_15": 4.0, "city": "LINDSAY", "beds": 106.0, "SR_15": 4.0}, {"Diff_star": 0.0, "addr": "320 CAREY STREET", "SR_14": 5.0, "Q_14": 3.0, "name": "GRACE LIVING CENTER-MANGUM", "SF_14": 2.0, "SF_15": 2.0, "cnty": "Greer", "st": "OK", "Zip": 73554.0, "O_14": 5.0, "Q_15": 2.0, "O_15": 5.0, "city": "MANGUM", "beds": 140.0, "SR_15": 5.0}, {"Diff_star": 0.0, "addr": "3233 NORTHWEST 10TH STREET", "SR_14": 1.0, "Q_14": 4.0, "name": "GRACE LIVING CENTER-NORTHWEST O K C", "SF_14": 2.0, "SF_15": 2.0, "cnty": "Oklahoma", "st": "OK", "Zip": 73107.0, "O_14": 1.0, "Q_15": 3.0, "O_15": 1.0, "city": "OKLAHOMA CITY", "beds": 142.0, "SR_15": 1.0}, {"Diff_star": 0.0, "addr": "600 24TH AVENUE SOUTHWEST", "SR_14": 3.0, "Q_14": 4.0, "name": "CEDAR CREEK NURSING CENTER", "SF_14": 3.0, "SF_15": 3.0, "cnty": "Cleveland", "st": "OK", "Zip": 73069.0, "O_14": 3.0, "Q_15": 3.0, "O_15": 3.0, "city": "NORMAN", "beds": 89.0, "SR_15": 3.0}, {"Diff_star": 0.0, "addr": "824 SOUTH YUKON PARKWAY", "SR_14": 5.0, "Q_14": 5.0, "name": "RANCHWOOD NURSING CENTER", "SF_14": 4.0, "SF_15": 3.0, "cnty": "Canadian", "st": "OK", "Zip": 73099.0, "O_14": 5.0, "Q_15": 5.0, "O_15": 5.0, "city": "YUKON", "beds": 150.0, "SR_15": 5.0}, {"Diff_star": -1.0, "addr": "2154 SOUTH 85TH EAST AVENUE", "SR_14": 2.0, "Q_14": 3.0, "name": "LEISURE VILLAGE HEALTH CARE CENTER", "SF_14": 2.0, "SF_15": 2.0, "cnty": "Tulsa", "st": "OK", "Zip": 74129.0, "O_14": 2.0, "Q_15": 1.0, "O_15": 1.0, "city": "TULSA", "beds": 117.0, "SR_15": 2.0}, {"Diff_star": 0.0, "addr": "1306 EAST COLLEGE", "SR_14": 5.0, "Q_14": 4.0, "name": "CEDARCREST CARE CENTER", "SF_14": 2.0, "SF_15": 2.0, "cnty": "Tulsa", "st": "OK", "Zip": 74012.0, "O_14": 5.0, "Q_15": 3.0, "O_15": 5.0, "city": "BROKEN ARROW", "beds": 89.0, "SR_15": 5.0}, {"Diff_star": 0.0, "addr": "808 NORTHWEST M L KING AVENUE", "SR_14": 4.0, "Q_14": 4.0, "name": "HILL NURSING HOME, INC.", "SF_14": 2.0, "SF_15": 2.0, "cnty": "Mccurtain", "st": "OK", "Zip": 74745.0, "O_14": 4.0, "Q_15": 4.0, "O_15": 4.0, "city": "IDABEL", "beds": 51.0, "SR_15": 4.0}, {"Diff_star": -1.0, "addr": "210 BROOKSIDE DRIVE", "SR_14": 2.0, "Q_14": 3.0, "name": "BROOKSIDE NURSING CENTER", "SF_14": 3.0, "SF_15": 3.0, "cnty": "Marshall", "st": "OK", "Zip": 73446.0, "O_14": 2.0, "Q_15": 1.0, "O_15": 1.0, "city": "MADILL", "beds": 140.0, "SR_15": 1.0}, {"Diff_star": -1.0, "addr": "1212 FOUR SEASONS DRIVE", "SR_14": 2.0, "Q_14": 4.0, "name": "FOUR SEASONS REHABILITATION & CARE", "SF_14": 2.0, "SF_15": 2.0, "cnty": "Bryan", "st": "OK", "Zip": 74701.0, "O_14": 2.0, "Q_15": 1.0, "O_15": 1.0, "city": "DURANT", "beds": 122.0, "SR_15": 2.0}, {"Diff_star": -1.0, "addr": "801 NORTH 193 EAST AVENUE", "SR_14": 4.0, "Q_14": 2.0, "name": "ROLLING HILLS CARE CENTER", "SF_14": 1.0, "SF_15": 1.0, "cnty": "Rogers", "st": "OK", "Zip": 74015.0, "O_14": 3.0, "Q_15": 1.0, "O_15": 2.0, "city": "CATOOSA", "beds": 126.0, "SR_15": 4.0}, {"Diff_star": -1.0, "addr": "815 NORTH COUNTRY CLUB ROAD", "SR_14": 2.0, "Q_14": 4.0, "name": "JAN FRANCES CARE CENTER", "SF_14": 4.0, "SF_15": 3.0, "cnty": "Pontotoc", "st": "OK", "Zip": 74820.0, "O_14": 3.0, "Q_15": 3.0, "O_15": 2.0, "city": "ADA", "beds": 132.0, "SR_15": 2.0}, {"Diff_star": 0.0, "addr": "1501 NORTH 8TH STREET", "SR_14": 2.0, "Q_14": 3.0, "name": "NOBLE HEALTH CARE CENTER", "SF_14": 1.0, "SF_15": 1.0, "cnty": "Cleveland", "st": "OK", "Zip": 73068.0, "O_14": 1.0, "Q_15": 1.0, "O_15": 1.0, "city": "NOBLE", "beds": 110.0, "SR_15": 2.0}, {"Diff_star": 0.0, "addr": "1202 WEST GILMORE", "SR_14": 3.0, "Q_14": 4.0, "name": "SHAWNEE CARE CENTER", "SF_14": 3.0, "SF_15": 3.0, "cnty": "Pottawatomie", "st": "OK", "Zip": 74804.0, "O_14": 3.0, "Q_15": 4.0, "O_15": 3.0, "city": "SHAWNEE", "beds": 114.0, "SR_15": 3.0}, {"Diff_star": -1.0, "addr": "8200 NATIONAL AVENUE", "SR_14": 1.0, "Q_14": 2.0, "name": "MIDWEST CITY NURSING CENTER", "SF_14": 4.0, "SF_15": 3.0, "cnty": "Oklahoma", "st": "OK", "Zip": 73110.0, "O_14": 2.0, "Q_15": 1.0, "O_15": 1.0, "city": "MIDWEST CITY", "beds": 106.0, "SR_15": 1.0}, {"Diff_star": 0.0, "addr": "2316 MODELLE", "SR_14": 4.0, "Q_14": 4.0, "name": "UNITED METHODIST HEALTH CARE CENTER, INC", "SF_14": 4.0, "SF_15": 4.0, "cnty": "Custer", "st": "OK", "Zip": 73601.0, "O_14": 4.0, "Q_15": 2.0, "O_15": 4.0, "city": "CLINTON", "beds": 101.0, "SR_15": 4.0}, {"Diff_star": 0.0, "addr": "832 ISABEL SOUTHWEST", "SR_14": 2.0, "Q_14": 5.0, "name": "SOUTHBROOK HEALTHCARE, INC", "SF_14": 2.0, "SF_15": 2.0, "cnty": "Carter", "st": "OK", "Zip": 73401.0, "O_14": 3.0, "Q_15": 5.0, "O_15": 3.0, "city": "ARDMORE", "beds": 114.0, "SR_15": 2.0}, {"Diff_star": 0.0, "addr": "959 SOUTHWEST 107TH STREET", "SR_14": 2.0, "Q_14": 5.0, "name": "MEADOWLAKE ESTATES", "SF_14": 4.0, "SF_15": 4.0, "cnty": "Cleveland", "st": "OK", "Zip": 73139.0, "O_14": 4.0, "Q_15": 5.0, "O_15": 4.0, "city": "OKLAHOMA CITY", "beds": 124.0, "SR_15": 2.0}, {"Diff_star": 0.0, "addr": "401 SOUTH MAIN", "SR_14": 3.0, "Q_14": 3.0, "name": "SPIRO NURSING HOME, INC.", "SF_14": 2.0, "SF_15": 2.0, "cnty": "Le Flore", "st": "OK", "Zip": 74959.0, "O_14": 3.0, "Q_15": 3.0, "O_15": 3.0, "city": "SPIRO", "beds": 95.0, "SR_15": 3.0}, {"Diff_star": 0.0, "addr": "111 WALNUT DRIVE", "SR_14": 4.0, "Q_14": 4.0, "name": "GRACE LIVING CENTER-BUFFALO", "SF_14": 4.0, "SF_15": 4.0, "cnty": "Harper", "st": "OK", "Zip": 73834.0, "O_14": 4.0, "Q_15": 2.0, "O_15": 4.0, "city": "BUFFALO", "beds": 76.0, "SR_15": 4.0}, {"Diff_star": 0.0, "addr": "201 WEST 5TH STREET", "SR_14": 1.0, "Q_14": 4.0, "name": "BALLARD NURSING CENTER", "SF_14": 1.0, "SF_15": 1.0, "cnty": "Pontotoc", "st": "OK", "Zip": 74820.0, "O_14": 1.0, "Q_15": 4.0, "O_15": 1.0, "city": "ADA", "beds": 73.0, "SR_15": 1.0}, {"Diff_star": 0.0, "addr": "6501 NORTH MACARTHUR", "SR_14": 1.0, "Q_14": 3.0, "name": "WARR ACRES NURSING CENTER", "SF_14": 3.0, "SF_15": 3.0, "cnty": "Oklahoma", "st": "OK", "Zip": 73132.0, "O_14": 1.0, "Q_15": 1.0, "O_15": 1.0, "city": "OKLAHOMA CITY", "beds": 103.0, "SR_15": 1.0}, {"Diff_star": 0.0, "addr": "113 EAST JONES", "SR_14": 1.0, "Q_14": 1.0, "name": "MEADOWBROOK NURSING CENTER", "SF_14": 3.0, "SF_15": 3.0, "cnty": "Mayes", "st": "OK", "Zip": 74337.0, "O_14": 1.0, "Q_15": 1.0, "O_15": 1.0, "city": "CHOUTEAU", "beds": 65.0, "SR_15": 1.0}, {"Diff_star": 0.0, "addr": "709 NORTH LOWE", "SR_14": 5.0, "Q_14": 3.0, "name": "HOBART LIVING CENTER", "SF_14": 2.0, "SF_15": 2.0, "cnty": "Kiowa", "st": "OK", "Zip": 73651.0, "O_14": 5.0, "Q_15": 3.0, "O_15": 5.0, "city": "HOBART", "beds": 58.0, "SR_15": 5.0}, {"Diff_star": 0.0, "addr": "310 WEST TAFT", "SR_14": 3.0, "Q_14": 4.0, "name": "ARBOR VILLAGE", "SF_14": 4.0, "SF_15": 4.0, "cnty": "Creek", "st": "OK", "Zip": 74066.0, "O_14": 4.0, "Q_15": 2.0, "O_15": 4.0, "city": "SAPULPA", "beds": 142.0, "SR_15": 3.0}, {"Diff_star": 0.0, "addr": "1025 NORTH ADAMS", "SR_14": 2.0, "Q_14": 2.0, "name": "SAND SPRINGS NURSING AND REHABILITATION", "SF_14": 3.0, "SF_15": 3.0, "cnty": "Tulsa", "st": "OK", "Zip": 74063.0, "O_14": 2.0, "Q_15": 2.0, "O_15": 2.0, "city": "SAND SPRINGS", "beds": 213.0, "SR_15": 2.0}, {"Diff_star": 0.0, "addr": "801 NORTH 6TH STREET", "SR_14": 1.0, "Q_14": 4.0, "name": "WADLEY CARE CENTER", "SF_14": 4.0, "SF_15": 4.0, "cnty": "Mcclain", "st": "OK", "Zip": 73080.0, "O_14": 2.0, "Q_15": 2.0, "O_15": 2.0, "city": "PURCELL", "beds": 105.0, "SR_15": 1.0}, {"Diff_star": 0.0, "addr": "1415 WEST 15TH STREET", "SR_14": 2.0, "Q_14": 4.0, "name": "ARTESIAN HOME", "SF_14": 5.0, "SF_15": 5.0, "cnty": "Murray", "st": "OK", "Zip": 73086.0, "O_14": 3.0, "Q_15": 3.0, "O_15": 3.0, "city": "SULPHUR", "beds": 72.0, "SR_15": 2.0}, {"Diff_star": -1.0, "addr": "1153 CHEROKEE STREET", "SR_14": 2.0, "Q_14": 4.0, "name": "COMMUNITY HEALTH CENTER", "SF_14": 4.0, "SF_15": 3.0, "cnty": "Grant", "st": "OK", "Zip": 73771.0, "O_14": 3.0, "Q_15": 3.0, "O_15": 2.0, "city": "WAKITA", "beds": 52.0, "SR_15": 2.0}, {"Diff_star": 0.0, "addr": "318 SOUTH CHERRY", "SR_14": 1.0, "Q_14": 2.0, "name": "SKIATOOK NURSING HOME,LLC", "SF_14": 3.0, "SF_15": 3.0, "cnty": "Osage", "st": "OK", "Zip": 74070.0, "O_14": 1.0, "Q_15": 2.0, "O_15": 1.0, "city": "SKIATOOK", "beds": 70.0, "SR_15": 1.0}, {"Diff_star": 0.0, "addr": "503 SOUTH MAIN STREET", "SR_14": 3.0, "Q_14": 5.0, "name": "COMMUNITY HEALTH CARE OF GORE", "SF_14": 1.0, "SF_15": 1.0, "cnty": "Sequoyah", "st": "OK", "Zip": 74435.0, "O_14": 3.0, "Q_15": 5.0, "O_15": 3.0, "city": "GORE", "beds": 70.0, "SR_15": 3.0}, {"Diff_star": 0.0, "addr": "1320 NORTHEAST 1ST PLACE", "SR_14": 2.0, "Q_14": 2.0, "name": "COLONIAL TERRACE CARE CENTER", "SF_14": 1.0, "SF_15": 3.0, "cnty": "Mayes", "st": "OK", "Zip": 74362.0, "O_14": 1.0, "Q_15": 1.0, "O_15": 1.0, "city": "PRYOR", "beds": 75.0, "SR_15": 2.0}, {"Diff_star": -1.0, "addr": "1105 EAST MAIN", "SR_14": 3.0, "Q_14": 3.0, "name": "BLUE RIVER HEALTHCARE, INC", "SF_14": 2.0, "SF_15": 2.0, "cnty": "Johnston", "st": "OK", "Zip": 73460.0, "O_14": 3.0, "Q_15": 1.0, "O_15": 2.0, "city": "TISHOMINGO", "beds": 70.0, "SR_15": 3.0}, {"Diff_star": 0.0, "addr": "1400 WEST FIRST STREET", "SR_14": 1.0, "Q_14": 4.0, "name": "WEWOKA HEALTHCARE CENTER", "SF_14": 1.0, "SF_15": 1.0, "cnty": "Seminole", "st": "OK", "Zip": 74884.0, "O_14": 1.0, "Q_15": 3.0, "O_15": 1.0, "city": "WEWOKA", "beds": 87.0, "SR_15": 1.0}, {"Diff_star": -1.0, "addr": "30049 EAST 151ST STREET SOUTH", "SR_14": 4.0, "Q_14": 5.0, "name": "COWETA MANOR NURSING HOME", "SF_14": 4.0, "SF_15": 3.0, "cnty": "Wagoner", "st": "OK", "Zip": 74429.0, "O_14": 5.0, "Q_15": 4.0, "O_15": 4.0, "city": "COWETA", "beds": 100.0, "SR_15": 4.0}, {"Diff_star": -1.0, "addr": "1400 NORTH COLLEGE", "SR_14": 5.0, "Q_14": 2.0, "name": "CORDELL CHRISTIAN HOME", "SF_14": 3.0, "SF_15": 3.0, "cnty": "Washita", "st": "OK", "Zip": 73632.0, "O_14": 5.0, "Q_15": 1.0, "O_15": 4.0, "city": "CORDELL", "beds": 110.0, "SR_15": 5.0}, {"Diff_star": -1.0, "addr": "301 C E COLSTON DRIVE", "SR_14": 2.0, "Q_14": 5.0, "name": "LAKE COUNTRY NURSING CENTER", "SF_14": 2.0, "SF_15": 2.0, "cnty": "Love", "st": "OK", "Zip": 73448.0, "O_14": 3.0, "Q_15": 4.0, "O_15": 2.0, "city": "MARIETTA", "beds": 69.0, "SR_15": 2.0}, {"Diff_star": 0.0, "addr": "7 NORTH COVINGTON", "SR_14": 2.0, "Q_14": 2.0, "name": "RUTH WILSON HURLEY MANOR", "SF_14": 1.0, "SF_15": 1.0, "cnty": "Coal", "st": "OK", "Zip": 74538.0, "O_14": 1.0, "Q_15": 2.0, "O_15": 1.0, "city": "COALGATE", "beds": 75.0, "SR_15": 2.0}, {"Diff_star": -1.0, "addr": "511 EAST MAIN", "SR_14": 2.0, "Q_14": 2.0, "name": "ANTLERS MANOR, LLC", "SF_14": 3.0, "SF_15": 3.0, "cnty": "Pushmataha", "st": "OK", "Zip": 74523.0, "O_14": 2.0, "Q_15": 1.0, "O_15": 1.0, "city": "ANTLERS", "beds": 133.0, "SR_15": 2.0}, {"Diff_star": 0.0, "addr": "900 EAST AIRPORT ROAD", "SR_14": 5.0, "Q_14": 5.0, "name": "MUSCOGEE (CREEK) NATION SKILLED NURSING FACILITY", "SF_14": 5.0, "SF_15": 5.0, "cnty": "Okmulgee", "st": "OK", "Zip": 74447.0, "O_14": 5.0, "Q_15": 3.0, "O_15": 5.0, "city": "OKMULGEE", "beds": 13.0, "SR_15": 5.0}, {"Diff_star": 0.0, "addr": "SIXTH & WOODLAND", "SR_14": 1.0, "Q_14": 2.0, "name": "WELLINGTON HILLS LIVING & REHABILITATION CENTER", "SF_14": 1.0, "SF_15": 1.0, "cnty": "Mcintosh", "st": "OK", "Zip": 74432.0, "O_14": 1.0, "Q_15": 1.0, "O_15": 1.0, "city": "EUFAULA", "beds": 70.0, "SR_15": 1.0}, {"Diff_star": -1.0, "addr": "411 NORTH WEST STREET", "SR_14": 2.0, "Q_14": 4.0, "name": "HERITAGE HILLS LIVING & REHABILITATION CENTER", "SF_14": 4.0, "SF_15": 3.0, "cnty": "Pittsburg", "st": "OK", "Zip": 74502.0, "O_14": 3.0, "Q_15": 1.0, "O_15": 2.0, "city": "MCALESTER", "beds": 81.0, "SR_15": 3.0}, {"Diff_star": 0.0, "addr": "111 EAST WASHINGTON", "SR_14": 4.0, "Q_14": 3.0, "name": "RAINBOW HEALTH CARE COMMUNITY AND RAINBOW ASSISTED", "SF_14": 4.0, "SF_15": 3.0, "cnty": "Creek", "st": "OK", "Zip": 74010.0, "O_14": 4.0, "Q_15": 2.0, "O_15": 4.0, "city": "BRISTOW", "beds": 106.0, "SR_15": 4.0}, {"Diff_star": 0.0, "addr": "319 NORTH OWEN WALTERS BLVD", "SR_14": 2.0, "Q_14": 1.0, "name": "PARKHILL NORTH NURSING HOME", "SF_14": 2.0, "SF_15": 2.0, "cnty": "Mayes", "st": "OK", "Zip": 74365.0, "O_14": 1.0, "Q_15": 1.0, "O_15": 1.0, "city": "SALINA", "beds": 65.0, "SR_15": 2.0}, {"Diff_star": 0.0, "addr": "1504 NORTH CEDAR AVENUE", "SR_14": 5.0, "Q_14": 3.0, "name": "CHEROKEE COUNTY NURSING CENTER", "SF_14": 4.0, "SF_15": 3.0, "cnty": "Cherokee", "st": "OK", "Zip": 74464.0, "O_14": 5.0, "Q_15": 2.0, "O_15": 5.0, "city": "TAHLEQUAH", "beds": 100.0, "SR_15": 5.0}, {"Diff_star": 0.0, "addr": "505 SOUTH 7TH STREET", "SR_14": 3.0, "Q_14": 4.0, "name": "BURFORD MANOR", "SF_14": 3.0, "SF_15": 3.0, "cnty": "Murray", "st": "OK", "Zip": 73030.0, "O_14": 3.0, "Q_15": 3.0, "O_15": 3.0, "city": "DAVIS", "beds": 73.0, "SR_15": 3.0}, {"Diff_star": 0.0, "addr": "500 NORTH DAWSON STREET", "SR_14": 2.0, "Q_14": 5.0, "name": "MEEKER NURSING CENTER", "SF_14": 4.0, "SF_15": 4.0, "cnty": "Lincoln", "st": "OK", "Zip": 74855.0, "O_14": 4.0, "Q_15": 5.0, "O_15": 4.0, "city": "MEEKER", "beds": 70.0, "SR_15": 2.0}, {"Diff_star": 0.0, "addr": "600 WEST FRONTAGE ROAD", "SR_14": 4.0, "Q_14": 3.0, "name": "COLONIAL PARK HEALTHCARE CENTER", "SF_14": 2.0, "SF_15": 2.0, "cnty": "Okfuskee", "st": "OK", "Zip": 74859.0, "O_14": 4.0, "Q_15": 3.0, "O_15": 4.0, "city": "OKEMAH", "beds": 80.0, "SR_15": 4.0}, {"Diff_star": 0.0, "addr": "FIRST & EMMERT STREET", "SR_14": 3.0, "Q_14": 4.0, "name": "TALIHINA MANOR, LLC", "SF_14": 1.0, "SF_15": 1.0, "cnty": "Le Flore", "st": "OK", "Zip": 74571.0, "O_14": 2.0, "Q_15": 4.0, "O_15": 2.0, "city": "TALIHINA", "beds": 69.0, "SR_15": 3.0}, {"Diff_star": 0.0, "addr": "205 EAST POPLAR", "SR_14": 4.0, "Q_14": 4.0, "name": "FORT GIBSON NURSING HOME", "SF_14": 4.0, "SF_15": 3.0, "cnty": "Muskogee", "st": "OK", "Zip": 74434.0, "O_14": 4.0, "Q_15": 2.0, "O_15": 4.0, "city": "FORT GIBSON", "beds": 66.0, "SR_15": 4.0}, {"Diff_star": 0.0, "addr": "2120 NORTH BROADWAY", "SR_14": 2.0, "Q_14": 5.0, "name": "HILLCREST NURSING CENTER", "SF_14": 2.0, "SF_15": 2.0, "cnty": "Cleveland", "st": "OK", "Zip": 73160.0, "O_14": 3.0, "Q_15": 5.0, "O_15": 3.0, "city": "MOORE", "beds": 154.0, "SR_15": 2.0}, {"Diff_star": -2.0, "addr": "2200 NORTH LYLE ROAD", "SR_14": 3.0, "Q_14": 2.0, "name": "WEATHERFORD LIVING CENTER", "SF_14": 4.0, "SF_15": 3.0, "cnty": "Custer", "st": "OK", "Zip": 73096.0, "O_14": 4.0, "Q_15": 1.0, "O_15": 2.0, "city": "WEATHERFORD", "beds": 52.0, "SR_15": 3.0}, {"Diff_star": 0.0, "addr": "422 WEST LOCUST STREET", "SR_14": 5.0, "Q_14": 4.0, "name": "STILWELL NURSING HOME, LLC", "SF_14": 4.0, "SF_15": 3.0, "cnty": "Adair", "st": "OK", "Zip": 74960.0, "O_14": 5.0, "Q_15": 4.0, "O_15": 5.0, "city": "STILWELL", "beds": 120.0, "SR_15": 5.0}, {"Diff_star": -1.0, "addr": "210 SOUTH ADAIR", "SR_14": 3.0, "Q_14": 1.0, "name": "SHADY REST CARE CENTER", "SF_14": 4.0, "SF_15": 3.0, "cnty": "Mayes", "st": "OK", "Zip": 74361.0, "O_14": 3.0, "Q_15": 1.0, "O_15": 2.0, "city": "PRYOR", "beds": 65.0, "SR_15": 3.0}, {"Diff_star": 0.0, "addr": "2530 NORTH ELM STREET", "SR_14": 2.0, "Q_14": 2.0, "name": "WINDRIDGE NURSING AND REHABILITATION CENTER", "SF_14": 1.0, "SF_15": 1.0, "cnty": "Ottawa", "st": "OK", "Zip": 74354.0, "O_14": 1.0, "Q_15": 2.0, "O_15": 1.0, "city": "MIAMI", "beds": 100.0, "SR_15": 2.0}, {"Diff_star": 0.0, "addr": "1530 NORTHEAST GRAND BLVD", "SR_14": 1.0, "Q_14": 4.0, "name": "EDWARDS REDEEMER HEALTH & REHAB", "SF_14": 3.0, "SF_15": 3.0, "cnty": "Oklahoma", "st": "OK", "Zip": 73117.0, "O_14": 1.0, "Q_15": 3.0, "O_15": 1.0, "city": "OKLAHOMA CITY", "beds": 106.0, "SR_15": 1.0}, {"Diff_star": -1.0, "addr": "1001 SOUTH GEORGE NIGH EXPRESSWAY", "SR_14": 2.0, "Q_14": 4.0, "name": "WALNUT GROVE LIVING CENTER", "SF_14": 4.0, "SF_15": 3.0, "cnty": "Pittsburg", "st": "OK", "Zip": 74502.0, "O_14": 3.0, "Q_15": 4.0, "O_15": 2.0, "city": "MCALESTER", "beds": 80.0, "SR_15": 2.0}, {"Diff_star": 0.0, "addr": "HIGHWAY 64 EAST", "SR_14": 2.0, "Q_14": 1.0, "name": "COUNTRYSIDE ESTATES", "SF_14": 1.0, "SF_15": 1.0, "cnty": "Muskogee", "st": "OK", "Zip": 74469.0, "O_14": 1.0, "Q_15": 1.0, "O_15": 1.0, "city": "WARNER", "beds": 111.0, "SR_15": 2.0}, {"Diff_star": -2.0, "addr": "105 WASHINGTON", "SR_14": 3.0, "Q_14": 2.0, "name": "WASHITA VALLEY LIVING CENTER", "SF_14": 3.0, "SF_15": 3.0, "cnty": "Garvin", "st": "OK", "Zip": 73075.0, "O_14": 3.0, "Q_15": 1.0, "O_15": 1.0, "city": "PAULS VALLEY", "beds": 109.0, "SR_15": 2.0}, {"Diff_star": -1.0, "addr": "8515 NORTH 123RD EAST AVENUE", "SR_14": 3.0, "Q_14": 2.0, "name": "SEQUOYAH POINTE LIVING CENTER", "SF_14": 1.0, "SF_15": 1.0, "cnty": "Tulsa", "st": "OK", "Zip": 74055.0, "O_14": 2.0, "Q_15": 1.0, "O_15": 1.0, "city": "OWASSO", "beds": 92.0, "SR_15": 2.0}, {"Diff_star": 0.0, "addr": "404 EAST CIMARRON", "SR_14": 2.0, "Q_14": 3.0, "name": "CIMARRON POINTE CARE CENTER", "SF_14": 1.0, "SF_15": 1.0, "cnty": "Creek", "st": "OK", "Zip": 74044.0, "O_14": 1.0, "Q_15": 2.0, "O_15": 1.0, "city": "MANNFORD", "beds": 108.0, "SR_15": 2.0}, {"Diff_star": 0.0, "addr": "701 SOUTH 8TH STREET", "SR_14": 1.0, "Q_14": 5.0, "name": "MCLOUD NURSING CENTER", "SF_14": 4.0, "SF_15": 3.0, "cnty": "Pottawatomie", "st": "OK", "Zip": 74851.0, "O_14": 2.0, "Q_15": 5.0, "O_15": 2.0, "city": "MCLOUD", "beds": 80.0, "SR_15": 1.0}, {"Diff_star": 0.0, "addr": "6500 NORTH PORTLAND AVENUE", "SR_14": 4.0, "Q_14": 1.0, "name": "BELLEVUE HEALTH & REHABILITATION CENTER", "SF_14": 5.0, "SF_15": 5.0, "cnty": "Oklahoma", "st": "OK", "Zip": 73116.0, "O_14": 4.0, "Q_15": 1.0, "O_15": 4.0, "city": "OKLAHOMA CITY", "beds": 62.0, "SR_15": 4.0}, {"Diff_star": -1.0, "addr": "1705 BOREN BLVD", "SR_14": 1.0, "Q_14": 5.0, "name": "SEMINOLE PIONEER NURSING HOME", "SF_14": 3.0, "SF_15": 3.0, "cnty": "Seminole", "st": "OK", "Zip": 74868.0, "O_14": 2.0, "Q_15": 3.0, "O_15": 1.0, "city": "SEMINOLE", "beds": 146.0, "SR_15": 1.0}, {"Diff_star": 0.0, "addr": "5115 EAST 51ST STREET", "SR_14": 4.0, "Q_14": 4.0, "name": "PARKS EDGE NURSING AND REHABILITATION CENTER", "SF_14": 2.0, "SF_15": 2.0, "cnty": "Tulsa", "st": "OK", "Zip": 74135.0, "O_14": 4.0, "Q_15": 4.0, "O_15": 4.0, "city": "TULSA", "beds": 126.0, "SR_15": 4.0}, {"Diff_star": 0.0, "addr": "616 SOUTH FRONT STREET", "SR_14": 2.0, "Q_14": 4.0, "name": "SERVANT LIVING CENTER - MEDFORD, LLC", "SF_14": 4.0, "SF_15": 4.0, "cnty": "Grant", "st": "OK", "Zip": 73759.0, "O_14": 3.0, "Q_15": 2.0, "O_15": 3.0, "city": "MEDFORD", "beds": 84.0, "SR_15": 2.0}, {"Diff_star": -1.0, "addr": "1119 EAST OWEN K GARRIOTT ROAD", "SR_14": 4.0, "Q_14": 2.0, "name": "GREENBRIER NURSING HOME", "SF_14": 4.0, "SF_15": 4.0, "cnty": "Garfield", "st": "OK", "Zip": 73701.0, "O_14": 4.0, "Q_15": 1.0, "O_15": 3.0, "city": "ENID", "beds": 150.0, "SR_15": 4.0}, {"Diff_star": -2.0, "addr": "436 SOUTH JOE", "SR_14": 3.0, "Q_14": 5.0, "name": "NOWATA NURSING CENTER", "SF_14": 4.0, "SF_15": 3.0, "cnty": "Nowata", "st": "OK", "Zip": 74048.0, "O_14": 5.0, "Q_15": 3.0, "O_15": 3.0, "city": "NOWATA", "beds": 65.0, "SR_15": 3.0}, {"Diff_star": -1.0, "addr": "711 NORTH 5TH STREET", "SR_14": 3.0, "Q_14": 3.0, "name": "GRACE LIVING CENTER-JENKS", "SF_14": 2.0, "SF_15": 2.0, "cnty": "Tulsa", "st": "OK", "Zip": 74037.0, "O_14": 3.0, "Q_15": 1.0, "O_15": 2.0, "city": "JENKS", "beds": 187.0, "SR_15": 3.0}, {"Diff_star": 0.0, "addr": "3003 IOWA", "SR_14": 4.0, "Q_14": 3.0, "name": "GLENHAVEN RETIREMENT VILLAGE", "SF_14": 3.0, "SF_15": 3.0, "cnty": "Grady", "st": "OK", "Zip": 73023.0, "O_14": 4.0, "Q_15": 2.0, "O_15": 4.0, "city": "CHICKASHA", "beds": 120.0, "SR_15": 4.0}, {"Diff_star": 0.0, "addr": "1100 OAK RIDGE DRIVE", "SR_14": 1.0, "Q_14": 4.0, "name": "OAKRIDGE NURSING CENTER", "SF_14": 3.0, "SF_15": 3.0, "cnty": "Bryan", "st": "OK", "Zip": 74701.0, "O_14": 1.0, "Q_15": 3.0, "O_15": 1.0, "city": "DURANT", "beds": 104.0, "SR_15": 1.0}, {"Diff_star": 0.0, "addr": "2500 SOUTH 12TH STREET", "SR_14": 4.0, "Q_14": 5.0, "name": "SHANOAN SPRINGS NURSING AND REHABILITATION", "SF_14": 4.0, "SF_15": 4.0, "cnty": "Grady", "st": "OK", "Zip": 73018.0, "O_14": 5.0, "Q_15": 5.0, "O_15": 5.0, "city": "CHICKASHA", "beds": 82.0, "SR_15": 4.0}, {"Diff_star": 0.0, "addr": "5725 SOUTH ROSS", "SR_14": 1.0, "Q_14": 4.0, "name": "SOUTH POINTE REHABILITATION AND CARE CENTER", "SF_14": 2.0, "SF_15": 2.0, "cnty": "Oklahoma", "st": "OK", "Zip": 73119.0, "O_14": 1.0, "Q_15": 2.0, "O_15": 1.0, "city": "OKLAHOMA CITY", "beds": 375.0, "SR_15": 1.0}, {"Diff_star": 0.0, "addr": "1503 WEST HAR-BER ROAD", "SR_14": 4.0, "Q_14": 4.0, "name": "GROVE NURSING CENTER", "SF_14": 4.0, "SF_15": 3.0, "cnty": "Delaware", "st": "OK", "Zip": 74344.0, "O_14": 4.0, "Q_15": 3.0, "O_15": 4.0, "city": "GROVE", "beds": 133.0, "SR_15": 4.0}, {"Diff_star": 0.0, "addr": "721 WEST OLIVE", "SR_14": 5.0, "Q_14": 5.0, "name": "STROUD HEALTH CARE CENTER SOUTH", "SF_14": 3.0, "SF_15": 3.0, "cnty": "Lincoln", "st": "OK", "Zip": 74079.0, "O_14": 5.0, "Q_15": 5.0, "O_15": 5.0, "city": "STROUD", "beds": 58.0, "SR_15": 5.0}, {"Diff_star": -1.0, "addr": "205 NORTH LINCOLN AVENUE", "SR_14": 3.0, "Q_14": 5.0, "name": "WAGONER CARE CENTER", "SF_14": 4.0, "SF_15": 3.0, "cnty": "Wagoner", "st": "OK", "Zip": 74467.0, "O_14": 5.0, "Q_15": 5.0, "O_15": 4.0, "city": "WAGONER", "beds": 117.0, "SR_15": 3.0}, {"Diff_star": 0.0, "addr": "1008 ARKANSAS STREET", "SR_14": 2.0, "Q_14": 4.0, "name": "MEDI-HOME OF ARKOMA, INC.", "SF_14": 2.0, "SF_15": 2.0, "cnty": "Le Flore", "st": "OK", "Zip": 74901.0, "O_14": 2.0, "Q_15": 3.0, "O_15": 2.0, "city": "ARKOMA", "beds": 56.0, "SR_15": 2.0}, {"Diff_star": 1.0, "addr": "400 SOUTHWEST O STREET", "SR_14": 3.0, "Q_14": 3.0, "name": "CHOCTAW NATION NURSING HOME", "SF_14": 3.0, "SF_15": 2.0, "cnty": "Pushmataha", "st": "OK", "Zip": 74523.0, "O_14": 3.0, "Q_15": 5.0, "O_15": 4.0, "city": "ANTLERS", "beds": 72.0, "SR_15": 3.0}, {"Diff_star": 0.0, "addr": "1103 BIRCH STREET", "SR_14": 4.0, "Q_14": 3.0, "name": "PERRY GREEN VALLEY NURSING CENTER, LLC", "SF_14": 4.0, "SF_15": 4.0, "cnty": "Noble", "st": "OK", "Zip": 73077.0, "O_14": 4.0, "Q_15": 2.0, "O_15": 4.0, "city": "PERRY", "beds": 112.0, "SR_15": 3.0}, {"Diff_star": -1.0, "addr": "419 EAST OKLAHOMA", "SR_14": 3.0, "Q_14": 2.0, "name": "GOLDEN AGE NURSING HOME OF GUTHRIE, LLC", "SF_14": 3.0, "SF_15": 3.0, "cnty": "Logan", "st": "OK", "Zip": 73044.0, "O_14": 3.0, "Q_15": 1.0, "O_15": 2.0, "city": "GUTHRIE", "beds": 125.0, "SR_15": 3.0}, {"Diff_star": -1.0, "addr": "920 EAST 16TH STREET", "SR_14": 2.0, "Q_14": 2.0, "name": "CLAREMORE NURSING HOME, INC", "SF_14": 2.0, "SF_15": 2.0, "cnty": "Rogers", "st": "OK", "Zip": 74017.0, "O_14": 2.0, "Q_15": 1.0, "O_15": 1.0, "city": "CLAREMORE", "beds": 118.0, "SR_15": 2.0}, {"Diff_star": 0.0, "addr": "602 NORTH  M STREET", "SR_14": 3.0, "Q_14": 4.0, "name": "MUSKOGEE NURSING CENTER", "SF_14": 2.0, "SF_15": 2.0, "cnty": "Muskogee", "st": "OK", "Zip": 74403.0, "O_14": 3.0, "Q_15": 2.0, "O_15": 3.0, "city": "MUSKOGEE", "beds": 58.0, "SR_15": 3.0}, {"Diff_star": 0.0, "addr": "1401 4TH STREET", "SR_14": 2.0, "Q_14": 4.0, "name": "SOUTHERN OAKS CARE CENTER", "SF_14": 4.0, "SF_15": 4.0, "cnty": "Pawnee", "st": "OK", "Zip": 74058.0, "O_14": 3.0, "Q_15": 2.0, "O_15": 3.0, "city": "PAWNEE", "beds": 82.0, "SR_15": 2.0}, {"Diff_star": -2.0, "addr": "604 LAKE MURRAY DRIVE", "SR_14": 4.0, "Q_14": 5.0, "name": "LAKELAND MANOR, INC", "SF_14": 3.0, "SF_15": "", "cnty": "Carter", "st": "OK", "Zip": 73401.0, "O_14": 5.0, "Q_15": 4.0, "O_15": 3.0, "city": "ARDMORE", "beds": 62.0, "SR_15": 3.0}, {"Diff_star": 0.0, "addr": "9700 MASHBURN BLVD", "SR_14": 5.0, "Q_14": 5.0, "name": "BAPTIST VILLAGE OF OKLAHOMA CITY", "SF_14": 4.0, "SF_15": 4.0, "cnty": "Oklahoma", "st": "OK", "Zip": 73162.0, "O_14": 5.0, "Q_15": 5.0, "O_15": 5.0, "city": "OKLAHOMA CITY", "beds": 120.0, "SR_15": 5.0}, {"Diff_star": -1.0, "addr": "12600 EAST 73RD STREET NORTH", "SR_14": 5.0, "Q_14": 2.0, "name": "BAPTIST VILLAGE OF OWASSO", "SF_14": 4.0, "SF_15": 4.0, "cnty": "Tulsa", "st": "OK", "Zip": 74055.0, "O_14": 5.0, "Q_15": 1.0, "O_15": 4.0, "city": "OWASSO", "beds": 120.0, "SR_15": 5.0}, {"Diff_star": 0.0, "addr": "1913 NORTHEAST 50TH STREET", "SR_14": 3.0, "Q_14": 4.0, "name": "GRACE LIVING CENTER-WILDEWOOD", "SF_14": 3.0, "SF_15": 3.0, "cnty": "Oklahoma", "st": "OK", "Zip": 73111.0, "O_14": 3.0, "Q_15": 4.0, "O_15": 3.0, "city": "OKLAHOMA CITY", "beds": 107.0, "SR_15": 3.0}, {"Diff_star": -1.0, "addr": "1220 EAST ELECTRIC BLVD", "SR_14": 3.0, "Q_14": 3.0, "name": "NEW HOPE RETIREMENT & CARE CENTER", "SF_14": 4.0, "SF_15": 3.0, "cnty": "Pittsburg", "st": "OK", "Zip": 74501.0, "O_14": 4.0, "Q_15": 3.0, "O_15": 3.0, "city": "MCALESTER", "beds": 55.0, "SR_15": 3.0}, {"Diff_star": -1.0, "addr": "200 WEST PARKLAND AVENUE", "SR_14": 1.0, "Q_14": 3.0, "name": "PARKLAND MANOR LIVING CENTER", "SF_14": 4.0, "SF_15": 3.0, "cnty": "Lincoln", "st": "OK", "Zip": 74864.0, "O_14": 2.0, "Q_15": 1.0, "O_15": 1.0, "city": "PRAGUE", "beds": 78.0, "SR_15": 1.0}, {"Diff_star": 0.0, "addr": "564 STATE LINE ROAD", "SR_14": 5.0, "Q_14": 5.0, "name": "QUAIL RIDGE LIVING CENTER, INC", "SF_14": 3.0, "SF_15": 3.0, "cnty": "Delaware", "st": "OK", "Zip": 74338.0, "O_14": 5.0, "Q_15": 5.0, "O_15": 5.0, "city": "COLCORD", "beds": 118.0, "SR_15": 5.0}, {"Diff_star": 0.0, "addr": "1300 NORTH DRIVE", "SR_14": 2.0, "Q_14": 3.0, "name": "BEARE MANOR", "SF_14": 3.0, "SF_15": 3.0, "cnty": "Pittsburg", "st": "OK", "Zip": 74547.0, "O_14": 2.0, "Q_15": 2.0, "O_15": 2.0, "city": "HARTSHORNE", "beds": 60.0, "SR_15": 2.0}, {"Diff_star": -2.0, "addr": "1100 EAST STREET NORTHEAST", "SR_14": 3.0, "Q_14": 2.0, "name": "MIAMI NURSING CENTER, LLC", "SF_14": 4.0, "SF_15": 3.0, "cnty": "Ottawa", "st": "OK", "Zip": 74354.0, "O_14": 4.0, "Q_15": 1.0, "O_15": 2.0, "city": "MIAMI", "beds": 82.0, "SR_15": 3.0}, {"Diff_star": 0.0, "addr": "10912 EAST 14TH STREET", "SR_14": 4.0, "Q_14": 4.0, "name": "TULSA NURSING CENTER", "SF_14": 3.0, "SF_15": 3.0, "cnty": "Tulsa", "st": "OK", "Zip": 74128.0, "O_14": 4.0, "Q_15": 3.0, "O_15": 4.0, "city": "TULSA", "beds": 204.0, "SR_15": 4.0}, {"Diff_star": 0.0, "addr": "1200 WEST FINLEY", "SR_14": 2.0, "Q_14": 3.0, "name": "BAPTIST VILLAGE OF HUGO", "SF_14": 4.0, "SF_15": 4.0, "cnty": "Choctaw", "st": "OK", "Zip": 74743.0, "O_14": 3.0, "Q_15": 2.0, "O_15": 3.0, "city": "HUGO", "beds": 100.0, "SR_15": 2.0}, {"Diff_star": -1.0, "addr": "4300 WEST HOUSTON", "SR_14": 3.0, "Q_14": 5.0, "name": "FOREST HILLS  CARE AND REHABILITATION CENTER", "SF_14": 1.0, "SF_15": 1.0, "cnty": "Tulsa", "st": "OK", "Zip": 74012.0, "O_14": 3.0, "Q_15": 4.0, "O_15": 2.0, "city": "BROKEN ARROW", "beds": 159.0, "SR_15": 3.0}, {"Diff_star": 0.0, "addr": "1630 3RD AVENUE NORTHEAST", "SR_14": 1.0, "Q_14": 4.0, "name": "WOODVIEW HOME, INC.", "SF_14": 1.0, "SF_15": 1.0, "cnty": "Carter", "st": "OK", "Zip": 73401.0, "O_14": 1.0, "Q_15": 4.0, "O_15": 1.0, "city": "ARDMORE", "beds": 68.0, "SR_15": 1.0}, {"Diff_star": 0.0, "addr": "701 SOUTH TAYLOR ROAD", "SR_14": 1.0, "Q_14": 1.0, "name": "SEQUOYAH EAST NURSING CENTER,  LLC", "SF_14": 3.0, "SF_15": 3.0, "cnty": "Sequoyah", "st": "OK", "Zip": 74954.0, "O_14": 1.0, "Q_15": 1.0, "O_15": 1.0, "city": "ROLAND", "beds": 80.0, "SR_15": 1.0}, {"Diff_star": 0.0, "addr": "1033 HOSPITAL ROAD", "SR_14": 4.0, "Q_14": 4.0, "name": "EUFAULA MANOR NURSING AND REHABILITATION CENTER", "SF_14": 4.0, "SF_15": 3.0, "cnty": "Mcintosh", "st": "OK", "Zip": 74432.0, "O_14": 4.0, "Q_15": 2.0, "O_15": 4.0, "city": "EUFAULA", "beds": 100.0, "SR_15": 4.0}, {"Diff_star": 0.0, "addr": "5701 WEST BRITTON ROAD", "SR_14": 1.0, "Q_14": 4.0, "name": "THE LAKES", "SF_14": 3.0, "SF_15": 3.0, "cnty": "Oklahoma", "st": "OK", "Zip": 73132.0, "O_14": 1.0, "Q_15": 2.0, "O_15": 1.0, "city": "OKLAHOMA CITY", "beds": 146.0, "SR_15": 1.0}, {"Diff_star": 0.0, "addr": "1223 WEST BALTIMORE", "SR_14": 1.0, "Q_14": 3.0, "name": "THE KING'S DAUGHTERS & SONS NURSING HOME", "SF_14": 5.0, "SF_15": 5.0, "cnty": "Bryan", "st": "OK", "Zip": 74701.0, "O_14": 2.0, "Q_15": 2.0, "O_15": 2.0, "city": "DURANT", "beds": 65.0, "SR_15": 1.0}, {"Diff_star": -1.0, "addr": "516 NORTH BROADWAY", "SR_14": 1.0, "Q_14": 3.0, "name": "BINGER NURSING HOME", "SF_14": 4.0, "SF_15": 3.0, "cnty": "Caddo", "st": "OK", "Zip": 73009.0, "O_14": 2.0, "Q_15": 1.0, "O_15": 1.0, "city": "BINGER", "beds": 65.0, "SR_15": 1.0}, {"Diff_star": -1.0, "addr": "2301 BELL AVENUE", "SR_14": 2.0, "Q_14": 5.0, "name": "BELL AVENUE NURSING CENTER", "SF_14": 1.0, "SF_15": 1.0, "cnty": "Beckham", "st": "OK", "Zip": 73644.0, "O_14": 2.0, "Q_15": 3.0, "O_15": 1.0, "city": "ELK CITY", "beds": 90.0, "SR_15": 2.0}, {"Diff_star": 0.0, "addr": "2416 NORTH ANN ARBOR", "SR_14": 1.0, "Q_14": 3.0, "name": "WINDSOR HILLS NURSING CENTER", "SF_14": 3.0, "SF_15": 3.0, "cnty": "Oklahoma", "st": "OK", "Zip": 73127.0, "O_14": 1.0, "Q_15": 1.0, "O_15": 1.0, "city": "OKLAHOMA CITY", "beds": 112.0, "SR_15": 1.0}, {"Diff_star": 0.0, "addr": "1300 WEST LINDSAY", "SR_14": 1.0, "Q_14": 3.0, "name": "CALLAWAY NURSING HOME", "SF_14": 1.0, "SF_15": 1.0, "cnty": "Murray", "st": "OK", "Zip": 73086.0, "O_14": 1.0, "Q_15": 1.0, "O_15": 1.0, "city": "SULPHUR", "beds": 86.0, "SR_15": 1.0}, {"Diff_star": 0.0, "addr": "1210 SOUTH 6TH STREET", "SR_14": 1.0, "Q_14": 3.0, "name": "HILLCREST MANOR", "SF_14": 3.0, "SF_15": 3.0, "cnty": "Kay", "st": "OK", "Zip": 74631.0, "O_14": 1.0, "Q_15": 2.0, "O_15": 1.0, "city": "BLACKWELL", "beds": 137.0, "SR_15": 1.0}, {"Diff_star": 0.0, "addr": "200 NORTH EASTON", "SR_14": 2.0, "Q_14": 2.0, "name": "WOODLAND HILLS NURSING CENTER", "SF_14": 1.0, "SF_15": 1.0, "cnty": "Pontotoc", "st": "OK", "Zip": 74825.0, "O_14": 1.0, "Q_15": 1.0, "O_15": 1.0, "city": "ALLEN", "beds": 49.0, "SR_15": 2.0}, {"Diff_star": -1.0, "addr": "1515 CANTERBURY BLVD", "SR_14": 3.0, "Q_14": 2.0, "name": "ENGLISH VILLAGE MANOR", "SF_14": 4.0, "SF_15": 4.0, "cnty": "Jackson", "st": "OK", "Zip": 73521.0, "O_14": 4.0, "Q_15": 1.0, "O_15": 3.0, "city": "ALTUS", "beds": 128.0, "SR_15": 3.0}, {"Diff_star": 0.0, "addr": "2400 WHITES MEADOW DRIVE", "SR_14": 1.0, "Q_14": 4.0, "name": "HARRAH NURSING CENTER", "SF_14": 2.0, "SF_15": 2.0, "cnty": "Oklahoma", "st": "OK", "Zip": 73045.0, "O_14": 1.0, "Q_15": 2.0, "O_15": 1.0, "city": "HARRAH", "beds": 100.0, "SR_15": 1.0}, {"Diff_star": -1.0, "addr": "5801 NORTH OAKWOOD ROAD", "SR_14": 4.0, "Q_14": 5.0, "name": "GOLDEN OAKS SENIOR LIVING", "SF_14": 4.0, "SF_15": 4.0, "cnty": "Garfield", "st": "OK", "Zip": 73703.0, "O_14": 5.0, "Q_15": 4.0, "O_15": 4.0, "city": "ENID", "beds": 80.0, "SR_15": 4.0}, {"Diff_star": 0.0, "addr": "1165 SOUTH BRENNER ROAD", "SR_14": 4.0, "Q_14": 4.0, "name": "THE GARDENS", "SF_14": 3.0, "SF_15": 3.0, "cnty": "Creek", "st": "OK", "Zip": 74066.0, "O_14": 4.0, "Q_15": 4.0, "O_15": 4.0, "city": "SAPULPA", "beds": 97.0, "SR_15": 4.0}, {"Diff_star": 0.0, "addr": "106 WEST ADAMS", "SR_14": 4.0, "Q_14": 3.0, "name": "CORN HERITAGE VILLAGE", "SF_14": 1.0, "SF_15": 1.0, "cnty": "Washita", "st": "OK", "Zip": 73024.0, "O_14": 3.0, "Q_15": 2.0, "O_15": 3.0, "city": "CORN", "beds": 104.0, "SR_15": 4.0}, {"Diff_star": 0.0, "addr": "1110 SOUTH CORNWELL DRIVE", "SR_14": 4.0, "Q_14": 3.0, "name": "GRAN GRANS PLACE", "SF_14": 4.0, "SF_15": 3.0, "cnty": "Canadian", "st": "OK", "Zip": 73099.0, "O_14": 4.0, "Q_15": 2.0, "O_15": 4.0, "city": "YUKON", "beds": 69.0, "SR_15": 4.0}, {"Diff_star": 0.0, "addr": "6312 NORTH PORTLAND", "SR_14": 4.0, "Q_14": 1.0, "name": "PARCWAY", "SF_14": 4.0, "SF_15": 4.0, "cnty": "Oklahoma", "st": "OK", "Zip": 73112.0, "O_14": 3.0, "Q_15": 1.0, "O_15": 3.0, "city": "OKLAHOMA CITY", "beds": 148.0, "SR_15": 4.0}, {"Diff_star": 0.0, "addr": "405 NORTH CHOCTAW", "SR_14": 3.0, "Q_14": 2.0, "name": "HASKELL CARE CENTER", "SF_14": 2.0, "SF_15": 2.0, "cnty": "Muskogee", "st": "OK", "Zip": 74436.0, "O_14": 3.0, "Q_15": 2.0, "O_15": 3.0, "city": "HASKELL", "beds": 58.0, "SR_15": 3.0}, {"Diff_star": 0.0, "addr": "226 EAST MONROE STREET", "SR_14": 3.0, "Q_14": 4.0, "name": "MONROE MANOR", "SF_14": 1.0, "SF_15": 1.0, "cnty": "Delaware", "st": "OK", "Zip": 74346.0, "O_14": 2.0, "Q_15": 2.0, "O_15": 2.0, "city": "JAY", "beds": 98.0, "SR_15": 3.0}, {"Diff_star": -1.0, "addr": "1415 SOUTH MAIN STREET", "SR_14": 1.0, "Q_14": 5.0, "name": "FIRST SHAMROCK CARE CENTER", "SF_14": 2.0, "SF_15": 2.0, "cnty": "Kingfisher", "st": "OK", "Zip": 73750.0, "O_14": 2.0, "Q_15": 4.0, "O_15": 1.0, "city": "KINGFISHER", "beds": 55.0, "SR_15": 1.0}, {"Diff_star": -1.0, "addr": "1215 SOUTH WESTERN", "SR_14": 3.0, "Q_14": 3.0, "name": "WESTHAVEN NURSING HOME", "SF_14": 4.0, "SF_15": 3.0, "cnty": "Payne", "st": "OK", "Zip": 74074.0, "O_14": 4.0, "Q_15": 2.0, "O_15": 3.0, "city": "STILLWATER", "beds": 125.0, "SR_15": 3.0}, {"Diff_star": -1.0, "addr": "1200 WRANGLER BLVD", "SR_14": 1.0, "Q_14": 5.0, "name": "SEMINOLE CARE AND REHABILITATION CENTER", "SF_14": 4.0, "SF_15": 3.0, "cnty": "Seminole", "st": "OK", "Zip": 74868.0, "O_14": 2.0, "Q_15": 4.0, "O_15": 1.0, "city": "SEMINOLE", "beds": 106.0, "SR_15": 1.0}, {"Diff_star": 0.0, "addr": "76 WEST  RACHEL STREET", "SR_14": 1.0, "Q_14": 2.0, "name": "SOUTHTOWN NURSING AND VENTILATOR CARE", "SF_14": 2.0, "SF_15": 2.0, "cnty": "Tulsa", "st": "OK", "Zip": 74008.0, "O_14": 1.0, "Q_15": 1.0, "O_15": 1.0, "city": "BIXBY", "beds": 102.0, "SR_15": 1.0}, {"Diff_star": 1.0, "addr": "112 NORTH WOODY GUTHRIE", "SR_14": 2.0, "Q_14": 4.0, "name": "OKEMAH CARE CENTER", "SF_14": 3.0, "SF_15": 3.0, "cnty": "Okfuskee", "st": "OK", "Zip": 74859.0, "O_14": 2.0, "Q_15": 3.0, "O_15": 3.0, "city": "OKEMAH", "beds": 76.0, "SR_15": 3.0}, {"Diff_star": 0.0, "addr": "3601 NORTH COLUMBIA", "SR_14": 3.0, "Q_14": 4.0, "name": "GREEN COUNTRY CARE CENTER", "SF_14": 3.0, "SF_15": 3.0, "cnty": "Tulsa", "st": "OK", "Zip": 74110.0, "O_14": 3.0, "Q_15": 3.0, "O_15": 3.0, "city": "TULSA", "beds": 114.0, "SR_15": 3.0}, {"Diff_star": 0.0, "addr": "2200 COLTRANE ROAD", "SR_14": 3.0, "Q_14": 1.0, "name": "SKYVIEW NURSING CENTER", "SF_14": 4.0, "SF_15": 4.0, "cnty": "Oklahoma", "st": "OK", "Zip": 73121.0, "O_14": 3.0, "Q_15": 1.0, "O_15": 3.0, "city": "OKLAHOMA CITY", "beds": 60.0, "SR_15": 3.0}, {"Diff_star": -1.0, "addr": "300 SOUTH SEMINOLE", "SR_14": 3.0, "Q_14": 3.0, "name": "ELMWOOD MANOR NURSING HOME", "SF_14": 2.0, "SF_15": 2.0, "cnty": "Seminole", "st": "OK", "Zip": 74884.0, "O_14": 3.0, "Q_15": 1.0, "O_15": 2.0, "city": "WEWOKA", "beds": 46.0, "SR_15": 3.0}, {"Diff_star": -1.0, "addr": "1205 SOUTH 4TH STREET", "SR_14": 3.0, "Q_14": 2.0, "name": "WILKINS HEALTH & REHABILITATION COMMUNITY", "SF_14": 2.0, "SF_15": 2.0, "cnty": "Stephens", "st": "OK", "Zip": 73533.0, "O_14": 3.0, "Q_15": 1.0, "O_15": 2.0, "city": "DUNCAN", "beds": 108.0, "SR_15": 3.0}, {"Diff_star": 0.0, "addr": "711 SOUTH BROADWAY", "SR_14": 5.0, "Q_14": 5.0, "name": "GREGSTON NURSING HOME, INC.", "SF_14": 4.0, "SF_15": 3.0, "cnty": "Stephens", "st": "OK", "Zip": 73055.0, "O_14": 5.0, "Q_15": 4.0, "O_15": 5.0, "city": "MARLOW", "beds": 96.0, "SR_15": 5.0}, {"Diff_star": 0.0, "addr": "MERIDIAN ROAD ROUTE 2 BOX 335", "SR_14": 5.0, "Q_14": 4.0, "name": "MERIDIAN NURSING HOME", "SF_14": 4.0, "SF_15": 4.0, "cnty": "Stephens", "st": "OK", "Zip": 73529.0, "O_14": 5.0, "Q_15": 4.0, "O_15": 5.0, "city": "COMANCHE", "beds": 63.0, "SR_15": 5.0}, {"Diff_star": 0.0, "addr": "605 EAST STATE ROAD", "SR_14": 5.0, "Q_14": 5.0, "name": "FAIRVIEW FELLOWSHIP HOME FOR SENIOR CITIZENS, INC", "SF_14": 4.0, "SF_15": 4.0, "cnty": "Major", "st": "OK", "Zip": 73737.0, "O_14": 5.0, "Q_15": 4.0, "O_15": 5.0, "city": "FAIRVIEW", "beds": 100.0, "SR_15": 5.0}, {"Diff_star": -1.0, "addr": "104 SOUTHEAST 4TH STREET", "SR_14": 4.0, "Q_14": 3.0, "name": "TUTTLE CARE CENTER", "SF_14": 4.0, "SF_15": 3.0, "cnty": "Grady", "st": "OK", "Zip": 73089.0, "O_14": 4.0, "Q_15": 1.0, "O_15": 3.0, "city": "TUTTLE", "beds": 52.0, "SR_15": 4.0}, {"Diff_star": 1.0, "addr": "100 WEST GREEN AVENUE", "SR_14": 4.0, "Q_14": 1.0, "name": "TEMPLE MANOR NURSING HOME", "SF_14": 1.0, "SF_15": 4.0, "cnty": "Cotton", "st": "OK", "Zip": 73568.0, "O_14": 2.0, "Q_15": 1.0, "O_15": 3.0, "city": "TEMPLE", "beds": 48.0, "SR_15": 4.0}, {"Diff_star": 0.0, "addr": "7019 NORTHWEST CACHE ROAD", "SR_14": 4.0, "Q_14": 4.0, "name": "WILLOW PARK HEALTH CARE CENTER", "SF_14": 1.0, "SF_15": 1.0, "cnty": "Comanche", "st": "OK", "Zip": 73505.0, "O_14": 3.0, "Q_15": 3.0, "O_15": 3.0, "city": "LAWTON", "beds": 151.0, "SR_15": 4.0}, {"Diff_star": 0.0, "addr": "535 WEST FEDERAL STREET", "SR_14": 4.0, "Q_14": 3.0, "name": "SHAWNEE COLONIAL ESTATES NURSING HOME", "SF_14": 4.0, "SF_15": 3.0, "cnty": "Pottawatomie", "st": "OK", "Zip": 74801.0, "O_14": 4.0, "Q_15": 2.0, "O_15": 4.0, "city": "SHAWNEE", "beds": 161.0, "SR_15": 4.0}, {"Diff_star": -1.0, "addr": "305 NORTH THORNTON", "SR_14": 3.0, "Q_14": 4.0, "name": "VIAN NURSING & REHAB, LLC", "SF_14": 4.0, "SF_15": 3.0, "cnty": "Sequoyah", "st": "OK", "Zip": 74962.0, "O_14": 4.0, "Q_15": 4.0, "O_15": 3.0, "city": "VIAN", "beds": 133.0, "SR_15": 3.0}, {"Diff_star": 0.0, "addr": "204 WEST FIRST STREET", "SR_14": 3.0, "Q_14": 1.0, "name": "HEAVENER MANOR", "SF_14": 1.0, "SF_15": 1.0, "cnty": "Le Flore", "st": "OK", "Zip": 74937.0, "O_14": 1.0, "Q_15": 1.0, "O_15": 1.0, "city": "HEAVENER", "beds": 41.0, "SR_15": 3.0}, {"Diff_star": -1.0, "addr": "2300 WEST NOBLE", "SR_14": 1.0, "Q_14": 4.0, "name": "WILLOW CREEK HEALTH CARE", "SF_14": 4.0, "SF_15": 3.0, "cnty": "Logan", "st": "OK", "Zip": 73044.0, "O_14": 2.0, "Q_15": 3.0, "O_15": 1.0, "city": "GUTHRIE", "beds": 100.0, "SR_15": 1.0}, {"Diff_star": 1.0, "addr": "701 HIGHWAY 32", "SR_14": 3.0, "Q_14": 4.0, "name": "FAMILY CARE CENTER OF KINGSTON", "SF_14": 4.0, "SF_15": 4.0, "cnty": "Marshall", "st": "OK", "Zip": 73439.0, "O_14": 4.0, "Q_15": 5.0, "O_15": 5.0, "city": "KINGSTON", "beds": 60.0, "SR_15": 3.0}, {"Diff_star": 0.0, "addr": "6201 EAST 36TH STREET", "SR_14": 1.0, "Q_14": 4.0, "name": "COMPANIONS SPECIALIZED CARE CENTER", "SF_14": 2.0, "SF_15": 2.0, "cnty": "Tulsa", "st": "OK", "Zip": 74135.0, "O_14": 1.0, "Q_15": 2.0, "O_15": 1.0, "city": "TULSA", "beds": 121.0, "SR_15": 1.0}, {"Diff_star": -2.0, "addr": "1400 NORTH WAVERLY", "SR_14": 4.0, "Q_14": 2.0, "name": "PONCA CITY NURSING & REHABILITATION CENTER", "SF_14": 2.0, "SF_15": 3.0, "cnty": "Kay", "st": "OK", "Zip": 74601.0, "O_14": 4.0, "Q_15": 1.0, "O_15": 2.0, "city": "PONCA CITY", "beds": 157.0, "SR_15": 3.0}, {"Diff_star": -1.0, "addr": "915 NORTH 7TH AVENUE", "SR_14": 3.0, "Q_14": 4.0, "name": "SUNSET ESTATES OF PURCELL", "SF_14": 4.0, "SF_15": 3.0, "cnty": "Mcclain", "st": "OK", "Zip": 73080.0, "O_14": 4.0, "Q_15": 2.0, "O_15": 3.0, "city": "PURCELL", "beds": 69.0, "SR_15": 3.0}, {"Diff_star": -1.0, "addr": "900 NORTH DIVISION", "SR_14": 2.0, "Q_14": 2.0, "name": "CLEVELAND MANOR NURSING HOME", "SF_14": 2.0, "SF_15": 2.0, "cnty": "Pawnee", "st": "OK", "Zip": 74020.0, "O_14": 2.0, "Q_15": 1.0, "O_15": 1.0, "city": "CLEVELAND", "beds": 90.0, "SR_15": 2.0}, {"Diff_star": 0.0, "addr": "201 WEST WALNUT", "SR_14": 2.0, "Q_14": 4.0, "name": "SUNSET ESTATES", "SF_14": 2.0, "SF_15": 2.0, "cnty": "Pottawatomie", "st": "OK", "Zip": 74873.0, "O_14": 2.0, "Q_15": 3.0, "O_15": 2.0, "city": "TECUMSEH", "beds": 100.0, "SR_15": 2.0}, {"Diff_star": -1.0, "addr": "2100 TOWNSEND DRIVE", "SR_14": 3.0, "Q_14": 2.0, "name": "CARE LIVING CENTER OF EL RENO", "SF_14": 3.0, "SF_15": 3.0, "cnty": "Canadian", "st": "OK", "Zip": 73036.0, "O_14": 3.0, "Q_15": 1.0, "O_15": 2.0, "city": "EL RENO", "beds": 66.0, "SR_15": 3.0}, {"Diff_star": 0.0, "addr": "400 NORTH BROADWAY", "SR_14": 2.0, "Q_14": 1.0, "name": "INOLA HEALTH & REHABILITATION", "SF_14": 1.0, "SF_15": 1.0, "cnty": "Rogers", "st": "OK", "Zip": 74036.0, "O_14": 1.0, "Q_15": 1.0, "O_15": 1.0, "city": "INOLA", "beds": 65.0, "SR_15": 2.0}, {"Diff_star": 0.0, "addr": "1120 ILLINOIS", "SR_14": 2.0, "Q_14": 1.0, "name": "PLEASANT VALLEY HEALTH CARE CENTER", "SF_14": 2.0, "SF_15": 2.0, "cnty": "Muskogee", "st": "OK", "Zip": 74403.0, "O_14": 1.0, "Q_15": 1.0, "O_15": 1.0, "city": "MUSKOGEE", "beds": 101.0, "SR_15": 2.0}, {"Diff_star": -1.0, "addr": "225 SOUTHWEST 35TH STREET", "SR_14": 4.0, "Q_14": 5.0, "name": "SOUTH PARK EAST", "SF_14": 3.0, "SF_15": 3.0, "cnty": "Oklahoma", "st": "OK", "Zip": 73109.0, "O_14": 5.0, "Q_15": 4.0, "O_15": 4.0, "city": "OKLAHOMA CITY", "beds": 47.0, "SR_15": 4.0}, {"Diff_star": -1.0, "addr": "4134 EAST 31ST STREET", "SR_14": 1.0, "Q_14": 3.0, "name": "OKLAHOMA METHODIST MANOR, INC.", "SF_14": 5.0, "SF_15": 5.0, "cnty": "Tulsa", "st": "OK", "Zip": 74135.0, "O_14": 2.0, "Q_15": 1.0, "O_15": 1.0, "city": "TULSA", "beds": 84.0, "SR_15": 1.0}, {"Diff_star": 0.0, "addr": "1400 SOUTH MAIN STREET", "SR_14": 3.0, "Q_14": 5.0, "name": "BETTY ANN NURSING CENTER", "SF_14": 4.0, "SF_15": 4.0, "cnty": "Delaware", "st": "OK", "Zip": 74344.0, "O_14": 5.0, "Q_15": 5.0, "O_15": 5.0, "city": "GROVE", "beds": 60.0, "SR_15": 3.0}, {"Diff_star": 0.0, "addr": "1409 NORTH 17TH STREET", "SR_14": 2.0, "Q_14": 2.0, "name": "THE LIVING CENTER", "SF_14": 4.0, "SF_15": 4.0, "cnty": "Garfield", "st": "OK", "Zip": 73701.0, "O_14": 3.0, "Q_15": 1.0, "O_15": 3.0, "city": "ENID", "beds": 50.0, "SR_15": 3.0}, {"Diff_star": 0.0, "addr": "502 WEST PINE", "SR_14": 1.0, "Q_14": 5.0, "name": "KENWOOD MANOR", "SF_14": 4.0, "SF_15": 4.0, "cnty": "Garfield", "st": "OK", "Zip": 73701.0, "O_14": 2.0, "Q_15": 3.0, "O_15": 2.0, "city": "ENID", "beds": 45.0, "SR_15": 1.0}, {"Diff_star": 0.0, "addr": "6800 SOUTH GRANITE AVENUE", "SR_14": 4.0, "Q_14": 4.0, "name": "MONTEREAU, INC", "SF_14": 4.0, "SF_15": 4.0, "cnty": "Tulsa", "st": "OK", "Zip": 74136.0, "O_14": 4.0, "Q_15": 2.0, "O_15": 4.0, "city": "TULSA", "beds": 74.0, "SR_15": 4.0}, {"Diff_star": 0.0, "addr": "1050 RAMBLING OAKS DRIVE", "SR_14": 3.0, "Q_14": 4.0, "name": "BROOKHAVEN EXTENSIVE CARE", "SF_14": 4.0, "SF_15": 4.0, "cnty": "Cleveland", "st": "OK", "Zip": 73072.0, "O_14": 4.0, "Q_15": 4.0, "O_15": 4.0, "city": "NORMAN", "beds": 52.0, "SR_15": 3.0}, {"Diff_star": -1.0, "addr": "107 EAST BARCLAY", "SR_14": 2.0, "Q_14": 5.0, "name": "FOUNTAIN VIEW MANOR, INC", "SF_14": 3.0, "SF_15": 3.0, "cnty": "Okmulgee", "st": "OK", "Zip": 74437.0, "O_14": 3.0, "Q_15": 4.0, "O_15": 2.0, "city": "HENRYETTA", "beds": 119.0, "SR_15": 2.0}, {"Diff_star": 0.0, "addr": "1413 SOUTH CHICKASAW", "SR_14": 2.0, "Q_14": 4.0, "name": "PAULS VALLEY CARE CENTER", "SF_14": 1.0, "SF_15": 1.0, "cnty": "Garvin", "st": "OK", "Zip": 73075.0, "O_14": 1.0, "Q_15": 4.0, "O_15": 1.0, "city": "PAULS VALLEY", "beds": 71.0, "SR_15": 2.0}, {"Diff_star": 0.0, "addr": "931 NORTH COUNTRY CLUB ROAD", "SR_14": 1.0, "Q_14": 4.0, "name": "ADA CARE CENTER", "SF_14": 1.0, "SF_15": 1.0, "cnty": "Pontotoc", "st": "OK", "Zip": 74820.0, "O_14": 1.0, "Q_15": 3.0, "O_15": 1.0, "city": "ADA", "beds": 85.0, "SR_15": 1.0}, {"Diff_star": 0.0, "addr": "1815 EAST SKELLY DRIVE", "SR_14": 1.0, "Q_14": 2.0, "name": "COLONIAL MANOR NURSING HOME, INC", "SF_14": 2.0, "SF_15": 2.0, "cnty": "Tulsa", "st": "OK", "Zip": 74105.0, "O_14": 1.0, "Q_15": 1.0, "O_15": 1.0, "city": "TULSA", "beds": 120.0, "SR_15": 1.0}, {"Diff_star": 0.0, "addr": "PINE & BRISTOW", "SR_14": 3.0, "Q_14": 4.0, "name": "DRUMRIGHT NURSING HOME", "SF_14": 3.0, "SF_15": 3.0, "cnty": "Creek", "st": "OK", "Zip": 74030.0, "O_14": 3.0, "Q_15": 4.0, "O_15": 3.0, "city": "DRUMRIGHT", "beds": 133.0, "SR_15": 3.0}, {"Diff_star": 0.0, "addr": "282 COUNTY ROAD 6300", "SR_14": 3.0, "Q_14": 1.0, "name": "FAIRFAX MANOR", "SF_14": 5.0, "SF_15": 5.0, "cnty": "Osage", "st": "OK", "Zip": 74637.0, "O_14": 3.0, "Q_15": 1.0, "O_15": 3.0, "city": "FAIRFAX", "beds": 60.0, "SR_15": 3.0}, {"Diff_star": 0.0, "addr": "3333 EAST 28TH STREET", "SR_14": 2.0, "Q_14": 3.0, "name": "WILDWOOD CARE CENTER, INC", "SF_14": "", "SF_15": "", "cnty": "Tulsa", "st": "OK", "Zip": 74114.0, "O_14": 2.0, "Q_15": 2.0, "O_15": 2.0, "city": "TULSA", "beds": 56.0, "SR_15": 2.0}, {"Diff_star": 0.0, "addr": "101 SHERRARD DRIVE", "SR_14": 1.0, "Q_14": 4.0, "name": "SOUTHERN POINTE LIVING CENTER", "SF_14": 1.0, "SF_15": 1.0, "cnty": "Bryan", "st": "OK", "Zip": 74733.0, "O_14": 1.0, "Q_15": 4.0, "O_15": 1.0, "city": "COLBERT", "beds": 95.0, "SR_15": 1.0}, {"Diff_star": 0.0, "addr": "601 WEST 1ST STREET", "SR_14": 4.0, "Q_14": 1.0, "name": "CHANDLER NURSING CENTER", "SF_14": 4.0, "SF_15": 4.0, "cnty": "Lincoln", "st": "OK", "Zip": 74834.0, "O_14": 3.0, "Q_15": 1.0, "O_15": 3.0, "city": "CHANDLER", "beds": 76.0, "SR_15": 4.0}, {"Diff_star": 0.0, "addr": "530 SOUTH LINWOOD", "SR_14": 2.0, "Q_14": 4.0, "name": "LINWOOD VILLAGE NURSING & RETIREMENT APTS", "SF_14": 1.0, "SF_15": 1.0, "cnty": "Payne", "st": "OK", "Zip": 74023.0, "O_14": 1.0, "Q_15": 2.0, "O_15": 1.0, "city": "CUSHING", "beds": 67.0, "SR_15": 2.0}, {"Diff_star": 0.0, "addr": "18501 NORTHEAST 63RD STREET", "SR_14": 2.0, "Q_14": 5.0, "name": "THE WOLFE LIVING CENTER AT SUMMIT RIDGE", "SF_14": 2.0, "SF_15": 2.0, "cnty": "Oklahoma", "st": "OK", "Zip": 73045.0, "O_14": 3.0, "Q_15": 5.0, "O_15": 3.0, "city": "HARRAH", "beds": 48.0, "SR_15": 2.0}, {"Diff_star": 0.0, "addr": "14901 NORTH PENN AVENUE", "SR_14": 5.0, "Q_14": 5.0, "name": "EPWORTH VILLA HEALTH SERVICES", "SF_14": 5.0, "SF_15": 5.0, "cnty": "Oklahoma", "st": "OK", "Zip": 73134.0, "O_14": 5.0, "Q_15": 5.0, "O_15": 5.0, "city": "OKLAHOMA CITY", "beds": 87.0, "SR_15": 4.0}, {"Diff_star": -1.0, "addr": "822 WEST OSAGE", "SR_14": 3.0, "Q_14": 3.0, "name": "OSAGE NURSING HOME, LLC", "SF_14": 4.0, "SF_15": 4.0, "cnty": "Nowata", "st": "OK", "Zip": 74048.0, "O_14": 4.0, "Q_15": 1.0, "O_15": 3.0, "city": "NOWATA", "beds": 50.0, "SR_15": 3.0}, {"Diff_star": -1.0, "addr": "1100 MEMORIAL DRIVE", "SR_14": 3.0, "Q_14": 3.0, "name": "CHEROKEE MANOR", "SF_14": 4.0, "SF_15": 4.0, "cnty": "Alfalfa", "st": "OK", "Zip": 73728.0, "O_14": 4.0, "Q_15": 1.0, "O_15": 3.0, "city": "CHEROKEE", "beds": 54.0, "SR_15": 3.0}, {"Diff_star": -1.0, "addr": "3800 WEST 71ST STREET SOUTH", "SR_14": 5.0, "Q_14": 4.0, "name": "INVERNESS VILLAGE", "SF_14": 4.0, "SF_15": 4.0, "cnty": "Creek", "st": "OK", "Zip": 74132.0, "O_14": 5.0, "Q_15": 3.0, "O_15": 4.0, "city": "TULSA", "beds": 15.0, "SR_15": 4.0}, {"Diff_star": 1.0, "addr": "300 WEST WASHINGTON", "SR_14": 1.0, "Q_14": 1.0, "name": "SILVERCREST MANOR NURSING HOME", "SF_14": 4.0, "SF_15": 4.0, "cnty": "Caddo", "st": "OK", "Zip": 73005.0, "O_14": 1.0, "Q_15": 1.0, "O_15": 2.0, "city": "ANADARKO", "beds": 92.0, "SR_15": 2.0}, {"Diff_star": -1.0, "addr": "119 NORTH 6TH STREET", "SR_14": 4.0, "Q_14": 2.0, "name": "SUMMIT HEALTHCARE, LLC", "SF_14": 3.0, "SF_15": 3.0, "cnty": "Blaine", "st": "OK", "Zip": 73763.0, "O_14": 4.0, "Q_15": 1.0, "O_15": 3.0, "city": "OKEENE", "beds": 48.0, "SR_15": 4.0}, {"Diff_star": 0.0, "addr": "301 NORTH GARRETT", "SR_14": 2.0, "Q_14": 1.0, "name": "ELK CITY NURSING CENTER", "SF_14": 1.0, "SF_15": 1.0, "cnty": "Beckham", "st": "OK", "Zip": 73644.0, "O_14": 1.0, "Q_15": 1.0, "O_15": 1.0, "city": "ELK CITY", "beds": 118.0, "SR_15": 2.0}, {"Diff_star": -1.0, "addr": "208 EAST SANDERSON STREET", "SR_14": 3.0, "Q_14": 2.0, "name": "CRESCENT CARE CENTER", "SF_14": 2.0, "SF_15": 2.0, "cnty": "Logan", "st": "OK", "Zip": 73028.0, "O_14": 3.0, "Q_15": 1.0, "O_15": 2.0, "city": "CRESCENT", "beds": 47.0, "SR_15": 3.0}, {"Diff_star": 0.0, "addr": "1228 SOUTH PECAN", "SR_14": 3.0, "Q_14": 4.0, "name": "PAWHUSKA NURSING HOME, LLC", "SF_14": 4.0, "SF_15": 4.0, "cnty": "Osage", "st": "OK", "Zip": 74056.0, "O_14": 4.0, "Q_15": 3.0, "O_15": 4.0, "city": "PAWHUSKA", "beds": 80.0, "SR_15": 3.0}, {"Diff_star": -1.0, "addr": "411 S 4TH STREET", "SR_14": 2.0, "Q_14": 2.0, "name": "BARNSDALL NURSING HOME", "SF_14": 4.0, "SF_15": 4.0, "cnty": "Osage", "st": "OK", "Zip": 74002.0, "O_14": 3.0, "Q_15": 1.0, "O_15": 2.0, "city": "BARNSDALL", "beds": 40.0, "SR_15": 2.0}, {"Diff_star": 0.0, "addr": "39 EAST 33RD STREET", "SR_14": 2.0, "Q_14": 3.0, "name": "EDMOND HEALTH CARE CENTER", "SF_14": 3.0, "SF_15": 2.0, "cnty": "Oklahoma", "st": "OK", "Zip": 73013.0, "O_14": 2.0, "Q_15": 1.0, "O_15": 2.0, "city": "EDMOND", "beds": 109.0, "SR_15": 3.0}, {"Diff_star": 0.0, "addr": "705 EAST 3RD STREET", "SR_14": 3.0, "Q_14": 3.0, "name": "HENNESSEY MANOR NURSING HOME", "SF_14": 3.0, "SF_15": 4.0, "cnty": "Kingfisher", "st": "OK", "Zip": 73742.0, "O_14": 3.0, "Q_15": 1.0, "O_15": 3.0, "city": "HENNESSEY", "beds": 50.0, "SR_15": 3.0}, {"Diff_star": -1.0, "addr": "1307 R D MILLER DRIVE", "SR_14": 1.0, "Q_14": 3.0, "name": "HIGHLAND PARK MANOR", "SF_14": 4.0, "SF_15": 3.0, "cnty": "Okmulgee", "st": "OK", "Zip": 74447.0, "O_14": 2.0, "Q_15": 2.0, "O_15": 1.0, "city": "OKMULGEE", "beds": 114.0, "SR_15": 1.0}, {"Diff_star": 0.0, "addr": "615 EAST MORRIS STREET", "SR_14": 4.0, "Q_14": 4.0, "name": "MCALESTER MANOR", "SF_14": 1.0, "SF_15": 1.0, "cnty": "Pittsburg", "st": "OK", "Zip": 74501.0, "O_14": 3.0, "Q_15": 4.0, "O_15": 3.0, "city": "MCALESTER", "beds": 63.0, "SR_15": 4.0}, {"Diff_star": 0.0, "addr": "301 SOUTH OAKWOOD ROAD", "SR_14": 4.0, "Q_14": 3.0, "name": "THE COMMONS", "SF_14": 3.0, "SF_15": 4.0, "cnty": "Garfield", "st": "OK", "Zip": 73706.0, "O_14": 4.0, "Q_15": 2.0, "O_15": 4.0, "city": "ENID", "beds": 129.0, "SR_15": 4.0}, {"Diff_star": -1.0, "addr": "2552 EAST 21ST STREET", "SR_14": 2.0, "Q_14": 4.0, "name": "THE COTTAGE EXTENDED CARE", "SF_14": 4.0, "SF_15": 3.0, "cnty": "Tulsa", "st": "OK", "Zip": 74114.0, "O_14": 3.0, "Q_15": 2.0, "O_15": 2.0, "city": "TULSA", "beds": 66.0, "SR_15": 2.0}, {"Diff_star": 0.0, "addr": "702 SOUTH 9TH", "SR_14": 5.0, "Q_14": 5.0, "name": "MARLOW MANOR", "SF_14": 3.0, "SF_15": 3.0, "cnty": "Stephens", "st": "OK", "Zip": 73055.0, "O_14": 5.0, "Q_15": 4.0, "O_15": 5.0, "city": "MARLOW", "beds": 69.0, "SR_15": 5.0}, {"Diff_star": -1.0, "addr": "301 BROADWAY", "SR_14": 4.0, "Q_14": 5.0, "name": "BROADWAY LIVING CENTER", "SF_14": 4.0, "SF_15": 4.0, "cnty": "Cleveland", "st": "OK", "Zip": 73051.0, "O_14": 5.0, "Q_15": 4.0, "O_15": 4.0, "city": "LEXINGTON", "beds": 101.0, "SR_15": 4.0}, {"Diff_star": 0.0, "addr": "1001 HERITAGE WAY", "SR_14": 3.0, "Q_14": 4.0, "name": "HOMESTEAD OF HUGO", "SF_14": 1.0, "SF_15": 1.0, "cnty": "Choctaw", "st": "OK", "Zip": 74743.0, "O_14": 2.0, "Q_15": 4.0, "O_15": 2.0, "city": "HUGO", "beds": 124.0, "SR_15": 3.0}, {"Diff_star": -1.0, "addr": "1200 WEST CANADIAN AVENUE", "SR_14": 3.0, "Q_14": 4.0, "name": "HEARTSWORTH CENTER FOR NURSING & REHABILITATION", "SF_14": 4.0, "SF_15": 3.0, "cnty": "Craig", "st": "OK", "Zip": 74301.0, "O_14": 4.0, "Q_15": 2.0, "O_15": 3.0, "city": "VINITA", "beds": 146.0, "SR_15": 3.0}, {"Diff_star": -1.0, "addr": "1701 EAST 6TH STREET", "SR_14": 2.0, "Q_14": 5.0, "name": "REBOLD MANOR", "SF_14": 1.0, "SF_15": 1.0, "cnty": "Okmulgee", "st": "OK", "Zip": 74447.0, "O_14": 2.0, "Q_15": 4.0, "O_15": 1.0, "city": "OKMULGEE", "beds": 114.0, "SR_15": 2.0}, {"Diff_star": 0.0, "addr": "1904 NORTH HIGHWAY 81", "SR_14": 4.0, "Q_14": 2.0, "name": "COUNTRY CLUB CARE", "SF_14": 3.0, "SF_15": 3.0, "cnty": "Stephens", "st": "OK", "Zip": 73533.0, "O_14": 4.0, "Q_15": 2.0, "O_15": 4.0, "city": "DUNCAN", "beds": 104.0, "SR_15": 4.0}, {"Diff_star": 0.0, "addr": "800 ARAPAHO AVENUE", "SR_14": 4.0, "Q_14": 1.0, "name": "MAPLE LAWN MANOR", "SF_14": 4.0, "SF_15": 4.0, "cnty": "Blaine", "st": "OK", "Zip": 73048.0, "O_14": 3.0, "Q_15": 1.0, "O_15": 3.0, "city": "HYDRO", "beds": 60.0, "SR_15": 4.0}, {"Diff_star": 0.0, "addr": "1402 NORTHWEST 7TH STREET", "SR_14": 2.0, "Q_14": 2.0, "name": "HASKELL COUNTY NURSING CENTER, INC", "SF_14": 4.0, "SF_15": 4.0, "cnty": "Haskell", "st": "OK", "Zip": 74462.0, "O_14": 3.0, "Q_15": 2.0, "O_15": 3.0, "city": "STIGLER", "beds": 80.0, "SR_15": 2.0}, {"Diff_star": -1.0, "addr": "906 NORTH BLVD", "SR_14": 1.0, "Q_14": 4.0, "name": "BRADFORD VILLAGE", "SF_14": 4.0, "SF_15": 3.0, "cnty": "Oklahoma", "st": "OK", "Zip": 73034.0, "O_14": 2.0, "Q_15": 3.0, "O_15": 1.0, "city": "EDMOND", "beds": 122.0, "SR_15": 1.0}, {"Diff_star": 0.0, "addr": "2800 NORTH HICKORY STREET", "SR_14": 1.0, "Q_14": 3.0, "name": "WOOD MANOR NURSING CENTER", "SF_14": 2.0, "SF_15": 2.0, "cnty": "Rogers", "st": "OK", "Zip": 74017.0, "O_14": 1.0, "Q_15": 2.0, "O_15": 1.0, "city": "CLAREMORE", "beds": 129.0, "SR_15": 1.0}, {"Diff_star": 0.0, "addr": "1410 NORTH CHOCTAW", "SR_14": 2.0, "Q_14": 1.0, "name": "FORREST MANOR NURSING CENTER", "SF_14": 2.0, "SF_15": 2.0, "cnty": "Washington", "st": "OK", "Zip": 74029.0, "O_14": 1.0, "Q_15": 1.0, "O_15": 1.0, "city": "DEWEY", "beds": 116.0, "SR_15": 2.0}, {"Diff_star": 0.0, "addr": "3804 NORTH BARR", "SR_14": 3.0, "Q_14": 5.0, "name": "HERITAGE MANOR", "SF_14": 1.0, "SF_15": 1.0, "cnty": "Oklahoma", "st": "OK", "Zip": 73122.0, "O_14": 3.0, "Q_15": 5.0, "O_15": 3.0, "city": "OKLAHOMA CITY", "beds": 55.0, "SR_15": 3.0}, {"Diff_star": 0.0, "addr": "2300 WEST BROADWAY", "SR_14": 3.0, "Q_14": 3.0, "name": "NORTH COUNTY CENTER FOR NURSING AND REHABILITATION", "SF_14": 3.0, "SF_15": 3.0, "cnty": "Tulsa", "st": "OK", "Zip": 74021.0, "O_14": 3.0, "Q_15": 2.0, "O_15": 3.0, "city": "COLLINSVILLE", "beds": 119.0, "SR_15": 3.0}, {"Diff_star": 0.0, "addr": "2610 CEDAR CREEK DRIVE", "SR_14": 5.0, "Q_14": 3.0, "name": "PLANTATION VILLAGE NURSING CENTER", "SF_14": 2.0, "SF_15": 2.0, "cnty": "Jackson", "st": "OK", "Zip": 73521.0, "O_14": 5.0, "Q_15": 2.0, "O_15": 5.0, "city": "ALTUS", "beds": 158.0, "SR_15": 5.0}, {"Diff_star": 0.0, "addr": "1209 WEST MAIN", "SR_14": 3.0, "Q_14": 5.0, "name": "QUINTON MANOR NURSING HOME", "SF_14": 4.0, "SF_15": 4.0, "cnty": "Pittsburg", "st": "OK", "Zip": 74561.0, "O_14": 5.0, "Q_15": 5.0, "O_15": 5.0, "city": "QUINTON", "beds": 50.0, "SR_15": 3.0}, {"Diff_star": -1.0, "addr": "1610 NORTH BRYAN AVENUE", "SR_14": 2.0, "Q_14": 3.0, "name": "ROSE MANOR NURSING CENTER", "SF_14": 2.0, "SF_15": 2.0, "cnty": "Pottawatomie", "st": "OK", "Zip": 74804.0, "O_14": 2.0, "Q_15": 1.0, "O_15": 1.0, "city": "SHAWNEE", "beds": 100.0, "SR_15": 2.0}, {"Diff_star": -1.0, "addr": "1700 NORTHWEST FORT SILL BLVD", "SR_14": 4.0, "Q_14": 5.0, "name": "CEDAR CREST MANOR", "SF_14": 4.0, "SF_15": 4.0, "cnty": "Comanche", "st": "OK", "Zip": 73507.0, "O_14": 5.0, "Q_15": 4.0, "O_15": 4.0, "city": "LAWTON", "beds": 91.0, "SR_15": 4.0}, {"Diff_star": 0.0, "addr": "6912 NORTHWEST 23RD STREET", "SR_14": 4.0, "Q_14": 4.0, "name": "HERITAGE PARK", "SF_14": 4.0, "SF_15": 3.0, "cnty": "Oklahoma", "st": "OK", "Zip": 73008.0, "O_14": 4.0, "Q_15": 3.0, "O_15": 4.0, "city": "BETHANY", "beds": 55.0, "SR_15": 4.0}, {"Diff_star": 0.0, "addr": "315 WEST ELECTRIC AVENUE", "SR_14": 4.0, "Q_14": 5.0, "name": "MITCHELL MANOR CONVALESCENT HOME LLC", "SF_14": 3.0, "SF_15": 3.0, "cnty": "Pittsburg", "st": "OK", "Zip": 74501.0, "O_14": 5.0, "Q_15": 5.0, "O_15": 5.0, "city": "MCALESTER", "beds": 100.0, "SR_15": 4.0}, {"Diff_star": 0.0, "addr": "38801 HARDESTY ROAD", "SR_14": 1.0, "Q_14": 2.0, "name": "THE GOLDEN RULE HOME", "SF_14": 1.0, "SF_15": 1.0, "cnty": "Pottawatomie", "st": "OK", "Zip": 74801.0, "O_14": 1.0, "Q_15": 1.0, "O_15": 1.0, "city": "SHAWNEE", "beds": 83.0, "SR_15": 1.0}, {"Diff_star": -2.0, "addr": "632 SOUTHEAST 3RD STREET", "SR_14": 3.0, "Q_14": 2.0, "name": "LEXINGTON NURSING HOME, INC.", "SF_14": 4.0, "SF_15": 3.0, "cnty": "Cleveland", "st": "OK", "Zip": 73051.0, "O_14": 4.0, "Q_15": 1.0, "O_15": 2.0, "city": "LEXINGTON", "beds": 70.0, "SR_15": 3.0}, {"Diff_star": -1.0, "addr": "12 EAST CONNER", "SR_14": 3.0, "Q_14": 2.0, "name": "FAMILY CARE CENTER OF FAIRLAND", "SF_14": 2.0, "SF_15": 2.0, "cnty": "Ottawa", "st": "OK", "Zip": 74343.0, "O_14": 3.0, "Q_15": 1.0, "O_15": 2.0, "city": "FAIRLAND", "beds": 29.0, "SR_15": 3.0}, {"Diff_star": 0.0, "addr": "7707 WEST BRITTON ROAD", "SR_14": 4.0, "Q_14": 3.0, "name": "THE HEALTH CENTER AT CONCORDIA", "SF_14": 4.0, "SF_15": 3.0, "cnty": "Oklahoma", "st": "OK", "Zip": 73132.0, "O_14": 4.0, "Q_15": 3.0, "O_15": 4.0, "city": "OKLAHOMA CITY", "beds": 30.0, "SR_15": 4.0}, {"Diff_star": 0.0, "addr": "1061 NORTH ACCESS ROAD", "SR_14": 3.0, "Q_14": 2.0, "name": "CALERA MANOR, LLC", "SF_14": 1.0, "SF_15": 1.0, "cnty": "Bryan", "st": "OK", "Zip": 74730.0, "O_14": 2.0, "Q_15": 2.0, "O_15": 2.0, "city": "CALERA", "beds": 82.0, "SR_15": 3.0}, {"Diff_star": 0.0, "addr": "2801 NORTHWEST 61ST STREET", "SR_14": 2.0, "Q_14": 4.0, "name": "NORTHWEST NURSING CENTER", "SF_14": 1.0, "SF_15": 1.0, "cnty": "Oklahoma", "st": "OK", "Zip": 73112.0, "O_14": 1.0, "Q_15": 3.0, "O_15": 1.0, "city": "OKLAHOMA CITY", "beds": 100.0, "SR_15": 1.0}, {"Diff_star": 0.0, "addr": "1601 ACADEMY ROAD", "SR_14": 3.0, "Q_14": 3.0, "name": "VIA CHRISTI VILLAGE PONCA CITY, INC.", "SF_14": 1.0, "SF_15": 1.0, "cnty": "Kay", "st": "OK", "Zip": 74604.0, "O_14": 2.0, "Q_15": 3.0, "O_15": 2.0, "city": "PONCA CITY", "beds": 68.0, "SR_15": 3.0}, {"Diff_star": -1.0, "addr": "867 US HIGHWAY 70A", "SR_14": 1.0, "Q_14": 4.0, "name": "WILSON NURSING CENTER", "SF_14": 4.0, "SF_15": 3.0, "cnty": "Carter", "st": "OK", "Zip": 73463.0, "O_14": 2.0, "Q_15": 2.0, "O_15": 1.0, "city": "WILSON", "beds": 70.0, "SR_15": 1.0}, {"Diff_star": -1.0, "addr": "102 EAST LINE", "SR_14": 4.0, "Q_14": 3.0, "name": "NORTHSIDE NURSING HOME", "SF_14": 4.0, "SF_15": 3.0, "cnty": "Creek", "st": "OK", "Zip": 74067.0, "O_14": 4.0, "Q_15": 1.0, "O_15": 3.0, "city": "SAPULPA", "beds": 69.0, "SR_15": 4.0}, {"Diff_star": 0.0, "addr": "916 NOBLE", "SR_14": 4.0, "Q_14": 5.0, "name": "BEADLES NURSING HOME", "SF_14": 4.0, "SF_15": 4.0, "cnty": "Woods", "st": "OK", "Zip": 73717.0, "O_14": 5.0, "Q_15": 5.0, "O_15": 5.0, "city": "ALVA", "beds": 74.0, "SR_15": 4.0}, {"Diff_star": 0.0, "addr": "17110 EAST 51ST STREET", "SR_14": 4.0, "Q_14": 3.0, "name": "FRANCISCAN VILLA", "SF_14": 4.0, "SF_15": 3.0, "cnty": "Tulsa", "st": "OK", "Zip": 74012.0, "O_14": 4.0, "Q_15": 3.0, "O_15": 4.0, "city": "BROKEN ARROW", "beds": 110.0, "SR_15": 4.0}, {"Diff_star": -1.0, "addr": "1401 NORTH LELIA", "SR_14": 3.0, "Q_14": 2.0, "name": "DR W F & MADA DUNAWAY MANOR", "SF_14": "", "SF_15": "", "cnty": "Texas", "st": "OK", "Zip": 73942.0, "O_14": 3.0, "Q_15": 1.0, "O_15": 2.0, "city": "GUYMON", "beds": 77.0, "SR_15": 3.0}, {"Diff_star": -1.0, "addr": "1410 WEST WILLOW ROAD", "SR_14": 2.0, "Q_14": 1.0, "name": "HIGHLAND PARK MANOR", "SF_14": 4.0, "SF_15": 3.0, "cnty": "Garfield", "st": "OK", "Zip": 73702.0, "O_14": 2.0, "Q_15": 1.0, "O_15": 1.0, "city": "ENID", "beds": 118.0, "SR_15": 2.0}, {"Diff_star": 0.0, "addr": "3501 W WASHINGTON", "SR_14": 2.0, "Q_14": 3.0, "name": "SENIOR SUITES HEALTHCARE", "SF_14": 4.0, "SF_15": 4.0, "cnty": "Tulsa", "st": "OK", "Zip": 74012.0, "O_14": 3.0, "Q_15": 2.0, "O_15": 3.0, "city": "BROKEN ARROW", "beds": 82.0, "SR_15": 2.0}, {"Diff_star": 0.0, "addr": "6TH AND HIGHWAY 69", "SR_14": 4.0, "Q_14": 1.0, "name": "EASTWOOD MANOR", "SF_14": 2.0, "SF_15": 2.0, "cnty": "Ottawa", "st": "OK", "Zip": 74339.0, "O_14": 3.0, "Q_15": 1.0, "O_15": 3.0, "city": "COMMERCE", "beds": 80.0, "SR_15": 4.0}, {"Diff_star": 0.0, "addr": "801 NORTH  WASHINGTON", "SR_14": 4.0, "Q_14": 1.0, "name": "CORN HERITAGE VILLAGE OF WEATHERFORD", "SF_14": 5.0, "SF_15": 5.0, "cnty": "Custer", "st": "OK", "Zip": 73096.0, "O_14": 4.0, "Q_15": 1.0, "O_15": 4.0, "city": "WEATHERFORD", "beds": 81.0, "SR_15": 4.0}, {"Diff_star": 0.0, "addr": "8555 SOUTH LEWIS AVENUE", "SR_14": 3.0, "Q_14": 2.0, "name": "UNIVERSITY VILLAGE RETIREMENT COMMUNITY", "SF_14": 2.0, "SF_15": 2.0, "cnty": "Tulsa", "st": "OK", "Zip": 74137.0, "O_14": 3.0, "Q_15": 2.0, "O_15": 3.0, "city": "TULSA", "beds": 80.0, "SR_15": 3.0}, {"Diff_star": 0.0, "addr": "HIGHWAY 152, BOX 465", "SR_14": 4.0, "Q_14": 5.0, "name": "HENSLEY NURSING HOME", "SF_14": 3.0, "SF_15": 3.0, "cnty": "Beckham", "st": "OK", "Zip": 73662.0, "O_14": 5.0, "Q_15": 5.0, "O_15": 5.0, "city": "SAYRE", "beds": 67.0, "SR_15": 4.0}, {"Diff_star": -1.0, "addr": "720 NORTH GALENA", "SR_14": 3.0, "Q_14": 3.0, "name": "GEARY COMMUNITY NURSING HOME", "SF_14": 2.0, "SF_15": 2.0, "cnty": "Blaine", "st": "OK", "Zip": 73040.0, "O_14": 3.0, "Q_15": 1.0, "O_15": 2.0, "city": "GEARY", "beds": 40.0, "SR_15": 3.0}, {"Diff_star": 0.0, "addr": "9221 HARMONY DRIVE", "SR_14": 1.0, "Q_14": 4.0, "name": "SIENNA EXTENDED CARE & REHAB", "SF_14": 3.0, "SF_15": 3.0, "cnty": "Oklahoma", "st": "OK", "Zip": 73130.0, "O_14": 1.0, "Q_15": 3.0, "O_15": 1.0, "city": "MIDWEST CITY", "beds": 100.0, "SR_15": 1.0}, {"Diff_star": -1.0, "addr": "103 SOUTHWEST 9TH STREET", "SR_14": 2.0, "Q_14": 5.0, "name": "LATIMER NURSING HOME", "SF_14": 4.0, "SF_15": 3.0, "cnty": "Latimer", "st": "OK", "Zip": 74578.0, "O_14": 4.0, "Q_15": 5.0, "O_15": 3.0, "city": "WILBURTON", "beds": 48.0, "SR_15": 2.0}, {"Diff_star": 0.0, "addr": "2333 TUSCANY BLVD", "SR_14": 2.0, "Q_14": 4.0, "name": "TUSCANY VILLAGE NURSING CENTER", "SF_14": 3.0, "SF_15": 3.0, "cnty": "Oklahoma", "st": "OK", "Zip": 73120.0, "O_14": 2.0, "Q_15": 2.0, "O_15": 2.0, "city": "OKLAHOMA CITY", "beds": 137.0, "SR_15": 2.0}, {"Diff_star": 0.0, "addr": "1310 EAST CLEVELAND", "SR_14": 1.0, "Q_14": 5.0, "name": "RANCH TERRACE NURSING HOME, INC", "SF_14": 4.0, "SF_15": 4.0, "cnty": "Creek", "st": "OK", "Zip": 74066.0, "O_14": 2.0, "Q_15": 5.0, "O_15": 2.0, "city": "SAPULPA", "beds": 85.0, "SR_15": 1.0}, {"Diff_star": 0.0, "addr": "7604 QUANAH PARKER TRAILWAY", "SR_14": 1.0, "Q_14": 4.0, "name": "MONTEVISTA REHABILITATION AND SKILLED CARE", "SF_14": 4.0, "SF_15": 4.0, "cnty": "Comanche", "st": "OK", "Zip": 73505.0, "O_14": 2.0, "Q_15": 2.0, "O_15": 2.0, "city": "LAWTON", "beds": 105.0, "SR_15": 1.0}, {"Diff_star": 0.0, "addr": "2701 SOUTH 9TH STREET", "SR_14": 5.0, "Q_14": 3.0, "name": "CHICKASHA NURSING CENTER, INC", "SF_14": 4.0, "SF_15": 3.0, "cnty": "Grady", "st": "OK", "Zip": 73018.0, "O_14": 5.0, "Q_15": 2.0, "O_15": 5.0, "city": "CHICKASHA", "beds": 60.0, "SR_15": 5.0}, {"Diff_star": 0.0, "addr": "1500 SOUTH VIRGINIA STREET", "SR_14": 1.0, "Q_14": 2.0, "name": "ATOKA MANOR", "SF_14": 1.0, "SF_15": 1.0, "cnty": "Atoka", "st": "OK", "Zip": 74525.0, "O_14": 1.0, "Q_15": 1.0, "O_15": 1.0, "city": "ATOKA", "beds": 96.0, "SR_15": 1.0}, {"Diff_star": 0.0, "addr": "402 SOUTHEAST 6TH STREET", "SR_14": 3.0, "Q_14": 3.0, "name": "MOORELAND HERITAGE MANOR", "SF_14": 2.0, "SF_15": 2.0, "cnty": "Woodward", "st": "OK", "Zip": 73852.0, "O_14": 3.0, "Q_15": 2.0, "O_15": 3.0, "city": "MOORELAND", "beds": 62.0, "SR_15": 3.0}, {"Diff_star": 0.0, "addr": "111 13TH AVENUE NORTHWEST", "SR_14": 2.0, "Q_14": 5.0, "name": "WHISPERING OAKS", "SF_14": 3.0, "SF_15": 3.0, "cnty": "Carter", "st": "OK", "Zip": 73401.0, "O_14": 3.0, "Q_15": 5.0, "O_15": 3.0, "city": "ARDMORE", "beds": 76.0, "SR_15": 2.0}, {"Diff_star": 0.0, "addr": "619 SPECK", "SR_14": 3.0, "Q_14": 3.0, "name": "TOWN OF VICI NURSING HOME", "SF_14": 2.0, "SF_15": 2.0, "cnty": "Dewey", "st": "OK", "Zip": 73859.0, "O_14": 3.0, "Q_15": 2.0, "O_15": 3.0, "city": "VICI", "beds": 73.0, "SR_15": 3.0}, {"Diff_star": -1.0, "addr": "5721 S LEWIS AVE", "SR_14": 2.0, "Q_14": 3.0, "name": "THE VILLAGES AT SOUTHERN HILLS", "SF_14": 4.0, "SF_15": 3.0, "cnty": "Tulsa", "st": "OK", "Zip": 74105.0, "O_14": 3.0, "Q_15": 2.0, "O_15": 2.0, "city": "TULSA", "beds": 100.0, "SR_15": 2.0}, {"Diff_star": 0.0, "addr": "2025 EAST 71ST STREET", "SR_14": 1.0, "Q_14": 3.0, "name": "TULSA JEWISH RETIREMENT COMMUNITY AND HC CENTER", "SF_14": 4.0, "SF_15": 4.0, "cnty": "Tulsa", "st": "OK", "Zip": 74136.0, "O_14": 2.0, "Q_15": 2.0, "O_15": 2.0, "city": "TULSA", "beds": 58.0, "SR_15": 1.0}, {"Diff_star": 0.0, "addr": "801 B STREET", "SR_14": 3.0, "Q_14": 4.0, "name": "AYERS NURSING HOME", "SF_14": 4.0, "SF_15": 4.0, "cnty": "Kiowa", "st": "OK", "Zip": 73566.0, "O_14": 4.0, "Q_15": 3.0, "O_15": 4.0, "city": "SNYDER", "beds": 87.0, "SR_15": 3.0}, {"Diff_star": -1.0, "addr": "6006 SE ADAMS BLVD", "SR_14": 4.0, "Q_14": 5.0, "name": "ADAMS PARC", "SF_14": 4.0, "SF_15": 4.0, "cnty": "Washington", "st": "OK", "Zip": 74006.0, "O_14": 5.0, "Q_15": 2.0, "O_15": 4.0, "city": "BARTLESVILLE", "beds": 92.0, "SR_15": 4.0}, {"Diff_star": 0.0, "addr": "730 SHARE DRIVE", "SR_14": 4.0, "Q_14": 3.0, "name": "SHARE MEDICAL CENTER", "SF_14": 4.0, "SF_15": 4.0, "cnty": "Woods", "st": "OK", "Zip": 73717.0, "O_14": 4.0, "Q_15": 2.0, "O_15": 4.0, "city": "ALVA", "beds": 80.0, "SR_15": 4.0}, {"Diff_star": -1.0, "addr": "3110 HEALTHPLEX DRIVE", "SR_14": 3.0, "Q_14": 4.0, "name": "MEDICAL PARK WEST REHABILITATION & SKILLED CARE", "SF_14": 4.0, "SF_15": 3.0, "cnty": "Cleveland", "st": "OK", "Zip": 73072.0, "O_14": 4.0, "Q_15": 4.0, "O_15": 3.0, "city": "NORMAN", "beds": 104.0, "SR_15": 3.0}, {"Diff_star": -3.0, "addr": "1100 EAST 9TH STREET", "SR_14": 4.0, "Q_14": 3.0, "name": "EDMOND HEALTH AND REHABILITATION", "SF_14": 4.0, "SF_15": 3.0, "cnty": "Oklahoma", "st": "OK", "Zip": 73034.0, "O_14": 4.0, "Q_15": 2.0, "O_15": 1.0, "city": "EDMOND", "beds": 60.0, "SR_15": 1.0}, {"Diff_star": 0.0, "addr": "2700 NORTH HICKORY STREET", "SR_14": 5.0, "Q_14": 4.0, "name": "AUTUMN WOOD MEMORY CARE", "SF_14": "", "SF_15": "", "cnty": "Rogers", "st": "OK", "Zip": 74017.0, "O_14": 5.0, "Q_15": 3.0, "O_15": 5.0, "city": "CLAREMORE", "beds": 60.0, "SR_15": 5.0}, {"Diff_star": -2.0, "addr": "3701 MARTIN LUTHER KING JR BLVD", "SR_14": 2.0, "Q_14": 5.0, "name": "SAINT SIMEONS EPISCOPAL HOME", "SF_14": 4.0, "SF_15": 3.0, "cnty": "Tulsa", "st": "OK", "Zip": 74106.0, "O_14": 4.0, "Q_15": 4.0, "O_15": 2.0, "city": "TULSA", "beds": 55.0, "SR_15": 2.0}, {"Diff_star": -1.0, "addr": "1301 NORTH 5TH STREET", "SR_14": 3.0, "Q_14": 5.0, "name": "WILLOW HAVEN NURSING HOME", "SF_14": 3.0, "SF_15": 3.0, "cnty": "Kay", "st": "OK", "Zip": 74653.0, "O_14": 4.0, "Q_15": 4.0, "O_15": 3.0, "city": "TONKAWA", "beds": 49.0, "SR_15": 3.0}, {"Diff_star": -1.0, "addr": "2416 WEST 51STSOUTH", "SR_14": 5.0, "Q_14": 2.0, "name": "SHERWOOD MANOR NURSING HOME", "SF_14": 3.0, "SF_15": 3.0, "cnty": "Tulsa", "st": "OK", "Zip": 74107.0, "O_14": 5.0, "Q_15": 1.0, "O_15": 4.0, "city": "TULSA", "beds": 102.0, "SR_15": 5.0}, {"Diff_star": 0.0, "addr": "1600 EAST HIGHWAY", "SR_14": 2.0, "Q_14": 4.0, "name": "BOYCE MANOR NURSING HOME", "SF_14": 4.0, "SF_15": 4.0, "cnty": "Hughes", "st": "OK", "Zip": 74848.0, "O_14": 3.0, "Q_15": 3.0, "O_15": 3.0, "city": "HOLDENVILLE", "beds": 155.0, "SR_15": 2.0}, {"Diff_star": 0.0, "addr": "10098 N 123", "SR_14": "", "Q_14": "", "name": "THE HIGHLANDS AT OWASSO", "SF_14": "", "SF_15": "", "cnty": "Tulsa", "st": "OK", "Zip": 74055.0, "O_14": "", "Q_15": "", "O_15": "", "city": "OWASSO", "beds": 105.0, "SR_15": ""}, {"Diff_star": 0.0, "addr": "200 EAST 8TH STREET", "SR_14": 4.0, "Q_14": 4.0, "name": "BEAVER COUNTY NURSING HOME", "SF_14": 4.0, "SF_15": 4.0, "cnty": "Beaver", "st": "OK", "Zip": 73932.0, "O_14": 4.0, "Q_15": 3.0, "O_15": 4.0, "city": "BEAVER", "beds": 62.0, "SR_15": 4.0}, {"Diff_star": 0.0, "addr": "11 PALM STREET", "SR_14": "", "Q_14": "", "name": "SPANISH COVE HOUSING AUTHORITY", "SF_14": "", "SF_15": "", "cnty": "Canadian", "st": "OK", "Zip": 73099.0, "O_14": "", "Q_15": "", "O_15": "", "city": "YUKON", "beds": 47.0, "SR_15": ""}, {"Diff_star": 0.0, "addr": "9400 ST ANN'S DRIVE", "SR_14": 4.0, "Q_14": 5.0, "name": "ST ANN'S HOME", "SF_14": 2.0, "SF_15": 2.0, "cnty": "Oklahoma", "st": "OK", "Zip": 73162.0, "O_14": 5.0, "Q_15": 5.0, "O_15": 5.0, "city": "OKLAHOMA CITY", "beds": 120.0, "SR_15": 4.0}, {"Diff_star": 0.0, "addr": "2007 NW 52ND STREET", "SR_14": "", "Q_14": "", "name": "MCMAHON-TOMLINSON NURSING CENTER", "SF_14": "", "SF_15": "", "cnty": "Comanche", "st": "OK", "Zip": 73505.0, "O_14": "", "Q_15": "", "O_15": "", "city": "LAWTON", "beds": 135.0, "SR_15": ""}, {"Diff_star": 0.0, "addr": "225 NORTH BROADWAY", "SR_14": 4.0, "Q_14": 4.0, "name": "CARNEGIE NURSING HOME, INC.", "SF_14": 1.0, "SF_15": 1.0, "cnty": "Caddo", "st": "OK", "Zip": 73015.0, "O_14": 3.0, "Q_15": 2.0, "O_15": 3.0, "city": "CARNEGIE", "beds": 100.0, "SR_15": 4.0}, {"Diff_star": 0.0, "addr": "301 EAST DALE", "SR_14": 1.0, "Q_14": 4.0, "name": "HOLIDAY HEIGHTS NURSING HOME", "SF_14": 1.0, "SF_15": 1.0, "cnty": "Cleveland", "st": "OK", "Zip": 73069.0, "O_14": 1.0, "Q_15": 3.0, "O_15": 1.0, "city": "NORMAN", "beds": 51.0, "SR_15": 1.0}, {"Diff_star": 0.0, "addr": "HIGHWAY 60 NORTH", "SR_14": 4.0, "Q_14": 5.0, "name": "SEILING NURSING CENTER", "SF_14": 5.0, "SF_15": 5.0, "cnty": "Dewey", "st": "OK", "Zip": 73663.0, "O_14": 5.0, "Q_15": 5.0, "O_15": 5.0, "city": "SEILING", "beds": 31.0, "SR_15": 4.0}, {"Diff_star": 0.0, "addr": "201 NORTH ALFALFA", "SR_14": 4.0, "Q_14": 3.0, "name": "SHATTUCK NURSING CENTER", "SF_14": 4.0, "SF_15": 4.0, "cnty": "Ellis", "st": "OK", "Zip": 73858.0, "O_14": 4.0, "Q_15": 2.0, "O_15": 4.0, "city": "SHATTUCK", "beds": 60.0, "SR_15": 4.0}, {"Diff_star": 0.0, "addr": "120 WEST VERSA", "SR_14": 5.0, "Q_14": 4.0, "name": "COLONIAL MANOR II", "SF_14": 2.0, "SF_15": 2.0, "cnty": "Harmon", "st": "OK", "Zip": 73550.0, "O_14": 5.0, "Q_15": 3.0, "O_15": 5.0, "city": "HOLLIS", "beds": 92.0, "SR_15": 5.0}, {"Diff_star": -1.0, "addr": "1100 NORTH MADISON", "SR_14": 2.0, "Q_14": 2.0, "name": "SENIOR VILLAGE NURSING HOME", "SF_14": 4.0, "SF_15": 4.0, "cnty": "Mcclain", "st": "OK", "Zip": 73010.0, "O_14": 3.0, "Q_15": 1.0, "O_15": 2.0, "city": "BLANCHARD", "beds": 50.0, "SR_15": 2.0}, {"Diff_star": -1.0, "addr": "300 WEST 9TH STREET", "SR_14": 2.0, "Q_14": 4.0, "name": "RAINBOW TERRACE CARE CENTER", "SF_14": 4.0, "SF_15": 3.0, "cnty": "Okfuskee", "st": "OK", "Zip": 74880.0, "O_14": 3.0, "Q_15": 3.0, "O_15": 2.0, "city": "WELEETKA", "beds": 60.0, "SR_15": 2.0}, {"Diff_star": 1.0, "addr": "212 NORTH ANTES", "SR_14": 2.0, "Q_14": 1.0, "name": "BONO NURSING HOME", "SF_14": 3.0, "SF_15": 3.0, "cnty": "Okmulgee", "st": "OK", "Zip": 74437.0, "O_14": 1.0, "Q_15": 1.0, "O_15": 2.0, "city": "HENRYETTA", "beds": 53.0, "SR_15": 3.0}, {"Diff_star": 0.0, "addr": "407 WHITEBIRD AVENUE", "SR_14": 5.0, "Q_14": 3.0, "name": "HIGHER CALL NURSING CENTER", "SF_14": 2.0, "SF_15": 2.0, "cnty": "Ottawa", "st": "OK", "Zip": 74354.0, "O_14": 5.0, "Q_15": 2.0, "O_15": 5.0, "city": "MIAMI", "beds": 86.0, "SR_15": 5.0}, {"Diff_star": 0.0, "addr": "424 NORTH DATE", "SR_14": 1.0, "Q_14": 4.0, "name": "BROKEN ARROW NURSING HOME, INC", "SF_14": 3.0, "SF_15": 3.0, "cnty": "Tulsa", "st": "OK", "Zip": 74012.0, "O_14": 1.0, "Q_15": 3.0, "O_15": 1.0, "city": "BROKEN ARROW", "beds": 101.0, "SR_15": 1.0}, {"Diff_star": -1.0, "addr": "319 EAST JOSEPHINE", "SR_14": 5.0, "Q_14": 2.0, "name": "MEMORIAL NURSING CENTER", "SF_14": 4.0, "SF_15": 4.0, "cnty": "Tillman", "st": "OK", "Zip": 73542.0, "O_14": 5.0, "Q_15": 1.0, "O_15": 4.0, "city": "FREDERICK", "beds": 30.0, "SR_15": 5.0}, {"Diff_star": 0.0, "addr": "3718 NORTH PORTLAND", "SR_14": 3.0, "Q_14": 1.0, "name": "NORTH WINDS LIVING CENTER", "SF_14": 4.0, "SF_15": 4.0, "cnty": "Oklahoma", "st": "OK", "Zip": 73112.0, "O_14": 3.0, "Q_15": 1.0, "O_15": 3.0, "city": "OKLAHOMA CITY", "beds": 29.0, "SR_15": 3.0}, {"Diff_star": 0.0, "addr": "900 W RANCHWOOD DRIVE", "SR_14": 5.0, "Q_14": "", "name": "TIDWELL LIVING CENTER", "SF_14": 5.0, "SF_15": 5.0, "cnty": "Latimer", "st": "OK", "Zip": 74578.0, "O_14": 5.0, "Q_15": "", "O_15": 5.0, "city": "WILBURTON", "beds": 55.0, "SR_15": 5.0}]