[{"Diff_star": 0.0, "addr": "1085 N. OREGON STREET", "SR_14": 4.0, "Q_14": 3.0, "name": "PRESBYTERIAN COMMUNITY CARE CE", "SF_14": 5.0, "SF_15": 5.0, "cnty": "Malheur", "st": "OR", "Zip": 97914.0, "O_14": 5.0, "Q_15": 2.0, "O_15": 5.0, "city": "ONTARIO", "beds": 96.0, "SR_15": 4.0}, {"Diff_star": -1.0, "addr": "3060 SE STARK STREET", "SR_14": 2.0, "Q_14": 5.0, "name": "LAURELHURST VILLAGE REHABILITATION CENTER", "SF_14": 4.0, "SF_15": 4.0, "cnty": "Multnomah", "st": "OR", "Zip": 97214.0, "O_14": 4.0, "Q_15": 4.0, "O_15": 3.0, "city": "PORTLAND", "beds": 179.0, "SR_15": 2.0}, {"Diff_star": 0.0, "addr": "5905 SE POWELL VALLEY RD", "SR_14": 3.0, "Q_14": 3.0, "name": "REGENCY GRESHAM NURSING & REHAB CENTER", "SF_14": 4.0, "SF_15": 4.0, "cnty": "Multnomah", "st": "OR", "Zip": 97080.0, "O_14": 4.0, "Q_15": 2.0, "O_15": 4.0, "city": "GRESHAM", "beds": 128.0, "SR_15": 3.0}, {"Diff_star": 0.0, "addr": "540 SOUTH MAIN STREET", "SR_14": 3.0, "Q_14": 4.0, "name": "PROVIDENCE BENEDICTINE NC", "SF_14": 5.0, "SF_15": 5.0, "cnty": "Marion", "st": "OR", "Zip": 97362.0, "O_14": 4.0, "Q_15": 2.0, "O_15": 4.0, "city": "MOUNT ANGEL", "beds": 93.0, "SR_15": 3.0}, {"Diff_star": 0.0, "addr": "625 STEVENS STREET", "SR_14": 2.0, "Q_14": 4.0, "name": "AVAMERE HEALTH SERVICES OF ROGUE VALLEY", "SF_14": 4.0, "SF_15": 4.0, "cnty": "Jackson", "st": "OR", "Zip": 97504.0, "O_14": 3.0, "Q_15": 4.0, "O_15": 3.0, "city": "MEDFORD", "beds": 110.0, "SR_15": 2.0}, {"Diff_star": 0.0, "addr": "6530 SW 30TH AVENUE", "SR_14": 1.0, "Q_14": 3.0, "name": "AVAMERE CRESTVIEW OF PORTLAND", "SF_14": 5.0, "SF_15": 5.0, "cnty": "Multnomah", "st": "OR", "Zip": 97201.0, "O_14": 2.0, "Q_15": 2.0, "O_15": 2.0, "city": "PORTLAND", "beds": 127.0, "SR_15": 1.0}, {"Diff_star": -1.0, "addr": "3959 SHERIDAN AVENUE", "SR_14": 1.0, "Q_14": 5.0, "name": "BAYCREST HEALTH CENTER", "SF_14": 4.0, "SF_15": 3.0, "cnty": "Coos", "st": "OR", "Zip": 97459.0, "O_14": 2.0, "Q_15": 4.0, "O_15": 1.0, "city": "NORTH BEND", "beds": 84.0, "SR_15": 1.0}, {"Diff_star": 0.0, "addr": "745 NE 122ND AVENUE", "SR_14": 2.0, "Q_14": 4.0, "name": "PRESTIGE CARE AND REHABILITATION - MENLO PARK", "SF_14": 4.0, "SF_15": 4.0, "cnty": "Multnomah", "st": "OR", "Zip": 97230.0, "O_14": 3.0, "Q_15": 4.0, "O_15": 3.0, "city": "PORTLAND", "beds": 83.0, "SR_15": 2.0}, {"Diff_star": 0.0, "addr": "5330 NE PRESCOTT STREET", "SR_14": 2.0, "Q_14": 4.0, "name": "PORTHAVEN HEALTHCARE CENTER", "SF_14": 4.0, "SF_15": 4.0, "cnty": "Multnomah", "st": "OR", "Zip": 97218.0, "O_14": 3.0, "Q_15": 3.0, "O_15": 3.0, "city": "PORTLAND", "beds": 99.0, "SR_15": 2.0}, {"Diff_star": -1.0, "addr": "1201 MCLEAN BLVD.", "SR_14": 3.0, "Q_14": 3.0, "name": "HILLSIDE HEIGHTS REHAB CT", "SF_14": 4.0, "SF_15": 4.0, "cnty": "Lane", "st": "OR", "Zip": 97405.0, "O_14": 4.0, "Q_15": 1.0, "O_15": 3.0, "city": "EUGENE", "beds": 83.0, "SR_15": 3.0}, {"Diff_star": 0.0, "addr": "1015 WEBBER ROAD", "SR_14": 3.0, "Q_14": 3.0, "name": "COLUMBIA BASIN CARE FACILITY", "SF_14": 5.0, "SF_15": 5.0, "cnty": "Wasco", "st": "OR", "Zip": 97058.0, "O_14": 4.0, "Q_15": 2.0, "O_15": 4.0, "city": "THE DALLES", "beds": 120.0, "SR_15": 3.0}, {"Diff_star": 0.0, "addr": "2360 CHAMBERS STREET", "SR_14": 2.0, "Q_14": 3.0, "name": "AVAMERE REHABILITATION OF EUGENE", "SF_14": 4.0, "SF_15": 4.0, "cnty": "Lane", "st": "OR", "Zip": 97405.0, "O_14": 3.0, "Q_15": 2.0, "O_15": 3.0, "city": "EUGENE", "beds": 123.0, "SR_15": 2.0}, {"Diff_star": 0.0, "addr": "3540 SE FRANCIS STREET", "SR_14": 3.0, "Q_14": 5.0, "name": "PRESTIGE CARE AND REHABILITATION OF REEDWOOD", "SF_14": 4.0, "SF_15": 4.0, "cnty": "Multnomah", "st": "OR", "Zip": 97202.0, "O_14": 5.0, "Q_15": 5.0, "O_15": 5.0, "city": "PORTLAND", "beds": 64.0, "SR_15": 3.0}, {"Diff_star": -1.0, "addr": "1710 NE FAIRVIEW AVENUE", "SR_14": 3.0, "Q_14": 5.0, "name": "FAIR VIEW TRANSITIONAL HEALTH CENTER", "SF_14": 4.0, "SF_15": 2.0, "cnty": "Josephine", "st": "OR", "Zip": 97526.0, "O_14": 5.0, "Q_15": 5.0, "O_15": 4.0, "city": "GRANTS PASS", "beds": 102.0, "SR_15": 3.0}, {"Diff_star": 0.0, "addr": "3955 SE 182ND AVENUE", "SR_14": 3.0, "Q_14": 4.0, "name": "VILLAGE HEALTH CARE", "SF_14": 4.0, "SF_15": 4.0, "cnty": "Multnomah", "st": "OR", "Zip": 97030.0, "O_14": 4.0, "Q_15": 4.0, "O_15": 4.0, "city": "GRESHAM", "beds": 106.0, "SR_15": 3.0}, {"Diff_star": -1.0, "addr": "160 NE CONIFER BLVD", "SR_14": 1.0, "Q_14": 4.0, "name": "CORVALLIS MANOR", "SF_14": 4.0, "SF_15": 3.0, "cnty": "Benton", "st": "OR", "Zip": 97330.0, "O_14": 2.0, "Q_15": 3.0, "O_15": 1.0, "city": "CORVALLIS", "beds": 135.0, "SR_15": 1.0}, {"Diff_star": -2.0, "addr": "1333 N. FIRST STREET", "SR_14": 2.0, "Q_14": 5.0, "name": "MARQUIS SPRINGFIELD", "SF_14": 4.0, "SF_15": 3.0, "cnty": "Lane", "st": "OR", "Zip": 97477.0, "O_14": 4.0, "Q_15": 4.0, "O_15": 2.0, "city": "SPRINGFIELD", "beds": 136.0, "SR_15": 2.0}, {"Diff_star": 0.0, "addr": "2901 E. BARNETT ROAD", "SR_14": 1.0, "Q_14": 4.0, "name": "HEARTHSTONE NURSING AND REHABILITATION CENTER", "SF_14": 4.0, "SF_15": 4.0, "cnty": "Jackson", "st": "OR", "Zip": 97504.0, "O_14": 2.0, "Q_15": 2.0, "O_15": 2.0, "city": "MEDFORD", "beds": 151.0, "SR_15": 1.0}, {"Diff_star": 0.0, "addr": "729 HENDERSON ROAD", "SR_14": 3.0, "Q_14": 4.0, "name": "HOOD RIVER CARE CENTER", "SF_14": 4.0, "SF_15": 4.0, "cnty": "Hood River", "st": "OR", "Zip": 97031.0, "O_14": 4.0, "Q_15": 2.0, "O_15": 4.0, "city": "HOOD RIVER", "beds": 131.0, "SR_15": 3.0}, {"Diff_star": -1.0, "addr": "1023 6TH AVE SW", "SR_14": 5.0, "Q_14": 4.0, "name": "TIMBERVIEW CARE CENTER", "SF_14": 4.0, "SF_15": 4.0, "cnty": "Linn", "st": "OR", "Zip": 97321.0, "O_14": 5.0, "Q_15": 2.0, "O_15": 4.0, "city": "ALBANY", "beds": 97.0, "SR_15": 4.0}, {"Diff_star": 0.0, "addr": "5701 SW MULTNOMAH BLVD", "SR_14": 5.0, "Q_14": 5.0, "name": "WEST HILLS HEALTH & REHABILITATION CENTER", "SF_14": 4.0, "SF_15": 4.0, "cnty": "Multnomah", "st": "OR", "Zip": 97219.0, "O_14": 5.0, "Q_15": 4.0, "O_15": 5.0, "city": "PORTLAND", "beds": 180.0, "SR_15": 5.0}, {"Diff_star": 0.0, "addr": "700 S. J STREET", "SR_14": 1.0, "Q_14": 4.0, "name": "LAKE DISTRICT HOSPITAL", "SF_14": 5.0, "SF_15": 5.0, "cnty": "Lake", "st": "OR", "Zip": 97630.0, "O_14": 2.0, "Q_15": 4.0, "O_15": 2.0, "city": "LAKEVIEW", "beds": 47.0, "SR_15": 1.0}, {"Diff_star": 0.0, "addr": "601 EVERGREEN ROAD", "SR_14": 2.0, "Q_14": 5.0, "name": "FRENCH PRAIRIE NURSING AND REHABILITATION CENTER", "SF_14": 3.0, "SF_15": 3.0, "cnty": "Marion", "st": "OR", "Zip": 97071.0, "O_14": 3.0, "Q_15": 5.0, "O_15": 3.0, "city": "WOODBURN", "beds": 80.0, "SR_15": 2.0}, {"Diff_star": 0.0, "addr": "2300 WARREN AVENUE", "SR_14": 1.0, "Q_14": 5.0, "name": "VALLEY WEST HEALTH CARE", "SF_14": 4.0, "SF_15": 4.0, "cnty": "Lane", "st": "OR", "Zip": 97405.0, "O_14": 2.0, "Q_15": 4.0, "O_15": 2.0, "city": "EUGENE", "beds": 121.0, "SR_15": 1.0}, {"Diff_star": 0.0, "addr": "3320 SE HOLGATE", "SR_14": 2.0, "Q_14": 4.0, "name": "FRIENDSHIP HEALTH CENTER", "SF_14": 4.0, "SF_15": 4.0, "cnty": "Multnomah", "st": "OR", "Zip": 97202.0, "O_14": 3.0, "Q_15": 4.0, "O_15": 3.0, "city": "PORTLAND", "beds": 100.0, "SR_15": 2.0}, {"Diff_star": 0.0, "addr": "1400 DIVISION STREET", "SR_14": 5.0, "Q_14": 3.0, "name": "AVAMERE REHABILITATION OF OREGON CITY", "SF_14": 4.0, "SF_15": 3.0, "cnty": "Clackamas", "st": "OR", "Zip": 97045.0, "O_14": 5.0, "Q_15": 2.0, "O_15": 5.0, "city": "OREGON CITY", "beds": 111.0, "SR_15": 5.0}, {"Diff_star": 0.0, "addr": "835 CRATER LAKE AVENUE", "SR_14": 1.0, "Q_14": 2.0, "name": "AVAMERE AT THREE FOUNTAINS", "SF_14": 2.0, "SF_15": 2.0, "cnty": "Jackson", "st": "OR", "Zip": 97504.0, "O_14": 1.0, "Q_15": 1.0, "O_15": 1.0, "city": "MEDFORD", "beds": 156.0, "SR_15": 1.0}, {"Diff_star": 1.0, "addr": "16485 SW PACIFIC HIGHWAY", "SR_14": 2.0, "Q_14": 4.0, "name": "AVAMERE REHABILITATION OF KING CITY", "SF_14": 4.0, "SF_15": 4.0, "cnty": "Washington", "st": "OR", "Zip": 97224.0, "O_14": 3.0, "Q_15": 4.0, "O_15": 4.0, "city": "TIGARD", "beds": 148.0, "SR_15": 3.0}, {"Diff_star": -1.0, "addr": "3457 NE DIVISION", "SR_14": 3.0, "Q_14": 2.0, "name": "GOOD SAMARITAN SOCIETY - FAIRLAWN VILLAGE", "SF_14": 4.0, "SF_15": 4.0, "cnty": "Multnomah", "st": "OR", "Zip": 97030.0, "O_14": 4.0, "Q_15": 1.0, "O_15": 3.0, "city": "GRESHAM", "beds": 97.0, "SR_15": 3.0}, {"Diff_star": 0.0, "addr": "9750 NE GLISAN STREET", "SR_14": 1.0, "Q_14": 4.0, "name": "GLISAN CARE CENTER", "SF_14": 4.0, "SF_15": 4.0, "cnty": "Multnomah", "st": "OR", "Zip": 97220.0, "O_14": 2.0, "Q_15": 3.0, "O_15": 2.0, "city": "PORTLAND", "beds": 100.0, "SR_15": 1.0}, {"Diff_star": -1.0, "addr": "1401 BRYANT WILLIAMS DR.", "SR_14": 4.0, "Q_14": 3.0, "name": "MARQUIS PLUM RIDGE", "SF_14": 4.0, "SF_15": 4.0, "cnty": "Klamath", "st": "OR", "Zip": 97601.0, "O_14": 4.0, "Q_15": 1.0, "O_15": 3.0, "city": "KLAMATH FALLS", "beds": 116.0, "SR_15": 4.0}, {"Diff_star": 0.0, "addr": "1876 NE HIGHWAY 20", "SR_14": 5.0, "Q_14": 4.0, "name": "PILOT BUTTE REHABILITATION CENTER", "SF_14": 5.0, "SF_15": 5.0, "cnty": "Deschutes", "st": "OR", "Zip": 97701.0, "O_14": 5.0, "Q_15": 4.0, "O_15": 5.0, "city": "BEND", "beds": 100.0, "SR_15": 5.0}, {"Diff_star": -1.0, "addr": "6040 SE BELMONT STREET", "SR_14": 1.0, "Q_14": 3.0, "name": "MARQUIS MT TABOR", "SF_14": 5.0, "SF_15": 5.0, "cnty": "Multnomah", "st": "OR", "Zip": 97215.0, "O_14": 2.0, "Q_15": 1.0, "O_15": 1.0, "city": "PORTLAND", "beds": 175.0, "SR_15": 1.0}, {"Diff_star": 0.0, "addr": "1951 E. 21ST STREET", "SR_14": 2.0, "Q_14": 3.0, "name": "REGENCY FLORENCE", "SF_14": 4.0, "SF_15": 4.0, "cnty": "Lane", "st": "OR", "Zip": 97439.0, "O_14": 3.0, "Q_15": 3.0, "O_15": 3.0, "city": "FLORENCE", "beds": 72.0, "SR_15": 2.0}, {"Diff_star": 0.0, "addr": "525 W. UMPQUA STREET", "SR_14": 5.0, "Q_14": 3.0, "name": "UMPQUA VALLEY NURSING & REHABILITATION CENTER", "SF_14": 5.0, "SF_15": 5.0, "cnty": "Douglas", "st": "OR", "Zip": 97470.0, "O_14": 5.0, "Q_15": 2.0, "O_15": 5.0, "city": "ROSEBURG", "beds": 118.0, "SR_15": 5.0}, {"Diff_star": 0.0, "addr": "646 16TH STREET", "SR_14": 2.0, "Q_14": 3.0, "name": "CLATSOP CARE CENTER", "SF_14": 5.0, "SF_15": 5.0, "cnty": "Clatsop", "st": "OR", "Zip": 97103.0, "O_14": 3.0, "Q_15": 2.0, "O_15": 3.0, "city": "ASTORIA", "beds": 71.0, "SR_15": 2.0}, {"Diff_star": -1.0, "addr": "6125 SW BOUNDARY STREET", "SR_14": 5.0, "Q_14": 3.0, "name": "ROBISON JEWISH HEALTH CENTER", "SF_14": 4.0, "SF_15": 4.0, "cnty": "Multnomah", "st": "OR", "Zip": 97221.0, "O_14": 5.0, "Q_15": 1.0, "O_15": 4.0, "city": "PORTLAND", "beds": 88.0, "SR_15": 5.0}, {"Diff_star": 0.0, "addr": "3500 HILYARD STREET", "SR_14": 3.0, "Q_14": 3.0, "name": "GOOD SAMARITAN SOCIETY - EUGENE VILLAGE", "SF_14": 4.0, "SF_15": 4.0, "cnty": "Lane", "st": "OR", "Zip": 97405.0, "O_14": 4.0, "Q_15": 3.0, "O_15": 4.0, "city": "EUGENE", "beds": 106.0, "SR_15": 3.0}, {"Diff_star": 0.0, "addr": "2075 NW HIGHLAND AVENUE", "SR_14": 3.0, "Q_14": 4.0, "name": "ROYALE GARDENS HEALTH AND REHABILITATION CENTER", "SF_14": 4.0, "SF_15": 4.0, "cnty": "Josephine", "st": "OR", "Zip": 97526.0, "O_14": 4.0, "Q_15": 4.0, "O_15": 4.0, "city": "GRANTS PASS", "beds": 191.0, "SR_15": 3.0}, {"Diff_star": 0.0, "addr": "2201 NW HIGHLAND AVENUE", "SR_14": 4.0, "Q_14": 4.0, "name": "HIGHLAND HOUSE", "SF_14": 4.0, "SF_15": 3.0, "cnty": "Josephine", "st": "OR", "Zip": 97526.0, "O_14": 4.0, "Q_15": 4.0, "O_15": 4.0, "city": "GRANTS PASS", "beds": 174.0, "SR_15": 4.0}, {"Diff_star": -1.0, "addr": "301 RIDINGS AVENUE", "SR_14": 2.0, "Q_14": 5.0, "name": "MOLALLA MANOR CARE CENTER", "SF_14": 4.0, "SF_15": 4.0, "cnty": "Clackamas", "st": "OR", "Zip": 97038.0, "O_14": 4.0, "Q_15": 4.0, "O_15": 3.0, "city": "MOLALLA", "beds": 92.0, "SR_15": 2.0}, {"Diff_star": 0.0, "addr": "740 NW HILL PLACE", "SR_14": 4.0, "Q_14": 4.0, "name": "ROSE HAVEN NURSING CENTER", "SF_14": 4.0, "SF_15": 4.0, "cnty": "Douglas", "st": "OR", "Zip": 97471.0, "O_14": 4.0, "Q_15": 3.0, "O_15": 4.0, "city": "ROSEBURG", "beds": 193.0, "SR_15": 4.0}, {"Diff_star": 0.0, "addr": "515 GRANT STREET", "SR_14": 3.0, "Q_14": 4.0, "name": "COAST FORK NURSING CENTER", "SF_14": 4.0, "SF_15": 4.0, "cnty": "Lane", "st": "OR", "Zip": 97424.0, "O_14": 4.0, "Q_15": 3.0, "O_15": 4.0, "city": "COTTAGE GROVE", "beds": 80.0, "SR_15": 3.0}, {"Diff_star": 0.0, "addr": "3900 PACIFIC AVENUE", "SR_14": 1.0, "Q_14": 5.0, "name": "FOREST GROVE REHABILITATION AND CARE CENTER", "SF_14": 4.0, "SF_15": 4.0, "cnty": "Washington", "st": "OR", "Zip": 97116.0, "O_14": 2.0, "Q_15": 5.0, "O_15": 2.0, "city": "FOREST GROVE", "beds": 114.0, "SR_15": 1.0}, {"Diff_star": 0.0, "addr": "1735 ADKINS STREET", "SR_14": 1.0, "Q_14": 4.0, "name": "GREEN VALLEY REHABILITATION HEALTH CENTER", "SF_14": 4.0, "SF_15": 4.0, "cnty": "Lane", "st": "OR", "Zip": 97401.0, "O_14": 2.0, "Q_15": 4.0, "O_15": 2.0, "city": "EUGENE", "beds": 101.0, "SR_15": 1.0}, {"Diff_star": 0.0, "addr": "2890 OCEAN BLVD", "SR_14": 1.0, "Q_14": 4.0, "name": "LIFE CARE CTR OF COOS BAY", "SF_14": 4.0, "SF_15": 4.0, "cnty": "Coos", "st": "OR", "Zip": 97420.0, "O_14": 2.0, "Q_15": 3.0, "O_15": 2.0, "city": "COOS BAY", "beds": 114.0, "SR_15": 1.0}, {"Diff_star": 0.0, "addr": "120 ELZORA STREET", "SR_14": 3.0, "Q_14": 4.0, "name": "MILTON FREEWATER HEALTH AND REHABILITATION CENTER", "SF_14": 4.0, "SF_15": 4.0, "cnty": "Umatilla", "st": "OR", "Zip": 97862.0, "O_14": 4.0, "Q_15": 2.0, "O_15": 4.0, "city": "MILTON FREEWATER", "beds": 129.0, "SR_15": 3.0}, {"Diff_star": 0.0, "addr": "835 SW 11TH STREET", "SR_14": 3.0, "Q_14": 3.0, "name": "AVAMERE REHABILITATION OF NEWPORT", "SF_14": 4.0, "SF_15": 4.0, "cnty": "Lincoln", "st": "OR", "Zip": 97365.0, "O_14": 4.0, "Q_15": 2.0, "O_15": 4.0, "city": "NEWPORT", "beds": 80.0, "SR_15": 3.0}, {"Diff_star": 0.0, "addr": "600 RANCH ROAD", "SR_14": 4.0, "Q_14": 3.0, "name": "AIDAN SENIOR LIVING AT REEDSPORT", "SF_14": 3.0, "SF_15": 5.0, "cnty": "Douglas", "st": "OR", "Zip": 97467.0, "O_14": 4.0, "Q_15": 2.0, "O_15": 4.0, "city": "REEDSPORT", "beds": 36.0, "SR_15": 3.0}, {"Diff_star": -1.0, "addr": "1 PARK AVENUE", "SR_14": 3.0, "Q_14": 2.0, "name": "GOOD SAMARITAN SOCIETY - CURRY VILLAGE", "SF_14": 3.0, "SF_15": 3.0, "cnty": "Curry", "st": "OR", "Zip": 97415.0, "O_14": 3.0, "Q_15": 1.0, "O_15": 2.0, "city": "BROOKINGS", "beds": 71.0, "SR_15": 3.0}, {"Diff_star": -1.0, "addr": "14645 SW FARMINGTON ROAD", "SR_14": 3.0, "Q_14": 5.0, "name": "MARYVILLE NURSING HOME", "SF_14": 4.0, "SF_15": 4.0, "cnty": "Washington", "st": "OR", "Zip": 97007.0, "O_14": 5.0, "Q_15": 4.0, "O_15": 4.0, "city": "BEAVERTON", "beds": 155.0, "SR_15": 3.0}, {"Diff_star": 0.0, "addr": "1166 E. 28TH AVENUE", "SR_14": 4.0, "Q_14": 4.0, "name": "SOUTH HILLS REHABILITATION CEN", "SF_14": 3.0, "SF_15": 4.0, "cnty": "Lane", "st": "OR", "Zip": 97403.0, "O_14": 4.0, "Q_15": 3.0, "O_15": 4.0, "city": "EUGENE", "beds": 110.0, "SR_15": 4.0}, {"Diff_star": 0.0, "addr": "350 S. 8TH", "SR_14": 3.0, "Q_14": 4.0, "name": "AVAMERE REHABILITATION OF LEBANON", "SF_14": 3.0, "SF_15": 3.0, "cnty": "Linn", "st": "OR", "Zip": 97355.0, "O_14": 3.0, "Q_15": 3.0, "O_15": 3.0, "city": "LEBANON", "beds": 117.0, "SR_15": 3.0}, {"Diff_star": 0.0, "addr": "1309 E. 27TH STREET", "SR_14": 4.0, "Q_14": 4.0, "name": "LIFE CARE CENTER OF MCMINNVILLE", "SF_14": 3.0, "SF_15": 3.0, "cnty": "Yamhill", "st": "OR", "Zip": 97128.0, "O_14": 4.0, "Q_15": 3.0, "O_15": 4.0, "city": "MCMINNVILLE", "beds": 63.0, "SR_15": 4.0}, {"Diff_star": 0.0, "addr": "1023 W. 25TH AVENUE", "SR_14": 4.0, "Q_14": 4.0, "name": "THE DALLES HEALTH AND REHABILITATION CENTER", "SF_14": 5.0, "SF_15": 5.0, "cnty": "Wasco", "st": "OR", "Zip": 97058.0, "O_14": 5.0, "Q_15": 4.0, "O_15": 5.0, "city": "THE DALLES", "beds": 83.0, "SR_15": 4.0}, {"Diff_star": 0.0, "addr": "441 WERTH BLVD", "SR_14": 4.0, "Q_14": 4.0, "name": "MARQUIS NEWBERG", "SF_14": 4.0, "SF_15": 3.0, "cnty": "Yamhill", "st": "OR", "Zip": 97132.0, "O_14": 4.0, "Q_15": 4.0, "O_15": 4.0, "city": "NEWBERG", "beds": 40.0, "SR_15": 4.0}, {"Diff_star": 0.0, "addr": "175 NE 16TH STREET", "SR_14": 1.0, "Q_14": 1.0, "name": "EAST CASCADE RETIREMENT COMMUNITY, LLC", "SF_14": 4.0, "SF_15": 4.0, "cnty": "Jefferson", "st": "OR", "Zip": 97741.0, "O_14": 1.0, "Q_15": 1.0, "O_15": 1.0, "city": "MADRAS", "beds": 47.0, "SR_15": 1.0}, {"Diff_star": 0.0, "addr": "735 SOUTH 2ND STREET", "SR_14": 2.0, "Q_14": 1.0, "name": "CRESWELL HEALTH AND REHABILITATION CENTER", "SF_14": 4.0, "SF_15": 4.0, "cnty": "Lane", "st": "OR", "Zip": 97426.0, "O_14": 2.0, "Q_15": 1.0, "O_15": 2.0, "city": "CRESWELL", "beds": 76.0, "SR_15": 2.0}, {"Diff_star": 0.0, "addr": "725 SE 202ND AVENUE", "SR_14": 4.0, "Q_14": 2.0, "name": "MARQUIS CENTENNIAL", "SF_14": 5.0, "SF_15": 5.0, "cnty": "Multnomah", "st": "OR", "Zip": 97233.0, "O_14": 5.0, "Q_15": 2.0, "O_15": 5.0, "city": "PORTLAND", "beds": 71.0, "SR_15": 4.0}, {"Diff_star": 0.0, "addr": "425 ALEXANDER LOOP", "SR_14": 2.0, "Q_14": 4.0, "name": "AVAMERE RIVERPARK OF EUGENE", "SF_14": 4.0, "SF_15": 4.0, "cnty": "Lane", "st": "OR", "Zip": 97401.0, "O_14": 3.0, "Q_15": 3.0, "O_15": 3.0, "city": "EUGENE", "beds": 119.0, "SR_15": 2.0}, {"Diff_star": 0.0, "addr": "5601 SE 122ND AVENUE", "SR_14": 3.0, "Q_14": 4.0, "name": "CASCADE TERRACE", "SF_14": 3.0, "SF_15": 3.0, "cnty": "Multnomah", "st": "OR", "Zip": 97236.0, "O_14": 3.0, "Q_15": 3.0, "O_15": 3.0, "city": "PORTLAND", "beds": 105.0, "SR_15": 3.0}, {"Diff_star": -1.0, "addr": "1525 MONMOUTH STREET", "SR_14": 3.0, "Q_14": 5.0, "name": "INDEPENDENCE HEALTH AND REHABILITATION CENTER", "SF_14": 4.0, "SF_15": 4.0, "cnty": "Polk", "st": "OR", "Zip": 97351.0, "O_14": 5.0, "Q_15": 5.0, "O_15": 4.0, "city": "INDEPENDENCE", "beds": 80.0, "SR_15": 2.0}, {"Diff_star": -1.0, "addr": "4515 SUNNYSIDE ROAD SE", "SR_14": 2.0, "Q_14": 5.0, "name": "AVAMERE TRANSITIONAL CARE AT SUNNYSIDE", "SF_14": 4.0, "SF_15": 4.0, "cnty": "Marion", "st": "OR", "Zip": 97302.0, "O_14": 4.0, "Q_15": 4.0, "O_15": 3.0, "city": "SALEM", "beds": 95.0, "SR_15": 2.0}, {"Diff_star": 0.0, "addr": "405 NE 5TH STREET", "SR_14": 1.0, "Q_14": 3.0, "name": "PRESTIGE POST-ACUTE & REHABILITATION CTR-GRESHAM", "SF_14": 4.0, "SF_15": 4.0, "cnty": "Multnomah", "st": "OR", "Zip": 97030.0, "O_14": 2.0, "Q_15": 2.0, "O_15": 2.0, "city": "GRESHAM", "beds": 88.0, "SR_15": 1.0}, {"Diff_star": -1.0, "addr": "11850 SW ALLEN BLVD.", "SR_14": 2.0, "Q_14": 3.0, "name": "AVAMERE REHABILITATION OF BEAVERTON", "SF_14": 4.0, "SF_15": 4.0, "cnty": "Washington", "st": "OR", "Zip": 97008.0, "O_14": 3.0, "Q_15": 1.0, "O_15": 2.0, "city": "BEAVERTON", "beds": 104.0, "SR_15": 2.0}, {"Diff_star": 0.0, "addr": "135 MAPLE STREET", "SR_14": 2.0, "Q_14": 4.0, "name": "LINDA VISTA NURSING & REHAB CENTER", "SF_14": 4.0, "SF_15": 4.0, "cnty": "Jackson", "st": "OR", "Zip": 97520.0, "O_14": 3.0, "Q_15": 4.0, "O_15": 3.0, "city": "ASHLAND", "beds": 87.0, "SR_15": 2.0}, {"Diff_star": -1.0, "addr": "1900 E. FULTON STREET", "SR_14": 2.0, "Q_14": 5.0, "name": "CHEHALEM HEALTH & REHAB", "SF_14": 3.0, "SF_15": 3.0, "cnty": "Yamhill", "st": "OR", "Zip": 97132.0, "O_14": 3.0, "Q_15": 4.0, "O_15": 2.0, "city": "NEWBERG", "beds": 99.0, "SR_15": 2.0}, {"Diff_star": 0.0, "addr": "13145 SE RIVER ROAD", "SR_14": 5.0, "Q_14": 5.0, "name": "WILLAMETTE VIEW HEALTH CENTER", "SF_14": 5.0, "SF_15": 5.0, "cnty": "Clackamas", "st": "OR", "Zip": 97222.0, "O_14": 5.0, "Q_15": 5.0, "O_15": 5.0, "city": "MILWAUKIE", "beds": 6.0, "SR_15": 5.0}, {"Diff_star": -1.0, "addr": "707 SW 37TH STREET", "SR_14": 2.0, "Q_14": 3.0, "name": "WILLOWBROOK TERRACE", "SF_14": 4.0, "SF_15": 2.0, "cnty": "Umatilla", "st": "OR", "Zip": 97801.0, "O_14": 3.0, "Q_15": 2.0, "O_15": 2.0, "city": "PENDLETON", "beds": 84.0, "SR_15": 2.0}, {"Diff_star": 1.0, "addr": "220 E. HEREFORD", "SR_14": 2.0, "Q_14": 4.0, "name": "AVAMERE REHABILITATION OF CLACKAMAS", "SF_14": 4.0, "SF_15": 4.0, "cnty": "Clackamas", "st": "OR", "Zip": 97027.0, "O_14": 3.0, "Q_15": 5.0, "O_15": 4.0, "city": "GLADSTONE", "beds": 87.0, "SR_15": 2.0}, {"Diff_star": -1.0, "addr": "3300 19TH AVENUE", "SR_14": 3.0, "Q_14": 5.0, "name": "MARQUIS FOREST GROVE", "SF_14": 4.0, "SF_15": 4.0, "cnty": "Washington", "st": "OR", "Zip": 97116.0, "O_14": 5.0, "Q_15": 4.0, "O_15": 4.0, "city": "FOREST GROVE", "beds": 114.0, "SR_15": 3.0}, {"Diff_star": 0.0, "addr": "5353 COLUMBUS STREET SE", "SR_14": 4.0, "Q_14": 3.0, "name": "MENNONITE HOME", "SF_14": 4.0, "SF_15": 4.0, "cnty": "Linn", "st": "OR", "Zip": 97321.0, "O_14": 4.0, "Q_15": 2.0, "O_15": 4.0, "city": "ALBANY", "beds": 95.0, "SR_15": 4.0}, {"Diff_star": -1.0, "addr": "377 NW JASPER STREET", "SR_14": 1.0, "Q_14": 2.0, "name": "DALLAS RET VILLAGE HEALTH CENTER", "SF_14": 4.0, "SF_15": 4.0, "cnty": "Polk", "st": "OR", "Zip": 97338.0, "O_14": 2.0, "Q_15": 1.0, "O_15": 1.0, "city": "DALLAS", "beds": 121.0, "SR_15": 1.0}, {"Diff_star": 0.0, "addr": "319 NE RUSSET", "SR_14": 1.0, "Q_14": 4.0, "name": "MARQUIS PIEDMONT POST ACUTE REHAB", "SF_14": 4.0, "SF_15": 4.0, "cnty": "Multnomah", "st": "OR", "Zip": 97211.0, "O_14": 2.0, "Q_15": 4.0, "O_15": 2.0, "city": "PORTLAND", "beds": 90.0, "SR_15": 1.0}, {"Diff_star": 0.0, "addr": "91 ARIES LANE", "SR_14": 3.0, "Q_14": 4.0, "name": "LAGRANDE POST ACUTE REHAB", "SF_14": 5.0, "SF_15": 5.0, "cnty": "Union", "st": "OR", "Zip": 97850.0, "O_14": 4.0, "Q_15": 2.0, "O_15": 4.0, "city": "LA GRANDE", "beds": 76.0, "SR_15": 3.0}, {"Diff_star": 0.0, "addr": "1475 SE 100TH AVENUE", "SR_14": 4.0, "Q_14": 4.0, "name": "MARQUIS MILL PARK", "SF_14": 5.0, "SF_15": 5.0, "cnty": "Multnomah", "st": "OR", "Zip": 97216.0, "O_14": 5.0, "Q_15": 3.0, "O_15": 5.0, "city": "PORTLAND", "beds": 77.0, "SR_15": 4.0}, {"Diff_star": 0.0, "addr": "1778 NE CORNELL ROAD", "SR_14": 5.0, "Q_14": 4.0, "name": "EMPRES HILLSBORO HEALTH AND REHABILITATION CENTER", "SF_14": 4.0, "SF_15": 5.0, "cnty": "Washington", "st": "OR", "Zip": 97124.0, "O_14": 5.0, "Q_15": 3.0, "O_15": 5.0, "city": "HILLSBORO", "beds": 78.0, "SR_15": 5.0}, {"Diff_star": -1.0, "addr": "6010 SW SHATTUCK ROAD", "SR_14": 5.0, "Q_14": 2.0, "name": "MARQUIS VERMONT HILLS", "SF_14": 3.0, "SF_15": 3.0, "cnty": "Multnomah", "st": "OR", "Zip": 97221.0, "O_14": 5.0, "Q_15": 1.0, "O_15": 4.0, "city": "PORTLAND", "beds": 102.0, "SR_15": 5.0}, {"Diff_star": 0.0, "addr": "11325 NE WEIDLER", "SR_14": 2.0, "Q_14": 5.0, "name": "CARE CENTER EAST HLTH", "SF_14": 4.0, "SF_15": 4.0, "cnty": "Multnomah", "st": "OR", "Zip": 97220.0, "O_14": 4.0, "Q_15": 5.0, "O_15": 4.0, "city": "PORTLAND", "beds": 93.0, "SR_15": 2.0}, {"Diff_star": 0.0, "addr": "805 19TH AVENUE SE", "SR_14": 1.0, "Q_14": 5.0, "name": "REGENCY ALBANY", "SF_14": 4.0, "SF_15": 4.0, "cnty": "Linn", "st": "OR", "Zip": 97321.0, "O_14": 2.0, "Q_15": 5.0, "O_15": 2.0, "city": "ALBANY", "beds": 74.0, "SR_15": 1.0}, {"Diff_star": 0.0, "addr": "1680 MOLALLA AVENUE", "SR_14": 3.0, "Q_14": 4.0, "name": "MARQUIS OREGON CITY POST ACUTE REHAB", "SF_14": 4.0, "SF_15": 4.0, "cnty": "Clackamas", "st": "OR", "Zip": 97045.0, "O_14": 4.0, "Q_15": 3.0, "O_15": 4.0, "city": "OREGON CITY", "beds": 102.0, "SR_15": 3.0}, {"Diff_star": 0.0, "addr": "75 SHORE DRIVE", "SR_14": 3.0, "Q_14": 5.0, "name": "MEADOW PARK HEALTH AND SPECIALTY", "SF_14": 4.0, "SF_15": 4.0, "cnty": "Columbia", "st": "OR", "Zip": 97051.0, "O_14": 5.0, "Q_15": 5.0, "O_15": 5.0, "city": "SAINT HELENS", "beds": 92.0, "SR_15": 3.0}, {"Diff_star": 0.0, "addr": "820 COTTAGE STREET NE", "SR_14": 3.0, "Q_14": 4.0, "name": "WINDSOR HEALTH & REHABILITATION CENTER", "SF_14": 4.0, "SF_15": 4.0, "cnty": "Marion", "st": "OR", "Zip": 97301.0, "O_14": 4.0, "Q_15": 4.0, "O_15": 4.0, "city": "SALEM", "beds": 100.0, "SR_15": 3.0}, {"Diff_star": 0.0, "addr": "421 S. EVANS STREET", "SR_14": 1.0, "Q_14": 4.0, "name": "PRESTIGE POST-ACUTE & REHAB CENTER -OAKWOOD", "SF_14": 4.0, "SF_15": 4.0, "cnty": "Yamhill", "st": "OR", "Zip": 97128.0, "O_14": 2.0, "Q_15": 2.0, "O_15": 2.0, "city": "MCMINNVILLE", "beds": 116.0, "SR_15": 1.0}, {"Diff_star": 0.0, "addr": "12441 SE STARK STREET", "SR_14": 5.0, "Q_14": 4.0, "name": "PORTLAND HEALTH & REHABILITATION  CENTER", "SF_14": 4.0, "SF_15": 4.0, "cnty": "Multnomah", "st": "OR", "Zip": 97233.0, "O_14": 5.0, "Q_15": 2.0, "O_15": 5.0, "city": "PORTLAND", "beds": 105.0, "SR_15": 5.0}, {"Diff_star": 0.0, "addr": "530 BIRCH STREET", "SR_14": 4.0, "Q_14": 4.0, "name": "AVAMERE REHABILITATION OF JUNCTION CITY", "SF_14": 4.0, "SF_15": 3.0, "cnty": "Lane", "st": "OR", "Zip": 97448.0, "O_14": 4.0, "Q_15": 2.0, "O_15": 4.0, "city": "JUNCTION CITY", "beds": 72.0, "SR_15": 4.0}, {"Diff_star": 0.0, "addr": "3025 SW RESERVOIR DRIVE", "SR_14": 3.0, "Q_14": 3.0, "name": "REDMOND HEALTH CARE CTR", "SF_14": 4.0, "SF_15": 4.0, "cnty": "Deschutes", "st": "OR", "Zip": 97756.0, "O_14": 4.0, "Q_15": 2.0, "O_15": 4.0, "city": "REDMOND", "beds": 74.0, "SR_15": 3.0}, {"Diff_star": -1.0, "addr": "859 NE SIXTH STREET", "SR_14": 3.0, "Q_14": 2.0, "name": "LAUREL HILL NURSING CENTER", "SF_14": 4.0, "SF_15": 4.0, "cnty": "Josephine", "st": "OR", "Zip": 97526.0, "O_14": 4.0, "Q_15": 1.0, "O_15": 3.0, "city": "GRANTS PASS", "beds": 44.0, "SR_15": 3.0}, {"Diff_star": 0.0, "addr": "5210 RIVER ROAD N.", "SR_14": 2.0, "Q_14": 5.0, "name": "AVAMERE COURT AT KEIZER", "SF_14": 4.0, "SF_15": 2.0, "cnty": "Marion", "st": "OR", "Zip": 97303.0, "O_14": 4.0, "Q_15": 4.0, "O_15": 4.0, "city": "KEIZER", "beds": 69.0, "SR_15": 4.0}, {"Diff_star": 0.0, "addr": "3445 BOONE ROAD SE", "SR_14": 4.0, "Q_14": 5.0, "name": "SALEM TRANSITIONAL CARE", "SF_14": 4.0, "SF_15": 4.0, "cnty": "Marion", "st": "OR", "Zip": 97317.0, "O_14": 5.0, "Q_15": 5.0, "O_15": 5.0, "city": "SALEM", "beds": 72.0, "SR_15": 4.0}, {"Diff_star": 0.0, "addr": "8607 SE CAUSEY AVENUE", "SR_14": 3.0, "Q_14": 4.0, "name": "TOWN CENTER VILLAGE", "SF_14": 5.0, "SF_15": 5.0, "cnty": "Clackamas", "st": "OR", "Zip": 97086.0, "O_14": 4.0, "Q_15": 3.0, "O_15": 4.0, "city": "HAPPY VALLEY", "beds": 51.0, "SR_15": 3.0}, {"Diff_star": 0.0, "addr": "5737 NE 37TH AVENUE", "SR_14": 5.0, "Q_14": 5.0, "name": "FERNHILL ESTATES", "SF_14": 5.0, "SF_15": 5.0, "cnty": "Multnomah", "st": "OR", "Zip": 97211.0, "O_14": 5.0, "Q_15": 5.0, "O_15": 5.0, "city": "PORTLAND", "beds": 63.0, "SR_15": 5.0}, {"Diff_star": 0.0, "addr": "2625 KOOS BAY BLVD", "SR_14": 1.0, "Q_14": 4.0, "name": "AVAMERE REHABILITATION OF COOS BAY", "SF_14": 4.0, "SF_15": 3.0, "cnty": "Coos", "st": "OR", "Zip": 97420.0, "O_14": 2.0, "Q_15": 3.0, "O_15": 2.0, "city": "COOS BAY", "beds": 92.0, "SR_15": 2.0}, {"Diff_star": -3.0, "addr": "390 SE CHURCH STREET", "SR_14": 4.0, "Q_14": 3.0, "name": "MARIAN ESTATES", "SF_14": 4.0, "SF_15": 3.0, "cnty": "Marion", "st": "OR", "Zip": 97385.0, "O_14": 4.0, "Q_15": 1.0, "O_15": 1.0, "city": "SUBLIMITY", "beds": 214.0, "SR_15": 2.0}, {"Diff_star": 0.0, "addr": "4062 ARLETA AVENUE NE", "SR_14": 3.0, "Q_14": 4.0, "name": "SHERWOOD PARK NURSING & REHAB CENTER", "SF_14": 4.0, "SF_15": 4.0, "cnty": "Marion", "st": "OR", "Zip": 97303.0, "O_14": 4.0, "Q_15": 4.0, "O_15": 4.0, "city": "KEIZER", "beds": 49.0, "SR_15": 3.0}, {"Diff_star": -2.0, "addr": "950 NANDINA DRIVE", "SR_14": 3.0, "Q_14": 5.0, "name": "AVAMERE TWIN OAKS OF SWEET HOME", "SF_14": 4.0, "SF_15": 3.0, "cnty": "Linn", "st": "OR", "Zip": 97386.0, "O_14": 5.0, "Q_15": 4.0, "O_15": 3.0, "city": "SWEET HOME", "beds": 48.0, "SR_15": 3.0}, {"Diff_star": 0.0, "addr": "280 ROWE STREET", "SR_14": 2.0, "Q_14": 4.0, "name": "NEHALEM VALLEY CARE CENTER", "SF_14": 4.0, "SF_15": 4.0, "cnty": "Tillamook", "st": "OR", "Zip": 97147.0, "O_14": 3.0, "Q_15": 2.0, "O_15": 3.0, "city": "WHEELER", "beds": 50.0, "SR_15": 2.0}, {"Diff_star": 0.0, "addr": "148 HOOD STREET", "SR_14": 2.0, "Q_14": 5.0, "name": "OREGON CITY HEALTH CARE CENTER", "SF_14": 4.0, "SF_15": 4.0, "cnty": "Clackamas", "st": "OR", "Zip": 97045.0, "O_14": 4.0, "Q_15": 5.0, "O_15": 4.0, "city": "OREGON CITY", "beds": 53.0, "SR_15": 2.0}, {"Diff_star": 0.0, "addr": "1200 MIRA MAR AVENUE", "SR_14": 5.0, "Q_14": 4.0, "name": "ROGUE VALLEY MANOR", "SF_14": 5.0, "SF_15": 5.0, "cnty": "Jackson", "st": "OR", "Zip": 97504.0, "O_14": 5.0, "Q_15": 4.0, "O_15": 5.0, "city": "MEDFORD", "beds": 72.0, "SR_15": 5.0}, {"Diff_star": -1.0, "addr": "650 SE OAK STREET", "SR_14": 4.0, "Q_14": 5.0, "name": "AVAMERE REHABILITATION OF HILLSBORO", "SF_14": 4.0, "SF_15": 3.0, "cnty": "Washington", "st": "OR", "Zip": 97123.0, "O_14": 5.0, "Q_15": 4.0, "O_15": 4.0, "city": "HILLSBORO", "beds": 100.0, "SR_15": 4.0}, {"Diff_star": 0.0, "addr": "900 NE 27TH STREET", "SR_14": 4.0, "Q_14": 3.0, "name": "BEND TRANSITIONAL CARE", "SF_14": 5.0, "SF_15": 5.0, "cnty": "Deschutes", "st": "OR", "Zip": 97701.0, "O_14": 5.0, "Q_15": 3.0, "O_15": 5.0, "city": "BEND", "beds": 40.0, "SR_15": 4.0}, {"Diff_star": 0.0, "addr": "637 ASH STREET", "SR_14": 2.0, "Q_14": 4.0, "name": "MYRTLE POINT CARE CENTER", "SF_14": 5.0, "SF_15": 5.0, "cnty": "Coos", "st": "OR", "Zip": 97458.0, "O_14": 3.0, "Q_15": 4.0, "O_15": 3.0, "city": "MYRTLE POINT", "beds": 35.0, "SR_15": 2.0}, {"Diff_star": 0.0, "addr": "700 VETERANS DRIVE", "SR_14": 5.0, "Q_14": 4.0, "name": "OREGON VETERANS HOME", "SF_14": 4.0, "SF_15": 4.0, "cnty": "Wasco", "st": "OR", "Zip": 97058.0, "O_14": 5.0, "Q_15": 2.0, "O_15": 5.0, "city": "THE DALLES", "beds": 151.0, "SR_15": 5.0}, {"Diff_star": 0.0, "addr": "8643 NE BEECH STREET", "SR_14": 5.0, "Q_14": 4.0, "name": "PARK FOREST CARE CENTER", "SF_14": 4.0, "SF_15": 4.0, "cnty": "Multnomah", "st": "OR", "Zip": 97220.0, "O_14": 5.0, "Q_15": 3.0, "O_15": 5.0, "city": "PORTLAND", "beds": 55.0, "SR_15": 5.0}, {"Diff_star": 0.0, "addr": "1300 NE 16TH AVENUE", "SR_14": 4.0, "Q_14": 4.0, "name": "HOLLADAY PARK PLAZA", "SF_14": 4.0, "SF_15": 4.0, "cnty": "Multnomah", "st": "OR", "Zip": 97232.0, "O_14": 4.0, "Q_15": 4.0, "O_15": 4.0, "city": "PORTLAND", "beds": 51.0, "SR_15": 4.0}, {"Diff_star": 0.0, "addr": "1577 S IVY", "SR_14": 4.0, "Q_14": 5.0, "name": "MARQUIS HOPE VILLAGE", "SF_14": 4.0, "SF_15": 4.0, "cnty": "Clackamas", "st": "OR", "Zip": 97013.0, "O_14": 5.0, "Q_15": 5.0, "O_15": 5.0, "city": "CANBY", "beds": 50.0, "SR_15": 4.0}, {"Diff_star": 0.0, "addr": "950 N. ELM STREET", "SR_14": 4.0, "Q_14": 3.0, "name": "OCHOCO CARE CENTER", "SF_14": 5.0, "SF_15": 5.0, "cnty": "Crook", "st": "OR", "Zip": 97754.0, "O_14": 5.0, "Q_15": 2.0, "O_15": 5.0, "city": "PRINEVILLE", "beds": 63.0, "SR_15": 4.0}, {"Diff_star": 0.0, "addr": "115 S. JAMES STREET", "SR_14": 4.0, "Q_14": 5.0, "name": "MARQUIS SILVER GARDENS", "SF_14": 4.0, "SF_15": 4.0, "cnty": "Marion", "st": "OR", "Zip": 97381.0, "O_14": 5.0, "Q_15": 5.0, "O_15": 5.0, "city": "SILVERTON", "beds": 52.0, "SR_15": 4.0}, {"Diff_star": 0.0, "addr": "970 W JUNIPER AVENUE", "SR_14": 1.0, "Q_14": 5.0, "name": "REGENCY HERMISTON NURSING & REHAB CENTER", "SF_14": 4.0, "SF_15": 4.0, "cnty": "Umatilla", "st": "OR", "Zip": 97838.0, "O_14": 2.0, "Q_15": 4.0, "O_15": 2.0, "city": "HERMISTON", "beds": 105.0, "SR_15": 1.0}, {"Diff_star": -1.0, "addr": "10435 SE CORA STREET", "SR_14": 2.0, "Q_14": 3.0, "name": "TRINITY MISSION HEALTH & REHAB OF PORTLAND", "SF_14": 3.0, "SF_15": 3.0, "cnty": "Multnomah", "st": "OR", "Zip": 97266.0, "O_14": 2.0, "Q_15": 1.0, "O_15": 1.0, "city": "PORTLAND", "beds": 53.0, "SR_15": 2.0}, {"Diff_star": 0.0, "addr": "17360 HOLY NAMES DRIVE", "SR_14": 4.0, "Q_14": 5.0, "name": "MARY'S WOODS AT MARYLHURST", "SF_14": "", "SF_15": "", "cnty": "Clackamas", "st": "OR", "Zip": 97034.0, "O_14": 5.0, "Q_15": 4.0, "O_15": 5.0, "city": "LAKE OSWEGO", "beds": 5.0, "SR_15": 5.0}, {"Diff_star": -1.0, "addr": "30900 SW PARKWAY AVENUE", "SR_14": 3.0, "Q_14": 4.0, "name": "MARQUIS WILSONVILLE POST ACUTE REHAB", "SF_14": 4.0, "SF_15": 3.0, "cnty": "Clackamas", "st": "OR", "Zip": 97070.0, "O_14": 4.0, "Q_15": 3.0, "O_15": 3.0, "city": "WILSONVILLE", "beds": 50.0, "SR_15": 3.0}, {"Diff_star": 0.0, "addr": "39 NE 102ND AVENUE", "SR_14": 4.0, "Q_14": 3.0, "name": "GATEWAY CARE AND RETIREMENT", "SF_14": 5.0, "SF_15": 5.0, "cnty": "Multnomah", "st": "OR", "Zip": 97220.0, "O_14": 5.0, "Q_15": 2.0, "O_15": 5.0, "city": "PORTLAND", "beds": 59.0, "SR_15": 4.0}, {"Diff_star": -1.0, "addr": "440 NW HILLSIDE PARKWAY", "SR_14": 2.0, "Q_14": 5.0, "name": "VILLAGE AT HILLSIDE", "SF_14": "", "SF_15": 2.0, "cnty": "Yamhill", "st": "OR", "Zip": 97128.0, "O_14": 3.0, "Q_15": 4.0, "O_15": 2.0, "city": "MCMINNVILLE", "beds": 20.0, "SR_15": 2.0}, {"Diff_star": 0.0, "addr": "12045 SE STANLEY AVENUE", "SR_14": 1.0, "Q_14": 4.0, "name": "MILWAUKIE CONVALESCENT CT", "SF_14": 4.0, "SF_15": 4.0, "cnty": "Clackamas", "st": "OR", "Zip": 97222.0, "O_14": 2.0, "Q_15": 4.0, "O_15": 2.0, "city": "MILWAUKIE", "beds": 96.0, "SR_15": 1.0}, {"Diff_star": -1.0, "addr": "4550 CARMAN DRIVE", "SR_14": 4.0, "Q_14": 4.0, "name": "PEARL AT KRUSE WAY, THE", "SF_14": 4.0, "SF_15": 4.0, "cnty": "Clackamas", "st": "OR", "Zip": 97035.0, "O_14": 4.0, "Q_15": 1.0, "O_15": 3.0, "city": "LAKE OSWEGO", "beds": 45.0, "SR_15": 4.0}, {"Diff_star": 0.0, "addr": "14145 SW 105TH STREET", "SR_14": 2.0, "Q_14": 1.0, "name": "PACIFIC HEALTH AND REHABILITATION", "SF_14": 3.0, "SF_15": 3.0, "cnty": "Washington", "st": "OR", "Zip": 97224.0, "O_14": 1.0, "Q_15": 1.0, "O_15": 1.0, "city": "TIGARD", "beds": 112.0, "SR_15": 2.0}, {"Diff_star": 0.0, "addr": "1060 D STREET WEST", "SR_14": 2.0, "Q_14": 4.0, "name": "PIONEER NURSING HOME", "SF_14": 5.0, "SF_15": 5.0, "cnty": "Malheur", "st": "OR", "Zip": 97918.0, "O_14": 3.0, "Q_15": 4.0, "O_15": 3.0, "city": "VALE", "beds": 33.0, "SR_15": 2.0}, {"Diff_star": 0.0, "addr": "3550 SW BOND AVE", "SR_14": 5.0, "Q_14": 4.0, "name": "MIRABELLA PORTLAND", "SF_14": 5.0, "SF_15": 5.0, "cnty": "Multnomah", "st": "OR", "Zip": 97239.0, "O_14": 5.0, "Q_15": 4.0, "O_15": 5.0, "city": "PORTLAND", "beds": 44.0, "SR_15": 5.0}, {"Diff_star": 0.0, "addr": "411 SE SHERIDAN ROAD", "SR_14": 1.0, "Q_14": 4.0, "name": "SHERIDAN CARE CENTER", "SF_14": 4.0, "SF_15": 4.0, "cnty": "Yamhill", "st": "OR", "Zip": 97378.0, "O_14": 2.0, "Q_15": 4.0, "O_15": 2.0, "city": "SHERIDAN", "beds": 51.0, "SR_15": 1.0}, {"Diff_star": 0.0, "addr": "65 WEST 30TH AVENUE", "SR_14": 5.0, "Q_14": 5.0, "name": "CASCADE MANOR", "SF_14": 4.0, "SF_15": 4.0, "cnty": "Lane", "st": "OR", "Zip": 97405.0, "O_14": 5.0, "Q_15": 5.0, "O_15": 5.0, "city": "EUGENE", "beds": 32.0, "SR_15": 5.0}, {"Diff_star": -1.0, "addr": "812 SE 48TH AVENUE", "SR_14": 4.0, "Q_14": 3.0, "name": "LAWRENCE CONVALESCENT CTR", "SF_14": 5.0, "SF_15": 5.0, "cnty": "Multnomah", "st": "OR", "Zip": 97215.0, "O_14": 5.0, "Q_15": 1.0, "O_15": 4.0, "city": "PORTLAND", "beds": 41.0, "SR_15": 4.0}, {"Diff_star": 0.0, "addr": "2330 DEBOK ROAD", "SR_14": "", "Q_14": "", "name": "ROSE LINN CARE CENTER", "SF_14": "", "SF_15": "", "cnty": "Clackamas", "st": "OR", "Zip": 97068.0, "O_14": "", "Q_15": "", "O_15": "", "city": "WEST LINN", "beds": 71.0, "SR_15": ""}, {"Diff_star": 0.0, "addr": "19945 SW BOONES FERRY ROAD", "SR_14": "", "Q_14": "", "name": "MARQUIS TUALATIN POST ACUTE REHAB", "SF_14": "", "SF_15": "", "cnty": "Clackamas", "st": "OR", "Zip": 97062.0, "O_14": "", "Q_15": "", "O_15": "", "city": "TUALATIN", "beds": 54.0, "SR_15": ""}, {"Diff_star": 0.0, "addr": "830 NE 47TH AVENUE", "SR_14": 4.0, "Q_14": 5.0, "name": "PROVIDENCE CHILD CENTER", "SF_14": 5.0, "SF_15": 5.0, "cnty": "Multnomah", "st": "OR", "Zip": 97213.0, "O_14": 5.0, "Q_15": 5.0, "O_15": 5.0, "city": "PORTLAND", "beds": 58.0, "SR_15": 4.0}, {"Diff_star": -2.0, "addr": "6630 SW BVTRN-HILLS HWY", "SR_14": 4.0, "Q_14": 4.0, "name": "MARQUIS AUTUMN HILLS MEMORY CARE", "SF_14": 4.0, "SF_15": 5.0, "cnty": "Washington", "st": "OR", "Zip": 97225.0, "O_14": 4.0, "Q_15": 2.0, "O_15": 2.0, "city": "PORTLAND", "beds": 39.0, "SR_15": 1.0}, {"Diff_star": -1.0, "addr": "3325 POCAHONTAS RD", "SR_14": 1.0, "Q_14": 3.0, "name": "SAINT ALPHONSUS CARE CENTER", "SF_14": 5.0, "SF_15": 5.0, "cnty": "Baker", "st": "OR", "Zip": 97814.0, "O_14": 2.0, "Q_15": 1.0, "O_15": 1.0, "city": "BAKER CITY", "beds": 120.0, "SR_15": 1.0}, {"Diff_star": 0.0, "addr": "13505 SE RIVER ROAD", "SR_14": 4.0, "Q_14": 3.0, "name": "ROSE VILLA SENIOR LIVING COMMUNITY", "SF_14": 4.0, "SF_15": 4.0, "cnty": "Clackamas", "st": "OR", "Zip": 97222.0, "O_14": 4.0, "Q_15": 2.0, "O_15": 4.0, "city": "MILWAUKIE", "beds": 45.0, "SR_15": 4.0}, {"Diff_star": 0.0, "addr": "33910 E. COLUMBIA AVENUE", "SR_14": 3.0, "Q_14": 4.0, "name": "COLUMBIA CARE CENTER", "SF_14": 4.0, "SF_15": 4.0, "cnty": "Columbia", "st": "OR", "Zip": 97056.0, "O_14": 4.0, "Q_15": 3.0, "O_15": 4.0, "city": "SCAPPOOSE", "beds": 40.0, "SR_15": 3.0}, {"Diff_star": 0.0, "addr": "119 SE WILSON AVENUE", "SR_14": 2.0, "Q_14": 4.0, "name": "CASCADE VIEW NURSING", "SF_14": 5.0, "SF_15": 5.0, "cnty": "Deschutes", "st": "OR", "Zip": 97702.0, "O_14": 3.0, "Q_15": 3.0, "O_15": 3.0, "city": "BEND", "beds": 87.0, "SR_15": 2.0}, {"Diff_star": -1.0, "addr": "112 EAST FIFTH STREET", "SR_14": 5.0, "Q_14": 3.0, "name": "BLUE MOUNTAIN CARE CENTER", "SF_14": 5.0, "SF_15": 5.0, "cnty": "Grant", "st": "OR", "Zip": 97869.0, "O_14": 5.0, "Q_15": 1.0, "O_15": 4.0, "city": "PRAIRIE CITY", "beds": 48.0, "SR_15": 5.0}, {"Diff_star": 0.0, "addr": "4254 WEATHERS STREET NE", "SR_14": 1.0, "Q_14": 4.0, "name": "TIERRA ROSE CARE CENTER", "SF_14": 4.0, "SF_15": 4.0, "cnty": "Marion", "st": "OR", "Zip": 97301.0, "O_14": 2.0, "Q_15": 3.0, "O_15": 2.0, "city": "SALEM", "beds": 76.0, "SR_15": 1.0}, {"Diff_star": 0.0, "addr": "6003 SE 136TH AVENUE", "SR_14": 1.0, "Q_14": 4.0, "name": "HEALTHCARE AT FOSTER CREEK", "SF_14": 4.0, "SF_15": 4.0, "cnty": "Multnomah", "st": "OR", "Zip": 97236.0, "O_14": 2.0, "Q_15": 3.0, "O_15": 2.0, "city": "PORTLAND", "beds": 114.0, "SR_15": 1.0}, {"Diff_star": 0.0, "addr": "34 NE 20TH AVENUE", "SR_14": 1.0, "Q_14": 5.0, "name": "ROSE CITY NURSING HOME", "SF_14": 5.0, "SF_15": 5.0, "cnty": "Multnomah", "st": "OR", "Zip": 97232.0, "O_14": 2.0, "Q_15": 5.0, "O_15": 2.0, "city": "PORTLAND", "beds": 30.0, "SR_15": 1.0}, {"Diff_star": 0.0, "addr": "12640 SE BUSH", "SR_14": 3.0, "Q_14": 5.0, "name": "CORNERSTONE CARE OPTION", "SF_14": 4.0, "SF_15": 4.0, "cnty": "Multnomah", "st": "OR", "Zip": 97236.0, "O_14": 5.0, "Q_15": 5.0, "O_15": 5.0, "city": "PORTLAND", "beds": 40.0, "SR_15": 3.0}, {"Diff_star": 0.0, "addr": "2060 NE 238TH DRIVE", "SR_14": 3.0, "Q_14": 4.0, "name": "VILLAGE MANOR", "SF_14": 4.0, "SF_15": 4.0, "cnty": "Multnomah", "st": "OR", "Zip": 97060.0, "O_14": 4.0, "Q_15": 3.0, "O_15": 4.0, "city": "WOOD VILLAGE", "beds": 60.0, "SR_15": 3.0}, {"Diff_star": -1.0, "addr": "10948 S.E. BOISE", "SR_14": 3.0, "Q_14": 5.0, "name": "GRACELEN TERRACE NF", "SF_14": 4.0, "SF_15": 4.0, "cnty": "Multnomah", "st": "OR", "Zip": 97266.0, "O_14": 5.0, "Q_15": 4.0, "O_15": 4.0, "city": "PORTLAND", "beds": 80.0, "SR_15": 3.0}]