[{"Diff_star": 0.0, "addr": "101 COTTAGE CREEK CIRCLE", "SR_14": 4.0, "Q_14": 5.0, "name": "THE COTTAGES AT BRUSHY CREEK", "SF_14": 5.0, "SF_15": 5.0, "cnty": "Greenville", "st": "SC", "Zip": 29650.0, "O_14": 5.0, "Q_15": 5.0, "O_15": 5.0, "city": "GREER", "beds": 144.0, "SR_15": 4.0}, {"Diff_star": 0.0, "addr": "400 MOFFAT ROAD", "SR_14": 4.0, "Q_14": 4.0, "name": "CHERAW HEALTHCARE", "SF_14": 2.0, "SF_15": 2.0, "cnty": "Chesterfield", "st": "SC", "Zip": 29520.0, "O_14": 4.0, "Q_15": 3.0, "O_15": 4.0, "city": "CHERAW", "beds": 120.0, "SR_15": 4.0}, {"Diff_star": 0.0, "addr": "2601 FOREST DRIVE", "SR_14": 3.0, "Q_14": 5.0, "name": "HEARTLAND OF COLUMBIA REHAB AND NURSING CENTER", "SF_14": 2.0, "SF_15": 2.0, "cnty": "Richland", "st": "SC", "Zip": 29204.0, "O_14": 4.0, "Q_15": 5.0, "O_15": 4.0, "city": "COLUMBIA", "beds": 132.0, "SR_15": 3.0}, {"Diff_star": -1.0, "addr": "617 WEST MARION STREET", "SR_14": 2.0, "Q_14": 5.0, "name": "FAITH HEALTHCARE CENTER", "SF_14": 3.0, "SF_15": 3.0, "cnty": "Florence", "st": "SC", "Zip": 29501.0, "O_14": 3.0, "Q_15": 3.0, "O_15": 2.0, "city": "FLORENCE", "beds": 104.0, "SR_15": 2.0}, {"Diff_star": 0.0, "addr": "1817 JONESVILLE HIGHWAY", "SR_14": 1.0, "Q_14": 4.0, "name": "ELLEN SAGAR NURSING HOME", "SF_14": 2.0, "SF_15": 2.0, "cnty": "Union", "st": "SC", "Zip": 29379.0, "O_14": 1.0, "Q_15": 2.0, "O_15": 1.0, "city": "UNION", "beds": 113.0, "SR_15": 1.0}, {"Diff_star": -1.0, "addr": "2451 FOREST DRIVE", "SR_14": 2.0, "Q_14": 4.0, "name": "PRUITTHEALTH- COLUMBIA", "SF_14": 4.0, "SF_15": 3.0, "cnty": "Richland", "st": "SC", "Zip": 29204.0, "O_14": 3.0, "Q_15": 3.0, "O_15": 2.0, "city": "COLUMBIA", "beds": 185.0, "SR_15": 2.0}, {"Diff_star": 0.0, "addr": "123 DUPONT DR", "SR_14": 1.0, "Q_14": 4.0, "name": "AZALEAWOODS REHAB & NURSING CENTER", "SF_14": 3.0, "SF_15": 3.0, "cnty": "Aiken", "st": "SC", "Zip": 29801.0, "O_14": 1.0, "Q_15": 2.0, "O_15": 1.0, "city": "AIKEN", "beds": 86.0, "SR_15": 1.0}, {"Diff_star": 0.0, "addr": "2770 SOUTH HIGHWAY 501", "SR_14": 1.0, "Q_14": "", "name": "MARION NURSING CENTER, INC.", "SF_14": 4.0, "SF_15": 4.0, "cnty": "Marion", "st": "SC", "Zip": 29571.0, "O_14": 2.0, "Q_15": "", "O_15": 2.0, "city": "MARION", "beds": 88.0, "SR_15": 1.0}, {"Diff_star": 0.0, "addr": "208 JAMES STREET", "SR_14": 3.0, "Q_14": 5.0, "name": "FELLOWSHIP HEALTH & REHAB OF ANDERSON, LLC", "SF_14": 2.0, "SF_15": 2.0, "cnty": "Anderson", "st": "SC", "Zip": 29625.0, "O_14": 4.0, "Q_15": 5.0, "O_15": 4.0, "city": "ANDERSON", "beds": 88.0, "SR_15": 3.0}, {"Diff_star": -1.0, "addr": "253 CRAIG MANOR ROAD", "SR_14": 2.0, "Q_14": 4.0, "name": "WHITE OAK MANOR - LANCASTER", "SF_14": 4.0, "SF_15": 3.0, "cnty": "Lancaster", "st": "SC", "Zip": 29720.0, "O_14": 3.0, "Q_15": 2.0, "O_15": 2.0, "city": "LANCASTER", "beds": 132.0, "SR_15": 2.0}, {"Diff_star": 0.0, "addr": "200 ANNE DRIVE", "SR_14": 1.0, "Q_14": 4.0, "name": "MAJESTY HEALTH & REHAB OF EASLEY, LLC", "SF_14": 3.0, "SF_15": 3.0, "cnty": "Pickens", "st": "SC", "Zip": 29640.0, "O_14": 1.0, "Q_15": 2.0, "O_15": 1.0, "city": "EASLEY", "beds": 103.0, "SR_15": 1.0}, {"Diff_star": -1.0, "addr": "295 EAST PEARL STREET", "SR_14": 3.0, "Q_14": 5.0, "name": "WHITE OAK MANOR - SPARTANBURG", "SF_14": 4.0, "SF_15": 4.0, "cnty": "Spartanburg", "st": "SC", "Zip": 29303.0, "O_14": 5.0, "Q_15": 2.0, "O_15": 4.0, "city": "SPARTANBURG", "beds": 192.0, "SR_15": 3.0}, {"Diff_star": 0.0, "addr": "340 CEDAR SPRINGS ROAD", "SR_14": 3.0, "Q_14": 4.0, "name": "MOUNTAINVIEW NURSING HOME", "SF_14": 2.0, "SF_15": 2.0, "cnty": "Spartanburg", "st": "SC", "Zip": 29302.0, "O_14": 3.0, "Q_15": 2.0, "O_15": 3.0, "city": "SPARTANBURG", "beds": 132.0, "SR_15": 3.0}, {"Diff_star": -1.0, "addr": "63 BLACKSTOCK ROAD", "SR_14": 1.0, "Q_14": 2.0, "name": "MAGNOLIA MANOR - INMAN", "SF_14": 4.0, "SF_15": 3.0, "cnty": "Spartanburg", "st": "SC", "Zip": 29349.0, "O_14": 2.0, "Q_15": 1.0, "O_15": 1.0, "city": "INMAN", "beds": 176.0, "SR_15": 1.0}, {"Diff_star": -1.0, "addr": "1330 KINARD STREET", "SR_14": 3.0, "Q_14": 5.0, "name": "J F HAWKINS NURSING HOME", "SF_14": 4.0, "SF_15": 4.0, "cnty": "Newberry", "st": "SC", "Zip": 29108.0, "O_14": 5.0, "Q_15": 4.0, "O_15": 4.0, "city": "NEWBERRY", "beds": 118.0, "SR_15": 3.0}, {"Diff_star": -2.0, "addr": "661 RUTHERFORD RD", "SR_14": 2.0, "Q_14": 5.0, "name": "LAUREL BAYE HEALTHCARE OF GREENVILLE", "SF_14": 4.0, "SF_15": 3.0, "cnty": "Greenville", "st": "SC", "Zip": 29609.0, "O_14": 4.0, "Q_15": 4.0, "O_15": 2.0, "city": "GREENVILLE", "beds": 132.0, "SR_15": 2.0}, {"Diff_star": -1.0, "addr": "611 EAST HAMPTON STREET", "SR_14": 2.0, "Q_14": 3.0, "name": "ELLENBURG NURSING CENTER, INC", "SF_14": 3.0, "SF_15": 3.0, "cnty": "Anderson", "st": "SC", "Zip": 29624.0, "O_14": 2.0, "Q_15": 1.0, "O_15": 1.0, "city": "ANDERSON", "beds": 181.0, "SR_15": 2.0}, {"Diff_star": -1.0, "addr": "2715 SOUTH ISLAND ROAD", "SR_14": 2.0, "Q_14": 4.0, "name": "GEORGETOWN HEALTHCARE & REHAB, INC", "SF_14": 4.0, "SF_15": 3.0, "cnty": "Georgetown", "st": "SC", "Zip": 29440.0, "O_14": 3.0, "Q_15": 3.0, "O_15": 2.0, "city": "GEORGETOWN", "beds": 84.0, "SR_15": 2.0}, {"Diff_star": 0.0, "addr": "1501 EAST GREENVILLE STREET", "SR_14": 5.0, "Q_14": 5.0, "name": "NHC HEALTHCARE -  ANDERSON", "SF_14": 4.0, "SF_15": 4.0, "cnty": "Anderson", "st": "SC", "Zip": 29621.0, "O_14": 5.0, "Q_15": 5.0, "O_15": 5.0, "city": "ANDERSON", "beds": 246.0, "SR_15": 5.0}, {"Diff_star": 0.0, "addr": "401 WITSELL STREET", "SR_14": 5.0, "Q_14": 5.0, "name": "UNIHEALTH POST ACUTE CARE OAKWOOD, LLC", "SF_14": 3.0, "SF_15": 3.0, "cnty": "Colleton", "st": "SC", "Zip": 29488.0, "O_14": 5.0, "Q_15": 4.0, "O_15": 5.0, "city": "WALTERBORO", "beds": 132.0, "SR_15": 5.0}, {"Diff_star": 0.0, "addr": "379 PINEHAVEN STREET EXTENSION", "SR_14": 4.0, "Q_14": 5.0, "name": "NHC HEALTHCARE - LAURENS", "SF_14": 4.0, "SF_15": 4.0, "cnty": "Laurens", "st": "SC", "Zip": 29360.0, "O_14": 5.0, "Q_15": 5.0, "O_15": 5.0, "city": "LAURENS", "beds": 176.0, "SR_15": 4.0}, {"Diff_star": 0.0, "addr": "1180 WOLFE TRAIL", "SR_14": 5.0, "Q_14": 5.0, "name": "JOLLEY ACRES HEALTHCARE CENTER", "SF_14": 5.0, "SF_15": 5.0, "cnty": "Orangeburg", "st": "SC", "Zip": 29115.0, "O_14": 5.0, "Q_15": 4.0, "O_15": 5.0, "city": "ORANGEBURG", "beds": 60.0, "SR_15": 5.0}, {"Diff_star": 0.0, "addr": "83 THOMSON CIRCLE", "SR_14": 5.0, "Q_14": 5.0, "name": "ABBEVILLE NURSING HOME, INC.", "SF_14": 3.0, "SF_15": 3.0, "cnty": "Abbeville", "st": "SC", "Zip": 29620.0, "O_14": 5.0, "Q_15": 4.0, "O_15": 5.0, "city": "ABBEVILLE", "beds": 94.0, "SR_15": 5.0}, {"Diff_star": -1.0, "addr": "809 LAURENS ROAD", "SR_14": 4.0, "Q_14": 3.0, "name": "OMEGA HEALTH & REHAB OF GREENVILLE, LLC", "SF_14": 4.0, "SF_15": 4.0, "cnty": "Greenville", "st": "SC", "Zip": 29607.0, "O_14": 4.0, "Q_15": 1.0, "O_15": 3.0, "city": "GREENVILLE", "beds": 79.0, "SR_15": 4.0}, {"Diff_star": 0.0, "addr": "1 MEDICAL PARK DRIVE", "SR_14": 1.0, "Q_14": 2.0, "name": "CHESTER NURSING CENTER", "SF_14": 1.0, "SF_15": 1.0, "cnty": "Chester", "st": "SC", "Zip": 29706.0, "O_14": 1.0, "Q_15": 1.0, "O_15": 1.0, "city": "CHESTER", "beds": 100.0, "SR_15": 1.0}, {"Diff_star": -1.0, "addr": "510 THOMPSON STREET", "SR_14": 1.0, "Q_14": 4.0, "name": "BROOKVIEW HEALTHCARE CENTER", "SF_14": 4.0, "SF_15": 3.0, "cnty": "Cherokee", "st": "SC", "Zip": 29340.0, "O_14": 2.0, "Q_15": 2.0, "O_15": 1.0, "city": "GAFFNEY", "beds": 132.0, "SR_15": 1.0}, {"Diff_star": 0.0, "addr": "437 EAST CAMBRIDGE STREET", "SR_14": 5.0, "Q_14": 4.0, "name": "NHC HEALTHCARE - GREENWOOD", "SF_14": 3.0, "SF_15": 3.0, "cnty": "Greenwood", "st": "SC", "Zip": 29646.0, "O_14": 5.0, "Q_15": 5.0, "O_15": 5.0, "city": "GREENWOOD", "beds": 152.0, "SR_15": 5.0}, {"Diff_star": 0.0, "addr": "123 OAK STREET", "SR_14": 1.0, "Q_14": 5.0, "name": "OAKHAVEN NURSING CENTER", "SF_14": 4.0, "SF_15": 4.0, "cnty": "Darlington", "st": "SC", "Zip": 29532.0, "O_14": 2.0, "Q_15": 5.0, "O_15": 2.0, "city": "DARLINGTON", "beds": 88.0, "SR_15": 1.0}, {"Diff_star": 0.0, "addr": "11 TODD DRIVE", "SR_14": 2.0, "Q_14": 4.0, "name": "BAYVIEW MANOR", "SF_14": 1.0, "SF_15": 1.0, "cnty": "Beaufort", "st": "SC", "Zip": 29901.0, "O_14": 1.0, "Q_15": 1.0, "O_15": 1.0, "city": "BEAUFORT", "beds": 170.0, "SR_15": 2.0}, {"Diff_star": 0.0, "addr": "3001 BEECHAVEN ROAD", "SR_14": 4.0, "Q_14": 3.0, "name": "WHITE OAK MANOR - COLUMBIA", "SF_14": 4.0, "SF_15": 3.0, "cnty": "Richland", "st": "SC", "Zip": 29204.0, "O_14": 4.0, "Q_15": 3.0, "O_15": 4.0, "city": "COLUMBIA", "beds": 120.0, "SR_15": 4.0}, {"Diff_star": 0.0, "addr": "9547 HIGHWAY 17, NORTH", "SR_14": 3.0, "Q_14": 4.0, "name": "MYRTLE BEACH MANOR", "SF_14": 4.0, "SF_15": 4.0, "cnty": "Horry", "st": "SC", "Zip": 29572.0, "O_14": 4.0, "Q_15": 4.0, "O_15": 4.0, "city": "MYRTLE BEACH", "beds": 60.0, "SR_15": 3.0}, {"Diff_star": -1.0, "addr": "304 JACOBS HIGHWAY", "SR_14": 2.0, "Q_14": 5.0, "name": "NHC HEALTHCARE - CLINTON", "SF_14": 4.0, "SF_15": 3.0, "cnty": "Laurens", "st": "SC", "Zip": 29325.0, "O_14": 4.0, "Q_15": 5.0, "O_15": 3.0, "city": "CLINTON", "beds": 131.0, "SR_15": 2.0}, {"Diff_star": 0.0, "addr": "2200 HARDEN STREET", "SR_14": 4.0, "Q_14": 5.0, "name": "C M TUCKER NURSING CARE CENTER / STONE & FEWELL", "SF_14": 5.0, "SF_15": 5.0, "cnty": "Richland", "st": "SC", "Zip": 29203.0, "O_14": 5.0, "Q_15": 4.0, "O_15": 5.0, "city": "COLUMBIA", "beds": 252.0, "SR_15": 4.0}, {"Diff_star": 0.0, "addr": "101 LILA DOYLE DRIVE", "SR_14": 1.0, "Q_14": 3.0, "name": "GHS LILA DOYLE", "SF_14": 3.0, "SF_15": 3.0, "cnty": "Oconee", "st": "SC", "Zip": 29672.0, "O_14": 1.0, "Q_15": 2.0, "O_15": 1.0, "city": "SENECA", "beds": 120.0, "SR_15": 1.0}, {"Diff_star": 0.0, "addr": "2555 KINARD STREET", "SR_14": 4.0, "Q_14": 4.0, "name": "WHITE OAK MANOR - NEWBERRY", "SF_14": 4.0, "SF_15": 3.0, "cnty": "Newberry", "st": "SC", "Zip": 29108.0, "O_14": 4.0, "Q_15": 2.0, "O_15": 4.0, "city": "NEWBERRY", "beds": 146.0, "SR_15": 4.0}, {"Diff_star": 0.0, "addr": "1110 MARSHALL ROAD", "SR_14": 5.0, "Q_14": 1.0, "name": "HEALTHCARE CENTER OF WESLEY COMMONS", "SF_14": 4.0, "SF_15": 4.0, "cnty": "Greenwood", "st": "SC", "Zip": 29646.0, "O_14": 4.0, "Q_15": 1.0, "O_15": 4.0, "city": "GREENWOOD", "beds": 102.0, "SR_15": 5.0}, {"Diff_star": 0.0, "addr": "1315 ROBERTS STREET", "SR_14": 4.0, "Q_14": 4.0, "name": "KERSHAWHEALTH KARESH LONG TERM CARE", "SF_14": 5.0, "SF_15": 5.0, "cnty": "Kershaw", "st": "SC", "Zip": 29020.0, "O_14": 5.0, "Q_15": 2.0, "O_15": 5.0, "city": "CAMDEN", "beds": 96.0, "SR_15": 4.0}, {"Diff_star": 0.0, "addr": "581 NEWBERRY HIGHWAY", "SR_14": 4.0, "Q_14": 4.0, "name": "SALUDA NURSING CENTER", "SF_14": 4.0, "SF_15": 4.0, "cnty": "Saluda", "st": "SC", "Zip": 29138.0, "O_14": 4.0, "Q_15": 3.0, "O_15": 4.0, "city": "SALUDA", "beds": 176.0, "SR_15": 4.0}, {"Diff_star": -2.0, "addr": "2375 BAKER HOSP BLVD", "SR_14": 2.0, "Q_14": 4.0, "name": "RIVERSIDE HEALTH AND REHAB", "SF_14": 4.0, "SF_15": 3.0, "cnty": "Charleston", "st": "SC", "Zip": 29405.0, "O_14": 3.0, "Q_15": 1.0, "O_15": 1.0, "city": "CHARLESTON", "beds": 160.0, "SR_15": 2.0}, {"Diff_star": -1.0, "addr": "716 E CEDAR ROCK ST", "SR_14": 4.0, "Q_14": 5.0, "name": "MANNA HEALTH & REHAB OF PICKENS, LLC", "SF_14": 4.0, "SF_15": 3.0, "cnty": "Pickens", "st": "SC", "Zip": 29671.0, "O_14": 5.0, "Q_15": 4.0, "O_15": 4.0, "city": "PICKENS", "beds": 80.0, "SR_15": 4.0}, {"Diff_star": 0.0, "addr": "755 WHITMAN STREET SE", "SR_14": 2.0, "Q_14": 5.0, "name": "PRUITTHEALTH-ORANGEBURG", "SF_14": 4.0, "SF_15": 4.0, "cnty": "Orangeburg", "st": "SC", "Zip": 29115.0, "O_14": 4.0, "Q_15": 5.0, "O_15": 4.0, "city": "ORANGEBURG", "beds": 88.0, "SR_15": 2.0}, {"Diff_star": -2.0, "addr": "3620 STEVENS STREET", "SR_14": 3.0, "Q_14": 5.0, "name": "LORIS EXTENDED CARE CENTER", "SF_14": 4.0, "SF_15": 3.0, "cnty": "Horry", "st": "SC", "Zip": 29569.0, "O_14": 5.0, "Q_15": 4.0, "O_15": 3.0, "city": "LORIS", "beds": 88.0, "SR_15": 3.0}, {"Diff_star": 0.0, "addr": "1915 EBENEZER RD", "SR_14": 4.0, "Q_14": 4.0, "name": "WHITE OAK MANOR - ROCK HILL", "SF_14": 3.0, "SF_15": 3.0, "cnty": "York", "st": "SC", "Zip": 29732.0, "O_14": 4.0, "Q_15": 3.0, "O_15": 4.0, "city": "ROCK HILL", "beds": 141.0, "SR_15": 4.0}, {"Diff_star": -2.0, "addr": "111 SOUTH CONGRESS STREET", "SR_14": 3.0, "Q_14": 5.0, "name": "WHITE OAK MANOR - YORK", "SF_14": 4.0, "SF_15": 3.0, "cnty": "York", "st": "SC", "Zip": 29745.0, "O_14": 5.0, "Q_15": 4.0, "O_15": 3.0, "city": "YORK", "beds": 109.0, "SR_15": 3.0}, {"Diff_star": -1.0, "addr": "411 ANSEL ST", "SR_14": 2.0, "Q_14": 4.0, "name": "MAGNOLIA MANOR - GREENVILLE", "SF_14": 4.0, "SF_15": 3.0, "cnty": "Greenville", "st": "SC", "Zip": 29601.0, "O_14": 3.0, "Q_15": 3.0, "O_15": 2.0, "city": "GREENVILLE", "beds": 99.0, "SR_15": 2.0}, {"Diff_star": -1.0, "addr": "375 SERPENTINE DRIVE", "SR_14": 1.0, "Q_14": 5.0, "name": "MAGNOLIA MANOR - SPARTANBURG", "SF_14": 1.0, "SF_15": 1.0, "cnty": "Spartanburg", "st": "SC", "Zip": 29305.0, "O_14": 2.0, "Q_15": 4.0, "O_15": 1.0, "city": "SPARTANBURG", "beds": 95.0, "SR_15": 1.0}, {"Diff_star": 0.0, "addr": "1727 BUCK SWAMP ROAD", "SR_14": 3.0, "Q_14": 4.0, "name": "SUNNY ACRES", "SF_14": 1.0, "SF_15": 1.0, "cnty": "Dillon", "st": "SC", "Zip": 29543.0, "O_14": 2.0, "Q_15": 2.0, "O_15": 2.0, "city": "FORK", "beds": 111.0, "SR_15": 3.0}, {"Diff_star": 0.0, "addr": "1434 N LIMESTONE ST", "SR_14": 3.0, "Q_14": 4.0, "name": "CHEROKEE COUNTY LTC FACILITY", "SF_14": 3.0, "SF_15": 3.0, "cnty": "Cherokee", "st": "SC", "Zip": 29340.0, "O_14": 3.0, "Q_15": 3.0, "O_15": 3.0, "city": "GAFFNEY", "beds": 111.0, "SR_15": 3.0}, {"Diff_star": 0.0, "addr": "400 LOCUST GROVE ROAD", "SR_14": 4.0, "Q_14": 1.0, "name": "VALLEY FALLS TERRACE INC", "SF_14": 4.0, "SF_15": 4.0, "cnty": "Spartanburg", "st": "SC", "Zip": 29303.0, "O_14": 3.0, "Q_15": 1.0, "O_15": 3.0, "city": "SPARTANBURG", "beds": 88.0, "SR_15": 4.0}, {"Diff_star": 0.0, "addr": "31 WREN STREET", "SR_14": 3.0, "Q_14": 5.0, "name": "UNIHEALTH POST ACUTE CARE - BARNWELL", "SF_14": 4.0, "SF_15": 4.0, "cnty": "Barnwell", "st": "SC", "Zip": 29812.0, "O_14": 5.0, "Q_15": 5.0, "O_15": 5.0, "city": "BARNWELL", "beds": 44.0, "SR_15": 3.0}, {"Diff_star": 0.0, "addr": "201 FORTRESS DRIVE", "SR_14": 3.0, "Q_14": 4.0, "name": "THE HERITAGE AT LOWMAN REHAB AND HEALTHCARE", "SF_14": 4.0, "SF_15": 4.0, "cnty": "Richland", "st": "SC", "Zip": 29177.0, "O_14": 4.0, "Q_15": 3.0, "O_15": 4.0, "city": "WHITE ROCK", "beds": 176.0, "SR_15": 3.0}, {"Diff_star": -1.0, "addr": "8 NORTH TEXAS AVENUE", "SR_14": 1.0, "Q_14": 3.0, "name": "GLORIFIED HEALTH AND REHAB OF GREENVILLE", "SF_14": 4.0, "SF_15": 3.0, "cnty": "Greenville", "st": "SC", "Zip": 29611.0, "O_14": 2.0, "Q_15": 2.0, "O_15": 1.0, "city": "GREENVILLE", "beds": 132.0, "SR_15": 1.0}, {"Diff_star": 0.0, "addr": "185 REVOLUTIONARY TRAIL", "SR_14": 5.0, "Q_14": 5.0, "name": "JOHN EDWARD HARTER NURSING CENTER", "SF_14": 5.0, "SF_15": 5.0, "cnty": "Allendale", "st": "SC", "Zip": 29827.0, "O_14": 5.0, "Q_15": 5.0, "O_15": 5.0, "city": "FAIRFAX", "beds": 44.0, "SR_15": 5.0}, {"Diff_star": 0.0, "addr": "439 NORTH STREET", "SR_14": 3.0, "Q_14": 5.0, "name": "PRUITTHEALTH BAMBERG", "SF_14": 3.0, "SF_15": 3.0, "cnty": "Bamberg", "st": "SC", "Zip": 29003.0, "O_14": 4.0, "Q_15": 5.0, "O_15": 4.0, "city": "BAMBERG", "beds": 88.0, "SR_15": 3.0}, {"Diff_star": -1.0, "addr": "2416 SUNSET BOULEVARD", "SR_14": 2.0, "Q_14": 5.0, "name": "HEARTLAND OF LEXINGTON REHAB AND NURSING CENTER", "SF_14": 4.0, "SF_15": 3.0, "cnty": "Lexington", "st": "SC", "Zip": 29169.0, "O_14": 4.0, "Q_15": 5.0, "O_15": 3.0, "city": "WEST COLUMBIA", "beds": 132.0, "SR_15": 2.0}, {"Diff_star": -1.0, "addr": "601 SULPHUR SPRINGS ROAD", "SR_14": 2.0, "Q_14": 5.0, "name": "HEARTLAND HEALTH CARE CENTER - GREENVILLE EAST", "SF_14": 3.0, "SF_15": 3.0, "cnty": "Greenville", "st": "SC", "Zip": 29611.0, "O_14": 3.0, "Q_15": 4.0, "O_15": 2.0, "city": "GREENVILLE", "beds": 132.0, "SR_15": 2.0}, {"Diff_star": 0.0, "addr": "880 CAROLINA AVENUE", "SR_14": 2.0, "Q_14": 4.0, "name": "SUMTER EAST HEALTH & REHABILITATION CENTER", "SF_14": 1.0, "SF_15": 1.0, "cnty": "Sumter", "st": "SC", "Zip": 29150.0, "O_14": 1.0, "Q_15": 4.0, "O_15": 1.0, "city": "SUMTER", "beds": 176.0, "SR_15": 2.0}, {"Diff_star": 0.0, "addr": "1018 N GUIGNARD", "SR_14": 5.0, "Q_14": 5.0, "name": "NHC HEALTHCARE - SUMTER", "SF_14": 3.0, "SF_15": 3.0, "cnty": "Sumter", "st": "SC", "Zip": 29150.0, "O_14": 5.0, "Q_15": 5.0, "O_15": 5.0, "city": "SUMTER", "beds": 138.0, "SR_15": 5.0}, {"Diff_star": 0.0, "addr": "921 BOWMAN ROAD", "SR_14": 1.0, "Q_14": 4.0, "name": "MOUNT PLEASANT MANOR", "SF_14": 2.0, "SF_15": 2.0, "cnty": "Charleston", "st": "SC", "Zip": 29464.0, "O_14": 1.0, "Q_15": 1.0, "O_15": 1.0, "city": "MT PLEASANT", "beds": 132.0, "SR_15": 1.0}, {"Diff_star": 0.0, "addr": "900 NORTH MARQUIS HWY", "SR_14": 4.0, "Q_14": 5.0, "name": "MORRELL NURSING CENTER", "SF_14": 4.0, "SF_15": 4.0, "cnty": "Darlington", "st": "SC", "Zip": 29551.0, "O_14": 5.0, "Q_15": 5.0, "O_15": 5.0, "city": "HARTSVILLE", "beds": 154.0, "SR_15": 4.0}, {"Diff_star": -1.0, "addr": "807 SOUTH EAST MAIN STREET", "SR_14": 2.0, "Q_14": 3.0, "name": "DIAMOND HEALTH & REHAB OF SIMPSONVILLE, LLC", "SF_14": 4.0, "SF_15": 3.0, "cnty": "Greenville", "st": "SC", "Zip": 29681.0, "O_14": 3.0, "Q_15": 2.0, "O_15": 2.0, "city": "SIMPSONVILLE", "beds": 132.0, "SR_15": 2.0}, {"Diff_star": 0.0, "addr": "413 LAKESIDE COURT", "SR_14": 4.0, "Q_14": 4.0, "name": "HERITAGE HEALTHCARE CENTER AT THE PINES", "SF_14": 3.0, "SF_15": 3.0, "cnty": "Dillon", "st": "SC", "Zip": 29536.0, "O_14": 4.0, "Q_15": 3.0, "O_15": 4.0, "city": "DILLON", "beds": 84.0, "SR_15": 4.0}, {"Diff_star": 0.0, "addr": "5583 SUMMERTON HIGHWAY", "SR_14": 1.0, "Q_14": 5.0, "name": "WINDSOR MANOR", "SF_14": 3.0, "SF_15": 3.0, "cnty": "Clarendon", "st": "SC", "Zip": 29102.0, "O_14": 2.0, "Q_15": 5.0, "O_15": 2.0, "city": "MANNING", "beds": 64.0, "SR_15": 1.0}, {"Diff_star": 0.0, "addr": "1207 NORTH CASHUA ROAD", "SR_14": 4.0, "Q_14": 4.0, "name": "HONORAGE NURSING CENTER", "SF_14": 4.0, "SF_15": 4.0, "cnty": "Florence", "st": "SC", "Zip": 29501.0, "O_14": 4.0, "Q_15": 3.0, "O_15": 4.0, "city": "FLORENCE", "beds": 88.0, "SR_15": 4.0}, {"Diff_star": -1.0, "addr": "575 STONEWALL JACKSON BOULEVARD", "SR_14": 3.0, "Q_14": 4.0, "name": "LAUREL BAYE HEALTHCARE OF ORANGEBURG", "SF_14": 1.0, "SF_15": 1.0, "cnty": "Orangeburg", "st": "SC", "Zip": 29115.0, "O_14": 2.0, "Q_15": 1.0, "O_15": 1.0, "city": "ORANGEBURG", "beds": 113.0, "SR_15": 3.0}, {"Diff_star": -1.0, "addr": "401 NELSON BOULEVARD", "SR_14": 2.0, "Q_14": 5.0, "name": "KINGSTREE NURSING FACILITY", "SF_14": 1.0, "SF_15": 1.0, "cnty": "Williamsburg", "st": "SC", "Zip": 29556.0, "O_14": 2.0, "Q_15": 4.0, "O_15": 1.0, "city": "KINGSTREE", "beds": 96.0, "SR_15": 2.0}, {"Diff_star": 0.0, "addr": "710 15-401 BYPASS, WEST", "SR_14": 3.0, "Q_14": 5.0, "name": "DUNDEE MANOR, LLC", "SF_14": 1.0, "SF_15": 1.0, "cnty": "Marlboro", "st": "SC", "Zip": 29512.0, "O_14": 3.0, "Q_15": 5.0, "O_15": 3.0, "city": "BENNETTSVILLE", "beds": 110.0, "SR_15": 3.0}, {"Diff_star": 0.0, "addr": "4438 PAMPLICO HIGHWAY", "SR_14": 5.0, "Q_14": 4.0, "name": "COMMANDER NURSING CENTER", "SF_14": 4.0, "SF_15": 3.0, "cnty": "Florence", "st": "SC", "Zip": 29505.0, "O_14": 5.0, "Q_15": 3.0, "O_15": 5.0, "city": "FLORENCE", "beds": 163.0, "SR_15": 5.0}, {"Diff_star": 0.0, "addr": "3300 4TH AVENUE", "SR_14": 3.0, "Q_14": 4.0, "name": "CONWAY MANOR", "SF_14": 3.0, "SF_15": 3.0, "cnty": "Horry", "st": "SC", "Zip": 29527.0, "O_14": 3.0, "Q_15": 3.0, "O_15": 3.0, "city": "CONWAY", "beds": 190.0, "SR_15": 3.0}, {"Diff_star": -1.0, "addr": "51 N MAIN ST", "SR_14": 3.0, "Q_14": 5.0, "name": "INMAN HEALTHCARE", "SF_14": 3.0, "SF_15": 3.0, "cnty": "Spartanburg", "st": "SC", "Zip": 29349.0, "O_14": 4.0, "Q_15": 3.0, "O_15": 3.0, "city": "INMAN", "beds": 40.0, "SR_15": 3.0}, {"Diff_star": 0.0, "addr": "261 S HERLONG AVE", "SR_14": 3.0, "Q_14": 5.0, "name": "PRUITTHEALTH- ROCK HILL", "SF_14": 3.0, "SF_15": 3.0, "cnty": "York", "st": "SC", "Zip": 29732.0, "O_14": 4.0, "Q_15": 5.0, "O_15": 4.0, "city": "ROCK HILL", "beds": 132.0, "SR_15": 3.0}, {"Diff_star": 0.0, "addr": "9285 MEDICAL PLAZA DR", "SR_14": 5.0, "Q_14": 5.0, "name": "WHITE OAK MANOR - CHARLESTON", "SF_14": 4.0, "SF_15": 4.0, "cnty": "Charleston", "st": "SC", "Zip": 29418.0, "O_14": 5.0, "Q_15": 4.0, "O_15": 5.0, "city": "CHARLESTON", "beds": 176.0, "SR_15": 5.0}, {"Diff_star": -1.0, "addr": "3514 SIDNEY ROAD", "SR_14": 4.0, "Q_14": 5.0, "name": "BRIAN CENTER NURSING CARE - ST ANDREWS", "SF_14": 3.0, "SF_15": 3.0, "cnty": "Richland", "st": "SC", "Zip": 29210.0, "O_14": 5.0, "Q_15": 3.0, "O_15": 4.0, "city": "COLUMBIA", "beds": 120.0, "SR_15": 4.0}, {"Diff_star": -1.0, "addr": "151 LOVELY DRIVE", "SR_14": 1.0, "Q_14": 4.0, "name": "THE METHODIST OAKS", "SF_14": 4.0, "SF_15": 3.0, "cnty": "Orangeburg", "st": "SC", "Zip": 29115.0, "O_14": 2.0, "Q_15": 2.0, "O_15": 1.0, "city": "ORANGEBURG", "beds": 132.0, "SR_15": 1.0}, {"Diff_star": 0.0, "addr": "1516 GRAYS HIGHWAY", "SR_14": 2.0, "Q_14": 4.0, "name": "RIDGELAND NURSING CENTER INC", "SF_14": 1.0, "SF_15": 1.0, "cnty": "Beaufort", "st": "SC", "Zip": 29936.0, "O_14": 1.0, "Q_15": 3.0, "O_15": 1.0, "city": "RIDGELAND", "beds": 88.0, "SR_15": 2.0}, {"Diff_star": -1.0, "addr": "401 CHANDLER RD", "SR_14": 1.0, "Q_14": 4.0, "name": "ALPHA HEALTH & REHAB OF GREER, LLC", "SF_14": 4.0, "SF_15": 3.0, "cnty": "Greenville", "st": "SC", "Zip": 29651.0, "O_14": 2.0, "Q_15": 3.0, "O_15": 1.0, "city": "GREER", "beds": 132.0, "SR_15": 1.0}, {"Diff_star": -1.0, "addr": "140 TOKEENA RD", "SR_14": 2.0, "Q_14": 5.0, "name": "SENECA HEALTH & REHABILITATION CENTER", "SF_14": 2.0, "SF_15": 2.0, "cnty": "Oconee", "st": "SC", "Zip": 29678.0, "O_14": 3.0, "Q_15": 2.0, "O_15": 2.0, "city": "SENECA", "beds": 132.0, "SR_15": 2.0}, {"Diff_star": -2.0, "addr": "505 SOUTH LIVE OAK DRIVE", "SR_14": 3.0, "Q_14": 5.0, "name": "UNIHEALTH POST ACUTE CARE OF MONCKS CORNER", "SF_14": 4.0, "SF_15": 4.0, "cnty": "Berkeley", "st": "SC", "Zip": 29461.0, "O_14": 5.0, "Q_15": 3.0, "O_15": 3.0, "city": "MONCKS CORNER", "beds": 132.0, "SR_15": 2.0}, {"Diff_star": 0.0, "addr": "709 RICE AVENUE", "SR_14": 2.0, "Q_14": 5.0, "name": "HEARTLAND HEALTH CARE CENTER - UNION", "SF_14": 4.0, "SF_15": 4.0, "cnty": "Union", "st": "SC", "Zip": 29379.0, "O_14": 4.0, "Q_15": 5.0, "O_15": 4.0, "city": "UNION", "beds": 88.0, "SR_15": 2.0}, {"Diff_star": 0.0, "addr": "905 DUKE STREET", "SR_14": 1.0, "Q_14": 5.0, "name": "ST GEORGE HEALTHCARE CENTER", "SF_14": 4.0, "SF_15": 4.0, "cnty": "Dorchester", "st": "SC", "Zip": 29477.0, "O_14": 2.0, "Q_15": 5.0, "O_15": 2.0, "city": "SAINT GEORGE", "beds": 88.0, "SR_15": 1.0}, {"Diff_star": -1.0, "addr": "830 LAURENS STREET NORTH", "SR_14": 1.0, "Q_14": 4.0, "name": "PRUITTHEALTH-AIKEN", "SF_14": 4.0, "SF_15": 3.0, "cnty": "Aiken", "st": "SC", "Zip": 29801.0, "O_14": 2.0, "Q_15": 2.0, "O_15": 1.0, "city": "AIKEN", "beds": 176.0, "SR_15": 1.0}, {"Diff_star": 0.0, "addr": "1049 ANNA KNAPP BOULEVARD", "SR_14": 3.0, "Q_14": 4.0, "name": "SANDPIPER REHAB & NURSING", "SF_14": 4.0, "SF_15": 4.0, "cnty": "Charleston", "st": "SC", "Zip": 29464.0, "O_14": 4.0, "Q_15": 3.0, "O_15": 4.0, "city": "MOUNT PLEASANT", "beds": 176.0, "SR_15": 3.0}, {"Diff_star": 0.0, "addr": "120 LAMOTTE DRIVE", "SR_14": 1.0, "Q_14": 3.0, "name": "LIFE CARE CENTER OF HILTON HEAD", "SF_14": 4.0, "SF_15": 4.0, "cnty": "Beaufort", "st": "SC", "Zip": 29926.0, "O_14": 2.0, "Q_15": 2.0, "O_15": 2.0, "city": "HILTON HEAD ISLAND", "beds": 88.0, "SR_15": 1.0}, {"Diff_star": 0.0, "addr": "1940 BOYD ROAD", "SR_14": 3.0, "Q_14": 5.0, "name": "LAKE CITY SCRANTON HEALTHCARE CENTER", "SF_14": 1.0, "SF_15": 1.0, "cnty": "Florence", "st": "SC", "Zip": 29591.0, "O_14": 3.0, "Q_15": 5.0, "O_15": 3.0, "city": "SCRANTON", "beds": 88.0, "SR_15": 3.0}, {"Diff_star": 0.0, "addr": "300 WOOD HAVEN DRIVE", "SR_14": 4.0, "Q_14": 5.0, "name": "FRASER HEALTH CENTER", "SF_14": 5.0, "SF_15": 5.0, "cnty": "Beaufort", "st": "SC", "Zip": 29928.0, "O_14": 5.0, "Q_15": 5.0, "O_15": 5.0, "city": "HILTON HEAD ISLAND", "beds": 33.0, "SR_15": 4.0}, {"Diff_star": -1.0, "addr": "515 SOUTH WARLEY STREET", "SR_14": 2.0, "Q_14": 4.0, "name": "HERITAGE HOME OF FLORENCE INC", "SF_14": 4.0, "SF_15": 3.0, "cnty": "Florence", "st": "SC", "Zip": 29501.0, "O_14": 3.0, "Q_15": 2.0, "O_15": 2.0, "city": "FLORENCE", "beds": 132.0, "SR_15": 2.0}, {"Diff_star": 0.0, "addr": "2044 PAGELAND HWY", "SR_14": 2.0, "Q_14": 4.0, "name": "LANCASTER CONVALESCENT CENTER", "SF_14": 4.0, "SF_15": 4.0, "cnty": "Lancaster", "st": "SC", "Zip": 29721.0, "O_14": 3.0, "Q_15": 4.0, "O_15": 3.0, "city": "LANCASTER", "beds": 142.0, "SR_15": 2.0}, {"Diff_star": -1.0, "addr": "920 TRAVELERS BOULEVARD", "SR_14": 4.0, "Q_14": 5.0, "name": "OAKBROOK HEALTH AND REHABILITATION CENTER", "SF_14": 4.0, "SF_15": 4.0, "cnty": "Dorchester", "st": "SC", "Zip": 29485.0, "O_14": 5.0, "Q_15": 4.0, "O_15": 4.0, "city": "SUMMERVILLE", "beds": 88.0, "SR_15": 4.0}, {"Diff_star": -1.0, "addr": "722 SOUTH DARGAN STREET", "SR_14": 5.0, "Q_14": 3.0, "name": "SOUTHLAND HEALTH CARE CENTER", "SF_14": 3.0, "SF_15": 3.0, "cnty": "Florence", "st": "SC", "Zip": 29506.0, "O_14": 5.0, "Q_15": 1.0, "O_15": 4.0, "city": "FLORENCE", "beds": 88.0, "SR_15": 5.0}, {"Diff_star": 0.0, "addr": "117 BELLFIELD ROAD", "SR_14": 1.0, "Q_14": 5.0, "name": "FAIRFIELD HEALTHCARE CENTER, LLC", "SF_14": 3.0, "SF_15": 3.0, "cnty": "Fairfield", "st": "SC", "Zip": 29130.0, "O_14": 2.0, "Q_15": 5.0, "O_15": 2.0, "city": "RIDGEWAY", "beds": 112.0, "SR_15": 1.0}, {"Diff_star": -1.0, "addr": "159 SEDGEWOOD DR", "SR_14": 3.0, "Q_14": 3.0, "name": "AGAPE REHABILITATION OF ROCK HILL", "SF_14": 4.0, "SF_15": 4.0, "cnty": "York", "st": "SC", "Zip": 29732.0, "O_14": 4.0, "Q_15": 1.0, "O_15": 3.0, "city": "ROCK HILL", "beds": 99.0, "SR_15": 3.0}, {"Diff_star": 0.0, "addr": "1 HOKE SMITH BOULEVARD", "SR_14": 4.0, "Q_14": 5.0, "name": "ROLLING GREEN VILLAGE", "SF_14": 4.0, "SF_15": 4.0, "cnty": "Greenville", "st": "SC", "Zip": 29615.0, "O_14": 5.0, "Q_15": 5.0, "O_15": 5.0, "city": "GREENVILLE", "beds": 74.0, "SR_15": 4.0}, {"Diff_star": 0.0, "addr": "133 WEST CLARKE ROAD", "SR_14": 2.0, "Q_14": 4.0, "name": "FLORENCE REHAB & NURSING CENTER", "SF_14": 2.0, "SF_15": 2.0, "cnty": "Florence", "st": "SC", "Zip": 29501.0, "O_14": 2.0, "Q_15": 2.0, "O_15": 2.0, "city": "FLORENCE", "beds": 88.0, "SR_15": 2.0}, {"Diff_star": -1.0, "addr": "127 MURRAH DR", "SR_14": 3.0, "Q_14": 4.0, "name": "MAGNOLIA MANOR - ROCK HILL", "SF_14": 4.0, "SF_15": 3.0, "cnty": "York", "st": "SC", "Zip": 29732.0, "O_14": 4.0, "Q_15": 2.0, "O_15": 3.0, "city": "ROCK HILL", "beds": 106.0, "SR_15": 3.0}, {"Diff_star": 0.0, "addr": "501 GULLIVER ST", "SR_14": 2.0, "Q_14": 4.0, "name": "FOUNTAIN INN CONVALESCENT CENTER", "SF_14": 4.0, "SF_15": 4.0, "cnty": "Greenville", "st": "SC", "Zip": 29644.0, "O_14": 3.0, "Q_15": 4.0, "O_15": 3.0, "city": "FOUNTAIN INN", "beds": 60.0, "SR_15": 2.0}, {"Diff_star": -2.0, "addr": "146 BATTLESHIP ROAD", "SR_14": 3.0, "Q_14": 5.0, "name": "SPRINGDALE HEALTHCARE CENTER", "SF_14": 4.0, "SF_15": 3.0, "cnty": "Kershaw", "st": "SC", "Zip": 29020.0, "O_14": 5.0, "Q_15": 3.0, "O_15": 3.0, "city": "CAMDEN", "beds": 125.0, "SR_15": 3.0}, {"Diff_star": 0.0, "addr": "601 DANTZLER STREET", "SR_14": 4.0, "Q_14": 4.0, "name": "CALHOUN CONVALESCENT CENTER", "SF_14": 4.0, "SF_15": 3.0, "cnty": "Calhoun", "st": "SC", "Zip": 29135.0, "O_14": 4.0, "Q_15": 3.0, "O_15": 4.0, "city": "SAINT MATTHEWS", "beds": 120.0, "SR_15": 4.0}, {"Diff_star": 0.0, "addr": "204 HOLIDAY ROAD", "SR_14": 4.0, "Q_14": 5.0, "name": "PETRA HEALTH & REHAB OF MCCORMICK", "SF_14": 2.0, "SF_15": 2.0, "cnty": "Mccormick", "st": "SC", "Zip": 29835.0, "O_14": 5.0, "Q_15": 5.0, "O_15": 5.0, "city": "MC CORMICK", "beds": 120.0, "SR_15": 4.0}, {"Diff_star": 0.0, "addr": "1415 PARKWAY DRIVE", "SR_14": 1.0, "Q_14": 4.0, "name": "MAGNOLIA MANOR - GREENWOOD", "SF_14": 4.0, "SF_15": 4.0, "cnty": "Greenwood", "st": "SC", "Zip": 29646.0, "O_14": 2.0, "Q_15": 3.0, "O_15": 2.0, "city": "GREENWOOD", "beds": 88.0, "SR_15": 1.0}, {"Diff_star": 0.0, "addr": "2379 CYPRESS CIRCLE", "SR_14": 4.0, "Q_14": 4.0, "name": "KINGSTON NURSING CENTER", "SF_14": 4.0, "SF_15": 4.0, "cnty": "Horry", "st": "SC", "Zip": 29526.0, "O_14": 4.0, "Q_15": 2.0, "O_15": 4.0, "city": "CONWAY", "beds": 88.0, "SR_15": 4.0}, {"Diff_star": 0.0, "addr": "207 CHAPPELL DRIVE", "SR_14": 2.0, "Q_14": 3.0, "name": "MCCOY MEMORIAL NURSING CENTER", "SF_14": 3.0, "SF_15": 3.0, "cnty": "Lee", "st": "SC", "Zip": 29010.0, "O_14": 2.0, "Q_15": 2.0, "O_15": 2.0, "city": "BISHOPVILLE", "beds": 120.0, "SR_15": 2.0}, {"Diff_star": 0.0, "addr": "8020 WHITE AVENUE", "SR_14": 3.0, "Q_14": 4.0, "name": "MAGNOLIA PLACE - SPARTANBURG", "SF_14": 3.0, "SF_15": 3.0, "cnty": "Spartanburg", "st": "SC", "Zip": 29303.0, "O_14": 3.0, "Q_15": 3.0, "O_15": 3.0, "city": "SPARTANBURG", "beds": 88.0, "SR_15": 3.0}, {"Diff_star": 0.0, "addr": "105 MEDFORD DRIVE", "SR_14": 1.0, "Q_14": 5.0, "name": "MEDFORD NURSING CENTER", "SF_14": 4.0, "SF_15": 4.0, "cnty": "Darlington", "st": "SC", "Zip": 29532.0, "O_14": 2.0, "Q_15": 5.0, "O_15": 2.0, "city": "DARLINGTON", "beds": 88.0, "SR_15": 1.0}, {"Diff_star": 0.0, "addr": "1114 EAST GEORGIA ROAD", "SR_14": 3.0, "Q_14": 4.0, "name": "WOODRUFF MANOR, LLC", "SF_14": 3.0, "SF_15": 3.0, "cnty": "Spartanburg", "st": "SC", "Zip": 29388.0, "O_14": 3.0, "Q_15": 2.0, "O_15": 3.0, "city": "WOODRUFF", "beds": 88.0, "SR_15": 3.0}, {"Diff_star": 0.0, "addr": "1007 N KING ST", "SR_14": 1.0, "Q_14": 3.0, "name": "MAGNOLIA MANOR - COLUMBIA", "SF_14": 3.0, "SF_15": 3.0, "cnty": "Richland", "st": "SC", "Zip": 29223.0, "O_14": 1.0, "Q_15": 1.0, "O_15": 1.0, "city": "COLUMBIA", "beds": 88.0, "SR_15": 1.0}, {"Diff_star": 1.0, "addr": "213 TANGLEWOOD COURT", "SR_14": 1.0, "Q_14": 5.0, "name": "PRUITTHEALTH RIDGEWAY", "SF_14": 4.0, "SF_15": 4.0, "cnty": "Fairfield", "st": "SC", "Zip": 29130.0, "O_14": 2.0, "Q_15": 2.0, "O_15": 3.0, "city": "RIDGEWAY", "beds": 150.0, "SR_15": 2.0}, {"Diff_star": 0.0, "addr": "1800 EAGLE LANDING BLVD", "SR_14": 4.0, "Q_14": 5.0, "name": "HEARTLAND HEALTH AND REHABILITATION CARE CENTER-HA", "SF_14": 2.0, "SF_15": 3.0, "cnty": "Charleston", "st": "SC", "Zip": 29406.0, "O_14": 5.0, "Q_15": 5.0, "O_15": 5.0, "city": "HANAHAN", "beds": 135.0, "SR_15": 4.0}, {"Diff_star": 0.0, "addr": "400 WEBBER ROAD", "SR_14": 4.0, "Q_14": 4.0, "name": "WHITE OAK ESTATES", "SF_14": 4.0, "SF_15": 4.0, "cnty": "Spartanburg", "st": "SC", "Zip": 29302.0, "O_14": 4.0, "Q_15": 2.0, "O_15": 4.0, "city": "SPARTANBURG", "beds": 88.0, "SR_15": 4.0}, {"Diff_star": 0.0, "addr": "831 MCDOW DRIVE", "SR_14": 4.0, "Q_14": 5.0, "name": "WESTMINSTER HEALTH & REHAB CENTER", "SF_14": 5.0, "SF_15": 5.0, "cnty": "York", "st": "SC", "Zip": 29732.0, "O_14": 5.0, "Q_15": 5.0, "O_15": 5.0, "city": "ROCK HILL", "beds": 22.0, "SR_15": 4.0}, {"Diff_star": -1.0, "addr": "226 WA REEL DRIVE", "SR_14": 1.0, "Q_14": 5.0, "name": "TRINITY MISSION HEALTH & REHAB OF EDGEFIELD", "SF_14": 2.0, "SF_15": 2.0, "cnty": "Edgefield", "st": "SC", "Zip": 29824.0, "O_14": 2.0, "Q_15": 4.0, "O_15": 1.0, "city": "EDGEFIELD", "beds": 120.0, "SR_15": 1.0}, {"Diff_star": 0.0, "addr": "600 SULPHER SPRINGS ROAD", "SR_14": 2.0, "Q_14": 5.0, "name": "HEARTLAND HEALTH CARE CENTER - GREENVILLE WEST", "SF_14": 2.0, "SF_15": 2.0, "cnty": "Greenville", "st": "SC", "Zip": 29611.0, "O_14": 3.0, "Q_15": 5.0, "O_15": 3.0, "city": "GREENVILLE", "beds": 125.0, "SR_15": 2.0}, {"Diff_star": -1.0, "addr": "901 MAPLE STREET", "SR_14": 2.0, "Q_14": 5.0, "name": "PRINCE GEORGE HEALTHCARE CENTER", "SF_14": 4.0, "SF_15": 4.0, "cnty": "Georgetown", "st": "SC", "Zip": 29440.0, "O_14": 4.0, "Q_15": 4.0, "O_15": 3.0, "city": "GEORGETOWN", "beds": 148.0, "SR_15": 2.0}, {"Diff_star": 0.0, "addr": "1200 TALISMAN DRIVE", "SR_14": 1.0, "Q_14": 5.0, "name": "PRUITTHEALTH NORTH AUGUSTA", "SF_14": 5.0, "SF_15": 5.0, "cnty": "Aiken", "st": "SC", "Zip": 29841.0, "O_14": 2.0, "Q_15": 3.0, "O_15": 2.0, "city": "NORTH AUGUSTA", "beds": 132.0, "SR_15": 1.0}, {"Diff_star": 0.0, "addr": "5721 SPRINGFIELD HWY", "SR_14": 2.0, "Q_14": 4.0, "name": "LAUREL BAYE HEALTHCARE  OF WILLISTON LLC", "SF_14": 2.0, "SF_15": 2.0, "cnty": "Barnwell", "st": "SC", "Zip": 29853.0, "O_14": 2.0, "Q_15": 2.0, "O_15": 2.0, "city": "WILLISTON", "beds": 44.0, "SR_15": 2.0}, {"Diff_star": -2.0, "addr": "1850 CRESTVIEW ROAD", "SR_14": 2.0, "Q_14": 5.0, "name": "CAPSTONE HEALTH & REHAB OF EASLEY", "SF_14": 4.0, "SF_15": 3.0, "cnty": "Pickens", "st": "SC", "Zip": 29642.0, "O_14": 4.0, "Q_15": 4.0, "O_15": 2.0, "city": "EASLEY", "beds": 66.0, "SR_15": 2.0}, {"Diff_star": -1.0, "addr": "1527 URBANA ROAD", "SR_14": 1.0, "Q_14": 5.0, "name": "LAKE MARION NURSING FACILITY", "SF_14": 4.0, "SF_15": 3.0, "cnty": "Clarendon", "st": "SC", "Zip": 29148.0, "O_14": 2.0, "Q_15": 4.0, "O_15": 1.0, "city": "SUMMERTON", "beds": 88.0, "SR_15": 1.0}, {"Diff_star": 0.0, "addr": "4605 BELTON HIGHWAY", "SR_14": 4.0, "Q_14": 4.0, "name": "RICHARD M CAMPBELL VETERANS NURSING HOME", "SF_14": 2.0, "SF_15": 2.0, "cnty": "Anderson", "st": "SC", "Zip": 29621.0, "O_14": 4.0, "Q_15": 2.0, "O_15": 4.0, "city": "ANDERSON", "beds": 220.0, "SR_15": 4.0}, {"Diff_star": -1.0, "addr": "1150 STATE ROAD", "SR_14": 3.0, "Q_14": 5.0, "name": "CHESTERFIELD CONVALESCENT CENTER", "SF_14": 4.0, "SF_15": 3.0, "cnty": "Chesterfield", "st": "SC", "Zip": 29520.0, "O_14": 5.0, "Q_15": 5.0, "O_15": 4.0, "city": "CHERAW", "beds": 104.0, "SR_15": 3.0}, {"Diff_star": 0.0, "addr": "59 BLACKSTOCK ROAD", "SR_14": 1.0, "Q_14": 4.0, "name": "LAKE EMORY POST ACUTE CARE", "SF_14": 1.0, "SF_15": 1.0, "cnty": "Spartanburg", "st": "SC", "Zip": 29349.0, "O_14": 1.0, "Q_15": 2.0, "O_15": 1.0, "city": "INMAN", "beds": 88.0, "SR_15": 1.0}, {"Diff_star": 0.0, "addr": "2 GRIFFITH ROAD", "SR_14": 1.0, "Q_14": 4.0, "name": "PATEWOOD REHABILIATION & HEALTHCARE CENTER", "SF_14": 4.0, "SF_15": 4.0, "cnty": "Greenville", "st": "SC", "Zip": 29607.0, "O_14": 2.0, "Q_15": 3.0, "O_15": 2.0, "city": "GREENVILLE", "beds": 39.0, "SR_15": 1.0}, {"Diff_star": 3.0, "addr": "163 LOVE & CARE ROAD", "SR_14": 1.0, "Q_14": 4.0, "name": "HERITAGE HEALTHCARE OF PICKENS", "SF_14": 3.0, "SF_15": 3.0, "cnty": "Pickens", "st": "SC", "Zip": 29682.0, "O_14": 1.0, "Q_15": 4.0, "O_15": 4.0, "city": "SIX MILE", "beds": 44.0, "SR_15": 4.0}, {"Diff_star": 0.0, "addr": "2906 GEER HWY", "SR_14": 4.0, "Q_14": 5.0, "name": "HOPE HEALTH & REHAB OF MARIETTA,", "SF_14": 4.0, "SF_15": 4.0, "cnty": "Greenville", "st": "SC", "Zip": 29661.0, "O_14": 5.0, "Q_15": 5.0, "O_15": 5.0, "city": "MARIETTA", "beds": 44.0, "SR_15": 4.0}, {"Diff_star": -1.0, "addr": "3525 AUGUSTUS ROAD", "SR_14": 2.0, "Q_14": 4.0, "name": "PEPPER HILL NURSING & REHAB CENTER, LLC", "SF_14": 4.0, "SF_15": 4.0, "cnty": "Aiken", "st": "SC", "Zip": 29802.0, "O_14": 3.0, "Q_15": 2.0, "O_15": 2.0, "city": "AIKEN", "beds": 132.0, "SR_15": 1.0}, {"Diff_star": -2.0, "addr": "56 GENESIS DRIVE", "SR_14": 2.0, "Q_14": 5.0, "name": "DR RONALD E MCNAIR NURSING & REHABILITATION CENTER", "SF_14": 4.0, "SF_15": 3.0, "cnty": "Williamsburg", "st": "SC", "Zip": 29560.0, "O_14": 4.0, "Q_15": 4.0, "O_15": 2.0, "city": "LAKE CITY", "beds": 88.0, "SR_15": 2.0}, {"Diff_star": -1.0, "addr": "1761 PINEWOOD ROAD", "SR_14": 3.0, "Q_14": 5.0, "name": "SUMTER VALLEY NURSING AND REHAB CENTER", "SF_14": 1.0, "SF_15": 1.0, "cnty": "Sumter", "st": "SC", "Zip": 29154.0, "O_14": 3.0, "Q_15": 4.0, "O_15": 2.0, "city": "SUMTER", "beds": 96.0, "SR_15": 3.0}, {"Diff_star": 0.0, "addr": "550 EAST GATE DRIVE", "SR_14": 4.0, "Q_14": 5.0, "name": "ANCHOR HEALTH & REHAB OF AIKEN", "SF_14": 4.0, "SF_15": 4.0, "cnty": "Aiken", "st": "SC", "Zip": 29803.0, "O_14": 5.0, "Q_15": 5.0, "O_15": 5.0, "city": "AIKEN", "beds": 60.0, "SR_15": 4.0}, {"Diff_star": 0.0, "addr": "518 S MAIN STREET", "SR_14": 4.0, "Q_14": 5.0, "name": "MULLINS NURSING CENTER", "SF_14": 4.0, "SF_15": 3.0, "cnty": "Marion", "st": "SC", "Zip": 29574.0, "O_14": 5.0, "Q_15": 5.0, "O_15": 5.0, "city": "MULLINS", "beds": 92.0, "SR_15": 4.0}, {"Diff_star": 0.0, "addr": "109 BENTZ ROAD", "SR_14": 3.0, "Q_14": 4.0, "name": "HOSANNA HEALTH AND REHAB OF PIEDMONT", "SF_14": 4.0, "SF_15": 4.0, "cnty": "Greenville", "st": "SC", "Zip": 29673.0, "O_14": 4.0, "Q_15": 2.0, "O_15": 4.0, "city": "PIEDMONT", "beds": 88.0, "SR_15": 3.0}, {"Diff_star": 0.0, "addr": "252 LIBERTY STREET SOUTH", "SR_14": 4.0, "Q_14": 4.0, "name": "PRUITTHEALTH ESTILL", "SF_14": 4.0, "SF_15": 4.0, "cnty": "Hampton", "st": "SC", "Zip": 29918.0, "O_14": 4.0, "Q_15": 2.0, "O_15": 4.0, "city": "ESTILL", "beds": 104.0, "SR_15": 4.0}, {"Diff_star": -1.0, "addr": "82 N MAIN STREET", "SR_14": 3.0, "Q_14": 5.0, "name": "GOLDEN AGE - INMAN", "SF_14": 3.0, "SF_15": 3.0, "cnty": "Spartanburg", "st": "SC", "Zip": 29349.0, "O_14": 4.0, "Q_15": 3.0, "O_15": 3.0, "city": "INMAN", "beds": 44.0, "SR_15": 3.0}, {"Diff_star": 0.0, "addr": "406 WEST BROAD STREET", "SR_14": 4.0, "Q_14": 4.0, "name": "EXALTED HEALTH & REHAB OF IVA", "SF_14": 3.0, "SF_15": 3.0, "cnty": "Anderson", "st": "SC", "Zip": 29655.0, "O_14": 4.0, "Q_15": 2.0, "O_15": 4.0, "city": "IVA", "beds": 60.0, "SR_15": 4.0}, {"Diff_star": 0.0, "addr": "138 ROSEMOND STREET", "SR_14": 3.0, "Q_14": 4.0, "name": "REDEEMER HEALTH & REHAB OF PICKENS", "SF_14": 4.0, "SF_15": 4.0, "cnty": "Pickens", "st": "SC", "Zip": 29671.0, "O_14": 4.0, "Q_15": 3.0, "O_15": 4.0, "city": "PICKENS", "beds": 44.0, "SR_15": 3.0}, {"Diff_star": -1.0, "addr": "1612 JONES BRIDGE ROAD", "SR_14": 3.0, "Q_14": 5.0, "name": "LAUREL BAYE HEALTHCARE BLACKVILLE", "SF_14": 2.0, "SF_15": 2.0, "cnty": "Barnwell", "st": "SC", "Zip": 29817.0, "O_14": 4.0, "Q_15": 3.0, "O_15": 3.0, "city": "BLACKVILLE", "beds": 85.0, "SR_15": 3.0}, {"Diff_star": 0.0, "addr": "350 AUSTIN GRAYBILL", "SR_14": 5.0, "Q_14": 5.0, "name": "NHC HEALTHCARE - NORTH AUGUSTA", "SF_14": 4.0, "SF_15": 3.0, "cnty": "Aiken", "st": "SC", "Zip": 29841.0, "O_14": 5.0, "Q_15": 5.0, "O_15": 5.0, "city": "NORTH AUGUSTA", "beds": 192.0, "SR_15": 5.0}, {"Diff_star": -1.0, "addr": "815 OLD CHEROKEE ROAD", "SR_14": 3.0, "Q_14": 4.0, "name": "L.M.C.- EXTENDED CARE", "SF_14": 4.0, "SF_15": 3.0, "cnty": "Lexington", "st": "SC", "Zip": 29072.0, "O_14": 4.0, "Q_15": 2.0, "O_15": 3.0, "city": "LEXINGTON", "beds": 352.0, "SR_15": 3.0}, {"Diff_star": 0.0, "addr": "1305 BOILING SPRINGS ROAD", "SR_14": 5.0, "Q_14": 5.0, "name": "NHC HEALTHCARE - GREENVILLE", "SF_14": 5.0, "SF_15": 5.0, "cnty": "Greenville", "st": "SC", "Zip": 29650.0, "O_14": 5.0, "Q_15": 5.0, "O_15": 5.0, "city": "GREER", "beds": 132.0, "SR_15": 5.0}, {"Diff_star": 0.0, "addr": "4452 SOCASTEE BLVD", "SR_14": 4.0, "Q_14": 4.0, "name": "GRAND STRAND HEALTHCARE", "SF_14": 5.0, "SF_15": 5.0, "cnty": "Horry", "st": "SC", "Zip": 29588.0, "O_14": 5.0, "Q_15": 2.0, "O_15": 5.0, "city": "MYRTLE BEACH", "beds": 88.0, "SR_15": 4.0}, {"Diff_star": 0.0, "addr": "9405 HWY 17 BYPASS", "SR_14": 5.0, "Q_14": 5.0, "name": "NHC HEALTHCARE - GARDEN CITY", "SF_14": 4.0, "SF_15": 4.0, "cnty": "Horry", "st": "SC", "Zip": 29576.0, "O_14": 5.0, "Q_15": 5.0, "O_15": 5.0, "city": "GARDEN CITY", "beds": 148.0, "SR_15": 5.0}, {"Diff_star": 0.0, "addr": "87 BIRD SONG WAY", "SR_14": 2.0, "Q_14": 5.0, "name": "THE PRESTON HEALTH CENTER", "SF_14": 5.0, "SF_15": 5.0, "cnty": "Beaufort", "st": "SC", "Zip": 29926.0, "O_14": 4.0, "Q_15": 5.0, "O_15": 4.0, "city": "HILTON HEAD ISLAND", "beds": 44.0, "SR_15": 2.0}, {"Diff_star": 0.0, "addr": "255 MIDLAND PARKWAY", "SR_14": 3.0, "Q_14": 5.0, "name": "HALLMARK HEALTHCARE CENTER", "SF_14": 4.0, "SF_15": 4.0, "cnty": "Dorchester", "st": "SC", "Zip": 29485.0, "O_14": 5.0, "Q_15": 5.0, "O_15": 5.0, "city": "SUMMERVILLE", "beds": 88.0, "SR_15": 3.0}, {"Diff_star": -1.0, "addr": "2600 ELMS PLANTATION BLVD", "SR_14": 1.0, "Q_14": 3.0, "name": "LIFE CARE CENTER OF CHARLESTON", "SF_14": 4.0, "SF_15": 3.0, "cnty": "Charleston", "st": "SC", "Zip": 29406.0, "O_14": 2.0, "Q_15": 2.0, "O_15": 1.0, "city": "N CHARLESTON", "beds": 148.0, "SR_15": 1.0}, {"Diff_star": -1.0, "addr": "2993 SUNSET BLVD", "SR_14": 4.0, "Q_14": 5.0, "name": "NHC HEALTHCARE - LEXINGTON", "SF_14": 3.0, "SF_15": 3.0, "cnty": "Lexington", "st": "SC", "Zip": 29169.0, "O_14": 5.0, "Q_15": 4.0, "O_15": 4.0, "city": "WEST COLUMBIA", "beds": 120.0, "SR_15": 4.0}, {"Diff_star": 0.0, "addr": "ONE MARTHA FRANKS DRIVE", "SR_14": 2.0, "Q_14": 3.0, "name": "MARTHA FRANKS BAPTIST RETIREMENT CENTER", "SF_14": 4.0, "SF_15": 4.0, "cnty": "Laurens", "st": "SC", "Zip": 29360.0, "O_14": 3.0, "Q_15": 2.0, "O_15": 3.0, "city": "LAURENS", "beds": 88.0, "SR_15": 2.0}, {"Diff_star": -1.0, "addr": "2514 FARAWAY DRIVE", "SR_14": 1.0, "Q_14": 5.0, "name": "LIFE CARE CENTER OF COLUMBIA", "SF_14": 3.0, "SF_15": 3.0, "cnty": "Richland", "st": "SC", "Zip": 29223.0, "O_14": 2.0, "Q_15": 4.0, "O_15": 1.0, "city": "COLUMBIA", "beds": 179.0, "SR_15": 1.0}, {"Diff_star": -1.0, "addr": "1330 TAYLOR AT MARION STREET", "SR_14": 4.0, "Q_14": 3.0, "name": "BMC SUBACUTE REHAB CENTER", "SF_14": "", "SF_15": "", "cnty": "Richland", "st": "SC", "Zip": 29203.0, "O_14": 4.0, "Q_15": 1.0, "O_15": 3.0, "city": "COLUMBIA", "beds": 22.0, "SR_15": 4.0}, {"Diff_star": 0.0, "addr": "1038 MCGILL LANE", "SR_14": 4.0, "Q_14": 4.0, "name": "LAKE MOULTRIE NURSING HOME", "SF_14": 4.0, "SF_15": 3.0, "cnty": "Berkeley", "st": "SC", "Zip": 29479.0, "O_14": 4.0, "Q_15": 2.0, "O_15": 4.0, "city": "SAINT STEPHEN", "beds": 88.0, "SR_15": 4.0}, {"Diff_star": 0.0, "addr": "129 N WASHINGTON ST", "SR_14": 5.0, "Q_14": 3.0, "name": "TUOMEY REG MED CTR SUBACUTE SC", "SF_14": 5.0, "SF_15": 5.0, "cnty": "Sumter", "st": "SC", "Zip": 29150.0, "O_14": 5.0, "Q_15": 4.0, "O_15": 5.0, "city": "SUMTER", "beds": 18.0, "SR_15": 5.0}, {"Diff_star": 0.0, "addr": "801 LEMON GRASS COURT", "SR_14": 3.0, "Q_14": 4.0, "name": "BROAD CREEK CARE CENTER", "SF_14": 5.0, "SF_15": 5.0, "cnty": "Beaufort", "st": "SC", "Zip": 29928.0, "O_14": 4.0, "Q_15": 4.0, "O_15": 4.0, "city": "HILTON HEAD ISLAND", "beds": 25.0, "SR_15": 3.0}, {"Diff_star": 0.0, "addr": "7601 PARKLANE ROAD", "SR_14": 5.0, "Q_14": 5.0, "name": "NHC HEALTHCARE - PARKLANE", "SF_14": 4.0, "SF_15": 4.0, "cnty": "Richland", "st": "SC", "Zip": 29223.0, "O_14": 5.0, "Q_15": 5.0, "O_15": 5.0, "city": "COLUMBIA", "beds": 99.0, "SR_15": 5.0}, {"Diff_star": 0.0, "addr": "800 WEST MEETING STREET", "SR_14": 5.0, "Q_14": 1.0, "name": "SPRINGS MEMORIAL HOSPITAL TCU", "SF_14": 5.0, "SF_15": 5.0, "cnty": "Lancaster", "st": "SC", "Zip": 29720.0, "O_14": 4.0, "Q_15": 1.0, "O_15": 4.0, "city": "LANCASTER", "beds": 14.0, "SR_15": 5.0}, {"Diff_star": 0.0, "addr": "850 E. BUTLER RD.", "SR_14": 5.0, "Q_14": 5.0, "name": "NHC HEALTHCARE - MAULDIN", "SF_14": 3.0, "SF_15": 3.0, "cnty": "Greenville", "st": "SC", "Zip": 29607.0, "O_14": 5.0, "Q_15": 5.0, "O_15": 5.0, "city": "GREENVILLE", "beds": 180.0, "SR_15": 5.0}, {"Diff_star": -1.0, "addr": "2200 HARDEN STREET", "SR_14": 2.0, "Q_14": 5.0, "name": "C M TUCKER NURSING CARE CENTER / RODDEY", "SF_14": 4.0, "SF_15": 4.0, "cnty": "Richland", "st": "SC", "Zip": 29203.0, "O_14": 4.0, "Q_15": 4.0, "O_15": 3.0, "city": "COLUMBIA", "beds": 308.0, "SR_15": 2.0}, {"Diff_star": 0.0, "addr": "35 SOUTHPOINT DRIVE", "SR_14": 2.0, "Q_14": 4.0, "name": "MAGNOLIA PLACE - GREENVILLE", "SF_14": 4.0, "SF_15": 4.0, "cnty": "Greenville", "st": "SC", "Zip": 29607.0, "O_14": 3.0, "Q_15": 2.0, "O_15": 3.0, "city": "GREENVILLE", "beds": 120.0, "SR_15": 2.0}, {"Diff_star": 0.0, "addr": "1137 SAM RITTENBURG BLVD", "SR_14": 3.0, "Q_14": 5.0, "name": "HEARTLAND OF WEST ASHLEY REHAB AND NURSING CENTER", "SF_14": 3.0, "SF_15": 3.0, "cnty": "Charleston", "st": "SC", "Zip": 29407.0, "O_14": 4.0, "Q_15": 5.0, "O_15": 4.0, "city": "CHARLESTON", "beds": 125.0, "SR_15": 3.0}, {"Diff_star": 0.0, "addr": "3647 MAYBANK HIGHWAY", "SR_14": 4.0, "Q_14": 5.0, "name": "HARVEST HEALTH & REHAB OF JOHNS ISLAND", "SF_14": 2.0, "SF_15": 2.0, "cnty": "Charleston", "st": "SC", "Zip": 29455.0, "O_14": 5.0, "Q_15": 5.0, "O_15": 5.0, "city": "JOHNS ISLAND", "beds": 132.0, "SR_15": 4.0}, {"Diff_star": 0.0, "addr": "22725 HIGHWAY 76 EAST", "SR_14": 3.0, "Q_14": 5.0, "name": "GHS LAURENS COUNTY MEMORIAL SUBACUTE UNIT", "SF_14": "", "SF_15": "", "cnty": "Laurens", "st": "SC", "Zip": 29325.0, "O_14": 4.0, "Q_15": 5.0, "O_15": 4.0, "city": "CLINTON", "beds": 14.0, "SR_15": 3.0}, {"Diff_star": 0.0, "addr": "1645 RIDGE ROAD", "SR_14": 2.0, "Q_14": 5.0, "name": "COUNTRYWOOD NURSING CENTER, LLC", "SF_14": 4.0, "SF_15": 4.0, "cnty": "Richland", "st": "SC", "Zip": 29061.0, "O_14": 4.0, "Q_15": 5.0, "O_15": 4.0, "city": "HOPKINS", "beds": 38.0, "SR_15": 2.0}, {"Diff_star": 0.0, "addr": "157 HOME AVENUE", "SR_14": 2.0, "Q_14": 4.0, "name": "BETHEA BAPTIST HEALTHCARE CENTER", "SF_14": 4.0, "SF_15": 4.0, "cnty": "Darlington", "st": "SC", "Zip": 29532.0, "O_14": 3.0, "Q_15": 2.0, "O_15": 3.0, "city": "DARLINGTON", "beds": 88.0, "SR_15": 2.0}, {"Diff_star": 0.0, "addr": "1306 PELHAM RD", "SR_14": 5.0, "Q_14": 5.0, "name": "EMERITUS AT GREENVILLE", "SF_14": 4.0, "SF_15": 3.0, "cnty": "Greenville", "st": "SC", "Zip": 29615.0, "O_14": 5.0, "Q_15": 4.0, "O_15": 5.0, "city": "GREENVILLE", "beds": 45.0, "SR_15": 5.0}, {"Diff_star": 0.0, "addr": "1885 RIFLE RANGE ROAD", "SR_14": 3.0, "Q_14": 5.0, "name": "FRANKE HEALTH CARE CENTER", "SF_14": 4.0, "SF_15": 4.0, "cnty": "Charleston", "st": "SC", "Zip": 29464.0, "O_14": 5.0, "Q_15": 5.0, "O_15": 5.0, "city": "MOUNT PLEASANT", "beds": 44.0, "SR_15": 3.0}, {"Diff_star": 0.0, "addr": "3025 CHESBROUGH BLVD", "SR_14": 4.0, "Q_14": 5.0, "name": "WILLOW BROOK COURT AT PARK POINTE VILLAGE", "SF_14": 4.0, "SF_15": 4.0, "cnty": "York", "st": "SC", "Zip": 29732.0, "O_14": 5.0, "Q_15": 5.0, "O_15": 5.0, "city": "ROCK HILL", "beds": 40.0, "SR_15": 4.0}, {"Diff_star": 0.0, "addr": "200 FORTRESS DRIVE", "SR_14": 2.0, "Q_14": 1.0, "name": "ROSECREST REHABILITATION AND HEALTHCARE CENTER", "SF_14": 5.0, "SF_15": 5.0, "cnty": "Spartanburg", "st": "SC", "Zip": 29349.0, "O_14": 2.0, "Q_15": 1.0, "O_15": 2.0, "city": "INMAN", "beds": 75.0, "SR_15": 2.0}, {"Diff_star": -1.0, "addr": "300 AGAPE DRIVE", "SR_14": 1.0, "Q_14": 2.0, "name": "AGAPE NURSING & REHAB CENTER", "SF_14": 4.0, "SF_15": 4.0, "cnty": "Lexington", "st": "SC", "Zip": 29169.0, "O_14": 2.0, "Q_15": 1.0, "O_15": 1.0, "city": "WEST COLUMBIA", "beds": 100.0, "SR_15": 1.0}, {"Diff_star": -1.0, "addr": "120 LAKES AT LITCHFIELD DRIVE", "SR_14": 2.0, "Q_14": 4.0, "name": "THE LAKES AT LITCHFIELD SNF", "SF_14": 5.0, "SF_15": 5.0, "cnty": "Georgetown", "st": "SC", "Zip": 29585.0, "O_14": 3.0, "Q_15": 1.0, "O_15": 2.0, "city": "PAWLEYS ISLAND", "beds": 17.0, "SR_15": 2.0}, {"Diff_star": -1.0, "addr": "2230 ASHLEY CROSSING DRIVE", "SR_14": 4.0, "Q_14": 5.0, "name": "NHC HEALTH CARE,  CHARLESTON", "SF_14": 4.0, "SF_15": 4.0, "cnty": "Charleston", "st": "SC", "Zip": 29414.0, "O_14": 5.0, "Q_15": 4.0, "O_15": 4.0, "city": "CHARLESTON", "beds": 88.0, "SR_15": 4.0}, {"Diff_star": 0.0, "addr": "5001 LITTLE RIVER ROAD", "SR_14": 3.0, "Q_14": 5.0, "name": "COVENANT TOWERS HEALTHCARE CENTER", "SF_14": 5.0, "SF_15": 5.0, "cnty": "Horry", "st": "SC", "Zip": 29577.0, "O_14": 5.0, "Q_15": 5.0, "O_15": 5.0, "city": "MYRTLE BEACH", "beds": 30.0, "SR_15": 3.0}, {"Diff_star": -1.0, "addr": "701 GROVE RD.", "SR_14": 3.0, "Q_14": 2.0, "name": "GHS GREENVILLE  MEDICAL CENTER SUBACUTE UNIT", "SF_14": 5.0, "SF_15": 5.0, "cnty": "Greenville", "st": "SC", "Zip": 29605.0, "O_14": 4.0, "Q_15": 1.0, "O_15": 3.0, "city": "GREENVILLE", "beds": 15.0, "SR_15": 3.0}, {"Diff_star": 0.0, "addr": "389 SERPENTINE DRIVE", "SR_14": 4.0, "Q_14": 3.0, "name": "SPARTANBURG HOSPITAL FOR RESTORATIVE CARE SNF", "SF_14": 5.0, "SF_15": 5.0, "cnty": "Spartanburg", "st": "SC", "Zip": 29303.0, "O_14": 5.0, "Q_15": 3.0, "O_15": 5.0, "city": "SPARTANBURG", "beds": 25.0, "SR_15": 4.0}, {"Diff_star": 1.0, "addr": "1215 WILDEWOOD DOWNS CIRCLE", "SR_14": 2.0, "Q_14": 5.0, "name": "WILDEWOOD DOWNS NURSING AND REHABILITATION CENTER", "SF_14": "", "SF_15": 4.0, "cnty": "Richland", "st": "SC", "Zip": 29223.0, "O_14": 3.0, "Q_15": 5.0, "O_15": 4.0, "city": "COLUMBIA", "beds": 32.0, "SR_15": 2.0}, {"Diff_star": 0.0, "addr": "2461 SIDNEY ROAD", "SR_14": 4.0, "Q_14": 4.0, "name": "VETERANS VICTORY HOUSE", "SF_14": 4.0, "SF_15": 4.0, "cnty": "Colleton", "st": "SC", "Zip": 29488.0, "O_14": 4.0, "Q_15": 3.0, "O_15": 4.0, "city": "WALTERBORO", "beds": 220.0, "SR_15": 4.0}, {"Diff_star": 0.0, "addr": "100 FINLEY ROAD", "SR_14": 2.0, "Q_14": 4.0, "name": "RICE NURSING HOME", "SF_14": 4.0, "SF_15": 4.0, "cnty": "Richland", "st": "SC", "Zip": 29203.0, "O_14": 3.0, "Q_15": 4.0, "O_15": 3.0, "city": "COLUMBIA", "beds": 36.0, "SR_15": 2.0}, {"Diff_star": -1.0, "addr": "1530 PARKWAY", "SR_14": 2.0, "Q_14": 2.0, "name": "GREENWOOD TRANSITIONAL REHABILITATION UNIT", "SF_14": "", "SF_15": "", "cnty": "Greenwood", "st": "SC", "Zip": 29646.0, "O_14": 2.0, "Q_15": 1.0, "O_15": 1.0, "city": "GREENWOOD", "beds": 12.0, "SR_15": 2.0}, {"Diff_star": -1.0, "addr": "201 W 9TH NORTH STREET", "SR_14": 2.0, "Q_14": 5.0, "name": "PRESBYTERIAN HOME OF SC - SUMMERVILLE", "SF_14": 5.0, "SF_15": 5.0, "cnty": "Dorchester", "st": "SC", "Zip": 29483.0, "O_14": 4.0, "Q_15": 4.0, "O_15": 3.0, "city": "SUMMERVILLE", "beds": 48.0, "SR_15": 2.0}, {"Diff_star": 0.0, "addr": "110 SUMMIT HILLS DRIVE", "SR_14": 1.0, "Q_14": 5.0, "name": "SUMMIT HILLS SKILLED NURSING FACILITY", "SF_14": "", "SF_15": "", "cnty": "Spartanburg", "st": "SC", "Zip": 29307.0, "O_14": 2.0, "Q_15": 5.0, "O_15": 2.0, "city": "SPARTANBURG", "beds": 27.0, "SR_15": 1.0}, {"Diff_star": 0.0, "addr": "2320 HIGHWAY 378", "SR_14": 1.0, "Q_14": 4.0, "name": "AGAPE REHABILITATION OF CONWAY", "SF_14": 4.0, "SF_15": 4.0, "cnty": "Horry", "st": "SC", "Zip": 29527.0, "O_14": 2.0, "Q_15": 3.0, "O_15": 2.0, "city": "CONWAY", "beds": 95.0, "SR_15": 1.0}, {"Diff_star": 0.0, "addr": "30 SPRINGCREST COURT", "SR_14": 2.0, "Q_14": 5.0, "name": "LINVILLE COURT AT THE CASCADES VERDAE", "SF_14": 4.0, "SF_15": 4.0, "cnty": "Greenville", "st": "SC", "Zip": 29607.0, "O_14": 4.0, "Q_15": 5.0, "O_15": 4.0, "city": "GREENVILLE", "beds": 44.0, "SR_15": 2.0}, {"Diff_star": 0.0, "addr": "801 MUSGROVE STREET", "SR_14": 3.0, "Q_14": 5.0, "name": "PRESBYTERIAN HOME OF SC - CLINTON", "SF_14": 5.0, "SF_15": 5.0, "cnty": "Laurens", "st": "SC", "Zip": 29325.0, "O_14": 5.0, "Q_15": 5.0, "O_15": 5.0, "city": "CLINTON", "beds": 18.0, "SR_15": 3.0}, {"Diff_star": 0.0, "addr": "50 ARBORTEUM WAY", "SR_14": 3.0, "Q_14": 4.0, "name": "THE ARBORETUM AT THE WOODLANDS", "SF_14": 5.0, "SF_15": 5.0, "cnty": "Greenville", "st": "SC", "Zip": 29617.0, "O_14": 4.0, "Q_15": 4.0, "O_15": 4.0, "city": "GREENVILLE", "beds": 30.0, "SR_15": 3.0}, {"Diff_star": 0.0, "addr": "171 BRIGHTWATER DRIVE", "SR_14": 1.0, "Q_14": 5.0, "name": "THE RETREAT AT BRIGHTWATER", "SF_14": 4.0, "SF_15": 4.0, "cnty": "Horry", "st": "SC", "Zip": 29579.0, "O_14": 2.0, "Q_15": 3.0, "O_15": 2.0, "city": "MYRTLE BEACH", "beds": 67.0, "SR_15": 1.0}, {"Diff_star": 0.0, "addr": "700 DAVEGA DRIVE", "SR_14": 2.0, "Q_14": 5.0, "name": "PRESBYTERIAN HOME OF SC - COLUMBIA", "SF_14": 5.0, "SF_15": 5.0, "cnty": "Lexington", "st": "SC", "Zip": 29073.0, "O_14": 4.0, "Q_15": 5.0, "O_15": 4.0, "city": "LEXINGTON", "beds": 22.0, "SR_15": 2.0}, {"Diff_star": 1.0, "addr": "3039 OKATIE HIGHWAY", "SR_14": 4.0, "Q_14": 4.0, "name": "NHC HEALTHCARE - BLUFFTON", "SF_14": 4.0, "SF_15": 4.0, "cnty": "Beaufort", "st": "SC", "Zip": 29910.0, "O_14": 4.0, "Q_15": 3.0, "O_15": 5.0, "city": "BLUFFTON", "beds": 120.0, "SR_15": 5.0}, {"Diff_star": 0.0, "addr": "311 SIMPSON RD", "SR_14": 4.0, "Q_14": 5.0, "name": "EMERITUS AT ANDERSON PLACE HEALTH CARE CENTER", "SF_14": 4.0, "SF_15": 4.0, "cnty": "Anderson", "st": "SC", "Zip": 29621.0, "O_14": 5.0, "Q_15": 5.0, "O_15": 5.0, "city": "ANDERSON", "beds": 44.0, "SR_15": 4.0}, {"Diff_star": 0.0, "addr": "1075 HEATHER GREEN DRIVE", "SR_14": 1.0, "Q_14": 5.0, "name": "PRUITTHEALTH-BLYTHEWOOD", "SF_14": 4.0, "SF_15": 3.0, "cnty": "Richland", "st": "SC", "Zip": 29229.0, "O_14": 2.0, "Q_15": 5.0, "O_15": 2.0, "city": "COLUMBIA", "beds": 120.0, "SR_15": 1.0}, {"Diff_star": 0.0, "addr": "1 STILL HOPES DRIVE", "SR_14": 4.0, "Q_14": 5.0, "name": "STILL HOPES EPISCOPAL RETIREMENT COMMUNITY", "SF_14": "", "SF_15": "", "cnty": "Lexington", "st": "SC", "Zip": 29169.0, "O_14": 5.0, "Q_15": 5.0, "O_15": 5.0, "city": "WEST COLUMBIA", "beds": 22.0, "SR_15": 4.0}, {"Diff_star": 0.0, "addr": "2825 CARTER ROAD", "SR_14": 3.0, "Q_14": 2.0, "name": "COVENANT PLACE NURSING CENTER", "SF_14": 5.0, "SF_15": 5.0, "cnty": "Sumter", "st": "SC", "Zip": 29150.0, "O_14": 4.0, "Q_15": 2.0, "O_15": 4.0, "city": "SUMTER", "beds": 28.0, "SR_15": 3.0}, {"Diff_star": -1.0, "addr": "205 BUD NALLEY DRIVE", "SR_14": 3.0, "Q_14": 5.0, "name": "PRESBYTERIAN HOME OF SC - FOOTHILLS", "SF_14": 5.0, "SF_15": 5.0, "cnty": "Pickens", "st": "SC", "Zip": 29642.0, "O_14": 5.0, "Q_15": 4.0, "O_15": 4.0, "city": "EASLEY", "beds": 22.0, "SR_15": 3.0}, {"Diff_star": 0.0, "addr": "1010 LAKE HUNTER CIRCLE", "SR_14": 2.0, "Q_14": 4.0, "name": "SAVANNAH GRACE AT THE PALMS OF MT PLEASANT", "SF_14": 5.0, "SF_15": 5.0, "cnty": "Charleston", "st": "SC", "Zip": 29464.0, "O_14": 3.0, "Q_15": 2.0, "O_15": 3.0, "city": "MOUNT PLEASANT", "beds": 42.0, "SR_15": 2.0}, {"Diff_star": -1.0, "addr": "1200 HOSPITAL DR 2ND FL", "SR_14": 1.0, "Q_14": 4.0, "name": "VIBRA HOSPITAL OF CHARLESTON -TCU", "SF_14": 5.0, "SF_15": 5.0, "cnty": "Charleston", "st": "SC", "Zip": 29464.0, "O_14": 2.0, "Q_15": 1.0, "O_15": 1.0, "city": "MOUNT PLEASANT", "beds": 35.0, "SR_15": 1.0}]