[{"Diff_star": -1.0, "addr": "400 8TH AVENUE NW", "SR_14": 1.0, "Q_14": 5.0, "name": "MANORCARE HEALTH SERVICES", "SF_14": 3.0, "SF_15": 3.0, "cnty": "Brown", "st": "SD", "Zip": 57401.0, "O_14": 2.0, "Q_15": 4.0, "O_15": 1.0, "city": "ABERDEEN", "beds": 99.0, "SR_15": 1.0}, {"Diff_star": 0.0, "addr": "1103 SOUTH SECOND STREET", "SR_14": 4.0, "Q_14": 4.0, "name": "GOLDEN LIVINGCENTER - MILBANK", "SF_14": 3.0, "SF_15": 3.0, "cnty": "Grant", "st": "SD", "Zip": 57252.0, "O_14": 4.0, "Q_15": 2.0, "O_15": 4.0, "city": "MILBANK", "beds": 58.0, "SR_15": 4.0}, {"Diff_star": -1.0, "addr": "1345 MICHIGAN AVENUE SW", "SR_14": 3.0, "Q_14": 4.0, "name": "SUNQUEST HEALTHCARE CENTER", "SF_14": 4.0, "SF_15": 3.0, "cnty": "Beadle", "st": "SD", "Zip": 57350.0, "O_14": 4.0, "Q_15": 4.0, "O_15": 3.0, "city": "HURON", "beds": 140.0, "SR_15": 3.0}, {"Diff_star": 0.0, "addr": "300 PARK STREET   POST OFFICE BOX 408", "SR_14": 3.0, "Q_14": 4.0, "name": "AVERA ROSEBUD COUNTRY CARE CENTER", "SF_14": 4.0, "SF_15": 4.0, "cnty": "Gregory", "st": "SD", "Zip": 57533.0, "O_14": 4.0, "Q_15": 3.0, "O_15": 4.0, "city": "GREGORY", "beds": 42.0, "SR_15": 3.0}, {"Diff_star": -1.0, "addr": "3900 S CATHY AVE", "SR_14": 1.0, "Q_14": 3.0, "name": "GOLDEN LIVINGCENTER - COVINGTON HEIGHTS", "SF_14": 4.0, "SF_15": 3.0, "cnty": "Minnehaha", "st": "SD", "Zip": 57106.0, "O_14": 2.0, "Q_15": 2.0, "O_15": 1.0, "city": "SIOUX FALLS", "beds": 109.0, "SR_15": 1.0}, {"Diff_star": 0.0, "addr": "1065 MONTGOMERY ST", "SR_14": 1.0, "Q_14": 5.0, "name": "CUSTER REGIONAL SENIOR CARE", "SF_14": 3.0, "SF_15": 4.0, "cnty": "Custer", "st": "SD", "Zip": 57730.0, "O_14": 2.0, "Q_15": 5.0, "O_15": 2.0, "city": "CUSTER", "beds": 76.0, "SR_15": 1.0}, {"Diff_star": 0.0, "addr": "255 TEXAS ST", "SR_14": 4.0, "Q_14": 4.0, "name": "WESTHILLS VILLAGE HEALTH CARE FACILITY", "SF_14": 5.0, "SF_15": 5.0, "cnty": "Pennington", "st": "SD", "Zip": 57701.0, "O_14": 5.0, "Q_15": 2.0, "O_15": 5.0, "city": "RAPID CITY", "beds": 44.0, "SR_15": 4.0}, {"Diff_star": 0.0, "addr": "717 EAST DAKOTA", "SR_14": 1.0, "Q_14": 5.0, "name": "AVERA MARYHOUSE LONG TERM CARE", "SF_14": 5.0, "SF_15": 5.0, "cnty": "Hughes", "st": "SD", "Zip": 57501.0, "O_14": 2.0, "Q_15": 5.0, "O_15": 2.0, "city": "PIERRE", "beds": 80.0, "SR_15": 1.0}, {"Diff_star": 1.0, "addr": "2200 13TH AVE", "SR_14": 1.0, "Q_14": 4.0, "name": "BELLE FOURCHE HEALTHCARE COMMUNITY", "SF_14": 2.0, "SF_15": 2.0, "cnty": "Butte", "st": "SD", "Zip": 57717.0, "O_14": 1.0, "Q_15": 5.0, "O_15": 2.0, "city": "BELLE FOURCHE", "beds": 83.0, "SR_15": 1.0}, {"Diff_star": 0.0, "addr": "215 SOUTH MAPLE STREET", "SR_14": 2.0, "Q_14": 4.0, "name": "JENKINS LIVING CENTER", "SF_14": 4.0, "SF_15": 4.0, "cnty": "Codington", "st": "SD", "Zip": 57201.0, "O_14": 3.0, "Q_15": 2.0, "O_15": 3.0, "city": "WATERTOWN", "beds": 162.0, "SR_15": 2.0}, {"Diff_star": 0.0, "addr": "1015 MT VIEW RD", "SR_14": 1.0, "Q_14": 4.0, "name": "CLARKSON HEALTH CARE", "SF_14": 5.0, "SF_15": 5.0, "cnty": "Pennington", "st": "SD", "Zip": 57702.0, "O_14": 2.0, "Q_15": 3.0, "O_15": 2.0, "city": "RAPID CITY", "beds": 52.0, "SR_15": 1.0}, {"Diff_star": -2.0, "addr": "6 E CHESTNUT", "SR_14": 2.0, "Q_14": 5.0, "name": "TEKAKWITHA NURSING CENTER", "SF_14": 4.0, "SF_15": 3.0, "cnty": "Roberts", "st": "SD", "Zip": 57262.0, "O_14": 4.0, "Q_15": 3.0, "O_15": 2.0, "city": "SISSETON", "beds": 62.0, "SR_15": 2.0}, {"Diff_star": 0.0, "addr": "3600 SOUTH NORTON AVENUE", "SR_14": 1.0, "Q_14": 3.0, "name": "SOUTHRIDGE HEALTH CARE CENTER", "SF_14": 3.0, "SF_15": 3.0, "cnty": "Minnehaha", "st": "SD", "Zip": 57105.0, "O_14": 1.0, "Q_15": 2.0, "O_15": 1.0, "city": "SIOUX FALLS", "beds": 110.0, "SR_15": 1.0}, {"Diff_star": 0.0, "addr": "916 MOUNTAIN VIEW ROAD", "SR_14": 1.0, "Q_14": 3.0, "name": "GOLDEN LIVINGCENTER - PRAIRIE HILLS", "SF_14": 3.0, "SF_15": 3.0, "cnty": "Pennington", "st": "SD", "Zip": 57702.0, "O_14": 1.0, "Q_15": 1.0, "O_15": 1.0, "city": "RAPID CITY", "beds": 99.0, "SR_15": 1.0}, {"Diff_star": -1.0, "addr": "1700 NORTH HIGHWAY 281", "SR_14": 1.0, "Q_14": 3.0, "name": "ABERDEEN HEALTH AND REHAB", "SF_14": 4.0, "SF_15": 3.0, "cnty": "Brown", "st": "SD", "Zip": 57401.0, "O_14": 2.0, "Q_15": 1.0, "O_15": 1.0, "city": "ABERDEEN", "beds": 95.0, "SR_15": 1.0}, {"Diff_star": 0.0, "addr": "1002 NORTH JAY STREET", "SR_14": 2.0, "Q_14": 4.0, "name": "AVERA MOTHER JOSEPH MANOR RETIREMENT COMMUNITY", "SF_14": 4.0, "SF_15": 4.0, "cnty": "Brown", "st": "SD", "Zip": 57401.0, "O_14": 3.0, "Q_15": 2.0, "O_15": 3.0, "city": "ABERDEEN", "beds": 81.0, "SR_15": 2.0}, {"Diff_star": -1.0, "addr": "1020 N 10TH STREET", "SR_14": 4.0, "Q_14": 5.0, "name": "DAVID M DORSETT HEALTHCARE COMMUNITY", "SF_14": 2.0, "SF_15": 2.0, "cnty": "Lawrence", "st": "SD", "Zip": 57783.0, "O_14": 5.0, "Q_15": 4.0, "O_15": 4.0, "city": "SPEARFISH", "beds": 100.0, "SR_15": 4.0}, {"Diff_star": 0.0, "addr": "1500 W 38TH ST", "SR_14": 1.0, "Q_14": 3.0, "name": "GOOD SAMARITAN SOCIETY LUTHER MANOR", "SF_14": 4.0, "SF_15": 4.0, "cnty": "Minnehaha", "st": "SD", "Zip": 57105.0, "O_14": 2.0, "Q_15": 3.0, "O_15": 2.0, "city": "SIOUX FALLS", "beds": 92.0, "SR_15": 1.0}, {"Diff_star": 0.0, "addr": "3901 S MARION RD", "SR_14": 2.0, "Q_14": 4.0, "name": "GOOD SAMARITAN SOCIETY SIOUX FALLS VILLAGE", "SF_14": 4.0, "SF_15": 4.0, "cnty": "Minnehaha", "st": "SD", "Zip": 57106.0, "O_14": 3.0, "Q_15": 3.0, "O_15": 3.0, "city": "SIOUX FALLS", "beds": 188.0, "SR_15": 2.0}, {"Diff_star": 1.0, "addr": "401 WEST SECOND STREET", "SR_14": 1.0, "Q_14": 4.0, "name": "GOOD SAMARITAN SOCIETY SIOUX FALLS CENTER", "SF_14": 4.0, "SF_15": 4.0, "cnty": "Minnehaha", "st": "SD", "Zip": 57104.0, "O_14": 2.0, "Q_15": 3.0, "O_15": 3.0, "city": "SIOUX FALLS", "beds": 98.0, "SR_15": 2.0}, {"Diff_star": 0.0, "addr": "950 EAST PARK STREET", "SR_14": 1.0, "Q_14": 4.0, "name": "GOLDEN LIVINGCENTER - PIERRE", "SF_14": 2.0, "SF_15": 2.0, "cnty": "Hughes", "st": "SD", "Zip": 57501.0, "O_14": 1.0, "Q_15": 2.0, "O_15": 1.0, "city": "PIERRE", "beds": 72.0, "SR_15": 1.0}, {"Diff_star": -1.0, "addr": "1106 NORTH SECOND STREET", "SR_14": 4.0, "Q_14": 5.0, "name": "GOLDEN LIVINGCENTER - GROTON", "SF_14": 4.0, "SF_15": 3.0, "cnty": "Brown", "st": "SD", "Zip": 57445.0, "O_14": 5.0, "Q_15": 3.0, "O_15": 4.0, "city": "GROTON", "beds": 50.0, "SR_15": 4.0}, {"Diff_star": -2.0, "addr": "500 COLONIAL DRIVE", "SR_14": 3.0, "Q_14": 2.0, "name": "GOLDEN LIVINGCENTER - SALEM", "SF_14": 2.0, "SF_15": 2.0, "cnty": "Mc Cook", "st": "SD", "Zip": 57058.0, "O_14": 3.0, "Q_15": 1.0, "O_15": 1.0, "city": "SALEM", "beds": 58.0, "SR_15": 1.0}, {"Diff_star": 0.0, "addr": "120 CARE CENTER ROAD  POST OFFICE BOX 280", "SR_14": 3.0, "Q_14": 5.0, "name": "GOLDEN LIVINGCENTER - ARLINGTON", "SF_14": "", "SF_15": "", "cnty": "Kingsbury", "st": "SD", "Zip": 57212.0, "O_14": 4.0, "Q_15": 5.0, "O_15": 4.0, "city": "ARLINGTON", "beds": 39.0, "SR_15": 3.0}, {"Diff_star": -1.0, "addr": "2500 ARROWHEAD DR", "SR_14": 3.0, "Q_14": 3.0, "name": "GOLDEN LIVINGCENTER - MEADOWBROOK", "SF_14": 4.0, "SF_15": 3.0, "cnty": "Pennington", "st": "SD", "Zip": 57702.0, "O_14": 4.0, "Q_15": 2.0, "O_15": 3.0, "city": "RAPID CITY", "beds": 68.0, "SR_15": 3.0}, {"Diff_star": 0.0, "addr": "1100 FOURTH AVENUE EAST  POST OFFICE BOX 937", "SR_14": 4.0, "Q_14": 4.0, "name": "GOLDEN LIVINGCENTER - MOBRIDGE", "SF_14": 2.0, "SF_15": 2.0, "cnty": "Walworth", "st": "SD", "Zip": 57601.0, "O_14": 4.0, "Q_15": 2.0, "O_15": 4.0, "city": "MOBRIDGE", "beds": 109.0, "SR_15": 4.0}, {"Diff_star": 0.0, "addr": "718 NE 8TH ST", "SR_14": 1.0, "Q_14": 5.0, "name": "GOLDEN LIVINGCENTER - MADISON", "SF_14": "", "SF_15": "", "cnty": "Lake", "st": "SD", "Zip": 57042.0, "O_14": 2.0, "Q_15": 5.0, "O_15": 2.0, "city": "MADISON", "beds": 61.0, "SR_15": 1.0}, {"Diff_star": 0.0, "addr": "1015 THIRD STREET EAST", "SR_14": 1.0, "Q_14": 4.0, "name": "GOLDEN LIVINGCENTER - REDFIELD", "SF_14": 3.0, "SF_15": 3.0, "cnty": "Spink", "st": "SD", "Zip": 57469.0, "O_14": 1.0, "Q_15": 2.0, "O_15": 1.0, "city": "REDFIELD", "beds": 62.0, "SR_15": 1.0}, {"Diff_star": -1.0, "addr": "617 BLOEMENDAAL DRIVE  POST OFFICE BOX 728", "SR_14": 2.0, "Q_14": 4.0, "name": "GOLDEN LIVINGCENTER - IPSWICH", "SF_14": 2.0, "SF_15": 2.0, "cnty": "Edmunds", "st": "SD", "Zip": 57451.0, "O_14": 2.0, "Q_15": 1.0, "O_15": 1.0, "city": "IPSWICH", "beds": 47.0, "SR_15": 2.0}, {"Diff_star": -1.0, "addr": "805 E 8TH ST", "SR_14": 3.0, "Q_14": 2.0, "name": "WINNER REGIONAL HEALTHCARE CENTER", "SF_14": 5.0, "SF_15": 5.0, "cnty": "Tripp", "st": "SD", "Zip": 57580.0, "O_14": 4.0, "Q_15": 1.0, "O_15": 3.0, "city": "WINNER", "beds": 80.0, "SR_15": 3.0}, {"Diff_star": -1.0, "addr": "106 BRADDOCK  POST OFFICE BOX 489", "SR_14": 4.0, "Q_14": 2.0, "name": "GOLDEN LIVINGCENTER - ARMOUR", "SF_14": 4.0, "SF_15": 3.0, "cnty": "Douglas", "st": "SD", "Zip": 57313.0, "O_14": 4.0, "Q_15": 1.0, "O_15": 3.0, "city": "ARMOUR", "beds": 43.0, "SR_15": 4.0}, {"Diff_star": 0.0, "addr": "201 8TH AVENUE NW", "SR_14": 3.0, "Q_14": 5.0, "name": "GOLDEN LIVINGCENTER - CLARK", "SF_14": 2.0, "SF_15": 2.0, "cnty": "Clark", "st": "SD", "Zip": 57225.0, "O_14": 4.0, "Q_15": 5.0, "O_15": 4.0, "city": "CLARK", "beds": 41.0, "SR_15": 3.0}, {"Diff_star": 0.0, "addr": "803 PARK STREET   POST OFFICE BOX 139", "SR_14": 5.0, "Q_14": 5.0, "name": "GOLDEN LIVINGCENTER - LAKE NORDEN", "SF_14": 2.0, "SF_15": 2.0, "cnty": "Hamlin", "st": "SD", "Zip": 57248.0, "O_14": 5.0, "Q_15": 5.0, "O_15": 5.0, "city": "LAKE NORDEN", "beds": 50.0, "SR_15": 5.0}, {"Diff_star": 0.0, "addr": "302 ST CLOUD STREET", "SR_14": 3.0, "Q_14": 4.0, "name": "GOLDEN LIVINGCENTER - BELLA VISTA", "SF_14": 2.0, "SF_15": 2.0, "cnty": "Pennington", "st": "SD", "Zip": 57701.0, "O_14": 3.0, "Q_15": 2.0, "O_15": 3.0, "city": "RAPID CITY", "beds": 70.0, "SR_15": 3.0}, {"Diff_star": 0.0, "addr": "500 S OHLMAN", "SR_14": 4.0, "Q_14": 5.0, "name": "AVERA BRADY HEALTH AND REHAB", "SF_14": 4.0, "SF_15": 4.0, "cnty": "Davison", "st": "SD", "Zip": 57301.0, "O_14": 5.0, "Q_15": 5.0, "O_15": 5.0, "city": "MITCHELL", "beds": 84.0, "SR_15": 4.0}, {"Diff_star": 0.0, "addr": "101 CHURCH STREET  POST OFFICE BOX 500", "SR_14": 2.0, "Q_14": 5.0, "name": "MORNINGSIDE MANOR", "SF_14": 4.0, "SF_15": 4.0, "cnty": "Union", "st": "SD", "Zip": 57001.0, "O_14": 4.0, "Q_15": 5.0, "O_15": 4.0, "city": "ALCESTER", "beds": 50.0, "SR_15": 2.0}, {"Diff_star": 0.0, "addr": "1620 NORTH 7TH STREET", "SR_14": 3.0, "Q_14": 3.0, "name": "GOLDEN LIVINGCENTER - BLACK HILLS", "SF_14": 4.0, "SF_15": 4.0, "cnty": "Pennington", "st": "SD", "Zip": 57701.0, "O_14": 4.0, "Q_15": 2.0, "O_15": 4.0, "city": "RAPID CITY", "beds": 68.0, "SR_15": 3.0}, {"Diff_star": 0.0, "addr": "600 SOUTH FRANKLIN ST  POST OFFICE BOX 486", "SR_14": 4.0, "Q_14": 2.0, "name": "PRAIRIE ESTATES HEALTHCARE COMMUNITY", "SF_14": 2.0, "SF_15": 2.0, "cnty": "Union", "st": "SD", "Zip": 57025.0, "O_14": 4.0, "Q_15": 2.0, "O_15": 4.0, "city": "ELK POINT", "beds": 37.0, "SR_15": 4.0}, {"Diff_star": -1.0, "addr": "4500 PRINCE OF PEACE PLACE", "SR_14": 2.0, "Q_14": 2.0, "name": "AVERA PRINCE OF PEACE", "SF_14": 5.0, "SF_15": 5.0, "cnty": "Minnehaha", "st": "SD", "Zip": 57103.0, "O_14": 3.0, "Q_15": 1.0, "O_15": 2.0, "city": "SIOUX FALLS", "beds": 90.0, "SR_15": 2.0}, {"Diff_star": 0.0, "addr": "415 FOURTH AVE NE", "SR_14": 4.0, "Q_14": 4.0, "name": "GOLDEN LIVINGCENTER - WATERTOWN", "SF_14": 3.0, "SF_15": 3.0, "cnty": "Codington", "st": "SD", "Zip": 57201.0, "O_14": 4.0, "Q_15": 2.0, "O_15": 4.0, "city": "WATERTOWN", "beds": 51.0, "SR_15": 4.0}, {"Diff_star": 0.0, "addr": "312 EAST STATE ST", "SR_14": 3.0, "Q_14": 4.0, "name": "TIESZEN MEMORIAL HOME", "SF_14": 3.0, "SF_15": 3.0, "cnty": "Turner", "st": "SD", "Zip": 57043.0, "O_14": 3.0, "Q_15": 3.0, "O_15": 3.0, "city": "MARION", "beds": 64.0, "SR_15": 3.0}, {"Diff_star": -2.0, "addr": "2111 WEST 11TH STREET", "SR_14": 3.0, "Q_14": 5.0, "name": "AVERA SR JAMES CARE CENTER/AVERA YANKTON CARE CENT", "SF_14": 4.0, "SF_15": 3.0, "cnty": "Yankton", "st": "SD", "Zip": 57078.0, "O_14": 5.0, "Q_15": 3.0, "O_15": 3.0, "city": "YANKTON", "beds": 187.0, "SR_15": 3.0}, {"Diff_star": 0.0, "addr": "129 W HWY 12", "SR_14": 2.0, "Q_14": 3.0, "name": "BETHESDA HOME", "SF_14": 5.0, "SF_15": 5.0, "cnty": "Day", "st": "SD", "Zip": 57274.0, "O_14": 3.0, "Q_15": 2.0, "O_15": 3.0, "city": "WEBSTER", "beds": 50.0, "SR_15": 2.0}, {"Diff_star": 0.0, "addr": "209 N 16TH ST", "SR_14": 1.0, "Q_14": 4.0, "name": "CASTLE MANOR", "SF_14": 3.0, "SF_15": 3.0, "cnty": "Fall River", "st": "SD", "Zip": 57747.0, "O_14": 1.0, "Q_15": 2.0, "O_15": 1.0, "city": "HOT SPRINGS", "beds": 44.0, "SR_15": 1.0}, {"Diff_star": 0.0, "addr": "1224 S HIGH ST", "SR_14": 2.0, "Q_14": 4.0, "name": "BETHESDA HOME OF ABERDEEN", "SF_14": 4.0, "SF_15": 4.0, "cnty": "Brown", "st": "SD", "Zip": 57401.0, "O_14": 3.0, "Q_15": 3.0, "O_15": 3.0, "city": "ABERDEEN", "beds": 86.0, "SR_15": 2.0}, {"Diff_star": 0.0, "addr": "411 CALUMET AVENUE NW", "SR_14": 4.0, "Q_14": 5.0, "name": "GOOD SAMARITAN SOCIETY DE SMET", "SF_14": 3.0, "SF_15": 3.0, "cnty": "Kingsbury", "st": "SD", "Zip": 57231.0, "O_14": 5.0, "Q_15": 5.0, "O_15": 5.0, "city": "DE SMET", "beds": 46.0, "SR_15": 4.0}, {"Diff_star": 0.0, "addr": "300 WEST HAZEL AVENUE", "SR_14": 4.0, "Q_14": 4.0, "name": "GOOD SAMARITAN SOCIETY HOWARD", "SF_14": 4.0, "SF_15": 4.0, "cnty": "Miner", "st": "SD", "Zip": 57349.0, "O_14": 4.0, "Q_15": 4.0, "O_15": 4.0, "city": "HOWARD", "beds": 40.0, "SR_15": 4.0}, {"Diff_star": 0.0, "addr": "1001 S EGAN AVE", "SR_14": 4.0, "Q_14": 4.0, "name": "BETHEL LUTHERAN HOME", "SF_14": 4.0, "SF_15": 4.0, "cnty": "Lake", "st": "SD", "Zip": 57042.0, "O_14": 4.0, "Q_15": 2.0, "O_15": 4.0, "city": "MADISON", "beds": 59.0, "SR_15": 4.0}, {"Diff_star": -1.0, "addr": "303 W 6TH AVE POST OFFICE BOX 247", "SR_14": 2.0, "Q_14": 5.0, "name": "BRYANT PARKVIEW CARE CENTER", "SF_14": 4.0, "SF_15": 4.0, "cnty": "Hamlin", "st": "SD", "Zip": 57221.0, "O_14": 4.0, "Q_15": 3.0, "O_15": 3.0, "city": "BRYANT", "beds": 35.0, "SR_15": 2.0}, {"Diff_star": 0.0, "addr": "202 J AVENUE POST OFFICE BOX 40", "SR_14": 5.0, "Q_14": 3.0, "name": "AVERA EUREKA HEALTH CARE CENTER", "SF_14": 3.0, "SF_15": 3.0, "cnty": "Mc Pherson", "st": "SD", "Zip": 57437.0, "O_14": 5.0, "Q_15": 3.0, "O_15": 5.0, "city": "EUREKA", "beds": 56.0, "SR_15": 5.0}, {"Diff_star": -1.0, "addr": "405 FIRST AVE", "SR_14": 1.0, "Q_14": 2.0, "name": "UNITED RETIREMENT CENTER", "SF_14": 5.0, "SF_15": 5.0, "cnty": "Brookings", "st": "SD", "Zip": 57006.0, "O_14": 2.0, "Q_15": 1.0, "O_15": 1.0, "city": "BROOKINGS", "beds": 79.0, "SR_15": 1.0}, {"Diff_star": 0.0, "addr": "606 W CEDAR", "SR_14": 1.0, "Q_14": 4.0, "name": "BETHESDA OF BERESFORD", "SF_14": 3.0, "SF_15": 3.0, "cnty": "Union", "st": "SD", "Zip": 57004.0, "O_14": 1.0, "Q_15": 4.0, "O_15": 1.0, "city": "BERESFORD", "beds": 67.0, "SR_15": 1.0}, {"Diff_star": 0.0, "addr": "404 EAST 6TH AVENUE", "SR_14": 2.0, "Q_14": 5.0, "name": "GOOD SAMARITAN SOCIETY LENNOX", "SF_14": 2.0, "SF_15": 2.0, "cnty": "Lincoln", "st": "SD", "Zip": 57039.0, "O_14": 3.0, "Q_15": 5.0, "O_15": 3.0, "city": "LENNOX", "beds": 59.0, "SR_15": 2.0}, {"Diff_star": 0.0, "addr": "2421 YORKSHIRE DR", "SR_14": 3.0, "Q_14": 4.0, "name": "THE NEIGHBORHOODS AT BROOKVIEW", "SF_14": 5.0, "SF_15": 5.0, "cnty": "Brookings", "st": "SD", "Zip": 57006.0, "O_14": 4.0, "Q_15": 4.0, "O_15": 4.0, "city": "BROOKINGS", "beds": 79.0, "SR_15": 3.0}, {"Diff_star": 0.0, "addr": "1401 PEARL ST", "SR_14": 4.0, "Q_14": 5.0, "name": "FAULKTON SENIOR LIVING", "SF_14": 4.0, "SF_15": 4.0, "cnty": "Faulk", "st": "SD", "Zip": 57438.0, "O_14": 5.0, "Q_15": 5.0, "O_15": 5.0, "city": "FAULKTON", "beds": 46.0, "SR_15": 4.0}, {"Diff_star": 0.0, "addr": "611 EAST 2ND AVE", "SR_14": 3.0, "Q_14": 4.0, "name": "RIVERVIEW HEALTHCARE COMMUNITY", "SF_14": 4.0, "SF_15": 4.0, "cnty": "Moody", "st": "SD", "Zip": 57028.0, "O_14": 4.0, "Q_15": 3.0, "O_15": 4.0, "city": "FLANDREAU", "beds": 62.0, "SR_15": 3.0}, {"Diff_star": -1.0, "addr": "700 WEST MAIN ST", "SR_14": 1.0, "Q_14": 4.0, "name": "GOOD SAMARITAN SOCIETY CANISTOTA", "SF_14": 4.0, "SF_15": 4.0, "cnty": "Mc Cook", "st": "SD", "Zip": 57012.0, "O_14": 2.0, "Q_15": 1.0, "O_15": 1.0, "city": "CANISTOTA", "beds": 52.0, "SR_15": 1.0}, {"Diff_star": -1.0, "addr": "500 VERMILLION ST", "SR_14": 3.0, "Q_14": 5.0, "name": "CENTERVILLE CARE AND REHAB CENTER", "SF_14": 4.0, "SF_15": 4.0, "cnty": "Turner", "st": "SD", "Zip": 57014.0, "O_14": 5.0, "Q_15": 4.0, "O_15": 4.0, "city": "CENTERVILLE", "beds": 40.0, "SR_15": 3.0}, {"Diff_star": 0.0, "addr": "455 NORTH DAKOTA", "SR_14": 3.0, "Q_14": 5.0, "name": "GOOD SAMARITAN SOCIETY CORSICA", "SF_14": 4.0, "SF_15": 4.0, "cnty": "Douglas", "st": "SD", "Zip": 57328.0, "O_14": 5.0, "Q_15": 5.0, "O_15": 5.0, "city": "CORSICA", "beds": 52.0, "SR_15": 3.0}, {"Diff_star": 0.0, "addr": "405 6TH AVENUE WEST", "SR_14": 3.0, "Q_14": 5.0, "name": "FIVE COUNTIES NURSING HOME", "SF_14": 3.0, "SF_15": 3.0, "cnty": "Perkins", "st": "SD", "Zip": 57638.0, "O_14": 4.0, "Q_15": 5.0, "O_15": 4.0, "city": "LEMMON", "beds": 45.0, "SR_15": 3.0}, {"Diff_star": -2.0, "addr": "300 N DOBSON ST", "SR_14": 4.0, "Q_14": 5.0, "name": "GOOD SAMARITAN SOCIETY TRIPP", "SF_14": 3.0, "SF_15": 3.0, "cnty": "Hutchinson", "st": "SD", "Zip": 57376.0, "O_14": 5.0, "Q_15": 4.0, "O_15": 3.0, "city": "TRIPP", "beds": 44.0, "SR_15": 3.0}, {"Diff_star": 0.0, "addr": "410 8TH STREET SE", "SR_14": 2.0, "Q_14": 4.0, "name": "HIGHMORE HEALTH", "SF_14": 3.0, "SF_15": 3.0, "cnty": "Hyde", "st": "SD", "Zip": 57345.0, "O_14": 2.0, "Q_15": 2.0, "O_15": 2.0, "city": "HIGHMORE", "beds": 39.0, "SR_15": 2.0}, {"Diff_star": 0.0, "addr": "410 SECOND STREET POST OFFICE BOX 337", "SR_14": 3.0, "Q_14": 5.0, "name": "SUN DIAL MANOR", "SF_14": 5.0, "SF_15": 5.0, "cnty": "Day", "st": "SD", "Zip": 57219.0, "O_14": 5.0, "Q_15": 5.0, "O_15": 5.0, "city": "BRISTOL", "beds": 37.0, "SR_15": 3.0}, {"Diff_star": -1.0, "addr": "515 OHIO STREET", "SR_14": 3.0, "Q_14": 3.0, "name": "WAKONDA HERITAGE MANOR", "SF_14": 4.0, "SF_15": 4.0, "cnty": "Clay", "st": "SD", "Zip": 57073.0, "O_14": 4.0, "Q_15": 1.0, "O_15": 3.0, "city": "WAKONDA", "beds": 39.0, "SR_15": 3.0}, {"Diff_star": 0.0, "addr": "130 6TH STREET", "SR_14": 5.0, "Q_14": 4.0, "name": "GOOD SAMARITAN SOCIETY SCOTLAND", "SF_14": 4.0, "SF_15": 3.0, "cnty": "Bon Homme", "st": "SD", "Zip": 57059.0, "O_14": 5.0, "Q_15": 4.0, "O_15": 5.0, "city": "SCOTLAND", "beds": 36.0, "SR_15": 5.0}, {"Diff_star": 0.0, "addr": "1901 SOUTH HOLLY AVENUE", "SR_14": 3.0, "Q_14": 4.0, "name": "BETHANY HOME SIOUX FALLS", "SF_14": 4.0, "SF_15": 4.0, "cnty": "Minnehaha", "st": "SD", "Zip": 57105.0, "O_14": 4.0, "Q_15": 4.0, "O_15": 4.0, "city": "SIOUX FALLS", "beds": 52.0, "SR_15": 3.0}, {"Diff_star": 0.0, "addr": "740 EAST LAKE ST  POST OFFICE BOX 130", "SR_14": 3.0, "Q_14": 5.0, "name": "LAKE ANDES SENIOR LIVING", "SF_14": 3.0, "SF_15": 3.0, "cnty": "Charles Mix", "st": "SD", "Zip": 57356.0, "O_14": 4.0, "Q_15": 5.0, "O_15": 4.0, "city": "LAKE ANDES", "beds": 42.0, "SR_15": 3.0}, {"Diff_star": -1.0, "addr": "2304 LAUREL STREET", "SR_14": 2.0, "Q_14": 2.0, "name": "GOOD SAMARITAN SOCIETY TYNDALL", "SF_14": 4.0, "SF_15": 3.0, "cnty": "Bon Homme", "st": "SD", "Zip": 57066.0, "O_14": 3.0, "Q_15": 2.0, "O_15": 2.0, "city": "TYNDALL", "beds": 64.0, "SR_15": 2.0}, {"Diff_star": 0.0, "addr": "205 FJERESTAD AVENUE EAST   POST OFFICE BOX 130", "SR_14": 4.0, "Q_14": 5.0, "name": "ESTELLINE NURSING AND CARE CENTER", "SF_14": 3.0, "SF_15": 3.0, "cnty": "Hamlin", "st": "SD", "Zip": 57234.0, "O_14": 5.0, "Q_15": 5.0, "O_15": 5.0, "city": "ESTELLINE", "beds": 60.0, "SR_15": 4.0}, {"Diff_star": 0.0, "addr": "129 E CLAY ST", "SR_14": 4.0, "Q_14": 5.0, "name": "SUNSET MANOR AVERA HEALTH", "SF_14": 5.0, "SF_15": 5.0, "cnty": "Clay", "st": "SD", "Zip": 57037.0, "O_14": 5.0, "Q_15": 4.0, "O_15": 5.0, "city": "IRENE", "beds": 50.0, "SR_15": 4.0}, {"Diff_star": 0.0, "addr": "1022 NORTH DAKOTA AVENUE", "SR_14": 5.0, "Q_14": 5.0, "name": "GOOD SAMARITAN SOCIETY CANTON", "SF_14": 2.0, "SF_15": 2.0, "cnty": "Lincoln", "st": "SD", "Zip": 57013.0, "O_14": 5.0, "Q_15": 5.0, "O_15": 5.0, "city": "CANTON", "beds": 56.0, "SR_15": 5.0}, {"Diff_star": 0.0, "addr": "949 HARMON STREET", "SR_14": 1.0, "Q_14": 4.0, "name": "STURGIS REGIONAL SENIOR CARE", "SF_14": 3.0, "SF_15": 3.0, "cnty": "Meade", "st": "SD", "Zip": 57785.0, "O_14": 1.0, "Q_15": 2.0, "O_15": 1.0, "city": "STURGIS", "beds": 84.0, "SR_15": 1.0}, {"Diff_star": 0.0, "addr": "412 SOUTH MADISON  POST OFFICE BOX 327", "SR_14": 3.0, "Q_14": 5.0, "name": "GOOD SAMARITAN SOCIETY NEW UNDERWOOD", "SF_14": 4.0, "SF_15": 4.0, "cnty": "Pennington", "st": "SD", "Zip": 57761.0, "O_14": 5.0, "Q_15": 5.0, "O_15": 5.0, "city": "NEW UNDERWOOD", "beds": 42.0, "SR_15": 3.0}, {"Diff_star": 0.0, "addr": "1311 VANDER HORCK  POST OFFICE BOX 939", "SR_14": 4.0, "Q_14": 4.0, "name": "WHEATCREST HILLS HEALTHCARE COMMUNITY", "SF_14": 4.0, "SF_15": 3.0, "cnty": "Marshall", "st": "SD", "Zip": 57430.0, "O_14": 4.0, "Q_15": 4.0, "O_15": 4.0, "city": "BRITTON", "beds": 57.0, "SR_15": 4.0}, {"Diff_star": -2.0, "addr": "515 W HWY 46", "SR_14": 3.0, "Q_14": 3.0, "name": "GOOD SAMARITAN SOCIETY WAGNER", "SF_14": 4.0, "SF_15": 3.0, "cnty": "Charles Mix", "st": "SD", "Zip": 57380.0, "O_14": 4.0, "Q_15": 1.0, "O_15": 2.0, "city": "WAGNER", "beds": 55.0, "SR_15": 3.0}, {"Diff_star": 0.0, "addr": "8001 W 5TH STREET  POST OFFICE BOX 556", "SR_14": 3.0, "Q_14": 3.0, "name": "BOWDLE NURSING HOME", "SF_14": 4.0, "SF_15": 4.0, "cnty": "Edmunds", "st": "SD", "Zip": 57428.0, "O_14": 4.0, "Q_15": 2.0, "O_15": 4.0, "city": "BOWDLE", "beds": 38.0, "SR_15": 3.0}, {"Diff_star": -2.0, "addr": "1120 EAST 7TH AVENUE", "SR_14": 2.0, "Q_14": 5.0, "name": "FIRESTEEL HEALTHCARE COMMUNITY", "SF_14": 4.0, "SF_15": 4.0, "cnty": "Davison", "st": "SD", "Zip": 57301.0, "O_14": 4.0, "Q_15": 5.0, "O_15": 2.0, "city": "MITCHELL", "beds": 148.0, "SR_15": 1.0}, {"Diff_star": -1.0, "addr": "2000 WESLEYAN BLVD", "SR_14": 2.0, "Q_14": 4.0, "name": "FOUNTAIN SPRINGS HEALTHCARE", "SF_14": 4.0, "SF_15": 3.0, "cnty": "Pennington", "st": "SD", "Zip": 57702.0, "O_14": 3.0, "Q_15": 3.0, "O_15": 2.0, "city": "RAPID CITY", "beds": 90.0, "SR_15": 2.0}, {"Diff_star": 0.0, "addr": "200 SOUTH PATRICK AVENUE", "SR_14": 3.0, "Q_14": 4.0, "name": "WHITE SENIOR LIVING", "SF_14": 4.0, "SF_15": 4.0, "cnty": "Brookings", "st": "SD", "Zip": 57276.0, "O_14": 4.0, "Q_15": 3.0, "O_15": 4.0, "city": "WHITE", "beds": 29.0, "SR_15": 3.0}, {"Diff_star": 0.0, "addr": "510 E 8TH ST POST OFFICE BOX 370", "SR_14": 3.0, "Q_14": 5.0, "name": "OAKVIEW TERRACE", "SF_14": 4.0, "SF_15": 4.0, "cnty": "Hutchinson", "st": "SD", "Zip": 57029.0, "O_14": 5.0, "Q_15": 5.0, "O_15": 5.0, "city": "FREEMAN", "beds": 56.0, "SR_15": 3.0}, {"Diff_star": -1.0, "addr": "402 S PINE STREET  POST OFFICE BOX 487", "SR_14": 2.0, "Q_14": 5.0, "name": "MENNO-OLIVET CARE CENTER", "SF_14": 4.0, "SF_15": 4.0, "cnty": "Hutchinson", "st": "SD", "Zip": 57045.0, "O_14": 4.0, "Q_15": 3.0, "O_15": 3.0, "city": "MENNO", "beds": 49.0, "SR_15": 2.0}, {"Diff_star": 0.0, "addr": "901 N MAIN ST POST OFFICE BOX 300", "SR_14": 4.0, "Q_14": 4.0, "name": "DIAMOND CARE CENTER", "SF_14": 3.0, "SF_15": 3.0, "cnty": "Mc Cook", "st": "SD", "Zip": 57319.0, "O_14": 4.0, "Q_15": 3.0, "O_15": 4.0, "city": "BRIDGEWATER", "beds": 40.0, "SR_15": 4.0}, {"Diff_star": 0.0, "addr": "920 4TH ST", "SR_14": 4.0, "Q_14": 4.0, "name": "PALISADE HEALTHCARE COMMUNITY", "SF_14": 5.0, "SF_15": 5.0, "cnty": "Minnehaha", "st": "SD", "Zip": 57030.0, "O_14": 5.0, "Q_15": 2.0, "O_15": 5.0, "city": "GARRETSON", "beds": 55.0, "SR_15": 4.0}, {"Diff_star": 0.0, "addr": "913 COLONEL PETE STREET", "SR_14": 2.0, "Q_14": 4.0, "name": "GOOD SAMARITAN SOCIETY DEUEL COUNTY", "SF_14": 4.0, "SF_15": 4.0, "cnty": "Deuel", "st": "SD", "Zip": 57226.0, "O_14": 3.0, "Q_15": 4.0, "O_15": 3.0, "city": "CLEAR LAKE", "beds": 51.0, "SR_15": 2.0}, {"Diff_star": 0.0, "addr": "401 SOUTH FIRST AVENUE  POST OFFICE BOX 68", "SR_14": 3.0, "Q_14": 4.0, "name": "PRAIRIE VIEW CARE CENTER", "SF_14": 4.0, "SF_15": 4.0, "cnty": "Sanborn", "st": "SD", "Zip": 57385.0, "O_14": 4.0, "Q_15": 3.0, "O_15": 4.0, "city": "WOONSOCKET", "beds": 52.0, "SR_15": 3.0}, {"Diff_star": 0.0, "addr": "501 4TH ST", "SR_14": 3.0, "Q_14": 5.0, "name": "WILMOT CARE CENTER INC", "SF_14": 4.0, "SF_15": 4.0, "cnty": "Roberts", "st": "SD", "Zip": 57279.0, "O_14": 5.0, "Q_15": 5.0, "O_15": 5.0, "city": "WILMOT", "beds": 34.0, "SR_15": 3.0}, {"Diff_star": 0.0, "addr": "315 NORTH WASHINGTON ST   POST OFFICE BOX 368", "SR_14": 4.0, "Q_14": 4.0, "name": "PIONEER MEMORIAL NURSING HOME", "SF_14": 4.0, "SF_15": 4.0, "cnty": "Turner", "st": "SD", "Zip": 57070.0, "O_14": 4.0, "Q_15": 3.0, "O_15": 4.0, "city": "VIBORG", "beds": 52.0, "SR_15": 4.0}, {"Diff_star": 0.0, "addr": "85 1ST AVENUE EAST  POST OFFICE BOX 108", "SR_14": 5.0, "Q_14": 3.0, "name": "NORTHEAST CARE CENTER", "SF_14": 5.0, "SF_15": 5.0, "cnty": "Roberts", "st": "SD", "Zip": 57260.0, "O_14": 5.0, "Q_15": 2.0, "O_15": 5.0, "city": "ROSHOLT", "beds": 34.0, "SR_15": 5.0}, {"Diff_star": -1.0, "addr": "100 SOUTH 9TH STREET", "SR_14": 2.0, "Q_14": 5.0, "name": "ST WILLIAM'S CARE CENTER", "SF_14": 4.0, "SF_15": 4.0, "cnty": "Grant", "st": "SD", "Zip": 57252.0, "O_14": 4.0, "Q_15": 4.0, "O_15": 3.0, "city": "MILBANK", "beds": 57.0, "SR_15": 2.0}, {"Diff_star": 0.0, "addr": "4861 LINCOLN AVENUE", "SR_14": 3.0, "Q_14": 4.0, "name": "GOOD SAMARITAN SOCIETY SELBY", "SF_14": 2.0, "SF_15": 2.0, "cnty": "Walworth", "st": "SD", "Zip": 57472.0, "O_14": 3.0, "Q_15": 3.0, "O_15": 3.0, "city": "SELBY", "beds": 49.0, "SR_15": 3.0}, {"Diff_star": 0.0, "addr": "421 EAST 4TH ST", "SR_14": 4.0, "Q_14": 5.0, "name": "GOOD SAMARITAN SOCIETY MILLER", "SF_14": 3.0, "SF_15": 3.0, "cnty": "Hand", "st": "SD", "Zip": 57362.0, "O_14": 5.0, "Q_15": 5.0, "O_15": 5.0, "city": "MILLER", "beds": 51.0, "SR_15": 4.0}, {"Diff_star": 0.0, "addr": "801 S MAIN POST OFFICE BOX 195", "SR_14": 4.0, "Q_14": 5.0, "name": "STRAND-KJORSVIG COMMUNITY REST HOME", "SF_14": 3.0, "SF_15": 3.0, "cnty": "Day", "st": "SD", "Zip": 57261.0, "O_14": 5.0, "Q_15": 5.0, "O_15": 5.0, "city": "ROSLYN", "beds": 34.0, "SR_15": 4.0}, {"Diff_star": 0.0, "addr": "50 SEVENTH ST SE POST OFFICE BOX 946", "SR_14": 1.0, "Q_14": 4.0, "name": "VIOLET TSCHETTER MEMORIAL HOME", "SF_14": 4.0, "SF_15": 4.0, "cnty": "Beadle", "st": "SD", "Zip": 57350.0, "O_14": 2.0, "Q_15": 2.0, "O_15": 2.0, "city": "HURON", "beds": 55.0, "SR_15": 1.0}, {"Diff_star": -1.0, "addr": "1321 W DOW RUMMEL ST", "SR_14": 3.0, "Q_14": 2.0, "name": "DOW RUMMEL VILLAGE", "SF_14": 5.0, "SF_15": 5.0, "cnty": "Minnehaha", "st": "SD", "Zip": 57104.0, "O_14": 4.0, "Q_15": 1.0, "O_15": 3.0, "city": "SIOUX FALLS", "beds": 50.0, "SR_15": 3.0}, {"Diff_star": 0.0, "addr": "1400 THRESHER DR", "SR_14": 2.0, "Q_14": 3.0, "name": "DELLS NURSING AND REHAB CENTER INC", "SF_14": 1.0, "SF_15": 1.0, "cnty": "Minnehaha", "st": "SD", "Zip": 57022.0, "O_14": 1.0, "Q_15": 1.0, "O_15": 1.0, "city": "DELL RAPIDS", "beds": 71.0, "SR_15": 2.0}, {"Diff_star": 0.0, "addr": "3012 E ASPEN BLVD", "SR_14": 1.0, "Q_14": 5.0, "name": "BETHANY HOME - BRANDON", "SF_14": 5.0, "SF_15": 5.0, "cnty": "Minnehaha", "st": "SD", "Zip": 57005.0, "O_14": 2.0, "Q_15": 4.0, "O_15": 2.0, "city": "BRANDON", "beds": 60.0, "SR_15": 1.0}, {"Diff_star": 0.0, "addr": "720 PARKWAY  POST OFFICE BOX 486", "SR_14": "", "Q_14": "", "name": "HUDSON CARE AND REHAB CENTER", "SF_14": "", "SF_15": "", "cnty": "Lincoln", "st": "SD", "Zip": 57034.0, "O_14": "", "Q_15": "", "O_15": "", "city": "HUDSON", "beds": 10.0, "SR_15": ""}, {"Diff_star": 0.0, "addr": "408 SOUTH JOHNSTON STREET", "SR_14": "", "Q_14": "", "name": "AURORA BRULE NURSING HOME", "SF_14": "", "SF_15": "", "cnty": "Aurora", "st": "SD", "Zip": 57383.0, "O_14": "", "Q_15": "", "O_15": "", "city": "WHITE LAKE", "beds": 77.0, "SR_15": ""}, {"Diff_star": 0.0, "addr": "503 WEST PINE   POST OFFICE BOX 790", "SR_14": 2.0, "Q_14": 3.0, "name": "PHILIP NURSING HOME", "SF_14": 3.0, "SF_15": 3.0, "cnty": "Haakon", "st": "SD", "Zip": 57567.0, "O_14": 2.0, "Q_15": 2.0, "O_15": 2.0, "city": "PHILIP", "beds": 30.0, "SR_15": 2.0}, {"Diff_star": -1.0, "addr": "3515 BROADWAY AVE  POST OFFICE BOX 7600", "SR_14": 5.0, "Q_14": 2.0, "name": "SOUTH DAKOTA HUMAN SERVICES CENTER - GERIATRIC", "SF_14": 5.0, "SF_15": 5.0, "cnty": "Yankton", "st": "SD", "Zip": 57078.0, "O_14": 5.0, "Q_15": 1.0, "O_15": 4.0, "city": "YANKTON", "beds": 69.0, "SR_15": 5.0}, {"Diff_star": 0.0, "addr": "609 EAST 7TH  POST OFFICE BOX 200", "SR_14": 5.0, "Q_14": 5.0, "name": "PLATTE CARE CENTER", "SF_14": 5.0, "SF_15": 5.0, "cnty": "Charles Mix", "st": "SD", "Zip": 57369.0, "O_14": 5.0, "Q_15": 4.0, "O_15": 5.0, "city": "PLATTE", "beds": 48.0, "SR_15": 5.0}, {"Diff_star": 0.0, "addr": "300 S BYRON BLVD", "SR_14": 5.0, "Q_14": 3.0, "name": "SANFORD CHAMBERLAIN CARE CENTER", "SF_14": 5.0, "SF_15": 5.0, "cnty": "Brule", "st": "SD", "Zip": 57325.0, "O_14": 5.0, "Q_15": 2.0, "O_15": 5.0, "city": "CHAMBERLAIN", "beds": 44.0, "SR_15": 5.0}, {"Diff_star": 0.0, "addr": "102 MAJOR ALLEN  POST OFFICE BOX 70", "SR_14": 2.0, "Q_14": 1.0, "name": "BENNETT COUNTY HOSPITAL AND NURSING HOME", "SF_14": 4.0, "SF_15": 4.0, "cnty": "Bennett", "st": "SD", "Zip": 57551.0, "O_14": 2.0, "Q_15": 1.0, "O_15": 2.0, "city": "MARTIN", "beds": 40.0, "SR_15": 2.0}, {"Diff_star": 0.0, "addr": "515 E 8TH STREET  POST OFFICE BOX 310", "SR_14": 1.0, "Q_14": 5.0, "name": "WHITE RIVER HEALTH CARE CENTER", "SF_14": 3.0, "SF_15": 3.0, "cnty": "Mellette", "st": "SD", "Zip": 57579.0, "O_14": 2.0, "Q_15": 5.0, "O_15": 2.0, "city": "WHITE RIVER", "beds": 52.0, "SR_15": 1.0}, {"Diff_star": 0.0, "addr": "608 1ST STREET NE", "SR_14": 2.0, "Q_14": 2.0, "name": "WESKOTA MANOR", "SF_14": 2.0, "SF_15": 2.0, "cnty": "Jerauld", "st": "SD", "Zip": 57382.0, "O_14": 2.0, "Q_15": 2.0, "O_15": 2.0, "city": "WESSINGTON SPRINGS", "beds": 40.0, "SR_15": 2.0}, {"Diff_star": 0.0, "addr": "20 S PLUM STREET", "SR_14": 2.0, "Q_14": 5.0, "name": "SANFORD CARE CENTER VERMILLION", "SF_14": 3.0, "SF_15": 3.0, "cnty": "Clay", "st": "SD", "Zip": 57069.0, "O_14": 3.0, "Q_15": 5.0, "O_15": 3.0, "city": "VERMILLION", "beds": 66.0, "SR_15": 2.0}, {"Diff_star": 0.0, "addr": "605 MAPLE ST W  POST OFFICE BOX 310", "SR_14": 4.0, "Q_14": 4.0, "name": "KADOKA NURSING HOME", "SF_14": 4.0, "SF_15": 4.0, "cnty": "Jackson", "st": "SD", "Zip": 57543.0, "O_14": 4.0, "Q_15": 3.0, "O_15": 4.0, "city": "KADOKA", "beds": 30.0, "SR_15": 4.0}, {"Diff_star": 0.0, "addr": "700 E GARFIELD", "SR_14": 2.0, "Q_14": 5.0, "name": "AVERA OAHE MANOR", "SF_14": 4.0, "SF_15": 4.0, "cnty": "Potter", "st": "SD", "Zip": 57442.0, "O_14": 4.0, "Q_15": 5.0, "O_15": 4.0, "city": "GETTYSBURG", "beds": 50.0, "SR_15": 2.0}, {"Diff_star": 0.0, "addr": "126 W 12TH AVENUE  POST OFFICE BOX 150", "SR_14": 4.0, "Q_14": 3.0, "name": "EASTERN STAR HOME OF SD, INC", "SF_14": 5.0, "SF_15": 5.0, "cnty": "Spink", "st": "SD", "Zip": 57469.0, "O_14": 5.0, "Q_15": 3.0, "O_15": 5.0, "city": "REDFIELD", "beds": 30.0, "SR_15": 4.0}, {"Diff_star": 0.0, "addr": "2500 MINNEKAHTA AVENUE", "SR_14": 1.0, "Q_14": 3.0, "name": "MICHAEL J FITZMAURICE SOUTH DAKOTA VETERANS HOME", "SF_14": 5.0, "SF_15": 5.0, "cnty": "Fall River", "st": "SD", "Zip": 57747.0, "O_14": 2.0, "Q_15": 2.0, "O_15": 2.0, "city": "HOT SPRINGS", "beds": 52.0, "SR_15": 1.0}, {"Diff_star": 0.0, "addr": "501 NORTH 4TH STREET", "SR_14": 2.0, "Q_14": 3.0, "name": "AVERA BORMANN MANOR", "SF_14": 4.0, "SF_15": 5.0, "cnty": "Hutchinson", "st": "SD", "Zip": 57366.0, "O_14": 3.0, "Q_15": 2.0, "O_15": 3.0, "city": "PARKSTON", "beds": 47.0, "SR_15": 2.0}]