[{"Diff_star": 0.0, "addr": "244 OAKWOOD DR", "SR_14": 3.0, "Q_14": 3.0, "name": "NHC HEALTHCARE, OAKWOOD", "SF_14": 3.0, "SF_15": 3.0, "cnty": "Marshall", "st": "TN", "Zip": 37091.0, "O_14": 3.0, "Q_15": 2.0, "O_15": 3.0, "city": "LEWISBURG", "beds": 60.0, "SR_15": 3.0}, {"Diff_star": -1.0, "addr": "812 CHARLOTTE ST", "SR_14": 2.0, "Q_14": 4.0, "name": "NHC HEALTHCARE, DICKSON", "SF_14": 4.0, "SF_15": 3.0, "cnty": "Dickson", "st": "TN", "Zip": 37055.0, "O_14": 3.0, "Q_15": 2.0, "O_15": 2.0, "city": "DICKSON", "beds": 191.0, "SR_15": 2.0}, {"Diff_star": -2.0, "addr": "950 SISKIN DRIVE", "SR_14": 3.0, "Q_14": 5.0, "name": "ST BARNABAS NURSING HOME", "SF_14": 4.0, "SF_15": 3.0, "cnty": "Hamilton", "st": "TN", "Zip": 37403.0, "O_14": 5.0, "Q_15": 2.0, "O_15": 3.0, "city": "CHATTANOOGA", "beds": 108.0, "SR_15": 3.0}, {"Diff_star": -1.0, "addr": "2700 PARKWOOD AVE", "SR_14": 2.0, "Q_14": 5.0, "name": "NHC HEALTHCARE, CHATTANOOGA", "SF_14": 3.0, "SF_15": 3.0, "cnty": "Hamilton", "st": "TN", "Zip": 37404.0, "O_14": 3.0, "Q_15": 3.0, "O_15": 2.0, "city": "CHATTANOOGA", "beds": 200.0, "SR_15": 2.0}, {"Diff_star": 0.0, "addr": "2648 SEVIERVILLE RD", "SR_14": 2.0, "Q_14": 4.0, "name": "ASBURY PLACE AT MARYVILLE", "SF_14": 1.0, "SF_15": 1.0, "cnty": "Blount", "st": "TN", "Zip": 37804.0, "O_14": 1.0, "Q_15": 2.0, "O_15": 1.0, "city": "MARYVILLE", "beds": 181.0, "SR_15": 2.0}, {"Diff_star": 0.0, "addr": "3209 BRISTOL HWY", "SR_14": 4.0, "Q_14": 5.0, "name": "NHC HEALTHCARE, JOHNSON CITY", "SF_14": 3.0, "SF_15": 3.0, "cnty": "Washington", "st": "TN", "Zip": 37601.0, "O_14": 5.0, "Q_15": 5.0, "O_15": 5.0, "city": "JOHNSON CITY", "beds": 160.0, "SR_15": 4.0}, {"Diff_star": 0.0, "addr": "2710 TROTWOOD AVE", "SR_14": 4.0, "Q_14": 4.0, "name": "NHC HEALTHCARE, HILLVIEW", "SF_14": 3.0, "SF_15": 3.0, "cnty": "Maury", "st": "TN", "Zip": 38401.0, "O_14": 4.0, "Q_15": 2.0, "O_15": 4.0, "city": "COLUMBIA", "beds": 92.0, "SR_15": 4.0}, {"Diff_star": -1.0, "addr": "1414 COUNTY HOSPITAL RD", "SR_14": 2.0, "Q_14": 2.0, "name": "NASHVILLE COMMUNITY CARE & REHABILITATION AT BORDE", "SF_14": 4.0, "SF_15": 4.0, "cnty": "Davidson", "st": "TN", "Zip": 37218.0, "O_14": 3.0, "Q_15": 1.0, "O_15": 2.0, "city": "NASHVILLE", "beds": 419.0, "SR_15": 2.0}, {"Diff_star": -1.0, "addr": "8017 DOGWOOD LANE P O BOX A", "SR_14": 4.0, "Q_14": 3.0, "name": "NHC HEALTHCARE, MILAN", "SF_14": 4.0, "SF_15": 4.0, "cnty": "Gibson", "st": "TN", "Zip": 38358.0, "O_14": 4.0, "Q_15": 1.0, "O_15": 3.0, "city": "MILAN", "beds": 117.0, "SR_15": 4.0}, {"Diff_star": -1.0, "addr": "1850 OLD KNOXVILLE ROAD", "SR_14": 4.0, "Q_14": 3.0, "name": "CLAIBORNE COUNTY NURSING HOME", "SF_14": 4.0, "SF_15": 3.0, "cnty": "Claiborne", "st": "TN", "Zip": 37879.0, "O_14": 4.0, "Q_15": 1.0, "O_15": 3.0, "city": "TAZEWELL", "beds": 100.0, "SR_15": 4.0}, {"Diff_star": 0.0, "addr": "431 LARKIN SPRING RD", "SR_14": 1.0, "Q_14": 3.0, "name": "MADISON REHABILITATION AND NURSING CENTER", "SF_14": 2.0, "SF_15": 2.0, "cnty": "Davidson", "st": "TN", "Zip": 37115.0, "O_14": 1.0, "Q_15": 1.0, "O_15": 1.0, "city": "MADISON", "beds": 102.0, "SR_15": 1.0}, {"Diff_star": -1.0, "addr": "928 OLD SMITHVILLE RD", "SR_14": 3.0, "Q_14": 5.0, "name": "NHC HEALTHCARE, MCMINNVILLE", "SF_14": 4.0, "SF_15": 3.0, "cnty": "Warren", "st": "TN", "Zip": 37110.0, "O_14": 5.0, "Q_15": 5.0, "O_15": 4.0, "city": "MC MINNVILLE", "beds": 125.0, "SR_15": 3.0}, {"Diff_star": -1.0, "addr": "100 GREENWAY CIRCLE", "SR_14": 3.0, "Q_14": 3.0, "name": "UNICOI CO NURSING HOME", "SF_14": 4.0, "SF_15": 4.0, "cnty": "Unicoi", "st": "TN", "Zip": 37650.0, "O_14": 4.0, "Q_15": 1.0, "O_15": 3.0, "city": "ERWIN", "beds": 46.0, "SR_15": 3.0}, {"Diff_star": 0.0, "addr": "608 8TH AVE EAST", "SR_14": 2.0, "Q_14": 4.0, "name": "NHC HEALTHCARE, SPRINGFIELD", "SF_14": 2.0, "SF_15": 2.0, "cnty": "Robertson", "st": "TN", "Zip": 37172.0, "O_14": 2.0, "Q_15": 3.0, "O_15": 2.0, "city": "SPRINGFIELD", "beds": 107.0, "SR_15": 2.0}, {"Diff_star": -1.0, "addr": "1653 MOORESVILLE HIGHWAY", "SR_14": 4.0, "Q_14": 5.0, "name": "NHC HEALTHCARE, LEWISBURG", "SF_14": 3.0, "SF_15": 3.0, "cnty": "Marshall", "st": "TN", "Zip": 37091.0, "O_14": 5.0, "Q_15": 4.0, "O_15": 4.0, "city": "LEWISBURG", "beds": 100.0, "SR_15": 4.0}, {"Diff_star": 0.0, "addr": "809 EAST EMERALD AVE", "SR_14": 3.0, "Q_14": 5.0, "name": "NHC HEALTHCARE, KNOXVILLE", "SF_14": 4.0, "SF_15": 4.0, "cnty": "Knox", "st": "TN", "Zip": 37917.0, "O_14": 5.0, "Q_15": 5.0, "O_15": 5.0, "city": "KNOXVILLE", "beds": 129.0, "SR_15": 3.0}, {"Diff_star": 0.0, "addr": "1204 FRYE ST", "SR_14": 4.0, "Q_14": 4.0, "name": "NHC HEALTHCARE, ATHENS", "SF_14": 4.0, "SF_15": 3.0, "cnty": "Mc Minn", "st": "TN", "Zip": 37303.0, "O_14": 4.0, "Q_15": 2.0, "O_15": 4.0, "city": "ATHENS", "beds": 88.0, "SR_15": 4.0}, {"Diff_star": 0.0, "addr": "993 E COLLEGE ST", "SR_14": 5.0, "Q_14": 5.0, "name": "NHC HEALTHCARE, PULASKI", "SF_14": 4.0, "SF_15": 4.0, "cnty": "Giles", "st": "TN", "Zip": 38478.0, "O_14": 5.0, "Q_15": 4.0, "O_15": 5.0, "city": "PULASKI", "beds": 102.0, "SR_15": 5.0}, {"Diff_star": 0.0, "addr": "7424 MIDDLEBROOK PIKE", "SR_14": 3.0, "Q_14": 4.0, "name": "SHANNONDALE HEALTH CARE CENTER", "SF_14": 4.0, "SF_15": 4.0, "cnty": "Knox", "st": "TN", "Zip": 37909.0, "O_14": 4.0, "Q_15": 3.0, "O_15": 4.0, "city": "KNOXVILLE", "beds": 200.0, "SR_15": 3.0}, {"Diff_star": 0.0, "addr": "2120 HIGHLAND AVE", "SR_14": 5.0, "Q_14": 5.0, "name": "NHC HEALTHCARE, FT SANDERS", "SF_14": 4.0, "SF_15": 3.0, "cnty": "Knox", "st": "TN", "Zip": 37916.0, "O_14": 5.0, "Q_15": 5.0, "O_15": 5.0, "city": "KNOXVILLE", "beds": 166.0, "SR_15": 5.0}, {"Diff_star": -1.0, "addr": "420 N UNIVERSITY ST", "SR_14": 1.0, "Q_14": 5.0, "name": "NHC HEALTHCARE, MURFREESBORO", "SF_14": 3.0, "SF_15": 3.0, "cnty": "Rutherford", "st": "TN", "Zip": 37130.0, "O_14": 2.0, "Q_15": 4.0, "O_15": 1.0, "city": "MURFREESBORO", "beds": 181.0, "SR_15": 1.0}, {"Diff_star": -1.0, "addr": "101 WALNUT LANE", "SR_14": 1.0, "Q_14": 3.0, "name": "NHC HEALTHCARE, COLUMBIA", "SF_14": 4.0, "SF_15": 3.0, "cnty": "Maury", "st": "TN", "Zip": 38401.0, "O_14": 2.0, "Q_15": 2.0, "O_15": 1.0, "city": "COLUMBIA", "beds": 106.0, "SR_15": 1.0}, {"Diff_star": 0.0, "addr": "815 SOUTH WALNUT AVENUE", "SR_14": 3.0, "Q_14": 5.0, "name": "NHC HEALTHCARE, COOKEVILLE", "SF_14": 2.0, "SF_15": 2.0, "cnty": "Putnam", "st": "TN", "Zip": 38501.0, "O_14": 4.0, "Q_15": 5.0, "O_15": 4.0, "city": "COOKEVILLE", "beds": 94.0, "SR_15": 3.0}, {"Diff_star": -1.0, "addr": "2626 WALKER RD", "SR_14": 2.0, "Q_14": 5.0, "name": "HEALTH CENTER AT STANDIFER PLACE, THE", "SF_14": 2.0, "SF_15": 2.0, "cnty": "Hamilton", "st": "TN", "Zip": 37421.0, "O_14": 3.0, "Q_15": 4.0, "O_15": 2.0, "city": "CHATTANOOGA", "beds": 444.0, "SR_15": 2.0}, {"Diff_star": 0.0, "addr": "329 MURFREESBORO RD", "SR_14": 5.0, "Q_14": 5.0, "name": "TREVECCA HEALTH CARE CENTER", "SF_14": 4.0, "SF_15": 4.0, "cnty": "Davidson", "st": "TN", "Zip": 37210.0, "O_14": 5.0, "Q_15": 4.0, "O_15": 5.0, "city": "NASHVILLE", "beds": 240.0, "SR_15": 5.0}, {"Diff_star": 0.0, "addr": "5837 LYONS VIEW PIKE", "SR_14": 1.0, "Q_14": 3.0, "name": "BRAKEBILL NURSING HOME INC.", "SF_14": 1.0, "SF_15": 1.0, "cnty": "Knox", "st": "TN", "Zip": 37919.0, "O_14": 1.0, "Q_15": 1.0, "O_15": 1.0, "city": "KNOXVILLE", "beds": 222.0, "SR_15": 1.0}, {"Diff_star": 0.0, "addr": "200 TORREY ROAD", "SR_14": 2.0, "Q_14": 1.0, "name": "TENNOVA LAFOLLETTE HEALTH AND REHAB CENTER", "SF_14": 2.0, "SF_15": 2.0, "cnty": "Campbell", "st": "TN", "Zip": 37766.0, "O_14": 1.0, "Q_15": 1.0, "O_15": 1.0, "city": "LAFOLLETTE", "beds": 98.0, "SR_15": 2.0}, {"Diff_star": -1.0, "addr": "825 FISHER AVE P O BOX 549", "SR_14": 1.0, "Q_14": 4.0, "name": "NHC HEALTHCARE, SMITHVILLE", "SF_14": 4.0, "SF_15": 3.0, "cnty": "De Kalb", "st": "TN", "Zip": 37166.0, "O_14": 2.0, "Q_15": 2.0, "O_15": 1.0, "city": "SMITHVILLE", "beds": 114.0, "SR_15": 1.0}, {"Diff_star": 0.0, "addr": "2380 BUFFALO ROAD", "SR_14": 5.0, "Q_14": 5.0, "name": "NHC HEALTHCARE, SCOTT", "SF_14": 4.0, "SF_15": 4.0, "cnty": "Lawrence", "st": "TN", "Zip": 38464.0, "O_14": 5.0, "Q_15": 5.0, "O_15": 5.0, "city": "LAWRENCEBURG", "beds": 60.0, "SR_15": 5.0}, {"Diff_star": -1.0, "addr": "3030 WALNUT GROVE RD", "SR_14": 2.0, "Q_14": 3.0, "name": "ASHTON PLACE HEALTH & REHAB CENTER", "SF_14": 4.0, "SF_15": 3.0, "cnty": "Shelby", "st": "TN", "Zip": 38111.0, "O_14": 3.0, "Q_15": 2.0, "O_15": 2.0, "city": "MEMPHIS", "beds": 211.0, "SR_15": 2.0}, {"Diff_star": 0.0, "addr": "308 LAKE DRIVE, PO BOX 550", "SR_14": 4.0, "Q_14": 5.0, "name": "NHC HEALTHCARE, SOMERVILLE", "SF_14": 3.0, "SF_15": 3.0, "cnty": "Fayette", "st": "TN", "Zip": 38068.0, "O_14": 5.0, "Q_15": 5.0, "O_15": 5.0, "city": "SOMERVILLE", "beds": 72.0, "SR_15": 4.0}, {"Diff_star": -1.0, "addr": "671 ALEXIAN WAY", "SR_14": 1.0, "Q_14": 5.0, "name": "ALEXIAN VILLAGE OF TENNESSEE", "SF_14": 3.0, "SF_15": 3.0, "cnty": "Hamilton", "st": "TN", "Zip": 37377.0, "O_14": 2.0, "Q_15": 4.0, "O_15": 1.0, "city": "SIGNAL MOUNTAIN", "beds": 114.0, "SR_15": 1.0}, {"Diff_star": -1.0, "addr": "555 E BLEDSOE", "SR_14": 3.0, "Q_14": 3.0, "name": "GOLDEN LIVINGCENTER - BRANDYWOOD", "SF_14": 1.0, "SF_15": 1.0, "cnty": "Sumner", "st": "TN", "Zip": 37066.0, "O_14": 2.0, "Q_15": 1.0, "O_15": 1.0, "city": "GALLATIN", "beds": 124.0, "SR_15": 3.0}, {"Diff_star": 0.0, "addr": "360 DELL TRAIL, PO BOX 878", "SR_14": 3.0, "Q_14": 4.0, "name": "NHC HEALTHCARE, SEQUATCHIE", "SF_14": 3.0, "SF_15": 3.0, "cnty": "Sequatchie", "st": "TN", "Zip": 37327.0, "O_14": 3.0, "Q_15": 3.0, "O_15": 3.0, "city": "DUNLAP", "beds": 110.0, "SR_15": 3.0}, {"Diff_star": 0.0, "addr": "216 FAIRGROUND ST", "SR_14": 5.0, "Q_14": 5.0, "name": "NHC HEALTHCARE, FRANKLIN", "SF_14": 3.0, "SF_15": 3.0, "cnty": "Williamson", "st": "TN", "Zip": 37064.0, "O_14": 5.0, "Q_15": 4.0, "O_15": 5.0, "city": "FRANKLIN", "beds": 80.0, "SR_15": 5.0}, {"Diff_star": -1.0, "addr": "300 LABORATORY RD", "SR_14": 4.0, "Q_14": 5.0, "name": "NHC HEALTHCARE, OAK RIDGE", "SF_14": 4.0, "SF_15": 3.0, "cnty": "Anderson", "st": "TN", "Zip": 37831.0, "O_14": 5.0, "Q_15": 4.0, "O_15": 4.0, "city": "OAK RIDGE", "beds": 128.0, "SR_15": 4.0}, {"Diff_star": -1.0, "addr": "731 MIDDLE CREEK RD", "SR_14": 1.0, "Q_14": 2.0, "name": "FORT SANDERS SEVIER NURSING HOME", "SF_14": 5.0, "SF_15": 5.0, "cnty": "Sevier", "st": "TN", "Zip": 37862.0, "O_14": 2.0, "Q_15": 1.0, "O_15": 1.0, "city": "SEVIERVILLE", "beds": 54.0, "SR_15": 1.0}, {"Diff_star": -1.0, "addr": "34 GRACEY ST", "SR_14": 3.0, "Q_14": 3.0, "name": "NHC HEALTHCARE, SPARTA", "SF_14": 3.0, "SF_15": 3.0, "cnty": "White", "st": "TN", "Zip": 38583.0, "O_14": 3.0, "Q_15": 1.0, "O_15": 2.0, "city": "SPARTA", "beds": 105.0, "SR_15": 3.0}, {"Diff_star": 0.0, "addr": "5321 BEVERLY PARK CIRCLE", "SR_14": 3.0, "Q_14": 4.0, "name": "BEVERLY PARK PLACE HEALTH AND REHAB", "SF_14": 3.0, "SF_15": 3.0, "cnty": "Knox", "st": "TN", "Zip": 37918.0, "O_14": 3.0, "Q_15": 3.0, "O_15": 3.0, "city": "KNOXVILLE", "beds": 271.0, "SR_15": 3.0}, {"Diff_star": 0.0, "addr": "415 CATLETT RD", "SR_14": 1.0, "Q_14": 4.0, "name": "SEVIER CO HEALTH CARE CTR", "SF_14": 4.0, "SF_15": 4.0, "cnty": "Sevier", "st": "TN", "Zip": 37862.0, "O_14": 2.0, "Q_15": 4.0, "O_15": 2.0, "city": "SEVIERVILLE", "beds": 149.0, "SR_15": 1.0}, {"Diff_star": -1.0, "addr": "177 NORTH HIGHLAND", "SR_14": 3.0, "Q_14": 5.0, "name": "ALLEN MORGAN HEALTH AND REHABILITATION CENTER", "SF_14": 5.0, "SF_15": 5.0, "cnty": "Shelby", "st": "TN", "Zip": 38111.0, "O_14": 5.0, "Q_15": 4.0, "O_15": 4.0, "city": "MEMPHIS", "beds": 24.0, "SR_15": 3.0}, {"Diff_star": 0.0, "addr": "220 LONGMIRE RD", "SR_14": 2.0, "Q_14": 5.0, "name": "GOLDEN LIVINGCENTER - WINDWOOD", "SF_14": 3.0, "SF_15": 3.0, "cnty": "Anderson", "st": "TN", "Zip": 37716.0, "O_14": 3.0, "Q_15": 5.0, "O_15": 3.0, "city": "CLINTON", "beds": 120.0, "SR_15": 2.0}, {"Diff_star": -1.0, "addr": "278 DRY VALLEY RD", "SR_14": 3.0, "Q_14": 4.0, "name": "SIGNATURE HEALTHCARE OF PUTNAM COUNTY", "SF_14": 2.0, "SF_15": 2.0, "cnty": "Putnam", "st": "TN", "Zip": 38506.0, "O_14": 3.0, "Q_15": 1.0, "O_15": 2.0, "city": "COOKEVILLE", "beds": 175.0, "SR_15": 3.0}, {"Diff_star": 0.0, "addr": "104 WATSON ROAD", "SR_14": 1.0, "Q_14": 5.0, "name": "GOLDEN LIVINGCENTER - SPRINGFIELD", "SF_14": 4.0, "SF_15": 4.0, "cnty": "Robertson", "st": "TN", "Zip": 37172.0, "O_14": 2.0, "Q_15": 5.0, "O_15": 2.0, "city": "SPRINGFIELD", "beds": 120.0, "SR_15": 1.0}, {"Diff_star": -1.0, "addr": "1105 SUNSWEPT DR", "SR_14": 1.0, "Q_14": 5.0, "name": "GOLDEN LIVING CENTER - UNION CITY", "SF_14": 2.0, "SF_15": 2.0, "cnty": "Obion", "st": "TN", "Zip": 38261.0, "O_14": 2.0, "Q_15": 4.0, "O_15": 1.0, "city": "UNION CITY", "beds": 80.0, "SR_15": 1.0}, {"Diff_star": -1.0, "addr": "141 N MCLEAN", "SR_14": 1.0, "Q_14": 5.0, "name": "SIGNATURE HEALTHCARE AT ST PETER VILLA", "SF_14": 3.0, "SF_15": 3.0, "cnty": "Shelby", "st": "TN", "Zip": 38104.0, "O_14": 2.0, "Q_15": 4.0, "O_15": 1.0, "city": "MEMPHIS", "beds": 180.0, "SR_15": 1.0}, {"Diff_star": 0.0, "addr": "6025 PRIMACY PARKWAY", "SR_14": 3.0, "Q_14": 5.0, "name": "SIGNATURE HEALTHCARE OF PRIMACY", "SF_14": 3.0, "SF_15": 3.0, "cnty": "Shelby", "st": "TN", "Zip": 38119.0, "O_14": 4.0, "Q_15": 5.0, "O_15": 4.0, "city": "MEMPHIS", "beds": 120.0, "SR_15": 3.0}, {"Diff_star": 0.0, "addr": "2910 PEERLESS RD", "SR_14": 1.0, "Q_14": 4.0, "name": "BRADLEY HEALTH CARE & REHAB", "SF_14": 4.0, "SF_15": 4.0, "cnty": "Bradley", "st": "TN", "Zip": 37312.0, "O_14": 2.0, "Q_15": 3.0, "O_15": 2.0, "city": "CLEVELAND", "beds": 213.0, "SR_15": 1.0}, {"Diff_star": -1.0, "addr": "5580 ROANE STATE HWY", "SR_14": 2.0, "Q_14": 5.0, "name": "BRIDGE AT ROCKWOOD, THE", "SF_14": 2.0, "SF_15": 2.0, "cnty": "Roane", "st": "TN", "Zip": 37854.0, "O_14": 3.0, "Q_15": 4.0, "O_15": 2.0, "city": "ROCKWOOD", "beds": 157.0, "SR_15": 2.0}, {"Diff_star": -1.0, "addr": "1360 BYPASS ROAD", "SR_14": 1.0, "Q_14": 5.0, "name": "GOLDEN LIVINGCENTER - MOUNTAIN VIEW", "SF_14": 3.0, "SF_15": 3.0, "cnty": "Franklin", "st": "TN", "Zip": 37398.0, "O_14": 2.0, "Q_15": 3.0, "O_15": 1.0, "city": "WINCHESTER", "beds": 140.0, "SR_15": 1.0}, {"Diff_star": -1.0, "addr": "1287 WEST MAIN", "SR_14": 1.0, "Q_14": 5.0, "name": "GRACE HEALTHCARE OF FRANKLIN", "SF_14": 3.0, "SF_15": 3.0, "cnty": "Williamson", "st": "TN", "Zip": 37064.0, "O_14": 2.0, "Q_15": 4.0, "O_15": 1.0, "city": "FRANKLIN", "beds": 88.0, "SR_15": 1.0}, {"Diff_star": -1.0, "addr": "2733 MCCAMPBELL AVENUE", "SR_14": 1.0, "Q_14": 5.0, "name": "DONELSON PLACE CARE & REHABILITATION CENTER", "SF_14": 3.0, "SF_15": 3.0, "cnty": "Davidson", "st": "TN", "Zip": 37214.0, "O_14": 2.0, "Q_15": 4.0, "O_15": 1.0, "city": "NASHVILLE", "beds": 124.0, "SR_15": 1.0}, {"Diff_star": 0.0, "addr": "6007 PARK AVE", "SR_14": 1.0, "Q_14": 4.0, "name": "SIGNATURE HEALTHCARE AT SAINT FRANCIS", "SF_14": 3.0, "SF_15": 3.0, "cnty": "Shelby", "st": "TN", "Zip": 38119.0, "O_14": 1.0, "Q_15": 3.0, "O_15": 1.0, "city": "MEMPHIS", "beds": 197.0, "SR_15": 1.0}, {"Diff_star": -1.0, "addr": "131 N TUCKER", "SR_14": 2.0, "Q_14": 5.0, "name": "POPLAR POINT HEALTH & REHABILITATION", "SF_14": 3.0, "SF_15": 3.0, "cnty": "Shelby", "st": "TN", "Zip": 38104.0, "O_14": 3.0, "Q_15": 4.0, "O_15": 2.0, "city": "MEMPHIS", "beds": 169.0, "SR_15": 2.0}, {"Diff_star": -1.0, "addr": "932 BADDOUR PARKWAY", "SR_14": 3.0, "Q_14": 5.0, "name": "QUALITY CARE HEALTH CENTER", "SF_14": 2.0, "SF_15": 2.0, "cnty": "Wilson", "st": "TN", "Zip": 37087.0, "O_14": 4.0, "Q_15": 4.0, "O_15": 3.0, "city": "LEBANON", "beds": 280.0, "SR_15": 3.0}, {"Diff_star": -1.0, "addr": "537 SPRING STREET, PO BOX 399", "SR_14": 3.0, "Q_14": 5.0, "name": "MANOR HOUSE OF DOVER", "SF_14": 2.0, "SF_15": 2.0, "cnty": "Stewart", "st": "TN", "Zip": 37058.0, "O_14": 4.0, "Q_15": 3.0, "O_15": 3.0, "city": "DOVER", "beds": 88.0, "SR_15": 3.0}, {"Diff_star": 0.0, "addr": "902 BUCHANAN RD", "SR_14": 4.0, "Q_14": 5.0, "name": "LAUREL MANOR HEALTH CARE", "SF_14": 1.0, "SF_15": 1.0, "cnty": "Claiborne", "st": "TN", "Zip": 37825.0, "O_14": 4.0, "Q_15": 5.0, "O_15": 4.0, "city": "NEW TAZEWELL", "beds": 134.0, "SR_15": 4.0}, {"Diff_star": 0.0, "addr": "200 STRAHL STREET", "SR_14": 1.0, "Q_14": 4.0, "name": "CLAIBORNE AND HUGHES HLTH CNTR", "SF_14": 1.0, "SF_15": 1.0, "cnty": "Williamson", "st": "TN", "Zip": 37064.0, "O_14": 1.0, "Q_15": 2.0, "O_15": 1.0, "city": "FRANKLIN", "beds": 157.0, "SR_15": 1.0}, {"Diff_star": 0.0, "addr": "421 OCALA DRIVE", "SR_14": 5.0, "Q_14": 5.0, "name": "BETHANY HEALTH CARE CENTER", "SF_14": 5.0, "SF_15": 5.0, "cnty": "Davidson", "st": "TN", "Zip": 37211.0, "O_14": 5.0, "Q_15": 5.0, "O_15": 5.0, "city": "NASHVILLE", "beds": 180.0, "SR_15": 5.0}, {"Diff_star": 0.0, "addr": "200 MAYFIELD DRIVE", "SR_14": 2.0, "Q_14": 4.0, "name": "MAYFIELD REHABILITATION CENTER", "SF_14": 5.0, "SF_15": 5.0, "cnty": "Rutherford", "st": "TN", "Zip": 37167.0, "O_14": 3.0, "Q_15": 3.0, "O_15": 3.0, "city": "SMYRNA", "beds": 125.0, "SR_15": 2.0}, {"Diff_star": 0.0, "addr": "105 WEST MYRTLE AVENUE", "SR_14": 1.0, "Q_14": 3.0, "name": "AGAPE NURSING AND REHABILIATION CENTER, LLC", "SF_14": 2.0, "SF_15": 2.0, "cnty": "Washington", "st": "TN", "Zip": 37601.0, "O_14": 1.0, "Q_15": 1.0, "O_15": 1.0, "city": "JOHNSON CITY", "beds": 84.0, "SR_15": 1.0}, {"Diff_star": -1.0, "addr": "3549 NORRISWOOD", "SR_14": 1.0, "Q_14": 5.0, "name": "HIGHLANDS OF MEMPHIS HEALTH & REHAB", "SF_14": 1.0, "SF_15": 1.0, "cnty": "Shelby", "st": "TN", "Zip": 38111.0, "O_14": 2.0, "Q_15": 4.0, "O_15": 1.0, "city": "MEMPHIS", "beds": 180.0, "SR_15": 1.0}, {"Diff_star": 0.0, "addr": "504 ELMINGTON AVENUE", "SR_14": 2.0, "Q_14": 4.0, "name": "THE HEALTH CENTER AT RICHLAND PLACE", "SF_14": 5.0, "SF_15": 5.0, "cnty": "Davidson", "st": "TN", "Zip": 37205.0, "O_14": 3.0, "Q_15": 2.0, "O_15": 3.0, "city": "NASHVILLE", "beds": 60.0, "SR_15": 2.0}, {"Diff_star": -1.0, "addr": "80 JUSTICE ST", "SR_14": 2.0, "Q_14": 5.0, "name": "LIFE CARE CENTER OF CROSSVILLE", "SF_14": 1.0, "SF_15": 1.0, "cnty": "Cumberland", "st": "TN", "Zip": 38555.0, "O_14": 2.0, "Q_15": 4.0, "O_15": 1.0, "city": "CROSSVILLE", "beds": 122.0, "SR_15": 2.0}, {"Diff_star": -1.0, "addr": "500 HICKORY HOLLOW TERRACE", "SR_14": 4.0, "Q_14": 3.0, "name": "GOOD SAMARITAN HEALTH AND REHAB CENTER", "SF_14": 3.0, "SF_15": 3.0, "cnty": "Davidson", "st": "TN", "Zip": 37013.0, "O_14": 4.0, "Q_15": 1.0, "O_15": 3.0, "city": "ANTIOCH", "beds": 110.0, "SR_15": 4.0}, {"Diff_star": 0.0, "addr": "835 UNION STREET", "SR_14": 1.0, "Q_14": 4.0, "name": "CHRISTIAN CARE CENTER OF BEDFORD COUNTY, LLC", "SF_14": 1.0, "SF_15": 1.0, "cnty": "Bedford", "st": "TN", "Zip": 37160.0, "O_14": 1.0, "Q_15": 3.0, "O_15": 1.0, "city": "SHELBYVILLE", "beds": 107.0, "SR_15": 1.0}, {"Diff_star": -1.0, "addr": "112 HEALTH CARE DR", "SR_14": 2.0, "Q_14": 3.0, "name": "KINDRED NURSING AND REHABILITATION-SMITH COUNTY", "SF_14": 3.0, "SF_15": 3.0, "cnty": "Smith", "st": "TN", "Zip": 37030.0, "O_14": 2.0, "Q_15": 1.0, "O_15": 1.0, "city": "CARTHAGE", "beds": 128.0, "SR_15": 2.0}, {"Diff_star": 0.0, "addr": "501 AMANA AVENUE", "SR_14": 3.0, "Q_14": 4.0, "name": "LINCOLN DONALSON CARE CENTERS", "SF_14": 4.0, "SF_15": 4.0, "cnty": "Lincoln", "st": "TN", "Zip": 37334.0, "O_14": 4.0, "Q_15": 2.0, "O_15": 4.0, "city": "FAYETTEVILLE", "beds": 270.0, "SR_15": 3.0}, {"Diff_star": 0.0, "addr": "2035 STONEBROOK PLACE", "SR_14": 1.0, "Q_14": 1.0, "name": "BROOKHAVEN MANOR", "SF_14": 1.0, "SF_15": 1.0, "cnty": "Sullivan", "st": "TN", "Zip": 37660.0, "O_14": 1.0, "Q_15": 1.0, "O_15": 1.0, "city": "KINGSPORT", "beds": 180.0, "SR_15": 1.0}, {"Diff_star": -1.0, "addr": "374 BRINK ST PO BOX 906", "SR_14": 1.0, "Q_14": 5.0, "name": "NHC HEALTHCARE, LAWRENCEBURG", "SF_14": 3.0, "SF_15": 3.0, "cnty": "Lawrence", "st": "TN", "Zip": 38464.0, "O_14": 2.0, "Q_15": 4.0, "O_15": 1.0, "city": "LAWRENCEBURG", "beds": 96.0, "SR_15": 1.0}, {"Diff_star": 0.0, "addr": "2034 COCHRAN RD", "SR_14": 1.0, "Q_14": "", "name": "COLONIAL HILLS NURSING CENTER", "SF_14": "", "SF_15": "", "cnty": "Blount", "st": "TN", "Zip": 37803.0, "O_14": 1.0, "Q_15": "", "O_15": 1.0, "city": "MARYVILLE", "beds": 203.0, "SR_15": 1.0}, {"Diff_star": -1.0, "addr": "438 NORTH WATER AVE", "SR_14": 3.0, "Q_14": 5.0, "name": "GALLATIN HEALTH CARE CENTER, LLC", "SF_14": 4.0, "SF_15": 4.0, "cnty": "Sumner", "st": "TN", "Zip": 37066.0, "O_14": 5.0, "Q_15": 4.0, "O_15": 4.0, "city": "GALLATIN", "beds": 207.0, "SR_15": 3.0}, {"Diff_star": -1.0, "addr": "2727 PALMYRA RD", "SR_14": 5.0, "Q_14": 2.0, "name": "PALMYRA HEALTH CARE CENTER", "SF_14": 1.0, "SF_15": 1.0, "cnty": "Montgomery", "st": "TN", "Zip": 37142.0, "O_14": 4.0, "Q_15": 1.0, "O_15": 3.0, "city": "PALMYRA", "beds": 55.0, "SR_15": 5.0}, {"Diff_star": 1.0, "addr": "597 WEST FOREST AVENUE", "SR_14": 4.0, "Q_14": 3.0, "name": "WEST TN TRANSITIONAL CARE", "SF_14": 3.0, "SF_15": 5.0, "cnty": "Madison", "st": "TN", "Zip": 38301.0, "O_14": 4.0, "Q_15": 2.0, "O_15": 5.0, "city": "JACKSON", "beds": 67.0, "SR_15": 4.0}, {"Diff_star": 0.0, "addr": "3535 KIRBY ROAD", "SR_14": 3.0, "Q_14": 3.0, "name": "KIRBY PINES MANOR", "SF_14": 4.0, "SF_15": 4.0, "cnty": "Shelby", "st": "TN", "Zip": 38115.0, "O_14": 4.0, "Q_15": 3.0, "O_15": 4.0, "city": "MEMPHIS", "beds": 30.0, "SR_15": 3.0}, {"Diff_star": 0.0, "addr": "250 BELLEBROOK RD", "SR_14": 3.0, "Q_14": 4.0, "name": "CAMBRIDGE HOUSE, THE", "SF_14": 3.0, "SF_15": 3.0, "cnty": "Sullivan", "st": "TN", "Zip": 37620.0, "O_14": 3.0, "Q_15": 3.0, "O_15": 3.0, "city": "BRISTOL", "beds": 130.0, "SR_15": 3.0}, {"Diff_star": -1.0, "addr": "370 OLD SHACKLE ISLAND RD", "SR_14": 2.0, "Q_14": 4.0, "name": "NHC HEALTHCARE, HENDERSONVILLE", "SF_14": 4.0, "SF_15": 3.0, "cnty": "Sumner", "st": "TN", "Zip": 37075.0, "O_14": 3.0, "Q_15": 4.0, "O_15": 2.0, "city": "HENDERSONVILLE", "beds": 122.0, "SR_15": 2.0}, {"Diff_star": 0.0, "addr": "6733 QUINCE ROAD", "SR_14": 1.0, "Q_14": 5.0, "name": "QUINCE NURSING AND REHABILITATION CENTER", "SF_14": 2.0, "SF_15": 2.0, "cnty": "Shelby", "st": "TN", "Zip": 38119.0, "O_14": 2.0, "Q_15": 5.0, "O_15": 2.0, "city": "MEMPHIS", "beds": 188.0, "SR_15": 1.0}, {"Diff_star": -1.0, "addr": "1000 ST LUKE DRIVE", "SR_14": 3.0, "Q_14": 5.0, "name": "WEST MEADE PLACE", "SF_14": 4.0, "SF_15": 4.0, "cnty": "Davidson", "st": "TN", "Zip": 37205.0, "O_14": 5.0, "Q_15": 3.0, "O_15": 4.0, "city": "NASHVILLE", "beds": 120.0, "SR_15": 3.0}, {"Diff_star": -2.0, "addr": "8249 STANDIFER GAP ROAD", "SR_14": 2.0, "Q_14": 5.0, "name": "CONSULATE HEALTH CARE OF CHATTANOOGA", "SF_14": 3.0, "SF_15": 3.0, "cnty": "Hamilton", "st": "TN", "Zip": 37421.0, "O_14": 3.0, "Q_15": 4.0, "O_15": 1.0, "city": "CHATTANOOGA", "beds": 127.0, "SR_15": 1.0}, {"Diff_star": 0.0, "addr": "2421 JOHN B DENNIS HIGHWAY", "SR_14": 2.0, "Q_14": 5.0, "name": "WEXFORD HOUSE, THE", "SF_14": 3.0, "SF_15": 3.0, "cnty": "Sullivan", "st": "TN", "Zip": 37660.0, "O_14": 3.0, "Q_15": 5.0, "O_15": 3.0, "city": "KINGSPORT", "beds": 174.0, "SR_15": 2.0}, {"Diff_star": -1.0, "addr": "331 HINCH STREET", "SR_14": 2.0, "Q_14": 5.0, "name": "SPRING CITY CARE AND REHABILITATION CENTER", "SF_14": 4.0, "SF_15": 3.0, "cnty": "Rhea", "st": "TN", "Zip": 37381.0, "O_14": 4.0, "Q_15": 5.0, "O_15": 3.0, "city": "SPRING CITY", "beds": 138.0, "SR_15": 2.0}, {"Diff_star": 0.0, "addr": "635 HIGH STREET", "SR_14": 3.0, "Q_14": 5.0, "name": "HUNTINGDON HEALTH & REHAB CENTER", "SF_14": 4.0, "SF_15": 4.0, "cnty": "Carroll", "st": "TN", "Zip": 38344.0, "O_14": 5.0, "Q_15": 5.0, "O_15": 5.0, "city": "HUNTINGDON", "beds": 150.0, "SR_15": 3.0}, {"Diff_star": 0.0, "addr": "919 MEDICAL PARK DRIVE", "SR_14": 5.0, "Q_14": 5.0, "name": "MOUNTAIN CITY CARE & REHABILITATION CENTER", "SF_14": 2.0, "SF_15": 2.0, "cnty": "Johnson", "st": "TN", "Zip": 37683.0, "O_14": 5.0, "Q_15": 4.0, "O_15": 5.0, "city": "MOUNTAIN CITY", "beds": 120.0, "SR_15": 5.0}, {"Diff_star": -1.0, "addr": "1026 MCFARLAND STREET", "SR_14": 5.0, "Q_14": 3.0, "name": "HERITAGE CENTER, THE", "SF_14": 2.0, "SF_15": 2.0, "cnty": "Hamblen", "st": "TN", "Zip": 37814.0, "O_14": 5.0, "Q_15": 1.0, "O_15": 4.0, "city": "MORRISTOWN", "beds": 197.0, "SR_15": 5.0}, {"Diff_star": 0.0, "addr": "415 PACE STREET", "SR_14": 5.0, "Q_14": 4.0, "name": "RAINTREE MANOR", "SF_14": 3.0, "SF_15": 3.0, "cnty": "Warren", "st": "TN", "Zip": 37110.0, "O_14": 5.0, "Q_15": 3.0, "O_15": 5.0, "city": "MC MINNVILLE", "beds": 140.0, "SR_15": 5.0}, {"Diff_star": 0.0, "addr": "1200 SPRUCE LANE", "SR_14": 4.0, "Q_14": 4.0, "name": "PINE RIDGE CARE & REHABILITATION CENTER", "SF_14": 3.0, "SF_15": 3.0, "cnty": "Carter", "st": "TN", "Zip": 37643.0, "O_14": 4.0, "Q_15": 2.0, "O_15": 4.0, "city": "ELIZABETHTON", "beds": 94.0, "SR_15": 4.0}, {"Diff_star": 0.0, "addr": "955 GERMANTOWN PKWY", "SR_14": 2.0, "Q_14": 3.0, "name": "GRACE HEALTHCARE OF CORDOVA", "SF_14": 1.0, "SF_15": 1.0, "cnty": "Shelby", "st": "TN", "Zip": 38018.0, "O_14": 1.0, "Q_15": 1.0, "O_15": 1.0, "city": "CORDOVA", "beds": 284.0, "SR_15": 2.0}, {"Diff_star": -1.0, "addr": "3909 COVINGTON PIKE", "SR_14": 3.0, "Q_14": 5.0, "name": "SPRING GATE REHAB & HEALTHCARE CENTER", "SF_14": 3.0, "SF_15": 3.0, "cnty": "Shelby", "st": "TN", "Zip": 38135.0, "O_14": 4.0, "Q_15": 3.0, "O_15": 3.0, "city": "MEMPHIS", "beds": 233.0, "SR_15": 3.0}, {"Diff_star": 0.0, "addr": "3568 APPLING ROAD", "SR_14": 2.0, "Q_14": 4.0, "name": "THE KINGS DAUGHTERS AND SONS", "SF_14": 3.0, "SF_15": 3.0, "cnty": "Shelby", "st": "TN", "Zip": 38133.0, "O_14": 2.0, "Q_15": 3.0, "O_15": 2.0, "city": "BARTLETT", "beds": 108.0, "SR_15": 2.0}, {"Diff_star": 0.0, "addr": "629 HOSPITAL ROAD", "SR_14": 1.0, "Q_14": 3.0, "name": "SOUTHERN TENN MEDICAL CENTER SNF", "SF_14": 5.0, "SF_15": 5.0, "cnty": "Franklin", "st": "TN", "Zip": 37398.0, "O_14": 2.0, "Q_15": 4.0, "O_15": 2.0, "city": "WINCHESTER", "beds": 46.0, "SR_15": 1.0}, {"Diff_star": -1.0, "addr": "257 PATTON LANE", "SR_14": 2.0, "Q_14": 3.0, "name": "RENAISSANCE TERRACE", "SF_14": 2.0, "SF_15": 2.0, "cnty": "Roane", "st": "TN", "Zip": 37748.0, "O_14": 2.0, "Q_15": 1.0, "O_15": 1.0, "city": "HARRIMAN", "beds": 130.0, "SR_15": 2.0}, {"Diff_star": -1.0, "addr": "239 HOSPITAL CIRCLE", "SR_14": 4.0, "Q_14": 3.0, "name": "HENRY COUNTY HEALTHCARE CTR", "SF_14": 4.0, "SF_15": 3.0, "cnty": "Henry", "st": "TN", "Zip": 38242.0, "O_14": 4.0, "Q_15": 1.0, "O_15": 3.0, "city": "PARIS", "beds": 136.0, "SR_15": 4.0}, {"Diff_star": 0.0, "addr": "1265 UNION AVENUE", "SR_14": 3.0, "Q_14": 5.0, "name": "SIGNATURE HEALTHCARE AT METHODIST", "SF_14": 4.0, "SF_15": 4.0, "cnty": "Shelby", "st": "TN", "Zip": 38104.0, "O_14": 5.0, "Q_15": 5.0, "O_15": 5.0, "city": "MEMPHIS", "beds": 44.0, "SR_15": 3.0}, {"Diff_star": 0.0, "addr": "725 CRUM STREET", "SR_14": 3.0, "Q_14": 5.0, "name": "LIFE CARE CENTER OF GREENEVILLE", "SF_14": 3.0, "SF_15": 3.0, "cnty": "Greene", "st": "TN", "Zip": 37743.0, "O_14": 4.0, "Q_15": 5.0, "O_15": 4.0, "city": "GREENEVILLE", "beds": 161.0, "SR_15": 3.0}, {"Diff_star": 0.0, "addr": "700 NUCKOLLS ROAD", "SR_14": 4.0, "Q_14": 4.0, "name": "PINE MEADOWS HEALTH CARE AND REHABILITATION CENTER", "SF_14": 2.0, "SF_15": 2.0, "cnty": "Hardeman", "st": "TN", "Zip": 38008.0, "O_14": 4.0, "Q_15": 3.0, "O_15": 4.0, "city": "BOLIVAR", "beds": 134.0, "SR_15": 4.0}, {"Diff_star": -1.0, "addr": "1076 CHAMBLISS ROAD", "SR_14": 1.0, "Q_14": 5.0, "name": "WHITEHAVEN COMMUNITY LIVING", "SF_14": 4.0, "SF_15": 3.0, "cnty": "Shelby", "st": "TN", "Zip": 38116.0, "O_14": 2.0, "Q_15": 4.0, "O_15": 1.0, "city": "MEMPHIS", "beds": 88.0, "SR_15": 1.0}, {"Diff_star": 0.0, "addr": "1101 GLEN OAKS ROAD", "SR_14": 1.0, "Q_14": 4.0, "name": "GLEN OAKS HEALTH AND REHABILITATION", "SF_14": 2.0, "SF_15": 2.0, "cnty": "Bedford", "st": "TN", "Zip": 37160.0, "O_14": 1.0, "Q_15": 1.0, "O_15": 1.0, "city": "SHELBYVILLE", "beds": 130.0, "SR_15": 1.0}, {"Diff_star": 0.0, "addr": "1530 MIDDLE TENNESSEE BLVD", "SR_14": 1.0, "Q_14": 3.0, "name": "BOULEVARD TERRACE REHABILITATION AND NURSING HOME", "SF_14": 2.0, "SF_15": 2.0, "cnty": "Rutherford", "st": "TN", "Zip": 37130.0, "O_14": 1.0, "Q_15": 1.0, "O_15": 1.0, "city": "MURFREESBORO", "beds": 100.0, "SR_15": 1.0}, {"Diff_star": 0.0, "addr": "841 W. JAMES CAMPBELL BLVD.", "SR_14": 3.0, "Q_14": 4.0, "name": "LIFE CARE CENTER OF COLUMBIA", "SF_14": 1.0, "SF_15": 1.0, "cnty": "Maury", "st": "TN", "Zip": 38401.0, "O_14": 2.0, "Q_15": 2.0, "O_15": 2.0, "city": "COLUMBIA", "beds": 123.0, "SR_15": 3.0}, {"Diff_star": -1.0, "addr": "701 WEST MAIN BLVD", "SR_14": 3.0, "Q_14": 5.0, "name": "CHURCH HILL CARE & REHAB CTR", "SF_14": 4.0, "SF_15": 4.0, "cnty": "Hawkins", "st": "TN", "Zip": 37642.0, "O_14": 5.0, "Q_15": 4.0, "O_15": 4.0, "city": "CHURCH HILL", "beds": 124.0, "SR_15": 3.0}, {"Diff_star": -1.0, "addr": "1715 N JACKSON ST", "SR_14": 4.0, "Q_14": 5.0, "name": "LIFE CARE CENTER OF TULLAHOMA", "SF_14": 1.0, "SF_15": 1.0, "cnty": "Coffee", "st": "TN", "Zip": 37388.0, "O_14": 4.0, "Q_15": 4.0, "O_15": 3.0, "city": "TULLAHOMA", "beds": 169.0, "SR_15": 4.0}, {"Diff_star": 0.0, "addr": "419 SOUTH KINGSTON STREET", "SR_14": 5.0, "Q_14": 4.0, "name": "LIFE CARE CENTER OF MORGAN COUNTY", "SF_14": 4.0, "SF_15": 4.0, "cnty": "Morgan", "st": "TN", "Zip": 37887.0, "O_14": 5.0, "Q_15": 3.0, "O_15": 5.0, "city": "WARTBURG", "beds": 124.0, "SR_15": 5.0}, {"Diff_star": 0.0, "addr": "1020 RUNYAN DR", "SR_14": 2.0, "Q_14": 2.0, "name": "LIFE CARE CENTER OF RED BANK", "SF_14": 1.0, "SF_15": 1.0, "cnty": "Hamilton", "st": "TN", "Zip": 37405.0, "O_14": 1.0, "Q_15": 1.0, "O_15": 1.0, "city": "CHATTANOOGA", "beds": 148.0, "SR_15": 2.0}, {"Diff_star": 0.0, "addr": "1150 DOVECREST RD", "SR_14": 2.0, "Q_14": 5.0, "name": "SIGNATURE HEALTHCARE OF MEMPHIS", "SF_14": 1.0, "SF_15": 1.0, "cnty": "Shelby", "st": "TN", "Zip": 38134.0, "O_14": 2.0, "Q_15": 5.0, "O_15": 2.0, "city": "MEMPHIS", "beds": 140.0, "SR_15": 2.0}, {"Diff_star": 0.0, "addr": "181 DUNLAP ROAD", "SR_14": 1.0, "Q_14": 3.0, "name": "GREYSTONE HEALTH CARE CENTER", "SF_14": 3.0, "SF_15": 3.0, "cnty": "Sullivan", "st": "TN", "Zip": 37617.0, "O_14": 1.0, "Q_15": 1.0, "O_15": 1.0, "city": "BLOUNTVILLE", "beds": 160.0, "SR_15": 1.0}, {"Diff_star": -1.0, "addr": "3530 KEITH ST NW", "SR_14": 1.0, "Q_14": 2.0, "name": "LIFE CARE CENTER OF CLEVELAND", "SF_14": 4.0, "SF_15": 4.0, "cnty": "Bradley", "st": "TN", "Zip": 37311.0, "O_14": 2.0, "Q_15": 1.0, "O_15": 1.0, "city": "CLEVELAND", "beds": 142.0, "SR_15": 1.0}, {"Diff_star": 0.0, "addr": "1012 JAMESTOWN WAY", "SR_14": 1.0, "Q_14": 4.0, "name": "KINDRED NURSING AND REHABILITATION-MARYVILLE", "SF_14": 3.0, "SF_15": 3.0, "cnty": "Blount", "st": "TN", "Zip": 37803.0, "O_14": 1.0, "Q_15": 3.0, "O_15": 1.0, "city": "MARYVILLE", "beds": 187.0, "SR_15": 1.0}, {"Diff_star": 0.0, "addr": "283 W BROADWAY BLVD", "SR_14": 4.0, "Q_14": 4.0, "name": "JEFFERSON CITY HEALTH AND REHAB CENTER", "SF_14": 1.0, "SF_15": 1.0, "cnty": "Jefferson", "st": "TN", "Zip": 37760.0, "O_14": 3.0, "Q_15": 4.0, "O_15": 3.0, "city": "JEFFERSON CITY", "beds": 170.0, "SR_15": 4.0}, {"Diff_star": 0.0, "addr": "158 MT PELIA RD", "SR_14": 2.0, "Q_14": 5.0, "name": "MARTIN HEALTH CARE", "SF_14": 3.0, "SF_15": 3.0, "cnty": "Weakley", "st": "TN", "Zip": 38237.0, "O_14": 3.0, "Q_15": 5.0, "O_15": 3.0, "city": "MARTIN", "beds": 150.0, "SR_15": 2.0}, {"Diff_star": 0.0, "addr": "895 POWERS BLVD", "SR_14": 3.0, "Q_14": 4.0, "name": "WAVERLY HEALTH CARE & REHABILITATION CENTER", "SF_14": 3.0, "SF_15": 3.0, "cnty": "Humphreys", "st": "TN", "Zip": 37185.0, "O_14": 3.0, "Q_15": 2.0, "O_15": 3.0, "city": "WAVERLY", "beds": 100.0, "SR_15": 3.0}, {"Diff_star": 0.0, "addr": "112 OLD DICKSON RD", "SR_14": 2.0, "Q_14": 2.0, "name": "LIFE CARE CENTER OF CENTERVILLE", "SF_14": 1.0, "SF_15": 1.0, "cnty": "Hickman", "st": "TN", "Zip": 37033.0, "O_14": 1.0, "Q_15": 1.0, "O_15": 1.0, "city": "CENTERVILLE", "beds": 132.0, "SR_15": 2.0}, {"Diff_star": 0.0, "addr": "1520 GROVE ST BOX 190", "SR_14": 2.0, "Q_14": 3.0, "name": "KINDRED NURSING AND REHABILITATION -LOUDON", "SF_14": 1.0, "SF_15": 1.0, "cnty": "Loudon", "st": "TN", "Zip": 37774.0, "O_14": 1.0, "Q_15": 2.0, "O_15": 1.0, "city": "LOUDON", "beds": 182.0, "SR_15": 2.0}, {"Diff_star": 0.0, "addr": "18805 ALBERTA DR", "SR_14": 5.0, "Q_14": 4.0, "name": "ONEIDA NURSING AND REHAB CENTER", "SF_14": 3.0, "SF_15": 3.0, "cnty": "Scott", "st": "TN", "Zip": 37841.0, "O_14": 5.0, "Q_15": 2.0, "O_15": 5.0, "city": "ONEIDA", "beds": 56.0, "SR_15": 5.0}, {"Diff_star": -1.0, "addr": "649 MCMURRY BLVD", "SR_14": 2.0, "Q_14": 5.0, "name": "HARTSVILLE CONVALESCENT CENTER", "SF_14": 1.0, "SF_15": 1.0, "cnty": "Trousdale", "st": "TN", "Zip": 37074.0, "O_14": 2.0, "Q_15": 3.0, "O_15": 1.0, "city": "HARTSVILLE", "beds": 83.0, "SR_15": 2.0}, {"Diff_star": 0.0, "addr": "12823 KINGSTON PIKE", "SR_14": 1.0, "Q_14": 3.0, "name": "SUMMIT VIEW OF FARRAGUT, LLC", "SF_14": 3.0, "SF_15": 3.0, "cnty": "Knox", "st": "TN", "Zip": 37923.0, "O_14": 1.0, "Q_15": 2.0, "O_15": 1.0, "city": "KNOXVILLE", "beds": 113.0, "SR_15": 1.0}, {"Diff_star": 0.0, "addr": "204 INDUSTRIAL PARK RD", "SR_14": 1.0, "Q_14": 4.0, "name": "SUMMIT VIEW OF ROCKY TOP", "SF_14": 3.0, "SF_15": 3.0, "cnty": "Anderson", "st": "TN", "Zip": 37769.0, "O_14": 1.0, "Q_15": 1.0, "O_15": 1.0, "city": "ROCKY TOP", "beds": 125.0, "SR_15": 1.0}, {"Diff_star": -1.0, "addr": "100 ELMHURST DR", "SR_14": 2.0, "Q_14": 5.0, "name": "BRIARCLIFF HEALTH CARE CENTER", "SF_14": 3.0, "SF_15": 3.0, "cnty": "Anderson", "st": "TN", "Zip": 37830.0, "O_14": 3.0, "Q_15": 3.0, "O_15": 2.0, "city": "OAK RIDGE", "beds": 120.0, "SR_15": 2.0}, {"Diff_star": -1.0, "addr": "4343 ASHLAND CITY HWY", "SR_14": 2.0, "Q_14": 5.0, "name": "CUMBERLAND HEALTH CARE AND REHABILITATION INC", "SF_14": 4.0, "SF_15": 4.0, "cnty": "Davidson", "st": "TN", "Zip": 37218.0, "O_14": 4.0, "Q_15": 4.0, "O_15": 3.0, "city": "NASHVILLE", "beds": 124.0, "SR_15": 2.0}, {"Diff_star": 0.0, "addr": "600 SHAWANEE RD", "SR_14": 4.0, "Q_14": 5.0, "name": "TRI STATE HEALTH AND REHABILITATION CENTER", "SF_14": 1.0, "SF_15": 1.0, "cnty": "Claiborne", "st": "TN", "Zip": 37752.0, "O_14": 4.0, "Q_15": 5.0, "O_15": 4.0, "city": "HARROGATE", "beds": 116.0, "SR_15": 4.0}, {"Diff_star": -1.0, "addr": "801 E MCKEE ST", "SR_14": 3.0, "Q_14": 3.0, "name": "LAUGHLIN HEALTH CARE CENTER", "SF_14": 4.0, "SF_15": 3.0, "cnty": "Greene", "st": "TN", "Zip": 37743.0, "O_14": 4.0, "Q_15": 3.0, "O_15": 3.0, "city": "GREENEVILLE", "beds": 90.0, "SR_15": 3.0}, {"Diff_star": 0.0, "addr": "3939 HILLSBORO CIRCLE", "SR_14": 1.0, "Q_14": 4.0, "name": "GREENHILLS HEALTH AND REHABILITATION CENTER", "SF_14": 3.0, "SF_15": 3.0, "cnty": "Davidson", "st": "TN", "Zip": 37215.0, "O_14": 1.0, "Q_15": 2.0, "O_15": 1.0, "city": "NASHVILLE", "beds": 150.0, "SR_15": 1.0}, {"Diff_star": -2.0, "addr": "731 CASTLE HEIGHTS COURT", "SR_14": 2.0, "Q_14": 5.0, "name": "LEBANON HEALTH AND REHABILITATION CENTER", "SF_14": 4.0, "SF_15": 4.0, "cnty": "Wilson", "st": "TN", "Zip": 37087.0, "O_14": 4.0, "Q_15": 1.0, "O_15": 2.0, "city": "LEBANON", "beds": 60.0, "SR_15": 2.0}, {"Diff_star": 0.0, "addr": "PO BOX 10299", "SR_14": 5.0, "Q_14": 4.0, "name": "TENNESSEE VETERANS HOME", "SF_14": 4.0, "SF_15": 4.0, "cnty": "Rutherford", "st": "TN", "Zip": 37129.0, "O_14": 5.0, "Q_15": 3.0, "O_15": 5.0, "city": "MURFREESBORO", "beds": 140.0, "SR_15": 5.0}, {"Diff_star": -2.0, "addr": "1340 N GRUNDY QUARLES HWY P O BOX 7", "SR_14": 3.0, "Q_14": 3.0, "name": "MABRY HEALTH CARE", "SF_14": 4.0, "SF_15": 3.0, "cnty": "Jackson", "st": "TN", "Zip": 38562.0, "O_14": 4.0, "Q_15": 1.0, "O_15": 2.0, "city": "GAINESBORO", "beds": 85.0, "SR_15": 3.0}, {"Diff_star": 0.0, "addr": "1710 BELCOURT AVENUE", "SR_14": 2.0, "Q_14": 4.0, "name": "BELCOURT TERRACE NURSING HOME", "SF_14": 1.0, "SF_15": 1.0, "cnty": "Davidson", "st": "TN", "Zip": 37212.0, "O_14": 1.0, "Q_15": 3.0, "O_15": 1.0, "city": "NASHVILLE", "beds": 49.0, "SR_15": 2.0}, {"Diff_star": 0.0, "addr": "197 HOSPITAL DR", "SR_14": 1.0, "Q_14": 5.0, "name": "CAMDEN HLTHCARE & REHAB CENTER", "SF_14": 3.0, "SF_15": 3.0, "cnty": "Benton", "st": "TN", "Zip": 38320.0, "O_14": 2.0, "Q_15": 5.0, "O_15": 2.0, "city": "CAMDEN", "beds": 150.0, "SR_15": 1.0}, {"Diff_star": 0.0, "addr": "336 WEST OLD ANDREW JOHNSON HWY", "SR_14": 2.0, "Q_14": 4.0, "name": "LIFE CARE CENTER OF JEFFERSON CITY", "SF_14": 1.0, "SF_15": 1.0, "cnty": "Jefferson", "st": "TN", "Zip": 37760.0, "O_14": 1.0, "Q_15": 3.0, "O_15": 1.0, "city": "JEFFERSON CITY", "beds": 121.0, "SR_15": 2.0}, {"Diff_star": 0.0, "addr": "136 DAVIS LANE", "SR_14": 4.0, "Q_14": 4.0, "name": "CUMBERLAND VILLAGE GENESIS HEALTHCARE", "SF_14": 3.0, "SF_15": 3.0, "cnty": "Campbell", "st": "TN", "Zip": 37766.0, "O_14": 4.0, "Q_15": 2.0, "O_15": 4.0, "city": "LAFOLLETTE", "beds": 182.0, "SR_15": 4.0}, {"Diff_star": -1.0, "addr": "886 HWY 411 NORTH", "SR_14": 4.0, "Q_14": 2.0, "name": "MCMINN MEMORIAL NURSING HOME & REHAB CENTER", "SF_14": 4.0, "SF_15": 4.0, "cnty": "Mc Minn", "st": "TN", "Zip": 37331.0, "O_14": 4.0, "Q_15": 1.0, "O_15": 3.0, "city": "ETOWAH", "beds": 88.0, "SR_15": 4.0}, {"Diff_star": 0.0, "addr": "332 RIVER ROAD", "SR_14": 1.0, "Q_14": 4.0, "name": "BROOKEWOOD NURSING CENTER, INC", "SF_14": 4.0, "SF_15": 4.0, "cnty": "Meigs", "st": "TN", "Zip": 37322.0, "O_14": 2.0, "Q_15": 3.0, "O_15": 2.0, "city": "DECATUR", "beds": 88.0, "SR_15": 1.0}, {"Diff_star": -1.0, "addr": "40 NURSING HOME ROAD", "SR_14": 3.0, "Q_14": 3.0, "name": "LYNCHBURG NURSING CENTER", "SF_14": 4.0, "SF_15": 3.0, "cnty": "Moore", "st": "TN", "Zip": 37352.0, "O_14": 4.0, "Q_15": 2.0, "O_15": 3.0, "city": "LYNCHBURG", "beds": 88.0, "SR_15": 3.0}, {"Diff_star": 0.0, "addr": "3051 BUFFALO ROAD", "SR_14": 1.0, "Q_14": 4.0, "name": "COUNTRYSIDE HEALTHCARE AND REHABILITATION", "SF_14": 2.0, "SF_15": 2.0, "cnty": "Lawrence", "st": "TN", "Zip": 38464.0, "O_14": 1.0, "Q_15": 2.0, "O_15": 1.0, "city": "LAWRENCEBURG", "beds": 162.0, "SR_15": 1.0}, {"Diff_star": 0.0, "addr": "3425 KNIGHT DRIVE", "SR_14": 4.0, "Q_14": 5.0, "name": "GRACE HEALTHCARE OF WHITES CREEK", "SF_14": 1.0, "SF_15": 1.0, "cnty": "Davidson", "st": "TN", "Zip": 37189.0, "O_14": 4.0, "Q_15": 5.0, "O_15": 4.0, "city": "WHITES CREEK", "beds": 127.0, "SR_15": 4.0}, {"Diff_star": -1.0, "addr": "8119 MEMPHIS-ARLINGTON ROAD", "SR_14": 2.0, "Q_14": 4.0, "name": "RAINBOW HEALTH & REHAB OF MEMPHIS, LLC", "SF_14": 4.0, "SF_15": 3.0, "cnty": "Shelby", "st": "TN", "Zip": 38133.0, "O_14": 3.0, "Q_15": 2.0, "O_15": 2.0, "city": "BARTLETT", "beds": 115.0, "SR_15": 2.0}, {"Diff_star": 0.0, "addr": "215 RICHARDSON WAY", "SR_14": 4.0, "Q_14": 4.0, "name": "WILLOW RIDGE CENTER", "SF_14": 2.0, "SF_15": 2.0, "cnty": "Union", "st": "TN", "Zip": 37807.0, "O_14": 4.0, "Q_15": 3.0, "O_15": 4.0, "city": "MAYNARDVILLE", "beds": 77.0, "SR_15": 4.0}, {"Diff_star": 0.0, "addr": "1034 REELFOOT DRIVE", "SR_14": 1.0, "Q_14": 5.0, "name": "REELFOOT MANOR HEALTH AND REHAB", "SF_14": 1.0, "SF_15": 1.0, "cnty": "Lake", "st": "TN", "Zip": 38079.0, "O_14": 2.0, "Q_15": 5.0, "O_15": 2.0, "city": "TIPTONVILLE", "beds": 116.0, "SR_15": 1.0}, {"Diff_star": -1.0, "addr": "307 N FIFTH ST BOX 5477", "SR_14": 2.0, "Q_14": 3.0, "name": "KINDRED NURSING AND REHABILITATION- FAIRPARK", "SF_14": 4.0, "SF_15": 4.0, "cnty": "Blount", "st": "TN", "Zip": 37801.0, "O_14": 3.0, "Q_15": 1.0, "O_15": 2.0, "city": "MARYVILLE", "beds": 75.0, "SR_15": 2.0}, {"Diff_star": -1.0, "addr": "287 BAKER STREET", "SR_14": 3.0, "Q_14": 5.0, "name": "HUNTSVILLE MANOR", "SF_14": 1.0, "SF_15": 1.0, "cnty": "Scott", "st": "TN", "Zip": 37756.0, "O_14": 3.0, "Q_15": 4.0, "O_15": 2.0, "city": "HUNTSVILLE", "beds": 96.0, "SR_15": 3.0}, {"Diff_star": -1.0, "addr": "100 STALLING LANE", "SR_14": 3.0, "Q_14": 5.0, "name": "ERWIN HEALTH CARE CENTER", "SF_14": "", "SF_15": "", "cnty": "Unicoi", "st": "TN", "Zip": 37650.0, "O_14": 4.0, "Q_15": 3.0, "O_15": 3.0, "city": "ERWIN", "beds": 125.0, "SR_15": 3.0}, {"Diff_star": -1.0, "addr": "240 HOSPITAL LANE, PO BOX 300", "SR_14": 4.0, "Q_14": 5.0, "name": "BEECH TREE MANOR", "SF_14": 4.0, "SF_15": 3.0, "cnty": "Campbell", "st": "TN", "Zip": 37762.0, "O_14": 5.0, "Q_15": 4.0, "O_15": 4.0, "city": "JELLICO", "beds": 110.0, "SR_15": 4.0}, {"Diff_star": 0.0, "addr": "36 BAZEBERRY ROAD", "SR_14": 5.0, "Q_14": 5.0, "name": "MEMPHIS JEWISH HOME", "SF_14": 4.0, "SF_15": 4.0, "cnty": "Shelby", "st": "TN", "Zip": 38018.0, "O_14": 5.0, "Q_15": 4.0, "O_15": 5.0, "city": "CORDOVA", "beds": 160.0, "SR_15": 5.0}, {"Diff_star": 0.0, "addr": "PO BOX 658, 9210 APISON PIKE", "SR_14": 2.0, "Q_14": 4.0, "name": "LIFE CARE CENTER OF COLLEGEDALE", "SF_14": 2.0, "SF_15": 2.0, "cnty": "Hamilton", "st": "TN", "Zip": 37315.0, "O_14": 2.0, "Q_15": 3.0, "O_15": 2.0, "city": "COLLEGEDALE", "beds": 124.0, "SR_15": 2.0}, {"Diff_star": 0.0, "addr": "3641 MEMORIAL BLVD", "SR_14": 2.0, "Q_14": 3.0, "name": "HOLSTON MANOR", "SF_14": 1.0, "SF_15": 1.0, "cnty": "Sullivan", "st": "TN", "Zip": 37664.0, "O_14": 1.0, "Q_15": 1.0, "O_15": 1.0, "city": "KINGSPORT", "beds": 204.0, "SR_15": 2.0}, {"Diff_star": 0.0, "addr": "1500 FINCHER AVENUE", "SR_14": 3.0, "Q_14": 1.0, "name": "LIFE CARE CENTER OF EAST RIDGE", "SF_14": 2.0, "SF_15": 2.0, "cnty": "Hamilton", "st": "TN", "Zip": 37412.0, "O_14": 2.0, "Q_15": 1.0, "O_15": 2.0, "city": "EAST RIDGE", "beds": 130.0, "SR_15": 3.0}, {"Diff_star": -4.0, "addr": "3300 BROADWAY NE", "SR_14": 4.0, "Q_14": 5.0, "name": "KINDRED HEALTH AND REHABILITATION-NORTHHAVEN", "SF_14": 2.0, "SF_15": 2.0, "cnty": "Knox", "st": "TN", "Zip": 37917.0, "O_14": 5.0, "Q_15": 4.0, "O_15": 1.0, "city": "KNOXVILLE", "beds": 96.0, "SR_15": 1.0}, {"Diff_star": -1.0, "addr": "1234 FRYE STREET, PO BOX 786", "SR_14": 4.0, "Q_14": 5.0, "name": "LIFE CARE CENTER OF ATHENS", "SF_14": 1.0, "SF_15": 1.0, "cnty": "Mc Minn", "st": "TN", "Zip": 37371.0, "O_14": 4.0, "Q_15": 4.0, "O_15": 3.0, "city": "ATHENS", "beds": 128.0, "SR_15": 4.0}, {"Diff_star": 0.0, "addr": "PO BOX 26 COFFEY LANE", "SR_14": 4.0, "Q_14": 5.0, "name": "RIDGEVIEW TERRACE OF LIFE CARE", "SF_14": 3.0, "SF_15": 3.0, "cnty": "Grainger", "st": "TN", "Zip": 37861.0, "O_14": 5.0, "Q_15": 5.0, "O_15": 5.0, "city": "RUTLEDGE", "beds": 132.0, "SR_15": 4.0}, {"Diff_star": 0.0, "addr": "1641 HIGHWAY 19E", "SR_14": 4.0, "Q_14": 4.0, "name": "LIFE CARE CENTER OF ELIZABETHTON", "SF_14": 2.0, "SF_15": 2.0, "cnty": "Carter", "st": "TN", "Zip": 37643.0, "O_14": 4.0, "Q_15": 3.0, "O_15": 4.0, "city": "ELIZABETHTON", "beds": 158.0, "SR_15": 4.0}, {"Diff_star": 0.0, "addr": "3382 ANDERSONVILLE HIGHWAY", "SR_14": 3.0, "Q_14": 4.0, "name": "NORRIS HEALTH AND REHABILITATION CENTER", "SF_14": 1.0, "SF_15": 1.0, "cnty": "Anderson", "st": "TN", "Zip": 37705.0, "O_14": 2.0, "Q_15": 3.0, "O_15": 2.0, "city": "ANDERSONVILLE", "beds": 103.0, "SR_15": 3.0}, {"Diff_star": -1.0, "addr": "456 WAYNE AVENUE", "SR_14": 3.0, "Q_14": 1.0, "name": "WYNDRIDGE HEALTH AND REHAB CTR", "SF_14": 4.0, "SF_15": 3.0, "cnty": "Cumberland", "st": "TN", "Zip": 38555.0, "O_14": 3.0, "Q_15": 1.0, "O_15": 2.0, "city": "CROSSVILLE", "beds": 157.0, "SR_15": 3.0}, {"Diff_star": -1.0, "addr": "215 HIGHLAND CIRCLE DRIVE", "SR_14": 4.0, "Q_14": 5.0, "name": "THE BRIDGE AT HIGHLAND", "SF_14": 3.0, "SF_15": 3.0, "cnty": "Sumner", "st": "TN", "Zip": 37148.0, "O_14": 5.0, "Q_15": 3.0, "O_15": 4.0, "city": "PORTLAND", "beds": 112.0, "SR_15": 4.0}, {"Diff_star": 0.0, "addr": "2036 HIGHWAY 45 BYPASS", "SR_14": 2.0, "Q_14": 4.0, "name": "TRENTON CENTER", "SF_14": 2.0, "SF_15": 2.0, "cnty": "Gibson", "st": "TN", "Zip": 38382.0, "O_14": 2.0, "Q_15": 4.0, "O_15": 2.0, "city": "TRENTON", "beds": 62.0, "SR_15": 2.0}, {"Diff_star": 0.0, "addr": "166 COPPER BASIN INDUSTRIAL PARK PO BOX 518", "SR_14": 3.0, "Q_14": 3.0, "name": "LIFE CARE CENTER OF COPPER BASIN", "SF_14": 3.0, "SF_15": 3.0, "cnty": "Polk", "st": "TN", "Zip": 37326.0, "O_14": 3.0, "Q_15": 2.0, "O_15": 3.0, "city": "DUCKTOWN", "beds": 135.0, "SR_15": 3.0}, {"Diff_star": 0.0, "addr": "501 WEST ECONOMY ROAD", "SR_14": 3.0, "Q_14": 4.0, "name": "LIFE CARE CENTER OF MORRISTOWN", "SF_14": 4.0, "SF_15": 4.0, "cnty": "Hamblen", "st": "TN", "Zip": 37814.0, "O_14": 4.0, "Q_15": 2.0, "O_15": 4.0, "city": "MORRISTOWN", "beds": 161.0, "SR_15": 3.0}, {"Diff_star": 0.0, "addr": "111 E PEMBERTON STREET", "SR_14": 2.0, "Q_14": 4.0, "name": "HILLCREST HEALTHCARE CENTER", "SF_14": 3.0, "SF_15": 3.0, "cnty": "Cheatham", "st": "TN", "Zip": 37015.0, "O_14": 2.0, "Q_15": 2.0, "O_15": 2.0, "city": "ASHLAND CITY", "beds": 95.0, "SR_15": 2.0}, {"Diff_star": 0.0, "addr": "2501 RIVER ROAD", "SR_14": 5.0, "Q_14": 5.0, "name": "CHRISTIAN CARE CENTER OF CHEATHAM COUNTY, INC", "SF_14": 3.0, "SF_15": 3.0, "cnty": "Cheatham", "st": "TN", "Zip": 37015.0, "O_14": 5.0, "Q_15": 3.0, "O_15": 5.0, "city": "ASHLAND CITY", "beds": 80.0, "SR_15": 5.0}, {"Diff_star": -1.0, "addr": "32 MEMORIAL DRIVE", "SR_14": 1.0, "Q_14": 4.0, "name": "WILLOWS AT WINCHESTER CARE & REHABILITATION CENTER", "SF_14": 4.0, "SF_15": 3.0, "cnty": "Franklin", "st": "TN", "Zip": 37398.0, "O_14": 2.0, "Q_15": 4.0, "O_15": 1.0, "city": "WINCHESTER", "beds": 80.0, "SR_15": 1.0}, {"Diff_star": 0.0, "addr": "4081 THORNTON TAYLOR PARKWAY", "SR_14": 2.0, "Q_14": 3.0, "name": "FAYETTEVILLE HEALTH AND REHABILITATION CENTER", "SF_14": 1.0, "SF_15": 1.0, "cnty": "Lincoln", "st": "TN", "Zip": 37334.0, "O_14": 1.0, "Q_15": 1.0, "O_15": 1.0, "city": "FAYETTEVILLE", "beds": 79.0, "SR_15": 2.0}, {"Diff_star": -1.0, "addr": "25385 MAIN STREET", "SR_14": 4.0, "Q_14": 2.0, "name": "ARDMORE HEALTH AND REHABILITATION CENTER", "SF_14": 2.0, "SF_15": 2.0, "cnty": "Giles", "st": "TN", "Zip": 38449.0, "O_14": 4.0, "Q_15": 1.0, "O_15": 3.0, "city": "ARDMORE", "beds": 79.0, "SR_15": 4.0}, {"Diff_star": -2.0, "addr": "520 OLD HIGHWAY 68", "SR_14": 3.0, "Q_14": 5.0, "name": "WOOD PRESBYTERIAN HOME", "SF_14": 4.0, "SF_15": 3.0, "cnty": "Monroe", "st": "TN", "Zip": 37874.0, "O_14": 5.0, "Q_15": 4.0, "O_15": 3.0, "city": "SWEETWATER", "beds": 89.0, "SR_15": 3.0}, {"Diff_star": 0.0, "addr": "105 ROWLAND", "SR_14": 4.0, "Q_14": 4.0, "name": "LIFE CARE CENTER OF BRUCETON-HOLLOW ROCK", "SF_14": 4.0, "SF_15": 3.0, "cnty": "Carroll", "st": "TN", "Zip": 38317.0, "O_14": 4.0, "Q_15": 3.0, "O_15": 4.0, "city": "BRUCETON", "beds": 130.0, "SR_15": 4.0}, {"Diff_star": 0.0, "addr": "117 N MAIN STREET", "SR_14": 2.0, "Q_14": 4.0, "name": "THE BRIDGE AT RIDGELY", "SF_14": 3.0, "SF_15": 3.0, "cnty": "Lake", "st": "TN", "Zip": 38080.0, "O_14": 2.0, "Q_15": 2.0, "O_15": 2.0, "city": "RIDGELY", "beds": 100.0, "SR_15": 2.0}, {"Diff_star": 0.0, "addr": "1901 CLINCH AVE", "SR_14": 5.0, "Q_14": 5.0, "name": "FORT SANDERS TCU", "SF_14": 5.0, "SF_15": 5.0, "cnty": "Knox", "st": "TN", "Zip": 37916.0, "O_14": 5.0, "Q_15": 4.0, "O_15": 5.0, "city": "KNOXVILLE", "beds": 24.0, "SR_15": 5.0}, {"Diff_star": 0.0, "addr": "309 MAIN ST", "SR_14": 3.0, "Q_14": 4.0, "name": "THE PALACE HEALTH CARE AND REHABILITATION CENTER", "SF_14": 1.0, "SF_15": 1.0, "cnty": "Macon", "st": "TN", "Zip": 37150.0, "O_14": 2.0, "Q_15": 2.0, "O_15": 2.0, "city": "RED BOILING SPRINGS", "beds": 119.0, "SR_15": 3.0}, {"Diff_star": 0.0, "addr": "765 BERT JOHNSTON AVE P O BOX 544", "SR_14": 3.0, "Q_14": 5.0, "name": "COVINGTON CARE NURSING & REHABILITATION CENTER INC", "SF_14": 4.0, "SF_15": 4.0, "cnty": "Tipton", "st": "TN", "Zip": 38019.0, "O_14": 5.0, "Q_15": 5.0, "O_15": 5.0, "city": "COVINGTON", "beds": 98.0, "SR_15": 3.0}, {"Diff_star": -1.0, "addr": "1250 FARROW ROAD", "SR_14": 1.0, "Q_14": 5.0, "name": "GRACELAND NURSING CENTER", "SF_14": 2.0, "SF_15": 2.0, "cnty": "Shelby", "st": "TN", "Zip": 38116.0, "O_14": 2.0, "Q_15": 4.0, "O_15": 1.0, "city": "MEMPHIS", "beds": 240.0, "SR_15": 1.0}, {"Diff_star": 0.0, "addr": "41 HOSPITAL DRIVE, PO BOX 1067", "SR_14": 4.0, "Q_14": 4.0, "name": "BRIARWOOD COMMUNITY LIVING CTR", "SF_14": 3.0, "SF_15": 3.0, "cnty": "Henderson", "st": "TN", "Zip": 38351.0, "O_14": 4.0, "Q_15": 3.0, "O_15": 4.0, "city": "LEXINGTON", "beds": 55.0, "SR_15": 4.0}, {"Diff_star": 0.0, "addr": "1636 WOODLAWN", "SR_14": 1.0, "Q_14": 3.0, "name": "OAKWOOD COMMUNITY LIVING CENTER", "SF_14": 2.0, "SF_15": 2.0, "cnty": "Dyer", "st": "TN", "Zip": 38024.0, "O_14": 1.0, "Q_15": 1.0, "O_15": 1.0, "city": "DYERSBURG", "beds": 50.0, "SR_15": 1.0}, {"Diff_star": 0.0, "addr": "2400 MITCHELL STREET", "SR_14": 3.0, "Q_14": 4.0, "name": "BAILEY PARK CLC", "SF_14": 3.0, "SF_15": 3.0, "cnty": "Gibson", "st": "TN", "Zip": 38343.0, "O_14": 3.0, "Q_15": 3.0, "O_15": 3.0, "city": "HUMBOLDT", "beds": 50.0, "SR_15": 3.0}, {"Diff_star": 0.0, "addr": "1559 NEW HIGHWAY 52", "SR_14": 5.0, "Q_14": 5.0, "name": "WESTMORELAND CARE & REHAB CTR", "SF_14": 3.0, "SF_15": 3.0, "cnty": "Sumner", "st": "TN", "Zip": 37186.0, "O_14": 5.0, "Q_15": 5.0, "O_15": 5.0, "city": "WESTMORELAND", "beds": 100.0, "SR_15": 5.0}, {"Diff_star": -2.0, "addr": "201 EAST 10TH STREET", "SR_14": 2.0, "Q_14": 4.0, "name": "BRIDGE AT SOUTH PITTSBURG, THE", "SF_14": 4.0, "SF_15": 3.0, "cnty": "Marion", "st": "TN", "Zip": 37380.0, "O_14": 3.0, "Q_15": 1.0, "O_15": 1.0, "city": "SOUTH PITTSBURG", "beds": 165.0, "SR_15": 2.0}, {"Diff_star": 0.0, "addr": "3916 BOYDS BRIDGE PIKE", "SR_14": 3.0, "Q_14": 5.0, "name": "HOLSTON HEALTH & REHABILITATION CENTER", "SF_14": 3.0, "SF_15": 3.0, "cnty": "Knox", "st": "TN", "Zip": 37914.0, "O_14": 4.0, "Q_15": 5.0, "O_15": 4.0, "city": "KNOXVILLE", "beds": 94.0, "SR_15": 3.0}, {"Diff_star": 0.0, "addr": "8060 STINSON ROAD", "SR_14": 2.0, "Q_14": 3.0, "name": "MILAN HEALTH CARE CENTER", "SF_14": 1.0, "SF_15": 1.0, "cnty": "Gibson", "st": "TN", "Zip": 38358.0, "O_14": 1.0, "Q_15": 2.0, "O_15": 1.0, "city": "MILAN", "beds": 66.0, "SR_15": 2.0}, {"Diff_star": -1.0, "addr": "106 HOLT COURT", "SR_14": 2.0, "Q_14": 5.0, "name": "SIGNATURE HEALTHCARE OF GREENEVILLE", "SF_14": 3.0, "SF_15": 3.0, "cnty": "Greene", "st": "TN", "Zip": 37743.0, "O_14": 3.0, "Q_15": 4.0, "O_15": 2.0, "city": "GREENEVILLE", "beds": 154.0, "SR_15": 2.0}, {"Diff_star": 0.0, "addr": "214 NORTH WATER STREET", "SR_14": 2.0, "Q_14": 5.0, "name": "PLEASANT VIEW HEALTH CARE CENTER", "SF_14": 4.0, "SF_15": 4.0, "cnty": "Hardeman", "st": "TN", "Zip": 38008.0, "O_14": 4.0, "Q_15": 5.0, "O_15": 4.0, "city": "BOLIVAR", "beds": 67.0, "SR_15": 2.0}, {"Diff_star": 0.0, "addr": "215 LACKEY LANE", "SR_14": 1.0, "Q_14": 1.0, "name": "LAUDERDALE COMMUNITY LIVING CENTER", "SF_14": 4.0, "SF_15": 3.0, "cnty": "Lauderdale", "st": "TN", "Zip": 38063.0, "O_14": 1.0, "Q_15": 1.0, "O_15": 1.0, "city": "RIPLEY", "beds": 71.0, "SR_15": 1.0}, {"Diff_star": 1.0, "addr": "2000 BROOKSIDE DRIVE", "SR_14": 4.0, "Q_14": 3.0, "name": "INDIAN PATH MEDICAL CENTER TRANSITIONAL CARE", "SF_14": 3.0, "SF_15": 3.0, "cnty": "Sullivan", "st": "TN", "Zip": 37660.0, "O_14": 4.0, "Q_15": 5.0, "O_15": 5.0, "city": "KINGSPORT", "beds": 22.0, "SR_15": 4.0}, {"Diff_star": 0.0, "addr": "2511 WESLEY STREET", "SR_14": 3.0, "Q_14": 4.0, "name": "PRINCETON TRANS CARE AT NORTH", "SF_14": 5.0, "SF_15": 5.0, "cnty": "Washington", "st": "TN", "Zip": 37601.0, "O_14": 4.0, "Q_15": 4.0, "O_15": 4.0, "city": "JOHNSON CITY", "beds": 34.0, "SR_15": 3.0}, {"Diff_star": 0.0, "addr": "150 OAK MANOR ROAD", "SR_14": 1.0, "Q_14": 2.0, "name": "OAK MANOR HEALTH CARE CENTER", "SF_14": 2.0, "SF_15": 2.0, "cnty": "Carroll", "st": "TN", "Zip": 38201.0, "O_14": 1.0, "Q_15": 1.0, "O_15": 1.0, "city": "MC KENZIE", "beds": 66.0, "SR_15": 1.0}, {"Diff_star": 0.0, "addr": "115 WOODLAWN DRIVE", "SR_14": 4.0, "Q_14": 4.0, "name": "LAKEBRIDGE HEALTH CARE CENTER", "SF_14": 1.0, "SF_15": 1.0, "cnty": "Washington", "st": "TN", "Zip": 37604.0, "O_14": 3.0, "Q_15": 2.0, "O_15": 3.0, "city": "JOHNSON CITY", "beds": 109.0, "SR_15": 4.0}, {"Diff_star": 0.0, "addr": "109 HWY 70 NORTH", "SR_14": 4.0, "Q_14": 5.0, "name": "ROGERSVILLE CARE & REHABILITATION CENTER", "SF_14": 3.0, "SF_15": 3.0, "cnty": "Hawkins", "st": "TN", "Zip": 37857.0, "O_14": 5.0, "Q_15": 5.0, "O_15": 5.0, "city": "ROGERSVILLE", "beds": 150.0, "SR_15": 4.0}, {"Diff_star": -1.0, "addr": "900 EAST OAK HILL AVENUE", "SR_14": 4.0, "Q_14": 5.0, "name": "TENNOVA HEALTH CARE-TENNOVA TCU", "SF_14": 5.0, "SF_15": 5.0, "cnty": "Knox", "st": "TN", "Zip": 37917.0, "O_14": 5.0, "Q_15": 5.0, "O_15": 4.0, "city": "KNOXVILLE", "beds": 25.0, "SR_15": 2.0}, {"Diff_star": -1.0, "addr": "208 DUNCAN ST N", "SR_14": 1.0, "Q_14": 5.0, "name": "SIGNATURE HEALTHCARE OF FENTRESS COUNTY", "SF_14": 2.0, "SF_15": 2.0, "cnty": "Fentress", "st": "TN", "Zip": 38556.0, "O_14": 2.0, "Q_15": 4.0, "O_15": 1.0, "city": "JAMESTOWN", "beds": 140.0, "SR_15": 1.0}, {"Diff_star": -1.0, "addr": "410 W CRAWFORD AVENUE", "SR_14": 4.0, "Q_14": 5.0, "name": "STANDING STONE CARE AND REHAB", "SF_14": 4.0, "SF_15": 3.0, "cnty": "Putnam", "st": "TN", "Zip": 38574.0, "O_14": 5.0, "Q_15": 2.0, "O_15": 4.0, "city": "MONTEREY", "beds": 115.0, "SR_15": 4.0}, {"Diff_star": 0.0, "addr": "2865 MAIN STREET", "SR_14": 5.0, "Q_14": 4.0, "name": "TENNESSEE STATE VETERANS HOME", "SF_14": 4.0, "SF_15": 4.0, "cnty": "Gibson", "st": "TN", "Zip": 38343.0, "O_14": 5.0, "Q_15": 2.0, "O_15": 5.0, "city": "HUMBOLDT", "beds": 140.0, "SR_15": 5.0}, {"Diff_star": -1.0, "addr": "897 EVERGREEN STREET, PO BOX 769", "SR_14": 3.0, "Q_14": 4.0, "name": "HILLVIEW COMMUNITY LIVING CENTER", "SF_14": 3.0, "SF_15": 3.0, "cnty": "Weakley", "st": "TN", "Zip": 38225.0, "O_14": 3.0, "Q_15": 1.0, "O_15": 2.0, "city": "DRESDEN", "beds": 70.0, "SR_15": 3.0}, {"Diff_star": 0.0, "addr": "240 HANNAH ROAD", "SR_14": 4.0, "Q_14": 5.0, "name": "HARRIMAN CARE & REHAB CENTER", "SF_14": 2.0, "SF_15": 2.0, "cnty": "Roane", "st": "TN", "Zip": 37748.0, "O_14": 5.0, "Q_15": 5.0, "O_15": 5.0, "city": "HARRIMAN", "beds": 180.0, "SR_15": 4.0}, {"Diff_star": 0.0, "addr": "2750 EXECUTIVE PARK PLACE", "SR_14": 4.0, "Q_14": 5.0, "name": "SIGNATURE HEALTHCARE OF CLEVELAND", "SF_14": 4.0, "SF_15": 4.0, "cnty": "Bradley", "st": "TN", "Zip": 37312.0, "O_14": 5.0, "Q_15": 5.0, "O_15": 5.0, "city": "CLEVELAND", "beds": 100.0, "SR_15": 4.0}, {"Diff_star": -1.0, "addr": "935 WAYNE ROAD", "SR_14": 2.0, "Q_14": 5.0, "name": "HARDIN CO NURSING HOME", "SF_14": 3.0, "SF_15": 3.0, "cnty": "Hardin", "st": "TN", "Zip": 38372.0, "O_14": 3.0, "Q_15": 4.0, "O_15": 2.0, "city": "SAVANNAH", "beds": 73.0, "SR_15": 2.0}, {"Diff_star": 0.0, "addr": "202 EAST MTCS ROAD", "SR_14": 1.0, "Q_14": 2.0, "name": "NORTHSIDE HEALTH CARE NURSING AND REHABILITATION C", "SF_14": 1.0, "SF_15": 1.0, "cnty": "Rutherford", "st": "TN", "Zip": 37130.0, "O_14": 1.0, "Q_15": 1.0, "O_15": 1.0, "city": "MURFREESBORO", "beds": 68.0, "SR_15": 1.0}, {"Diff_star": 0.0, "addr": "904 HIDDEN ACRES DR", "SR_14": 4.0, "Q_14": 4.0, "name": "MT PLEASANT HEALTHCARE AND REHABILITATION", "SF_14": 3.0, "SF_15": 3.0, "cnty": "Maury", "st": "TN", "Zip": 38474.0, "O_14": 4.0, "Q_15": 2.0, "O_15": 4.0, "city": "MOUNT PLEASANT", "beds": 72.0, "SR_15": 4.0}, {"Diff_star": 0.0, "addr": "278 ROCKY HOLLOW ROAD", "SR_14": 5.0, "Q_14": 5.0, "name": "SIGNATURE HEALTHCARE OF ERIN", "SF_14": 3.0, "SF_15": 3.0, "cnty": "Houston", "st": "TN", "Zip": 37061.0, "O_14": 5.0, "Q_15": 5.0, "O_15": 5.0, "city": "ERIN", "beds": 164.0, "SR_15": 5.0}, {"Diff_star": 0.0, "addr": "11 BURTON HILLS BLVD", "SR_14": 4.0, "Q_14": 5.0, "name": "WOODCREST AT BLAKEFORD", "SF_14": 4.0, "SF_15": 4.0, "cnty": "Davidson", "st": "TN", "Zip": 37215.0, "O_14": 5.0, "Q_15": 5.0, "O_15": 5.0, "city": "NASHVILLE", "beds": 83.0, "SR_15": 4.0}, {"Diff_star": 0.0, "addr": "5798 HIXSON HOME PLACE", "SR_14": 3.0, "Q_14": 4.0, "name": "LIFE CARE CENTER OF HIXSON", "SF_14": 1.0, "SF_15": 1.0, "cnty": "Hamilton", "st": "TN", "Zip": 37343.0, "O_14": 2.0, "Q_15": 3.0, "O_15": 2.0, "city": "HIXSON", "beds": 108.0, "SR_15": 3.0}, {"Diff_star": 0.0, "addr": "1630 E REELFOOT AVE", "SR_14": 1.0, "Q_14": 4.0, "name": "UNION CITY NURSING AND REHABILITATION CENTER INC", "SF_14": 4.0, "SF_15": 4.0, "cnty": "Obion", "st": "TN", "Zip": 38261.0, "O_14": 2.0, "Q_15": 4.0, "O_15": 2.0, "city": "UNION CITY", "beds": 115.0, "SR_15": 1.0}, {"Diff_star": 0.0, "addr": "415 COLE DRIVE", "SR_14": 2.0, "Q_14": 4.0, "name": "PIGEON FORGE CARE & REHAB CENTER", "SF_14": 3.0, "SF_15": 3.0, "cnty": "Sevier", "st": "TN", "Zip": 37863.0, "O_14": 2.0, "Q_15": 4.0, "O_15": 2.0, "city": "PIGEON FORGE", "beds": 120.0, "SR_15": 2.0}, {"Diff_star": 0.0, "addr": "811 KEYLON STREET", "SR_14": 1.0, "Q_14": 1.0, "name": "HORIZON HEALTH AND REHAB CENTER", "SF_14": 4.0, "SF_15": 4.0, "cnty": "Coffee", "st": "TN", "Zip": 37355.0, "O_14": 1.0, "Q_15": 1.0, "O_15": 1.0, "city": "MANCHESTER", "beds": 72.0, "SR_15": 1.0}, {"Diff_star": 0.0, "addr": "200 SOUTH PARKWAY WEST", "SR_14": 3.0, "Q_14": 4.0, "name": "PARKWAY HEALTH AND REHABILITATION CENTER", "SF_14": 3.0, "SF_15": 3.0, "cnty": "Shelby", "st": "TN", "Zip": 38109.0, "O_14": 3.0, "Q_15": 2.0, "O_15": 3.0, "city": "MEMPHIS", "beds": 120.0, "SR_15": 3.0}, {"Diff_star": 0.0, "addr": "87 GENERATIONS DRIVE", "SR_14": 4.0, "Q_14": 5.0, "name": "GENERATIONS CENTER OF SPENCER", "SF_14": 5.0, "SF_15": 3.0, "cnty": "Van Buren", "st": "TN", "Zip": 38585.0, "O_14": 5.0, "Q_15": 4.0, "O_15": 5.0, "city": "SPENCER", "beds": 70.0, "SR_15": 5.0}, {"Diff_star": 0.0, "addr": "129 HILLCREST DRIVE", "SR_14": 5.0, "Q_14": 5.0, "name": "PICKETT CARE AND REHABILITATION CENTER", "SF_14": 4.0, "SF_15": 4.0, "cnty": "Pickett", "st": "TN", "Zip": 38549.0, "O_14": 5.0, "Q_15": 4.0, "O_15": 5.0, "city": "BYRDSTOWN", "beds": 67.0, "SR_15": 5.0}, {"Diff_star": -1.0, "addr": "395 INTERSTATE DRIVE", "SR_14": 3.0, "Q_14": 3.0, "name": "MANCHESTER HEALTH CARE CENTER", "SF_14": 3.0, "SF_15": 3.0, "cnty": "Coffee", "st": "TN", "Zip": 37355.0, "O_14": 3.0, "Q_15": 1.0, "O_15": 2.0, "city": "MANCHESTER", "beds": 120.0, "SR_15": 3.0}, {"Diff_star": 0.0, "addr": "1927 MEMORIAL BOULEVARD", "SR_14": 3.0, "Q_14": 5.0, "name": "ADAMSPLACE, LLC", "SF_14": 5.0, "SF_15": 5.0, "cnty": "Rutherford", "st": "TN", "Zip": 37129.0, "O_14": 5.0, "Q_15": 5.0, "O_15": 5.0, "city": "MURFREESBORO", "beds": 40.0, "SR_15": 3.0}, {"Diff_star": 0.0, "addr": "26 SECOND STREET", "SR_14": 4.0, "Q_14": 4.0, "name": "BRIDGE AT MONTEAGLE (THE)", "SF_14": 4.0, "SF_15": 3.0, "cnty": "Grundy", "st": "TN", "Zip": 37356.0, "O_14": 4.0, "Q_15": 3.0, "O_15": 4.0, "city": "MONTEAGLE", "beds": 150.0, "SR_15": 4.0}, {"Diff_star": 0.0, "addr": "146 BUCK CREEK ROAD", "SR_14": 5.0, "Q_14": 4.0, "name": "ROAN HIGHLANDS NURSING CENTER", "SF_14": 1.0, "SF_15": 1.0, "cnty": "Carter", "st": "TN", "Zip": 37687.0, "O_14": 4.0, "Q_15": 2.0, "O_15": 4.0, "city": "ROAN MOUNTAIN", "beds": 80.0, "SR_15": 5.0}, {"Diff_star": 0.0, "addr": "409 PARK AVENUE", "SR_14": 4.0, "Q_14": 4.0, "name": "ADAMSVILLE HEALTHCARE AND REHABILITATION CENTER", "SF_14": 3.0, "SF_15": 3.0, "cnty": "Mc Nairy", "st": "TN", "Zip": 38310.0, "O_14": 4.0, "Q_15": 2.0, "O_15": 4.0, "city": "ADAMSVILLE", "beds": 125.0, "SR_15": 4.0}, {"Diff_star": 0.0, "addr": "1224 TROTWOOD AVE", "SR_14": 5.0, "Q_14": 2.0, "name": "MAURY REGIONAL HOSPITAL SNU", "SF_14": 5.0, "SF_15": 5.0, "cnty": "Maury", "st": "TN", "Zip": 38401.0, "O_14": 5.0, "Q_15": 2.0, "O_15": 5.0, "city": "COLUMBIA", "beds": 20.0, "SR_15": 5.0}, {"Diff_star": 0.0, "addr": "121 PHYSICIANS DR", "SR_14": 4.0, "Q_14": 4.0, "name": "NORTHBROOKE HEALTH CARE CENTER", "SF_14": 4.0, "SF_15": 4.0, "cnty": "Madison", "st": "TN", "Zip": 38305.0, "O_14": 4.0, "Q_15": 3.0, "O_15": 4.0, "city": "JACKSON", "beds": 120.0, "SR_15": 4.0}, {"Diff_star": 0.0, "addr": "220 STATE ROUTE 76", "SR_14": 1.0, "Q_14": 4.0, "name": "SPRING MEADOWS HEALTH CARE CENTER", "SF_14": 4.0, "SF_15": 4.0, "cnty": "Montgomery", "st": "TN", "Zip": 37043.0, "O_14": 2.0, "Q_15": 3.0, "O_15": 2.0, "city": "CLARKSVILLE", "beds": 121.0, "SR_15": 1.0}, {"Diff_star": 0.0, "addr": "2320 EAST LAMAR ALEXANDER PKWY", "SR_14": 1.0, "Q_14": 4.0, "name": "BLOUNT MEMORIAL TRANS CARE CTR", "SF_14": 4.0, "SF_15": 4.0, "cnty": "Blount", "st": "TN", "Zip": 37804.0, "O_14": 2.0, "Q_15": 3.0, "O_15": 2.0, "city": "MARYVILLE", "beds": 76.0, "SR_15": 1.0}, {"Diff_star": 0.0, "addr": "901 COUNTY FARM RD", "SR_14": 3.0, "Q_14": 4.0, "name": "COMMUNITY CARE OF RUTHERFORD", "SF_14": 3.0, "SF_15": 3.0, "cnty": "Rutherford", "st": "TN", "Zip": 37127.0, "O_14": 3.0, "Q_15": 2.0, "O_15": 3.0, "city": "MURFREESBORO", "beds": 131.0, "SR_15": 3.0}, {"Diff_star": 0.0, "addr": "701 SEQUOYAH ROAD", "SR_14": 4.0, "Q_14": 3.0, "name": "SODDY-DAISY HEALTH CARE CENTER", "SF_14": 1.0, "SF_15": 1.0, "cnty": "Hamilton", "st": "TN", "Zip": 37379.0, "O_14": 3.0, "Q_15": 2.0, "O_15": 3.0, "city": "SODDY-DAISY", "beds": 120.0, "SR_15": 4.0}, {"Diff_star": 0.0, "addr": "2030 25TH AVE N", "SR_14": 2.0, "Q_14": 3.0, "name": "CRESTVIEW HEALTH AND REHABILITATION", "SF_14": 4.0, "SF_15": 4.0, "cnty": "Davidson", "st": "TN", "Zip": 37208.0, "O_14": 3.0, "Q_15": 2.0, "O_15": 3.0, "city": "NASHVILLE", "beds": 111.0, "SR_15": 2.0}, {"Diff_star": 0.0, "addr": "405 TIMES AVE", "SR_14": 4.0, "Q_14": 3.0, "name": "KNOLLWOOD MANOR", "SF_14": 4.0, "SF_15": 3.0, "cnty": "Macon", "st": "TN", "Zip": 37083.0, "O_14": 4.0, "Q_15": 3.0, "O_15": 4.0, "city": "LAFAYETTE", "beds": 49.0, "SR_15": 4.0}, {"Diff_star": 0.0, "addr": "1536 APPLING CARE LANE", "SR_14": 2.0, "Q_14": 5.0, "name": "APPLINGWOOD HEALTH CARE CENTER", "SF_14": 3.0, "SF_15": 3.0, "cnty": "Shelby", "st": "TN", "Zip": 38018.0, "O_14": 3.0, "Q_15": 5.0, "O_15": 3.0, "city": "CORDOVA", "beds": 78.0, "SR_15": 2.0}, {"Diff_star": 0.0, "addr": "100 CHERRYWOOD PLACE", "SR_14": 3.0, "Q_14": 5.0, "name": "MAPLEWOOD HEALTH CARE CENTER", "SF_14": 1.0, "SF_15": 1.0, "cnty": "Madison", "st": "TN", "Zip": 38305.0, "O_14": 3.0, "Q_15": 5.0, "O_15": 3.0, "city": "JACKSON", "beds": 160.0, "SR_15": 3.0}, {"Diff_star": 0.0, "addr": "200 BIRCH ST", "SR_14": 1.0, "Q_14": 4.0, "name": "LAURELWOOD HEALTHCARE CENTER", "SF_14": 3.0, "SF_15": 3.0, "cnty": "Madison", "st": "TN", "Zip": 38301.0, "O_14": 1.0, "Q_15": 2.0, "O_15": 1.0, "city": "JACKSON", "beds": 67.0, "SR_15": 1.0}, {"Diff_star": 0.0, "addr": "120 CAVETT HILL LANE", "SR_14": 4.0, "Q_14": 5.0, "name": "NHC HEALTHCARE, FARRAGUT", "SF_14": 4.0, "SF_15": 4.0, "cnty": "Knox", "st": "TN", "Zip": 37922.0, "O_14": 5.0, "Q_15": 5.0, "O_15": 5.0, "city": "KNOXVILLE", "beds": 100.0, "SR_15": 4.0}, {"Diff_star": 0.0, "addr": "318 BILBREY STREET", "SR_14": 1.0, "Q_14": 4.0, "name": "OVERTON COUNTY NURSING HOME", "SF_14": 2.0, "SF_15": 2.0, "cnty": "Overton", "st": "TN", "Zip": 38570.0, "O_14": 1.0, "Q_15": 2.0, "O_15": 1.0, "city": "LIVINGSTON", "beds": 125.0, "SR_15": 1.0}, {"Diff_star": 0.0, "addr": "ONE SISKIN PLAZA", "SR_14": 5.0, "Q_14": 2.0, "name": "SISKIN HOSPITAL SUBACUTE REHAB", "SF_14": 5.0, "SF_15": 5.0, "cnty": "Hamilton", "st": "TN", "Zip": 37403.0, "O_14": 5.0, "Q_15": 2.0, "O_15": 5.0, "city": "CHATTANOOGA", "beds": 29.0, "SR_15": 5.0}, {"Diff_star": -1.0, "addr": "508 MOSE DRIVE", "SR_14": 4.0, "Q_14": 3.0, "name": "LIFE CARE CENTER OF SPARTA", "SF_14": 4.0, "SF_15": 4.0, "cnty": "White", "st": "TN", "Zip": 38583.0, "O_14": 4.0, "Q_15": 1.0, "O_15": 3.0, "city": "SPARTA", "beds": 100.0, "SR_15": 4.0}, {"Diff_star": -1.0, "addr": "409 GRADY ROAD, PO BOX 957", "SR_14": 3.0, "Q_14": 2.0, "name": "ETOWAH HEALTH CARE CENTER", "SF_14": 2.0, "SF_15": 2.0, "cnty": "Mc Minn", "st": "TN", "Zip": 37331.0, "O_14": 3.0, "Q_15": 1.0, "O_15": 2.0, "city": "ETOWAH", "beds": 120.0, "SR_15": 3.0}, {"Diff_star": -1.0, "addr": "460 HANNINGS LANE", "SR_14": 5.0, "Q_14": 3.0, "name": "VANAYER HEALTHCARE AND REHAB CENTER, INC", "SF_14": 3.0, "SF_15": 3.0, "cnty": "Weakley", "st": "TN", "Zip": 38237.0, "O_14": 5.0, "Q_15": 1.0, "O_15": 4.0, "city": "MARTIN", "beds": 91.0, "SR_15": 5.0}, {"Diff_star": -1.0, "addr": "880 SOUTH MOHAWK DRIVE", "SR_14": 1.0, "Q_14": 5.0, "name": "CENTER ON AGING AND HEALTH", "SF_14": 2.0, "SF_15": 2.0, "cnty": "Unicoi", "st": "TN", "Zip": 37650.0, "O_14": 2.0, "Q_15": 3.0, "O_15": 1.0, "city": "ERWIN", "beds": 120.0, "SR_15": 1.0}, {"Diff_star": 0.0, "addr": "5081 EASLEY AVENUE", "SR_14": 2.0, "Q_14": 4.0, "name": "MILLINGTON HEALTHCARE CENTER", "SF_14": 1.0, "SF_15": 1.0, "cnty": "Shelby", "st": "TN", "Zip": 38053.0, "O_14": 1.0, "Q_15": 2.0, "O_15": 1.0, "city": "MILLINGTON", "beds": 85.0, "SR_15": 2.0}, {"Diff_star": -1.0, "addr": "5070 SANDERLIN AVENUE", "SR_14": 2.0, "Q_14": 5.0, "name": "BRIGHT GLADE HEALTH AND REHABILITATION CENTER INC", "SF_14": 3.0, "SF_15": 3.0, "cnty": "Shelby", "st": "TN", "Zip": 38117.0, "O_14": 3.0, "Q_15": 4.0, "O_15": 2.0, "city": "MEMPHIS", "beds": 77.0, "SR_15": 2.0}, {"Diff_star": -1.0, "addr": "444 ONE ELEVEN PLACE", "SR_14": 4.0, "Q_14": 5.0, "name": "BETHESDA HEALTH CARE CENTER", "SF_14": 3.0, "SF_15": 3.0, "cnty": "Putnam", "st": "TN", "Zip": 38501.0, "O_14": 5.0, "Q_15": 4.0, "O_15": 4.0, "city": "COOKEVILLE", "beds": 120.0, "SR_15": 4.0}, {"Diff_star": -1.0, "addr": "1513 N 2ND STREET", "SR_14": 2.0, "Q_14": 3.0, "name": "HARBOR VIEW NURSING AND REHABILITATION CENTER, INC", "SF_14": 4.0, "SF_15": 3.0, "cnty": "Shelby", "st": "TN", "Zip": 38107.0, "O_14": 3.0, "Q_15": 3.0, "O_15": 2.0, "city": "MEMPHIS", "beds": 120.0, "SR_15": 2.0}, {"Diff_star": 0.0, "addr": "175 HOSPITAL DRIVE", "SR_14": 5.0, "Q_14": 4.0, "name": "MCKENZIE HEALTH CARE CENTER", "SF_14": 2.0, "SF_15": 2.0, "cnty": "Carroll", "st": "TN", "Zip": 38201.0, "O_14": 5.0, "Q_15": 3.0, "O_15": 5.0, "city": "MC KENZIE", "beds": 99.0, "SR_15": 5.0}, {"Diff_star": 0.0, "addr": "119 KITTRELL ST, PO BOX 129", "SR_14": 2.0, "Q_14": 3.0, "name": "LEWIS COUNTY NURSING AND REHABILITATION CENTER", "SF_14": 3.0, "SF_15": 3.0, "cnty": "Lewis", "st": "TN", "Zip": 38462.0, "O_14": 2.0, "Q_15": 2.0, "O_15": 2.0, "city": "HOHENWALD", "beds": 131.0, "SR_15": 2.0}, {"Diff_star": 0.0, "addr": "727 EAST CHURCH STREET", "SR_14": 4.0, "Q_14": 4.0, "name": "LEXINGTON HEALTH CARE AND REHABILITATION, INC", "SF_14": 4.0, "SF_15": 3.0, "cnty": "Henderson", "st": "TN", "Zip": 38351.0, "O_14": 4.0, "Q_15": 3.0, "O_15": 4.0, "city": "LEXINGTON", "beds": 118.0, "SR_15": 4.0}, {"Diff_star": -1.0, "addr": "111 USSERY ROAD", "SR_14": 2.0, "Q_14": 5.0, "name": "GRACE HEALTHCARE OF CLARKSVILLE", "SF_14": 3.0, "SF_15": 3.0, "cnty": "Montgomery", "st": "TN", "Zip": 37043.0, "O_14": 3.0, "Q_15": 3.0, "O_15": 2.0, "city": "CLARKSVILLE", "beds": 122.0, "SR_15": 2.0}, {"Diff_star": 0.0, "addr": "2084 W MAIN ST", "SR_14": 2.0, "Q_14": 4.0, "name": "DOUGLAS NURSING HOME", "SF_14": 3.0, "SF_15": 3.0, "cnty": "Gibson", "st": "TN", "Zip": 38358.0, "O_14": 2.0, "Q_15": 2.0, "O_15": 2.0, "city": "MILAN", "beds": 72.0, "SR_15": 2.0}, {"Diff_star": 0.0, "addr": "119 WEST HIGH STREET", "SR_14": 4.0, "Q_14": 4.0, "name": "WOODBURY HEALTH CENTER", "SF_14": 4.0, "SF_15": 4.0, "cnty": "Cannon", "st": "TN", "Zip": 37190.0, "O_14": 4.0, "Q_15": 2.0, "O_15": 4.0, "city": "WOODBURY", "beds": 102.0, "SR_15": 4.0}, {"Diff_star": -1.0, "addr": "2380 JAMES ROAD", "SR_14": 2.0, "Q_14": 5.0, "name": "MIDSOUTH HEALTH AND REHABILITATION CENTER", "SF_14": 4.0, "SF_15": 3.0, "cnty": "Shelby", "st": "TN", "Zip": 38127.0, "O_14": 4.0, "Q_15": 5.0, "O_15": 3.0, "city": "MEMPHIS", "beds": 155.0, "SR_15": 2.0}, {"Diff_star": 0.0, "addr": "700 WEAKLEY COUNTY NURSING HOME ROAD", "SR_14": 4.0, "Q_14": 4.0, "name": "WEAKLEY COUNTY NURSING HOME", "SF_14": 2.0, "SF_15": 2.0, "cnty": "Weakley", "st": "TN", "Zip": 38225.0, "O_14": 4.0, "Q_15": 4.0, "O_15": 4.0, "city": "DRESDEN", "beds": 136.0, "SR_15": 4.0}, {"Diff_star": 0.0, "addr": "2650 NORTH MT JULIET ROAD", "SR_14": 2.0, "Q_14": 3.0, "name": "MT JULIET HEALTH CARE CENTER", "SF_14": 4.0, "SF_15": 4.0, "cnty": "Wilson", "st": "TN", "Zip": 37122.0, "O_14": 3.0, "Q_15": 2.0, "O_15": 3.0, "city": "MOUNT JULIET", "beds": 106.0, "SR_15": 2.0}, {"Diff_star": 0.0, "addr": "435 OLD BROWNSVILLE RD", "SR_14": 1.0, "Q_14": 4.0, "name": "GALLAWAY HEALTH AND REHAB", "SF_14": 1.0, "SF_15": 1.0, "cnty": "Fayette", "st": "TN", "Zip": 38036.0, "O_14": 1.0, "Q_15": 2.0, "O_15": 1.0, "city": "GALLAWAY", "beds": 104.0, "SR_15": 1.0}, {"Diff_star": -1.0, "addr": "3515 CHERE CAROL RD", "SR_14": 3.0, "Q_14": 3.0, "name": "HUMBOLDT NURSING AND REHABILITATION CENTER", "SF_14": 4.0, "SF_15": 4.0, "cnty": "Gibson", "st": "TN", "Zip": 38343.0, "O_14": 4.0, "Q_15": 1.0, "O_15": 3.0, "city": "HUMBOLDT", "beds": 120.0, "SR_15": 3.0}, {"Diff_star": 0.0, "addr": "704 DUPREE ST", "SR_14": 4.0, "Q_14": 4.0, "name": "CRESTVIEW HEALTH CARE CENTER OF BROWNSVILLE, INC", "SF_14": 3.0, "SF_15": 3.0, "cnty": "Haywood", "st": "TN", "Zip": 38012.0, "O_14": 4.0, "Q_15": 3.0, "O_15": 4.0, "city": "BROWNSVILLE", "beds": 115.0, "SR_15": 4.0}, {"Diff_star": -1.0, "addr": "1245 E COLLEGE ST", "SR_14": 1.0, "Q_14": 4.0, "name": "MEADOWBROOK NURSING CENTER", "SF_14": 4.0, "SF_15": 3.0, "cnty": "Giles", "st": "TN", "Zip": 38478.0, "O_14": 2.0, "Q_15": 4.0, "O_15": 1.0, "city": "PULASKI", "beds": 83.0, "SR_15": 1.0}, {"Diff_star": 0.0, "addr": "1645 FLORENCE RD", "SR_14": 5.0, "Q_14": 4.0, "name": "SAVANNAH HEALTH CARE AND REHABILITATION CENTER, IN", "SF_14": 4.0, "SF_15": 4.0, "cnty": "Hardin", "st": "TN", "Zip": 38372.0, "O_14": 5.0, "Q_15": 5.0, "O_15": 5.0, "city": "SAVANNAH", "beds": 120.0, "SR_15": 5.0}, {"Diff_star": 0.0, "addr": "120 PITCOCK LANE", "SR_14": 4.0, "Q_14": 4.0, "name": "CELINA HEALTH AND REHABILITATION CENTER", "SF_14": 3.0, "SF_15": 3.0, "cnty": "Clay", "st": "TN", "Zip": 38551.0, "O_14": 4.0, "Q_15": 3.0, "O_15": 4.0, "city": "CELINA", "beds": 66.0, "SR_15": 4.0}, {"Diff_star": -1.0, "addr": "1900 PARR AVENUE", "SR_14": 2.0, "Q_14": 4.0, "name": "DYERSBURG NURSING AND REHABILITATION, INC", "SF_14": 4.0, "SF_15": 3.0, "cnty": "Dyer", "st": "TN", "Zip": 38024.0, "O_14": 3.0, "Q_15": 3.0, "O_15": 2.0, "city": "DYERSBURG", "beds": 130.0, "SR_15": 2.0}, {"Diff_star": 0.0, "addr": "118 GLASS ST", "SR_14": 5.0, "Q_14": 5.0, "name": "MISSION CONVALESCENT HOME", "SF_14": 4.0, "SF_15": 3.0, "cnty": "Madison", "st": "TN", "Zip": 38301.0, "O_14": 5.0, "Q_15": 3.0, "O_15": 5.0, "city": "JACKSON", "beds": 57.0, "SR_15": 5.0}, {"Diff_star": -1.0, "addr": "198 OLD FARMER ROAD", "SR_14": 2.0, "Q_14": 5.0, "name": "SIGNATURE HEALTHCARE OF CLARKSVILLE", "SF_14": 2.0, "SF_15": 2.0, "cnty": "Montgomery", "st": "TN", "Zip": 37043.0, "O_14": 3.0, "Q_15": 4.0, "O_15": 2.0, "city": "CLARKSVILLE", "beds": 120.0, "SR_15": 2.0}, {"Diff_star": 0.0, "addr": "524 WEST MAIN STREET", "SR_14": 4.0, "Q_14": 4.0, "name": "WESTWOOD HEALTH CARE AND REHABILITATION CENTER", "SF_14": 4.0, "SF_15": 4.0, "cnty": "Decatur", "st": "TN", "Zip": 38329.0, "O_14": 4.0, "Q_15": 2.0, "O_15": 4.0, "city": "DECATURVILLE", "beds": 90.0, "SR_15": 4.0}, {"Diff_star": -1.0, "addr": "726 KENTUCKY AVE", "SR_14": 4.0, "Q_14": 2.0, "name": "DECATUR COUNTY HEALTH CARE AND REHABILITATION, INC", "SF_14": 3.0, "SF_15": 3.0, "cnty": "Decatur", "st": "TN", "Zip": 38363.0, "O_14": 4.0, "Q_15": 1.0, "O_15": 3.0, "city": "PARSONS", "beds": 125.0, "SR_15": 4.0}, {"Diff_star": 0.0, "addr": "835 EAST POPLAR AVENUE", "SR_14": 2.0, "Q_14": 5.0, "name": "MCNAIRY COUNTY HEALTH CARE CENTER", "SF_14": 2.0, "SF_15": 2.0, "cnty": "Mc Nairy", "st": "TN", "Zip": 38375.0, "O_14": 3.0, "Q_15": 5.0, "O_15": 3.0, "city": "SELMER", "beds": 126.0, "SR_15": 2.0}, {"Diff_star": 0.0, "addr": "45 FOREST COVE", "SR_14": 4.0, "Q_14": 3.0, "name": "FOREST COVE NURSING AND REHAB CENTER", "SF_14": 4.0, "SF_15": 4.0, "cnty": "Madison", "st": "TN", "Zip": 38301.0, "O_14": 4.0, "Q_15": 2.0, "O_15": 4.0, "city": "JACKSON", "beds": 170.0, "SR_15": 4.0}, {"Diff_star": -1.0, "addr": "2031 AVONDALE RD PBOX 446", "SR_14": 4.0, "Q_14": 3.0, "name": "HUMBOLDT HEALTHCARE REHAB CENTER, INC", "SF_14": 4.0, "SF_15": 4.0, "cnty": "Gibson", "st": "TN", "Zip": 38343.0, "O_14": 4.0, "Q_15": 1.0, "O_15": 3.0, "city": "HUMBOLDT", "beds": 89.0, "SR_15": 4.0}, {"Diff_star": 0.0, "addr": "900 PROFESSIONAL PARK DRIVE", "SR_14": 3.0, "Q_14": 4.0, "name": "CLARKSVILLE MANOR NURSING CENTER", "SF_14": 4.0, "SF_15": 4.0, "cnty": "Montgomery", "st": "TN", "Zip": 37040.0, "O_14": 4.0, "Q_15": 2.0, "O_15": 4.0, "city": "CLARKSVILLE", "beds": 113.0, "SR_15": 3.0}, {"Diff_star": 0.0, "addr": "978 HWY 11 SOUTH", "SR_14": 3.0, "Q_14": 4.0, "name": "SWEETWATER NURSING CENTER", "SF_14": 1.0, "SF_15": 1.0, "cnty": "Monroe", "st": "TN", "Zip": 37874.0, "O_14": 2.0, "Q_15": 4.0, "O_15": 2.0, "city": "SWEETWATER", "beds": 100.0, "SR_15": 3.0}, {"Diff_star": -1.0, "addr": "465 ISBILL RD", "SR_14": 1.0, "Q_14": 3.0, "name": "EAST TENNESSEE HEALTH CARE", "SF_14": 4.0, "SF_15": 4.0, "cnty": "Monroe", "st": "TN", "Zip": 37354.0, "O_14": 2.0, "Q_15": 1.0, "O_15": 1.0, "city": "MADISONVILLE", "beds": 85.0, "SR_15": 1.0}, {"Diff_star": 0.0, "addr": "1101 PERSIMMON RIDGE RD", "SR_14": 4.0, "Q_14": 4.0, "name": "FOUR OAKS HEALTH CARE CENTER", "SF_14": 3.0, "SF_15": 3.0, "cnty": "Washington", "st": "TN", "Zip": 37659.0, "O_14": 4.0, "Q_15": 4.0, "O_15": 4.0, "city": "JONESBOROUGH", "beds": 84.0, "SR_15": 4.0}, {"Diff_star": 0.0, "addr": "1423 MAIN STREET", "SR_14": 5.0, "Q_14": 4.0, "name": "HANCOCK MANOR NURSING HOME", "SF_14": 2.0, "SF_15": 2.0, "cnty": "Hancock", "st": "TN", "Zip": 37869.0, "O_14": 5.0, "Q_15": 2.0, "O_15": 5.0, "city": "SNEEDVILLE", "beds": 50.0, "SR_15": 5.0}, {"Diff_star": 0.0, "addr": "813 S DICKERSON RD", "SR_14": 2.0, "Q_14": 4.0, "name": "VANCO MANOR NURSING AND REHABILITATION CENTER, INC", "SF_14": 1.0, "SF_15": 1.0, "cnty": "Davidson", "st": "TN", "Zip": 37072.0, "O_14": 1.0, "Q_15": 4.0, "O_15": 1.0, "city": "GOODLETTSVILLE", "beds": 90.0, "SR_15": 2.0}, {"Diff_star": 0.0, "addr": "1992 HWY 51 S", "SR_14": 1.0, "Q_14": 5.0, "name": "COVINGTON HEALTH CARE & REHABILITATION, INC", "SF_14": 4.0, "SF_15": 3.0, "cnty": "Tipton", "st": "TN", "Zip": 38019.0, "O_14": 2.0, "Q_15": 4.0, "O_15": 2.0, "city": "COVINGTON", "beds": 156.0, "SR_15": 2.0}, {"Diff_star": -2.0, "addr": "800 VOLUNTEER DRIVE", "SR_14": 2.0, "Q_14": 3.0, "name": "PARIS HEALTH CARE NURSING & REHABILITATION CTR", "SF_14": 4.0, "SF_15": 3.0, "cnty": "Henry", "st": "TN", "Zip": 38242.0, "O_14": 3.0, "Q_15": 1.0, "O_15": 1.0, "city": "PARIS", "beds": 127.0, "SR_15": 2.0}, {"Diff_star": 0.0, "addr": "213 HERNDON DRIVE", "SR_14": 4.0, "Q_14": 4.0, "name": "BELLS NURSING AND REHABILITATION CENTER", "SF_14": 4.0, "SF_15": 4.0, "cnty": "Crockett", "st": "TN", "Zip": 38006.0, "O_14": 4.0, "Q_15": 4.0, "O_15": 4.0, "city": "BELLS", "beds": 120.0, "SR_15": 4.0}, {"Diff_star": -1.0, "addr": "1666 HILLVIEW DRIVE", "SR_14": 5.0, "Q_14": 5.0, "name": "HILLVIEW HEALTH CENTER", "SF_14": 1.0, "SF_15": 1.0, "cnty": "Carter", "st": "TN", "Zip": 37643.0, "O_14": 5.0, "Q_15": 4.0, "O_15": 4.0, "city": "ELIZABETHTON", "beds": 76.0, "SR_15": 5.0}, {"Diff_star": -1.0, "addr": "1410 TROTWOOD AVENUE", "SR_14": 2.0, "Q_14": 4.0, "name": "SIGNATURE HEALTHCARE OF COLUMBIA", "SF_14": 3.0, "SF_15": 3.0, "cnty": "Maury", "st": "TN", "Zip": 38401.0, "O_14": 2.0, "Q_15": 1.0, "O_15": 1.0, "city": "COLUMBIA", "beds": 181.0, "SR_15": 2.0}, {"Diff_star": -1.0, "addr": "580 W MAIN STREET", "SR_14": 4.0, "Q_14": 5.0, "name": "ALAMO NURSING AND REHABILITATION CENTER", "SF_14": 4.0, "SF_15": 3.0, "cnty": "Crockett", "st": "TN", "Zip": 38001.0, "O_14": 5.0, "Q_15": 3.0, "O_15": 4.0, "city": "ALAMO", "beds": 121.0, "SR_15": 4.0}, {"Diff_star": 0.0, "addr": "1124 NORTH MAIN", "SR_14": 3.0, "Q_14": 4.0, "name": "DYER NURSING AND REHABILITATION CENTER", "SF_14": 4.0, "SF_15": 4.0, "cnty": "Gibson", "st": "TN", "Zip": 38330.0, "O_14": 4.0, "Q_15": 2.0, "O_15": 4.0, "city": "DYER", "beds": 120.0, "SR_15": 3.0}, {"Diff_star": -1.0, "addr": "301 WATAUGA AVE", "SR_14": 4.0, "Q_14": 5.0, "name": "IVY HALL NURSING HOME", "SF_14": 4.0, "SF_15": 3.0, "cnty": "Carter", "st": "TN", "Zip": 37643.0, "O_14": 5.0, "Q_15": 2.0, "O_15": 4.0, "city": "ELIZABETHTON", "beds": 100.0, "SR_15": 4.0}, {"Diff_star": -1.0, "addr": "220 COLLEGE STREET", "SR_14": 4.0, "Q_14": 5.0, "name": "BENCHMARK HEALTHCARE OF PURYEAR INC", "SF_14": 4.0, "SF_15": 3.0, "cnty": "Henry", "st": "TN", "Zip": 38251.0, "O_14": 5.0, "Q_15": 4.0, "O_15": 4.0, "city": "PURYEAR", "beds": 32.0, "SR_15": 4.0}, {"Diff_star": 0.0, "addr": "412 JUANITA DRIVE", "SR_14": 4.0, "Q_14": 5.0, "name": "HENDERSON HEALTH AND REHABILITATION CENTER", "SF_14": 3.0, "SF_15": 3.0, "cnty": "Chester", "st": "TN", "Zip": 38340.0, "O_14": 5.0, "Q_15": 5.0, "O_15": 5.0, "city": "HENDERSON", "beds": 132.0, "SR_15": 4.0}, {"Diff_star": 0.0, "addr": "803 SHANNONDALE WAY", "SR_14": 4.0, "Q_14": 5.0, "name": "SHANNONDALE OF MARYVILLE HEALTH CARE CENTER", "SF_14": 5.0, "SF_15": 5.0, "cnty": "Blount", "st": "TN", "Zip": 37803.0, "O_14": 5.0, "Q_15": 3.0, "O_15": 5.0, "city": "MARYVILLE", "beds": 44.0, "SR_15": 4.0}, {"Diff_star": 0.0, "addr": "914 INDUSTRIAL PARK RD", "SR_14": 3.0, "Q_14": 3.0, "name": "JEFFERSON COUNTY NURSING HOME", "SF_14": 3.0, "SF_15": 3.0, "cnty": "Jefferson", "st": "TN", "Zip": 37725.0, "O_14": 3.0, "Q_15": 2.0, "O_15": 3.0, "city": "DANDRIDGE", "beds": 160.0, "SR_15": 3.0}, {"Diff_star": 0.0, "addr": "1633 HILLVIEW DRIVE", "SR_14": 5.0, "Q_14": 5.0, "name": "HERMITAGE HEALTH CENTER", "SF_14": 3.0, "SF_15": 3.0, "cnty": "Carter", "st": "TN", "Zip": 37643.0, "O_14": 5.0, "Q_15": 5.0, "O_15": 5.0, "city": "ELIZABETHTON", "beds": 70.0, "SR_15": 5.0}, {"Diff_star": 0.0, "addr": "211 COOL SPRINGS BLVD", "SR_14": 4.0, "Q_14": 4.0, "name": "NHC PLACE AT COOL SPRINGS", "SF_14": 4.0, "SF_15": 4.0, "cnty": "Williamson", "st": "TN", "Zip": 37067.0, "O_14": 4.0, "Q_15": 3.0, "O_15": 4.0, "city": "FRANKLIN", "beds": 180.0, "SR_15": 4.0}, {"Diff_star": -1.0, "addr": "1758 HILLWOOD DRIVE", "SR_14": 1.0, "Q_14": 4.0, "name": "ISLAND HOME PARK HEALTH AND REHAB", "SF_14": 4.0, "SF_15": 3.0, "cnty": "Knox", "st": "TN", "Zip": 37920.0, "O_14": 2.0, "Q_15": 1.0, "O_15": 1.0, "city": "KNOXVILLE", "beds": 95.0, "SR_15": 1.0}, {"Diff_star": 0.0, "addr": "901 N CHARLOTTE", "SR_14": 3.0, "Q_14": 4.0, "name": "DICKSON HEALTH AND REHAB", "SF_14": 1.0, "SF_15": 1.0, "cnty": "Dickson", "st": "TN", "Zip": 37055.0, "O_14": 2.0, "Q_15": 2.0, "O_15": 2.0, "city": "DICKSON", "beds": 70.0, "SR_15": 3.0}, {"Diff_star": 0.0, "addr": "55 NURSING HOME RD", "SR_14": 4.0, "Q_14": 4.0, "name": "DURHAM-HENSLEY HEALTH AND REHABILITATION", "SF_14": 2.0, "SF_15": 1.0, "cnty": "Greene", "st": "TN", "Zip": 37641.0, "O_14": 4.0, "Q_15": 3.0, "O_15": 4.0, "city": "CHUCKEY", "beds": 75.0, "SR_15": 5.0}, {"Diff_star": 0.0, "addr": "791 OLD GRAY STATION ROAD", "SR_14": 4.0, "Q_14": 5.0, "name": "LIFE CARE CENTER OF GRAY", "SF_14": 4.0, "SF_15": 4.0, "cnty": "Washington", "st": "TN", "Zip": 37615.0, "O_14": 5.0, "Q_15": 5.0, "O_15": 5.0, "city": "GRAY", "beds": 133.0, "SR_15": 4.0}, {"Diff_star": 0.0, "addr": "704 5TH AVENUE EAST", "SR_14": 5.0, "Q_14": 5.0, "name": "CHRISTIAN CARE CENTER OF SPRINGFIELD, LLC", "SF_14": 3.0, "SF_15": 3.0, "cnty": "Robertson", "st": "TN", "Zip": 37172.0, "O_14": 5.0, "Q_15": 5.0, "O_15": 5.0, "city": "SPRINGFIELD", "beds": 66.0, "SR_15": 5.0}, {"Diff_star": 0.0, "addr": "100 NETHERLAND LANE", "SR_14": 3.0, "Q_14": 5.0, "name": "ASBURY PLACE AT KINGSPORT", "SF_14": 3.0, "SF_15": 3.0, "cnty": "Sullivan", "st": "TN", "Zip": 37660.0, "O_14": 4.0, "Q_15": 5.0, "O_15": 4.0, "city": "KINGSPORT", "beds": 67.0, "SR_15": 3.0}, {"Diff_star": 0.0, "addr": "7930 WALKING HORSE CIRCLE", "SR_14": 2.0, "Q_14": 5.0, "name": "THE VILLAGE AT GERMANTOWN", "SF_14": 4.0, "SF_15": 4.0, "cnty": "Shelby", "st": "TN", "Zip": 38138.0, "O_14": 4.0, "Q_15": 5.0, "O_15": 4.0, "city": "GERMANTOWN", "beds": 30.0, "SR_15": 2.0}, {"Diff_star": 1.0, "addr": "2012 SHERWOOD DRIVE", "SR_14": 2.0, "Q_14": 5.0, "name": "APPALACHIAN CHRISTIAN VILLAGE", "SF_14": 1.0, "SF_15": 1.0, "cnty": "Washington", "st": "TN", "Zip": 37601.0, "O_14": 2.0, "Q_15": 4.0, "O_15": 3.0, "city": "JOHNSON CITY", "beds": 103.0, "SR_15": 4.0}, {"Diff_star": 0.0, "addr": "ONE VETERANS WAY", "SR_14": 5.0, "Q_14": 5.0, "name": "SENATOR BEN ATCHLEY STATE VETERANS' HOME", "SF_14": 4.0, "SF_15": 4.0, "cnty": "Knox", "st": "TN", "Zip": 37931.0, "O_14": 5.0, "Q_15": 3.0, "O_15": 5.0, "city": "KNOXVILLE", "beds": 140.0, "SR_15": 5.0}, {"Diff_star": 0.0, "addr": "3933 ALLENBROOKE COVE", "SR_14": 4.0, "Q_14": 4.0, "name": "ALLENBROOKE NURSING AND REHABILITATION CENTER", "SF_14": 1.0, "SF_15": 1.0, "cnty": "Shelby", "st": "TN", "Zip": 38118.0, "O_14": 3.0, "Q_15": 2.0, "O_15": 3.0, "city": "MEMPHIS", "beds": 180.0, "SR_15": 4.0}, {"Diff_star": 0.0, "addr": "2002 GREER ROAD", "SR_14": 1.0, "Q_14": 4.0, "name": "RIDGETOP HAVEN HEALTH CARE CENTER", "SF_14": 2.0, "SF_15": 2.0, "cnty": "Robertson", "st": "TN", "Zip": 37152.0, "O_14": 1.0, "Q_15": 4.0, "O_15": 1.0, "city": "RIDGETOP", "beds": 38.0, "SR_15": 1.0}, {"Diff_star": 0.0, "addr": "140 TECHNOLOGY LANE", "SR_14": 3.0, "Q_14": 4.0, "name": "CHRISTIAN CARE CENTER OF JOHNSON CITY, INC", "SF_14": 1.0, "SF_15": 1.0, "cnty": "Washington", "st": "TN", "Zip": 37604.0, "O_14": 2.0, "Q_15": 2.0, "O_15": 2.0, "city": "JOHNSON CITY", "beds": 84.0, "SR_15": 3.0}, {"Diff_star": 0.0, "addr": "900 HERITAGE WAY", "SR_14": 5.0, "Q_14": 5.0, "name": "SOMERFIELD AT THE HERITAGE", "SF_14": 5.0, "SF_15": 5.0, "cnty": "Williamson", "st": "TN", "Zip": 37027.0, "O_14": 5.0, "Q_15": 5.0, "O_15": 5.0, "city": "BRENTWOOD", "beds": 66.0, "SR_15": 5.0}, {"Diff_star": 0.0, "addr": "670 HIGHWAY 13 SOUTH", "SR_14": 5.0, "Q_14": 5.0, "name": "HUMPHREYS CO NURSING HOME", "SF_14": 4.0, "SF_15": 4.0, "cnty": "Humphreys", "st": "TN", "Zip": 37185.0, "O_14": 5.0, "Q_15": 5.0, "O_15": 5.0, "city": "WAVERLY", "beds": 66.0, "SR_15": 5.0}, {"Diff_star": -1.0, "addr": "2805 CHARLES BRYAN RD", "SR_14": 4.0, "Q_14": 5.0, "name": "AVE MARIA HOME", "SF_14": 4.0, "SF_15": 3.0, "cnty": "Shelby", "st": "TN", "Zip": 38134.0, "O_14": 5.0, "Q_15": 4.0, "O_15": 4.0, "city": "BARTLETT", "beds": 75.0, "SR_15": 4.0}, {"Diff_star": 0.0, "addr": "4347 LEBANON ROAD", "SR_14": 3.0, "Q_14": 4.0, "name": "MCKENDREE VILLAGE INC", "SF_14": 3.0, "SF_15": 3.0, "cnty": "Davidson", "st": "TN", "Zip": 37076.0, "O_14": 3.0, "Q_15": 2.0, "O_15": 3.0, "city": "HERMITAGE", "beds": 150.0, "SR_15": 3.0}, {"Diff_star": 0.0, "addr": "118 HALLIBURTON DRIVE", "SR_14": 1.0, "Q_14": 4.0, "name": "RIPLEY HEALTHCARE AND REHAB CENTER", "SF_14": 1.0, "SF_15": 1.0, "cnty": "Lauderdale", "st": "TN", "Zip": 38063.0, "O_14": 1.0, "Q_15": 3.0, "O_15": 1.0, "city": "RIPLEY", "beds": 144.0, "SR_15": 1.0}, {"Diff_star": 0.0, "addr": "1755 ELDRIDGE", "SR_14": 2.0, "Q_14": 4.0, "name": "QUALITY CARE CTR OF MEMPHIS", "SF_14": 1.0, "SF_15": 1.0, "cnty": "Shelby", "st": "TN", "Zip": 38108.0, "O_14": 1.0, "Q_15": 3.0, "O_15": 1.0, "city": "MEMPHIS", "beds": 48.0, "SR_15": 2.0}, {"Diff_star": 0.0, "addr": "10055 RHEA COUNTY HIGHWAY", "SR_14": 1.0, "Q_14": 2.0, "name": "LIFE CARE CENTER OF RHEA COUNTY", "SF_14": 2.0, "SF_15": 2.0, "cnty": "Rhea", "st": "TN", "Zip": 37321.0, "O_14": 1.0, "Q_15": 1.0, "O_15": 1.0, "city": "DAYTON", "beds": 89.0, "SR_15": 1.0}, {"Diff_star": -1.0, "addr": "490 WEST POPLAR AVENUE", "SR_14": 1.0, "Q_14": 4.0, "name": "DOVE HEALTH & REHAB OF COLLIERVILLE, LLC", "SF_14": 4.0, "SF_15": 3.0, "cnty": "Shelby", "st": "TN", "Zip": 38017.0, "O_14": 2.0, "Q_15": 3.0, "O_15": 1.0, "city": "COLLIERVILLE", "beds": 114.0, "SR_15": 1.0}, {"Diff_star": 0.0, "addr": "8044 COLEY DAVIS ROAD", "SR_14": 5.0, "Q_14": 5.0, "name": "THE MEADOWS", "SF_14": "", "SF_15": "", "cnty": "Davidson", "st": "TN", "Zip": 37221.0, "O_14": 5.0, "Q_15": 5.0, "O_15": 5.0, "city": "NASHVILLE", "beds": 20.0, "SR_15": 5.0}, {"Diff_star": 0.0, "addr": "350 EAST TICKLE STREET", "SR_14": 1.0, "Q_14": 3.0, "name": "HIGHLANDS OF DYERSBURG HEALTH & REHAB", "SF_14": 1.0, "SF_15": 1.0, "cnty": "Dyer", "st": "TN", "Zip": 38024.0, "O_14": 1.0, "Q_15": 1.0, "O_15": 1.0, "city": "DYERSBURG", "beds": 123.0, "SR_15": 1.0}, {"Diff_star": 0.0, "addr": "2100 EXETER ROAD", "SR_14": 4.0, "Q_14": 3.0, "name": "BAPTIST REHABILITATION-GERMANTOWN", "SF_14": 5.0, "SF_15": 5.0, "cnty": "Shelby", "st": "TN", "Zip": 38138.0, "O_14": 5.0, "Q_15": 5.0, "O_15": 5.0, "city": "GERMANTOWN", "beds": 18.0, "SR_15": 4.0}, {"Diff_star": -1.0, "addr": "1406 MEDICAL CENTER DRIVE", "SR_14": 4.0, "Q_14": 5.0, "name": "PAVILION-THS, LLC", "SF_14": 4.0, "SF_15": 3.0, "cnty": "Wilson", "st": "TN", "Zip": 37087.0, "O_14": 5.0, "Q_15": 4.0, "O_15": 4.0, "city": "LEBANON", "beds": 60.0, "SR_15": 4.0}, {"Diff_star": -1.0, "addr": "6801 MIDDLEBROOK PIKE", "SR_14": 3.0, "Q_14": 2.0, "name": "WEST HILLS HEALTH AND REHAB", "SF_14": 3.0, "SF_15": 3.0, "cnty": "Knox", "st": "TN", "Zip": 37919.0, "O_14": 3.0, "Q_15": 1.0, "O_15": 2.0, "city": "KNOXVILLE", "beds": 194.0, "SR_15": 3.0}, {"Diff_star": 0.0, "addr": "202 ENON SPRINGS ROAD EAST", "SR_14": 1.0, "Q_14": 3.0, "name": "CHRISTIAN CARE CENTER OF RUTHERFORD COUNTY LLC", "SF_14": 1.0, "SF_15": 1.0, "cnty": "Rutherford", "st": "TN", "Zip": 37167.0, "O_14": 1.0, "Q_15": 2.0, "O_15": 1.0, "city": "SMYRNA", "beds": 98.0, "SR_15": 1.0}, {"Diff_star": 0.0, "addr": "127 E BROOKLYN AVENUE", "SR_14": 1.0, "Q_14": 1.0, "name": "PERRY COUNTY NURSING HOME", "SF_14": 1.0, "SF_15": 1.0, "cnty": "Perry", "st": "TN", "Zip": 37096.0, "O_14": 1.0, "Q_15": 1.0, "O_15": 1.0, "city": "LINDEN", "beds": 114.0, "SR_15": 1.0}, {"Diff_star": 0.0, "addr": "135 GENERATION DRIVE", "SR_14": 3.0, "Q_14": 4.0, "name": "NEWPORT HEALTH AND REHABILITATION CENTER", "SF_14": 2.0, "SF_15": 2.0, "cnty": "Cocke", "st": "TN", "Zip": 37821.0, "O_14": 3.0, "Q_15": 3.0, "O_15": 3.0, "city": "NEWPORT", "beds": 150.0, "SR_15": 3.0}, {"Diff_star": 0.0, "addr": "100 SAMARITAN WAY", "SR_14": 3.0, "Q_14": 4.0, "name": "GOOD SAMARITAN SOCIETY - FAIRFIELD GLADE", "SF_14": 5.0, "SF_15": 5.0, "cnty": "Cumberland", "st": "TN", "Zip": 38558.0, "O_14": 4.0, "Q_15": 3.0, "O_15": 4.0, "city": "CROSSVILLE", "beds": 30.0, "SR_15": 3.0}, {"Diff_star": 0.0, "addr": "4200 MURFREESBORO PIKE", "SR_14": 3.0, "Q_14": 5.0, "name": "LIFE CARE CENTER OF HICKORY WOODS", "SF_14": 4.0, "SF_15": 4.0, "cnty": "Davidson", "st": "TN", "Zip": 37013.0, "O_14": 5.0, "Q_15": 5.0, "O_15": 5.0, "city": "ANTIOCH", "beds": 124.0, "SR_15": 3.0}, {"Diff_star": 0.0, "addr": "1084 EAST COUNTY HOME ROAD", "SR_14": 2.0, "Q_14": 5.0, "name": "OBION COUNTY NURSING HOME", "SF_14": 4.0, "SF_15": 4.0, "cnty": "Obion", "st": "TN", "Zip": 38261.0, "O_14": 4.0, "Q_15": 5.0, "O_15": 4.0, "city": "UNION CITY", "beds": 56.0, "SR_15": 2.0}, {"Diff_star": -1.0, "addr": "1250 ROBINSON ROAD", "SR_14": 2.0, "Q_14": 5.0, "name": "LIFE CARE CENTER OF OLD HICKORY VILLAGE", "SF_14": 4.0, "SF_15": 4.0, "cnty": "Davidson", "st": "TN", "Zip": 37138.0, "O_14": 4.0, "Q_15": 3.0, "O_15": 3.0, "city": "OLD HICKORY", "beds": 124.0, "SR_15": 2.0}, {"Diff_star": 0.0, "addr": "55 WEST LAKE ROAD", "SR_14": 3.0, "Q_14": 5.0, "name": "WHARTON NURSING HOME", "SF_14": 4.0, "SF_15": 4.0, "cnty": "Cumberland", "st": "TN", "Zip": 38578.0, "O_14": 5.0, "Q_15": 5.0, "O_15": 5.0, "city": "PLEASANT HILL", "beds": 62.0, "SR_15": 3.0}, {"Diff_star": 0.0, "addr": "5911 SNOW HILL ROAD", "SR_14": 4.0, "Q_14": 1.0, "name": "LIFE CARE CENTER OF OOLTEWAH", "SF_14": 3.0, "SF_15": 3.0, "cnty": "Hamilton", "st": "TN", "Zip": 37363.0, "O_14": 3.0, "Q_15": 1.0, "O_15": 3.0, "city": "OOLTEWAH", "beds": 120.0, "SR_15": 4.0}, {"Diff_star": 0.0, "addr": "832 WEDGEWOOD AVENUE", "SR_14": "", "Q_14": "", "name": "SIGNATURE HEALTHCARE OF NASHVILLE REHAB & WELLNESS", "SF_14": "", "SF_15": "", "cnty": "Davidson", "st": "TN", "Zip": 37203.0, "O_14": "", "Q_15": "", "O_15": "", "city": "NASHVILLE", "beds": 119.0, "SR_15": ""}, {"Diff_star": 0.0, "addr": "2871 HIGHWAY 31W", "SR_14": "", "Q_14": "", "name": "WHITE HOUSE HEALTH CARE INC", "SF_14": "", "SF_15": "", "cnty": "Robertson", "st": "TN", "Zip": 37188.0, "O_14": "", "Q_15": "", "O_15": "", "city": "WHITE HOUSE", "beds": 84.0, "SR_15": ""}, {"Diff_star": -1.0, "addr": "124 JOHN REED HOME RD", "SR_14": 3.0, "Q_14": 4.0, "name": "JOHN M REED HEALTH AND REHAB", "SF_14": 4.0, "SF_15": 3.0, "cnty": "Washington", "st": "TN", "Zip": 37681.0, "O_14": 4.0, "Q_15": 3.0, "O_15": 3.0, "city": "LIMESTONE", "beds": 63.0, "SR_15": 3.0}, {"Diff_star": 5.0, "addr": "1321 CEDAR LANE", "SR_14": "", "Q_14": "", "name": "NHC HEALTHCARE, TULLAHOMA", "SF_14": "", "SF_15": 2.0, "cnty": "Coffee", "st": "TN", "Zip": 37388.0, "O_14": "", "Q_15": 2.0, "O_15": 5.0, "city": "TULLAHOMA", "beds": 90.0, "SR_15": 5.0}, {"Diff_star": 0.0, "addr": "306 W DUE WEST AVE", "SR_14": "", "Q_14": "", "name": "CREEKSIDE HEALTH AND REHABILITATION CENTER", "SF_14": "", "SF_15": "", "cnty": "Davidson", "st": "TN", "Zip": 37115.0, "O_14": "", "Q_15": "", "O_15": "", "city": "MADISON", "beds": 142.0, "SR_15": ""}, {"Diff_star": 0.0, "addr": "2300 PAVILION DRIVE", "SR_14": "", "Q_14": "", "name": "NHC HEALTHCARE, KINGSPORT", "SF_14": "", "SF_15": "", "cnty": "Sullivan", "st": "TN", "Zip": 37660.0, "O_14": "", "Q_15": "", "O_15": "", "city": "KINGSPORT", "beds": 52.0, "SR_15": ""}, {"Diff_star": 0.0, "addr": "104 J V MANGUBAT DRIVE, PO BOX 510", "SR_14": "", "Q_14": "", "name": "WAYNESBORO HEALTH AND REHABILITATION CENTER", "SF_14": "", "SF_15": "", "cnty": "Wayne", "st": "TN", "Zip": 38485.0, "O_14": "", "Q_15": "", "O_15": "", "city": "WAYNESBORO", "beds": 109.0, "SR_15": ""}, {"Diff_star": -1.0, "addr": "3025 FERNBROOK LANE", "SR_14": 3.0, "Q_14": 5.0, "name": "LAKESHORE HEARTLAND", "SF_14": 4.0, "SF_15": 3.0, "cnty": "Davidson", "st": "TN", "Zip": 37214.0, "O_14": 5.0, "Q_15": 5.0, "O_15": 4.0, "city": "NASHVILLE", "beds": 66.0, "SR_15": 3.0}, {"Diff_star": -1.0, "addr": "450 COLLEGE ST", "SR_14": 4.0, "Q_14": 2.0, "name": "TENNOVA NEWPORT CONVALESCENT CENTER", "SF_14": 4.0, "SF_15": 4.0, "cnty": "Cocke", "st": "TN", "Zip": 37821.0, "O_14": 4.0, "Q_15": 1.0, "O_15": 3.0, "city": "NEWPORT", "beds": 56.0, "SR_15": 4.0}, {"Diff_star": 0.0, "addr": "3575 LONESOME PINE ROAD", "SR_14": 5.0, "Q_14": 5.0, "name": "HARBERT HILLS ACADEMY N H", "SF_14": 4.0, "SF_15": 3.0, "cnty": "Hardin", "st": "TN", "Zip": 38372.0, "O_14": 5.0, "Q_15": 5.0, "O_15": 5.0, "city": "SAVANNAH", "beds": 49.0, "SR_15": 5.0}, {"Diff_star": 0.0, "addr": "1620 WAYNE ROAD, PO BOX 668", "SR_14": 5.0, "Q_14": 5.0, "name": "HARDIN HOME", "SF_14": 4.0, "SF_15": 4.0, "cnty": "Hardin", "st": "TN", "Zip": 38372.0, "O_14": 5.0, "Q_15": 5.0, "O_15": 5.0, "city": "SAVANNAH", "beds": 39.0, "SR_15": 5.0}, {"Diff_star": 0.0, "addr": "135 E SWAN ST", "SR_14": 2.0, "Q_14": 4.0, "name": "HICKMAN COMMUNITY NURSING HOME", "SF_14": 1.0, "SF_15": 1.0, "cnty": "Hickman", "st": "TN", "Zip": 37033.0, "O_14": 1.0, "Q_15": 2.0, "O_15": 1.0, "city": "CENTERVILLE", "beds": 40.0, "SR_15": 2.0}, {"Diff_star": -1.0, "addr": "114 CAMPUS DRIVE", "SR_14": 1.0, "Q_14": 3.0, "name": "LAURELBROOK SANITARIUM", "SF_14": 4.0, "SF_15": 4.0, "cnty": "Rhea", "st": "TN", "Zip": 37321.0, "O_14": 2.0, "Q_15": 1.0, "O_15": 1.0, "city": "DAYTON", "beds": 50.0, "SR_15": 1.0}, {"Diff_star": 0.0, "addr": "107 WHEELERTOWN AVENUE", "SR_14": 1.0, "Q_14": 1.0, "name": "BLEDSOE COUNTY NURSING HOME", "SF_14": 3.0, "SF_15": 3.0, "cnty": "Bledsoe", "st": "TN", "Zip": 37367.0, "O_14": 1.0, "Q_15": 1.0, "O_15": 1.0, "city": "PIKEVILLE", "beds": 50.0, "SR_15": 1.0}, {"Diff_star": 0.0, "addr": "970 WRAY ST", "SR_14": 2.0, "Q_14": 4.0, "name": "SERENE MANOR MEDICAL CTR.", "SF_14": 4.0, "SF_15": 4.0, "cnty": "Knox", "st": "TN", "Zip": 37917.0, "O_14": 3.0, "Q_15": 2.0, "O_15": 3.0, "city": "KNOXVILLE", "beds": 79.0, "SR_15": 2.0}, {"Diff_star": 0.0, "addr": "700 WILLIAMS FERRY RD", "SR_14": 4.0, "Q_14": 5.0, "name": "BAPTIST HEALTH CARE CENTER", "SF_14": 4.0, "SF_15": 4.0, "cnty": "Loudon", "st": "TN", "Zip": 37771.0, "O_14": 5.0, "Q_15": 5.0, "O_15": 5.0, "city": "LENOIR CITY", "beds": 104.0, "SR_15": 4.0}, {"Diff_star": 0.0, "addr": "85 SHELBY DRIVE, PO BOX 728", "SR_14": 5.0, "Q_14": 2.0, "name": "PARK REST HARDIN COUNTY HEALTH CENTER", "SF_14": 3.0, "SF_15": 3.0, "cnty": "Hardin", "st": "TN", "Zip": 38372.0, "O_14": 5.0, "Q_15": 2.0, "O_15": 5.0, "city": "SAVANNAH", "beds": 62.0, "SR_15": 5.0}]