[{"Diff_star": 0.0, "addr": "2700 WEST 5600 SOUTH", "SR_14": 2.0, "Q_14": 4.0, "name": "HERITAGE PARK CARE CENTER", "SF_14": 3.0, "SF_15": 3.0, "cnty": "Weber", "st": "UT", "Zip": 84067.0, "O_14": 2.0, "Q_15": 3.0, "O_15": 2.0, "city": "ROY", "beds": 176.0, "SR_15": 2.0}, {"Diff_star": 0.0, "addr": "2200 EAST 3300 SOUTH", "SR_14": 4.0, "Q_14": 4.0, "name": "MT OLYMPUS REHABILITATION CENTER", "SF_14": 2.0, "SF_15": 2.0, "cnty": "Salt Lake", "st": "UT", "Zip": 84109.0, "O_14": 4.0, "Q_15": 3.0, "O_15": 4.0, "city": "SALT LAKE CITY", "beds": 107.0, "SR_15": 4.0}, {"Diff_star": -1.0, "addr": "3430 HARRISON BOULEVARD", "SR_14": 4.0, "Q_14": 3.0, "name": "KINDRED NURSING & REHABILITATION - WASATCH CARE", "SF_14": 3.0, "SF_15": 3.0, "cnty": "Weber", "st": "UT", "Zip": 84403.0, "O_14": 4.0, "Q_15": 1.0, "O_15": 3.0, "city": "OGDEN", "beds": 63.0, "SR_15": 4.0}, {"Diff_star": -1.0, "addr": "815 SOUTH 200 WEST", "SR_14": 3.0, "Q_14": 5.0, "name": "PIONEER CARE CENTER", "SF_14": 2.0, "SF_15": 2.0, "cnty": "Box Elder", "st": "UT", "Zip": 84302.0, "O_14": 4.0, "Q_15": 4.0, "O_15": 3.0, "city": "BRIGHAM CITY", "beds": 72.0, "SR_15": 3.0}, {"Diff_star": 0.0, "addr": "4600 SOUTH HIGHLAND DRIVE", "SR_14": 2.0, "Q_14": 4.0, "name": "SPRING CREEK HEALTHCARE CENTER", "SF_14": 4.0, "SF_15": 4.0, "cnty": "Salt Lake", "st": "UT", "Zip": 84117.0, "O_14": 3.0, "Q_15": 3.0, "O_15": 3.0, "city": "SALT LAKE CITY", "beds": 100.0, "SR_15": 2.0}, {"Diff_star": 0.0, "addr": "41 SOUTH 900 EAST", "SR_14": 1.0, "Q_14": 2.0, "name": "DESERET HEALTH AND REHAB AT FEDERAL HEIGHTS", "SF_14": 1.0, "SF_15": 4.0, "cnty": "Salt Lake", "st": "UT", "Zip": 84102.0, "O_14": 1.0, "Q_15": 1.0, "O_15": 1.0, "city": "SALT LAKE CITY", "beds": 110.0, "SR_15": 1.0}, {"Diff_star": 0.0, "addr": "818 NORTH 400 WEST", "SR_14": 2.0, "Q_14": 4.0, "name": "FOUR CORNERS REGIONAL CARE CENTER", "SF_14": 4.0, "SF_15": 4.0, "cnty": "San Juan", "st": "UT", "Zip": 84511.0, "O_14": 3.0, "Q_15": 4.0, "O_15": 3.0, "city": "BLANDING", "beds": 104.0, "SR_15": 2.0}, {"Diff_star": 0.0, "addr": "163 EAST 1000 NORTH", "SR_14": 3.0, "Q_14": 4.0, "name": "RICHFIELD REHABILITATION AND CARE CENTER", "SF_14": 2.0, "SF_15": 2.0, "cnty": "Sevier", "st": "UT", "Zip": 84701.0, "O_14": 3.0, "Q_15": 2.0, "O_15": 3.0, "city": "RICHFIELD", "beds": 98.0, "SR_15": 3.0}, {"Diff_star": 0.0, "addr": "401 SOUTH 400 EAST", "SR_14": 2.0, "Q_14": 2.0, "name": "SOUTH DAVIS COMMUNITY CARE CENTER", "SF_14": 5.0, "SF_15": 5.0, "cnty": "Davis", "st": "UT", "Zip": 84010.0, "O_14": 3.0, "Q_15": 2.0, "O_15": 3.0, "city": "BOUNTIFUL", "beds": 160.0, "SR_15": 2.0}, {"Diff_star": -1.0, "addr": "1032 EAST 100 SOUTH", "SR_14": 2.0, "Q_14": 5.0, "name": "KINDRED NURSING AND REHABILITATON - ST GEORGE", "SF_14": 4.0, "SF_15": 4.0, "cnty": "Washington", "st": "UT", "Zip": 84770.0, "O_14": 4.0, "Q_15": 2.0, "O_15": 3.0, "city": "ST GEORGE", "beds": 130.0, "SR_15": 2.0}, {"Diff_star": -1.0, "addr": "524 EAST 800 NORTH", "SR_14": 2.0, "Q_14": 4.0, "name": "DESERET HEALTH AND REHAB AT OGDEN", "SF_14": 4.0, "SF_15": 3.0, "cnty": "Weber", "st": "UT", "Zip": 84404.0, "O_14": 3.0, "Q_15": 3.0, "O_15": 2.0, "city": "OGDEN", "beds": 85.0, "SR_15": 2.0}, {"Diff_star": -1.0, "addr": "6246 SOUTH REDWOOD ROAD", "SR_14": 2.0, "Q_14": 4.0, "name": "AVALON WEST HEALTH & REHABILITATION", "SF_14": 4.0, "SF_15": 3.0, "cnty": "Salt Lake", "st": "UT", "Zip": 84123.0, "O_14": 3.0, "Q_15": 4.0, "O_15": 2.0, "city": "SALT LAKE CITY", "beds": 120.0, "SR_15": 2.0}, {"Diff_star": 0.0, "addr": "1481 SOUTH 1500 EAST", "SR_14": 2.0, "Q_14": 3.0, "name": "ROCKY MOUNTAIN CARE - CLEARFIELD", "SF_14": 4.0, "SF_15": 4.0, "cnty": "Davis", "st": "UT", "Zip": 84015.0, "O_14": 3.0, "Q_15": 2.0, "O_15": 3.0, "city": "CLEARFIELD", "beds": 168.0, "SR_15": 2.0}, {"Diff_star": 0.0, "addr": "375 EAST 5350 SOUTH", "SR_14": 3.0, "Q_14": 5.0, "name": "MT OGDEN HEALTH AND REHABILITATION CENTER", "SF_14": 4.0, "SF_15": 4.0, "cnty": "Weber", "st": "UT", "Zip": 84405.0, "O_14": 5.0, "Q_15": 5.0, "O_15": 5.0, "city": "WASHINGTON TERRACE", "beds": 108.0, "SR_15": 3.0}, {"Diff_star": 0.0, "addr": "165 SOUTH 1000 EAST", "SR_14": 1.0, "Q_14": 5.0, "name": "CITY CREEK POST ACUTE", "SF_14": 4.0, "SF_15": 4.0, "cnty": "Salt Lake", "st": "UT", "Zip": 84102.0, "O_14": 2.0, "Q_15": 5.0, "O_15": 2.0, "city": "SALT LAKE CITY", "beds": 108.0, "SR_15": 1.0}, {"Diff_star": 0.0, "addr": "1205 EAST 4725 SOUTH", "SR_14": 3.0, "Q_14": 5.0, "name": "WILLOW WOOD CARE CENTER", "SF_14": 3.0, "SF_15": 3.0, "cnty": "Salt Lake", "st": "UT", "Zip": 84117.0, "O_14": 4.0, "Q_15": 5.0, "O_15": 4.0, "city": "SALT LAKE CITY", "beds": 77.0, "SR_15": 3.0}, {"Diff_star": 0.0, "addr": "4090 WEST PIONEER PARKWAY", "SR_14": 3.0, "Q_14": 4.0, "name": "ROCKY MOUNTAIN CARE - HUNTER HOLLOW", "SF_14": 4.0, "SF_15": 4.0, "cnty": "Salt Lake", "st": "UT", "Zip": 84120.0, "O_14": 4.0, "Q_15": 3.0, "O_15": 4.0, "city": "WEST VALLEY CITY", "beds": 124.0, "SR_15": 3.0}, {"Diff_star": 0.0, "addr": "4285 SOUTH HIGHLAND DRIVE", "SR_14": 3.0, "Q_14": 5.0, "name": "HIGHLAND CARE CENTER", "SF_14": 4.0, "SF_15": 4.0, "cnty": "Salt Lake", "st": "UT", "Zip": 84124.0, "O_14": 5.0, "Q_15": 5.0, "O_15": 5.0, "city": "HOLLADAY", "beds": 107.0, "SR_15": 3.0}, {"Diff_star": -1.0, "addr": "248 WEST 300 NORTH", "SR_14": 3.0, "Q_14": 3.0, "name": "SUNSHINE TERRACE FOUNDATION", "SF_14": 5.0, "SF_15": 5.0, "cnty": "Cache", "st": "UT", "Zip": 84321.0, "O_14": 4.0, "Q_15": 1.0, "O_15": 3.0, "city": "LOGAN", "beds": 172.0, "SR_15": 3.0}, {"Diff_star": 0.0, "addr": "1053 WEST 1020 SOUTH", "SR_14": 1.0, "Q_14": 3.0, "name": "TRINITY MISSION HEALTH AND REHAB OF PROVO", "SF_14": 3.0, "SF_15": 3.0, "cnty": "Utah", "st": "UT", "Zip": 84601.0, "O_14": 1.0, "Q_15": 2.0, "O_15": 1.0, "city": "PROVO", "beds": 99.0, "SR_15": 1.0}, {"Diff_star": 0.0, "addr": "3665 BRINKER AVENUE", "SR_14": 3.0, "Q_14": 4.0, "name": "CRESTWOOD CARE CENTER", "SF_14": 4.0, "SF_15": 4.0, "cnty": "Weber", "st": "UT", "Zip": 84403.0, "O_14": 4.0, "Q_15": 2.0, "O_15": 4.0, "city": "OGDEN", "beds": 88.0, "SR_15": 3.0}, {"Diff_star": -1.0, "addr": "265 NORTH 300 WEST", "SR_14": 3.0, "Q_14": 3.0, "name": "UINTAH BASIN REHABILITATION AND SENIOR VILLA", "SF_14": 4.0, "SF_15": 4.0, "cnty": "Duchesne", "st": "UT", "Zip": 84066.0, "O_14": 4.0, "Q_15": 1.0, "O_15": 3.0, "city": "ROOSEVELT", "beds": 90.0, "SR_15": 3.0}, {"Diff_star": -1.0, "addr": "455 WEST MILL ROAD", "SR_14": 1.0, "Q_14": 2.0, "name": "EMERY COUNTY CARE AND REHABILITATION CENTER", "SF_14": 5.0, "SF_15": 4.0, "cnty": "Emery", "st": "UT", "Zip": 84523.0, "O_14": 2.0, "Q_15": 1.0, "O_15": 1.0, "city": "FERRON", "beds": 55.0, "SR_15": 1.0}, {"Diff_star": -1.0, "addr": "5865 SOUTH WASATCH DRIVE", "SR_14": 1.0, "Q_14": 5.0, "name": "MOUNTAIN VIEW HEALTH SERVICES", "SF_14": 3.0, "SF_15": 3.0, "cnty": "Weber", "st": "UT", "Zip": 84403.0, "O_14": 2.0, "Q_15": 4.0, "O_15": 1.0, "city": "OGDEN", "beds": 155.0, "SR_15": 1.0}, {"Diff_star": 0.0, "addr": "25 EAST ALPINE DRIVE", "SR_14": 4.0, "Q_14": 5.0, "name": "ALPINE VALLEY CARE CENTER", "SF_14": 5.0, "SF_15": 5.0, "cnty": "Utah", "st": "UT", "Zip": 84062.0, "O_14": 5.0, "Q_15": 4.0, "O_15": 5.0, "city": "PLEASANT GROVE", "beds": 52.0, "SR_15": 4.0}, {"Diff_star": 0.0, "addr": "140 EAST 200 SOUTH", "SR_14": 2.0, "Q_14": 5.0, "name": "ROCKY MOUNTAIN CARE - WILLOW SPRINGS", "SF_14": 4.0, "SF_15": 4.0, "cnty": "Tooele", "st": "UT", "Zip": 84074.0, "O_14": 4.0, "Q_15": 5.0, "O_15": 4.0, "city": "TOOELE", "beds": 84.0, "SR_15": 2.0}, {"Diff_star": 0.0, "addr": "740 NORTH 300 EAST", "SR_14": 3.0, "Q_14": 5.0, "name": "ORCHARD PARK POST - ACUTE REHAB", "SF_14": 5.0, "SF_15": 5.0, "cnty": "Utah", "st": "UT", "Zip": 84057.0, "O_14": 5.0, "Q_15": 5.0, "O_15": 5.0, "city": "OREM", "beds": 89.0, "SR_15": 3.0}, {"Diff_star": 0.0, "addr": "12702 SOUTH FORT STREET", "SR_14": 2.0, "Q_14": 5.0, "name": "DRAPER REHABILITATION AND CARE CENTER", "SF_14": 2.0, "SF_15": 2.0, "cnty": "Salt Lake", "st": "UT", "Zip": 84020.0, "O_14": 3.0, "Q_15": 5.0, "O_15": 3.0, "city": "DRAPER", "beds": 93.0, "SR_15": 2.0}, {"Diff_star": 0.0, "addr": "510 SOUTH 500 WEST", "SR_14": 3.0, "Q_14": 5.0, "name": "UINTAH CARE CENTER", "SF_14": 3.0, "SF_15": 3.0, "cnty": "Uintah", "st": "UT", "Zip": 84078.0, "O_14": 4.0, "Q_15": 5.0, "O_15": 4.0, "city": "VERNAL", "beds": 110.0, "SR_15": 3.0}, {"Diff_star": 0.0, "addr": "775 NORTH 200 EAST", "SR_14": 2.0, "Q_14": 5.0, "name": "WILLOW GLEN HEALTH AND REHAB, LLC", "SF_14": 5.0, "SF_15": 5.0, "cnty": "Box Elder", "st": "UT", "Zip": 84302.0, "O_14": 4.0, "Q_15": 5.0, "O_15": 4.0, "city": "BRIGHAM CITY", "beds": 84.0, "SR_15": 2.0}, {"Diff_star": -1.0, "addr": "3855 SOUTH 700 EAST", "SR_14": 1.0, "Q_14": 4.0, "name": "WOODLAND PARK REHABILITATION AND CARE CENTER", "SF_14": 4.0, "SF_15": 3.0, "cnty": "Salt Lake", "st": "UT", "Zip": 84106.0, "O_14": 2.0, "Q_15": 2.0, "O_15": 1.0, "city": "SALT LAKE CITY", "beds": 184.0, "SR_15": 1.0}, {"Diff_star": 0.0, "addr": "451 EAST BISHOP FEDERAL LANE", "SR_14": 2.0, "Q_14": 5.0, "name": "ST JOSEPH VILLA", "SF_14": 4.0, "SF_15": 4.0, "cnty": "Salt Lake", "st": "UT", "Zip": 84115.0, "O_14": 4.0, "Q_15": 5.0, "O_15": 4.0, "city": "SALT LAKE CITY", "beds": 221.0, "SR_15": 2.0}, {"Diff_star": -1.0, "addr": "2730 EAST 3300 SOUTH", "SR_14": 1.0, "Q_14": 5.0, "name": "CANYON RIM CARE CENTER", "SF_14": 2.0, "SF_15": 2.0, "cnty": "Salt Lake", "st": "UT", "Zip": 84109.0, "O_14": 2.0, "Q_15": 3.0, "O_15": 1.0, "city": "SALT LAKE CITY", "beds": 90.0, "SR_15": 1.0}, {"Diff_star": -1.0, "addr": "350 EAST 300 NORTH", "SR_14": 3.0, "Q_14": 5.0, "name": "HERITAGE CARE CENTER", "SF_14": 3.0, "SF_15": 3.0, "cnty": "Utah", "st": "UT", "Zip": 84003.0, "O_14": 4.0, "Q_15": 2.0, "O_15": 3.0, "city": "AMERICAN FORK", "beds": 106.0, "SR_15": 3.0}, {"Diff_star": 0.0, "addr": "1340 EAST 300 NORTH", "SR_14": 1.0, "Q_14": 4.0, "name": "PINNACLE NURSING AND REHABILITATION CENTER", "SF_14": 4.0, "SF_15": 3.0, "cnty": "Carbon", "st": "UT", "Zip": 84501.0, "O_14": 2.0, "Q_15": 5.0, "O_15": 2.0, "city": "PRICE", "beds": 100.0, "SR_15": 1.0}, {"Diff_star": 0.0, "addr": "4035 SOUTH 500 EAST", "SR_14": 3.0, "Q_14": 4.0, "name": "PARAMOUNT HEALTH AND REHABILITATION", "SF_14": 4.0, "SF_15": 4.0, "cnty": "Salt Lake", "st": "UT", "Zip": 84107.0, "O_14": 4.0, "Q_15": 3.0, "O_15": 4.0, "city": "SALT LAKE CITY", "beds": 99.0, "SR_15": 3.0}, {"Diff_star": -1.0, "addr": "416 NORTH STATE STREET", "SR_14": 4.0, "Q_14": 5.0, "name": "HURRICANE HEALTH AND REHABILITATION", "SF_14": 4.0, "SF_15": 4.0, "cnty": "Washington", "st": "UT", "Zip": 84737.0, "O_14": 5.0, "Q_15": 4.0, "O_15": 4.0, "city": "HURRICANE", "beds": 60.0, "SR_15": 4.0}, {"Diff_star": 0.0, "addr": "250 EAST 600 NORTH", "SR_14": 2.0, "Q_14": 4.0, "name": "PARKDALE HEALTH AND REHAB", "SF_14": 4.0, "SF_15": 4.0, "cnty": "Carbon", "st": "UT", "Zip": 84501.0, "O_14": 3.0, "Q_15": 3.0, "O_15": 3.0, "city": "PRICE", "beds": 58.0, "SR_15": 2.0}, {"Diff_star": 0.0, "addr": "575 EAST 1400 SOUTH", "SR_14": 3.0, "Q_14": 4.0, "name": "OREM REHABILITATION AND NURSING CENTER", "SF_14": 4.0, "SF_15": 4.0, "cnty": "Utah", "st": "UT", "Zip": 84097.0, "O_14": 4.0, "Q_15": 2.0, "O_15": 4.0, "city": "OREM", "beds": 120.0, "SR_15": 3.0}, {"Diff_star": -2.0, "addr": "1100 NORTH 400 EAST", "SR_14": 2.0, "Q_14": 5.0, "name": "HERITAGE HILLS REHABILITATION AND CARE CENTER", "SF_14": 4.0, "SF_15": 3.0, "cnty": "Juab", "st": "UT", "Zip": 84648.0, "O_14": 4.0, "Q_15": 3.0, "O_15": 2.0, "city": "NEPHI", "beds": 80.0, "SR_15": 2.0}, {"Diff_star": 0.0, "addr": "3706 WEST 9000 SOUTH", "SR_14": 3.0, "Q_14": 4.0, "name": "COPPER RIDGE HEALTH CARE", "SF_14": 4.0, "SF_15": 4.0, "cnty": "Salt Lake", "st": "UT", "Zip": 84088.0, "O_14": 4.0, "Q_15": 3.0, "O_15": 4.0, "city": "WEST JORDAN", "beds": 120.0, "SR_15": 3.0}, {"Diff_star": 0.0, "addr": "4782 SOUTH HOLLADAY BOULEVARD", "SR_14": 4.0, "Q_14": 5.0, "name": "HOLLADAY HEALTHCARE CENTER", "SF_14": 5.0, "SF_15": 5.0, "cnty": "Salt Lake", "st": "UT", "Zip": 84117.0, "O_14": 5.0, "Q_15": 5.0, "O_15": 5.0, "city": "SALT LAKE CITY", "beds": 120.0, "SR_15": 4.0}, {"Diff_star": 0.0, "addr": "575 EAST 11000 SOUTH", "SR_14": 1.0, "Q_14": 2.0, "name": "DESERET HEALTH AND REHAB AT CROSSLANDS", "SF_14": 2.0, "SF_15": 2.0, "cnty": "Salt Lake", "st": "UT", "Zip": 84070.0, "O_14": 1.0, "Q_15": 2.0, "O_15": 1.0, "city": "SANDY", "beds": 108.0, "SR_15": 1.0}, {"Diff_star": 0.0, "addr": "50 EAST 9000 SOUTH", "SR_14": 1.0, "Q_14": 5.0, "name": "SANDY HEALTH AND REHAB", "SF_14": 2.0, "SF_15": 2.0, "cnty": "Salt Lake", "st": "UT", "Zip": 84070.0, "O_14": 2.0, "Q_15": 5.0, "O_15": 2.0, "city": "SANDY", "beds": 154.0, "SR_15": 1.0}, {"Diff_star": -1.0, "addr": "460 WEST 2600 SOUTH", "SR_14": 3.0, "Q_14": 4.0, "name": "LIFE CARE CENTER OF BOUNTIFUL", "SF_14": 4.0, "SF_15": 3.0, "cnty": "Davis", "st": "UT", "Zip": 84010.0, "O_14": 4.0, "Q_15": 4.0, "O_15": 3.0, "city": "BOUNTIFUL", "beds": 120.0, "SR_15": 3.0}, {"Diff_star": -1.0, "addr": "400 EAST 5350 SOUTH", "SR_14": 2.0, "Q_14": 4.0, "name": "WASHINGTON TERRACE CENTER", "SF_14": 4.0, "SF_15": 3.0, "cnty": "Weber", "st": "UT", "Zip": 84405.0, "O_14": 3.0, "Q_15": 4.0, "O_15": 2.0, "city": "OGDEN", "beds": 120.0, "SR_15": 2.0}, {"Diff_star": 0.0, "addr": "1480 NORTH 400 EAST", "SR_14": 1.0, "Q_14": 2.0, "name": "LOGAN NURSING AND REHABILITATION CENTER", "SF_14": 2.0, "SF_15": 2.0, "cnty": "Cache", "st": "UT", "Zip": 84341.0, "O_14": 1.0, "Q_15": 1.0, "O_15": 1.0, "city": "LOGAN", "beds": 120.0, "SR_15": 1.0}, {"Diff_star": 0.0, "addr": "5540 SOUTH 1050 EAST", "SR_14": 4.0, "Q_14": 5.0, "name": "MANOR CARE HEALTH SERVICES - SOUTH OGDEN", "SF_14": 4.0, "SF_15": 3.0, "cnty": "Weber", "st": "UT", "Zip": 84405.0, "O_14": 5.0, "Q_15": 5.0, "O_15": 5.0, "city": "OGDEN", "beds": 140.0, "SR_15": 4.0}, {"Diff_star": -1.0, "addr": "1001 NORTH 500 WEST", "SR_14": 1.0, "Q_14": 3.0, "name": "PROVO REHABILITATION AND NURSING", "SF_14": 4.0, "SF_15": 4.0, "cnty": "Utah", "st": "UT", "Zip": 84604.0, "O_14": 2.0, "Q_15": 1.0, "O_15": 1.0, "city": "PROVO", "beds": 220.0, "SR_15": 1.0}, {"Diff_star": 0.0, "addr": "500 EAST 1400 NORTH", "SR_14": 5.0, "Q_14": 2.0, "name": "LOGAN REGIONAL HOSPITAL TRANSITIONAL CARE UNIT", "SF_14": "", "SF_15": "", "cnty": "Cache", "st": "UT", "Zip": 84341.0, "O_14": 5.0, "Q_15": 2.0, "O_15": 5.0, "city": "LOGAN", "beds": 11.0, "SR_15": 5.0}, {"Diff_star": -1.0, "addr": "125 SOUTH 900 WEST", "SR_14": 3.0, "Q_14": 5.0, "name": "MIDTOWN MANOR", "SF_14": 3.0, "SF_15": 3.0, "cnty": "Salt Lake", "st": "UT", "Zip": 84104.0, "O_14": 4.0, "Q_15": 3.0, "O_15": 3.0, "city": "SALT LAKE CITY", "beds": 82.0, "SR_15": 3.0}, {"Diff_star": 0.0, "addr": "835 EAST VINE STREET", "SR_14": 4.0, "Q_14": 3.0, "name": "ROCKY MOUNTAIN CARE - COTTAGE ON VINE", "SF_14": 4.0, "SF_15": 4.0, "cnty": "Salt Lake", "st": "UT", "Zip": 84107.0, "O_14": 4.0, "Q_15": 2.0, "O_15": 4.0, "city": "MURRAY", "beds": 61.0, "SR_15": 4.0}, {"Diff_star": 0.0, "addr": "1216 EAST 1300 SOUTH", "SR_14": 4.0, "Q_14": 3.0, "name": "HILLSIDE REHABILITATION CENTER", "SF_14": 4.0, "SF_15": 3.0, "cnty": "Salt Lake", "st": "UT", "Zip": 84105.0, "O_14": 4.0, "Q_15": 2.0, "O_15": 4.0, "city": "SALT LAKE CITY", "beds": 121.0, "SR_15": 4.0}, {"Diff_star": 0.0, "addr": "55 SOUTH PROFESSIONAL WAY", "SR_14": 1.0, "Q_14": 1.0, "name": "PARKWAY HEALTH CENTER", "SF_14": 4.0, "SF_15": 4.0, "cnty": "Utah", "st": "UT", "Zip": 84651.0, "O_14": 1.0, "Q_15": 1.0, "O_15": 1.0, "city": "PAYSON", "beds": 76.0, "SR_15": 1.0}, {"Diff_star": 0.0, "addr": "321 EAST 800 SOUTH", "SR_14": 1.0, "Q_14": 1.0, "name": "ART CITY NURSING AND REHABILITATION CENTER", "SF_14": 5.0, "SF_15": 5.0, "cnty": "Utah", "st": "UT", "Zip": 84663.0, "O_14": 1.0, "Q_15": 1.0, "O_15": 1.0, "city": "SPRINGVILLE", "beds": 55.0, "SR_15": 1.0}, {"Diff_star": 0.0, "addr": "1745 EAST 280 NORTH", "SR_14": 3.0, "Q_14": 4.0, "name": "RED CLIFFS HEALTH AND REHAB", "SF_14": 3.0, "SF_15": 3.0, "cnty": "Washington", "st": "UT", "Zip": 84790.0, "O_14": 3.0, "Q_15": 2.0, "O_15": 3.0, "city": "ST GEORGE", "beds": 124.0, "SR_15": 3.0}, {"Diff_star": 0.0, "addr": "1201 EAST 4500 SOUTH", "SR_14": 4.0, "Q_14": 5.0, "name": "GARDEN TERRACE ALZHEIMER'S CENTER OF EXCELLENCE", "SF_14": 3.0, "SF_15": 3.0, "cnty": "Salt Lake", "st": "UT", "Zip": 84117.0, "O_14": 5.0, "Q_15": 5.0, "O_15": 5.0, "city": "SALT LAKE CITY", "beds": 120.0, "SR_15": 4.0}, {"Diff_star": 0.0, "addr": "1200 EAST 3900 SOUTH", "SR_14": 3.0, "Q_14": 3.0, "name": "ST MARKS HOSPITAL TRANSITIONAL CARE", "SF_14": 5.0, "SF_15": 5.0, "cnty": "Salt Lake", "st": "UT", "Zip": 84124.0, "O_14": 4.0, "Q_15": 3.0, "O_15": 4.0, "city": "SALT LAKE CITY", "beds": 14.0, "SR_15": 3.0}, {"Diff_star": -1.0, "addr": "950 EAST 3300 SOUTH", "SR_14": 2.0, "Q_14": 5.0, "name": "DESERET CARE CENTER", "SF_14": 2.0, "SF_15": 2.0, "cnty": "Salt Lake", "st": "UT", "Zip": 84106.0, "O_14": 3.0, "Q_15": 4.0, "O_15": 2.0, "city": "SALT LAKE CITY", "beds": 52.0, "SR_15": 2.0}, {"Diff_star": -1.0, "addr": "411 WEST 1325 NORTH", "SR_14": 4.0, "Q_14": 5.0, "name": "KOLOB REGIONAL CARE AND REHABILITATION", "SF_14": 3.0, "SF_15": 3.0, "cnty": "Iron", "st": "UT", "Zip": 84721.0, "O_14": 5.0, "Q_15": 4.0, "O_15": 4.0, "city": "CEDAR CITY", "beds": 120.0, "SR_15": 4.0}, {"Diff_star": -1.0, "addr": "242 NORTH 200 WEST", "SR_14": 4.0, "Q_14": 3.0, "name": "SEASONS HEALTH AND REHABILITATION", "SF_14": 4.0, "SF_15": 3.0, "cnty": "Washington", "st": "UT", "Zip": 84770.0, "O_14": 4.0, "Q_15": 1.0, "O_15": 3.0, "city": "ST GEORGE", "beds": 53.0, "SR_15": 4.0}, {"Diff_star": -1.0, "addr": "2472 SOUTH 300 EAST", "SR_14": 3.0, "Q_14": 5.0, "name": "AVALON VALLEY REHABILITATION", "SF_14": 3.0, "SF_15": 3.0, "cnty": "Salt Lake", "st": "UT", "Zip": 84115.0, "O_14": 4.0, "Q_15": 4.0, "O_15": 3.0, "city": "SALT LAKE CITY", "beds": 140.0, "SR_15": 3.0}, {"Diff_star": -2.0, "addr": "160 WEST 500 NORTH", "SR_14": 3.0, "Q_14": 2.0, "name": "ROCKY MOUNTAIN CARE - MOUNTAIN VIEW", "SF_14": 4.0, "SF_15": 3.0, "cnty": "Wasatch", "st": "UT", "Zip": 84032.0, "O_14": 4.0, "Q_15": 1.0, "O_15": 2.0, "city": "HEBER CITY", "beds": 46.0, "SR_15": 3.0}, {"Diff_star": -1.0, "addr": "76 SOUTH 500 EAST", "SR_14": 4.0, "Q_14": 5.0, "name": "EMERITUS AT SALT LAKE CITY NURSING CARE FACILITY", "SF_14": 4.0, "SF_15": 4.0, "cnty": "Salt Lake", "st": "UT", "Zip": 84102.0, "O_14": 5.0, "Q_15": 4.0, "O_15": 4.0, "city": "SALT LAKE CITY", "beds": 45.0, "SR_15": 4.0}, {"Diff_star": 0.0, "addr": "700 SOUTH FOOTHILL DRIVE", "SR_14": 4.0, "Q_14": 5.0, "name": "WILLIAM E CHRISTOFFERSON SALT LAKE VETERANS HOME", "SF_14": 4.0, "SF_15": 4.0, "cnty": "Salt Lake", "st": "UT", "Zip": 84113.0, "O_14": 5.0, "Q_15": 5.0, "O_15": 5.0, "city": "SALT LAKE CITY", "beds": 81.0, "SR_15": 4.0}, {"Diff_star": -1.0, "addr": "178 SOUTH 1200 EAST", "SR_14": 1.0, "Q_14": 3.0, "name": "KOLOB CARE AND REHABILITATION OF ST GEORGE", "SF_14": 4.0, "SF_15": 3.0, "cnty": "Washington", "st": "UT", "Zip": 84790.0, "O_14": 2.0, "Q_15": 2.0, "O_15": 1.0, "city": "ST GEORGE", "beds": 156.0, "SR_15": 1.0}, {"Diff_star": 0.0, "addr": "69 EAST 100 SOUTH", "SR_14": 2.0, "Q_14": 4.0, "name": "IRON COUNTY NURSING HOME", "SF_14": 5.0, "SF_15": 5.0, "cnty": "Iron", "st": "UT", "Zip": 84761.0, "O_14": 3.0, "Q_15": 4.0, "O_15": 3.0, "city": "PAROWAN", "beds": 31.0, "SR_15": 2.0}, {"Diff_star": 0.0, "addr": "1497 EAST SKYLINE DRIVE", "SR_14": 4.0, "Q_14": 5.0, "name": "PINE VIEW TRANSITIONAL REHAB", "SF_14": 5.0, "SF_15": 5.0, "cnty": "Weber", "st": "UT", "Zip": 84405.0, "O_14": 5.0, "Q_15": 5.0, "O_15": 5.0, "city": "OGDEN", "beds": 30.0, "SR_15": 4.0}, {"Diff_star": -1.0, "addr": "523 NORTH MAIN STREET", "SR_14": 2.0, "Q_14": 4.0, "name": "AVALON CARE CENTER-BOUNTIFUL", "SF_14": 4.0, "SF_15": 3.0, "cnty": "Davis", "st": "UT", "Zip": 84010.0, "O_14": 3.0, "Q_15": 2.0, "O_15": 2.0, "city": "BOUNTIFUL", "beds": 122.0, "SR_15": 2.0}, {"Diff_star": 0.0, "addr": "150 SOUTH WHITE SAGE AVENUE", "SR_14": 4.0, "Q_14": 3.0, "name": "MILLARD COUNTY CARE AND REHABILITATION", "SF_14": 2.0, "SF_15": 2.0, "cnty": "Millard", "st": "UT", "Zip": 84624.0, "O_14": 4.0, "Q_15": 2.0, "O_15": 4.0, "city": "DELTA", "beds": 60.0, "SR_15": 4.0}, {"Diff_star": 0.0, "addr": "433 EAST 2700 SOUTH", "SR_14": 4.0, "Q_14": 4.0, "name": "MEADOWBROOK REHABILITATION AND NURSING", "SF_14": 3.0, "SF_15": 3.0, "cnty": "Salt Lake", "st": "UT", "Zip": 84115.0, "O_14": 4.0, "Q_15": 4.0, "O_15": 4.0, "city": "SALT LAKE CITY", "beds": 41.0, "SR_15": 4.0}, {"Diff_star": 0.0, "addr": "963 EAST 6600 SOUTH", "SR_14": 4.0, "Q_14": 5.0, "name": "ASPEN RIDGE TRANSITIONAL REHAB", "SF_14": "", "SF_15": "", "cnty": "Salt Lake", "st": "UT", "Zip": 84121.0, "O_14": 5.0, "Q_15": 5.0, "O_15": 5.0, "city": "MURRAY", "beds": 38.0, "SR_15": 4.0}, {"Diff_star": 0.0, "addr": "1490 EAST FOREMASTER DRIVE", "SR_14": 5.0, "Q_14": 5.0, "name": "CORAL DESERT REHABILITATION", "SF_14": 4.0, "SF_15": 4.0, "cnty": "Washington", "st": "UT", "Zip": 84790.0, "O_14": 5.0, "Q_15": 5.0, "O_15": 5.0, "city": "ST GEORGE", "beds": 60.0, "SR_15": 5.0}, {"Diff_star": 0.0, "addr": "1430 EAST 4500 SOUTH", "SR_14": 4.0, "Q_14": 5.0, "name": "ASPEN PARK REHABILITATION", "SF_14": 5.0, "SF_15": 5.0, "cnty": "Salt Lake", "st": "UT", "Zip": 84117.0, "O_14": 5.0, "Q_15": 4.0, "O_15": 5.0, "city": "SALT LAKE CITY", "beds": 20.0, "SR_15": 4.0}, {"Diff_star": -1.0, "addr": "350 SOUTH 400 EAST", "SR_14": 3.0, "Q_14": 5.0, "name": "NORTH CANYON CARE CENTER", "SF_14": 3.0, "SF_15": 3.0, "cnty": "Davis", "st": "UT", "Zip": 84010.0, "O_14": 4.0, "Q_15": 4.0, "O_15": 3.0, "city": "BOUNTIFUL", "beds": 102.0, "SR_15": 3.0}, {"Diff_star": 0.0, "addr": "460 WEST 600 NORTH", "SR_14": 4.0, "Q_14": 4.0, "name": "BEAR RIVER VALLEY CARE CENTER", "SF_14": 4.0, "SF_15": 4.0, "cnty": "Box Elder", "st": "UT", "Zip": 84337.0, "O_14": 4.0, "Q_15": 3.0, "O_15": 4.0, "city": "TREMONTON", "beds": 38.0, "SR_15": 4.0}, {"Diff_star": 0.0, "addr": "5323 SOUTH MURRAY BOULEVARD", "SR_14": 5.0, "Q_14": 5.0, "name": "ASPEN RIDGE WEST TRANSITIONAL REHAB", "SF_14": 5.0, "SF_15": 5.0, "cnty": "Salt Lake", "st": "UT", "Zip": 84123.0, "O_14": 5.0, "Q_15": 5.0, "O_15": 5.0, "city": "MURRAY", "beds": 38.0, "SR_15": 5.0}, {"Diff_star": 1.0, "addr": "435 WEST CENTER STREET", "SR_14": 5.0, "Q_14": 1.0, "name": "STONEHENGE OF OREM", "SF_14": 4.0, "SF_15": 4.0, "cnty": "Utah", "st": "UT", "Zip": 84057.0, "O_14": 4.0, "Q_15": 2.0, "O_15": 5.0, "city": "OREM", "beds": 36.0, "SR_15": 5.0}, {"Diff_star": 0.0, "addr": "3419 WEST 12600 SOUTH", "SR_14": 2.0, "Q_14": 5.0, "name": "ROCKY MOUNTAIN CARE - RIVERTON", "SF_14": 5.0, "SF_15": 5.0, "cnty": "Salt Lake", "st": "UT", "Zip": 84065.0, "O_14": 4.0, "Q_15": 5.0, "O_15": 4.0, "city": "RIVERTON", "beds": 40.0, "SR_15": 2.0}, {"Diff_star": 0.0, "addr": "1795 SOUTH CHELEMES WAY", "SR_14": 4.0, "Q_14": 5.0, "name": "THATCHER BROOK REHABILITATION & CARE", "SF_14": 2.0, "SF_15": 2.0, "cnty": "Davis", "st": "UT", "Zip": 84015.0, "O_14": 5.0, "Q_15": 5.0, "O_15": 5.0, "city": "CLEARFIELD", "beds": 30.0, "SR_15": 4.0}, {"Diff_star": 0.0, "addr": "1992 SOUTH COLUMBIA LANE", "SR_14": 4.0, "Q_14": 5.0, "name": "ASPEN RIDGE OF UTAH VALLEY", "SF_14": 5.0, "SF_15": 5.0, "cnty": "Utah", "st": "UT", "Zip": 84097.0, "O_14": 5.0, "Q_15": 5.0, "O_15": 5.0, "city": "OREM", "beds": 24.0, "SR_15": 4.0}, {"Diff_star": 0.0, "addr": "3251 WEST 5400 SOUTH", "SR_14": 4.0, "Q_14": 3.0, "name": "LEGACY VILLAGE REHABILITATION", "SF_14": 5.0, "SF_15": 5.0, "cnty": "Salt Lake", "st": "UT", "Zip": 84129.0, "O_14": 5.0, "Q_15": 2.0, "O_15": 5.0, "city": "TAYLORSVILLE", "beds": 40.0, "SR_15": 4.0}, {"Diff_star": -1.0, "addr": "1102 NORTH 1200 WEST", "SR_14": 4.0, "Q_14": 5.0, "name": "GEORGE E WAHLEN OGDEN VETERANS HOME", "SF_14": 4.0, "SF_15": 4.0, "cnty": "Weber", "st": "UT", "Zip": 84404.0, "O_14": 5.0, "Q_15": 3.0, "O_15": 4.0, "city": "OGDEN", "beds": 120.0, "SR_15": 4.0}, {"Diff_star": 0.0, "addr": "125 EAST 600 NORTH", "SR_14": 5.0, "Q_14": 4.0, "name": "STONEHENGE OF RICHFIELD", "SF_14": 5.0, "SF_15": 5.0, "cnty": "Sevier", "st": "UT", "Zip": 84701.0, "O_14": 5.0, "Q_15": 3.0, "O_15": 5.0, "city": "RICHFIELD", "beds": 30.0, "SR_15": 5.0}, {"Diff_star": 0.0, "addr": "1203 NORTH FAIRFIELD ROAD", "SR_14": 5.0, "Q_14": 3.0, "name": "LEGACY VILLAGE OF LAYTON", "SF_14": 5.0, "SF_15": 5.0, "cnty": "Davis", "st": "UT", "Zip": 84041.0, "O_14": 5.0, "Q_15": 2.0, "O_15": 5.0, "city": "LAYTON", "beds": 40.0, "SR_15": 5.0}, {"Diff_star": 0.0, "addr": "10 WEST 400 SOUTH", "SR_14": 2.0, "Q_14": 1.0, "name": "MISSION AT COMMUNITY LIVING REHABILITATION CENTER", "SF_14": 3.0, "SF_15": 3.0, "cnty": "Sanpete", "st": "UT", "Zip": 84622.0, "O_14": 1.0, "Q_15": 1.0, "O_15": 1.0, "city": "CENTERFIELD", "beds": 46.0, "SR_15": 2.0}, {"Diff_star": 0.0, "addr": "1371 W SOUTH JORDAN PARKWAY", "SR_14": 5.0, "Q_14": 3.0, "name": "COMPASS REHABILITATION CENTER", "SF_14": 4.0, "SF_15": 4.0, "cnty": "Salt Lake", "st": "UT", "Zip": 84095.0, "O_14": 5.0, "Q_15": 3.0, "O_15": 5.0, "city": "SOUTH JORDAN", "beds": 32.0, "SR_15": 5.0}, {"Diff_star": -1.0, "addr": "370 WEST 500 NORTH", "SR_14": 4.0, "Q_14": 5.0, "name": "THE PEAKS CARE AND REHAB", "SF_14": "", "SF_15": "", "cnty": "Utah", "st": "UT", "Zip": 84057.0, "O_14": 5.0, "Q_15": 4.0, "O_15": 4.0, "city": "OREM", "beds": 16.0, "SR_15": 4.0}, {"Diff_star": 0.0, "addr": "538 S 500 E", "SR_14": 5.0, "Q_14": 4.0, "name": "STONEHENGE OF AMERICAN FORK", "SF_14": 4.0, "SF_15": 4.0, "cnty": "Utah", "st": "UT", "Zip": 84003.0, "O_14": 5.0, "Q_15": 2.0, "O_15": 5.0, "city": "AMERICAN FORK", "beds": 120.0, "SR_15": 5.0}, {"Diff_star": -1.0, "addr": "13747 SOUTH REDWOOD ROAD", "SR_14": 5.0, "Q_14": 4.0, "name": "COUNTRY LIFE CARE CENTER", "SF_14": 5.0, "SF_15": 5.0, "cnty": "Salt Lake", "st": "UT", "Zip": 84065.0, "O_14": 5.0, "Q_15": 1.0, "O_15": 4.0, "city": "RIVERTON", "beds": 36.0, "SR_15": 4.0}, {"Diff_star": 0.0, "addr": "160 N 200 E", "SR_14": 4.0, "Q_14": 5.0, "name": "SOUTHERN UTAH VETERANS HOME - IVINS", "SF_14": 5.0, "SF_15": 5.0, "cnty": "Washington", "st": "UT", "Zip": 84738.0, "O_14": 5.0, "Q_15": 5.0, "O_15": 5.0, "city": "IVINS", "beds": 108.0, "SR_15": 4.0}, {"Diff_star": -1.0, "addr": "1551 N MAIN STREET", "SR_14": 5.0, "Q_14": 4.0, "name": "CENTRAL UTAH VETERANS HOME - PAYSON", "SF_14": "", "SF_15": "", "cnty": "Utah", "st": "UT", "Zip": 84651.0, "O_14": 5.0, "Q_15": 1.0, "O_15": 4.0, "city": "PAYSON", "beds": 108.0, "SR_15": 5.0}, {"Diff_star": -1.0, "addr": "3520 SOUTH HIGHLAND DRIVE", "SR_14": 2.0, "Q_14": 5.0, "name": "MILLCREEK HEALTH CENTER", "SF_14": 5.0, "SF_15": 5.0, "cnty": "Salt Lake", "st": "UT", "Zip": 84106.0, "O_14": 4.0, "Q_15": 3.0, "O_15": 3.0, "city": "SALT LAKE CITY", "beds": 61.0, "SR_15": 2.0}, {"Diff_star": -1.0, "addr": "455 SOUTH 900 EAST", "SR_14": 4.0, "Q_14": 5.0, "name": "FAIRVIEW CARE CENTER EAST", "SF_14": 3.0, "SF_15": 3.0, "cnty": "Salt Lake", "st": "UT", "Zip": 84102.0, "O_14": 5.0, "Q_15": 3.0, "O_15": 4.0, "city": "SALT LAKE CITY", "beds": 36.0, "SR_15": 4.0}, {"Diff_star": -1.0, "addr": "151 EAST CENTER STREET", "SR_14": 2.0, "Q_14": 2.0, "name": "SPANISH FORK NURSING & REHAB", "SF_14": 2.0, "SF_15": 2.0, "cnty": "Utah", "st": "UT", "Zip": 84660.0, "O_14": 2.0, "Q_15": 1.0, "O_15": 1.0, "city": "SPANISH FORK", "beds": 29.0, "SR_15": 2.0}, {"Diff_star": 0.0, "addr": "876 WEST 700 SOUTH", "SR_14": 4.0, "Q_14": 4.0, "name": "PINE CREEK REHABILITATION AND NURSING", "SF_14": 2.0, "SF_15": 2.0, "cnty": "Salt Lake", "st": "UT", "Zip": 84104.0, "O_14": 4.0, "Q_15": 4.0, "O_15": 4.0, "city": "SALT LAKE CITY", "beds": 36.0, "SR_15": 4.0}, {"Diff_star": 0.0, "addr": "3094 SOUTH STATE STREET", "SR_14": 3.0, "Q_14": 5.0, "name": "LITTLE COTTONWOOD REHABILITATION AND NURSING", "SF_14": 1.0, "SF_15": 1.0, "cnty": "Salt Lake", "st": "UT", "Zip": 84115.0, "O_14": 3.0, "Q_15": 5.0, "O_15": 3.0, "city": "SALT LAKE CITY", "beds": 37.0, "SR_15": 3.0}, {"Diff_star": -1.0, "addr": "2520 SOUTH REDWOOD ROAD", "SR_14": 1.0, "Q_14": 5.0, "name": "HAZEN NURSING HOME", "SF_14": 4.0, "SF_15": 3.0, "cnty": "Salt Lake", "st": "UT", "Zip": 84119.0, "O_14": 2.0, "Q_15": 4.0, "O_15": 1.0, "city": "WEST VALLEY CITY", "beds": 26.0, "SR_15": 1.0}, {"Diff_star": 0.0, "addr": "390 WEST WILLIAMS WAY", "SR_14": 1.0, "Q_14": 1.0, "name": "CANYONLANDS CARE CENTER", "SF_14": 3.0, "SF_15": 3.0, "cnty": "Grand", "st": "UT", "Zip": 84532.0, "O_14": 1.0, "Q_15": 1.0, "O_15": 1.0, "city": "MOAB", "beds": 36.0, "SR_15": 1.0}]