[{"Diff_star": -1.0, "addr": "3823 FRANKLIN RD, SW", "SR_14": 4.0, "Q_14": 3.0, "name": "SOUTH ROANOKE NURSING HOME INC", "SF_14": 4.0, "SF_15": 4.0, "cnty": "Roanoke City", "st": "VA", "Zip": 24014.0, "O_14": 4.0, "Q_15": 1.0, "O_15": 3.0, "city": "ROANOKE", "beds": 98.0, "SR_15": 4.0}, {"Diff_star": 0.0, "addr": "1510 COLLINGWOOD ROAD", "SR_14": 4.0, "Q_14": 5.0, "name": "MANORCARE HEALTH SERVICES-ALEXANDRIA", "SF_14": 3.0, "SF_15": 3.0, "cnty": "Fairfax", "st": "VA", "Zip": 22308.0, "O_14": 5.0, "Q_15": 5.0, "O_15": 5.0, "city": "ALEXANDRIA", "beds": 96.0, "SR_15": 4.0}, {"Diff_star": -1.0, "addr": "3615 WEST MAIN STREET", "SR_14": 1.0, "Q_14": 3.0, "name": "RICHFIELD RECOVERY &  CARE CENT", "SF_14": 4.0, "SF_15": 3.0, "cnty": "Salem City", "st": "VA", "Zip": 24153.0, "O_14": 2.0, "Q_15": 1.0, "O_15": 1.0, "city": "SALEM", "beds": 315.0, "SR_15": 1.0}, {"Diff_star": 0.0, "addr": "2526 NORTH MAIN STREET", "SR_14": 4.0, "Q_14": 4.0, "name": "ROMAN EAGLE REHABILITATION AND HEALTH CARE CENTER", "SF_14": 3.0, "SF_15": 3.0, "cnty": "Danville City", "st": "VA", "Zip": 24540.0, "O_14": 4.0, "Q_15": 3.0, "O_15": 4.0, "city": "DANVILLE", "beds": 312.0, "SR_15": 4.0}, {"Diff_star": -1.0, "addr": "2729 KING ST", "SR_14": 4.0, "Q_14": 5.0, "name": "WOODBINE REHABILITATION & HEALTHCARE CENTER", "SF_14": 4.0, "SF_15": 3.0, "cnty": "Alexandria City", "st": "VA", "Zip": 22302.0, "O_14": 5.0, "Q_15": 4.0, "O_15": 4.0, "city": "ALEXANDRIA", "beds": 307.0, "SR_15": 4.0}, {"Diff_star": -1.0, "addr": "170 KENDAL DRIVE", "SR_14": 1.0, "Q_14": 5.0, "name": "KENDAL  AT LEXINGTON", "SF_14": 3.0, "SF_15": 3.0, "cnty": "Lexington City", "st": "VA", "Zip": 24450.0, "O_14": 2.0, "Q_15": 4.0, "O_15": 1.0, "city": "LEXINGTON", "beds": 60.0, "SR_15": 1.0}, {"Diff_star": 0.0, "addr": "8575 RIXLEW LANE", "SR_14": 1.0, "Q_14": 4.0, "name": "MANASSAS HEALTH AND REHAB CENTER", "SF_14": 2.0, "SF_15": 2.0, "cnty": "Manassas City", "st": "VA", "Zip": 20109.0, "O_14": 1.0, "Q_15": 4.0, "O_15": 1.0, "city": "MANASSAS", "beds": 120.0, "SR_15": 1.0}, {"Diff_star": 0.0, "addr": "2125 HILLIARD ROAD", "SR_14": 1.0, "Q_14": 4.0, "name": "MANORCARE HEALTH SERVICES-STRATFORD HALL", "SF_14": 4.0, "SF_15": 4.0, "cnty": "Henrico", "st": "VA", "Zip": 23228.0, "O_14": 2.0, "Q_15": 3.0, "O_15": 2.0, "city": "RICHMOND", "beds": 194.0, "SR_15": 1.0}, {"Diff_star": -2.0, "addr": "1613 OAKWOOD STREET", "SR_14": 3.0, "Q_14": 5.0, "name": "OAKWOOD MANOR BEDFORD MEM", "SF_14": 4.0, "SF_15": 3.0, "cnty": "Bedford City", "st": "VA", "Zip": 24523.0, "O_14": 5.0, "Q_15": 4.0, "O_15": 3.0, "city": "BEDFORD", "beds": 111.0, "SR_15": 3.0}, {"Diff_star": -3.0, "addr": "4800 FILLMORE AVE", "SR_14": 4.0, "Q_14": 5.0, "name": "GOODWIN HOUSE ALEXANDRIA", "SF_14": 4.0, "SF_15": 5.0, "cnty": "Alexandria City", "st": "VA", "Zip": 22311.0, "O_14": 5.0, "Q_15": 5.0, "O_15": 2.0, "city": "ALEXANDRIA", "beds": 80.0, "SR_15": 1.0}, {"Diff_star": 0.0, "addr": "1005 HAMPTON BLVD", "SR_14": 3.0, "Q_14": 4.0, "name": "SIGNATURE HEALTHCARE OF HARBOUR POINTE", "SF_14": 1.0, "SF_15": 1.0, "cnty": "Norfolk City", "st": "VA", "Zip": 23507.0, "O_14": 2.0, "Q_15": 2.0, "O_15": 2.0, "city": "NORFOLK", "beds": 169.0, "SR_15": 3.0}, {"Diff_star": -1.0, "addr": "1000 OLD DENBEIGH BOULEVARD", "SR_14": 3.0, "Q_14": 4.0, "name": "THE GARDENS AT WARWICK FOREST", "SF_14": 4.0, "SF_15": 3.0, "cnty": "Newport News City", "st": "VA", "Zip": 23602.0, "O_14": 4.0, "Q_15": 2.0, "O_15": 3.0, "city": "NEWPORT NEWS", "beds": 242.0, "SR_15": 3.0}, {"Diff_star": -1.0, "addr": "2200 LANDOVER PLACE", "SR_14": 2.0, "Q_14": 5.0, "name": "MEDICAL CARE CENTER", "SF_14": 3.0, "SF_15": 3.0, "cnty": "Lynchburg City", "st": "VA", "Zip": 24501.0, "O_14": 3.0, "Q_15": 4.0, "O_15": 2.0, "city": "LYNCHBURG", "beds": 118.0, "SR_15": 2.0}, {"Diff_star": -1.0, "addr": "6800 LUCY CORR BLVD", "SR_14": 1.0, "Q_14": 4.0, "name": "HEALTH CARE CENTER LUCY CORR", "SF_14": 4.0, "SF_15": 1.0, "cnty": "Chesterfield", "st": "VA", "Zip": 23832.0, "O_14": 2.0, "Q_15": 4.0, "O_15": 1.0, "city": "CHESTERFIELD", "beds": 240.0, "SR_15": 1.0}, {"Diff_star": 0.0, "addr": "201 EPPS STREET", "SR_14": 2.0, "Q_14": 4.0, "name": "RIVERVIEW ON THE APPOMATTOX HEALTH & REHAB CENTER", "SF_14": 2.0, "SF_15": 2.0, "cnty": "Hopewell City", "st": "VA", "Zip": 23860.0, "O_14": 2.0, "Q_15": 4.0, "O_15": 2.0, "city": "HOPEWELL", "beds": 124.0, "SR_15": 2.0}, {"Diff_star": 0.0, "addr": "1148 FIRST COLONIAL RD", "SR_14": 1.0, "Q_14": 4.0, "name": "KINDRED TCC AND REHABILITATION-BAY POINTE", "SF_14": 5.0, "SF_15": 5.0, "cnty": "Virginia Beach City", "st": "VA", "Zip": 23454.0, "O_14": 2.0, "Q_15": 4.0, "O_15": 2.0, "city": "VIRGINIA BEACH", "beds": 112.0, "SR_15": 1.0}, {"Diff_star": 0.0, "addr": "1945 ROANOKE BLVD", "SR_14": 3.0, "Q_14": 4.0, "name": "SALEM HEALTH & REHABILITATION", "SF_14": 2.0, "SF_15": 2.0, "cnty": "Salem City", "st": "VA", "Zip": 24153.0, "O_14": 3.0, "Q_15": 2.0, "O_15": 3.0, "city": "SALEM", "beds": 240.0, "SR_15": 3.0}, {"Diff_star": 1.0, "addr": "327 HERSHBERGER RD NW", "SR_14": 2.0, "Q_14": 4.0, "name": "FRIENDSHIP HEALTH AND REHAB CENTER", "SF_14": 3.0, "SF_15": 3.0, "cnty": "Roanoke City", "st": "VA", "Zip": 24012.0, "O_14": 2.0, "Q_15": 3.0, "O_15": 3.0, "city": "ROANOKE", "beds": 373.0, "SR_15": 3.0}, {"Diff_star": -1.0, "addr": "1225 RESERVOIR STREET", "SR_14": 1.0, "Q_14": 4.0, "name": "HARRISONBURG HLTH & REHAB CNTR", "SF_14": 4.0, "SF_15": 3.0, "cnty": "Harrisonburg City", "st": "VA", "Zip": 22801.0, "O_14": 2.0, "Q_15": 2.0, "O_15": 1.0, "city": "HARRISONBURG", "beds": 180.0, "SR_15": 1.0}, {"Diff_star": 0.0, "addr": "1600 WESTBROOK AVE", "SR_14": 2.0, "Q_14": 5.0, "name": "WESTMINSTER-CANTERBURY HOUSE", "SF_14": 5.0, "SF_15": 5.0, "cnty": "Henrico", "st": "VA", "Zip": 23227.0, "O_14": 4.0, "Q_15": 5.0, "O_15": 4.0, "city": "RICHMOND", "beds": 158.0, "SR_15": 2.0}, {"Diff_star": -1.0, "addr": "2400 E PARHAM ROAD", "SR_14": 3.0, "Q_14": 5.0, "name": "PARHAM HEALTH CARE & REHAB CEN", "SF_14": 5.0, "SF_15": 5.0, "cnty": "Henrico", "st": "VA", "Zip": 23228.0, "O_14": 5.0, "Q_15": 4.0, "O_15": 4.0, "city": "RICHMOND", "beds": 180.0, "SR_15": 3.0}, {"Diff_star": -1.0, "addr": "10701 MAIN STREET", "SR_14": 3.0, "Q_14": 5.0, "name": "FAIRFAX NURSING CENTER INC", "SF_14": 5.0, "SF_15": 5.0, "cnty": "Fairfax City", "st": "VA", "Zip": 22030.0, "O_14": 5.0, "Q_15": 3.0, "O_15": 4.0, "city": "FAIRFAX", "beds": 200.0, "SR_15": 3.0}, {"Diff_star": 0.0, "addr": "550 SOUTH CARLIN SPRINGS ROAD", "SR_14": 2.0, "Q_14": 5.0, "name": "MANORCARE HEALTH SERVICES-ARLINGTON", "SF_14": 4.0, "SF_15": 4.0, "cnty": "Arlington", "st": "VA", "Zip": 22204.0, "O_14": 4.0, "Q_15": 5.0, "O_15": 4.0, "city": "ARLINGTON", "beds": 161.0, "SR_15": 2.0}, {"Diff_star": 0.0, "addr": "5615 SEMINOLE AVENUE", "SR_14": 1.0, "Q_14": 5.0, "name": "LYNCHBURG HLTH & REHAB CNTR", "SF_14": 3.0, "SF_15": 3.0, "cnty": "Lynchburg City", "st": "VA", "Zip": 24502.0, "O_14": 2.0, "Q_15": 5.0, "O_15": 2.0, "city": "LYNCHBURG", "beds": 180.0, "SR_15": 1.0}, {"Diff_star": 0.0, "addr": "PO BOX 1098", "SR_14": 5.0, "Q_14": 5.0, "name": "CENTRAL VIRGINIA TRAINING CENT", "SF_14": "", "SF_15": "", "cnty": "Lynchburg City", "st": "VA", "Zip": 24505.0, "O_14": 5.0, "Q_15": 5.0, "O_15": 5.0, "city": "LYNCHBURG", "beds": 84.0, "SR_15": 5.0}, {"Diff_star": -1.0, "addr": "450 PINEY FOREST RD", "SR_14": 3.0, "Q_14": 5.0, "name": "PINEY FOREST HEALTH AND REHABILITATION CENTER", "SF_14": 3.0, "SF_15": 3.0, "cnty": "Danville City", "st": "VA", "Zip": 24540.0, "O_14": 4.0, "Q_15": 4.0, "O_15": 3.0, "city": "DANVILLE", "beds": 120.0, "SR_15": 3.0}, {"Diff_star": -1.0, "addr": "688 KINGSBOROUGH SQUARE", "SR_14": 2.0, "Q_14": 3.0, "name": "CHESAPEAKE HEALTH AND REHABILITATION CENTER", "SF_14": 2.0, "SF_15": 2.0, "cnty": "Chesapeake City", "st": "VA", "Zip": 23320.0, "O_14": 2.0, "Q_15": 1.0, "O_15": 1.0, "city": "CHESAPEAKE", "beds": 240.0, "SR_15": 2.0}, {"Diff_star": 0.0, "addr": "2420 PEMBERTON RD", "SR_14": 3.0, "Q_14": 4.0, "name": "THE LAURELS OF UNIVERSITY PARK", "SF_14": 3.0, "SF_15": 3.0, "cnty": "Henrico", "st": "VA", "Zip": 23233.0, "O_14": 3.0, "Q_15": 3.0, "O_15": 3.0, "city": "RICHMOND", "beds": 145.0, "SR_15": 3.0}, {"Diff_star": 0.0, "addr": "3300 RIVERMONT AVE", "SR_14": 2.0, "Q_14": 4.0, "name": "VA BAP HOSP DIV CEN", "SF_14": 4.0, "SF_15": 4.0, "cnty": "Lynchburg City", "st": "VA", "Zip": 24503.0, "O_14": 3.0, "Q_15": 3.0, "O_15": 3.0, "city": "LYNCHBURG", "beds": 166.0, "SR_15": 2.0}, {"Diff_star": 0.0, "addr": "26317 WEST WASHINGTON STREET", "SR_14": 3.0, "Q_14": 5.0, "name": "HIRAM W DAVIS MEDICAL CTR", "SF_14": 5.0, "SF_15": 5.0, "cnty": "Petersburg City", "st": "VA", "Zip": 23803.0, "O_14": 5.0, "Q_15": 5.0, "O_15": 5.0, "city": "PETERSBURG", "beds": 83.0, "SR_15": 3.0}, {"Diff_star": -1.0, "addr": "1785 HAYES STREET", "SR_14": 1.0, "Q_14": 5.0, "name": "POTOMAC CENTER, GENESIS HEALTHCARE", "SF_14": 2.0, "SF_15": 2.0, "cnty": "Arlington", "st": "VA", "Zip": 22202.0, "O_14": 2.0, "Q_15": 4.0, "O_15": 1.0, "city": "ARLINGTON", "beds": 240.0, "SR_15": 1.0}, {"Diff_star": 0.0, "addr": "831 ELLERSLIE AVE", "SR_14": 1.0, "Q_14": 5.0, "name": "COLONIAL HEIGHTS HEALTH CARE C", "SF_14": 4.0, "SF_15": 4.0, "cnty": "Colonial Heights City", "st": "VA", "Zip": 23834.0, "O_14": 2.0, "Q_15": 4.0, "O_15": 2.0, "city": "COLONIAL HEIGHTS", "beds": 196.0, "SR_15": 1.0}, {"Diff_star": 0.0, "addr": "1309 KEMPSVILLE RD", "SR_14": 4.0, "Q_14": 4.0, "name": "LAKE TAYLOR HOSP", "SF_14": 4.0, "SF_15": 3.0, "cnty": "Norfolk City", "st": "VA", "Zip": 23502.0, "O_14": 4.0, "Q_15": 4.0, "O_15": 4.0, "city": "NORFOLK", "beds": 192.0, "SR_15": 4.0}, {"Diff_star": -1.0, "addr": "300 HATCHER STREET", "SR_14": 4.0, "Q_14": 5.0, "name": "TRINITY MISSION HEALTH AND REHAB OF ROCKY MOUNT", "SF_14": 1.0, "SF_15": 1.0, "cnty": "Franklin", "st": "VA", "Zip": 24151.0, "O_14": 4.0, "Q_15": 4.0, "O_15": 3.0, "city": "ROCKY MOUNT", "beds": 180.0, "SR_15": 4.0}, {"Diff_star": 0.0, "addr": "501 VES RD", "SR_14": 4.0, "Q_14": 5.0, "name": "WESTMINSTER-CANTERBURY -LYNCHB", "SF_14": 5.0, "SF_15": 5.0, "cnty": "Lynchburg City", "st": "VA", "Zip": 24503.0, "O_14": 5.0, "Q_15": 5.0, "O_15": 5.0, "city": "LYNCHBURG", "beds": 80.0, "SR_15": 4.0}, {"Diff_star": 0.0, "addr": "3710 LEE HIGHWAY", "SR_14": 1.0, "Q_14": 5.0, "name": "CHERRYDALE HEALTH AND REHABILITATION CENTER", "SF_14": 3.0, "SF_15": 3.0, "cnty": "Arlington", "st": "VA", "Zip": 22207.0, "O_14": 2.0, "Q_15": 5.0, "O_15": 2.0, "city": "ARLINGTON", "beds": 240.0, "SR_15": 1.0}, {"Diff_star": 0.0, "addr": "905 COUSINS AVENUE", "SR_14": 2.0, "Q_14": 5.0, "name": "HOPEWELL HEALTH CARE CENTER", "SF_14": 2.0, "SF_15": 2.0, "cnty": "Hopewell City", "st": "VA", "Zip": 23860.0, "O_14": 3.0, "Q_15": 5.0, "O_15": 3.0, "city": "HOPEWELL", "beds": 130.0, "SR_15": 2.0}, {"Diff_star": -1.0, "addr": "202 PAINTER ST", "SR_14": 4.0, "Q_14": 2.0, "name": "WADDELL NURSING AND REHAB CENTER", "SF_14": 4.0, "SF_15": 4.0, "cnty": "Galax City", "st": "VA", "Zip": 24333.0, "O_14": 4.0, "Q_15": 1.0, "O_15": 3.0, "city": "GALAX", "beds": 135.0, "SR_15": 4.0}, {"Diff_star": 0.0, "addr": "3100 SHORE DRIVE", "SR_14": 4.0, "Q_14": 5.0, "name": "WESTMINSTER CANTERBURY  CHESAP", "SF_14": 5.0, "SF_15": 5.0, "cnty": "Virginia Beach City", "st": "VA", "Zip": 23451.0, "O_14": 5.0, "Q_15": 5.0, "O_15": 5.0, "city": "VIRGINIA BEACH", "beds": 95.0, "SR_15": 4.0}, {"Diff_star": 0.0, "addr": "245 NORTH STREET", "SR_14": 5.0, "Q_14": 5.0, "name": "NHC HEALTHCARE,BRISTOL", "SF_14": 3.0, "SF_15": 3.0, "cnty": "Bristol City", "st": "VA", "Zip": 24201.0, "O_14": 5.0, "Q_15": 4.0, "O_15": 5.0, "city": "BRISTOL", "beds": 120.0, "SR_15": 5.0}, {"Diff_star": -2.0, "addr": "940 EAST LEE HIGHWAY", "SR_14": 2.0, "Q_14": 5.0, "name": "VALLEY HEALTH CARE CENTER", "SF_14": 4.0, "SF_15": 3.0, "cnty": "Smyth", "st": "VA", "Zip": 24319.0, "O_14": 4.0, "Q_15": 4.0, "O_15": 2.0, "city": "CHILHOWIE", "beds": 180.0, "SR_15": 2.0}, {"Diff_star": 0.0, "addr": "ROSS CARTER BOULEVARD", "SR_14": 1.0, "Q_14": 2.0, "name": "RIDGECREST MANOR NURSING & REHABILITATION", "SF_14": 2.0, "SF_15": 2.0, "cnty": "Scott", "st": "VA", "Zip": 24244.0, "O_14": 1.0, "Q_15": 1.0, "O_15": 1.0, "city": "DUFFIELD", "beds": 120.0, "SR_15": 1.0}, {"Diff_star": -1.0, "addr": "2045 VALLEY VIEW DRIVE", "SR_14": 4.0, "Q_14": 2.0, "name": "HERITAGE HALL BIG STONE GAP", "SF_14": 2.0, "SF_15": 2.0, "cnty": "Wise", "st": "VA", "Zip": 24219.0, "O_14": 4.0, "Q_15": 1.0, "O_15": 3.0, "city": "BIG STONE GAP", "beds": 180.0, "SR_15": 4.0}, {"Diff_star": 0.0, "addr": "315 EAST LEE HIGHWAY", "SR_14": 2.0, "Q_14": 4.0, "name": "LIFE CARE CENTER OF NEW MARKET", "SF_14": 3.0, "SF_15": 3.0, "cnty": "Shenandoah", "st": "VA", "Zip": 22844.0, "O_14": 2.0, "Q_15": 2.0, "O_15": 2.0, "city": "NEW MARKET", "beds": 118.0, "SR_15": 2.0}, {"Diff_star": -2.0, "addr": "110 CHALMERS COURT", "SR_14": 4.0, "Q_14": 5.0, "name": "GOLDEN LIVINGCENTER-ROSE HILL", "SF_14": 2.0, "SF_15": 2.0, "cnty": "Clarke", "st": "VA", "Zip": 22611.0, "O_14": 5.0, "Q_15": 5.0, "O_15": 3.0, "city": "BERRYVILLE", "beds": 120.0, "SR_15": 2.0}, {"Diff_star": 0.0, "addr": "1725 MAIN STREET", "SR_14": 4.0, "Q_14": 4.0, "name": "GOLDEN LIVINGCENTER-ALLEGHANY", "SF_14": 2.0, "SF_15": 2.0, "cnty": "Alleghany", "st": "VA", "Zip": 24422.0, "O_14": 4.0, "Q_15": 2.0, "O_15": 4.0, "city": "CLIFTON FORGE", "beds": 105.0, "SR_15": 4.0}, {"Diff_star": 0.0, "addr": "380 MILLWOOD AVENUE", "SR_14": 1.0, "Q_14": 5.0, "name": "EVERGREEN HEALTH AND REHAB", "SF_14": 2.0, "SF_15": 2.0, "cnty": "Winchester City", "st": "VA", "Zip": 22601.0, "O_14": 2.0, "Q_15": 5.0, "O_15": 2.0, "city": "WINCHESTER", "beds": 176.0, "SR_15": 1.0}, {"Diff_star": 0.0, "addr": "1607 SPRUCE STREET", "SR_14": 1.0, "Q_14": 4.0, "name": "GOLDEN LIVINGCENTER- MARTINSVLLE", "SF_14": 3.0, "SF_15": 3.0, "cnty": "Martinsville City", "st": "VA", "Zip": 24112.0, "O_14": 1.0, "Q_15": 3.0, "O_15": 1.0, "city": "MARTINSVILLE", "beds": 142.0, "SR_15": 1.0}, {"Diff_star": -2.0, "addr": "287  EAST SOUTH BOULEVARD", "SR_14": 3.0, "Q_14": 5.0, "name": "GOLDEN LIVINGCENTER-PETERSBURG", "SF_14": 2.0, "SF_15": 1.0, "cnty": "Petersburg City", "st": "VA", "Zip": 23805.0, "O_14": 4.0, "Q_15": 5.0, "O_15": 2.0, "city": "PETERSBURG", "beds": 120.0, "SR_15": 2.0}, {"Diff_star": 0.0, "addr": "94 SOUTH AVENUE", "SR_14": 3.0, "Q_14": 4.0, "name": "AVANTE AT HARRISONBURG", "SF_14": 1.0, "SF_15": 1.0, "cnty": "Harrisonburg City", "st": "VA", "Zip": 22801.0, "O_14": 2.0, "Q_15": 2.0, "O_15": 2.0, "city": "HARRISONBURG", "beds": 117.0, "SR_15": 3.0}, {"Diff_star": -1.0, "addr": "1221 ROSSER AVE", "SR_14": 3.0, "Q_14": 5.0, "name": "AVANTE AT WAYNESBORO", "SF_14": 3.0, "SF_15": 3.0, "cnty": "Waynesboro City", "st": "VA", "Zip": 22980.0, "O_14": 4.0, "Q_15": 4.0, "O_15": 3.0, "city": "WAYNESBORO", "beds": 109.0, "SR_15": 3.0}, {"Diff_star": 0.0, "addr": "900 LONDON BOULEVARD", "SR_14": 2.0, "Q_14": 4.0, "name": "GOLDEN LIVINGCENTER- PORTSMOUTH", "SF_14": 2.0, "SF_15": 2.0, "cnty": "Portsmouth City", "st": "VA", "Zip": 23704.0, "O_14": 2.0, "Q_15": 4.0, "O_15": 2.0, "city": "PORTSMOUTH", "beds": 120.0, "SR_15": 2.0}, {"Diff_star": -1.0, "addr": "340 LYNN SHORES DRIVE", "SR_14": 2.0, "Q_14": 5.0, "name": "BEACON SHORES NURSING & REHABILITATION", "SF_14": 4.0, "SF_15": 3.0, "cnty": "Virginia Beach City", "st": "VA", "Zip": 23452.0, "O_14": 4.0, "Q_15": 5.0, "O_15": 3.0, "city": "VIRGINIA BEACH", "beds": 180.0, "SR_15": 2.0}, {"Diff_star": -1.0, "addr": "2081 LANGHORNE ROAD", "SR_14": 2.0, "Q_14": 4.0, "name": "AVANTE AT LYNCHBURG", "SF_14": 4.0, "SF_15": 3.0, "cnty": "Lynchburg City", "st": "VA", "Zip": 24501.0, "O_14": 3.0, "Q_15": 3.0, "O_15": 2.0, "city": "LYNCHBURG", "beds": 120.0, "SR_15": 2.0}, {"Diff_star": -1.0, "addr": "121 BEN BOLT AVENUE", "SR_14": 4.0, "Q_14": 3.0, "name": "HERITAGE HALL TAZEWELL", "SF_14": 3.0, "SF_15": 3.0, "cnty": "Tazewell", "st": "VA", "Zip": 24651.0, "O_14": 4.0, "Q_15": 1.0, "O_15": 3.0, "city": "TAZEWELL", "beds": 180.0, "SR_15": 4.0}, {"Diff_star": 0.0, "addr": "1242 CEDARS CT", "SR_14": 1.0, "Q_14": 5.0, "name": "GOLDEN LIVINGCENTER -CHARLOTTESVILLE", "SF_14": 2.0, "SF_15": 2.0, "cnty": "Charlottesville City", "st": "VA", "Zip": 22903.0, "O_14": 2.0, "Q_15": 5.0, "O_15": 2.0, "city": "CHARLOTTESVILLE", "beds": 143.0, "SR_15": 1.0}, {"Diff_star": -1.0, "addr": "6700 COLUMBIA PK", "SR_14": 3.0, "Q_14": 5.0, "name": "GOLDEN LIVINGCENTER-SLEEPY HOLLOW", "SF_14": 3.0, "SF_15": 3.0, "cnty": "Fairfax", "st": "VA", "Zip": 22003.0, "O_14": 4.0, "Q_15": 4.0, "O_15": 3.0, "city": "ANNANDALE", "beds": 222.0, "SR_15": 3.0}, {"Diff_star": 0.0, "addr": "324 KING GEORGE AVE SW", "SR_14": 2.0, "Q_14": 4.0, "name": "AVANTE AT ROANOKE", "SF_14": 3.0, "SF_15": 3.0, "cnty": "Roanoke City", "st": "VA", "Zip": 24016.0, "O_14": 2.0, "Q_15": 3.0, "O_15": 2.0, "city": "ROANOKE", "beds": 130.0, "SR_15": 2.0}, {"Diff_star": 0.0, "addr": "100 FAIRVIEW DR", "SR_14": 5.0, "Q_14": 5.0, "name": "SOUTHAMPTON MEMORIAL HOSP", "SF_14": 4.0, "SF_15": 3.0, "cnty": "Franklin City", "st": "VA", "Zip": 23851.0, "O_14": 5.0, "Q_15": 5.0, "O_15": 5.0, "city": "FRANKLIN", "beds": 131.0, "SR_15": 5.0}, {"Diff_star": 0.0, "addr": "132  LANCASTER DRIVE", "SR_14": 3.0, "Q_14": 5.0, "name": "RAPPAHANNOCK WESTMINSTER CANTE", "SF_14": 5.0, "SF_15": 5.0, "cnty": "Lancaster", "st": "VA", "Zip": 22480.0, "O_14": 5.0, "Q_15": 5.0, "O_15": 5.0, "city": "IRVINGTON", "beds": 42.0, "SR_15": 3.0}, {"Diff_star": 0.0, "addr": "300 WESTMINSTER CANTERBURY DR", "SR_14": 4.0, "Q_14": 5.0, "name": "SHENANDOAH VLY WESTMINSTER-CANTERBURY", "SF_14": 5.0, "SF_15": 5.0, "cnty": "Frederick", "st": "VA", "Zip": 22603.0, "O_14": 5.0, "Q_15": 5.0, "O_15": 5.0, "city": "WINCHESTER", "beds": 40.0, "SR_15": 4.0}, {"Diff_star": 0.0, "addr": "508 RISON STREET", "SR_14": 1.0, "Q_14": 4.0, "name": "STRATFORD HEALTHCARE CENTER", "SF_14": 2.0, "SF_15": 2.0, "cnty": "Danville City", "st": "VA", "Zip": 24541.0, "O_14": 1.0, "Q_15": 2.0, "O_15": 1.0, "city": "DANVILLE", "beds": 60.0, "SR_15": 1.0}, {"Diff_star": 0.0, "addr": "600 W RIDGE RD", "SR_14": 5.0, "Q_14": 1.0, "name": "WYTHE CNTY COMMUNITY HOSP ECU", "SF_14": 5.0, "SF_15": 5.0, "cnty": "Wythe", "st": "VA", "Zip": 24382.0, "O_14": 4.0, "Q_15": 1.0, "O_15": 4.0, "city": "WYTHEVILLE", "beds": 8.0, "SR_15": 5.0}, {"Diff_star": -1.0, "addr": "3737 CATALPA AVE, PO BOX 711", "SR_14": 3.0, "Q_14": 3.0, "name": "GOLDEN LIVINGCENTER-SHENANDOAH VALLEY", "SF_14": 3.0, "SF_15": 3.0, "cnty": "Buena Vista City", "st": "VA", "Zip": 24416.0, "O_14": 3.0, "Q_15": 1.0, "O_15": 2.0, "city": "BUENA VISTA", "beds": 93.0, "SR_15": 3.0}, {"Diff_star": 0.0, "addr": "3440 S JEFFERSON STREET", "SR_14": 3.0, "Q_14": 5.0, "name": "GOODWIN HOUSE BAILEY'S CROSSROADS", "SF_14": 5.0, "SF_15": 5.0, "cnty": "Fairfax", "st": "VA", "Zip": 22041.0, "O_14": 5.0, "Q_15": 5.0, "O_15": 5.0, "city": "FALLS CHURCH", "beds": 73.0, "SR_15": 3.0}, {"Diff_star": 0.0, "addr": "249  SOUTH NEWTOWN RD", "SR_14": 1.0, "Q_14": 4.0, "name": "SENTARA NURSING CENTER NORFOLK", "SF_14": 3.0, "SF_15": 3.0, "cnty": "Norfolk City", "st": "VA", "Zip": 23502.0, "O_14": 1.0, "Q_15": 4.0, "O_15": 1.0, "city": "NORFOLK", "beds": 197.0, "SR_15": 1.0}, {"Diff_star": 0.0, "addr": "4315 CHAIN BRIDGE ROAD", "SR_14": 1.0, "Q_14": 5.0, "name": "COMMONWEALTH HEALTH & REHAB CENTER", "SF_14": 4.0, "SF_15": 4.0, "cnty": "Fairfax City", "st": "VA", "Zip": 22030.0, "O_14": 2.0, "Q_15": 4.0, "O_15": 2.0, "city": "FAIRFAX", "beds": 37.0, "SR_15": 1.0}, {"Diff_star": -1.0, "addr": "100 EDGEMONT ROAD", "SR_14": 3.0, "Q_14": 4.0, "name": "EDGEMONT CENTER,INC", "SF_14": 3.0, "SF_15": 3.0, "cnty": "Wythe", "st": "VA", "Zip": 24382.0, "O_14": 3.0, "Q_15": 1.0, "O_15": 2.0, "city": "WYTHEVILLE", "beds": 60.0, "SR_15": 3.0}, {"Diff_star": 0.0, "addr": "125 BUENA VISTA CIRCLE", "SR_14": 1.0, "Q_14": 4.0, "name": "COMMUNITY MEM", "SF_14": 3.0, "SF_15": 2.0, "cnty": "Mecklenburg", "st": "VA", "Zip": 23970.0, "O_14": 1.0, "Q_15": 3.0, "O_15": 1.0, "city": "SOUTH HILL", "beds": 161.0, "SR_15": 1.0}, {"Diff_star": 0.0, "addr": "505 WEST RIO ROAD", "SR_14": 1.0, "Q_14": 5.0, "name": "CHARLOTTESVILLE HEALTH & REHABILITATION CENTER", "SF_14": 4.0, "SF_15": 4.0, "cnty": "Albemarle", "st": "VA", "Zip": 22901.0, "O_14": 2.0, "Q_15": 4.0, "O_15": 2.0, "city": "CHARLOTTESVILLE", "beds": 120.0, "SR_15": 1.0}, {"Diff_star": 0.0, "addr": "46531 HARY BYRD HIGHWAY", "SR_14": 1.0, "Q_14": 5.0, "name": "POTOMAC FALLS HEALTH & REHAB CENTER", "SF_14": 2.0, "SF_15": 4.0, "cnty": "Loudoun", "st": "VA", "Zip": 20164.0, "O_14": 2.0, "Q_15": 4.0, "O_15": 2.0, "city": "STERLING", "beds": 150.0, "SR_15": 1.0}, {"Diff_star": 0.0, "addr": "2949 W FRONT ST", "SR_14": 5.0, "Q_14": 3.0, "name": "CLINCH VALLEY MEDICAL CENTER", "SF_14": "", "SF_15": "", "cnty": "Tazewell", "st": "VA", "Zip": 24641.0, "O_14": 5.0, "Q_15": 5.0, "O_15": 5.0, "city": "RICHLANDS", "beds": 14.0, "SR_15": 5.0}, {"Diff_star": -1.0, "addr": "2100 BRANDERMILL PKWY", "SR_14": 4.0, "Q_14": 5.0, "name": "HEALTH CARE CENTER AT BRANDERM", "SF_14": 4.0, "SF_15": 4.0, "cnty": "Chesterfield", "st": "VA", "Zip": 23112.0, "O_14": 5.0, "Q_15": 4.0, "O_15": 4.0, "city": "MIDLOTHIAN", "beds": 60.0, "SR_15": 4.0}, {"Diff_star": 0.0, "addr": "5500 WILLIAMSBURG LANDING DR", "SR_14": 5.0, "Q_14": 5.0, "name": "WOODHAVEN HALL AT WILLIAMSBURG LANDING", "SF_14": 5.0, "SF_15": 5.0, "cnty": "James City", "st": "VA", "Zip": 23185.0, "O_14": 5.0, "Q_15": 2.0, "O_15": 5.0, "city": "WILLIAMSBURG", "beds": 15.0, "SR_15": 5.0}, {"Diff_star": 0.0, "addr": "456 E MAIN ST", "SR_14": 1.0, "Q_14": 4.0, "name": "WAVERLY HEALTH AND REHABILITATION CENTER", "SF_14": 1.0, "SF_15": 1.0, "cnty": "Sussex", "st": "VA", "Zip": 23890.0, "O_14": 1.0, "Q_15": 4.0, "O_15": 1.0, "city": "WAVERLY", "beds": 120.0, "SR_15": 1.0}, {"Diff_star": 0.0, "addr": "6401 AUBURN DR", "SR_14": 4.0, "Q_14": 5.0, "name": "BETH SHOLOM HOME OF EASTERN VI", "SF_14": 4.0, "SF_15": 4.0, "cnty": "Virginia Beach City", "st": "VA", "Zip": 23464.0, "O_14": 5.0, "Q_15": 5.0, "O_15": 5.0, "city": "VIRGINIA BEACH", "beds": 120.0, "SR_15": 4.0}, {"Diff_star": 0.0, "addr": "222 FULCHER STREET", "SR_14": 2.0, "Q_14": 4.0, "name": "TRINITY MISSION HEALTH AND REHAB OF HILLSVILLE", "SF_14": 4.0, "SF_15": 4.0, "cnty": "Carroll", "st": "VA", "Zip": 24343.0, "O_14": 3.0, "Q_15": 1.0, "O_15": 3.0, "city": "HILLSVILLE", "beds": 60.0, "SR_15": 3.0}, {"Diff_star": 0.0, "addr": "235 EVERGREEN AVE", "SR_14": 4.0, "Q_14": 5.0, "name": "APPOMATTOX HEALTH AND REHABILITATON CENTER", "SF_14": 2.0, "SF_15": 2.0, "cnty": "Appomattox", "st": "VA", "Zip": 24522.0, "O_14": 5.0, "Q_15": 4.0, "O_15": 5.0, "city": "APPOMATTOX", "beds": 60.0, "SR_15": 5.0}, {"Diff_star": 0.0, "addr": "112 N CONSTITUTION DR", "SR_14": 3.0, "Q_14": 2.0, "name": "REGENCY HEALTH AND REHABILITATION CENTER", "SF_14": 5.0, "SF_15": 5.0, "cnty": "York", "st": "VA", "Zip": 23692.0, "O_14": 4.0, "Q_15": 2.0, "O_15": 4.0, "city": "GRAFTON", "beds": 60.0, "SR_15": 3.0}, {"Diff_star": 0.0, "addr": "1811 JAMESTOWN ROAD", "SR_14": 2.0, "Q_14": 5.0, "name": "CONSULATE HEALTHCARE OF WILLIAMSBURG", "SF_14": 3.0, "SF_15": 3.0, "cnty": "James City", "st": "VA", "Zip": 23185.0, "O_14": 3.0, "Q_15": 5.0, "O_15": 3.0, "city": "WILLIAMSBURG", "beds": 90.0, "SR_15": 2.0}, {"Diff_star": -1.0, "addr": "12185 GRAPEFIELD ROAD", "SR_14": 4.0, "Q_14": 3.0, "name": "AFS OF BASTIAN, INC", "SF_14": 1.0, "SF_15": 1.0, "cnty": "Bland", "st": "VA", "Zip": 24314.0, "O_14": 3.0, "Q_15": 1.0, "O_15": 2.0, "city": "BASTIAN", "beds": 57.0, "SR_15": 4.0}, {"Diff_star": -1.0, "addr": "1722 LAWRENCEVILLE PLANK ROAD", "SR_14": 3.0, "Q_14": 5.0, "name": "ENVOY OF LAWRENCEVILLE, LLC", "SF_14": 1.0, "SF_15": 1.0, "cnty": "Brunswick", "st": "VA", "Zip": 23868.0, "O_14": 3.0, "Q_15": 4.0, "O_15": 2.0, "city": "LAWRENCEVILLE", "beds": 77.0, "SR_15": 3.0}, {"Diff_star": -1.0, "addr": "561 NORTH AIRPORT DRIVE", "SR_14": 2.0, "Q_14": 5.0, "name": "HENRICO HEALTH & REHABILITATION CENTER", "SF_14": 4.0, "SF_15": 4.0, "cnty": "Henrico", "st": "VA", "Zip": 23075.0, "O_14": 4.0, "Q_15": 3.0, "O_15": 3.0, "city": "HIGHLAND SPRINGS", "beds": 120.0, "SR_15": 2.0}, {"Diff_star": -1.0, "addr": "3610 WINCHESTER DR", "SR_14": 2.0, "Q_14": 5.0, "name": "AUTUMN CARE OF PORTSMOUTH", "SF_14": 4.0, "SF_15": 3.0, "cnty": "Portsmouth City", "st": "VA", "Zip": 23707.0, "O_14": 4.0, "Q_15": 3.0, "O_15": 3.0, "city": "PORTSMOUTH", "beds": 108.0, "SR_15": 3.0}, {"Diff_star": -1.0, "addr": "1317 LOLA AVE", "SR_14": 3.0, "Q_14": 4.0, "name": "AUTUMN CARE OF ALTAVISTA", "SF_14": 4.0, "SF_15": 3.0, "cnty": "Campbell", "st": "VA", "Zip": 24517.0, "O_14": 4.0, "Q_15": 3.0, "O_15": 3.0, "city": "ALTAVISTA", "beds": 111.0, "SR_15": 3.0}, {"Diff_star": 0.0, "addr": "9160  BELVOIR WOODS PKWY", "SR_14": 4.0, "Q_14": 4.0, "name": "BELVOIR WOODS HEALTH CARE CENTER", "SF_14": 4.0, "SF_15": 4.0, "cnty": "Fairfax", "st": "VA", "Zip": 22060.0, "O_14": 4.0, "Q_15": 3.0, "O_15": 4.0, "city": "FORT BELVOIR", "beds": 56.0, "SR_15": 4.0}, {"Diff_star": -1.0, "addr": "214 WEAVER AVE", "SR_14": 3.0, "Q_14": 4.0, "name": "GREENSVILLE MANOR LLC", "SF_14": 1.0, "SF_15": 1.0, "cnty": "Emporia City", "st": "VA", "Zip": 23847.0, "O_14": 2.0, "Q_15": 2.0, "O_15": 1.0, "city": "EMPORIA", "beds": 65.0, "SR_15": 2.0}, {"Diff_star": -1.0, "addr": "WESTWOOD MEDICAL PARK", "SR_14": 3.0, "Q_14": 4.0, "name": "WESTWOOD CENTER", "SF_14": 4.0, "SF_15": 3.0, "cnty": "Tazewell", "st": "VA", "Zip": 24605.0, "O_14": 4.0, "Q_15": 4.0, "O_15": 3.0, "city": "BLUEFIELD", "beds": 65.0, "SR_15": 3.0}, {"Diff_star": 0.0, "addr": "4201 GREENWOOD DRIVE", "SR_14": 1.0, "Q_14": 5.0, "name": "SENTARA NURSING CENTER PORTSMOUTH", "SF_14": 4.0, "SF_15": 3.0, "cnty": "Portsmouth City", "st": "VA", "Zip": 23701.0, "O_14": 2.0, "Q_15": 5.0, "O_15": 2.0, "city": "PORTSMOUTH", "beds": 132.0, "SR_15": 1.0}, {"Diff_star": 0.0, "addr": "595 VADEN DRIVE", "SR_14": 5.0, "Q_14": 4.0, "name": "GRETNA HEALTH AND REHABILITATION CENTER", "SF_14": 5.0, "SF_15": 5.0, "cnty": "Pittsylvania", "st": "VA", "Zip": 24557.0, "O_14": 5.0, "Q_15": 2.0, "O_15": 5.0, "city": "GRETNA", "beds": 60.0, "SR_15": 5.0}, {"Diff_star": -2.0, "addr": "900 VIRGINIA AVENUE", "SR_14": 2.0, "Q_14": 5.0, "name": "ENVOY OF ALEXANDRIA, LLC", "SF_14": 2.0, "SF_15": 1.0, "cnty": "Alexandria City", "st": "VA", "Zip": 22302.0, "O_14": 3.0, "Q_15": 4.0, "O_15": 1.0, "city": "ALEXANDRIA", "beds": 111.0, "SR_15": 2.0}, {"Diff_star": -1.0, "addr": "4 RIDGEWOOD PARKWAY", "SR_14": 4.0, "Q_14": 5.0, "name": "ST FRANCIS NURSING CTR", "SF_14": 2.0, "SF_15": 2.0, "cnty": "Newport News City", "st": "VA", "Zip": 23602.0, "O_14": 5.0, "Q_15": 4.0, "O_15": 4.0, "city": "NEWPORT NEWS", "beds": 115.0, "SR_15": 4.0}, {"Diff_star": 0.0, "addr": "8000 ILIFF DRIVE", "SR_14": 3.0, "Q_14": 5.0, "name": "ILIFF NURSING HOME AND REHAB C", "SF_14": 5.0, "SF_15": 5.0, "cnty": "Fairfax", "st": "VA", "Zip": 22027.0, "O_14": 5.0, "Q_15": 5.0, "O_15": 5.0, "city": "DUNN LORING", "beds": 130.0, "SR_15": 3.0}, {"Diff_star": 0.0, "addr": "4775 BRIDGE ROAD", "SR_14": 3.0, "Q_14": 4.0, "name": "BON SECOURS-MARYVIEW NURSING C", "SF_14": 2.0, "SF_15": 2.0, "cnty": "Suffolk City", "st": "VA", "Zip": 23435.0, "O_14": 3.0, "Q_15": 2.0, "O_15": 3.0, "city": "SUFFOLK", "beds": 120.0, "SR_15": 3.0}, {"Diff_star": 0.0, "addr": "720 ORCHARD AVENUE", "SR_14": 5.0, "Q_14": 4.0, "name": "FRANKLIN HEALTH AND REHABILITATION CENTER", "SF_14": 3.0, "SF_15": 3.0, "cnty": "Franklin", "st": "VA", "Zip": 24151.0, "O_14": 5.0, "Q_15": 2.0, "O_15": 5.0, "city": "ROCKY MOUNT", "beds": 120.0, "SR_15": 5.0}, {"Diff_star": 0.0, "addr": "1527 GRANDIN ROAD SOUTHWEST", "SR_14": 4.0, "Q_14": 4.0, "name": "RALEIGH COURT HEALTH AND REHABILITATION CENTER", "SF_14": 4.0, "SF_15": 4.0, "cnty": "Roanoke City", "st": "VA", "Zip": 24015.0, "O_14": 4.0, "Q_15": 3.0, "O_15": 4.0, "city": "ROANOKE", "beds": 120.0, "SR_15": 4.0}, {"Diff_star": 0.0, "addr": "901 EAST PRINCESS ANNE ROAD", "SR_14": 4.0, "Q_14": 4.0, "name": "NORFOLK HEALTH AND REHABILITATION CENTER", "SF_14": 3.0, "SF_15": 3.0, "cnty": "Norfolk City", "st": "VA", "Zip": 23504.0, "O_14": 4.0, "Q_15": 3.0, "O_15": 4.0, "city": "NORFOLK", "beds": 140.0, "SR_15": 4.0}, {"Diff_star": 0.0, "addr": "8111 TISWELL DRIVE", "SR_14": 4.0, "Q_14": 4.0, "name": "MOUNT VERNON NURSING AND REHABILITATION CENTER", "SF_14": 5.0, "SF_15": 5.0, "cnty": "Fairfax", "st": "VA", "Zip": 22306.0, "O_14": 5.0, "Q_15": 4.0, "O_15": 5.0, "city": "ALEXANDRIA", "beds": 130.0, "SR_15": 4.0}, {"Diff_star": 0.0, "addr": "1004 INDEPENDENCE BLVD", "SR_14": 5.0, "Q_14": 4.0, "name": "BAYSIDE HEALTH & REHABILITATION CENTER", "SF_14": 4.0, "SF_15": 4.0, "cnty": "Virginia Beach City", "st": "VA", "Zip": 23455.0, "O_14": 5.0, "Q_15": 3.0, "O_15": 5.0, "city": "VIRGINIA BEACH", "beds": 60.0, "SR_15": 5.0}, {"Diff_star": 0.0, "addr": "78 MEDICAL CENTER DRIVE", "SR_14": 5.0, "Q_14": 2.0, "name": "AUGUSTA MEDICAL CTR SKILLED CA", "SF_14": 5.0, "SF_15": 5.0, "cnty": "Augusta", "st": "VA", "Zip": 22939.0, "O_14": 5.0, "Q_15": 3.0, "O_15": 5.0, "city": "FISHERSVILLE", "beds": 17.0, "SR_15": 5.0}, {"Diff_star": 0.0, "addr": "776 OAK GROVE RD PO BOX 1277", "SR_14": 2.0, "Q_14": 5.0, "name": "SENTARA NSG CNTR CHESAPEAKE", "SF_14": 2.0, "SF_15": 2.0, "cnty": "Chesapeake City", "st": "VA", "Zip": 23320.0, "O_14": 3.0, "Q_15": 5.0, "O_15": 3.0, "city": "CHESAPEAKE", "beds": 120.0, "SR_15": 2.0}, {"Diff_star": -1.0, "addr": "240 RIVERSIDE DRIVE", "SR_14": 5.0, "Q_14": 3.0, "name": "STANLEYTOWN HEALTH AND REHABILITATION CENTER", "SF_14": 4.0, "SF_15": 4.0, "cnty": "Henry", "st": "VA", "Zip": 24055.0, "O_14": 5.0, "Q_15": 1.0, "O_15": 4.0, "city": "BASSETT", "beds": 120.0, "SR_15": 5.0}, {"Diff_star": 0.0, "addr": "12475 LEE JACKSON MEMORIAL HIGHWAY", "SR_14": 2.0, "Q_14": 5.0, "name": "MANORCARE HEALTH SERVICES-FAIR OAKS", "SF_14": 3.0, "SF_15": 3.0, "cnty": "Fairfax", "st": "VA", "Zip": 22033.0, "O_14": 3.0, "Q_15": 5.0, "O_15": 3.0, "city": "FAIRFAX", "beds": 155.0, "SR_15": 2.0}, {"Diff_star": 0.0, "addr": "188 OLD FINCASTLE ROAD", "SR_14": 4.0, "Q_14": 4.0, "name": "BRIAN CENTER HEALTH AND REHABILITATION", "SF_14": 3.0, "SF_15": 3.0, "cnty": "Botetourt", "st": "VA", "Zip": 24090.0, "O_14": 4.0, "Q_15": 2.0, "O_15": 4.0, "city": "FINCASTLE", "beds": 60.0, "SR_15": 4.0}, {"Diff_star": 0.0, "addr": "167 SPRING STREET", "SR_14": 2.0, "Q_14": 4.0, "name": "THE SPRINGS NURSING CENTER", "SF_14": 3.0, "SF_15": 3.0, "cnty": "Bath", "st": "VA", "Zip": 24445.0, "O_14": 2.0, "Q_15": 3.0, "O_15": 2.0, "city": "HOT SPRINGS", "beds": 60.0, "SR_15": 2.0}, {"Diff_star": 0.0, "addr": "100 ALLEGHANY REGIONAL HOSPITAL LANE", "SR_14": 4.0, "Q_14": 5.0, "name": "BRIAN CENTER NURSING CARE/ALLEGHANY", "SF_14": 4.0, "SF_15": 4.0, "cnty": "Alleghany", "st": "VA", "Zip": 24457.0, "O_14": 5.0, "Q_15": 5.0, "O_15": 5.0, "city": "LOW MOOR", "beds": 60.0, "SR_15": 4.0}, {"Diff_star": -1.0, "addr": "7246 FOREST HILL AVENUE", "SR_14": 1.0, "Q_14": 5.0, "name": "ENVOY OF STRATFORD HILLS", "SF_14": 3.0, "SF_15": 3.0, "cnty": "Richmond City", "st": "VA", "Zip": 23225.0, "O_14": 2.0, "Q_15": 2.0, "O_15": 1.0, "city": "RICHMOND", "beds": 196.0, "SR_15": 1.0}, {"Diff_star": 0.0, "addr": "250 PANTOPS MOUNTAIN RD", "SR_14": 4.0, "Q_14": 5.0, "name": "WESTMINSTER CANTERBURY BLUE RI", "SF_14": "", "SF_15": "", "cnty": "Albemarle", "st": "VA", "Zip": 22911.0, "O_14": 5.0, "Q_15": 5.0, "O_15": 5.0, "city": "CHARLOTTESVILLE", "beds": 12.0, "SR_15": 4.0}, {"Diff_star": -1.0, "addr": "730 LUNENBURG HIGHW", "SR_14": 3.0, "Q_14": 5.0, "name": "WAYLAND NURSING AND REHABILITATION CENTER", "SF_14": 1.0, "SF_15": 1.0, "cnty": "Charlotte", "st": "VA", "Zip": 23947.0, "O_14": 3.0, "Q_15": 4.0, "O_15": 2.0, "city": "KEYSVILLE", "beds": 90.0, "SR_15": 3.0}, {"Diff_star": 0.0, "addr": "7300 FOREST AVE", "SR_14": 3.0, "Q_14": 5.0, "name": "WESTPORT HEALTH CENTER", "SF_14": 4.0, "SF_15": 4.0, "cnty": "Henrico", "st": "VA", "Zip": 23226.0, "O_14": 5.0, "Q_15": 5.0, "O_15": 5.0, "city": "RICHMOND", "beds": 225.0, "SR_15": 3.0}, {"Diff_star": 0.0, "addr": "2204 WILBORN AVE", "SR_14": 2.0, "Q_14": 4.0, "name": "HALIFAX  REGIONAL HOSPITAL SNF", "SF_14": 5.0, "SF_15": 5.0, "cnty": "Halifax", "st": "VA", "Zip": 24592.0, "O_14": 3.0, "Q_15": 2.0, "O_15": 3.0, "city": "SOUTH BOSTON", "beds": 19.0, "SR_15": 2.0}, {"Diff_star": 0.0, "addr": "4238 JAMES MADSON HIGHWAY", "SR_14": 2.0, "Q_14": 4.0, "name": "ENVOY AT THE VILLAGE", "SF_14": 1.0, "SF_15": 1.0, "cnty": "Fluvanna", "st": "VA", "Zip": 23055.0, "O_14": 1.0, "Q_15": 2.0, "O_15": 1.0, "city": "FORK UNION", "beds": 60.0, "SR_15": 2.0}, {"Diff_star": 1.0, "addr": "5520 INDIAN RIVER ROAD", "SR_14": 2.0, "Q_14": 5.0, "name": "KEMPSVILLE HEALTH & REHAB CENTER", "SF_14": 4.0, "SF_15": 4.0, "cnty": "Virginia Beach City", "st": "VA", "Zip": 23464.0, "O_14": 4.0, "Q_15": 5.0, "O_15": 5.0, "city": "VIRGINIA BEACH", "beds": 90.0, "SR_15": 3.0}, {"Diff_star": -1.0, "addr": "360 HOSPITAL DRIVE", "SR_14": 2.0, "Q_14": 5.0, "name": "FAUQUIER HEALTH REHABILITATION & NURSING CENTER", "SF_14": 4.0, "SF_15": 3.0, "cnty": "Fauquier", "st": "VA", "Zip": 20186.0, "O_14": 4.0, "Q_15": 5.0, "O_15": 3.0, "city": "WARRENTON", "beds": 113.0, "SR_15": 2.0}, {"Diff_star": 0.0, "addr": "5580 DANIEL SMITH ROAD", "SR_14": 4.0, "Q_14": 4.0, "name": "HERITAGE HALL VIRGINIA BEACH", "SF_14": 2.0, "SF_15": 2.0, "cnty": "Virginia Beach City", "st": "VA", "Zip": 23462.0, "O_14": 4.0, "Q_15": 2.0, "O_15": 4.0, "city": "VIRGINIA BEACH", "beds": 90.0, "SR_15": 4.0}, {"Diff_star": -1.0, "addr": "1235 MT VERNON AVENUE", "SR_14": 1.0, "Q_14": 5.0, "name": "ENVOY OF WILLIAMSBURG, LLC", "SF_14": 2.0, "SF_15": 3.0, "cnty": "James City", "st": "VA", "Zip": 23185.0, "O_14": 2.0, "Q_15": 4.0, "O_15": 1.0, "city": "WILLIAMSBURG", "beds": 130.0, "SR_15": 1.0}, {"Diff_star": 0.0, "addr": "2715 DOGTOWN ROAD", "SR_14": 2.0, "Q_14": 5.0, "name": "ENVOY AT THE MEADOWS", "SF_14": 2.0, "SF_15": 2.0, "cnty": "Goochland", "st": "VA", "Zip": 23063.0, "O_14": 3.0, "Q_15": 5.0, "O_15": 3.0, "city": "GOOCHLAND", "beds": 84.0, "SR_15": 2.0}, {"Diff_star": 0.0, "addr": "1801 CAMELOT DRIVE", "SR_14": 1.0, "Q_14": 3.0, "name": "VA BEACH HEALTHCARE AND REHAB", "SF_14": 1.0, "SF_15": 1.0, "cnty": "Virginia Beach City", "st": "VA", "Zip": 23454.0, "O_14": 1.0, "Q_15": 1.0, "O_15": 1.0, "city": "VIRGINIA BEACH", "beds": 240.0, "SR_15": 1.0}, {"Diff_star": 0.0, "addr": "3900 PLANK ROAD", "SR_14": 1.0, "Q_14": 3.0, "name": "GOLDEN LIVINGCENTER-FREDERICKSBURG", "SF_14": 2.0, "SF_15": 2.0, "cnty": "Spotsylvania", "st": "VA", "Zip": 22407.0, "O_14": 1.0, "Q_15": 2.0, "O_15": 1.0, "city": "FREDERICKSBURG", "beds": 177.0, "SR_15": 1.0}, {"Diff_star": 0.0, "addr": "4142 BONNEY ROAD", "SR_14": 4.0, "Q_14": 4.0, "name": "KINDRED NURSING AND REHABILITATION-RIVER POINTE", "SF_14": 2.0, "SF_15": 2.0, "cnty": "Virginia Beach City", "st": "VA", "Zip": 23452.0, "O_14": 4.0, "Q_15": 3.0, "O_15": 4.0, "city": "VIRGINIA BEACH", "beds": 138.0, "SR_15": 4.0}, {"Diff_star": 0.0, "addr": "633 COOK AVENUE", "SR_14": 5.0, "Q_14": 4.0, "name": "HERITAGE HALL - BROOKNEAL", "SF_14": 2.0, "SF_15": 2.0, "cnty": "Campbell", "st": "VA", "Zip": 24528.0, "O_14": 5.0, "Q_15": 2.0, "O_15": 5.0, "city": "BROOKNEAL", "beds": 60.0, "SR_15": 5.0}, {"Diff_star": 0.0, "addr": "512 HOUSTON STREET", "SR_14": 1.0, "Q_14": 3.0, "name": "ENVOY OF STAUNTON, LLC", "SF_14": 1.0, "SF_15": 1.0, "cnty": "Staunton City", "st": "VA", "Zip": 24402.0, "O_14": 1.0, "Q_15": 1.0, "O_15": 1.0, "city": "STAUNTON", "beds": 170.0, "SR_15": 1.0}, {"Diff_star": -2.0, "addr": "NUMBER ONE AUTUMN COURT", "SR_14": 2.0, "Q_14": 4.0, "name": "AUTUMN CARE OF MADISON", "SF_14": 4.0, "SF_15": 3.0, "cnty": "Madison", "st": "VA", "Zip": 22727.0, "O_14": 3.0, "Q_15": 1.0, "O_15": 1.0, "city": "MADISON", "beds": 84.0, "SR_15": 2.0}, {"Diff_star": 0.0, "addr": "PO BOX 97", "SR_14": 1.0, "Q_14": 2.0, "name": "ARCADIA NURSING & REHAB CENT", "SF_14": 2.0, "SF_15": 3.0, "cnty": "Accomack", "st": "VA", "Zip": 23414.0, "O_14": 1.0, "Q_15": 2.0, "O_15": 1.0, "city": "NELSONIA", "beds": 60.0, "SR_15": 1.0}, {"Diff_star": 0.0, "addr": "PO BOX 419  11 DAIRY LANE", "SR_14": 3.0, "Q_14": 4.0, "name": "WOODMONT CENTER", "SF_14": 3.0, "SF_15": 3.0, "cnty": "Fredericksburg City", "st": "VA", "Zip": 22404.0, "O_14": 3.0, "Q_15": 4.0, "O_15": 3.0, "city": "FREDERICKSBURG", "beds": 118.0, "SR_15": 3.0}, {"Diff_star": 0.0, "addr": "200 WEST CONSTANCE ROAD", "SR_14": 4.0, "Q_14": 4.0, "name": "KINDRED TCC AND REHABILITATION-NANSEMOND POINT", "SF_14": 4.0, "SF_15": 4.0, "cnty": "Suffolk City", "st": "VA", "Zip": 23434.0, "O_14": 4.0, "Q_15": 2.0, "O_15": 4.0, "city": "SUFFOLK", "beds": 169.0, "SR_15": 4.0}, {"Diff_star": 0.0, "addr": "9640 BURKE LAKE ROAD", "SR_14": 2.0, "Q_14": 3.0, "name": "BURKE HEALTH AND REHABILITATION CENTER", "SF_14": 4.0, "SF_15": 4.0, "cnty": "Fairfax", "st": "VA", "Zip": 22015.0, "O_14": 3.0, "Q_15": 2.0, "O_15": 3.0, "city": "BURKE", "beds": 120.0, "SR_15": 2.0}, {"Diff_star": -1.0, "addr": "1575 SCOTT DRIVE   ROUTE 5", "SR_14": 3.0, "Q_14": 4.0, "name": "TRINITY MISSION HEALTH AND REHAB OF FARMVILLE", "SF_14": 4.0, "SF_15": 3.0, "cnty": "Prince Edward", "st": "VA", "Zip": 23901.0, "O_14": 4.0, "Q_15": 3.0, "O_15": 3.0, "city": "FARMVILLE", "beds": 120.0, "SR_15": 3.0}, {"Diff_star": 0.0, "addr": "836 GLENDALE RD    PO BOX 229", "SR_14": 2.0, "Q_14": 4.0, "name": "GOLDEN LIVINGCENTER - BLUE RIDGE", "SF_14": 2.0, "SF_15": 2.0, "cnty": "Galax City", "st": "VA", "Zip": 24333.0, "O_14": 2.0, "Q_15": 2.0, "O_15": 2.0, "city": "GALAX", "beds": 120.0, "SR_15": 2.0}, {"Diff_star": 0.0, "addr": "250 FLANK ROAD", "SR_14": 1.0, "Q_14": 3.0, "name": "GOLDEN LIVINGCENTER-BATTLEFIELD PARK", "SF_14": 1.0, "SF_15": 1.0, "cnty": "Petersburg City", "st": "VA", "Zip": 23805.0, "O_14": 1.0, "Q_15": 1.0, "O_15": 1.0, "city": "PETERSBURG", "beds": 120.0, "SR_15": 1.0}, {"Diff_star": -1.0, "addr": "1401 HALSTEAD AVENUE", "SR_14": 4.0, "Q_14": 5.0, "name": "AUTUMN CARE OF NORFOLK", "SF_14": 1.0, "SF_15": 1.0, "cnty": "Norfolk City", "st": "VA", "Zip": 23502.0, "O_14": 4.0, "Q_15": 3.0, "O_15": 3.0, "city": "NORFOLK", "beds": 120.0, "SR_15": 4.0}, {"Diff_star": 0.0, "addr": "100 COLONNADES HILL DRIVE", "SR_14": 2.0, "Q_14": 5.0, "name": "COLONNADES HEALTH CARE CENTER", "SF_14": 4.0, "SF_15": 4.0, "cnty": "Albemarle", "st": "VA", "Zip": 22901.0, "O_14": 4.0, "Q_15": 5.0, "O_15": 4.0, "city": "CHARLOTTESVILLE", "beds": 34.0, "SR_15": 2.0}, {"Diff_star": 0.0, "addr": "30 MONTVUE DRIVE", "SR_14": 1.0, "Q_14": 3.0, "name": "MONTVUE NURSING HOME", "SF_14": 2.0, "SF_15": 2.0, "cnty": "Page", "st": "VA", "Zip": 22835.0, "O_14": 1.0, "Q_15": 1.0, "O_15": 1.0, "city": "LURAY", "beds": 120.0, "SR_15": 1.0}, {"Diff_star": 0.0, "addr": "715 ARGYLL ST                           REVISED", "SR_14": 3.0, "Q_14": 4.0, "name": "AUTUMN CARE OF CHESAPEAKE", "SF_14": 2.0, "SF_15": 2.0, "cnty": "Chesapeake City", "st": "VA", "Zip": 23320.0, "O_14": 3.0, "Q_15": 2.0, "O_15": 3.0, "city": "CHESAPEAKE", "beds": 117.0, "SR_15": 3.0}, {"Diff_star": -1.0, "addr": "11611 ROBIOUS ROAD", "SR_14": 1.0, "Q_14": 5.0, "name": "THE LAURELS OF WILLOW CREEK", "SF_14": 3.0, "SF_15": 3.0, "cnty": "Chesterfield", "st": "VA", "Zip": 23113.0, "O_14": 2.0, "Q_15": 4.0, "O_15": 1.0, "city": "MIDLOTHIAN", "beds": 120.0, "SR_15": 1.0}, {"Diff_star": -1.0, "addr": "2580 PRUDEN BOULEVARD", "SR_14": 4.0, "Q_14": 4.0, "name": "AUTUMN CARE OF SUFFOLK", "SF_14": 4.0, "SF_15": 3.0, "cnty": "Suffolk City", "st": "VA", "Zip": 23434.0, "O_14": 4.0, "Q_15": 2.0, "O_15": 3.0, "city": "SUFFOLK", "beds": 120.0, "SR_15": 3.0}, {"Diff_star": -1.0, "addr": "2966 SLATE CREEK ROAD", "SR_14": 4.0, "Q_14": 2.0, "name": "HERITAGE HALL GRUNDY", "SF_14": 1.0, "SF_15": 1.0, "cnty": "Buchanan", "st": "VA", "Zip": 24614.0, "O_14": 3.0, "Q_15": 1.0, "O_15": 2.0, "city": "GRUNDY", "beds": 120.0, "SR_15": 4.0}, {"Diff_star": 0.0, "addr": "200 HIOAKS ROAD", "SR_14": 1.0, "Q_14": 4.0, "name": "BEAUFONT HEALTH AND REHABILITATION CENTER", "SF_14": 2.0, "SF_15": 2.0, "cnty": "Richmond City", "st": "VA", "Zip": 23225.0, "O_14": 1.0, "Q_15": 3.0, "O_15": 1.0, "city": "RICHMOND", "beds": 120.0, "SR_15": 1.0}, {"Diff_star": 0.0, "addr": "122 MORVEN PARK ROAD NW", "SR_14": 1.0, "Q_14": 5.0, "name": "HERITAGE HALL NRSG AND REHAB", "SF_14": 3.0, "SF_15": 3.0, "cnty": "Loudoun", "st": "VA", "Zip": 20176.0, "O_14": 2.0, "Q_15": 5.0, "O_15": 2.0, "city": "LEESBURG", "beds": 164.0, "SR_15": 1.0}, {"Diff_star": -1.0, "addr": "339 WESTMINISTER DRIVE", "SR_14": 4.0, "Q_14": 3.0, "name": "SHENANDOAH NURSING HOME", "SF_14": 4.0, "SF_15": 4.0, "cnty": "Augusta", "st": "VA", "Zip": 22939.0, "O_14": 4.0, "Q_15": 1.0, "O_15": 3.0, "city": "FISHERSVILLE", "beds": 60.0, "SR_15": 4.0}, {"Diff_star": 0.0, "addr": "1 VANTAGE DRIVE", "SR_14": 2.0, "Q_14": 4.0, "name": "GOLDEN LIVINGCENTER-BAYSIDE OF POQUOSON", "SF_14": 2.0, "SF_15": 2.0, "cnty": "Poquoson", "st": "VA", "Zip": 23662.0, "O_14": 2.0, "Q_15": 3.0, "O_15": 2.0, "city": "POQUOSON", "beds": 60.0, "SR_15": 2.0}, {"Diff_star": 0.0, "addr": "8139 LEE DAVIS ROAD", "SR_14": 2.0, "Q_14": 4.0, "name": "HANOVER HEALTH AND REHABILITATION CENTER", "SF_14": 5.0, "SF_15": 5.0, "cnty": "Hanover", "st": "VA", "Zip": 23111.0, "O_14": 3.0, "Q_15": 3.0, "O_15": 3.0, "city": "MECHANICSVILLE", "beds": 120.0, "SR_15": 2.0}, {"Diff_star": 0.0, "addr": "614 HASTINGS LANE", "SR_14": 1.0, "Q_14": 4.0, "name": "OAK SPRINGS OF WARRENTON", "SF_14": 4.0, "SF_15": 3.0, "cnty": "Fauquier", "st": "VA", "Zip": 20186.0, "O_14": 2.0, "Q_15": 2.0, "O_15": 2.0, "city": "WARRENTON", "beds": 130.0, "SR_15": 2.0}, {"Diff_star": 0.0, "addr": "2400 MCKINNEY BOULEVARD", "SR_14": 4.0, "Q_14": 4.0, "name": "WESTMORELAND REHABILITATION & HEALTHCARE CENTER", "SF_14": 1.0, "SF_15": 2.0, "cnty": "Westmoreland", "st": "VA", "Zip": 22443.0, "O_14": 3.0, "Q_15": 2.0, "O_15": 3.0, "city": "COLONIAL BEACH", "beds": 66.0, "SR_15": 3.0}, {"Diff_star": -1.0, "addr": "900 NORTH TAYLOR STREET", "SR_14": 3.0, "Q_14": 4.0, "name": "THE JEFFERSON", "SF_14": 4.0, "SF_15": 4.0, "cnty": "Arlington", "st": "VA", "Zip": 22203.0, "O_14": 4.0, "Q_15": 1.0, "O_15": 3.0, "city": "ARLINGTON", "beds": 31.0, "SR_15": 3.0}, {"Diff_star": 0.0, "addr": "3750 SENTARA WAY", "SR_14": 4.0, "Q_14": 4.0, "name": "SENTARA NURSING CENTER VA BEAC", "SF_14": 1.0, "SF_15": 1.0, "cnty": "Virginia Beach City", "st": "VA", "Zip": 23452.0, "O_14": 3.0, "Q_15": 2.0, "O_15": 3.0, "city": "VIRGINIA BEACH", "beds": 116.0, "SR_15": 4.0}, {"Diff_star": 0.0, "addr": "2400 LEE HIGHWAY, NORTH", "SR_14": 5.0, "Q_14": 2.0, "name": "LEWISGALE HOSPITAL PULASKI", "SF_14": 5.0, "SF_15": 5.0, "cnty": "Pulaski", "st": "VA", "Zip": 24301.0, "O_14": 5.0, "Q_15": 2.0, "O_15": 5.0, "city": "PULASKI", "beds": 12.0, "SR_15": 5.0}, {"Diff_star": -1.0, "addr": "1776 CAMBRIDGE DRIVE", "SR_14": 1.0, "Q_14": 5.0, "name": "LEXINGTON COURT", "SF_14": 3.0, "SF_15": 3.0, "cnty": "Henrico", "st": "VA", "Zip": 23233.0, "O_14": 2.0, "Q_15": 3.0, "O_15": 1.0, "city": "RICHMOND", "beds": 190.0, "SR_15": 1.0}, {"Diff_star": -1.0, "addr": "3900 LLEWELLYN AVE", "SR_14": 1.0, "Q_14": 5.0, "name": "CONSULATE HEALTH CARE OF NORFOLK", "SF_14": 1.0, "SF_15": 1.0, "cnty": "Norfolk City", "st": "VA", "Zip": 23504.0, "O_14": 2.0, "Q_15": 4.0, "O_15": 1.0, "city": "NORFOLK", "beds": 222.0, "SR_15": 1.0}, {"Diff_star": -1.0, "addr": "4550 SHENANDOAH AVE N W", "SR_14": 4.0, "Q_14": 5.0, "name": "VIRGINIA VETERANS CARE CENTER", "SF_14": 4.0, "SF_15": 3.0, "cnty": "Roanoke City", "st": "VA", "Zip": 24017.0, "O_14": 5.0, "Q_15": 3.0, "O_15": 4.0, "city": "ROANOKE", "beds": 180.0, "SR_15": 4.0}, {"Diff_star": 0.0, "addr": "235 OLD WATERFORD ROAD, NORTHWEST", "SR_14": 5.0, "Q_14": 5.0, "name": "LOUDOUN NURSING AND REHAB CNTR", "SF_14": 5.0, "SF_15": 5.0, "cnty": "Loudoun", "st": "VA", "Zip": 20176.0, "O_14": 5.0, "Q_15": 5.0, "O_15": 5.0, "city": "LEESBURG", "beds": 100.0, "SR_15": 5.0}, {"Diff_star": 0.0, "addr": "POST OFFICE BOX 887", "SR_14": 1.0, "Q_14": 5.0, "name": "WALTER REED CONVALESCENT AND REHABILITATION CENTER", "SF_14": 4.0, "SF_15": 4.0, "cnty": "Gloucester", "st": "VA", "Zip": 23061.0, "O_14": 2.0, "Q_15": 3.0, "O_15": 2.0, "city": "GLOUCESTER", "beds": 181.0, "SR_15": 1.0}, {"Diff_star": 0.0, "addr": "9468 HOSPITAL ROAD", "SR_14": 4.0, "Q_14": 3.0, "name": "HERITAGE HALL NURSING HOME /NA", "SF_14": 3.0, "SF_15": 3.0, "cnty": "Northampton", "st": "VA", "Zip": 23413.0, "O_14": 4.0, "Q_15": 2.0, "O_15": 4.0, "city": "NASSAWADOX", "beds": 145.0, "SR_15": 4.0}, {"Diff_star": 0.0, "addr": "602 MADISON ROAD", "SR_14": 2.0, "Q_14": 4.0, "name": "CULPEPER HEALTH & REHABILITATION CENTER", "SF_14": 5.0, "SF_15": 5.0, "cnty": "Culpeper", "st": "VA", "Zip": 22701.0, "O_14": 3.0, "Q_15": 2.0, "O_15": 3.0, "city": "CULPEPER", "beds": 180.0, "SR_15": 2.0}, {"Diff_star": 0.0, "addr": "12185 CLIPPER DRIVE", "SR_14": 3.0, "Q_14": 5.0, "name": "WESTMINSTER AT LAKE RIDGE", "SF_14": 4.0, "SF_15": 4.0, "cnty": "Prince William", "st": "VA", "Zip": 22192.0, "O_14": 5.0, "Q_15": 5.0, "O_15": 5.0, "city": "LAKE RIDGE", "beds": 60.0, "SR_15": 3.0}, {"Diff_star": -1.0, "addr": "300 BLUE RIDGE  STREET", "SR_14": 3.0, "Q_14": 3.0, "name": "BLUE RIDGE REHAB CENT", "SF_14": 1.0, "SF_15": 1.0, "cnty": "Martinsville City", "st": "VA", "Zip": 24112.0, "O_14": 2.0, "Q_15": 1.0, "O_15": 1.0, "city": "MARTINSVILLE", "beds": 300.0, "SR_15": 3.0}, {"Diff_star": 0.0, "addr": "210 ELM STREET", "SR_14": 3.0, "Q_14": 5.0, "name": "LOUISA HEALTH & REHABILITATION CENTER", "SF_14": 4.0, "SF_15": 4.0, "cnty": "Louisa", "st": "VA", "Zip": 23093.0, "O_14": 5.0, "Q_15": 5.0, "O_15": 5.0, "city": "LOUISA", "beds": 90.0, "SR_15": 3.0}, {"Diff_star": 0.0, "addr": "1719 BELLEVUE AVENUE", "SR_14": 3.0, "Q_14": 5.0, "name": "MANORCARE HEALTH SERVICES-IMPERIAL", "SF_14": 2.0, "SF_15": 2.0, "cnty": "Henrico", "st": "VA", "Zip": 23227.0, "O_14": 4.0, "Q_15": 5.0, "O_15": 4.0, "city": "RICHMOND", "beds": 128.0, "SR_15": 3.0}, {"Diff_star": -1.0, "addr": "540 ABERTHAW AVENUE", "SR_14": 3.0, "Q_14": 3.0, "name": "JAMES RIVER CONVALESCENT CENTE", "SF_14": 4.0, "SF_15": 3.0, "cnty": "Newport News City", "st": "VA", "Zip": 23601.0, "O_14": 4.0, "Q_15": 2.0, "O_15": 3.0, "city": "NEWPORT NEWS", "beds": 154.0, "SR_15": 3.0}, {"Diff_star": 0.0, "addr": "2230 EXECUTIVE DRIVE", "SR_14": 1.0, "Q_14": 4.0, "name": "SENTARA NURSING CENTER HAMPTON", "SF_14": 1.0, "SF_15": 1.0, "cnty": "Hampton City", "st": "VA", "Zip": 23666.0, "O_14": 1.0, "Q_15": 3.0, "O_15": 1.0, "city": "HAMPTON", "beds": 86.0, "SR_15": 1.0}, {"Diff_star": 0.0, "addr": "5100 FILLMORE AVENUE", "SR_14": 2.0, "Q_14": 5.0, "name": "THE WASHINGTON HOUSE", "SF_14": 3.0, "SF_15": 3.0, "cnty": "Alexandria City", "st": "VA", "Zip": 22311.0, "O_14": 3.0, "Q_15": 5.0, "O_15": 3.0, "city": "ALEXANDRIA", "beds": 68.0, "SR_15": 2.0}, {"Diff_star": -1.0, "addr": "1600 JOHN ROLFE PARKWAY", "SR_14": 2.0, "Q_14": 4.0, "name": "BETH SHOLOM HOME OF VIRGINIA", "SF_14": 4.0, "SF_15": 3.0, "cnty": "Henrico", "st": "VA", "Zip": 23233.0, "O_14": 3.0, "Q_15": 3.0, "O_15": 2.0, "city": "RICHMOND", "beds": 116.0, "SR_15": 2.0}, {"Diff_star": 0.0, "addr": "393 FRONT STREET", "SR_14": 3.0, "Q_14": 4.0, "name": "LOVINGSTON HEALTH AND REHABILITATION CENTER", "SF_14": 4.0, "SF_15": 4.0, "cnty": "Nelson", "st": "VA", "Zip": 22949.0, "O_14": 4.0, "Q_15": 2.0, "O_15": 4.0, "city": "LOVINGSTON", "beds": 60.0, "SR_15": 3.0}, {"Diff_star": 0.0, "addr": "705 CLEARVIEW DRIVE", "SR_14": 5.0, "Q_14": 5.0, "name": "BERKSHIRE HEALTH & REHABILITATION CENTER", "SF_14": 4.0, "SF_15": 2.0, "cnty": "Roanoke", "st": "VA", "Zip": 24179.0, "O_14": 5.0, "Q_15": 4.0, "O_15": 5.0, "city": "VINTON", "beds": 180.0, "SR_15": 5.0}, {"Diff_star": 0.0, "addr": "2401 LEE HIGHWAY", "SR_14": 4.0, "Q_14": 4.0, "name": "PULASKI HLTH & REHAB CNTR", "SF_14": 3.0, "SF_15": 3.0, "cnty": "Pulaski", "st": "VA", "Zip": 24301.0, "O_14": 4.0, "Q_15": 2.0, "O_15": 4.0, "city": "PULASKI", "beds": 90.0, "SR_15": 4.0}, {"Diff_star": 0.0, "addr": "2344 RIVERSIDE DRIVE", "SR_14": 4.0, "Q_14": 5.0, "name": "RIVERSIDE HEALTH & REHAB CNTR", "SF_14": 3.0, "SF_15": 3.0, "cnty": "Danville City", "st": "VA", "Zip": 24540.0, "O_14": 5.0, "Q_15": 5.0, "O_15": 5.0, "city": "DANVILLE", "beds": 180.0, "SR_15": 4.0}, {"Diff_star": 0.0, "addr": "23020 MAIN STREET", "SR_14": 5.0, "Q_14": 5.0, "name": "COURTLAND HEALTH & REHABILITATION CENTER", "SF_14": 4.0, "SF_15": 3.0, "cnty": "Southampton", "st": "VA", "Zip": 23837.0, "O_14": 5.0, "Q_15": 4.0, "O_15": 5.0, "city": "COURTLAND", "beds": 90.0, "SR_15": 5.0}, {"Diff_star": -1.0, "addr": "120 ANDERSON AVENUE", "SR_14": 3.0, "Q_14": 4.0, "name": "BOWLING GREEN HEALTH & REHABILITATION CENTER", "SF_14": 4.0, "SF_15": 3.0, "cnty": "Caroline", "st": "VA", "Zip": 22427.0, "O_14": 4.0, "Q_15": 4.0, "O_15": 3.0, "city": "BOWLING GREEN", "beds": 120.0, "SR_15": 3.0}, {"Diff_star": 0.0, "addr": "3600 MOUNTAIN ROAD", "SR_14": 2.0, "Q_14": 3.0, "name": "GOLDEN LIVINGCENTER-ELIZABETH ADAM CRUMP", "SF_14": 1.0, "SF_15": 1.0, "cnty": "Henrico", "st": "VA", "Zip": 23060.0, "O_14": 1.0, "Q_15": 1.0, "O_15": 1.0, "city": "GLEN ALLEN", "beds": 180.0, "SR_15": 2.0}, {"Diff_star": 0.0, "addr": "10051 FOXES WAY", "SR_14": 4.0, "Q_14": 5.0, "name": "HERITAGE HALL KING GEORGE", "SF_14": 3.0, "SF_15": 3.0, "cnty": "King George", "st": "VA", "Zip": 22485.0, "O_14": 5.0, "Q_15": 5.0, "O_15": 5.0, "city": "KING GEORGE", "beds": 130.0, "SR_15": 4.0}, {"Diff_star": 0.0, "addr": "400 WEST STRASBURG ROAD", "SR_14": 4.0, "Q_14": 5.0, "name": "HERITAGE HALL  FRONT ROYAL", "SF_14": 1.0, "SF_15": 1.0, "cnty": "Warren", "st": "VA", "Zip": 22630.0, "O_14": 4.0, "Q_15": 5.0, "O_15": 4.0, "city": "FRONT ROYAL", "beds": 60.0, "SR_15": 4.0}, {"Diff_star": 0.0, "addr": "2406 ATHERHOLT ROAD", "SR_14": 1.0, "Q_14": 3.0, "name": "THE CARRINGTON", "SF_14": 4.0, "SF_15": 4.0, "cnty": "Lynchburg City", "st": "VA", "Zip": 24501.0, "O_14": 2.0, "Q_15": 2.0, "O_15": 2.0, "city": "LYNCHBURG", "beds": 97.0, "SR_15": 1.0}, {"Diff_star": -1.0, "addr": "2960 CHELSEA ROAD", "SR_14": 3.0, "Q_14": 5.0, "name": "RIVERSIDE CONVALESCENT CNTR WE", "SF_14": 3.0, "SF_15": 3.0, "cnty": "King William", "st": "VA", "Zip": 23181.0, "O_14": 4.0, "Q_15": 4.0, "O_15": 3.0, "city": "WEST POINT", "beds": 60.0, "SR_15": 3.0}, {"Diff_star": 0.0, "addr": "305 MARCELLA ROAD", "SR_14": 3.0, "Q_14": 4.0, "name": "COLISEUM CONVALESCENT AND REHABILITATION CENTER", "SF_14": 1.0, "SF_15": 1.0, "cnty": "Hampton City", "st": "VA", "Zip": 23666.0, "O_14": 2.0, "Q_15": 2.0, "O_15": 2.0, "city": "HAMPTON", "beds": 180.0, "SR_15": 3.0}, {"Diff_star": 0.0, "addr": "105 LANDMARK DRIVE", "SR_14": 4.0, "Q_14": 4.0, "name": "BLUE RIDGE NURSING CENTER INC", "SF_14": 3.0, "SF_15": 3.0, "cnty": "Patrick", "st": "VA", "Zip": 24171.0, "O_14": 4.0, "Q_15": 2.0, "O_15": 4.0, "city": "STUART", "beds": 190.0, "SR_15": 4.0}, {"Diff_star": 0.0, "addr": "414 ALGONQUIN RD", "SR_14": 3.0, "Q_14": 5.0, "name": "RIVERSIDE REHABILITATION CENTER AT HAMPTON", "SF_14": 3.0, "SF_15": 3.0, "cnty": "Hampton City", "st": "VA", "Zip": 23661.0, "O_14": 4.0, "Q_15": 5.0, "O_15": 4.0, "city": "HAMPTON", "beds": 130.0, "SR_15": 3.0}, {"Diff_star": 0.0, "addr": "827 NORVIEW AVENUE", "SR_14": 3.0, "Q_14": 5.0, "name": "ENVOY OF THORNTON HALL", "SF_14": 4.0, "SF_15": 4.0, "cnty": "Norfolk City", "st": "VA", "Zip": 23509.0, "O_14": 5.0, "Q_15": 5.0, "O_15": 5.0, "city": "NORFOLK", "beds": 60.0, "SR_15": 3.0}, {"Diff_star": -1.0, "addr": "13700 NORTH GAYTON ROAD", "SR_14": 3.0, "Q_14": 4.0, "name": "OUR LADY OF HOPE HEALTH CENTER", "SF_14": 4.0, "SF_15": 4.0, "cnty": "Henrico", "st": "VA", "Zip": 23233.0, "O_14": 4.0, "Q_15": 3.0, "O_15": 3.0, "city": "RICHMOND", "beds": 31.0, "SR_15": 2.0}, {"Diff_star": 0.0, "addr": "20535 EARHART PLACE", "SR_14": 3.0, "Q_14": 5.0, "name": "JOHNSON CNTR/FALCONS LANDING", "SF_14": 4.0, "SF_15": 4.0, "cnty": "Loudoun", "st": "VA", "Zip": 20165.0, "O_14": 5.0, "Q_15": 5.0, "O_15": 5.0, "city": "STERLING", "beds": 60.0, "SR_15": 3.0}, {"Diff_star": -1.0, "addr": "803 SOUTH MAIN ST", "SR_14": 2.0, "Q_14": 3.0, "name": "CONSULATE HEALTH CARE OF WOODSTOCK", "SF_14": 3.0, "SF_15": 3.0, "cnty": "Shenandoah", "st": "VA", "Zip": 22664.0, "O_14": 2.0, "Q_15": 1.0, "O_15": 1.0, "city": "WOODSTOCK", "beds": 88.0, "SR_15": 2.0}, {"Diff_star": 0.0, "addr": "1000 SHENANDOAH AVENUE", "SR_14": 4.0, "Q_14": 4.0, "name": "WARREN MEMORIAL HOSP LYNN CARE", "SF_14": 4.0, "SF_15": 4.0, "cnty": "Warren", "st": "VA", "Zip": 22630.0, "O_14": 4.0, "Q_15": 2.0, "O_15": 4.0, "city": "FRONT ROYAL", "beds": 120.0, "SR_15": 4.0}, {"Diff_star": 0.0, "addr": "119 BRICKYARD DRIVE", "SR_14": 2.0, "Q_14": 5.0, "name": "HERITAGE HALL DILLWYN", "SF_14": 1.0, "SF_15": 1.0, "cnty": "Buckingham", "st": "VA", "Zip": 23936.0, "O_14": 2.0, "Q_15": 5.0, "O_15": 2.0, "city": "DILLWYN", "beds": 60.0, "SR_15": 2.0}, {"Diff_star": -1.0, "addr": "621 BERRY HILL ROAD", "SR_14": 1.0, "Q_14": 5.0, "name": "BERRY HILL NURSING HOME", "SF_14": 2.0, "SF_15": 2.0, "cnty": "Halifax", "st": "VA", "Zip": 24592.0, "O_14": 2.0, "Q_15": 4.0, "O_15": 1.0, "city": "SOUTH BOSTON", "beds": 120.0, "SR_15": 1.0}, {"Diff_star": -1.0, "addr": "9229 ARLINGTON BLVD", "SR_14": 3.0, "Q_14": 5.0, "name": "THE VIRGINIAN", "SF_14": 5.0, "SF_15": 5.0, "cnty": "Fairfax City", "st": "VA", "Zip": 22031.0, "O_14": 5.0, "Q_15": 3.0, "O_15": 4.0, "city": "FAIRFAX", "beds": 43.0, "SR_15": 3.0}, {"Diff_star": 0.0, "addr": "1225 CLINTWOOD MAIN STREET, ROUTE 607 PO BOX 909", "SR_14": 2.0, "Q_14": 5.0, "name": "HERITAGE HALL CLINTWOOD", "SF_14": 1.0, "SF_15": 1.0, "cnty": "Dickenson", "st": "VA", "Zip": 24228.0, "O_14": 2.0, "Q_15": 5.0, "O_15": 2.0, "city": "CLINTWOOD", "beds": 100.0, "SR_15": 2.0}, {"Diff_star": -1.0, "addr": "205 HOUSTON STREET", "SR_14": 2.0, "Q_14": 3.0, "name": "HERITAGE HALL LEXINGTON", "SF_14": 2.0, "SF_15": 2.0, "cnty": "Lexington City", "st": "VA", "Zip": 24450.0, "O_14": 2.0, "Q_15": 1.0, "O_15": 1.0, "city": "EAST LEXINGTON", "beds": 60.0, "SR_15": 2.0}, {"Diff_star": 0.0, "addr": "16600 DANVILLE PIKE", "SR_14": 3.0, "Q_14": 4.0, "name": "HERITAGE HALL - LAUREL MEADOWS", "SF_14": 2.0, "SF_15": 2.0, "cnty": "Carroll", "st": "VA", "Zip": 24352.0, "O_14": 3.0, "Q_15": 2.0, "O_15": 3.0, "city": "LAUREL FORK", "beds": 60.0, "SR_15": 3.0}, {"Diff_star": 0.0, "addr": "1200 ATLANTIC SHORES DRIVE", "SR_14": 4.0, "Q_14": 4.0, "name": "SEASIDE HHC @ ATLANTIC SHORE", "SF_14": 4.0, "SF_15": 3.0, "cnty": "Virginia Beach City", "st": "VA", "Zip": 23454.0, "O_14": 4.0, "Q_15": 3.0, "O_15": 4.0, "city": "VIRGINIA BEACH", "beds": 50.0, "SR_15": 4.0}, {"Diff_star": -1.0, "addr": "4355 PHEASANT RIDGE ROAD, SW", "SR_14": 4.0, "Q_14": 5.0, "name": "PHEASANT RIDGE NURSING & REHAB CENTER", "SF_14": 2.0, "SF_15": 2.0, "cnty": "Roanoke City", "st": "VA", "Zip": 24014.0, "O_14": 5.0, "Q_15": 4.0, "O_15": 4.0, "city": "ROANOKE", "beds": 101.0, "SR_15": 4.0}, {"Diff_star": 0.0, "addr": "1150 NORTHWEST DRIVE", "SR_14": 1.0, "Q_14": 5.0, "name": "TRINITY MISSION HEALTH/REHAB OF CHARLOTTESVILLE", "SF_14": 1.0, "SF_15": 1.0, "cnty": "Albemarle", "st": "VA", "Zip": 22901.0, "O_14": 2.0, "Q_15": 5.0, "O_15": 2.0, "city": "CHARLOTTESVILLE", "beds": 180.0, "SR_15": 1.0}, {"Diff_star": 0.0, "addr": "4403 FOREST HILL AVENUE", "SR_14": 1.0, "Q_14": 5.0, "name": "ENVOY OF WESTOVER HILLS", "SF_14": 2.0, "SF_15": 2.0, "cnty": "Richmond City", "st": "VA", "Zip": 23225.0, "O_14": 2.0, "Q_15": 5.0, "O_15": 2.0, "city": "RICHMOND", "beds": 174.0, "SR_15": 1.0}, {"Diff_star": -2.0, "addr": "1150 MARSH STREET", "SR_14": 3.0, "Q_14": 5.0, "name": "CARRINGTON PLACE OF TAPPAHANNOCK", "SF_14": 4.0, "SF_15": 3.0, "cnty": "Essex", "st": "VA", "Zip": 22560.0, "O_14": 5.0, "Q_15": 3.0, "O_15": 3.0, "city": "TAPPAHANNOCK", "beds": 60.0, "SR_15": 3.0}, {"Diff_star": -1.0, "addr": "1017 GEORGE WASHINGTON HIGHWAY NORTH", "SR_14": 4.0, "Q_14": 4.0, "name": "CARRINGTON PLACE OF CHESAPEAKE", "SF_14": 4.0, "SF_15": 4.0, "cnty": "Chesapeake City", "st": "VA", "Zip": 23323.0, "O_14": 4.0, "Q_15": 2.0, "O_15": 3.0, "city": "CHESAPEAKE", "beds": 120.0, "SR_15": 2.0}, {"Diff_star": -1.0, "addr": "400 SOUTH INDEPENDENCE AVENUE", "SR_14": 3.0, "Q_14": 4.0, "name": "GRAYSON REHABILITATION  AND HEALTH CARE CENTER", "SF_14": 4.0, "SF_15": 3.0, "cnty": "Grayson", "st": "VA", "Zip": 24348.0, "O_14": 4.0, "Q_15": 3.0, "O_15": 3.0, "city": "INDEPENDENCE", "beds": 120.0, "SR_15": 3.0}, {"Diff_star": -1.0, "addr": "200 LUMAR RD", "SR_14": 3.0, "Q_14": 5.0, "name": "RIVERSIDE CONVALESCENT CENTER-SMITHFIELD", "SF_14": 4.0, "SF_15": 4.0, "cnty": "Isle Of Wight", "st": "VA", "Zip": 23430.0, "O_14": 5.0, "Q_15": 3.0, "O_15": 4.0, "city": "SMITHFIELD", "beds": 95.0, "SR_15": 3.0}, {"Diff_star": 0.0, "addr": "5872 HANKS STREET  PO BOX 1087", "SR_14": 3.0, "Q_14": 4.0, "name": "HIGHLAND RIDGE REHAB CENTER", "SF_14": 4.0, "SF_15": 4.0, "cnty": "Pulaski", "st": "VA", "Zip": 24084.0, "O_14": 4.0, "Q_15": 4.0, "O_15": 4.0, "city": "DUBLIN", "beds": 132.0, "SR_15": 3.0}, {"Diff_star": 1.0, "addr": "26181 PARKSLEY ROAD", "SR_14": 1.0, "Q_14": 4.0, "name": "RIVERSIDE SHORE REHABILITATION CENTER", "SF_14": 3.0, "SF_15": 4.0, "cnty": "Accomack", "st": "VA", "Zip": 23421.0, "O_14": 1.0, "Q_15": 3.0, "O_15": 2.0, "city": "PARKSLEY", "beds": 136.0, "SR_15": 1.0}, {"Diff_star": 0.0, "addr": "83 CROSSROADS LANE", "SR_14": 2.0, "Q_14": 4.0, "name": "AUGUSTA NURSING & REHAB CENTER", "SF_14": 2.0, "SF_15": 2.0, "cnty": "Augusta", "st": "VA", "Zip": 22939.0, "O_14": 2.0, "Q_15": 2.0, "O_15": 2.0, "city": "FISHERSVILLE", "beds": 112.0, "SR_15": 2.0}, {"Diff_star": -1.0, "addr": "7120 BRADDOCK ROAD", "SR_14": 1.0, "Q_14": 5.0, "name": "LEEWOOD HEALTHCARE CENTER", "SF_14": 3.0, "SF_15": 3.0, "cnty": "Fairfax", "st": "VA", "Zip": 22003.0, "O_14": 2.0, "Q_15": 4.0, "O_15": 1.0, "city": "ANNANDALE", "beds": 132.0, "SR_15": 1.0}, {"Diff_star": 0.0, "addr": "600 WALDEN ROAD", "SR_14": 1.0, "Q_14": 4.0, "name": "GRACE HEALTHCARE OF ABINGDON", "SF_14": 1.0, "SF_15": 1.0, "cnty": "Washington", "st": "VA", "Zip": 24210.0, "O_14": 1.0, "Q_15": 2.0, "O_15": 1.0, "city": "ABINGDON", "beds": 120.0, "SR_15": 1.0}, {"Diff_star": 0.0, "addr": "2003 COBB STREET", "SR_14": 4.0, "Q_14": 4.0, "name": "HOLLY MANOR NURSING HOME", "SF_14": 3.0, "SF_15": 3.0, "cnty": "Prince Edward", "st": "VA", "Zip": 23901.0, "O_14": 4.0, "Q_15": 3.0, "O_15": 4.0, "city": "FARMVILLE", "beds": 120.0, "SR_15": 4.0}, {"Diff_star": 0.0, "addr": "12997 NETTLES DRIVE", "SR_14": 2.0, "Q_14": 4.0, "name": "NEWPORT NEWS NURSING & REHAB", "SF_14": 1.0, "SF_15": 1.0, "cnty": "Newport News City", "st": "VA", "Zip": 23602.0, "O_14": 1.0, "Q_15": 2.0, "O_15": 1.0, "city": "NEWPORT NEWS", "beds": 102.0, "SR_15": 2.0}, {"Diff_star": 0.0, "addr": "113 BATTLE ROAD", "SR_14": 4.0, "Q_14": 5.0, "name": "YORK CONVALESCENT CENTER", "SF_14": 4.0, "SF_15": 2.0, "cnty": "York", "st": "VA", "Zip": 23692.0, "O_14": 5.0, "Q_15": 5.0, "O_15": 5.0, "city": "YORKTOWN", "beds": 80.0, "SR_15": 4.0}, {"Diff_star": -1.0, "addr": "355 WILLIAM MILLS DRIVE", "SR_14": 2.0, "Q_14": 5.0, "name": "GRACE HEALTH AND REHAB CENTER OF GREENE COUNTY", "SF_14": 2.0, "SF_15": 2.0, "cnty": "Greene", "st": "VA", "Zip": 22973.0, "O_14": 3.0, "Q_15": 4.0, "O_15": 2.0, "city": "STANARDSVILLE", "beds": 90.0, "SR_15": 2.0}, {"Diff_star": 0.0, "addr": "1410 NORTH AUGUSTA STREET", "SR_14": 1.0, "Q_14": 4.0, "name": "KINGS DAUGHTERS COMMUNITY HEALTH & REHAB", "SF_14": 1.0, "SF_15": 1.0, "cnty": "Staunton City", "st": "VA", "Zip": 24401.0, "O_14": 1.0, "Q_15": 2.0, "O_15": 1.0, "city": "STAUNTON", "beds": 117.0, "SR_15": 1.0}, {"Diff_star": 0.0, "addr": "287 SCHOOL STREET", "SR_14": 1.0, "Q_14": 4.0, "name": "LANCASHIRE CONVALESCENT AND REHABILITATION CENTER", "SF_14": 3.0, "SF_15": 3.0, "cnty": "Lancaster", "st": "VA", "Zip": 22482.0, "O_14": 1.0, "Q_15": 3.0, "O_15": 1.0, "city": "KILMARNOCK", "beds": 120.0, "SR_15": 1.0}, {"Diff_star": 0.0, "addr": "150 KINGSLEY LANE", "SR_14": 5.0, "Q_14": 4.0, "name": "BON SECOURS DEPAUL,TCC", "SF_14": 5.0, "SF_15": 5.0, "cnty": "Norfolk City", "st": "VA", "Zip": 23505.0, "O_14": 5.0, "Q_15": 3.0, "O_15": 5.0, "city": "NORFOLK", "beds": 24.0, "SR_15": 5.0}, {"Diff_star": 0.0, "addr": "23352 COURTHOUSE HIGHWAY", "SR_14": 2.0, "Q_14": 4.0, "name": "CONSULATE HEALTH CARE OF WINDSOR", "SF_14": 1.0, "SF_15": 1.0, "cnty": "Isle Of Wight", "st": "VA", "Zip": 23487.0, "O_14": 1.0, "Q_15": 3.0, "O_15": 1.0, "city": "WINDSOR", "beds": 114.0, "SR_15": 2.0}, {"Diff_star": -1.0, "addr": "237 FRANKLIN PIKE ROAD, SE", "SR_14": 2.0, "Q_14": 5.0, "name": "SKYLINE NURSING & REHABILITATION CENTER", "SF_14": 1.0, "SF_15": 1.0, "cnty": "Floyd", "st": "VA", "Zip": 24091.0, "O_14": 2.0, "Q_15": 4.0, "O_15": 1.0, "city": "FLOYD", "beds": 90.0, "SR_15": 2.0}, {"Diff_star": -1.0, "addr": "990 HOLSTON RD", "SR_14": 2.0, "Q_14": 3.0, "name": "CARRINGTON PLACE AT WYTHEVILLE - BIRDMONT CENTER", "SF_14": 5.0, "SF_15": 5.0, "cnty": "Wythe", "st": "VA", "Zip": 24382.0, "O_14": 3.0, "Q_15": 1.0, "O_15": 2.0, "city": "WYTHEVILLE", "beds": 137.0, "SR_15": 2.0}, {"Diff_star": -1.0, "addr": "9434 COEBURN MOUNTAIN ROAD", "SR_14": 3.0, "Q_14": 2.0, "name": "HERITAGE HALL WISE", "SF_14": 1.0, "SF_15": 1.0, "cnty": "Wise", "st": "VA", "Zip": 24293.0, "O_14": 2.0, "Q_15": 1.0, "O_15": 1.0, "city": "WISE", "beds": 97.0, "SR_15": 3.0}, {"Diff_star": -1.0, "addr": "208 HEALTH CARE DRIVE", "SR_14": 3.0, "Q_14": 3.0, "name": "LEE HEALTH AND REHAB CENTER", "SF_14": 1.0, "SF_15": 1.0, "cnty": "Lee", "st": "VA", "Zip": 24277.0, "O_14": 2.0, "Q_15": 1.0, "O_15": 1.0, "city": "PENNINGTON GAP", "beds": 110.0, "SR_15": 3.0}, {"Diff_star": 0.0, "addr": "900 S MAIN ST", "SR_14": 4.0, "Q_14": 4.0, "name": "HERITAGE HALL BLACKSTONE", "SF_14": 3.0, "SF_15": 3.0, "cnty": "Nottoway", "st": "VA", "Zip": 23824.0, "O_14": 4.0, "Q_15": 2.0, "O_15": 4.0, "city": "BLACKSTONE", "beds": 180.0, "SR_15": 4.0}, {"Diff_star": 0.0, "addr": "7470 SPRING VILLAGE DR", "SR_14": 4.0, "Q_14": 5.0, "name": "GREENSPRING VILLAGE", "SF_14": "", "SF_15": "", "cnty": "Fairfax", "st": "VA", "Zip": 22150.0, "O_14": 5.0, "Q_15": 5.0, "O_15": 5.0, "city": "SPRINGFIELD", "beds": 136.0, "SR_15": 4.0}, {"Diff_star": -1.0, "addr": "700 RANDOLPH STREET", "SR_14": 3.0, "Q_14": 3.0, "name": "RADFORD HEALTH AND REHAB CENTER", "SF_14": 3.0, "SF_15": 3.0, "cnty": "Radford City", "st": "VA", "Zip": 24141.0, "O_14": 3.0, "Q_15": 1.0, "O_15": 2.0, "city": "RADFORD", "beds": 90.0, "SR_15": 3.0}, {"Diff_star": 0.0, "addr": "3610 SOUTH MAIN STREET", "SR_14": 4.0, "Q_14": 3.0, "name": "HERITAGE HALL BLACKSBURG", "SF_14": 1.0, "SF_15": 1.0, "cnty": "Montgomery", "st": "VA", "Zip": 24060.0, "O_14": 3.0, "Q_15": 2.0, "O_15": 3.0, "city": "BLACKSBURG", "beds": 194.0, "SR_15": 4.0}, {"Diff_star": -1.0, "addr": "650 NORTH JEFFERSON STREET", "SR_14": 4.0, "Q_14": 5.0, "name": "OUR LADY OF THE VALLEY", "SF_14": 1.0, "SF_15": 1.0, "cnty": "Roanoke City", "st": "VA", "Zip": 24016.0, "O_14": 4.0, "Q_15": 4.0, "O_15": 3.0, "city": "ROANOKE", "beds": 70.0, "SR_15": 4.0}, {"Diff_star": 0.0, "addr": "8830 VIRGINIA STREET", "SR_14": 2.0, "Q_14": 4.0, "name": "AMELIA NURSING CENTER", "SF_14": 4.0, "SF_15": 4.0, "cnty": "Amelia", "st": "VA", "Zip": 23002.0, "O_14": 3.0, "Q_15": 4.0, "O_15": 3.0, "city": "AMELIA", "beds": 100.0, "SR_15": 2.0}, {"Diff_star": -1.0, "addr": "120 DOGWOOD LANE", "SR_14": 3.0, "Q_14": 4.0, "name": "DOGWOOD VILLAGE OF ORANGE COUNTY HEALTH AND REHAB", "SF_14": 4.0, "SF_15": 3.0, "cnty": "Orange", "st": "VA", "Zip": 22960.0, "O_14": 4.0, "Q_15": 3.0, "O_15": 3.0, "city": "ORANGE", "beds": 164.0, "SR_15": 3.0}, {"Diff_star": 0.0, "addr": "1000 FAIRVIEW HEIGHTS", "SR_14": 5.0, "Q_14": 5.0, "name": "THE WOODLANDS HEALTH AND REHAB CENTER", "SF_14": 2.0, "SF_15": 2.0, "cnty": "Alleghany", "st": "VA", "Zip": 24422.0, "O_14": 5.0, "Q_15": 4.0, "O_15": 5.0, "city": "CLIFTON FORGE", "beds": 60.0, "SR_15": 5.0}, {"Diff_star": -1.0, "addr": "14906 JEFFERSON DAVIS HIGHWAY", "SR_14": 2.0, "Q_14": 5.0, "name": "ENVOY OF WOODBRIDGE, LLC", "SF_14": 3.0, "SF_15": 3.0, "cnty": "Prince William", "st": "VA", "Zip": 22191.0, "O_14": 3.0, "Q_15": 4.0, "O_15": 2.0, "city": "WOODBRIDGE", "beds": 120.0, "SR_15": 2.0}, {"Diff_star": 0.0, "addr": "906 THOMPSON STREET", "SR_14": 1.0, "Q_14": 4.0, "name": "ASHLAND CONVALESCENT CENTER", "SF_14": 2.0, "SF_15": 2.0, "cnty": "Hanover", "st": "VA", "Zip": 23005.0, "O_14": 1.0, "Q_15": 2.0, "O_15": 1.0, "city": "ASHLAND", "beds": 190.0, "SR_15": 1.0}, {"Diff_star": 0.0, "addr": "173 BROCKMAN PARK DRIVE", "SR_14": 3.0, "Q_14": 5.0, "name": "FAIRMONT CROSSING", "SF_14": 3.0, "SF_15": 3.0, "cnty": "Amherst", "st": "VA", "Zip": 24521.0, "O_14": 4.0, "Q_15": 5.0, "O_15": 4.0, "city": "AMHERST", "beds": 120.0, "SR_15": 3.0}, {"Diff_star": 0.0, "addr": "20 DELFAE DRIVE", "SR_14": 1.0, "Q_14": 4.0, "name": "THE ORCHARD", "SF_14": 3.0, "SF_15": 3.0, "cnty": "Richmond", "st": "VA", "Zip": 22572.0, "O_14": 1.0, "Q_15": 4.0, "O_15": 1.0, "city": "WARSAW", "beds": 80.0, "SR_15": 1.0}, {"Diff_star": 0.0, "addr": "POST OFFICE BOX 2409", "SR_14": 5.0, "Q_14": 4.0, "name": "MAPLE GROVE HEALTH CARE CENTER", "SF_14": 1.0, "SF_15": 1.0, "cnty": "Russell", "st": "VA", "Zip": 24266.0, "O_14": 4.0, "Q_15": 3.0, "O_15": 4.0, "city": "LEBANON", "beds": 60.0, "SR_15": 5.0}, {"Diff_star": 0.0, "addr": "100 ANNA GOODE WAY", "SR_14": 2.0, "Q_14": 4.0, "name": "LAKE PRINCE WOODS, INC", "SF_14": 5.0, "SF_15": 5.0, "cnty": "Suffolk City", "st": "VA", "Zip": 23434.0, "O_14": 3.0, "Q_15": 3.0, "O_15": 3.0, "city": "SUFFOLK", "beds": 40.0, "SR_15": 2.0}, {"Diff_star": 0.0, "addr": "1028 TOPPING LANE", "SR_14": 4.0, "Q_14": 4.0, "name": "NORTHAMPTON CONVALESCENT AND REHABILITATION CENTER", "SF_14": 3.0, "SF_15": 3.0, "cnty": "Hampton City", "st": "VA", "Zip": 23666.0, "O_14": 4.0, "Q_15": 4.0, "O_15": 4.0, "city": "HAMPTON", "beds": 70.0, "SR_15": 4.0}, {"Diff_star": 0.0, "addr": "11141 WARWICK BLVD", "SR_14": 4.0, "Q_14": 5.0, "name": "THE NEWPORT", "SF_14": 4.0, "SF_15": 4.0, "cnty": "Newport News City", "st": "VA", "Zip": 23601.0, "O_14": 5.0, "Q_15": 5.0, "O_15": 5.0, "city": "NEWPORT NEWS", "beds": 60.0, "SR_15": 4.0}, {"Diff_star": 0.0, "addr": "6000 PATRIOTS COLONY DRIVE", "SR_14": 2.0, "Q_14": 5.0, "name": "THE CONVALESCENT CENTER AT PATRIOTS COLONY", "SF_14": 4.0, "SF_15": 4.0, "cnty": "James City", "st": "VA", "Zip": 23188.0, "O_14": 4.0, "Q_15": 5.0, "O_15": 4.0, "city": "WILLIAMSBURG", "beds": 60.0, "SR_15": 2.0}, {"Diff_star": 0.0, "addr": "302 NORTH SECOND STREET", "SR_14": 2.0, "Q_14": 4.0, "name": "BRIDGEWATER HOME , INC.", "SF_14": 5.0, "SF_15": 5.0, "cnty": "Rockingham", "st": "VA", "Zip": 22812.0, "O_14": 3.0, "Q_15": 3.0, "O_15": 3.0, "city": "BRIDGEWATER", "beds": 139.0, "SR_15": 2.0}, {"Diff_star": 0.0, "addr": "120  OLD VIRGINIA AVENUE", "SR_14": 3.0, "Q_14": 4.0, "name": "HERITAGE HALL-RICH CREEK", "SF_14": 2.0, "SF_15": 2.0, "cnty": "Giles", "st": "VA", "Zip": 24147.0, "O_14": 3.0, "Q_15": 2.0, "O_15": 3.0, "city": "RICH CREEK", "beds": 120.0, "SR_15": 3.0}, {"Diff_star": 0.0, "addr": "103 ROSEHILL DRIVE", "SR_14": 1.0, "Q_14": 5.0, "name": "THE WOODVIEW", "SF_14": 2.0, "SF_15": 2.0, "cnty": "Halifax", "st": "VA", "Zip": 24592.0, "O_14": 2.0, "Q_15": 5.0, "O_15": 2.0, "city": "SOUTH BOSTON", "beds": 180.0, "SR_15": 1.0}, {"Diff_star": 0.0, "addr": "3837 BRANDON AVENUE", "SR_14": 5.0, "Q_14": 4.0, "name": "BRANDON OAKS NURSING AND REHABILITATION CENTER", "SF_14": 4.0, "SF_15": 4.0, "cnty": "Roanoke", "st": "VA", "Zip": 24018.0, "O_14": 5.0, "Q_15": 3.0, "O_15": 5.0, "city": "ROANOKE", "beds": 62.0, "SR_15": 5.0}, {"Diff_star": 0.0, "addr": "310 THIRD STREET,  NE", "SR_14": 3.0, "Q_14": 3.0, "name": "MOUNTAIN VIEW REGIONAL MEDICAL CENTER", "SF_14": 4.0, "SF_15": 4.0, "cnty": "Wise", "st": "VA", "Zip": 24273.0, "O_14": 4.0, "Q_15": 2.0, "O_15": 4.0, "city": "NORTON", "beds": 44.0, "SR_15": 3.0}, {"Diff_star": -1.0, "addr": "200 WEAVER AVENUE", "SR_14": 1.0, "Q_14": 5.0, "name": "EMPORIA MANOR LLC", "SF_14": 3.0, "SF_15": 3.0, "cnty": "Emporia City", "st": "VA", "Zip": 23847.0, "O_14": 2.0, "Q_15": 3.0, "O_15": 1.0, "city": "EMPORIA", "beds": 120.0, "SR_15": 1.0}, {"Diff_star": 0.0, "addr": "1165 PEPSI PLACE", "SR_14": 2.0, "Q_14": 4.0, "name": "THE LAURELS OF CHARLOTTESVILLE", "SF_14": 3.0, "SF_15": 3.0, "cnty": "Albemarle", "st": "VA", "Zip": 22901.0, "O_14": 2.0, "Q_15": 4.0, "O_15": 2.0, "city": "CHARLOTTESVILLE", "beds": 120.0, "SR_15": 2.0}, {"Diff_star": 0.0, "addr": "3433 SPRINGTREE DRIVE", "SR_14": 5.0, "Q_14": 4.0, "name": "SPRINGTREE HEALTHCARE & REHAB CENTER", "SF_14": 4.0, "SF_15": 3.0, "cnty": "Roanoke City", "st": "VA", "Zip": 24012.0, "O_14": 5.0, "Q_15": 3.0, "O_15": 5.0, "city": "ROANOKE", "beds": 120.0, "SR_15": 5.0}, {"Diff_star": -1.0, "addr": "184 BUFFALO ROAD", "SR_14": 3.0, "Q_14": 5.0, "name": "MEADOWVIEW TERRACE", "SF_14": 4.0, "SF_15": 3.0, "cnty": "Mecklenburg", "st": "VA", "Zip": 23927.0, "O_14": 5.0, "Q_15": 5.0, "O_15": 4.0, "city": "CLARKSVILLE", "beds": 150.0, "SR_15": 3.0}, {"Diff_star": -1.0, "addr": "5539 HIGHWAY FORTY SEVEN", "SR_14": 1.0, "Q_14": 5.0, "name": "CHASE CITY HEALTH AND REHAB CENTER", "SF_14": 2.0, "SF_15": 2.0, "cnty": "Mecklenburg", "st": "VA", "Zip": 23924.0, "O_14": 2.0, "Q_15": 4.0, "O_15": 1.0, "city": "CHASE CITY", "beds": 120.0, "SR_15": 1.0}, {"Diff_star": 0.0, "addr": "1300 ENTERPRISE DRIVE", "SR_14": 4.0, "Q_14": 4.0, "name": "SUMMIT HEALTH & REHABILITATION CENTER", "SF_14": 2.0, "SF_15": 2.0, "cnty": "Lynchburg City", "st": "VA", "Zip": 24502.0, "O_14": 4.0, "Q_15": 4.0, "O_15": 4.0, "city": "LYNCHBURG", "beds": 120.0, "SR_15": 4.0}, {"Diff_star": 0.0, "addr": "7385 WALKER AVE", "SR_14": 4.0, "Q_14": 3.0, "name": "FRANCIS N SANDERS NURSING HOME, INC", "SF_14": 4.0, "SF_15": 4.0, "cnty": "Gloucester", "st": "VA", "Zip": 23061.0, "O_14": 4.0, "Q_15": 2.0, "O_15": 4.0, "city": "GLOUCESTER", "beds": 55.0, "SR_15": 4.0}, {"Diff_star": -1.0, "addr": "100 FRANCIS MARION LANE, PO BOX 880", "SR_14": 4.0, "Q_14": 2.0, "name": "FRANCIS MARION MANOR HEALTH & REHABILITATION", "SF_14": 3.0, "SF_15": 3.0, "cnty": "Smyth", "st": "VA", "Zip": 24354.0, "O_14": 4.0, "Q_15": 1.0, "O_15": 3.0, "city": "MARION", "beds": 110.0, "SR_15": 4.0}, {"Diff_star": 0.0, "addr": "1475 VIRGINIA AVENUE", "SR_14": 2.0, "Q_14": 4.0, "name": "VMRC, COMPLETE LIVING CARE", "SF_14": 4.0, "SF_15": 4.0, "cnty": "Rockingham", "st": "VA", "Zip": 22802.0, "O_14": 3.0, "Q_15": 3.0, "O_15": 3.0, "city": "HARRISONBURG", "beds": 120.0, "SR_15": 2.0}, {"Diff_star": 0.0, "addr": "290 COMMONS PARKWAY", "SR_14": 4.0, "Q_14": 5.0, "name": "CARRINGTON PLACE AT BOTETOURT COMMONS", "SF_14": 3.0, "SF_15": 3.0, "cnty": "Botetourt", "st": "VA", "Zip": 24083.0, "O_14": 5.0, "Q_15": 5.0, "O_15": 5.0, "city": "DALEVILLE", "beds": 90.0, "SR_15": 4.0}, {"Diff_star": 0.0, "addr": "3935 SUNNYSIDE DRIVE, SUITE A", "SR_14": 4.0, "Q_14": 4.0, "name": "SUNNYSIDE PRESBYTERIAN RETIREMENT COMMUNITY", "SF_14": 4.0, "SF_15": 4.0, "cnty": "Harrisonburg City", "st": "VA", "Zip": 22801.0, "O_14": 4.0, "Q_15": 3.0, "O_15": 4.0, "city": "HARRISONBURG", "beds": 84.0, "SR_15": 4.0}, {"Diff_star": 0.0, "addr": "7501 HERITAGE VILLAGE PLAZA", "SR_14": 1.0, "Q_14": 3.0, "name": "GAINESVILLE HEALTH AND REHAB CENTER", "SF_14": 3.0, "SF_15": 3.0, "cnty": "Prince William", "st": "VA", "Zip": 20155.0, "O_14": 1.0, "Q_15": 2.0, "O_15": 1.0, "city": "GAINESVILLE", "beds": 120.0, "SR_15": 1.0}, {"Diff_star": 0.0, "addr": "110 LAUCK DR", "SR_14": 3.0, "Q_14": 4.0, "name": "ENVOY OF WINCHESTER, LLC", "SF_14": 3.0, "SF_15": 3.0, "cnty": "Frederick", "st": "VA", "Zip": 22603.0, "O_14": 3.0, "Q_15": 4.0, "O_15": 3.0, "city": "WINCHESTER", "beds": 60.0, "SR_15": 3.0}, {"Diff_star": -1.0, "addr": "8605 CENTREVILLE ROAD", "SR_14": 3.0, "Q_14": 4.0, "name": "BIRMINGHAM GREEN", "SF_14": 4.0, "SF_15": 3.0, "cnty": "Manassas City", "st": "VA", "Zip": 20110.0, "O_14": 4.0, "Q_15": 3.0, "O_15": 3.0, "city": "MANASSAS", "beds": 180.0, "SR_15": 3.0}, {"Diff_star": 0.0, "addr": "1901 LIBBIE AVE", "SR_14": 2.0, "Q_14": 5.0, "name": "GLENBURNIE REHAB & NURSING CENTER", "SF_14": 4.0, "SF_15": 4.0, "cnty": "Henrico", "st": "VA", "Zip": 23226.0, "O_14": 4.0, "Q_15": 5.0, "O_15": 4.0, "city": "RICHMOND", "beds": 125.0, "SR_15": 2.0}, {"Diff_star": -1.0, "addr": "1604 OLD DONATION PKWY", "SR_14": 4.0, "Q_14": 5.0, "name": "SENTARA NSG CENTER-WINDERMERE", "SF_14": 4.0, "SF_15": 4.0, "cnty": "Virginia Beach City", "st": "VA", "Zip": 23454.0, "O_14": 5.0, "Q_15": 4.0, "O_15": 4.0, "city": "VIRGINIA BEACH", "beds": 90.0, "SR_15": 4.0}, {"Diff_star": -1.0, "addr": "1601 BROADROCK BLVD", "SR_14": 4.0, "Q_14": 5.0, "name": "SITTER AND BARFOOT VETERANS CARE CENTER", "SF_14": 4.0, "SF_15": 4.0, "cnty": "Richmond City", "st": "VA", "Zip": 23224.0, "O_14": 5.0, "Q_15": 4.0, "O_15": 4.0, "city": "RICHMOND", "beds": 160.0, "SR_15": 4.0}, {"Diff_star": -2.0, "addr": "9101 BON AIR CROSSINGS DRIVE", "SR_14": 2.0, "Q_14": 5.0, "name": "THE LAURELS OF BON AIR", "SF_14": 4.0, "SF_15": 3.0, "cnty": "Chesterfield", "st": "VA", "Zip": 23235.0, "O_14": 4.0, "Q_15": 4.0, "O_15": 2.0, "city": "BON AIR", "beds": 100.0, "SR_15": 2.0}, {"Diff_star": 0.0, "addr": "ONE COLLEY AVENUE", "SR_14": 3.0, "Q_14": 5.0, "name": "HARBOR'S EDGE", "SF_14": 4.0, "SF_15": 4.0, "cnty": "Norfolk City", "st": "VA", "Zip": 23510.0, "O_14": 5.0, "Q_15": 5.0, "O_15": 5.0, "city": "NORFOLK", "beds": 33.0, "SR_15": 3.0}, {"Diff_star": -1.0, "addr": "6106 HEALTH CENTER LANE", "SR_14": 2.0, "Q_14": 4.0, "name": "CARRIAGE HILL HEALTH AND REHAB CENTER", "SF_14": 4.0, "SF_15": 3.0, "cnty": "Spotsylvania", "st": "VA", "Zip": 22407.0, "O_14": 3.0, "Q_15": 3.0, "O_15": 2.0, "city": "FREDERICKSBURG", "beds": 150.0, "SR_15": 2.0}, {"Diff_star": 0.0, "addr": "955 HARPERSVILLE RD", "SR_14": 4.0, "Q_14": 5.0, "name": "THE CHESAPEAKE", "SF_14": 5.0, "SF_15": 5.0, "cnty": "Newport News City", "st": "VA", "Zip": 23601.0, "O_14": 5.0, "Q_15": 5.0, "O_15": 5.0, "city": "NEWPORT NEWS", "beds": 52.0, "SR_15": 4.0}, {"Diff_star": 0.0, "addr": "46 DIAMOND DRIVE", "SR_14": 1.0, "Q_14": 5.0, "name": "DINWIDDIE HEALTH AND REHAB CENTER", "SF_14": 4.0, "SF_15": 3.0, "cnty": "Petersburg City", "st": "VA", "Zip": 23803.0, "O_14": 2.0, "Q_15": 5.0, "O_15": 2.0, "city": "PETERSBURG", "beds": 60.0, "SR_15": 1.0}, {"Diff_star": 0.0, "addr": "100 RORER STREET", "SR_14": 3.0, "Q_14": 4.0, "name": "CHATHAM HEALTH & REHABILITATION CENTER", "SF_14": 2.0, "SF_15": 2.0, "cnty": "Pittsylvania", "st": "VA", "Zip": 24531.0, "O_14": 3.0, "Q_15": 3.0, "O_15": 3.0, "city": "CHATHAM", "beds": 85.0, "SR_15": 3.0}, {"Diff_star": 0.0, "addr": "PO BOX 191 RTE 15", "SR_14": 5.0, "Q_14": 5.0, "name": "CULPEPER BAPTIST RETIRE COMMUN", "SF_14": 5.0, "SF_15": 5.0, "cnty": "Culpeper", "st": "VA", "Zip": 22701.0, "O_14": 5.0, "Q_15": 4.0, "O_15": 5.0, "city": "CULPEPER", "beds": 47.0, "SR_15": 5.0}, {"Diff_star": 0.0, "addr": "12001 IRON BRIDGE RD", "SR_14": 3.0, "Q_14": 4.0, "name": "TYLER'S RETREAT AT IRON BRIDGE", "SF_14": 2.0, "SF_15": 2.0, "cnty": "Chesterfield", "st": "VA", "Zip": 23831.0, "O_14": 3.0, "Q_15": 4.0, "O_15": 3.0, "city": "CHESTER", "beds": 90.0, "SR_15": 3.0}, {"Diff_star": 0.0, "addr": "3900 WINDSOR HALL DRIVE", "SR_14": 3.0, "Q_14": 4.0, "name": "WINDSORMEADE OF WILLIAMSBURG", "SF_14": 5.0, "SF_15": 5.0, "cnty": "James City", "st": "VA", "Zip": 23188.0, "O_14": 4.0, "Q_15": 3.0, "O_15": 4.0, "city": "WILLIAMSBURG", "beds": 12.0, "SR_15": 3.0}, {"Diff_star": -1.0, "addr": "1900 LAUDERDALE DRIVE", "SR_14": 4.0, "Q_14": 5.0, "name": "LAKEWOOD MANOR", "SF_14": 4.0, "SF_15": 4.0, "cnty": "Goochland", "st": "VA", "Zip": 23238.0, "O_14": 5.0, "Q_15": 4.0, "O_15": 4.0, "city": "RICHMOND", "beds": 96.0, "SR_15": 4.0}, {"Diff_star": 0.0, "addr": "250 GLEBE ROAD", "SR_14": 5.0, "Q_14": 5.0, "name": "THE GLEBE", "SF_14": 5.0, "SF_15": 5.0, "cnty": "Botetourt", "st": "VA", "Zip": 24083.0, "O_14": 5.0, "Q_15": 4.0, "O_15": 5.0, "city": "DALEVILLE", "beds": 32.0, "SR_15": 5.0}, {"Diff_star": 0.0, "addr": "501 OAK AVENUE", "SR_14": 4.0, "Q_14": 4.0, "name": "SUMMIT SQUARE", "SF_14": 5.0, "SF_15": 5.0, "cnty": "Waynesboro City", "st": "VA", "Zip": 22980.0, "O_14": 5.0, "Q_15": 4.0, "O_15": 5.0, "city": "WAYNESBORO", "beds": 18.0, "SR_15": 4.0}, {"Diff_star": 0.0, "addr": "1000 LITTON LANE", "SR_14": 5.0, "Q_14": 5.0, "name": "THE WYBE AND MARIETJE KROONTJE HEALTH CARE CENTER", "SF_14": 5.0, "SF_15": 5.0, "cnty": "Montgomery", "st": "VA", "Zip": 24060.0, "O_14": 5.0, "Q_15": 4.0, "O_15": 5.0, "city": "BLACKSBURG", "beds": 60.0, "SR_15": 5.0}, {"Diff_star": 0.0, "addr": "140 BRIMLEY DRIVE", "SR_14": 1.0, "Q_14": 5.0, "name": "FALLS RUN NURSING AND REHAB CENTER", "SF_14": 4.0, "SF_15": 3.0, "cnty": "Stafford", "st": "VA", "Zip": 22406.0, "O_14": 2.0, "Q_15": 5.0, "O_15": 2.0, "city": "FREDERICKSBURG", "beds": 90.0, "SR_15": 1.0}, {"Diff_star": -1.0, "addr": "350 KING'S WAY ROAD", "SR_14": 3.0, "Q_14": 5.0, "name": "KING'S GRANT RETIREMENT COMMUN", "SF_14": 5.0, "SF_15": 5.0, "cnty": "Martinsville City", "st": "VA", "Zip": 24112.0, "O_14": 5.0, "Q_15": 4.0, "O_15": 4.0, "city": "MARTINSVILLE", "beds": 32.0, "SR_15": 3.0}, {"Diff_star": -2.0, "addr": "15051 HARMONY HILLS LANE", "SR_14": 3.0, "Q_14": 5.0, "name": "ABINGDON HEALTH CARE LLC", "SF_14": 4.0, "SF_15": 3.0, "cnty": "Washington", "st": "VA", "Zip": 24212.0, "O_14": 5.0, "Q_15": 3.0, "O_15": 3.0, "city": "ABINGDON", "beds": 120.0, "SR_15": 3.0}, {"Diff_star": 0.0, "addr": "1739 KIRBY ROAD", "SR_14": 4.0, "Q_14": 5.0, "name": "ARLEIGH BURKE PAVILION", "SF_14": 4.0, "SF_15": 4.0, "cnty": "Fairfax", "st": "VA", "Zip": 22101.0, "O_14": 5.0, "Q_15": 5.0, "O_15": 5.0, "city": "MC LEAN", "beds": 49.0, "SR_15": 4.0}, {"Diff_star": -1.0, "addr": "189 MONICA BLVD", "SR_14": 1.0, "Q_14": 5.0, "name": "LIBERTY RIDGE HEALTH & REHAB", "SF_14": 1.0, "SF_15": 1.0, "cnty": "Lynchburg City", "st": "VA", "Zip": 24502.0, "O_14": 2.0, "Q_15": 4.0, "O_15": 1.0, "city": "LYNCHBURG", "beds": 90.0, "SR_15": 1.0}, {"Diff_star": 0.0, "addr": "377 CLONCE ST", "SR_14": 3.0, "Q_14": 4.0, "name": "NOVA HEALTH AND REHAB", "SF_14": 3.0, "SF_15": 3.0, "cnty": "Scott", "st": "VA", "Zip": 24290.0, "O_14": 3.0, "Q_15": 2.0, "O_15": 3.0, "city": "WEBER CITY", "beds": 90.0, "SR_15": 3.0}, {"Diff_star": 0.0, "addr": "7600 AUTUMN PARKWAY", "SR_14": 3.0, "Q_14": 4.0, "name": "AUTUMN CARE OF MECHANICSVILLE", "SF_14": 4.0, "SF_15": 4.0, "cnty": "Hanover", "st": "VA", "Zip": 23116.0, "O_14": 4.0, "Q_15": 3.0, "O_15": 4.0, "city": "MECHANICSVILLE", "beds": 169.0, "SR_15": 3.0}, {"Diff_star": 0.0, "addr": "2800 GODWIN BOULEVARD", "SR_14": 5.0, "Q_14": 3.0, "name": "SENTARA OBICI SPECIALTY REHABILITATION CENTER", "SF_14": 5.0, "SF_15": 5.0, "cnty": "Suffolk City", "st": "VA", "Zip": 23434.0, "O_14": 5.0, "Q_15": 5.0, "O_15": 5.0, "city": "SUFFOLK", "beds": 8.0, "SR_15": 5.0}, {"Diff_star": 0.0, "addr": "100 PROCESSION WAY", "SR_14": "", "Q_14": "", "name": "THE VILLAGE AT ORCHARD RIDGE", "SF_14": "", "SF_15": "", "cnty": "Frederick", "st": "VA", "Zip": 22603.0, "O_14": "", "Q_15": "", "O_15": "", "city": "WINCHESTER", "beds": 10.0, "SR_15": ""}, {"Diff_star": 0.0, "addr": "21160 MAPLE BRANCH TERRACE", "SR_14": "", "Q_14": "", "name": "ASHBY PONDS INC", "SF_14": "", "SF_15": "", "cnty": "Loudoun", "st": "VA", "Zip": 20147.0, "O_14": "", "Q_15": "", "O_15": "", "city": "ASHBURN", "beds": 44.0, "SR_15": ""}, {"Diff_star": 0.0, "addr": "751 HILLSDALE DRIVE", "SR_14": 3.0, "Q_14": 3.0, "name": "OUR LADY OF PEACE INC", "SF_14": 5.0, "SF_15": 5.0, "cnty": "Albemarle", "st": "VA", "Zip": 22901.0, "O_14": 4.0, "Q_15": 2.0, "O_15": 4.0, "city": "CHARLOTTESVILLE", "beds": 30.0, "SR_15": 3.0}, {"Diff_star": 0.0, "addr": "2924 BROOK RD", "SR_14": 5.0, "Q_14": 5.0, "name": "CHILDRENS HOSPITAL", "SF_14": 5.0, "SF_15": 5.0, "cnty": "Richmond City", "st": "VA", "Zip": 23220.0, "O_14": 5.0, "Q_15": 5.0, "O_15": 5.0, "city": "RICHMOND", "beds": 47.0, "SR_15": 5.0}, {"Diff_star": 0.0, "addr": "4601 IRONBOUND ROAD", "SR_14": 2.0, "Q_14": 5.0, "name": "HANCOCK GERIATRIC TREATMENT CENTER", "SF_14": 5.0, "SF_15": 5.0, "cnty": "Williamsburg City", "st": "VA", "Zip": 23187.0, "O_14": 4.0, "Q_15": 5.0, "O_15": 4.0, "city": "WILLIAMSBURG", "beds": 80.0, "SR_15": 2.0}, {"Diff_star": 0.0, "addr": "1229 COUNTY FARM ROAD", "SR_14": 2.0, "Q_14": 5.0, "name": "BEDFORD CO NURSING HOME", "SF_14": 2.0, "SF_15": 2.0, "cnty": "Bedford City", "st": "VA", "Zip": 24523.0, "O_14": 3.0, "Q_15": 5.0, "O_15": 3.0, "city": "BEDFORD", "beds": 90.0, "SR_15": 2.0}, {"Diff_star": 0.0, "addr": "1776 ELLY ROAD", "SR_14": 4.0, "Q_14": 5.0, "name": "MOUNTAIN VIEW NURSING HOME", "SF_14": 4.0, "SF_15": 4.0, "cnty": "Madison", "st": "VA", "Zip": 22709.0, "O_14": 5.0, "Q_15": 5.0, "O_15": 5.0, "city": "ARODA", "beds": 40.0, "SR_15": 4.0}, {"Diff_star": 0.0, "addr": "PO BOX 558", "SR_14": 2.0, "Q_14": 4.0, "name": "SKYLINE TERRACE CONV HOME", "SF_14": 4.0, "SF_15": 4.0, "cnty": "Shenandoah", "st": "VA", "Zip": 22664.0, "O_14": 3.0, "Q_15": 3.0, "O_15": 3.0, "city": "WOODSTOCK", "beds": 70.0, "SR_15": 2.0}, {"Diff_star": 0.0, "addr": "11 NORTH BROAD ST", "SR_14": 5.0, "Q_14": 5.0, "name": "SNYDER NURSING HOME", "SF_14": 5.0, "SF_15": 5.0, "cnty": "Salem City", "st": "VA", "Zip": 24153.0, "O_14": 5.0, "Q_15": 5.0, "O_15": 5.0, "city": "SALEM", "beds": 45.0, "SR_15": 5.0}, {"Diff_star": -1.0, "addr": "1101 HAMPTON ST", "SR_14": 4.0, "Q_14": 5.0, "name": "VIRGINIA HOME", "SF_14": 2.0, "SF_15": 2.0, "cnty": "Richmond City", "st": "VA", "Zip": 23220.0, "O_14": 5.0, "Q_15": 4.0, "O_15": 4.0, "city": "RICHMOND", "beds": 130.0, "SR_15": 4.0}, {"Diff_star": 0.0, "addr": "PO BOX 70", "SR_14": 1.0, "Q_14": 5.0, "name": "MIZPAH HEALTH CARE CENTER", "SF_14": 4.0, "SF_15": 4.0, "cnty": "Middlesex", "st": "VA", "Zip": 23092.0, "O_14": 2.0, "Q_15": 5.0, "O_15": 2.0, "city": "LOCUST HILL", "beds": 64.0, "SR_15": 1.0}, {"Diff_star": -1.0, "addr": "340 BAGLEY CIRCLE", "SR_14": 4.0, "Q_14": 5.0, "name": "SW VA M H INST GERI TRT CTR", "SF_14": "", "SF_15": "", "cnty": "Smyth", "st": "VA", "Zip": 24354.0, "O_14": 5.0, "Q_15": 4.0, "O_15": 4.0, "city": "MARION", "beds": 25.0, "SR_15": 4.0}, {"Diff_star": 0.0, "addr": "1503 MICHAEL ROAD", "SR_14": 3.0, "Q_14": 4.0, "name": "LITTLE SISTERS OF THE POOR", "SF_14": 5.0, "SF_15": 5.0, "cnty": "Henrico", "st": "VA", "Zip": 23229.0, "O_14": 4.0, "Q_15": 4.0, "O_15": 4.0, "city": "RICHMOND", "beds": 32.0, "SR_15": 3.0}, {"Diff_star": -1.0, "addr": "PO BOX 303 US 17", "SR_14": 3.0, "Q_14": 5.0, "name": "RIVERSIDE CONVAL CENTER-SALUDA", "SF_14": 2.0, "SF_15": 3.0, "cnty": "Middlesex", "st": "VA", "Zip": 23149.0, "O_14": 4.0, "Q_15": 4.0, "O_15": 3.0, "city": "SALUDA", "beds": 60.0, "SR_15": 3.0}, {"Diff_star": 0.0, "addr": "PO BOX 370", "SR_14": 4.0, "Q_14": 5.0, "name": "RIVERSIDE CONVAL CENTER-MATHEW", "SF_14": 2.0, "SF_15": 2.0, "cnty": "Mathews", "st": "VA", "Zip": 23109.0, "O_14": 5.0, "Q_15": 5.0, "O_15": 5.0, "city": "MATHEWS", "beds": 60.0, "SR_15": 4.0}, {"Diff_star": 0.0, "addr": "4560 PRINCESS ANNE ROAD", "SR_14": 4.0, "Q_14": 3.0, "name": "OUR LADY OF PERPETUAL HELP", "SF_14": 4.0, "SF_15": 4.0, "cnty": "Virginia Beach City", "st": "VA", "Zip": 23462.0, "O_14": 4.0, "Q_15": 2.0, "O_15": 4.0, "city": "VIRGINIA BEACH", "beds": 30.0, "SR_15": 4.0}]