[{"Diff_star": -1.0, "addr": "600 S WEBSTER AVE", "SR_14": 3.0, "Q_14": 2.0, "name": "MANORCARE HEALTH SERVICES-EAST", "SF_14": 4.0, "SF_15": 3.0, "cnty": "Brown", "st": "WI", "Zip": 54301.0, "O_14": 4.0, "Q_15": 2.0, "O_15": 3.0, "city": "GREEN BAY", "beds": 79.0, "SR_15": 3.0}, {"Diff_star": 0.0, "addr": "575 HOSPITAL RD", "SR_14": 2.0, "Q_14": 4.0, "name": "DEERFIELD CARE CENTER, LLC", "SF_14": 5.0, "SF_15": 5.0, "cnty": "St. Croix", "st": "WI", "Zip": 54017.0, "O_14": 3.0, "Q_15": 4.0, "O_15": 3.0, "city": "NEW RICHMOND", "beds": 61.0, "SR_15": 2.0}, {"Diff_star": -1.0, "addr": "321 RIVERSIDE DR", "SR_14": 2.0, "Q_14": 5.0, "name": "RIVER HILLS WEST HEALTH CARE CENTER", "SF_14": 4.0, "SF_15": 3.0, "cnty": "Waukesha", "st": "WI", "Zip": 53072.0, "O_14": 4.0, "Q_15": 5.0, "O_15": 3.0, "city": "PEWAUKEE", "beds": 175.0, "SR_15": 2.0}, {"Diff_star": 0.0, "addr": "4325 NAKOMA RD", "SR_14": 2.0, "Q_14": 4.0, "name": "SUNNY HILL HEALTH CARE CTR", "SF_14": 2.0, "SF_15": 2.0, "cnty": "Dane", "st": "WI", "Zip": 53711.0, "O_14": 2.0, "Q_15": 4.0, "O_15": 2.0, "city": "MADISON", "beds": 68.0, "SR_15": 2.0}, {"Diff_star": -1.0, "addr": "1700 C A BECKER DR", "SR_14": 3.0, "Q_14": 4.0, "name": "LINCOLN VILLAGE CONV CTR", "SF_14": 4.0, "SF_15": 3.0, "cnty": "Racine", "st": "WI", "Zip": 53406.0, "O_14": 4.0, "Q_15": 4.0, "O_15": 3.0, "city": "RACINE", "beds": 122.0, "SR_15": 3.0}, {"Diff_star": 0.0, "addr": "13755 W FIELDPOINTE DR", "SR_14": 4.0, "Q_14": 4.0, "name": "LINDENGROVE NEW BERLIN", "SF_14": 4.0, "SF_15": 4.0, "cnty": "Waukesha", "st": "WI", "Zip": 53151.0, "O_14": 4.0, "Q_15": 3.0, "O_15": 4.0, "city": "NEW BERLIN", "beds": 131.0, "SR_15": 4.0}, {"Diff_star": 0.0, "addr": "8615 W BELOIT RD", "SR_14": 4.0, "Q_14": 4.0, "name": "MAPLEWOOD CENTER", "SF_14": 5.0, "SF_15": 5.0, "cnty": "Milwaukee", "st": "WI", "Zip": 53227.0, "O_14": 5.0, "Q_15": 4.0, "O_15": 5.0, "city": "WEST ALLIS", "beds": 150.0, "SR_15": 4.0}, {"Diff_star": 0.0, "addr": "4502 MILWAUKEE ST", "SR_14": 1.0, "Q_14": 5.0, "name": "KARMENTA CENTER", "SF_14": 4.0, "SF_15": 4.0, "cnty": "Dane", "st": "WI", "Zip": 53714.0, "O_14": 2.0, "Q_15": 5.0, "O_15": 2.0, "city": "MADISON", "beds": 105.0, "SR_15": 1.0}, {"Diff_star": 0.0, "addr": "110 BELMONT RD", "SR_14": 2.0, "Q_14": 5.0, "name": "BELMONT NURSING AND REHAB CTR", "SF_14": 2.0, "SF_15": 2.0, "cnty": "Dane", "st": "WI", "Zip": 53714.0, "O_14": 3.0, "Q_15": 5.0, "O_15": 3.0, "city": "MADISON", "beds": 90.0, "SR_15": 2.0}, {"Diff_star": 0.0, "addr": "2505 E BRADFORD AVE", "SR_14": 1.0, "Q_14": 5.0, "name": "EASTCASTLE PL BRADFORD TER CONV CTR", "SF_14": 5.0, "SF_15": 5.0, "cnty": "Milwaukee", "st": "WI", "Zip": 53211.0, "O_14": 2.0, "Q_15": 5.0, "O_15": 2.0, "city": "MILWAUKEE", "beds": 40.0, "SR_15": 1.0}, {"Diff_star": 0.0, "addr": "1351 WISCONSIN RIVER DR", "SR_14": 3.0, "Q_14": 4.0, "name": "EDGEWATER HAVEN NURSING HOME", "SF_14": 5.0, "SF_15": 5.0, "cnty": "Wood", "st": "WI", "Zip": 54469.0, "O_14": 4.0, "Q_15": 3.0, "O_15": 4.0, "city": "PORT EDWARDS", "beds": 90.0, "SR_15": 3.0}, {"Diff_star": 0.0, "addr": "801 KLEIN DR", "SR_14": 3.0, "Q_14": 4.0, "name": "WAUNAKEE MNR HLTH CARE CTR", "SF_14": 3.0, "SF_15": 3.0, "cnty": "Dane", "st": "WI", "Zip": 53597.0, "O_14": 3.0, "Q_15": 2.0, "O_15": 3.0, "city": "WAUNAKEE", "beds": 104.0, "SR_15": 3.0}, {"Diff_star": 0.0, "addr": "9047 W GREENFIELD AVE", "SR_14": 3.0, "Q_14": 5.0, "name": "ALLIS CARE CENTER", "SF_14": 1.0, "SF_15": 1.0, "cnty": "Milwaukee", "st": "WI", "Zip": 53214.0, "O_14": 3.0, "Q_15": 5.0, "O_15": 3.0, "city": "WEST ALLIS", "beds": 152.0, "SR_15": 3.0}, {"Diff_star": 0.0, "addr": "1051 CLARK ST", "SR_14": 5.0, "Q_14": 5.0, "name": "SAUK CO HEALTH CARE CENTER", "SF_14": 5.0, "SF_15": 5.0, "cnty": "Sauk", "st": "WI", "Zip": 53959.0, "O_14": 5.0, "Q_15": 5.0, "O_15": 5.0, "city": "REEDSBURG", "beds": 82.0, "SR_15": 5.0}, {"Diff_star": 0.0, "addr": "1703 60TH ST", "SR_14": 1.0, "Q_14": 2.0, "name": "KENOSHA ESTATES REHAB AND CARE CENTER", "SF_14": 2.0, "SF_15": 2.0, "cnty": "Kenosha", "st": "WI", "Zip": 53140.0, "O_14": 1.0, "Q_15": 1.0, "O_15": 1.0, "city": "KENOSHA", "beds": 97.0, "SR_15": 1.0}, {"Diff_star": 0.0, "addr": "1100 LAKE VIEW DR", "SR_14": 2.0, "Q_14": 5.0, "name": "NORTH CENTRAL HEALTH CARE", "SF_14": 4.0, "SF_15": 4.0, "cnty": "Marathon", "st": "WI", "Zip": 54403.0, "O_14": 4.0, "Q_15": 5.0, "O_15": 4.0, "city": "WAUSAU", "beds": 240.0, "SR_15": 2.0}, {"Diff_star": -1.0, "addr": "531 E WASHINGTON ST", "SR_14": 4.0, "Q_14": 5.0, "name": "SAMARITAN HEALTH CENTER", "SF_14": 4.0, "SF_15": 3.0, "cnty": "Washington", "st": "WI", "Zip": 53095.0, "O_14": 5.0, "Q_15": 4.0, "O_15": 4.0, "city": "WEST BEND", "beds": 131.0, "SR_15": 4.0}, {"Diff_star": 0.0, "addr": "1414 N PROSPECT AVE", "SR_14": 5.0, "Q_14": 4.0, "name": "JEWISH HOME AND CARE CENTER", "SF_14": 3.0, "SF_15": 3.0, "cnty": "Milwaukee", "st": "WI", "Zip": 53202.0, "O_14": 5.0, "Q_15": 4.0, "O_15": 5.0, "city": "MILWAUKEE", "beds": 160.0, "SR_15": 5.0}, {"Diff_star": 0.0, "addr": "3100 WASHINGTON RD", "SR_14": 3.0, "Q_14": 4.0, "name": "MANORCARE HEALTH SERVICES-KENOSHA", "SF_14": 2.0, "SF_15": 2.0, "cnty": "Kenosha", "st": "WI", "Zip": 53144.0, "O_14": 3.0, "Q_15": 2.0, "O_15": 3.0, "city": "KENOSHA", "beds": 153.0, "SR_15": 3.0}, {"Diff_star": 1.0, "addr": "713 N LEONARD ST  PO BOX 850", "SR_14": 1.0, "Q_14": 5.0, "name": "MULDER HEALTH CARE FACILITY", "SF_14": 4.0, "SF_15": 5.0, "cnty": "La Crosse", "st": "WI", "Zip": 54669.0, "O_14": 2.0, "Q_15": 4.0, "O_15": 3.0, "city": "WEST SALEM", "beds": 93.0, "SR_15": 2.0}, {"Diff_star": 0.0, "addr": "1350 RIVER RUN DR", "SR_14": 1.0, "Q_14": 4.0, "name": "WISCONSIN RAPIDS NURSING AND REHAB CENTER", "SF_14": 3.0, "SF_15": 3.0, "cnty": "Wood", "st": "WI", "Zip": 54494.0, "O_14": 1.0, "Q_15": 4.0, "O_15": 1.0, "city": "WISCONSIN RAPIDS", "beds": 114.0, "SR_15": 1.0}, {"Diff_star": -1.0, "addr": "1300 N WATER ST", "SR_14": 2.0, "Q_14": 5.0, "name": "MANORCARE HEALTH SERVICES-PLATTEVILLE", "SF_14": 3.0, "SF_15": 3.0, "cnty": "Grant", "st": "WI", "Zip": 53818.0, "O_14": 3.0, "Q_15": 4.0, "O_15": 2.0, "city": "PLATTEVILLE", "beds": 99.0, "SR_15": 2.0}, {"Diff_star": -1.0, "addr": "1760 SHAWANO AVE", "SR_14": 4.0, "Q_14": 4.0, "name": "MANORCARE HEALTH SERVICES-WEST", "SF_14": 3.0, "SF_15": 3.0, "cnty": "Brown", "st": "WI", "Zip": 54303.0, "O_14": 4.0, "Q_15": 3.0, "O_15": 3.0, "city": "GREEN BAY", "beds": 105.0, "SR_15": 3.0}, {"Diff_star": 0.0, "addr": "313 STOUGHTON RD", "SR_14": 3.0, "Q_14": 3.0, "name": "EDGERTON CARE CENTER, INC", "SF_14": 4.0, "SF_15": 4.0, "cnty": "Rock", "st": "WI", "Zip": 53534.0, "O_14": 4.0, "Q_15": 2.0, "O_15": 4.0, "city": "EDGERTON", "beds": 61.0, "SR_15": 3.0}, {"Diff_star": 0.0, "addr": "1810 KENSINGTON DR", "SR_14": 1.0, "Q_14": 4.0, "name": "WAUKESHA SPRINGS HLTH REHAB", "SF_14": 3.0, "SF_15": 3.0, "cnty": "Waukesha", "st": "WI", "Zip": 53188.0, "O_14": 1.0, "Q_15": 3.0, "O_15": 1.0, "city": "WAUKESHA", "beds": 150.0, "SR_15": 1.0}, {"Diff_star": -2.0, "addr": "430 WILCOX ST", "SR_14": 4.0, "Q_14": 5.0, "name": "GOLDEN LIVINGCENTER-FORT ATKINSON", "SF_14": 4.0, "SF_15": 3.0, "cnty": "Jefferson", "st": "WI", "Zip": 53538.0, "O_14": 5.0, "Q_15": 5.0, "O_15": 3.0, "city": "FORT ATKINSON", "beds": 87.0, "SR_15": 2.0}, {"Diff_star": 0.0, "addr": "1335 S ONEIDA ST", "SR_14": 3.0, "Q_14": 4.0, "name": "MANORCARE HEALTH SERVICES", "SF_14": 3.0, "SF_15": 3.0, "cnty": "Outagamie", "st": "WI", "Zip": 54915.0, "O_14": 3.0, "Q_15": 4.0, "O_15": 3.0, "city": "APPLETON", "beds": 104.0, "SR_15": 3.0}, {"Diff_star": -1.0, "addr": "2501 SHELBY RD", "SR_14": 3.0, "Q_14": 3.0, "name": "BETHANY ST JOSEPH CARE CTR", "SF_14": 4.0, "SF_15": 4.0, "cnty": "La Crosse", "st": "WI", "Zip": 54601.0, "O_14": 4.0, "Q_15": 1.0, "O_15": 3.0, "city": "LA CROSSE", "beds": 140.0, "SR_15": 3.0}, {"Diff_star": 0.0, "addr": "718 JUPITER DRIVE", "SR_14": 2.0, "Q_14": 4.0, "name": "OAK PARK NURSING AND REHAB CTR", "SF_14": 4.0, "SF_15": 4.0, "cnty": "Dane", "st": "WI", "Zip": 53718.0, "O_14": 3.0, "Q_15": 4.0, "O_15": 3.0, "city": "MADISON", "beds": 100.0, "SR_15": 2.0}, {"Diff_star": 0.0, "addr": "115 E ARNDT ST", "SR_14": 3.0, "Q_14": 5.0, "name": "ALL ABOUT LIFE REHAB CTR", "SF_14": 4.0, "SF_15": 4.0, "cnty": "Fond Du Lac", "st": "WI", "Zip": 54935.0, "O_14": 5.0, "Q_15": 5.0, "O_15": 5.0, "city": "FOND DU LAC", "beds": 125.0, "SR_15": 3.0}, {"Diff_star": -1.0, "addr": "1130 COLLINS ROAD", "SR_14": 2.0, "Q_14": 5.0, "name": "ALDEN ESTATES OF COUNTRYSIDE, INC", "SF_14": 3.0, "SF_15": 3.0, "cnty": "Jefferson", "st": "WI", "Zip": 53549.0, "O_14": 3.0, "Q_15": 4.0, "O_15": 2.0, "city": "JEFFERSON", "beds": 120.0, "SR_15": 2.0}, {"Diff_star": 0.0, "addr": "1905 W HART RD", "SR_14": 1.0, "Q_14": 4.0, "name": "BELOIT HEALTH AND REHAB CTR", "SF_14": 4.0, "SF_15": 4.0, "cnty": "Rock", "st": "WI", "Zip": 53511.0, "O_14": 2.0, "Q_15": 3.0, "O_15": 2.0, "city": "BELOIT", "beds": 152.0, "SR_15": 1.0}, {"Diff_star": 0.0, "addr": "265 S NATIONAL AVE", "SR_14": 3.0, "Q_14": 5.0, "name": "MANORCARE HEALTH SERVICES", "SF_14": 4.0, "SF_15": 4.0, "cnty": "Fond Du Lac", "st": "WI", "Zip": 54935.0, "O_14": 5.0, "Q_15": 5.0, "O_15": 5.0, "city": "FOND DU LAC", "beds": 108.0, "SR_15": 3.0}, {"Diff_star": 0.0, "addr": "3401 MAPLE GROVE DR", "SR_14": 2.0, "Q_14": 4.0, "name": "ST MARYS CARE CENTER", "SF_14": 5.0, "SF_15": 5.0, "cnty": "Dane", "st": "WI", "Zip": 53719.0, "O_14": 3.0, "Q_15": 3.0, "O_15": 3.0, "city": "MADISON", "beds": 184.0, "SR_15": 2.0}, {"Diff_star": 0.0, "addr": "S77 W12929 MCSHANE DR", "SR_14": 3.0, "Q_14": 5.0, "name": "TUDOR OAKS HEALTH CENTER", "SF_14": 5.0, "SF_15": 5.0, "cnty": "Waukesha", "st": "WI", "Zip": 53150.0, "O_14": 5.0, "Q_15": 5.0, "O_15": 5.0, "city": "MUSKEGO", "beds": 61.0, "SR_15": 3.0}, {"Diff_star": -1.0, "addr": "3415 N SHERIDAN RD", "SR_14": 2.0, "Q_14": 2.0, "name": "WATERS EDGE REHABILITATION AND CARE CENTER", "SF_14": 4.0, "SF_15": 3.0, "cnty": "Kenosha", "st": "WI", "Zip": 53140.0, "O_14": 3.0, "Q_15": 2.0, "O_15": 2.0, "city": "KENOSHA", "beds": 159.0, "SR_15": 2.0}, {"Diff_star": 0.0, "addr": "8633 32ND AVE", "SR_14": 1.0, "Q_14": 5.0, "name": "HOSPITALITY NUR REHAB CTR", "SF_14": 4.0, "SF_15": 4.0, "cnty": "Kenosha", "st": "WI", "Zip": 53142.0, "O_14": 2.0, "Q_15": 3.0, "O_15": 2.0, "city": "KENOSHA", "beds": 133.0, "SR_15": 1.0}, {"Diff_star": 0.0, "addr": "169 E HURON ST", "SR_14": 2.0, "Q_14": 4.0, "name": "JULIETTE MANOR", "SF_14": 5.0, "SF_15": 5.0, "cnty": "Green Lake", "st": "WI", "Zip": 54923.0, "O_14": 3.0, "Q_15": 4.0, "O_15": 3.0, "city": "BERLIN", "beds": 45.0, "SR_15": 2.0}, {"Diff_star": 0.0, "addr": "8800 HWY 61", "SR_14": 1.0, "Q_14": 3.0, "name": "ORCHARD MANOR", "SF_14": 5.0, "SF_15": 5.0, "cnty": "Grant", "st": "WI", "Zip": 53813.0, "O_14": 2.0, "Q_15": 2.0, "O_15": 2.0, "city": "LANCASTER", "beds": 121.0, "SR_15": 1.0}, {"Diff_star": 0.0, "addr": "516 26TH AVE", "SR_14": 1.0, "Q_14": 3.0, "name": "MONROE MANOR NUR REHAB", "SF_14": 4.0, "SF_15": 4.0, "cnty": "Green", "st": "WI", "Zip": 53566.0, "O_14": 2.0, "Q_15": 3.0, "O_15": 2.0, "city": "MONROE", "beds": 74.0, "SR_15": 1.0}, {"Diff_star": 0.0, "addr": "1850 BOWEN ST", "SR_14": 1.0, "Q_14": 3.0, "name": "NORTHPOINT MEDICAL AND REHAB CTR", "SF_14": 4.0, "SF_15": 4.0, "cnty": "Winnebago", "st": "WI", "Zip": 54901.0, "O_14": 2.0, "Q_15": 2.0, "O_15": 2.0, "city": "OSHKOSH", "beds": 120.0, "SR_15": 1.0}, {"Diff_star": 1.0, "addr": "814 W 14TH ST", "SR_14": 1.0, "Q_14": 3.0, "name": "MARSHFIELD CARE CENTER", "SF_14": 4.0, "SF_15": 4.0, "cnty": "Wood", "st": "WI", "Zip": 54449.0, "O_14": 2.0, "Q_15": 2.0, "O_15": 3.0, "city": "MARSHFIELD", "beds": 120.0, "SR_15": 2.0}, {"Diff_star": 0.0, "addr": "333 W MAIN ST", "SR_14": 1.0, "Q_14": 4.0, "name": "CAPITOL LAKES HEALTH CENTER", "SF_14": 4.0, "SF_15": 4.0, "cnty": "Dane", "st": "WI", "Zip": 53703.0, "O_14": 2.0, "Q_15": 3.0, "O_15": 2.0, "city": "MADISON", "beds": 85.0, "SR_15": 1.0}, {"Diff_star": 0.0, "addr": "200 N SEVENTH AVE", "SR_14": 3.0, "Q_14": 3.0, "name": "GOLDEN LIVINGCENTER-DORCHESTER", "SF_14": 3.0, "SF_15": 3.0, "cnty": "Door", "st": "WI", "Zip": 54235.0, "O_14": 3.0, "Q_15": 2.0, "O_15": 3.0, "city": "STURGEON BAY", "beds": 120.0, "SR_15": 3.0}, {"Diff_star": -2.0, "addr": "2961 ST ANTHONY DR", "SR_14": 2.0, "Q_14": 5.0, "name": "PARKVIEW MNR HLTH REHAB CTR", "SF_14": 3.0, "SF_15": 3.0, "cnty": "Brown", "st": "WI", "Zip": 54311.0, "O_14": 3.0, "Q_15": 4.0, "O_15": 1.0, "city": "GREEN BAY", "beds": 136.0, "SR_15": 1.0}, {"Diff_star": 0.0, "addr": "1616 W BENDER RD", "SR_14": 1.0, "Q_14": 4.0, "name": "GOLDEN LIVINGCENTER-COLONIAL MNR", "SF_14": 3.0, "SF_15": 3.0, "cnty": "Milwaukee", "st": "WI", "Zip": 53209.0, "O_14": 1.0, "Q_15": 3.0, "O_15": 1.0, "city": "GLENDALE", "beds": 141.0, "SR_15": 1.0}, {"Diff_star": 0.0, "addr": "41 RICKEL RD", "SR_14": 1.0, "Q_14": 4.0, "name": "THE WILLOWS NURSING AND REHAB", "SF_14": 3.0, "SF_15": 3.0, "cnty": "Dane", "st": "WI", "Zip": 53590.0, "O_14": 1.0, "Q_15": 3.0, "O_15": 1.0, "city": "SUN PRAIRIE", "beds": 57.0, "SR_15": 1.0}, {"Diff_star": 0.0, "addr": "901 MULBERRY ST", "SR_14": 4.0, "Q_14": 5.0, "name": "WILLOWBROOK NURSING AND REHAB", "SF_14": 4.0, "SF_15": 4.0, "cnty": "Jefferson", "st": "WI", "Zip": 53551.0, "O_14": 5.0, "Q_15": 5.0, "O_15": 5.0, "city": "LAKE MILLS", "beds": 57.0, "SR_15": 4.0}, {"Diff_star": 0.0, "addr": "717 E ALFRED ST", "SR_14": 4.0, "Q_14": 5.0, "name": "WEYAUWEGA HEALTH CARE CTR", "SF_14": 4.0, "SF_15": 3.0, "cnty": "Waupaca", "st": "WI", "Zip": 54983.0, "O_14": 5.0, "Q_15": 5.0, "O_15": 5.0, "city": "WEYAUWEGA", "beds": 60.0, "SR_15": 4.0}, {"Diff_star": 0.0, "addr": "400 EAST 4TH ST", "SR_14": 1.0, "Q_14": 5.0, "name": "MANAWA COM NUR CTR", "SF_14": 5.0, "SF_15": 5.0, "cnty": "Waupaca", "st": "WI", "Zip": 54949.0, "O_14": 2.0, "Q_15": 4.0, "O_15": 2.0, "city": "MANAWA", "beds": 15.0, "SR_15": 1.0}, {"Diff_star": 0.0, "addr": "1414 JEFFERSON ST", "SR_14": 2.0, "Q_14": 5.0, "name": "ST CLARE MEADOWS CARE CTR", "SF_14": 3.0, "SF_15": 3.0, "cnty": "Sauk", "st": "WI", "Zip": 53913.0, "O_14": 3.0, "Q_15": 5.0, "O_15": 3.0, "city": "BARABOO", "beds": 102.0, "SR_15": 2.0}, {"Diff_star": 0.0, "addr": "8400 SHERIDAN RD", "SR_14": 2.0, "Q_14": 4.0, "name": "SHERIDAN MEDICAL COMPLEX", "SF_14": 3.0, "SF_15": 3.0, "cnty": "Kenosha", "st": "WI", "Zip": 53143.0, "O_14": 2.0, "Q_15": 3.0, "O_15": 2.0, "city": "KENOSHA", "beds": 96.0, "SR_15": 2.0}, {"Diff_star": -1.0, "addr": "2115 E WOODSTOCK PL", "SR_14": 1.0, "Q_14": 4.0, "name": "LAKE TERRACE HEALTH AND REHABILITATION CENTER", "SF_14": 4.0, "SF_15": 3.0, "cnty": "Milwaukee", "st": "WI", "Zip": 53202.0, "O_14": 2.0, "Q_15": 1.0, "O_15": 1.0, "city": "MILWAUKEE", "beds": 196.0, "SR_15": 2.0}, {"Diff_star": 0.0, "addr": "1000 N WISCONSIN AVE", "SR_14": 1.0, "Q_14": 5.0, "name": "GOLDEN LIVINGCENTER-RIVERDALE", "SF_14": 1.0, "SF_15": 1.0, "cnty": "Grant", "st": "WI", "Zip": 53573.0, "O_14": 2.0, "Q_15": 5.0, "O_15": 2.0, "city": "MUSCODA", "beds": 58.0, "SR_15": 1.0}, {"Diff_star": -1.0, "addr": "905 E GENEVA ST", "SR_14": 4.0, "Q_14": 5.0, "name": "WILLOWFIELD NURSING AND REHAB", "SF_14": 2.0, "SF_15": 2.0, "cnty": "Walworth", "st": "WI", "Zip": 53115.0, "O_14": 5.0, "Q_15": 4.0, "O_15": 4.0, "city": "DELAVAN", "beds": 61.0, "SR_15": 4.0}, {"Diff_star": 0.0, "addr": "6735 W BRADLEY RD", "SR_14": 1.0, "Q_14": 5.0, "name": "VILLA AT BRADLEY ESTATES (THE)", "SF_14": 4.0, "SF_15": 4.0, "cnty": "Milwaukee", "st": "WI", "Zip": 53223.0, "O_14": 2.0, "Q_15": 4.0, "O_15": 2.0, "city": "MILWAUKEE", "beds": 198.0, "SR_15": 1.0}, {"Diff_star": 0.0, "addr": "2100 E SIXTH ST", "SR_14": 2.0, "Q_14": 4.0, "name": "PINE CREST NURSING HOME", "SF_14": 4.0, "SF_15": 4.0, "cnty": "Lincoln", "st": "WI", "Zip": 54452.0, "O_14": 3.0, "Q_15": 4.0, "O_15": 3.0, "city": "MERRILL", "beds": 180.0, "SR_15": 2.0}, {"Diff_star": 0.0, "addr": "3939 S 92ND ST", "SR_14": 5.0, "Q_14": 5.0, "name": "CLEMENT MANOR HEALTH CARE CENTER", "SF_14": 5.0, "SF_15": 5.0, "cnty": "Milwaukee", "st": "WI", "Zip": 53228.0, "O_14": 5.0, "Q_15": 5.0, "O_15": 5.0, "city": "GREENFIELD", "beds": 154.0, "SR_15": 5.0}, {"Diff_star": 0.0, "addr": "911 3RD ST  WEST", "SR_14": 5.0, "Q_14": 4.0, "name": "GOLDEN LIVINGCENTER-COURT MANOR", "SF_14": 3.0, "SF_15": 3.0, "cnty": "Ashland", "st": "WI", "Zip": 54806.0, "O_14": 5.0, "Q_15": 3.0, "O_15": 5.0, "city": "ASHLAND", "beds": 105.0, "SR_15": 5.0}, {"Diff_star": 0.0, "addr": "650 PEARL ST  PO BOX 308", "SR_14": 2.0, "Q_14": 5.0, "name": "GOLDEN LIVINGCENTER-RIB LAKE", "SF_14": 4.0, "SF_15": 4.0, "cnty": "Taylor", "st": "WI", "Zip": 54470.0, "O_14": 4.0, "Q_15": 5.0, "O_15": 4.0, "city": "RIB LAKE", "beds": 60.0, "SR_15": 2.0}, {"Diff_star": 0.0, "addr": "6201 ELMWOOD AVE", "SR_14": 1.0, "Q_14": 4.0, "name": "VILLA AT MIDDLETON VILLAGE (THE)", "SF_14": 3.0, "SF_15": 3.0, "cnty": "Dane", "st": "WI", "Zip": 53562.0, "O_14": 1.0, "Q_15": 2.0, "O_15": 1.0, "city": "MIDDLETON", "beds": 97.0, "SR_15": 1.0}, {"Diff_star": 0.0, "addr": "407 N EIGHTH ST", "SR_14": 3.0, "Q_14": 5.0, "name": "INGLESIDE MANOR", "SF_14": 4.0, "SF_15": 4.0, "cnty": "Dane", "st": "WI", "Zip": 53572.0, "O_14": 5.0, "Q_15": 5.0, "O_15": 5.0, "city": "MOUNT HOREB", "beds": 100.0, "SR_15": 3.0}, {"Diff_star": 1.0, "addr": "428 N 6TH ST", "SR_14": 3.0, "Q_14": 4.0, "name": "GOLDEN LIVINGCENTER-RIVERVIEW", "SF_14": 2.0, "SF_15": 2.0, "cnty": "Lincoln", "st": "WI", "Zip": 54487.0, "O_14": 3.0, "Q_15": 5.0, "O_15": 4.0, "city": "TOMAHAWK", "beds": 61.0, "SR_15": 3.0}, {"Diff_star": 0.0, "addr": "121 HOSPITAL DR", "SR_14": 2.0, "Q_14": 5.0, "name": "GOLDEN LIVINGCENTER-WATERTOWN", "SF_14": 3.0, "SF_15": 3.0, "cnty": "Dodge", "st": "WI", "Zip": 53098.0, "O_14": 3.0, "Q_15": 5.0, "O_15": 3.0, "city": "WATERTOWN", "beds": 112.0, "SR_15": 2.0}, {"Diff_star": 0.0, "addr": "720 E KINGS RD", "SR_14": 1.0, "Q_14": 3.0, "name": "GOLDEN LIVINGCENTER-GOLDEN AGE", "SF_14": 2.0, "SF_15": 2.0, "cnty": "Lincoln", "st": "WI", "Zip": 54487.0, "O_14": 1.0, "Q_15": 2.0, "O_15": 1.0, "city": "TOMAHAWK", "beds": 83.0, "SR_15": 1.0}, {"Diff_star": 0.0, "addr": "1436 S LINCOLN ST", "SR_14": 3.0, "Q_14": 5.0, "name": "MANORCARE HEALTH SERVICES-SHAWANO", "SF_14": 3.0, "SF_15": 3.0, "cnty": "Shawano", "st": "WI", "Zip": 54166.0, "O_14": 4.0, "Q_15": 5.0, "O_15": 4.0, "city": "SHAWANO", "beds": 100.0, "SR_15": 3.0}, {"Diff_star": -1.0, "addr": "810 MEMORIAL DR", "SR_14": 5.0, "Q_14": 5.0, "name": "CHILTON CARE CENTER", "SF_14": 1.0, "SF_15": 3.0, "cnty": "Calumet", "st": "WI", "Zip": 53014.0, "O_14": 5.0, "Q_15": 5.0, "O_15": 4.0, "city": "CHILTON", "beds": 60.0, "SR_15": 3.0}, {"Diff_star": -1.0, "addr": "N7135 ROCKY KNOLL PARKWAY", "SR_14": 2.0, "Q_14": 5.0, "name": "ROCKY KNOLL HEALTH CARE", "SF_14": 4.0, "SF_15": 3.0, "cnty": "Sheboygan", "st": "WI", "Zip": 53073.0, "O_14": 4.0, "Q_15": 5.0, "O_15": 3.0, "city": "PLYMOUTH", "beds": 155.0, "SR_15": 2.0}, {"Diff_star": 0.0, "addr": "410 ROEDL CT", "SR_14": 1.0, "Q_14": 4.0, "name": "GOLDEN LIVINGCENTER-BEAVER DAM", "SF_14": 2.0, "SF_15": 2.0, "cnty": "Dodge", "st": "WI", "Zip": 53916.0, "O_14": 1.0, "Q_15": 3.0, "O_15": 1.0, "city": "BEAVER DAM", "beds": 90.0, "SR_15": 1.0}, {"Diff_star": 0.0, "addr": "1401 CHURCHILL ST", "SR_14": 2.0, "Q_14": 5.0, "name": "CRYSTAL RIVER NURSING AND REHAB", "SF_14": 4.0, "SF_15": 4.0, "cnty": "Waupaca", "st": "WI", "Zip": 54981.0, "O_14": 4.0, "Q_15": 5.0, "O_15": 4.0, "city": "WAUPACA", "beds": 74.0, "SR_15": 2.0}, {"Diff_star": -1.0, "addr": "1640 SHAWANO AVE", "SR_14": 2.0, "Q_14": 5.0, "name": "GOLDEN LIVINGCENTER-VILLAGE GARDENS", "SF_14": 3.0, "SF_15": 3.0, "cnty": "Brown", "st": "WI", "Zip": 54303.0, "O_14": 3.0, "Q_15": 4.0, "O_15": 2.0, "city": "GREEN BAY", "beds": 125.0, "SR_15": 2.0}, {"Diff_star": -1.0, "addr": "1250 EVERGREEN ST", "SR_14": 3.0, "Q_14": 5.0, "name": "EVERGREEN CARE CENTER", "SF_14": 3.0, "SF_15": 3.0, "cnty": "Shawano", "st": "WI", "Zip": 54166.0, "O_14": 4.0, "Q_15": 4.0, "O_15": 3.0, "city": "SHAWANO", "beds": 50.0, "SR_15": 3.0}, {"Diff_star": 0.0, "addr": "146 CLOVER ST", "SR_14": 4.0, "Q_14": 5.0, "name": "WILLIAMS BAY CARE CENTER", "SF_14": 2.0, "SF_15": 2.0, "cnty": "Walworth", "st": "WI", "Zip": 53191.0, "O_14": 5.0, "Q_15": 5.0, "O_15": 5.0, "city": "WILLIAMS BAY", "beds": 62.0, "SR_15": 4.0}, {"Diff_star": 0.0, "addr": "70 GREENTREE RD", "SR_14": 2.0, "Q_14": 5.0, "name": "GREENTREE HEALTH AND REHAB CTR", "SF_14": 2.0, "SF_15": 2.0, "cnty": "Waupaca", "st": "WI", "Zip": 54929.0, "O_14": 3.0, "Q_15": 5.0, "O_15": 3.0, "city": "CLINTONVILLE", "beds": 60.0, "SR_15": 2.0}, {"Diff_star": 0.0, "addr": "702 W DOLF ST", "SR_14": 3.0, "Q_14": 3.0, "name": "COLONIAL CENTER", "SF_14": 3.0, "SF_15": 3.0, "cnty": "Clark", "st": "WI", "Zip": 54421.0, "O_14": 3.0, "Q_15": 2.0, "O_15": 3.0, "city": "COLBY", "beds": 95.0, "SR_15": 3.0}, {"Diff_star": -1.0, "addr": "201 PARK ST, PO BOX 130", "SR_14": 2.0, "Q_14": 5.0, "name": "VILLA PINES LIVING CENTER", "SF_14": 3.0, "SF_15": 3.0, "cnty": "Adams", "st": "WI", "Zip": 53934.0, "O_14": 3.0, "Q_15": 4.0, "O_15": 2.0, "city": "FRIENDSHIP", "beds": 85.0, "SR_15": 2.0}, {"Diff_star": -1.0, "addr": "1350 S MADISON ST", "SR_14": 3.0, "Q_14": 5.0, "name": "LANCASTER CARE CENTER", "SF_14": 2.0, "SF_15": 2.0, "cnty": "Grant", "st": "WI", "Zip": 53813.0, "O_14": 4.0, "Q_15": 4.0, "O_15": 3.0, "city": "LANCASTER", "beds": 50.0, "SR_15": 3.0}, {"Diff_star": 0.0, "addr": "1800 SHERMAN AVE", "SR_14": 2.0, "Q_14": 3.0, "name": "STEVENS POINT CARE CENTER", "SF_14": 4.0, "SF_15": 4.0, "cnty": "Portage", "st": "WI", "Zip": 54481.0, "O_14": 3.0, "Q_15": 2.0, "O_15": 3.0, "city": "STEVENS POINT", "beds": 60.0, "SR_15": 2.0}, {"Diff_star": 0.0, "addr": "109 N IOWA ST", "SR_14": 4.0, "Q_14": 5.0, "name": "MINERAL POINT CARE CENTER", "SF_14": 4.0, "SF_15": 4.0, "cnty": "Iowa", "st": "WI", "Zip": 53565.0, "O_14": 5.0, "Q_15": 5.0, "O_15": 5.0, "city": "MINERAL POINT", "beds": 30.0, "SR_15": 4.0}, {"Diff_star": 0.0, "addr": "502 S HIGH ST", "SR_14": 5.0, "Q_14": 5.0, "name": "GOLDEN LIVINGCENTER-CONTINENTAL MANOR OF RANDOLPH", "SF_14": 4.0, "SF_15": 3.0, "cnty": "Dodge", "st": "WI", "Zip": 53956.0, "O_14": 5.0, "Q_15": 4.0, "O_15": 5.0, "city": "RANDOLPH", "beds": 84.0, "SR_15": 5.0}, {"Diff_star": 0.0, "addr": "1308 LINCOLN ST", "SR_14": 4.0, "Q_14": 4.0, "name": "KEWAUNEE CARE CENTER", "SF_14": 3.0, "SF_15": 3.0, "cnty": "Kewaunee", "st": "WI", "Zip": 54216.0, "O_14": 4.0, "Q_15": 4.0, "O_15": 4.0, "city": "KEWAUNEE", "beds": 50.0, "SR_15": 4.0}, {"Diff_star": 0.0, "addr": "5778 CHAPIN ST", "SR_14": 4.0, "Q_14": 5.0, "name": "GOLDEN LIVINGCENTER-FLORENCE", "SF_14": 2.0, "SF_15": 2.0, "cnty": "Florence", "st": "WI", "Zip": 54121.0, "O_14": 5.0, "Q_15": 5.0, "O_15": 5.0, "city": "FLORENCE", "beds": 73.0, "SR_15": 4.0}, {"Diff_star": 0.0, "addr": "2730 W RAMSEY AVE", "SR_14": 4.0, "Q_14": 4.0, "name": "MAPLE RIDGE HEALTH AND REHABILITATION CENTER", "SF_14": 3.0, "SF_15": 3.0, "cnty": "Milwaukee", "st": "WI", "Zip": 53221.0, "O_14": 4.0, "Q_15": 3.0, "O_15": 4.0, "city": "MILWAUKEE", "beds": 74.0, "SR_15": 4.0}, {"Diff_star": 0.0, "addr": "8014 BETHEL RD", "SR_14": 1.0, "Q_14": 5.0, "name": "BETHEL CENTER", "SF_14": 3.0, "SF_15": 3.0, "cnty": "Wood", "st": "WI", "Zip": 54410.0, "O_14": 2.0, "Q_15": 5.0, "O_15": 2.0, "city": "ARPIN", "beds": 111.0, "SR_15": 1.0}, {"Diff_star": 0.0, "addr": "719 E CATHERINE ST  BOX 167", "SR_14": 1.0, "Q_14": 4.0, "name": "LAFAYETTE MANOR", "SF_14": 5.0, "SF_15": 5.0, "cnty": "Lafayette", "st": "WI", "Zip": 53530.0, "O_14": 2.0, "Q_15": 2.0, "O_15": 2.0, "city": "DARLINGTON", "beds": 64.0, "SR_15": 1.0}, {"Diff_star": 0.0, "addr": "430 MANOR DR", "SR_14": 5.0, "Q_14": 5.0, "name": "WOODLAND VILLAGE NURSING HOME", "SF_14": 4.0, "SF_15": 3.0, "cnty": "Oconto", "st": "WI", "Zip": 54174.0, "O_14": 5.0, "Q_15": 3.0, "O_15": 5.0, "city": "SURING", "beds": 50.0, "SR_15": 5.0}, {"Diff_star": 0.0, "addr": "2120 HEIGHTS DR", "SR_14": 1.0, "Q_14": 4.0, "name": "CLAIREMONT NURSING AND REHAB", "SF_14": 4.0, "SF_15": 4.0, "cnty": "Eau Claire", "st": "WI", "Zip": 54701.0, "O_14": 2.0, "Q_15": 2.0, "O_15": 2.0, "city": "EAU CLAIRE", "beds": 161.0, "SR_15": 1.0}, {"Diff_star": -1.0, "addr": "25951 CIRCLE VIEW DR", "SR_14": 3.0, "Q_14": 5.0, "name": "PINE VALLEY HLTH CARE REHAB", "SF_14": 4.0, "SF_15": 4.0, "cnty": "Richland", "st": "WI", "Zip": 53581.0, "O_14": 5.0, "Q_15": 4.0, "O_15": 4.0, "city": "RICHLAND CENTER", "beds": 100.0, "SR_15": 3.0}, {"Diff_star": 0.0, "addr": "9350 W FOND DU LAC AVE", "SR_14": 1.0, "Q_14": 2.0, "name": "WELLSPRING OF MILWAUKEE", "SF_14": 1.0, "SF_15": 1.0, "cnty": "Milwaukee", "st": "WI", "Zip": 53225.0, "O_14": 1.0, "Q_15": 1.0, "O_15": 1.0, "city": "MILWAUKEE", "beds": 185.0, "SR_15": 1.0}, {"Diff_star": -1.0, "addr": "3107 WESTHILL DR", "SR_14": 2.0, "Q_14": 5.0, "name": "WAUSAU MANOR", "SF_14": 4.0, "SF_15": 4.0, "cnty": "Marathon", "st": "WI", "Zip": 54401.0, "O_14": 4.0, "Q_15": 4.0, "O_15": 3.0, "city": "WAUSAU", "beds": 68.0, "SR_15": 2.0}, {"Diff_star": 0.0, "addr": "1612 N 37TH ST", "SR_14": 2.0, "Q_14": 4.0, "name": "GOLDEN LIVINGCENTER-SUPERIOR", "SF_14": 3.0, "SF_15": 3.0, "cnty": "Douglas", "st": "WI", "Zip": 54880.0, "O_14": 2.0, "Q_15": 4.0, "O_15": 2.0, "city": "SUPERIOR", "beds": 90.0, "SR_15": 2.0}, {"Diff_star": -1.0, "addr": "1300 WEST SILVER SPRING DR", "SR_14": 2.0, "Q_14": 5.0, "name": "GOLDEN LIVINGCENTER-SILVER SPRING", "SF_14": 1.0, "SF_15": 1.0, "cnty": "Milwaukee", "st": "WI", "Zip": 53209.0, "O_14": 2.0, "Q_15": 4.0, "O_15": 1.0, "city": "GLENDALE", "beds": 97.0, "SR_15": 2.0}, {"Diff_star": 0.0, "addr": "323 W MONROE ST PO BOX 895", "SR_14": 4.0, "Q_14": 4.0, "name": "COLUMBIA HEALTH CARE CENTER", "SF_14": 4.0, "SF_15": 3.0, "cnty": "Columbia", "st": "WI", "Zip": 53969.0, "O_14": 4.0, "Q_15": 2.0, "O_15": 4.0, "city": "WYOCENA", "beds": 117.0, "SR_15": 4.0}, {"Diff_star": 0.0, "addr": "207 PARKER ST", "SR_14": 4.0, "Q_14": 3.0, "name": "BOSCOBEL CARE AND REHAB", "SF_14": 4.0, "SF_15": 4.0, "cnty": "Grant", "st": "WI", "Zip": 53805.0, "O_14": 4.0, "Q_15": 2.0, "O_15": 4.0, "city": "BOSCOBEL", "beds": 50.0, "SR_15": 4.0}, {"Diff_star": 0.0, "addr": "19 W NEWTON ST PO BOX 311", "SR_14": 3.0, "Q_14": 4.0, "name": "HERITAGE MANOR", "SF_14": 3.0, "SF_15": 3.0, "cnty": "Barron", "st": "WI", "Zip": 54868.0, "O_14": 3.0, "Q_15": 3.0, "O_15": 3.0, "city": "RICE LAKE", "beds": 92.0, "SR_15": 3.0}, {"Diff_star": 0.0, "addr": "6201 MINERAL POINT RD", "SR_14": 2.0, "Q_14": 5.0, "name": "OAKWOOD LUTHERAN HOMES ASSOC", "SF_14": 4.0, "SF_15": 4.0, "cnty": "Dane", "st": "WI", "Zip": 53705.0, "O_14": 4.0, "Q_15": 5.0, "O_15": 4.0, "city": "MADISON", "beds": 95.0, "SR_15": 2.0}, {"Diff_star": 0.0, "addr": "800 COMPASSION WAY", "SR_14": 5.0, "Q_14": 5.0, "name": "UPLAND HILLS NURSING AND REHAB", "SF_14": 4.0, "SF_15": 4.0, "cnty": "Iowa", "st": "WI", "Zip": 53533.0, "O_14": 5.0, "Q_15": 4.0, "O_15": 5.0, "city": "DODGEVILLE", "beds": 44.0, "SR_15": 5.0}, {"Diff_star": 0.0, "addr": "323 S 18TH AVE", "SR_14": 5.0, "Q_14": 2.0, "name": "DOOR COUNTY MEMORIAL HOSPITAL SNF", "SF_14": 4.0, "SF_15": 4.0, "cnty": "Door", "st": "WI", "Zip": 54235.0, "O_14": 5.0, "Q_15": 2.0, "O_15": 5.0, "city": "STURGEON BAY", "beds": 30.0, "SR_15": 5.0}, {"Diff_star": 0.0, "addr": "2815 COUNTY HIGHWAY I", "SR_14": 4.0, "Q_14": 4.0, "name": "WISSOTA HEALTH AND REGIONAL VENT CENTER", "SF_14": 5.0, "SF_15": 5.0, "cnty": "Chippewa", "st": "WI", "Zip": 54729.0, "O_14": 5.0, "Q_15": 3.0, "O_15": 5.0, "city": "CHIPPEWA FALLS", "beds": 135.0, "SR_15": 4.0}, {"Diff_star": 0.0, "addr": "228 W MAIN ST", "SR_14": 4.0, "Q_14": 5.0, "name": "SUN PRAIRIE HEALTH CARE CTR", "SF_14": 4.0, "SF_15": 4.0, "cnty": "Dane", "st": "WI", "Zip": 53590.0, "O_14": 5.0, "Q_15": 5.0, "O_15": 5.0, "city": "SUN PRAIRIE", "beds": 32.0, "SR_15": 4.0}, {"Diff_star": 0.0, "addr": "1220 3RD AVE W", "SR_14": 4.0, "Q_14": 5.0, "name": "OAKVIEW CARE CENTER", "SF_14": 4.0, "SF_15": 4.0, "cnty": "Pepin", "st": "WI", "Zip": 54736.0, "O_14": 5.0, "Q_15": 5.0, "O_15": 5.0, "city": "DURAND", "beds": 50.0, "SR_15": 4.0}, {"Diff_star": -1.0, "addr": "10101 W WISCONSIN AVE", "SR_14": 4.0, "Q_14": 5.0, "name": "ST CAMILLUS HEALTH CENTER", "SF_14": 4.0, "SF_15": 4.0, "cnty": "Milwaukee", "st": "WI", "Zip": 53226.0, "O_14": 5.0, "Q_15": 5.0, "O_15": 4.0, "city": "WAUWATOSA", "beds": 67.0, "SR_15": 2.0}, {"Diff_star": 0.0, "addr": "200 MEMORIAL DR", "SR_14": 2.0, "Q_14": 4.0, "name": "AMERICAN LUTHERAN HOME-MONDOVI", "SF_14": 4.0, "SF_15": 4.0, "cnty": "Buffalo", "st": "WI", "Zip": 54755.0, "O_14": 3.0, "Q_15": 3.0, "O_15": 3.0, "city": "MONDOVI", "beds": 50.0, "SR_15": 2.0}, {"Diff_star": 0.0, "addr": "640 N MAIN ST", "SR_14": 1.0, "Q_14": 4.0, "name": "LUTHERAN HOME RIVER FALLS", "SF_14": 4.0, "SF_15": 4.0, "cnty": "St. Croix", "st": "WI", "Zip": 54022.0, "O_14": 2.0, "Q_15": 2.0, "O_15": 2.0, "city": "RIVER FALLS", "beds": 50.0, "SR_15": 1.0}, {"Diff_star": 0.0, "addr": "1319 BEASER AVE", "SR_14": 5.0, "Q_14": 5.0, "name": "ASHLAND HEALTH AND REHAB CTR", "SF_14": 3.0, "SF_15": 3.0, "cnty": "Ashland", "st": "WI", "Zip": 54806.0, "O_14": 5.0, "Q_15": 5.0, "O_15": 5.0, "city": "ASHLAND", "beds": 117.0, "SR_15": 4.0}, {"Diff_star": -1.0, "addr": "1405 TRUAX BLVD", "SR_14": 3.0, "Q_14": 5.0, "name": "DOVE HEALTHCARE-WEST", "SF_14": 4.0, "SF_15": 4.0, "cnty": "Eau Claire", "st": "WI", "Zip": 54703.0, "O_14": 5.0, "Q_15": 4.0, "O_15": 4.0, "city": "EAU CLAIRE", "beds": 160.0, "SR_15": 3.0}, {"Diff_star": 0.0, "addr": "1445 N 7TH ST", "SR_14": 4.0, "Q_14": 4.0, "name": "NORTH RIDGE MEDICAL AND REHABILITATION CENTER", "SF_14": 4.0, "SF_15": 4.0, "cnty": "Manitowoc", "st": "WI", "Zip": 54220.0, "O_14": 4.0, "Q_15": 2.0, "O_15": 4.0, "city": "MANITOWOC", "beds": 119.0, "SR_15": 4.0}, {"Diff_star": -1.0, "addr": "3400 N CTY TRK HWY F  PO BOX 920", "SR_14": 1.0, "Q_14": 3.0, "name": "ROCK HAVEN", "SF_14": 5.0, "SF_15": 5.0, "cnty": "Rock", "st": "WI", "Zip": 53547.0, "O_14": 2.0, "Q_15": 1.0, "O_15": 1.0, "city": "JANESVILLE", "beds": 128.0, "SR_15": 1.0}, {"Diff_star": 0.0, "addr": "300 RACE ST", "SR_14": 2.0, "Q_14": 4.0, "name": "GOLDEN LIVINGCENTER-WISCONSIN DELLS", "SF_14": 4.0, "SF_15": 4.0, "cnty": "Columbia", "st": "WI", "Zip": 53965.0, "O_14": 3.0, "Q_15": 3.0, "O_15": 3.0, "city": "WISCONSIN DELLS", "beds": 90.0, "SR_15": 2.0}, {"Diff_star": 0.0, "addr": "808 S WASHINGTON ST", "SR_14": 4.0, "Q_14": 5.0, "name": "EPIONE PAVILLION", "SF_14": 4.0, "SF_15": 4.0, "cnty": "Grant", "st": "WI", "Zip": 53807.0, "O_14": 5.0, "Q_15": 5.0, "O_15": 5.0, "city": "CUBA CITY", "beds": 78.0, "SR_15": 4.0}, {"Diff_star": 0.0, "addr": "501 S WINSTED  PO BOX 759", "SR_14": 3.0, "Q_14": 4.0, "name": "GREENWAY MANOR", "SF_14": 5.0, "SF_15": 5.0, "cnty": "Sauk", "st": "WI", "Zip": 53588.0, "O_14": 4.0, "Q_15": 4.0, "O_15": 4.0, "city": "SPRING GREEN", "beds": 60.0, "SR_15": 3.0}, {"Diff_star": 0.0, "addr": "1800 NEW YORK AVE", "SR_14": 1.0, "Q_14": 3.0, "name": "ST FRANCIS IN THE PARK HLTH REHAB", "SF_14": 5.0, "SF_15": 5.0, "cnty": "Douglas", "st": "WI", "Zip": 54880.0, "O_14": 2.0, "Q_15": 2.0, "O_15": 2.0, "city": "SUPERIOR", "beds": 118.0, "SR_15": 1.0}, {"Diff_star": -1.0, "addr": "1505 ORRIN RD", "SR_14": 1.0, "Q_14": 5.0, "name": "PRESCOTT NURSING AND REHAB COMMUNITY", "SF_14": 1.0, "SF_15": 1.0, "cnty": "Pierce", "st": "WI", "Zip": 54021.0, "O_14": 2.0, "Q_15": 3.0, "O_15": 1.0, "city": "PRESCOTT", "beds": 65.0, "SR_15": 1.0}, {"Diff_star": -1.0, "addr": "400 DERONDA ST", "SR_14": 2.0, "Q_14": 2.0, "name": "WILLOW RIDGE HEALTHCARE", "SF_14": 2.0, "SF_15": 2.0, "cnty": "Polk", "st": "WI", "Zip": 54001.0, "O_14": 2.0, "Q_15": 1.0, "O_15": 1.0, "city": "AMERY", "beds": 83.0, "SR_15": 2.0}, {"Diff_star": 0.0, "addr": "W4255 COUNTY HIGHWAY X", "SR_14": 1.0, "Q_14": 4.0, "name": "CLARK COUNTY REHABILITATION & LIVING CENTER", "SF_14": 5.0, "SF_15": 5.0, "cnty": "Clark", "st": "WI", "Zip": 54460.0, "O_14": 2.0, "Q_15": 2.0, "O_15": 2.0, "city": "OWEN", "beds": 172.0, "SR_15": 1.0}, {"Diff_star": 0.0, "addr": "1010 E WAUSAU AVE", "SR_14": 1.0, "Q_14": 3.0, "name": "COLONIAL MANOR MEDICAL AND REHABILITATION CENTER", "SF_14": 4.0, "SF_15": 4.0, "cnty": "Marathon", "st": "WI", "Zip": 54403.0, "O_14": 2.0, "Q_15": 2.0, "O_15": 2.0, "city": "WAUSAU", "beds": 150.0, "SR_15": 1.0}, {"Diff_star": -1.0, "addr": "500 GRANT AVE", "SR_14": 1.0, "Q_14": 5.0, "name": "OMRO CARE CENTER", "SF_14": 2.0, "SF_15": 2.0, "cnty": "Winnebago", "st": "WI", "Zip": 54963.0, "O_14": 2.0, "Q_15": 4.0, "O_15": 1.0, "city": "OMRO", "beds": 114.0, "SR_15": 1.0}, {"Diff_star": 0.0, "addr": "601 N BRIARCLIFF DR", "SR_14": 3.0, "Q_14": 3.0, "name": "FOX RIVER NURSING AND REHAB CENTER", "SF_14": 5.0, "SF_15": 5.0, "cnty": "Outagamie", "st": "WI", "Zip": 54915.0, "O_14": 4.0, "Q_15": 3.0, "O_15": 4.0, "city": "APPLETON", "beds": 82.0, "SR_15": 3.0}, {"Diff_star": 0.0, "addr": "8274 E SAN RD", "SR_14": 1.0, "Q_14": 4.0, "name": "MIDDLE RIVER HCC", "SF_14": 3.0, "SF_15": 3.0, "cnty": "Douglas", "st": "WI", "Zip": 54874.0, "O_14": 1.0, "Q_15": 2.0, "O_15": 1.0, "city": "SOUTH RANGE", "beds": 98.0, "SR_15": 1.0}, {"Diff_star": 0.0, "addr": "400 COUNTY RD R", "SR_14": 2.0, "Q_14": 4.0, "name": "PINE VIEW CARE CENTER", "SF_14": 4.0, "SF_15": 4.0, "cnty": "Jackson", "st": "WI", "Zip": 54615.0, "O_14": 3.0, "Q_15": 3.0, "O_15": 3.0, "city": "BLACK RIVER FALLS", "beds": 95.0, "SR_15": 2.0}, {"Diff_star": 0.0, "addr": "729 PARK ST", "SR_14": 3.0, "Q_14": 5.0, "name": "EASTVIEW MEDICAL AND REHABILITATION CENTER", "SF_14": 4.0, "SF_15": 4.0, "cnty": "Langlade", "st": "WI", "Zip": 54409.0, "O_14": 5.0, "Q_15": 5.0, "O_15": 5.0, "city": "ANTIGO", "beds": 166.0, "SR_15": 3.0}, {"Diff_star": 0.0, "addr": "1610 HOOVER ST", "SR_14": 4.0, "Q_14": 5.0, "name": "WILLOWDALE NURSING AND REHAB CTR", "SF_14": 2.0, "SF_15": 2.0, "cnty": "Calumet", "st": "WI", "Zip": 53061.0, "O_14": 5.0, "Q_15": 5.0, "O_15": 5.0, "city": "NEW HOLSTEIN", "beds": 49.0, "SR_15": 4.0}, {"Diff_star": 0.0, "addr": "1475 BIRCH HILL LANE", "SR_14": 4.0, "Q_14": 5.0, "name": "BIRCH HILL CARE CENTER", "SF_14": 1.0, "SF_15": 1.0, "cnty": "Shawano", "st": "WI", "Zip": 54166.0, "O_14": 4.0, "Q_15": 5.0, "O_15": 4.0, "city": "SHAWANO", "beds": 55.0, "SR_15": 4.0}, {"Diff_star": 0.0, "addr": "3821 S CHICAGO AVE", "SR_14": 2.0, "Q_14": 4.0, "name": "WILLOWCREST CARE CENTER", "SF_14": 4.0, "SF_15": 4.0, "cnty": "Milwaukee", "st": "WI", "Zip": 53172.0, "O_14": 3.0, "Q_15": 2.0, "O_15": 3.0, "city": "SOUTH MILWAUKEE", "beds": 135.0, "SR_15": 2.0}, {"Diff_star": 0.0, "addr": "2727 W MITCHELL ST", "SR_14": 5.0, "Q_14": 3.0, "name": "MERCY RESIDENTIAL AND REHAB CTR", "SF_14": 4.0, "SF_15": 3.0, "cnty": "Milwaukee", "st": "WI", "Zip": 53215.0, "O_14": 5.0, "Q_15": 2.0, "O_15": 5.0, "city": "MILWAUKEE", "beds": 60.0, "SR_15": 5.0}, {"Diff_star": -1.0, "addr": "N84 W17049 MENOMONEE AVE", "SR_14": 1.0, "Q_14": 4.0, "name": "MENOMONEE FALLS HCC", "SF_14": 4.0, "SF_15": 3.0, "cnty": "Waukesha", "st": "WI", "Zip": 53051.0, "O_14": 2.0, "Q_15": 2.0, "O_15": 1.0, "city": "MENOMONEE FALLS", "beds": 100.0, "SR_15": 1.0}, {"Diff_star": 1.0, "addr": "900 COLLEGE AVE W", "SR_14": 2.0, "Q_14": 4.0, "name": "LADYSMITH CARE & REHAB", "SF_14": 4.0, "SF_15": 4.0, "cnty": "Rusk", "st": "WI", "Zip": 54848.0, "O_14": 3.0, "Q_15": 5.0, "O_15": 4.0, "city": "LADYSMITH", "beds": 50.0, "SR_15": 2.0}, {"Diff_star": 0.0, "addr": "3216 W HIGHLAND BLVD", "SR_14": 1.0, "Q_14": 5.0, "name": "CROSSROADS CARE CENTER OF MILWAUKEE", "SF_14": 1.0, "SF_15": 1.0, "cnty": "Milwaukee", "st": "WI", "Zip": 53208.0, "O_14": 2.0, "Q_15": 5.0, "O_15": 2.0, "city": "MILWAUKEE", "beds": 95.0, "SR_15": 1.0}, {"Diff_star": 0.0, "addr": "470 GARFIELD AVE", "SR_14": 4.0, "Q_14": 4.0, "name": "EVANSVILLE MANOR", "SF_14": 3.0, "SF_15": 3.0, "cnty": "Rock", "st": "WI", "Zip": 53536.0, "O_14": 4.0, "Q_15": 2.0, "O_15": 4.0, "city": "EVANSVILLE", "beds": 71.0, "SR_15": 4.0}, {"Diff_star": 0.0, "addr": "222 CHAPMAN RD", "SR_14": 4.0, "Q_14": 5.0, "name": "CHIPPEWA MANOR NURSING HOME", "SF_14": 4.0, "SF_15": 3.0, "cnty": "Chippewa", "st": "WI", "Zip": 54729.0, "O_14": 5.0, "Q_15": 5.0, "O_15": 5.0, "city": "CHIPPEWA FALLS", "beds": 90.0, "SR_15": 4.0}, {"Diff_star": 0.0, "addr": "6001 ALDERSON ST", "SR_14": 1.0, "Q_14": 5.0, "name": "KENNEDY PARK NURSING AND REHAB CENTER", "SF_14": 4.0, "SF_15": 4.0, "cnty": "Marathon", "st": "WI", "Zip": 54476.0, "O_14": 2.0, "Q_15": 4.0, "O_15": 2.0, "city": "SCHOFIELD", "beds": 128.0, "SR_15": 1.0}, {"Diff_star": 0.0, "addr": "W180 N8071 TOWN HALL RD", "SR_14": 5.0, "Q_14": 5.0, "name": "LINDENGROVE MENOMONEE FALLS", "SF_14": 4.0, "SF_15": 4.0, "cnty": "Waukesha", "st": "WI", "Zip": 53051.0, "O_14": 5.0, "Q_15": 5.0, "O_15": 5.0, "city": "MENOMONEE FALLS", "beds": 130.0, "SR_15": 5.0}, {"Diff_star": 0.0, "addr": "425 N UNIVERSITY DR", "SR_14": 4.0, "Q_14": 4.0, "name": "LINDENGROVE WAUKESHA", "SF_14": 4.0, "SF_15": 4.0, "cnty": "Waukesha", "st": "WI", "Zip": 53188.0, "O_14": 4.0, "Q_15": 2.0, "O_15": 4.0, "city": "WAUKESHA", "beds": 131.0, "SR_15": 4.0}, {"Diff_star": 0.0, "addr": "18740 W BLUEMOUND RD", "SR_14": 1.0, "Q_14": 5.0, "name": "BROOKFIELD REHAB AND SPECIALTY CARE CTR", "SF_14": 4.0, "SF_15": 4.0, "cnty": "Waukesha", "st": "WI", "Zip": 53045.0, "O_14": 2.0, "Q_15": 4.0, "O_15": 2.0, "city": "BROOKFIELD", "beds": 224.0, "SR_15": 1.0}, {"Diff_star": 0.0, "addr": "1850 11TH ST", "SR_14": 2.0, "Q_14": 4.0, "name": "GOOD SAMARITAN SOCIETY-FENNIMORE", "SF_14": 4.0, "SF_15": 4.0, "cnty": "Grant", "st": "WI", "Zip": 53809.0, "O_14": 3.0, "Q_15": 2.0, "O_15": 3.0, "city": "FENNIMORE", "beds": 62.0, "SR_15": 2.0}, {"Diff_star": 0.0, "addr": "3501 PARK LANE DR", "SR_14": 3.0, "Q_14": 4.0, "name": "HILLVIEW HEALTH CARE CTR", "SF_14": 4.0, "SF_15": 4.0, "cnty": "La Crosse", "st": "WI", "Zip": 54601.0, "O_14": 4.0, "Q_15": 3.0, "O_15": 4.0, "city": "LA CROSSE", "beds": 199.0, "SR_15": 3.0}, {"Diff_star": 0.0, "addr": "2305 SAN LUIS PL", "SR_14": 3.0, "Q_14": 3.0, "name": "MAPLE RIDGE REHABILITATION AND CARE CENTER", "SF_14": 4.0, "SF_15": 4.0, "cnty": "Brown", "st": "WI", "Zip": 54304.0, "O_14": 4.0, "Q_15": 2.0, "O_15": 4.0, "city": "GREEN BAY", "beds": 133.0, "SR_15": 3.0}, {"Diff_star": -1.0, "addr": "105 W PIONEER AVE PO BOX 400", "SR_14": 1.0, "Q_14": 4.0, "name": "CRANDON NURSING HOME", "SF_14": 4.0, "SF_15": 3.0, "cnty": "Forest", "st": "WI", "Zip": 54520.0, "O_14": 2.0, "Q_15": 2.0, "O_15": 1.0, "city": "CRANDON", "beds": 50.0, "SR_15": 1.0}, {"Diff_star": 0.0, "addr": "130 STRAWBERRY LN", "SR_14": 1.0, "Q_14": 4.0, "name": "STRAWBERRY LANE MEDICAL AND REHAB", "SF_14": 4.0, "SF_15": 4.0, "cnty": "Wood", "st": "WI", "Zip": 54494.0, "O_14": 2.0, "Q_15": 5.0, "O_15": 2.0, "city": "WISCONSIN RAPIDS", "beds": 120.0, "SR_15": 1.0}, {"Diff_star": 1.0, "addr": "14345 CTY HWY B", "SR_14": 1.0, "Q_14": 4.0, "name": "ROLLING HILLS REHAB CTR", "SF_14": 4.0, "SF_15": 4.0, "cnty": "Monroe", "st": "WI", "Zip": 54656.0, "O_14": 2.0, "Q_15": 3.0, "O_15": 3.0, "city": "SPARTA", "beds": 90.0, "SR_15": 2.0}, {"Diff_star": 0.0, "addr": "1519 60TH ST", "SR_14": 4.0, "Q_14": 4.0, "name": "CLAIRIDGE HOUSE", "SF_14": 3.0, "SF_15": 3.0, "cnty": "Kenosha", "st": "WI", "Zip": 53140.0, "O_14": 4.0, "Q_15": 2.0, "O_15": 4.0, "city": "KENOSHA", "beds": 87.0, "SR_15": 4.0}, {"Diff_star": 1.0, "addr": "9806 W LINCOLN AVE", "SR_14": 3.0, "Q_14": 4.0, "name": "MARY JUDE NURSING HOME", "SF_14": 4.0, "SF_15": 4.0, "cnty": "Milwaukee", "st": "WI", "Zip": 53227.0, "O_14": 4.0, "Q_15": 5.0, "O_15": 5.0, "city": "WEST ALLIS", "beds": 50.0, "SR_15": 3.0}, {"Diff_star": 0.0, "addr": "2901 FORBES AVE", "SR_14": 3.0, "Q_14": 3.0, "name": "NEIGHBORS - CENTRAL NEIGHBORHOOD (THE)", "SF_14": 5.0, "SF_15": 5.0, "cnty": "Dunn", "st": "WI", "Zip": 54751.0, "O_14": 4.0, "Q_15": 2.0, "O_15": 4.0, "city": "MENOMONIE", "beds": 45.0, "SR_15": 3.0}, {"Diff_star": 0.0, "addr": "10775 NYMAN AVE", "SR_14": 3.0, "Q_14": 5.0, "name": "GOLDEN LIVINGCENTER-VALLEY OF HAYWARD", "SF_14": 2.0, "SF_15": 2.0, "cnty": "Sawyer", "st": "WI", "Zip": 54843.0, "O_14": 4.0, "Q_15": 5.0, "O_15": 4.0, "city": "HAYWARD", "beds": 59.0, "SR_15": 3.0}, {"Diff_star": -1.0, "addr": "600 E ELM ST", "SR_14": 3.0, "Q_14": 5.0, "name": "GOLDEN LIVINGCENTER-CONTINENTAL MANOR", "SF_14": 2.0, "SF_15": 2.0, "cnty": "Marathon", "st": "WI", "Zip": 54405.0, "O_14": 4.0, "Q_15": 4.0, "O_15": 3.0, "city": "ABBOTSFORD", "beds": 78.0, "SR_15": 3.0}, {"Diff_star": -1.0, "addr": "1050 DIVISION ST", "SR_14": 2.0, "Q_14": 2.0, "name": "FAIR VIEW NURSING HOME", "SF_14": 4.0, "SF_15": 4.0, "cnty": "Juneau", "st": "WI", "Zip": 53948.0, "O_14": 3.0, "Q_15": 1.0, "O_15": 2.0, "city": "MAUSTON", "beds": 60.0, "SR_15": 2.0}, {"Diff_star": -1.0, "addr": "2902 E AVENUE SOUTH", "SR_14": 2.0, "Q_14": 5.0, "name": "BENEDICTINE MANOR OF LACROSSE", "SF_14": 4.0, "SF_15": 4.0, "cnty": "La Crosse", "st": "WI", "Zip": 54601.0, "O_14": 4.0, "Q_15": 4.0, "O_15": 3.0, "city": "LA CROSSE", "beds": 80.0, "SR_15": 2.0}, {"Diff_star": 0.0, "addr": "301 CHERRY AVENUE WEST", "SR_14": 4.0, "Q_14": 4.0, "name": "PLUM CITY CARE CTR", "SF_14": 3.0, "SF_15": 3.0, "cnty": "Pierce", "st": "WI", "Zip": 54761.0, "O_14": 4.0, "Q_15": 4.0, "O_15": 4.0, "city": "PLUM CITY", "beds": 50.0, "SR_15": 4.0}, {"Diff_star": -1.0, "addr": "2021 S ALVERNO RD", "SR_14": 2.0, "Q_14": 2.0, "name": "MANITOWOC HEALTH CARE CENTER", "SF_14": 4.0, "SF_15": 4.0, "cnty": "Manitowoc", "st": "WI", "Zip": 54220.0, "O_14": 3.0, "Q_15": 1.0, "O_15": 2.0, "city": "MANITOWOC", "beds": 150.0, "SR_15": 2.0}, {"Diff_star": 0.0, "addr": "1505 BUTTS AVE", "SR_14": 2.0, "Q_14": 4.0, "name": "TOMAH NURSING AND REHAB", "SF_14": 2.0, "SF_15": 2.0, "cnty": "Monroe", "st": "WI", "Zip": 54660.0, "O_14": 2.0, "Q_15": 4.0, "O_15": 2.0, "city": "TOMAH", "beds": 74.0, "SR_15": 2.0}, {"Diff_star": -1.0, "addr": "1600 MAIN ST", "SR_14": 3.0, "Q_14": 3.0, "name": "ONALASKA CARE CENTER", "SF_14": 4.0, "SF_15": 3.0, "cnty": "La Crosse", "st": "WI", "Zip": 54650.0, "O_14": 4.0, "Q_15": 2.0, "O_15": 3.0, "city": "ONALASKA", "beds": 104.0, "SR_15": 3.0}, {"Diff_star": 0.0, "addr": "825 WESTERN AVE", "SR_14": 3.0, "Q_14": 5.0, "name": "COLUMBUS HEALTH AND REHAB", "SF_14": 4.0, "SF_15": 4.0, "cnty": "Columbia", "st": "WI", "Zip": 53925.0, "O_14": 5.0, "Q_15": 5.0, "O_15": 5.0, "city": "COLUMBUS", "beds": 50.0, "SR_15": 3.0}, {"Diff_star": 0.0, "addr": "803 S UNIVERSITY AVE", "SR_14": 2.0, "Q_14": 5.0, "name": "HILLSIDE MANOR", "SF_14": 3.0, "SF_15": 3.0, "cnty": "Dodge", "st": "WI", "Zip": 53916.0, "O_14": 3.0, "Q_15": 5.0, "O_15": 3.0, "city": "BEAVER DAM", "beds": 119.0, "SR_15": 2.0}, {"Diff_star": 0.0, "addr": "100 E HIGHLAND DR", "SR_14": 4.0, "Q_14": 4.0, "name": "SHARPE CARE NURSING & REHABILITATION CENTER, LLC", "SF_14": 4.0, "SF_15": 4.0, "cnty": "Oconto", "st": "WI", "Zip": 54154.0, "O_14": 4.0, "Q_15": 3.0, "O_15": 4.0, "city": "OCONTO FALLS", "beds": 99.0, "SR_15": 4.0}, {"Diff_star": 0.0, "addr": "501 N LAKE ST", "SR_14": 3.0, "Q_14": 4.0, "name": "RENNES HEALTH AND REHAB CENTER-WEST", "SF_14": 2.0, "SF_15": 2.0, "cnty": "Marinette", "st": "WI", "Zip": 54157.0, "O_14": 3.0, "Q_15": 4.0, "O_15": 3.0, "city": "PESHTIGO", "beds": 99.0, "SR_15": 3.0}, {"Diff_star": 0.0, "addr": "307 ROYALL AVE  PO BOX 167", "SR_14": 2.0, "Q_14": 4.0, "name": "HERITAGE MANOR", "SF_14": 3.0, "SF_15": 3.0, "cnty": "Juneau", "st": "WI", "Zip": 53929.0, "O_14": 2.0, "Q_15": 2.0, "O_15": 2.0, "city": "ELROY", "beds": 76.0, "SR_15": 2.0}, {"Diff_star": 0.0, "addr": "198 COUNTY  DF", "SR_14": 3.0, "Q_14": 4.0, "name": "CLEARVIEW", "SF_14": 4.0, "SF_15": 4.0, "cnty": "Dodge", "st": "WI", "Zip": 53039.0, "O_14": 4.0, "Q_15": 3.0, "O_15": 4.0, "city": "JUNEAU", "beds": 140.0, "SR_15": 3.0}, {"Diff_star": 0.0, "addr": "2512 NEW PINE DR", "SR_14": 4.0, "Q_14": 4.0, "name": "OAKWOOD VILLA", "SF_14": 4.0, "SF_15": 3.0, "cnty": "Eau Claire", "st": "WI", "Zip": 54720.0, "O_14": 4.0, "Q_15": 4.0, "O_15": 4.0, "city": "ALTOONA", "beds": 92.0, "SR_15": 4.0}, {"Diff_star": 0.0, "addr": "2575 S 7TH ST", "SR_14": 2.0, "Q_14": 4.0, "name": "BETHANY RIVERSIDE", "SF_14": 4.0, "SF_15": 4.0, "cnty": "La Crosse", "st": "WI", "Zip": 54601.0, "O_14": 3.0, "Q_15": 3.0, "O_15": 3.0, "city": "LA CROSSE", "beds": 123.0, "SR_15": 2.0}, {"Diff_star": 0.0, "addr": "3129 MICHIGAN AVE", "SR_14": 4.0, "Q_14": 4.0, "name": "GOLDEN LIVINGCENTER-SHEBOYGAN", "SF_14": 4.0, "SF_15": 4.0, "cnty": "Sheboygan", "st": "WI", "Zip": 53082.0, "O_14": 4.0, "Q_15": 4.0, "O_15": 4.0, "city": "SHEBOYGAN", "beds": 64.0, "SR_15": 4.0}, {"Diff_star": 0.0, "addr": "701 WILLOW ST", "SR_14": 4.0, "Q_14": 4.0, "name": "RENNES HEALTH AND REHAB CENTER-EAST", "SF_14": 2.0, "SF_15": 2.0, "cnty": "Marinette", "st": "WI", "Zip": 54157.0, "O_14": 4.0, "Q_15": 4.0, "O_15": 4.0, "city": "PESHTIGO", "beds": 129.0, "SR_15": 4.0}, {"Diff_star": -2.0, "addr": "220 LOCKWOOD ST", "SR_14": 4.0, "Q_14": 5.0, "name": "PARK VIEW HOME", "SF_14": 4.0, "SF_15": 3.0, "cnty": "St. Croix", "st": "WI", "Zip": 54028.0, "O_14": 5.0, "Q_15": 4.0, "O_15": 3.0, "city": "WOODVILLE", "beds": 50.0, "SR_15": 3.0}, {"Diff_star": 0.0, "addr": "900 BOYCE DR", "SR_14": 2.0, "Q_14": 4.0, "name": "FRIENDLY VILLAGE NURSING AND REHAB CENTER", "SF_14": 2.0, "SF_15": 2.0, "cnty": "Oneida", "st": "WI", "Zip": 54501.0, "O_14": 2.0, "Q_15": 3.0, "O_15": 2.0, "city": "RHINELANDER", "beds": 146.0, "SR_15": 2.0}, {"Diff_star": 0.0, "addr": "344 LINCOLN AVE", "SR_14": 3.0, "Q_14": 4.0, "name": "FALL CREEK VALLEY CARE CTR", "SF_14": 5.0, "SF_15": 4.0, "cnty": "Eau Claire", "st": "WI", "Zip": 54742.0, "O_14": 4.0, "Q_15": 4.0, "O_15": 4.0, "city": "FALL CREEK", "beds": 50.0, "SR_15": 4.0}, {"Diff_star": 0.0, "addr": "1900 AMERICAN EAGLE DR", "SR_14": 2.0, "Q_14": 5.0, "name": "PAVILION AT GLACIER VALLEY", "SF_14": 2.0, "SF_15": 2.0, "cnty": "Washington", "st": "WI", "Zip": 53086.0, "O_14": 3.0, "Q_15": 5.0, "O_15": 3.0, "city": "SLINGER", "beds": 106.0, "SR_15": 2.0}, {"Diff_star": -1.0, "addr": "245 SYCAMORE ST", "SR_14": 3.0, "Q_14": 5.0, "name": "MAPLEWOOD OF SAUK PRAIRIE", "SF_14": 3.0, "SF_15": 3.0, "cnty": "Sauk", "st": "WI", "Zip": 53583.0, "O_14": 4.0, "Q_15": 4.0, "O_15": 3.0, "city": "SAUK CITY", "beds": 120.0, "SR_15": 3.0}, {"Diff_star": -1.0, "addr": "1700 MIDWAY RD", "SR_14": 3.0, "Q_14": 5.0, "name": "OAKRIDGE GARDENS NUR CTR, INC", "SF_14": 4.0, "SF_15": 3.0, "cnty": "Winnebago", "st": "WI", "Zip": 54952.0, "O_14": 5.0, "Q_15": 5.0, "O_15": 4.0, "city": "MENASHA", "beds": 94.0, "SR_15": 3.0}, {"Diff_star": 0.0, "addr": "5595 CTY RD Z", "SR_14": 4.0, "Q_14": 5.0, "name": "CEDAR LAKE HEALTH AND REHAB CENTER", "SF_14": 4.0, "SF_15": 4.0, "cnty": "Washington", "st": "WI", "Zip": 53095.0, "O_14": 5.0, "Q_15": 5.0, "O_15": 5.0, "city": "WEST BEND", "beds": 229.0, "SR_15": 4.0}, {"Diff_star": 0.0, "addr": "S830 - WESTLAND DR", "SR_14": 1.0, "Q_14": 5.0, "name": "SPRING VALLEY HEALTH AND REHAB CENTER", "SF_14": 3.0, "SF_15": 3.0, "cnty": "Pierce", "st": "WI", "Zip": 54767.0, "O_14": 2.0, "Q_15": 5.0, "O_15": 2.0, "city": "SPRING VALLEY", "beds": 50.0, "SR_15": 1.0}, {"Diff_star": 0.0, "addr": "501 MADISON AVE", "SR_14": 2.0, "Q_14": 4.0, "name": "MARYHILL MANOR", "SF_14": 4.0, "SF_15": 4.0, "cnty": "Marinette", "st": "WI", "Zip": 54151.0, "O_14": 3.0, "Q_15": 2.0, "O_15": 3.0, "city": "NIAGARA", "beds": 75.0, "SR_15": 2.0}, {"Diff_star": -1.0, "addr": "1445 N FOURTH ST", "SR_14": 3.0, "Q_14": 5.0, "name": "ST CROIX HEALTH CENTER", "SF_14": 4.0, "SF_15": 4.0, "cnty": "St. Croix", "st": "WI", "Zip": 54017.0, "O_14": 5.0, "Q_15": 4.0, "O_15": 4.0, "city": "NEW RICHMOND", "beds": 50.0, "SR_15": 3.0}, {"Diff_star": 0.0, "addr": "206 W PROSPECT ST", "SR_14": 5.0, "Q_14": 5.0, "name": "OAKBROOK HEALTH AND REHABILITATION", "SF_14": 2.0, "SF_15": 2.0, "cnty": "Clark", "st": "WI", "Zip": 54771.0, "O_14": 5.0, "Q_15": 4.0, "O_15": 5.0, "city": "THORP", "beds": 58.0, "SR_15": 5.0}, {"Diff_star": 0.0, "addr": "3151 CTY RD CH", "SR_14": 1.0, "Q_14": 4.0, "name": "BLOOMFIELD HEALTHCARE AND REHAB CENTER", "SF_14": 5.0, "SF_15": 5.0, "cnty": "Iowa", "st": "WI", "Zip": 53533.0, "O_14": 2.0, "Q_15": 2.0, "O_15": 2.0, "city": "DODGEVILLE", "beds": 66.0, "SR_15": 1.0}, {"Diff_star": 0.0, "addr": "960 S RAPIDS RD", "SR_14": 3.0, "Q_14": 5.0, "name": "RIVERS BEND HLTH REHAB", "SF_14": 4.0, "SF_15": 4.0, "cnty": "Manitowoc", "st": "WI", "Zip": 54220.0, "O_14": 5.0, "Q_15": 5.0, "O_15": 5.0, "city": "MANITOWOC", "beds": 124.0, "SR_15": 3.0}, {"Diff_star": -1.0, "addr": "831 PINE BEACH RD", "SR_14": 4.0, "Q_14": 3.0, "name": "LUTHER HOME", "SF_14": 4.0, "SF_15": 4.0, "cnty": "Marinette", "st": "WI", "Zip": 54143.0, "O_14": 4.0, "Q_15": 1.0, "O_15": 3.0, "city": "MARINETTE", "beds": 120.0, "SR_15": 4.0}, {"Diff_star": 0.0, "addr": "1915 E TRIPOLI AVE", "SR_14": 3.0, "Q_14": 5.0, "name": "GOLDEN LIVINGCENTER-SOUTH SHORE", "SF_14": 4.0, "SF_15": 4.0, "cnty": "Milwaukee", "st": "WI", "Zip": 53235.0, "O_14": 5.0, "Q_15": 5.0, "O_15": 5.0, "city": "SAINT FRANCIS", "beds": 30.0, "SR_15": 3.0}, {"Diff_star": 0.0, "addr": "1501 THOMPSON ST", "SR_14": 3.0, "Q_14": 4.0, "name": "MAYO CLINIC HLTH SYSTEM CHIPPEWA VALLEY-MAPLEWOOD", "SF_14": 4.0, "SF_15": 4.0, "cnty": "Chippewa", "st": "WI", "Zip": 54724.0, "O_14": 4.0, "Q_15": 3.0, "O_15": 4.0, "city": "BLOOMER", "beds": 35.0, "SR_15": 3.0}, {"Diff_star": 0.0, "addr": "915 ELM AVE", "SR_14": 1.0, "Q_14": 4.0, "name": "AMERICAN LUTHERAN HOME-MENOMONIE", "SF_14": 4.0, "SF_15": 3.0, "cnty": "Dunn", "st": "WI", "Zip": 54751.0, "O_14": 2.0, "Q_15": 5.0, "O_15": 2.0, "city": "MENOMONIE", "beds": 50.0, "SR_15": 1.0}, {"Diff_star": 1.0, "addr": "125 BYRD AVE", "SR_14": 1.0, "Q_14": 4.0, "name": "BRIDGEWOOD NURSING AND REHAB CENTER", "SF_14": 3.0, "SF_15": 3.0, "cnty": "Winnebago", "st": "WI", "Zip": 54956.0, "O_14": 1.0, "Q_15": 5.0, "O_15": 2.0, "city": "NEENAH", "beds": 124.0, "SR_15": 1.0}, {"Diff_star": -1.0, "addr": "677 E STATE ST", "SR_14": 2.0, "Q_14": 4.0, "name": "BURLINGTON REHABILITATION AND CARE CENTER", "SF_14": 4.0, "SF_15": 3.0, "cnty": "Racine", "st": "WI", "Zip": 53105.0, "O_14": 3.0, "Q_15": 2.0, "O_15": 2.0, "city": "BURLINGTON", "beds": 155.0, "SR_15": 2.0}, {"Diff_star": 0.0, "addr": "403 N MAPLE ST", "SR_14": 3.0, "Q_14": 5.0, "name": "ELLSWORTH CARE CENTER", "SF_14": 3.0, "SF_15": 3.0, "cnty": "Pierce", "st": "WI", "Zip": 54011.0, "O_14": 4.0, "Q_15": 5.0, "O_15": 4.0, "city": "ELLSWORTH", "beds": 60.0, "SR_15": 3.0}, {"Diff_star": 0.0, "addr": "2915 N MEADE ST", "SR_14": 1.0, "Q_14": 3.0, "name": "BRIDGES OF APPLETON (THE)", "SF_14": 3.0, "SF_15": 3.0, "cnty": "Outagamie", "st": "WI", "Zip": 54911.0, "O_14": 1.0, "Q_15": 1.0, "O_15": 1.0, "city": "APPLETON", "beds": 150.0, "SR_15": 1.0}, {"Diff_star": 0.0, "addr": "7672 W MINERAL POINT RD", "SR_14": 5.0, "Q_14": 5.0, "name": "REST HAVEN HEALTH CARE CENTER", "SF_14": 5.0, "SF_15": 5.0, "cnty": "Dane", "st": "WI", "Zip": 53593.0, "O_14": 5.0, "Q_15": 5.0, "O_15": 5.0, "city": "VERONA", "beds": 21.0, "SR_15": 5.0}, {"Diff_star": -1.0, "addr": "1555 DOUSMAN ST", "SR_14": 1.0, "Q_14": 4.0, "name": "GRANCARE NURSING CENTER", "SF_14": 4.0, "SF_15": 3.0, "cnty": "Brown", "st": "WI", "Zip": 54303.0, "O_14": 2.0, "Q_15": 3.0, "O_15": 1.0, "city": "GREEN BAY", "beds": 75.0, "SR_15": 1.0}, {"Diff_star": 0.0, "addr": "185 CHET KRAUSE DR  PO BOX 237", "SR_14": 4.0, "Q_14": 5.0, "name": "IOLA LIVING ASSISTANCE, INC", "SF_14": 4.0, "SF_15": 4.0, "cnty": "Waupaca", "st": "WI", "Zip": 54945.0, "O_14": 5.0, "Q_15": 5.0, "O_15": 5.0, "city": "IOLA", "beds": 50.0, "SR_15": 4.0}, {"Diff_star": 1.0, "addr": "1311 TYLER ST", "SR_14": 1.0, "Q_14": 4.0, "name": "FAMILY HERITAGE NURSING & REHABILITATION CENTER", "SF_14": 3.0, "SF_15": 4.0, "cnty": "Jackson", "st": "WI", "Zip": 54615.0, "O_14": 1.0, "Q_15": 4.0, "O_15": 2.0, "city": "BLACK RIVER FALLS", "beds": 50.0, "SR_15": 1.0}, {"Diff_star": -1.0, "addr": "903 MAIN AVE  PO BOX 460", "SR_14": 2.0, "Q_14": 5.0, "name": "NEWCARE", "SF_14": 4.0, "SF_15": 4.0, "cnty": "Marinette", "st": "WI", "Zip": 54114.0, "O_14": 4.0, "Q_15": 4.0, "O_15": 3.0, "city": "CRIVITZ", "beds": 64.0, "SR_15": 2.0}, {"Diff_star": 0.0, "addr": "1451 CLEVELAND AVE", "SR_14": 3.0, "Q_14": 5.0, "name": "VIRGINIA HEALTH AND REHAB CTR", "SF_14": 2.0, "SF_15": 2.0, "cnty": "Waukesha", "st": "WI", "Zip": 53186.0, "O_14": 4.0, "Q_15": 5.0, "O_15": 4.0, "city": "WAUKESHA", "beds": 105.0, "SR_15": 3.0}, {"Diff_star": 0.0, "addr": "3540 S 43RD ST", "SR_14": 1.0, "Q_14": 4.0, "name": "SUNRISE CARE CENTER", "SF_14": 4.0, "SF_15": 4.0, "cnty": "Milwaukee", "st": "WI", "Zip": 53220.0, "O_14": 2.0, "Q_15": 4.0, "O_15": 2.0, "city": "MILWAUKEE", "beds": 99.0, "SR_15": 1.0}, {"Diff_star": 0.0, "addr": "10560 APPLEWOOD RD", "SR_14": 2.0, "Q_14": 5.0, "name": "GOOD SAMARITAN SOCIETY-SCANDIA VILLAGE", "SF_14": 4.0, "SF_15": 4.0, "cnty": "Door", "st": "WI", "Zip": 54234.0, "O_14": 4.0, "Q_15": 5.0, "O_15": 4.0, "city": "SISTER BAY", "beds": 60.0, "SR_15": 2.0}, {"Diff_star": 0.0, "addr": "1320 WISCONSIN AVE", "SR_14": 5.0, "Q_14": 5.0, "name": "WHEATON FRANCISCAN HC - LAKESHORE MANOR", "SF_14": 4.0, "SF_15": 4.0, "cnty": "Racine", "st": "WI", "Zip": 53403.0, "O_14": 5.0, "Q_15": 4.0, "O_15": 5.0, "city": "RACINE", "beds": 50.0, "SR_15": 5.0}, {"Diff_star": 0.0, "addr": "425 SUMMIT ST", "SR_14": 3.0, "Q_14": 2.0, "name": "WILD ROSE MANOR", "SF_14": 5.0, "SF_15": 5.0, "cnty": "Waushara", "st": "WI", "Zip": 54984.0, "O_14": 4.0, "Q_15": 2.0, "O_15": 4.0, "city": "WILD ROSE", "beds": 50.0, "SR_15": 3.0}, {"Diff_star": -1.0, "addr": "1625 E MAIN ST", "SR_14": 2.0, "Q_14": 4.0, "name": "PINE MANOR HEALTH CARE CENTER", "SF_14": 4.0, "SF_15": 3.0, "cnty": "Waupaca", "st": "WI", "Zip": 54929.0, "O_14": 3.0, "Q_15": 3.0, "O_15": 2.0, "city": "CLINTONVILLE", "beds": 95.0, "SR_15": 2.0}, {"Diff_star": 0.0, "addr": "7500 W DEAN RD", "SR_14": 1.0, "Q_14": 4.0, "name": "TRINITY VILLAGE", "SF_14": 5.0, "SF_15": 5.0, "cnty": "Milwaukee", "st": "WI", "Zip": 53223.0, "O_14": 2.0, "Q_15": 3.0, "O_15": 2.0, "city": "MILWAUKEE", "beds": 87.0, "SR_15": 1.0}, {"Diff_star": 0.0, "addr": "425 DAVIS ST", "SR_14": 4.0, "Q_14": 3.0, "name": "AMERICAN HERITAGE CARE CTR", "SF_14": 4.0, "SF_15": 4.0, "cnty": "St. Croix", "st": "WI", "Zip": 54015.0, "O_14": 4.0, "Q_15": 2.0, "O_15": 4.0, "city": "HAMMOND", "beds": 50.0, "SR_15": 4.0}, {"Diff_star": 0.0, "addr": "650 BIRCH ST", "SR_14": 2.0, "Q_14": 5.0, "name": "BALDWIN CARE CENTER", "SF_14": 5.0, "SF_15": 5.0, "cnty": "St. Croix", "st": "WI", "Zip": 54002.0, "O_14": 4.0, "Q_15": 5.0, "O_15": 4.0, "city": "BALDWIN", "beds": 50.0, "SR_15": 2.0}, {"Diff_star": 0.0, "addr": "1821 N 4TH AVE", "SR_14": 1.0, "Q_14": 5.0, "name": "BENEDICTINE MANOR OF WAUSAU", "SF_14": 4.0, "SF_15": 4.0, "cnty": "Marathon", "st": "WI", "Zip": 54401.0, "O_14": 2.0, "Q_15": 5.0, "O_15": 2.0, "city": "WAUSAU", "beds": 82.0, "SR_15": 1.0}, {"Diff_star": -1.0, "addr": "5790 S 27TH ST", "SR_14": 1.0, "Q_14": 3.0, "name": "CAMEO CARE CENTER", "SF_14": 4.0, "SF_15": 4.0, "cnty": "Milwaukee", "st": "WI", "Zip": 53221.0, "O_14": 2.0, "Q_15": 1.0, "O_15": 1.0, "city": "MILWAUKEE", "beds": 112.0, "SR_15": 1.0}, {"Diff_star": -1.0, "addr": "816 PORTER AVE", "SR_14": 2.0, "Q_14": 5.0, "name": "SYVERSON LUTHERAN HOME", "SF_14": 4.0, "SF_15": 4.0, "cnty": "Eau Claire", "st": "WI", "Zip": 54701.0, "O_14": 4.0, "Q_15": 4.0, "O_15": 3.0, "city": "EAU CLAIRE", "beds": 102.0, "SR_15": 2.0}, {"Diff_star": -1.0, "addr": "220 SCHOLL CT", "SR_14": 2.0, "Q_14": 3.0, "name": "GOLDEN AGE MANOR", "SF_14": 2.0, "SF_15": 2.0, "cnty": "Polk", "st": "WI", "Zip": 54001.0, "O_14": 2.0, "Q_15": 1.0, "O_15": 1.0, "city": "AMERY", "beds": 114.0, "SR_15": 2.0}, {"Diff_star": 0.0, "addr": "709 MEADOW PARK DR, PO BOX 309", "SR_14": 1.0, "Q_14": 5.0, "name": "ALDEN MEADOW PARK HCC", "SF_14": 4.0, "SF_15": 3.0, "cnty": "Rock", "st": "WI", "Zip": 53525.0, "O_14": 2.0, "Q_15": 5.0, "O_15": 2.0, "city": "CLINTON", "beds": 94.0, "SR_15": 1.0}, {"Diff_star": 0.0, "addr": "607 BRONSON RD", "SR_14": 5.0, "Q_14": 5.0, "name": "GOOD SHEPHERD SERVICES LTD", "SF_14": 4.0, "SF_15": 3.0, "cnty": "Outagamie", "st": "WI", "Zip": 54165.0, "O_14": 5.0, "Q_15": 5.0, "O_15": 5.0, "city": "SEYMOUR", "beds": 50.0, "SR_15": 5.0}, {"Diff_star": 0.0, "addr": "1902 MEAD AVE", "SR_14": 4.0, "Q_14": 4.0, "name": "SHEBOYGAN PROGRESSIVE CARE CTR", "SF_14": 3.0, "SF_15": 3.0, "cnty": "Sheboygan", "st": "WI", "Zip": 53081.0, "O_14": 4.0, "Q_15": 4.0, "O_15": 4.0, "city": "SHEBOYGAN", "beds": 142.0, "SR_15": 4.0}, {"Diff_star": 0.0, "addr": "400 N MORRIS ST", "SR_14": 3.0, "Q_14": 4.0, "name": "SKAALEN NURSING AND REHABILITATION CENTER", "SF_14": 4.0, "SF_15": 4.0, "cnty": "Dane", "st": "WI", "Zip": 53589.0, "O_14": 4.0, "Q_15": 2.0, "O_15": 4.0, "city": "STOUGHTON", "beds": 110.0, "SR_15": 3.0}, {"Diff_star": 0.0, "addr": "1663 E DIVISION ST", "SR_14": 2.0, "Q_14": 5.0, "name": "KINNIC HEALTH AND REHAB", "SF_14": 3.0, "SF_15": 3.0, "cnty": "St. Croix", "st": "WI", "Zip": 54022.0, "O_14": 3.0, "Q_15": 5.0, "O_15": 3.0, "city": "RIVER FALLS", "beds": 68.0, "SR_15": 2.0}, {"Diff_star": 0.0, "addr": "3737 DICKINSON RD", "SR_14": 4.0, "Q_14": 4.0, "name": "LEDGE VIEW NURSING CENTER", "SF_14": 5.0, "SF_15": 5.0, "cnty": "Brown", "st": "WI", "Zip": 54115.0, "O_14": 5.0, "Q_15": 3.0, "O_15": 5.0, "city": "DE PERE", "beds": 32.0, "SR_15": 4.0}, {"Diff_star": -1.0, "addr": "1100 E VERONA AVE", "SR_14": 2.0, "Q_14": 3.0, "name": "BADGER PRAIRIE HCC", "SF_14": 5.0, "SF_15": 5.0, "cnty": "Dane", "st": "WI", "Zip": 53593.0, "O_14": 3.0, "Q_15": 1.0, "O_15": 2.0, "city": "VERONA", "beds": 120.0, "SR_15": 2.0}, {"Diff_star": 0.0, "addr": "2805 HUNTERS TRAIL", "SR_14": 2.0, "Q_14": 4.0, "name": "TIVOLI AT DIVINE SAVIOR HEALTHCARE", "SF_14": 5.0, "SF_15": 5.0, "cnty": "Columbia", "st": "WI", "Zip": 53901.0, "O_14": 3.0, "Q_15": 3.0, "O_15": 3.0, "city": "PORTAGE", "beds": 83.0, "SR_15": 2.0}, {"Diff_star": 0.0, "addr": "1755 N BARKER RD", "SR_14": 5.0, "Q_14": 5.0, "name": "CARE AGE OF BROOKFIELD", "SF_14": 4.0, "SF_15": 4.0, "cnty": "Waukesha", "st": "WI", "Zip": 53045.0, "O_14": 5.0, "Q_15": 5.0, "O_15": 5.0, "city": "BROOKFIELD", "beds": 110.0, "SR_15": 5.0}, {"Diff_star": 0.0, "addr": "700 CLARK ST", "SR_14": 2.0, "Q_14": 5.0, "name": "GOOD SAMARITAN SOCIETY-LODI", "SF_14": 5.0, "SF_15": 5.0, "cnty": "Columbia", "st": "WI", "Zip": 53555.0, "O_14": 4.0, "Q_15": 5.0, "O_15": 4.0, "city": "LODI", "beds": 50.0, "SR_15": 2.0}, {"Diff_star": -2.0, "addr": "634 CENTER ST", "SR_14": 3.0, "Q_14": 5.0, "name": "HEARTLAND COUNTRY VILLAGE", "SF_14": 4.0, "SF_15": 3.0, "cnty": "Dane", "st": "WI", "Zip": 53515.0, "O_14": 5.0, "Q_15": 3.0, "O_15": 3.0, "city": "BLACK EARTH", "beds": 50.0, "SR_15": 3.0}, {"Diff_star": 0.0, "addr": "517 E DIVISION ST", "SR_14": 5.0, "Q_14": 5.0, "name": "GRANCARE NURSING AND REHAB CTR", "SF_14": 4.0, "SF_15": 4.0, "cnty": "Fond Du Lac", "st": "WI", "Zip": 54935.0, "O_14": 5.0, "Q_15": 5.0, "O_15": 5.0, "city": "FOND DU LAC", "beds": 75.0, "SR_15": 5.0}, {"Diff_star": -1.0, "addr": "9255 N 76TH ST", "SR_14": 5.0, "Q_14": 5.0, "name": "ALEXIAN VILLAGE OF MILWAUKEE", "SF_14": 4.0, "SF_15": 4.0, "cnty": "Milwaukee", "st": "WI", "Zip": 53223.0, "O_14": 5.0, "Q_15": 4.0, "O_15": 4.0, "city": "MILWAUKEE", "beds": 108.0, "SR_15": 4.0}, {"Diff_star": 0.0, "addr": "3800 N 92ND ST", "SR_14": 5.0, "Q_14": 5.0, "name": "ST ANNE'S SALVATORIAN CAMPUS", "SF_14": 4.0, "SF_15": 4.0, "cnty": "Milwaukee", "st": "WI", "Zip": 53222.0, "O_14": 5.0, "Q_15": 5.0, "O_15": 5.0, "city": "MILWAUKEE", "beds": 106.0, "SR_15": 5.0}, {"Diff_star": -2.0, "addr": "700 SOUTH FREMONT", "SR_14": 2.0, "Q_14": 5.0, "name": "PRAIRIE MAISON", "SF_14": 4.0, "SF_15": 4.0, "cnty": "Crawford", "st": "WI", "Zip": 53821.0, "O_14": 4.0, "Q_15": 5.0, "O_15": 2.0, "city": "PRAIRIE DU CHIEN", "beds": 70.0, "SR_15": 1.0}, {"Diff_star": 0.0, "addr": "3601 S CHICAGO AVE", "SR_14": 2.0, "Q_14": 4.0, "name": "FRANCISCAN VILLA", "SF_14": 3.0, "SF_15": 3.0, "cnty": "Milwaukee", "st": "WI", "Zip": 53172.0, "O_14": 2.0, "Q_15": 3.0, "O_15": 2.0, "city": "SOUTH MILWAUKEE", "beds": 150.0, "SR_15": 2.0}, {"Diff_star": 0.0, "addr": "604 S WEBB ST", "SR_14": 2.0, "Q_14": 3.0, "name": "HOMME HOME FOR THE AGING", "SF_14": 5.0, "SF_15": 5.0, "cnty": "Shawano", "st": "WI", "Zip": 54499.0, "O_14": 3.0, "Q_15": 2.0, "O_15": 3.0, "city": "WITTENBERG", "beds": 81.0, "SR_15": 2.0}, {"Diff_star": 0.0, "addr": "19525 W NORTH AVE", "SR_14": 4.0, "Q_14": 5.0, "name": "WHEATON FRANCISCAN HC - FRANCISCAN WOODS", "SF_14": 2.0, "SF_15": 3.0, "cnty": "Waukesha", "st": "WI", "Zip": 53045.0, "O_14": 5.0, "Q_15": 5.0, "O_15": 5.0, "city": "BROOKFIELD", "beds": 120.0, "SR_15": 4.0}, {"Diff_star": -1.0, "addr": "6800 N 76TH STREET", "SR_14": 1.0, "Q_14": 4.0, "name": "MILWAUKEE ESTATES REHAB AND CARE CENTER", "SF_14": 4.0, "SF_15": 3.0, "cnty": "Milwaukee", "st": "WI", "Zip": 53223.0, "O_14": 2.0, "Q_15": 2.0, "O_15": 1.0, "city": "MILWAUKEE", "beds": 144.0, "SR_15": 1.0}, {"Diff_star": 0.0, "addr": "555 N CHESTNUT ST", "SR_14": 1.0, "Q_14": 5.0, "name": "GRAY'S NURSING HOME", "SF_14": 5.0, "SF_15": 5.0, "cnty": "Grant", "st": "WI", "Zip": 53818.0, "O_14": 2.0, "Q_15": 5.0, "O_15": 2.0, "city": "PLATTEVILLE", "beds": 20.0, "SR_15": 1.0}, {"Diff_star": 0.0, "addr": "331 BLY ST", "SR_14": 2.0, "Q_14": 4.0, "name": "CHRISTIAN HOME AND REHAB CTR", "SF_14": 4.0, "SF_15": 4.0, "cnty": "Dodge", "st": "WI", "Zip": 53963.0, "O_14": 3.0, "Q_15": 2.0, "O_15": 3.0, "city": "WAUPUN", "beds": 50.0, "SR_15": 2.0}, {"Diff_star": 0.0, "addr": "750 E LOUISIANA ST", "SR_14": 2.0, "Q_14": 5.0, "name": "GOOD SAMARITAN SOCIETY-ST CROIX VALLEY", "SF_14": 4.0, "SF_15": 4.0, "cnty": "Polk", "st": "WI", "Zip": 54024.0, "O_14": 4.0, "Q_15": 5.0, "O_15": 4.0, "city": "ST CROIX FALLS", "beds": 60.0, "SR_15": 2.0}, {"Diff_star": 0.0, "addr": "1510 FREMONT ST", "SR_14": 4.0, "Q_14": 3.0, "name": "ALGOMA MEDICAL CENTER", "SF_14": 4.0, "SF_15": 3.0, "cnty": "Kewaunee", "st": "WI", "Zip": 54201.0, "O_14": 4.0, "Q_15": 2.0, "O_15": 4.0, "city": "ALGOMA", "beds": 60.0, "SR_15": 4.0}, {"Diff_star": 0.0, "addr": "459 E FIRST STREET", "SR_14": 1.0, "Q_14": 4.0, "name": "HARBOR HAVEN HEALTH & REHABILITATION", "SF_14": 4.0, "SF_15": 4.0, "cnty": "Fond Du Lac", "st": "WI", "Zip": 54935.0, "O_14": 2.0, "Q_15": 2.0, "O_15": 2.0, "city": "FOND DU LAC", "beds": 117.0, "SR_15": 1.0}, {"Diff_star": 0.0, "addr": "215 E BROWN ST", "SR_14": 3.0, "Q_14": 5.0, "name": "AUGUSTA AREA HOME, INC", "SF_14": 3.0, "SF_15": 3.0, "cnty": "Eau Claire", "st": "WI", "Zip": 54722.0, "O_14": 4.0, "Q_15": 5.0, "O_15": 4.0, "city": "AUGUSTA", "beds": 50.0, "SR_15": 3.0}, {"Diff_star": 0.0, "addr": "354 N MAIN ST", "SR_14": 3.0, "Q_14": 4.0, "name": "OREGON MANOR", "SF_14": 5.0, "SF_15": 5.0, "cnty": "Dane", "st": "WI", "Zip": 53575.0, "O_14": 4.0, "Q_15": 2.0, "O_15": 4.0, "city": "OREGON", "beds": 45.0, "SR_15": 3.0}, {"Diff_star": 0.0, "addr": "W76 N677 WAUWATOSA RD", "SR_14": 4.0, "Q_14": 5.0, "name": "LASATA CARE CENTER", "SF_14": 5.0, "SF_15": 5.0, "cnty": "Ozaukee", "st": "WI", "Zip": 53012.0, "O_14": 5.0, "Q_15": 5.0, "O_15": 5.0, "city": "CEDARBURG", "beds": 150.0, "SR_15": 4.0}, {"Diff_star": 0.0, "addr": "1226 BERLIN ST", "SR_14": 4.0, "Q_14": 5.0, "name": "BETHANY HOME", "SF_14": 4.0, "SF_15": 4.0, "cnty": "Waupaca", "st": "WI", "Zip": 54981.0, "O_14": 5.0, "Q_15": 5.0, "O_15": 5.0, "city": "WAUPACA", "beds": 104.0, "SR_15": 4.0}, {"Diff_star": 0.0, "addr": "1840 N PROSPECT AVE", "SR_14": 5.0, "Q_14": 4.0, "name": "ST JOHNS ON THE LAKE", "SF_14": 5.0, "SF_15": 5.0, "cnty": "Milwaukee", "st": "WI", "Zip": 53202.0, "O_14": 5.0, "Q_15": 3.0, "O_15": 5.0, "city": "MILWAUKEE", "beds": 50.0, "SR_15": 5.0}, {"Diff_star": 0.0, "addr": "300 VILLA DR", "SR_14": 2.0, "Q_14": 5.0, "name": "VILLA MARIA HEALTH AND REHAB CTR", "SF_14": 4.0, "SF_15": 4.0, "cnty": "Iron", "st": "WI", "Zip": 54534.0, "O_14": 4.0, "Q_15": 5.0, "O_15": 4.0, "city": "HURLEY", "beds": 70.0, "SR_15": 2.0}, {"Diff_star": 0.0, "addr": "645 N CHURCH ST", "SR_14": 5.0, "Q_14": 4.0, "name": "HOLTON MANOR", "SF_14": 4.0, "SF_15": 4.0, "cnty": "Walworth", "st": "WI", "Zip": 53121.0, "O_14": 5.0, "Q_15": 3.0, "O_15": 5.0, "city": "ELKHORN", "beds": 50.0, "SR_15": 5.0}, {"Diff_star": 0.0, "addr": "1400 8TH AVE", "SR_14": 5.0, "Q_14": 4.0, "name": "OAK RIDGE CARE CENTER", "SF_14": 4.0, "SF_15": 4.0, "cnty": "Racine", "st": "WI", "Zip": 53182.0, "O_14": 5.0, "Q_15": 3.0, "O_15": 5.0, "city": "UNION GROVE", "beds": 73.0, "SR_15": 5.0}, {"Diff_star": 0.0, "addr": "1020 HILL ST", "SR_14": 1.0, "Q_14": 2.0, "name": "MARQUARDT MEMORIAL MANOR", "SF_14": 3.0, "SF_15": 3.0, "cnty": "Dodge", "st": "WI", "Zip": 53098.0, "O_14": 1.0, "Q_15": 2.0, "O_15": 1.0, "city": "WATERTOWN", "beds": 140.0, "SR_15": 1.0}, {"Diff_star": 0.0, "addr": "232 E SPRINGER AVE", "SR_14": 3.0, "Q_14": 5.0, "name": "HERITAGE OF ELMWOOD NH", "SF_14": 4.0, "SF_15": 4.0, "cnty": "Pierce", "st": "WI", "Zip": 54740.0, "O_14": 5.0, "Q_15": 5.0, "O_15": 5.0, "city": "ELMWOOD", "beds": 46.0, "SR_15": 3.0}, {"Diff_star": 0.0, "addr": "7500 W NORTH AVE", "SR_14": 4.0, "Q_14": 5.0, "name": "LUTHERAN HOME", "SF_14": 4.0, "SF_15": 4.0, "cnty": "Milwaukee", "st": "WI", "Zip": 53213.0, "O_14": 5.0, "Q_15": 5.0, "O_15": 5.0, "city": "WAUWATOSA", "beds": 187.0, "SR_15": 4.0}, {"Diff_star": 0.0, "addr": "1712 MONROE ST", "SR_14": 1.0, "Q_14": 5.0, "name": "HOMESTEAD CARE CENTER, LLC", "SF_14": 3.0, "SF_15": 3.0, "cnty": "Calumet", "st": "WI", "Zip": 53061.0, "O_14": 2.0, "Q_15": 5.0, "O_15": 2.0, "city": "NEW HOLSTEIN", "beds": 60.0, "SR_15": 1.0}, {"Diff_star": 0.0, "addr": "6263 N GREEN BAY AVE", "SR_14": 1.0, "Q_14": 4.0, "name": "SEVEN OAKS NURSING & REHABILITATION CENTER", "SF_14": 4.0, "SF_15": 4.0, "cnty": "Milwaukee", "st": "WI", "Zip": 53209.0, "O_14": 2.0, "Q_15": 4.0, "O_15": 2.0, "city": "GLENDALE", "beds": 94.0, "SR_15": 1.0}, {"Diff_star": 0.0, "addr": "2600 S HERITAGE WOODS DR", "SR_14": 1.0, "Q_14": 5.0, "name": "PEABODY MANOR", "SF_14": 4.0, "SF_15": 4.0, "cnty": "Winnebago", "st": "WI", "Zip": 54915.0, "O_14": 2.0, "Q_15": 5.0, "O_15": 2.0, "city": "APPLETON", "beds": 58.0, "SR_15": 1.0}, {"Diff_star": -1.0, "addr": "5404 W LOOMIS RD", "SR_14": 4.0, "Q_14": 5.0, "name": "GOLDEN LIVINGCENTER-HERITAGE SQUARE", "SF_14": 4.0, "SF_15": 4.0, "cnty": "Milwaukee", "st": "WI", "Zip": 53129.0, "O_14": 5.0, "Q_15": 2.0, "O_15": 4.0, "city": "GREENDALE", "beds": 100.0, "SR_15": 4.0}, {"Diff_star": 0.0, "addr": "1130 N MARGARET", "SR_14": 4.0, "Q_14": 5.0, "name": "MARKESAN RESIDENT HOME", "SF_14": 4.0, "SF_15": 4.0, "cnty": "Green Lake", "st": "WI", "Zip": 53946.0, "O_14": 5.0, "Q_15": 5.0, "O_15": 5.0, "city": "MARKESAN", "beds": 50.0, "SR_15": 4.0}, {"Diff_star": 0.0, "addr": "50 WOLVERTON AVE", "SR_14": 4.0, "Q_14": 5.0, "name": "FOUNTAIN VIEW CARE CTR", "SF_14": 3.0, "SF_15": 3.0, "cnty": "Fond Du Lac", "st": "WI", "Zip": 54971.0, "O_14": 5.0, "Q_15": 5.0, "O_15": 5.0, "city": "RIPON", "beds": 85.0, "SR_15": 4.0}, {"Diff_star": -1.0, "addr": "3200 S 20TH ST", "SR_14": 4.0, "Q_14": 5.0, "name": "WHEATON FRANCISCAN HC - TERRACE AT ST FRANCIS", "SF_14": 4.0, "SF_15": 3.0, "cnty": "Milwaukee", "st": "WI", "Zip": 53215.0, "O_14": 5.0, "Q_15": 4.0, "O_15": 4.0, "city": "MILWAUKEE", "beds": 81.0, "SR_15": 4.0}, {"Diff_star": -1.0, "addr": "802 E CTY HWY B  PO BOX 609", "SR_14": 3.0, "Q_14": 5.0, "name": "TERRACEVIEW LIVING CTR, INC", "SF_14": 4.0, "SF_15": 3.0, "cnty": "Washburn", "st": "WI", "Zip": 54871.0, "O_14": 5.0, "Q_15": 5.0, "O_15": 4.0, "city": "SHELL LAKE", "beds": 50.0, "SR_15": 3.0}, {"Diff_star": 0.0, "addr": "225 N EAGLE ST", "SR_14": 1.0, "Q_14": 5.0, "name": "BETHEL HOME", "SF_14": 4.0, "SF_15": 4.0, "cnty": "Winnebago", "st": "WI", "Zip": 54902.0, "O_14": 2.0, "Q_15": 5.0, "O_15": 2.0, "city": "OSHKOSH", "beds": 135.0, "SR_15": 1.0}, {"Diff_star": 0.0, "addr": "3506 WASHINGTON RD", "SR_14": 5.0, "Q_14": 5.0, "name": "BROOKSIDE CARE CTR", "SF_14": 4.0, "SF_15": 4.0, "cnty": "Kenosha", "st": "WI", "Zip": 53144.0, "O_14": 5.0, "Q_15": 4.0, "O_15": 5.0, "city": "KENOSHA", "beds": 154.0, "SR_15": 5.0}, {"Diff_star": 0.0, "addr": "1040 PILGRIM WAY", "SR_14": 4.0, "Q_14": 5.0, "name": "WOODSIDE LUTHERAN HOME", "SF_14": 4.0, "SF_15": 4.0, "cnty": "Brown", "st": "WI", "Zip": 54304.0, "O_14": 5.0, "Q_15": 5.0, "O_15": 5.0, "city": "GREEN BAY", "beds": 130.0, "SR_15": 4.0}, {"Diff_star": 0.0, "addr": "257 W ST GEORGE AVE", "SR_14": 3.0, "Q_14": 5.0, "name": "BURNETT MEDICAL CENTER", "SF_14": 5.0, "SF_15": 5.0, "cnty": "Burnett", "st": "WI", "Zip": 54840.0, "O_14": 5.0, "Q_15": 5.0, "O_15": 5.0, "city": "GRANTSBURG", "beds": 50.0, "SR_15": 3.0}, {"Diff_star": 0.0, "addr": "1229 S JACKSON ST", "SR_14": 2.0, "Q_14": 5.0, "name": "ODD FELLOW HOME", "SF_14": 5.0, "SF_15": 5.0, "cnty": "Brown", "st": "WI", "Zip": 54301.0, "O_14": 4.0, "Q_15": 5.0, "O_15": 4.0, "city": "GREEN BAY", "beds": 74.0, "SR_15": 2.0}, {"Diff_star": 0.0, "addr": "1305 W WISCONSIN AVE", "SR_14": 5.0, "Q_14": 5.0, "name": "SHOREHAVEN HLTH & REHAB CTR", "SF_14": 4.0, "SF_15": 4.0, "cnty": "Waukesha", "st": "WI", "Zip": 53066.0, "O_14": 5.0, "Q_15": 4.0, "O_15": 5.0, "city": "OCONOMOWOC", "beds": 120.0, "SR_15": 5.0}, {"Diff_star": 0.0, "addr": "3271 NORTH ST", "SR_14": 2.0, "Q_14": 3.0, "name": "EAST TROY MANOR", "SF_14": 4.0, "SF_15": 4.0, "cnty": "Walworth", "st": "WI", "Zip": 53120.0, "O_14": 3.0, "Q_15": 2.0, "O_15": 3.0, "city": "EAST TROY", "beds": 44.0, "SR_15": 2.0}, {"Diff_star": -1.0, "addr": "E7404A COUNTY RD BB", "SR_14": 1.0, "Q_14": 4.0, "name": "VERNON MANOR", "SF_14": 4.0, "SF_15": 4.0, "cnty": "Vernon", "st": "WI", "Zip": 54665.0, "O_14": 2.0, "Q_15": 1.0, "O_15": 1.0, "city": "VIROQUA", "beds": 90.0, "SR_15": 1.0}, {"Diff_star": 0.0, "addr": "1110 SECOND ST", "SR_14": 1.0, "Q_14": 4.0, "name": "PEPIN HEALTH AND REHAB", "SF_14": 2.0, "SF_15": 2.0, "cnty": "Pepin", "st": "WI", "Zip": 54759.0, "O_14": 1.0, "Q_15": 4.0, "O_15": 1.0, "city": "PEPIN", "beds": 50.0, "SR_15": 1.0}, {"Diff_star": 0.0, "addr": "211 S CURTIS ST", "SR_14": 1.0, "Q_14": 4.0, "name": "GENEVA LAKE MANOR", "SF_14": 5.0, "SF_15": 5.0, "cnty": "Walworth", "st": "WI", "Zip": 53147.0, "O_14": 2.0, "Q_15": 3.0, "O_15": 2.0, "city": "LAKE GENEVA", "beds": 60.0, "SR_15": 1.0}, {"Diff_star": 0.0, "addr": "706 BRATLEY DR", "SR_14": 4.0, "Q_14": 5.0, "name": "NORTHERN LIGHTS HCC", "SF_14": 2.0, "SF_15": 2.0, "cnty": "Bayfield", "st": "WI", "Zip": 54891.0, "O_14": 5.0, "Q_15": 5.0, "O_15": 5.0, "city": "WASHBURN", "beds": 65.0, "SR_15": 4.0}, {"Diff_star": 0.0, "addr": "3014 ERIE AVE", "SR_14": 1.0, "Q_14": 4.0, "name": "SUNNY RIDGE HEALTH AND REHAB CENTER", "SF_14": 2.0, "SF_15": 2.0, "cnty": "Sheboygan", "st": "WI", "Zip": 53081.0, "O_14": 1.0, "Q_15": 3.0, "O_15": 1.0, "city": "SHEBOYGAN", "beds": 121.0, "SR_15": 1.0}, {"Diff_star": 0.0, "addr": "226 BORNEMANN ST", "SR_14": 2.0, "Q_14": 4.0, "name": "BORNEMANN NURSING HOME", "SF_14": "", "SF_15": "", "cnty": "Brown", "st": "WI", "Zip": 54302.0, "O_14": 2.0, "Q_15": 4.0, "O_15": 2.0, "city": "GREEN BAY", "beds": 127.0, "SR_15": 2.0}, {"Diff_star": 0.0, "addr": "400 N MAIN ST", "SR_14": 2.0, "Q_14": 5.0, "name": "MASONIC CENTER FOR HEALTH & REHAB INC", "SF_14": 5.0, "SF_15": 5.0, "cnty": "Waukesha", "st": "WI", "Zip": 53118.0, "O_14": 4.0, "Q_15": 5.0, "O_15": 4.0, "city": "DOUSMAN", "beds": 84.0, "SR_15": 2.0}, {"Diff_star": -1.0, "addr": "200 S NINTH ST", "SR_14": 2.0, "Q_14": 5.0, "name": "RENNES HEALTH AND REHAB CENTER-DEPERE", "SF_14": 3.0, "SF_15": 3.0, "cnty": "Brown", "st": "WI", "Zip": 54115.0, "O_14": 3.0, "Q_15": 4.0, "O_15": 2.0, "city": "DE PERE", "beds": 122.0, "SR_15": 2.0}, {"Diff_star": 0.0, "addr": "3300 W BREWSTER ST", "SR_14": 4.0, "Q_14": 4.0, "name": "BREWSTER VILLAGE", "SF_14": 4.0, "SF_15": 4.0, "cnty": "Outagamie", "st": "WI", "Zip": 54914.0, "O_14": 4.0, "Q_15": 3.0, "O_15": 4.0, "city": "APPLETON", "beds": 204.0, "SR_15": 4.0}, {"Diff_star": -1.0, "addr": "1235 S 24TH ST", "SR_14": 2.0, "Q_14": 5.0, "name": "SHADY LANE NURSING CARE CENTER", "SF_14": 4.0, "SF_15": 4.0, "cnty": "Manitowoc", "st": "WI", "Zip": 54220.0, "O_14": 4.0, "Q_15": 3.0, "O_15": 3.0, "city": "MANITOWOC", "beds": 116.0, "SR_15": 2.0}, {"Diff_star": 0.0, "addr": "N27 W5707 LINCOLN BLVD", "SR_14": 3.0, "Q_14": 5.0, "name": "CEDAR SPRINGS HLTH REHAB CTR", "SF_14": 4.0, "SF_15": 4.0, "cnty": "Ozaukee", "st": "WI", "Zip": 53012.0, "O_14": 5.0, "Q_15": 5.0, "O_15": 5.0, "city": "CEDARBURG", "beds": 78.0, "SR_15": 3.0}, {"Diff_star": 0.0, "addr": "1201 GARFIELD AVE", "SR_14": 4.0, "Q_14": 5.0, "name": "PARKSIDE CARE CENTER, LLC", "SF_14": 2.0, "SF_15": 2.0, "cnty": "Outagamie", "st": "WI", "Zip": 54140.0, "O_14": 5.0, "Q_15": 5.0, "O_15": 5.0, "city": "LITTLE CHUTE", "beds": 65.0, "SR_15": 4.0}, {"Diff_star": 0.0, "addr": "1840 PRIDDY ST", "SR_14": 4.0, "Q_14": 5.0, "name": "HETZEL CARE NURSING & REHABILITATION CENTER LLC", "SF_14": 4.0, "SF_15": 4.0, "cnty": "Chippewa", "st": "WI", "Zip": 54724.0, "O_14": 5.0, "Q_15": 5.0, "O_15": 5.0, "city": "BLOOMER", "beds": 31.0, "SR_15": 3.0}, {"Diff_star": 0.0, "addr": "612 VIEW ST", "SR_14": 3.0, "Q_14": 5.0, "name": "CREST VIEW NURSING HOME", "SF_14": 4.0, "SF_15": 4.0, "cnty": "Juneau", "st": "WI", "Zip": 53950.0, "O_14": 5.0, "Q_15": 5.0, "O_15": 5.0, "city": "NEW LISBON", "beds": 60.0, "SR_15": 3.0}, {"Diff_star": -1.0, "addr": "325 E FLORIDA AVE", "SR_14": 3.0, "Q_14": 4.0, "name": "RENNES HEALTH AND REHAB CENTER- APPLETON", "SF_14": 4.0, "SF_15": 1.0, "cnty": "Outagamie", "st": "WI", "Zip": 54911.0, "O_14": 4.0, "Q_15": 2.0, "O_15": 3.0, "city": "APPLETON", "beds": 88.0, "SR_15": 4.0}, {"Diff_star": 0.0, "addr": "1119 N WISCONSIN ST", "SR_14": 3.0, "Q_14": 5.0, "name": "HERITAGE NURSING AND REHAB CTR", "SF_14": 4.0, "SF_15": 4.0, "cnty": "Ozaukee", "st": "WI", "Zip": 53074.0, "O_14": 5.0, "Q_15": 5.0, "O_15": 5.0, "city": "PORT WASHINGTON", "beds": 74.0, "SR_15": 3.0}, {"Diff_star": 0.0, "addr": "435 W STARIN RD", "SR_14": 3.0, "Q_14": 4.0, "name": "FAIRHAVEN CORPORATION", "SF_14": 4.0, "SF_15": 4.0, "cnty": "Walworth", "st": "WI", "Zip": 53190.0, "O_14": 4.0, "Q_15": 4.0, "O_15": 4.0, "city": "WHITEWATER", "beds": 84.0, "SR_15": 3.0}, {"Diff_star": 0.0, "addr": "4545 N 92ND ST", "SR_14": 3.0, "Q_14": 4.0, "name": "LUTHER MANOR", "SF_14": 4.0, "SF_15": 4.0, "cnty": "Milwaukee", "st": "WI", "Zip": 53225.0, "O_14": 4.0, "Q_15": 3.0, "O_15": 4.0, "city": "MILWAUKEE", "beds": 210.0, "SR_15": 3.0}, {"Diff_star": 0.0, "addr": "1970 NAVAJO ST", "SR_14": 3.0, "Q_14": 4.0, "name": "RENNES HEALTH AND REHAB CENTER-RHINELANDER", "SF_14": 4.0, "SF_15": 4.0, "cnty": "Oneida", "st": "WI", "Zip": 54501.0, "O_14": 4.0, "Q_15": 3.0, "O_15": 4.0, "city": "RHINELANDER", "beds": 72.0, "SR_15": 3.0}, {"Diff_star": 0.0, "addr": "430 S CLAY ST", "SR_14": 3.0, "Q_14": 2.0, "name": "SANTA MARIA NURSING HOME", "SF_14": 5.0, "SF_15": 5.0, "cnty": "Brown", "st": "WI", "Zip": 54301.0, "O_14": 4.0, "Q_15": 2.0, "O_15": 4.0, "city": "GREEN BAY", "beds": 50.0, "SR_15": 3.0}, {"Diff_star": 0.0, "addr": "614 S ROCK AVE", "SR_14": 2.0, "Q_14": 5.0, "name": "BETHEL HOME AND SERVICES", "SF_14": 4.0, "SF_15": 4.0, "cnty": "Vernon", "st": "WI", "Zip": 54665.0, "O_14": 4.0, "Q_15": 5.0, "O_15": 4.0, "city": "VIROQUA", "beds": 85.0, "SR_15": 2.0}, {"Diff_star": 0.0, "addr": "1001 E 11TH ST N", "SR_14": 2.0, "Q_14": 5.0, "name": "LADYSMITH NURSING HOME", "SF_14": 4.0, "SF_15": 4.0, "cnty": "Rusk", "st": "WI", "Zip": 54848.0, "O_14": 4.0, "Q_15": 5.0, "O_15": 4.0, "city": "LADYSMITH", "beds": 32.0, "SR_15": 2.0}, {"Diff_star": -1.0, "addr": "33 EVERETT ST", "SR_14": 4.0, "Q_14": 5.0, "name": "ST FRANCIS HOME", "SF_14": 4.0, "SF_15": 4.0, "cnty": "Fond Du Lac", "st": "WI", "Zip": 54935.0, "O_14": 5.0, "Q_15": 4.0, "O_15": 4.0, "city": "FOND DU LAC", "beds": 107.0, "SR_15": 4.0}, {"Diff_star": 0.0, "addr": "9449 W FOREST HOME AVE", "SR_14": 4.0, "Q_14": 5.0, "name": "HALES CORNERS CARE CTR", "SF_14": 4.0, "SF_15": 4.0, "cnty": "Milwaukee", "st": "WI", "Zip": 53130.0, "O_14": 5.0, "Q_15": 5.0, "O_15": 5.0, "city": "HALES CORNERS", "beds": 62.0, "SR_15": 4.0}, {"Diff_star": 0.0, "addr": "930 N 6TH ST", "SR_14": 3.0, "Q_14": 5.0, "name": "SHEBOYGAN SENIOR COMMUNITY INC", "SF_14": 5.0, "SF_15": 5.0, "cnty": "Sheboygan", "st": "WI", "Zip": 53081.0, "O_14": 5.0, "Q_15": 5.0, "O_15": 5.0, "city": "SHEBOYGAN", "beds": 75.0, "SR_15": 3.0}, {"Diff_star": 0.0, "addr": "107 E BECKERT RD", "SR_14": 3.0, "Q_14": 4.0, "name": "ST JOSEPH RESIDENCE", "SF_14": 5.0, "SF_15": 5.0, "cnty": "Waupaca", "st": "WI", "Zip": 54961.0, "O_14": 4.0, "Q_15": 3.0, "O_15": 4.0, "city": "NEW LONDON", "beds": 107.0, "SR_15": 3.0}, {"Diff_star": 0.0, "addr": "5301 W LINCOLN AVE", "SR_14": 1.0, "Q_14": 5.0, "name": "MITCHELL MANOR", "SF_14": 4.0, "SF_15": 4.0, "cnty": "Milwaukee", "st": "WI", "Zip": 53219.0, "O_14": 2.0, "Q_15": 5.0, "O_15": 2.0, "city": "WEST ALLIS", "beds": 74.0, "SR_15": 1.0}, {"Diff_star": 0.0, "addr": "612 E OAK ST", "SR_14": 5.0, "Q_14": 4.0, "name": "GLENHAVEN", "SF_14": 4.0, "SF_15": 4.0, "cnty": "St. Croix", "st": "WI", "Zip": 54013.0, "O_14": 5.0, "Q_15": 5.0, "O_15": 5.0, "city": "GLENWOOD CITY", "beds": 40.0, "SR_15": 5.0}, {"Diff_star": 0.0, "addr": "9244 29TH AVE", "SR_14": 5.0, "Q_14": 4.0, "name": "ST JOSEPH'S HOME AND REHABILITATION CENTER", "SF_14": 4.0, "SF_15": 4.0, "cnty": "Kenosha", "st": "WI", "Zip": 53143.0, "O_14": 5.0, "Q_15": 3.0, "O_15": 5.0, "city": "KENOSHA", "beds": 90.0, "SR_15": 5.0}, {"Diff_star": 0.0, "addr": "4500 W LOOMIS RD", "SR_14": 1.0, "Q_14": 4.0, "name": "SOUTHPOINTE HEALTHCARE CTR", "SF_14": 2.0, "SF_15": 2.0, "cnty": "Milwaukee", "st": "WI", "Zip": 53220.0, "O_14": 1.0, "Q_15": 2.0, "O_15": 1.0, "city": "GREENFIELD", "beds": 174.0, "SR_15": 1.0}, {"Diff_star": 0.0, "addr": "3613 S 13TH ST", "SR_14": 4.0, "Q_14": 5.0, "name": "MEADOW VIEW MANOR", "SF_14": 3.0, "SF_15": 3.0, "cnty": "Sheboygan", "st": "WI", "Zip": 53081.0, "O_14": 5.0, "Q_15": 5.0, "O_15": 5.0, "city": "SHEBOYGAN", "beds": 74.0, "SR_15": 4.0}, {"Diff_star": 0.0, "addr": "208 ELM ST PO BOX 9", "SR_14": 1.0, "Q_14": 4.0, "name": "STRUM AREA HEALTH AND REHABILITATION", "SF_14": 4.0, "SF_15": 4.0, "cnty": "Trempealeau", "st": "WI", "Zip": 54770.0, "O_14": 2.0, "Q_15": 4.0, "O_15": 2.0, "city": "STRUM", "beds": 46.0, "SR_15": 1.0}, {"Diff_star": 0.0, "addr": "3431 N 13TH ST", "SR_14": 4.0, "Q_14": 5.0, "name": "MORNINGSIDE HEALTH CTR", "SF_14": 4.0, "SF_15": 3.0, "cnty": "Sheboygan", "st": "WI", "Zip": 53083.0, "O_14": 5.0, "Q_15": 5.0, "O_15": 5.0, "city": "SHEBOYGAN", "beds": 72.0, "SR_15": 4.0}, {"Diff_star": 0.0, "addr": "3205 WOOD RD", "SR_14": 3.0, "Q_14": 4.0, "name": "RIDGEWOOD CARE CTR", "SF_14": 4.0, "SF_15": 4.0, "cnty": "Racine", "st": "WI", "Zip": 53406.0, "O_14": 4.0, "Q_15": 4.0, "O_15": 4.0, "city": "RACINE", "beds": 200.0, "SR_15": 3.0}, {"Diff_star": 0.0, "addr": "1635 S 21ST STREET", "SR_14": 3.0, "Q_14": 5.0, "name": "ST MARYS HOME FOR THE AGED", "SF_14": 4.0, "SF_15": 4.0, "cnty": "Manitowoc", "st": "WI", "Zip": 54220.0, "O_14": 5.0, "Q_15": 5.0, "O_15": 5.0, "city": "MANITOWOC", "beds": 84.0, "SR_15": 3.0}, {"Diff_star": -1.0, "addr": "825 WHITING AVE", "SR_14": 4.0, "Q_14": 5.0, "name": "PORTAGE CTY HLTH CARE CTR", "SF_14": 4.0, "SF_15": 4.0, "cnty": "Portage", "st": "WI", "Zip": 54481.0, "O_14": 5.0, "Q_15": 4.0, "O_15": 4.0, "city": "STEVENS POINT", "beds": 100.0, "SR_15": 4.0}, {"Diff_star": -1.0, "addr": "250 LAWRENCE AVE", "SR_14": 3.0, "Q_14": 4.0, "name": "PARK MANOR LTD", "SF_14": 4.0, "SF_15": 4.0, "cnty": "Price", "st": "WI", "Zip": 54552.0, "O_14": 4.0, "Q_15": 3.0, "O_15": 3.0, "city": "PARK FALLS", "beds": 117.0, "SR_15": 2.0}, {"Diff_star": 0.0, "addr": "35 N 28TH ST", "SR_14": 3.0, "Q_14": 5.0, "name": "VILLA MARINA HEALTH AND REHAB CTR", "SF_14": 2.0, "SF_15": 2.0, "cnty": "Douglas", "st": "WI", "Zip": 54880.0, "O_14": 4.0, "Q_15": 5.0, "O_15": 4.0, "city": "SUPERIOR", "beds": 72.0, "SR_15": 3.0}, {"Diff_star": 0.0, "addr": "305 S CLARK ST", "SR_14": 2.0, "Q_14": 5.0, "name": "MAYVILLE NURSING AND REHAB CTR", "SF_14": 4.0, "SF_15": 4.0, "cnty": "Dodge", "st": "WI", "Zip": 53050.0, "O_14": 4.0, "Q_15": 5.0, "O_15": 4.0, "city": "MAYVILLE", "beds": 133.0, "SR_15": 2.0}, {"Diff_star": 0.0, "addr": "316 EAST 14TH STREET", "SR_14": 3.0, "Q_14": 5.0, "name": "ST PAUL ELDER SERVICES, INC", "SF_14": 4.0, "SF_15": 4.0, "cnty": "Outagamie", "st": "WI", "Zip": 54130.0, "O_14": 5.0, "Q_15": 5.0, "O_15": 5.0, "city": "KAUKAUNA", "beds": 117.0, "SR_15": 4.0}, {"Diff_star": -1.0, "addr": "3200 W PLEASANT VALLEY RD", "SR_14": 5.0, "Q_14": 2.0, "name": "SAMARITAN'S CEDAR CROSSING SUBACUTE UNIT", "SF_14": 5.0, "SF_15": 5.0, "cnty": "Washington", "st": "WI", "Zip": 53095.0, "O_14": 5.0, "Q_15": 1.0, "O_15": 4.0, "city": "WEST BEND", "beds": 18.0, "SR_15": 5.0}, {"Diff_star": 0.0, "addr": "323 BLACK RIVER RD", "SR_14": 4.0, "Q_14": 4.0, "name": "NORSELAND NURSING HOME", "SF_14": 4.0, "SF_15": 4.0, "cnty": "Vernon", "st": "WI", "Zip": 54667.0, "O_14": 4.0, "Q_15": 3.0, "O_15": 4.0, "city": "WESTBY", "beds": 59.0, "SR_15": 4.0}, {"Diff_star": 0.0, "addr": "N8114 COUNTY WW", "SR_14": 4.0, "Q_14": 5.0, "name": "VILLA LORETTO NURSING HOME", "SF_14": 4.0, "SF_15": 4.0, "cnty": "Fond Du Lac", "st": "WI", "Zip": 53057.0, "O_14": 5.0, "Q_15": 5.0, "O_15": 5.0, "city": "MOUNT CALVARY", "beds": 50.0, "SR_15": 4.0}, {"Diff_star": 0.0, "addr": "101 SUNSHINE BLVD  PO BOX 177", "SR_14": 2.0, "Q_14": 4.0, "name": "SANNES SKOGDALEN HEIM", "SF_14": 4.0, "SF_15": 4.0, "cnty": "Crawford", "st": "WI", "Zip": 54655.0, "O_14": 3.0, "Q_15": 2.0, "O_15": 3.0, "city": "SOLDIERS GROVE", "beds": 50.0, "SR_15": 2.0}, {"Diff_star": 0.0, "addr": "3576A NU ROC LN", "SR_14": 4.0, "Q_14": 4.0, "name": "NU ROC COMMUNITY  HEALTHCARE", "SF_14": 4.0, "SF_15": 4.0, "cnty": "Forest", "st": "WI", "Zip": 54541.0, "O_14": 4.0, "Q_15": 3.0, "O_15": 4.0, "city": "LAONA", "beds": 50.0, "SR_15": 4.0}, {"Diff_star": 0.0, "addr": "620 GRAND VIEW AVE PO BOX 27", "SR_14": 2.0, "Q_14": 5.0, "name": "GRAND VIEW CARE CTR", "SF_14": 3.0, "SF_15": 3.0, "cnty": "Trempealeau", "st": "WI", "Zip": 54616.0, "O_14": 3.0, "Q_15": 5.0, "O_15": 3.0, "city": "BLAIR", "beds": 98.0, "SR_15": 2.0}, {"Diff_star": -1.0, "addr": "1922 CTY RD NN", "SR_14": 4.0, "Q_14": 5.0, "name": "LAKELAND HEALTH CARE CTR", "SF_14": 4.0, "SF_15": 4.0, "cnty": "Walworth", "st": "WI", "Zip": 53121.0, "O_14": 5.0, "Q_15": 4.0, "O_15": 4.0, "city": "ELKHORN", "beds": 120.0, "SR_15": 4.0}, {"Diff_star": -1.0, "addr": "1320 WISCONSIN ST", "SR_14": 3.0, "Q_14": 5.0, "name": "CHRISTIAN COMMUNITY HOME", "SF_14": 4.0, "SF_15": 4.0, "cnty": "St. Croix", "st": "WI", "Zip": 54016.0, "O_14": 5.0, "Q_15": 4.0, "O_15": 4.0, "city": "HUDSON", "beds": 81.0, "SR_15": 3.0}, {"Diff_star": 0.0, "addr": "595 PETERSON DR", "SR_14": 4.0, "Q_14": 5.0, "name": "ASPIRUS PLEASANT VIEW", "SF_14": 4.0, "SF_15": 4.0, "cnty": "Price", "st": "WI", "Zip": 54555.0, "O_14": 5.0, "Q_15": 5.0, "O_15": 5.0, "city": "PHILLIPS", "beds": 50.0, "SR_15": 4.0}, {"Diff_star": 0.0, "addr": "19475 SILVER CREEK RD", "SR_14": 3.0, "Q_14": 5.0, "name": "MARINUKA MANOR", "SF_14": 4.0, "SF_15": 4.0, "cnty": "Trempealeau", "st": "WI", "Zip": 54630.0, "O_14": 5.0, "Q_15": 5.0, "O_15": 5.0, "city": "GALESVILLE", "beds": 59.0, "SR_15": 3.0}, {"Diff_star": 0.0, "addr": "316 SUNSET PLACE", "SR_14": 2.0, "Q_14": 4.0, "name": "NEILLSVILLE CARE AND REHAB", "SF_14": 4.0, "SF_15": 3.0, "cnty": "Clark", "st": "WI", "Zip": 54456.0, "O_14": 3.0, "Q_15": 5.0, "O_15": 3.0, "city": "NEILLSVILLE", "beds": 60.0, "SR_15": 2.0}, {"Diff_star": 0.0, "addr": "600 2ND AVE", "SR_14": 4.0, "Q_14": 4.0, "name": "NEW GLARUS HOME", "SF_14": 4.0, "SF_15": 4.0, "cnty": "Green", "st": "WI", "Zip": 53574.0, "O_14": 4.0, "Q_15": 3.0, "O_15": 4.0, "city": "NEW GLARUS", "beds": 97.0, "SR_15": 4.0}, {"Diff_star": 0.0, "addr": "11040 NORTH STATE RD 77", "SR_14": 5.0, "Q_14": 5.0, "name": "WATER'S EDGE", "SF_14": 4.0, "SF_15": 4.0, "cnty": "Sawyer", "st": "WI", "Zip": 54843.0, "O_14": 5.0, "Q_15": 5.0, "O_15": 5.0, "city": "HAYWARD", "beds": 50.0, "SR_15": 5.0}, {"Diff_star": 0.0, "addr": "2330 N PROSPECT AVE", "SR_14": 4.0, "Q_14": 4.0, "name": "MILWAUKEE CATHOLIC HOME", "SF_14": 5.0, "SF_15": 5.0, "cnty": "Milwaukee", "st": "WI", "Zip": 53211.0, "O_14": 5.0, "Q_15": 4.0, "O_15": 5.0, "city": "MILWAUKEE", "beds": 122.0, "SR_15": 4.0}, {"Diff_star": 0.0, "addr": "320 N 7TH ST", "SR_14": 4.0, "Q_14": 5.0, "name": "CORNELL AREA CARE CTR", "SF_14": 2.0, "SF_15": 2.0, "cnty": "Chippewa", "st": "WI", "Zip": 54732.0, "O_14": 5.0, "Q_15": 5.0, "O_15": 5.0, "city": "CORNELL", "beds": 50.0, "SR_15": 4.0}, {"Diff_star": 0.0, "addr": "725 BUTLER AVE", "SR_14": 4.0, "Q_14": 4.0, "name": "PARK VIEW HEALTH CENTER", "SF_14": 5.0, "SF_15": 5.0, "cnty": "Winnebago", "st": "WI", "Zip": 54901.0, "O_14": 5.0, "Q_15": 4.0, "O_15": 5.0, "city": "OSHKOSH", "beds": 168.0, "SR_15": 5.0}, {"Diff_star": -1.0, "addr": "109 S ATWOOD AVENUE", "SR_14": 2.0, "Q_14": 5.0, "name": "ST ELIZABETH NURSING HOME", "SF_14": 4.0, "SF_15": 4.0, "cnty": "Rock", "st": "WI", "Zip": 53545.0, "O_14": 4.0, "Q_15": 4.0, "O_15": 3.0, "city": "JANESVILLE", "beds": 43.0, "SR_15": 2.0}, {"Diff_star": 0.0, "addr": "430 E DIVISION ST", "SR_14": 5.0, "Q_14": 3.0, "name": "TRANSITIONAL CARE UNIT", "SF_14": "", "SF_15": "", "cnty": "Fond Du Lac", "st": "WI", "Zip": 54935.0, "O_14": 5.0, "Q_15": 3.0, "O_15": 5.0, "city": "FOND DU LAC", "beds": 17.0, "SR_15": 5.0}, {"Diff_star": -1.0, "addr": "135 S GIBSON ST", "SR_14": 3.0, "Q_14": 5.0, "name": "ASPIRUS CARE & REHAB-MEDFORD", "SF_14": 4.0, "SF_15": 3.0, "cnty": "Taylor", "st": "WI", "Zip": 54451.0, "O_14": 5.0, "Q_15": 5.0, "O_15": 4.0, "city": "MEDFORD", "beds": 99.0, "SR_15": 3.0}, {"Diff_star": 0.0, "addr": "438 ASHFORD AVE  PO BOX 280", "SR_14": 4.0, "Q_14": 5.0, "name": "HOPE HEALTH AND REHAB", "SF_14": 4.0, "SF_15": 4.0, "cnty": "Dodge", "st": "WI", "Zip": 53048.0, "O_14": 5.0, "Q_15": 5.0, "O_15": 5.0, "city": "LOMIRA", "beds": 42.0, "SR_15": 4.0}, {"Diff_star": 0.0, "addr": "N3150 HWY 81  PO BOX 768", "SR_14": 3.0, "Q_14": 4.0, "name": "PLEASANT VIEW NURSING HOME", "SF_14": 4.0, "SF_15": 4.0, "cnty": "Green", "st": "WI", "Zip": 53566.0, "O_14": 4.0, "Q_15": 2.0, "O_15": 4.0, "city": "MONROE", "beds": 130.0, "SR_15": 3.0}, {"Diff_star": 0.0, "addr": "8301 OLD SAUK RD", "SR_14": 4.0, "Q_14": 5.0, "name": "ATTIC ANGEL PLACE HEALTH CENTER", "SF_14": 5.0, "SF_15": 5.0, "cnty": "Dane", "st": "WI", "Zip": 53562.0, "O_14": 5.0, "Q_15": 5.0, "O_15": 5.0, "city": "MIDDLETON", "beds": 44.0, "SR_15": 3.0}, {"Diff_star": 0.0, "addr": "837 CTY RD NN E", "SR_14": 5.0, "Q_14": 5.0, "name": "LINDENGROVE MUKWONAGO", "SF_14": 4.0, "SF_15": 3.0, "cnty": "Waukesha", "st": "WI", "Zip": 53149.0, "O_14": 5.0, "Q_15": 5.0, "O_15": 5.0, "city": "MUKWONAGO", "beds": 69.0, "SR_15": 5.0}, {"Diff_star": -1.0, "addr": "N26 W23977 WATERTOWN RD", "SR_14": 3.0, "Q_14": 5.0, "name": "MANORCARE HEALTH SERVICES-PEWAUKEE", "SF_14": 4.0, "SF_15": 3.0, "cnty": "Waukesha", "st": "WI", "Zip": 53188.0, "O_14": 5.0, "Q_15": 5.0, "O_15": 4.0, "city": "WAUKESHA", "beds": 120.0, "SR_15": 3.0}, {"Diff_star": 0.0, "addr": "1130 N WESTFIELD ST", "SR_14": 3.0, "Q_14": 3.0, "name": "EVERGREEN HEALTH CENTER", "SF_14": 5.0, "SF_15": 5.0, "cnty": "Winnebago", "st": "WI", "Zip": 54902.0, "O_14": 4.0, "Q_15": 3.0, "O_15": 4.0, "city": "OSHKOSH", "beds": 80.0, "SR_15": 3.0}, {"Diff_star": 0.0, "addr": "660 E BIRCH AVE", "SR_14": 5.0, "Q_14": 3.0, "name": "BARRON CARE AND REHAB", "SF_14": 4.0, "SF_15": 4.0, "cnty": "Barron", "st": "WI", "Zip": 54812.0, "O_14": 5.0, "Q_15": 2.0, "O_15": 5.0, "city": "BARRON", "beds": 50.0, "SR_15": 5.0}, {"Diff_star": 0.0, "addr": "1702 S RIVER RD", "SR_14": 3.0, "Q_14": 5.0, "name": "CEDAR CREST HEALTH CENTER", "SF_14": 5.0, "SF_15": 5.0, "cnty": "Rock", "st": "WI", "Zip": 53546.0, "O_14": 5.0, "Q_15": 5.0, "O_15": 5.0, "city": "JANESVILLE", "beds": 95.0, "SR_15": 3.0}, {"Diff_star": 0.0, "addr": "530 RIVER AVE S", "SR_14": 4.0, "Q_14": 4.0, "name": "PIONEER NURSING HOME", "SF_14": 5.0, "SF_15": 5.0, "cnty": "Barron", "st": "WI", "Zip": 54762.0, "O_14": 5.0, "Q_15": 3.0, "O_15": 5.0, "city": "PRAIRIE FARM", "beds": 42.0, "SR_15": 4.0}, {"Diff_star": -2.0, "addr": "W173 N10915 BERNIES WAY", "SR_14": 2.0, "Q_14": 5.0, "name": "VIRGINIA HIGHLANDS HLTH AND REHAB", "SF_14": 4.0, "SF_15": 3.0, "cnty": "Washington", "st": "WI", "Zip": 53022.0, "O_14": 4.0, "Q_15": 4.0, "O_15": 2.0, "city": "GERMANTOWN", "beds": 121.0, "SR_15": 2.0}, {"Diff_star": 0.0, "addr": "1016 LAKESHORE DR", "SR_14": 1.0, "Q_14": 4.0, "name": "RICE LAKE CONV CTR", "SF_14": 2.0, "SF_15": 2.0, "cnty": "Barron", "st": "WI", "Zip": 54868.0, "O_14": 1.0, "Q_15": 2.0, "O_15": 1.0, "city": "RICE LAKE", "beds": 85.0, "SR_15": 1.0}, {"Diff_star": 0.0, "addr": "244 N MACY ST", "SR_14": 1.0, "Q_14": 4.0, "name": "FOND DU LAC LUTHERAN HOME", "SF_14": 4.0, "SF_15": 4.0, "cnty": "Fond Du Lac", "st": "WI", "Zip": 54935.0, "O_14": 2.0, "Q_15": 3.0, "O_15": 2.0, "city": "FOND DU LAC", "beds": 94.0, "SR_15": 1.0}, {"Diff_star": 0.0, "addr": "303 S JEFFERSON ST", "SR_14": 2.0, "Q_14": 5.0, "name": "FOUR WINDS MANOR", "SF_14": 4.0, "SF_15": 4.0, "cnty": "Dane", "st": "WI", "Zip": 53593.0, "O_14": 4.0, "Q_15": 5.0, "O_15": 4.0, "city": "VERONA", "beds": 44.0, "SR_15": 2.0}, {"Diff_star": 0.0, "addr": "251 FOREST LANE", "SR_14": 2.0, "Q_14": 3.0, "name": "MONTELLO CARE CENTER", "SF_14": 4.0, "SF_15": 4.0, "cnty": "Marquette", "st": "WI", "Zip": 53949.0, "O_14": 3.0, "Q_15": 2.0, "O_15": 3.0, "city": "MONTELLO", "beds": 50.0, "SR_15": 2.0}, {"Diff_star": 0.0, "addr": "10330 PRAIRIE RIDGE BLVD", "SR_14": 2.0, "Q_14": 5.0, "name": "GRANDE PRAIRIE HLTH  AND REHAB CTR", "SF_14": 4.0, "SF_15": 4.0, "cnty": "Kenosha", "st": "WI", "Zip": 53158.0, "O_14": 4.0, "Q_15": 5.0, "O_15": 4.0, "city": "PLEASANT PRAIRIE", "beds": 118.0, "SR_15": 2.0}, {"Diff_star": 0.0, "addr": "2375 SINSINAWA RD", "SR_14": 4.0, "Q_14": 5.0, "name": "ST DOMINIC VILLA", "SF_14": 4.0, "SF_15": 3.0, "cnty": "Grant", "st": "WI", "Zip": 53811.0, "O_14": 5.0, "Q_15": 5.0, "O_15": 5.0, "city": "HAZEL GREEN", "beds": 62.0, "SR_15": 4.0}, {"Diff_star": 0.0, "addr": "330 ROBIN HOOD LN", "SR_14": 3.0, "Q_14": 5.0, "name": "WOODLANDS OF GILLETT", "SF_14": 4.0, "SF_15": 4.0, "cnty": "Oconto", "st": "WI", "Zip": 54124.0, "O_14": 5.0, "Q_15": 5.0, "O_15": 5.0, "city": "GILLETT", "beds": 35.0, "SR_15": 3.0}, {"Diff_star": 0.0, "addr": "331 S WATER ST", "SR_14": 2.0, "Q_14": 4.0, "name": "MORROW MEMORIAL HOME", "SF_14": 4.0, "SF_15": 4.0, "cnty": "Monroe", "st": "WI", "Zip": 54656.0, "O_14": 3.0, "Q_15": 3.0, "O_15": 3.0, "city": "SPARTA", "beds": 99.0, "SR_15": 2.0}, {"Diff_star": -1.0, "addr": "2121 PIONEER DR", "SR_14": 2.0, "Q_14": 5.0, "name": "PREMIER REHAB  AND SKILLED NURSING", "SF_14": 4.0, "SF_15": 4.0, "cnty": "Rock", "st": "WI", "Zip": 53511.0, "O_14": 4.0, "Q_15": 4.0, "O_15": 3.0, "city": "BELOIT", "beds": 120.0, "SR_15": 2.0}, {"Diff_star": 0.0, "addr": "1 HAMILTON DR", "SR_14": 5.0, "Q_14": 5.0, "name": "HAMILTON MEMORIAL HOME", "SF_14": 2.0, "SF_15": 2.0, "cnty": "Manitowoc", "st": "WI", "Zip": 54241.0, "O_14": 5.0, "Q_15": 5.0, "O_15": 5.0, "city": "TWO RIVERS", "beds": 80.0, "SR_15": 5.0}, {"Diff_star": 0.0, "addr": "205 UNITED WAY", "SR_14": 4.0, "Q_14": 5.0, "name": "FREDERIC NURSING AND REHAB COMMUNITY", "SF_14": 2.0, "SF_15": 2.0, "cnty": "Polk", "st": "WI", "Zip": 54837.0, "O_14": 5.0, "Q_15": 5.0, "O_15": 5.0, "city": "FREDERIC", "beds": 60.0, "SR_15": 4.0}, {"Diff_star": 0.0, "addr": "1000 MINERAL POINT AVE PO BOX 5003", "SR_14": 4.0, "Q_14": 5.0, "name": "MERCY MANOR TRANS CTR", "SF_14": 5.0, "SF_15": 5.0, "cnty": "Rock", "st": "WI", "Zip": 53547.0, "O_14": 5.0, "Q_15": 3.0, "O_15": 5.0, "city": "JANESVILLE", "beds": 28.0, "SR_15": 4.0}, {"Diff_star": 0.0, "addr": "2350 N DEWEY AVE", "SR_14": 4.0, "Q_14": 5.0, "name": "RIDGEVIEW TERRACE LONG TERM CARE", "SF_14": 4.0, "SF_15": 4.0, "cnty": "Sauk", "st": "WI", "Zip": 53959.0, "O_14": 5.0, "Q_15": 5.0, "O_15": 5.0, "city": "REEDSBURG", "beds": 50.0, "SR_15": 4.0}, {"Diff_star": -1.0, "addr": "12600 N PORT WASHINGTON RD #300", "SR_14": 3.0, "Q_14": 5.0, "name": "HIGHLANDS AT NEWCASTLE PL", "SF_14": 4.0, "SF_15": 4.0, "cnty": "Ozaukee", "st": "WI", "Zip": 53092.0, "O_14": 5.0, "Q_15": 4.0, "O_15": 4.0, "city": "MEQUON", "beds": 47.0, "SR_15": 3.0}, {"Diff_star": 0.0, "addr": "6101 16TH ST", "SR_14": 4.0, "Q_14": 5.0, "name": "BECKER SHOOP CENTER", "SF_14": 3.0, "SF_15": 5.0, "cnty": "Racine", "st": "WI", "Zip": 53406.0, "O_14": 5.0, "Q_15": 5.0, "O_15": 5.0, "city": "RACINE", "beds": 71.0, "SR_15": 4.0}, {"Diff_star": 0.0, "addr": "101 FIRST ST", "SR_14": 3.0, "Q_14": 5.0, "name": "WOODLANDS OF OCONTO", "SF_14": 3.0, "SF_15": 3.0, "cnty": "Oconto", "st": "WI", "Zip": 54153.0, "O_14": 4.0, "Q_15": 5.0, "O_15": 4.0, "city": "OCONTO", "beds": 45.0, "SR_15": 3.0}, {"Diff_star": 0.0, "addr": "1400 W SEMINARY ST", "SR_14": 5.0, "Q_14": 5.0, "name": "SCHMITT WOODLAND HILLS", "SF_14": 4.0, "SF_15": 3.0, "cnty": "Richland", "st": "WI", "Zip": 53581.0, "O_14": 5.0, "Q_15": 5.0, "O_15": 5.0, "city": "RICHLAND CENTER", "beds": 25.0, "SR_15": 5.0}, {"Diff_star": -1.0, "addr": "725 KNAPP ST", "SR_14": 2.0, "Q_14": 5.0, "name": "KNAPP HAVEN NURSING HOME", "SF_14": 4.0, "SF_15": 4.0, "cnty": "Barron", "st": "WI", "Zip": 54728.0, "O_14": 4.0, "Q_15": 4.0, "O_15": 3.0, "city": "CHETEK", "beds": 97.0, "SR_15": 2.0}, {"Diff_star": 0.0, "addr": "510 FIRST ST", "SR_14": 1.0, "Q_14": 5.0, "name": "BENEDICTINE LIVING COMMUNITY OF SPOONER", "SF_14": 3.0, "SF_15": 3.0, "cnty": "Washburn", "st": "WI", "Zip": 54801.0, "O_14": 2.0, "Q_15": 5.0, "O_15": 2.0, "city": "SPOONER", "beds": 75.0, "SR_15": 1.0}, {"Diff_star": 0.0, "addr": "531 GIDDINGS AVE", "SR_14": 4.0, "Q_14": 5.0, "name": "PINE HAVEN CHRISTIAN HOME", "SF_14": 5.0, "SF_15": 5.0, "cnty": "Sheboygan", "st": "WI", "Zip": 53085.0, "O_14": 5.0, "Q_15": 5.0, "O_15": 5.0, "city": "SHEBOYGAN FALLS", "beds": 50.0, "SR_15": 4.0}, {"Diff_star": 0.0, "addr": "270 RIDGE ROAD", "SR_14": 5.0, "Q_14": 5.0, "name": "GOLDEN YEARS HEALTH CENTER", "SF_14": 5.0, "SF_15": 5.0, "cnty": "Walworth", "st": "WI", "Zip": 53184.0, "O_14": 5.0, "Q_15": 5.0, "O_15": 5.0, "city": "WALWORTH", "beds": 28.0, "SR_15": 5.0}, {"Diff_star": -1.0, "addr": "9969 OLD HWY 70 RD", "SR_14": 2.0, "Q_14": 3.0, "name": "AVANTI HEALTH AND REHABILITATION CENTER, LLC", "SF_14": 4.0, "SF_15": 4.0, "cnty": "Oneida", "st": "WI", "Zip": 54548.0, "O_14": 3.0, "Q_15": 2.0, "O_15": 2.0, "city": "MINOCQUA", "beds": 72.0, "SR_15": 1.0}, {"Diff_star": 0.0, "addr": "18601 LINCOLN ST  PO BOX 65", "SR_14": 4.0, "Q_14": 5.0, "name": "GUNDERSEN TRI-COUNTY CARE CENTER", "SF_14": 4.0, "SF_15": 4.0, "cnty": "Trempealeau", "st": "WI", "Zip": 54773.0, "O_14": 5.0, "Q_15": 5.0, "O_15": 5.0, "city": "WHITEHALL", "beds": 35.0, "SR_15": 4.0}, {"Diff_star": 0.0, "addr": "623 S SECOND ST", "SR_14": 1.0, "Q_14": 4.0, "name": "UNITED PIONEER HOME", "SF_14": 4.0, "SF_15": 4.0, "cnty": "Polk", "st": "WI", "Zip": 54853.0, "O_14": 2.0, "Q_15": 3.0, "O_15": 2.0, "city": "LUCK", "beds": 50.0, "SR_15": 1.0}, {"Diff_star": -1.0, "addr": "814 JACKSON ST", "SR_14": 2.0, "Q_14": 5.0, "name": "NAZARETH HEALTH AND REHAB CENTER", "SF_14": 1.0, "SF_15": 1.0, "cnty": "Dane", "st": "WI", "Zip": 53589.0, "O_14": 2.0, "Q_15": 4.0, "O_15": 1.0, "city": "STOUGHTON", "beds": 99.0, "SR_15": 2.0}, {"Diff_star": 0.0, "addr": "10995 N MARKET ST", "SR_14": 5.0, "Q_14": 4.0, "name": "SARAH CHUDNOW CAMPUS", "SF_14": 4.0, "SF_15": 4.0, "cnty": "Ozaukee", "st": "WI", "Zip": 53092.0, "O_14": 5.0, "Q_15": 4.0, "O_15": 5.0, "city": "MEQUON", "beds": 25.0, "SR_15": 5.0}, {"Diff_star": -1.0, "addr": "E401 23RD ST PO BOX 34", "SR_14": 3.0, "Q_14": 4.0, "name": "WOODS CROSSING AT WOODS POINT", "SF_14": 5.0, "SF_15": 5.0, "cnty": "Rock", "st": "WI", "Zip": 53520.0, "O_14": 4.0, "Q_15": 1.0, "O_15": 3.0, "city": "BRODHEAD", "beds": 22.0, "SR_15": 3.0}, {"Diff_star": -1.0, "addr": "209 WILDERNESS VIEW DRIVE", "SR_14": 1.0, "Q_14": 4.0, "name": "GOLDEN LIVINGCENTER-THREE OAKS", "SF_14": 4.0, "SF_15": 3.0, "cnty": "Marathon", "st": "WI", "Zip": 54449.0, "O_14": 2.0, "Q_15": 3.0, "O_15": 1.0, "city": "MARSHFIELD", "beds": 110.0, "SR_15": 1.0}, {"Diff_star": -1.0, "addr": "916 E CLIFFORD ST", "SR_14": 3.0, "Q_14": 5.0, "name": "PLYMOUTH CARE CENTER, LLC", "SF_14": 2.0, "SF_15": 2.0, "cnty": "Sheboygan", "st": "WI", "Zip": 53073.0, "O_14": 4.0, "Q_15": 4.0, "O_15": 3.0, "city": "PLYMOUTH", "beds": 60.0, "SR_15": 3.0}, {"Diff_star": -1.0, "addr": "S77 W18690 JANESVILLE RD", "SR_14": 3.0, "Q_14": 5.0, "name": "MUSKEGO HEALTH CARE CENTER", "SF_14": 4.0, "SF_15": 4.0, "cnty": "Waukesha", "st": "WI", "Zip": 53150.0, "O_14": 5.0, "Q_15": 4.0, "O_15": 4.0, "city": "MUSKEGO", "beds": 44.0, "SR_15": 3.0}, {"Diff_star": 0.0, "addr": "13197 CHURCH ST", "SR_14": 4.0, "Q_14": 4.0, "name": "PIGEON FALLS HCC", "SF_14": 4.0, "SF_15": 4.0, "cnty": "Trempealeau", "st": "WI", "Zip": 54760.0, "O_14": 4.0, "Q_15": 4.0, "O_15": 4.0, "city": "PIGEON FALLS", "beds": 37.0, "SR_15": 4.0}, {"Diff_star": 0.0, "addr": "21425 E SPRING ST", "SR_14": 4.0, "Q_14": 4.0, "name": "WI VETERANS HOME-BOLAND HALL", "SF_14": 5.0, "SF_15": 5.0, "cnty": "Racine", "st": "WI", "Zip": 53182.0, "O_14": 5.0, "Q_15": 3.0, "O_15": 5.0, "city": "UNION GROVE", "beds": 158.0, "SR_15": 4.0}, {"Diff_star": -1.0, "addr": "N4231 STATE HWY 22", "SR_14": 4.0, "Q_14": 5.0, "name": "MAPLE LANE HEALTH AND REHAB", "SF_14": 3.0, "SF_15": 3.0, "cnty": "Shawano", "st": "WI", "Zip": 54166.0, "O_14": 5.0, "Q_15": 3.0, "O_15": 4.0, "city": "SHAWANO", "beds": 66.0, "SR_15": 4.0}, {"Diff_star": 0.0, "addr": "110 PARK DRIVE", "SR_14": 4.0, "Q_14": 5.0, "name": "COLFAX HEALTH AND REHABILITATION CENTER", "SF_14": 5.0, "SF_15": 5.0, "cnty": "Dunn", "st": "WI", "Zip": 54730.0, "O_14": 5.0, "Q_15": 4.0, "O_15": 5.0, "city": "COLFAX", "beds": 40.0, "SR_15": 4.0}, {"Diff_star": 0.0, "addr": "5833 AMERICAN PARKWAY", "SR_14": 3.0, "Q_14": 4.0, "name": "OAKWOOD VILLAGE EAST HEALTH AND REHAB CENTER", "SF_14": 5.0, "SF_15": 5.0, "cnty": "Dane", "st": "WI", "Zip": 53718.0, "O_14": 4.0, "Q_15": 4.0, "O_15": 4.0, "city": "MADISON", "beds": 42.0, "SR_15": 3.0}, {"Diff_star": 0.0, "addr": "3150 GERSHWIN DRIVE", "SR_14": 4.0, "Q_14": 5.0, "name": "BROWN CTY COMM TREATMENT CTR-BAYSHORE VILLAGE", "SF_14": 5.0, "SF_15": 5.0, "cnty": "Brown", "st": "WI", "Zip": 54311.0, "O_14": 5.0, "Q_15": 3.0, "O_15": 5.0, "city": "GREEN BAY", "beds": 63.0, "SR_15": 4.0}, {"Diff_star": 0.0, "addr": "104 E DALLAS ST  BOX 220", "SR_14": 2.0, "Q_14": 4.0, "name": "DALLAS CARE AND REHAB", "SF_14": 4.0, "SF_15": 4.0, "cnty": "Barron", "st": "WI", "Zip": 54733.0, "O_14": 3.0, "Q_15": 3.0, "O_15": 3.0, "city": "DALLAS", "beds": 50.0, "SR_15": 2.0}, {"Diff_star": 0.0, "addr": "2901 SOUTH OVERLAND ROAD", "SR_14": 3.0, "Q_14": 2.0, "name": "ANNA JOHN RESIDENT CENTERED CARE COMMUNITY", "SF_14": 4.0, "SF_15": 4.0, "cnty": "Brown", "st": "WI", "Zip": 54155.0, "O_14": 4.0, "Q_15": 2.0, "O_15": 4.0, "city": "ONEIDA", "beds": 48.0, "SR_15": 3.0}, {"Diff_star": -1.0, "addr": "450 LAKE DR", "SR_14": 1.0, "Q_14": 4.0, "name": "MELLEN MANOR", "SF_14": 4.0, "SF_15": 3.0, "cnty": "Ashland", "st": "WI", "Zip": 54546.0, "O_14": 2.0, "Q_15": 2.0, "O_15": 1.0, "city": "MELLEN", "beds": 36.0, "SR_15": 1.0}, {"Diff_star": 0.0, "addr": "912 MANOR DRIVE", "SR_14": 4.0, "Q_14": 4.0, "name": "LAKEVIEW MANOR", "SF_14": 4.0, "SF_15": 4.0, "cnty": "Waupaca", "st": "WI", "Zip": 54983.0, "O_14": 4.0, "Q_15": 2.0, "O_15": 4.0, "city": "WEYAUWEGA", "beds": 50.0, "SR_15": 4.0}, {"Diff_star": 0.0, "addr": "4810 BARBICAN AVE", "SR_14": 4.0, "Q_14": 4.0, "name": "RENNES HEALTH AND REHAB CENTER-WESTON", "SF_14": 5.0, "SF_15": 5.0, "cnty": "Marathon", "st": "WI", "Zip": 54476.0, "O_14": 5.0, "Q_15": 3.0, "O_15": 5.0, "city": "WESTON", "beds": 84.0, "SR_15": 4.0}, {"Diff_star": 0.0, "addr": "13900 W BURLEIGH RD", "SR_14": 2.0, "Q_14": 4.0, "name": "CONGREGATIONAL HOME", "SF_14": 5.0, "SF_15": 5.0, "cnty": "Waukesha", "st": "WI", "Zip": 53005.0, "O_14": 3.0, "Q_15": 3.0, "O_15": 3.0, "city": "BROOKFIELD", "beds": 84.0, "SR_15": 2.0}, {"Diff_star": 0.0, "addr": "3656 MALL DRIVE", "SR_14": 4.0, "Q_14": 5.0, "name": "DOVE HEALTHCARE-SOUTH", "SF_14": 5.0, "SF_15": 5.0, "cnty": "Eau Claire", "st": "WI", "Zip": 54701.0, "O_14": 5.0, "Q_15": 5.0, "O_15": 5.0, "city": "EAU CLAIRE", "beds": 50.0, "SR_15": 4.0}, {"Diff_star": 0.0, "addr": "2195 NORTH SUMMIT VILLAGE WAY", "SR_14": 5.0, "Q_14": 4.0, "name": "LAKE COUNTRY HEALTH AND REHAB CENTER", "SF_14": 4.0, "SF_15": 4.0, "cnty": "Waukesha", "st": "WI", "Zip": 53066.0, "O_14": 5.0, "Q_15": 3.0, "O_15": 5.0, "city": "OCONOMOWOC", "beds": 100.0, "SR_15": 5.0}, {"Diff_star": 0.0, "addr": "2105 E ENTERPRISE AVE", "SR_14": 5.0, "Q_14": 2.0, "name": "ST PAUL RECOVERY INN", "SF_14": "", "SF_15": "", "cnty": "Outagamie", "st": "WI", "Zip": 54913.0, "O_14": 5.0, "Q_15": 2.0, "O_15": 5.0, "city": "APPLETON", "beds": 12.0, "SR_15": 5.0}, {"Diff_star": 0.0, "addr": "3151 EDEN CT", "SR_14": 5.0, "Q_14": 5.0, "name": "EDEN REHAB SUITES AND GREEN HOUSE HOMES", "SF_14": 5.0, "SF_15": 5.0, "cnty": "Winnebago", "st": "WI", "Zip": 54904.0, "O_14": 5.0, "Q_15": 5.0, "O_15": 5.0, "city": "OSHKOSH", "beds": 50.0, "SR_15": 5.0}, {"Diff_star": 0.0, "addr": "9632 W APPLETON AVE", "SR_14": 1.0, "Q_14": 3.0, "name": "BIRCHWOOD HEALTHCARE AND REHAB CENTER", "SF_14": 2.0, "SF_15": 2.0, "cnty": "Milwaukee", "st": "WI", "Zip": 53225.0, "O_14": 1.0, "Q_15": 1.0, "O_15": 1.0, "city": "MILWAUKEE", "beds": 148.0, "SR_15": 1.0}, {"Diff_star": -1.0, "addr": "2650 65TH AVE", "SR_14": 3.0, "Q_14": 3.0, "name": "CHRISTIAN COMMUNITY HOME OF OSCEOLA, INC", "SF_14": 4.0, "SF_15": 4.0, "cnty": "Polk", "st": "WI", "Zip": 54020.0, "O_14": 4.0, "Q_15": 1.0, "O_15": 3.0, "city": "OSCEOLA", "beds": 40.0, "SR_15": 3.0}, {"Diff_star": 0.0, "addr": "8534 W MILL RD", "SR_14": 2.0, "Q_14": 5.0, "name": "VILLA AT RIVER PARKWAY (THE)", "SF_14": 4.0, "SF_15": 4.0, "cnty": "Milwaukee", "st": "WI", "Zip": 53225.0, "O_14": 4.0, "Q_15": 5.0, "O_15": 4.0, "city": "MILWAUKEE", "beds": 81.0, "SR_15": 2.0}, {"Diff_star": 0.0, "addr": "2175 E PARK AVE", "SR_14": 4.0, "Q_14": 4.0, "name": "WI VETERANS HOME AT CHIPPEWA FALLS", "SF_14": 4.0, "SF_15": 4.0, "cnty": "Chippewa", "st": "WI", "Zip": 54729.0, "O_14": 4.0, "Q_15": 3.0, "O_15": 4.0, "city": "CHIPPEWA FALLS", "beds": 72.0, "SR_15": 4.0}, {"Diff_star": 0.0, "addr": "13025 EIGHTH ST", "SR_14": 4.0, "Q_14": 4.0, "name": "MAYO CLINIC HEALTH SYSTEM-OAKRIDGE, INC", "SF_14": 5.0, "SF_15": 5.0, "cnty": "Trempealeau", "st": "WI", "Zip": 54758.0, "O_14": 5.0, "Q_15": 3.0, "O_15": 5.0, "city": "OSSEO", "beds": 21.0, "SR_15": 4.0}, {"Diff_star": 0.0, "addr": "1001 E 11TH ST N", "SR_14": 2.0, "Q_14": 4.0, "name": "LADYSMITH LIVING CENTER, INC", "SF_14": 4.0, "SF_15": 4.0, "cnty": "Rusk", "st": "WI", "Zip": 54848.0, "O_14": 3.0, "Q_15": 3.0, "O_15": 3.0, "city": "LADYSMITH", "beds": 30.0, "SR_15": 2.0}, {"Diff_star": 0.0, "addr": "7805 BIRCH ST", "SR_14": 4.0, "Q_14": 5.0, "name": "STONEY RIVER REHAB", "SF_14": 5.0, "SF_15": 5.0, "cnty": "Marathon", "st": "WI", "Zip": 54476.0, "O_14": 5.0, "Q_15": 5.0, "O_15": 5.0, "city": "WESTON", "beds": 35.0, "SR_15": 4.0}, {"Diff_star": -1.0, "addr": "1110 7TH AVE", "SR_14": 3.0, "Q_14": 5.0, "name": "CUMBERLAND MEM HSPTL ECU", "SF_14": 4.0, "SF_15": 4.0, "cnty": "Barron", "st": "WI", "Zip": 54829.0, "O_14": 5.0, "Q_15": 4.0, "O_15": 4.0, "city": "CUMBERLAND", "beds": 50.0, "SR_15": 3.0}, {"Diff_star": 0.0, "addr": "658 HOWISON CIRCLE", "SR_14": 3.0, "Q_14": 4.0, "name": "NEIGHBORS - EAST NEIGHBORHOOD (THE)", "SF_14": 4.0, "SF_15": 4.0, "cnty": "Dunn", "st": "WI", "Zip": 54751.0, "O_14": 4.0, "Q_15": 3.0, "O_15": 4.0, "city": "MENOMONIE", "beds": 46.0, "SR_15": 3.0}, {"Diff_star": 0.0, "addr": "651 HOWISON CIRCLE", "SR_14": 3.0, "Q_14": 4.0, "name": "NEIGHBORS - WEST NEIGHBORHOOD (THE)", "SF_14": 4.0, "SF_15": 4.0, "cnty": "Dunn", "st": "WI", "Zip": 54751.0, "O_14": 4.0, "Q_15": 3.0, "O_15": 4.0, "city": "MENOMONIE", "beds": 46.0, "SR_15": 3.0}, {"Diff_star": 0.0, "addr": "1222 E WOODLAND AVE", "SR_14": "", "Q_14": "", "name": "MAYO CLINIC HEALTH SYSTEM-NORTHLAND, INC", "SF_14": "", "SF_15": "", "cnty": "Barron", "st": "WI", "Zip": 54812.0, "O_14": "", "Q_15": "", "O_15": "", "city": "BARRON", "beds": 23.0, "SR_15": ""}, {"Diff_star": -1.0, "addr": "N2665 CTY RD QQ", "SR_14": 4.0, "Q_14": 5.0, "name": "WI VETERANS HM MACARTHUR 422", "SF_14": 4.0, "SF_15": 4.0, "cnty": "Waupaca", "st": "WI", "Zip": 54946.0, "O_14": 5.0, "Q_15": 4.0, "O_15": 4.0, "city": "KING", "beds": 116.0, "SR_15": 4.0}, {"Diff_star": -1.0, "addr": "N2665 CTY RD QQ", "SR_14": 3.0, "Q_14": 5.0, "name": "WI VETERANS HM AINSWORTH 800", "SF_14": 4.0, "SF_15": 4.0, "cnty": "Waupaca", "st": "WI", "Zip": 54946.0, "O_14": 5.0, "Q_15": 3.0, "O_15": 4.0, "city": "KING", "beds": 205.0, "SR_15": 3.0}, {"Diff_star": 0.0, "addr": "N2665 CTY RD QQ", "SR_14": 5.0, "Q_14": 4.0, "name": "WI VETERANS HM OLSON 600", "SF_14": 4.0, "SF_15": 4.0, "cnty": "Waupaca", "st": "WI", "Zip": 54946.0, "O_14": 5.0, "Q_15": 3.0, "O_15": 5.0, "city": "KING", "beds": 200.0, "SR_15": 5.0}, {"Diff_star": 0.0, "addr": "N2665 CTY RD QQ", "SR_14": 3.0, "Q_14": 4.0, "name": "WI VETERANS HM STORDOCK 700", "SF_14": 4.0, "SF_15": 4.0, "cnty": "Waupaca", "st": "WI", "Zip": 54946.0, "O_14": 4.0, "Q_15": 4.0, "O_15": 4.0, "city": "KING", "beds": 200.0, "SR_15": 3.0}, {"Diff_star": 0.0, "addr": "1600 N CHESTNUT AVE", "SR_14": 2.0, "Q_14": 5.0, "name": "NORWOOD HEALTH CTR-CENTRAL", "SF_14": 5.0, "SF_15": 5.0, "cnty": "Wood", "st": "WI", "Zip": 54449.0, "O_14": 4.0, "Q_15": 5.0, "O_15": 4.0, "city": "MARSHFIELD", "beds": 16.0, "SR_15": 2.0}, {"Diff_star": 0.0, "addr": "9455 WATERTOWN PLANK RD", "SR_14": 1.0, "Q_14": 5.0, "name": "MILWAUKEE COUNTY MHC REHAB CEN", "SF_14": "", "SF_15": "", "cnty": "Milwaukee", "st": "WI", "Zip": 53226.0, "O_14": 2.0, "Q_15": 5.0, "O_15": 2.0, "city": "MILWAUKEE", "beds": 34.0, "SR_15": 1.0}, {"Diff_star": 0.0, "addr": "902 E GARLAND ST", "SR_14": 1.0, "Q_14": 4.0, "name": "LAKEVIEW HEALTH CENTER", "SF_14": 5.0, "SF_15": 5.0, "cnty": "La Crosse", "st": "WI", "Zip": 54669.0, "O_14": 2.0, "Q_15": 2.0, "O_15": 2.0, "city": "WEST SALEM", "beds": 110.0, "SR_15": 1.0}, {"Diff_star": -1.0, "addr": "W20298 STATE RD 121", "SR_14": 5.0, "Q_14": 3.0, "name": "TREMPEALEAU CTY HCC IMD", "SF_14": 4.0, "SF_15": 3.0, "cnty": "Trempealeau", "st": "WI", "Zip": 54773.0, "O_14": 5.0, "Q_15": 1.0, "O_15": 4.0, "city": "WHITEHALL", "beds": 34.0, "SR_15": 5.0}, {"Diff_star": 0.0, "addr": "N1495 W CTH A", "SR_14": 1.0, "Q_14": 4.0, "name": "BEECHWOOD REST HOME", "SF_14": 4.0, "SF_15": 4.0, "cnty": "Sheboygan", "st": "WI", "Zip": 53040.0, "O_14": 2.0, "Q_15": 3.0, "O_15": 2.0, "city": "KEWASKUM", "beds": 26.0, "SR_15": 1.0}, {"Diff_star": 0.0, "addr": "309 IRON ST", "SR_14": 1.0, "Q_14": 5.0, "name": "SKY VIEW NURSING CENTER", "SF_14": 3.0, "SF_15": 3.0, "cnty": "Iron", "st": "WI", "Zip": 54534.0, "O_14": 2.0, "Q_15": 5.0, "O_15": 2.0, "city": "HURLEY", "beds": 33.0, "SR_15": 1.0}, {"Diff_star": 0.0, "addr": "2020 S MUSKEGO AVE", "SR_14": 5.0, "Q_14": 4.0, "name": "ST ANN REST HOME", "SF_14": 4.0, "SF_15": 4.0, "cnty": "Milwaukee", "st": "WI", "Zip": 53204.0, "O_14": 5.0, "Q_15": 5.0, "O_15": 5.0, "city": "MILWAUKEE", "beds": 50.0, "SR_15": 5.0}, {"Diff_star": 1.0, "addr": "1600 N CHESTNUT AVE", "SR_14": 3.0, "Q_14": "", "name": "NORWOOD HEALTH CENTER-PATHWAYS", "SF_14": "", "SF_15": "", "cnty": "Wood", "st": "WI", "Zip": 54449.0, "O_14": 3.0, "Q_15": "", "O_15": 4.0, "city": "MARSHFIELD", "beds": 8.0, "SR_15": 4.0}, {"Diff_star": 0.0, "addr": "198 COUNTY DF", "SR_14": 5.0, "Q_14": 5.0, "name": "CLEARVIEW BRAIN INJURY CENTER", "SF_14": "", "SF_15": "", "cnty": "Dodge", "st": "WI", "Zip": 53039.0, "O_14": 5.0, "Q_15": 5.0, "O_15": 5.0, "city": "JUNEAU", "beds": 30.0, "SR_15": 5.0}]