[{"Diff_star": -1.0, "addr": "405 STANAFORD ROAD", "SR_14": 2.0, "Q_14": 3.0, "name": "PINE LODGE", "SF_14": 2.0, "SF_15": 2.0, "cnty": "Raleigh", "st": "WV", "Zip": 25801.0, "O_14": 2.0, "Q_15": 1.0, "O_15": 1.0, "city": "BECKLEY", "beds": 120.0, "SR_15": 2.0}, {"Diff_star": -1.0, "addr": "20 HOMESTEAD AVENUE", "SR_14": 3.0, "Q_14": 5.0, "name": "GUARDIAN ELDER CARE AT WHEELING, LLC", "SF_14": 2.0, "SF_15": 2.0, "cnty": "Ohio", "st": "WV", "Zip": 26003.0, "O_14": 4.0, "Q_15": 4.0, "O_15": 3.0, "city": "WHEELING", "beds": 150.0, "SR_15": 3.0}, {"Diff_star": 0.0, "addr": "1720 17TH STREET", "SR_14": 3.0, "Q_14": 5.0, "name": "HUNTINGTON HEALTH AND REHABILITATION CENTER", "SF_14": 1.0, "SF_15": 1.0, "cnty": "Cabell", "st": "WV", "Zip": 25701.0, "O_14": 3.0, "Q_15": 5.0, "O_15": 3.0, "city": "HUNTINGTON", "beds": 186.0, "SR_15": 3.0}, {"Diff_star": 0.0, "addr": "PO BOX 9066", "SR_14": 5.0, "Q_14": 4.0, "name": "ST. BARBARA'S MEM NURSING HOME", "SF_14": 4.0, "SF_15": 3.0, "cnty": "Marion", "st": "WV", "Zip": 26555.0, "O_14": 5.0, "Q_15": 5.0, "O_15": 5.0, "city": "FAIRMONT", "beds": 57.0, "SR_15": 5.0}, {"Diff_star": -1.0, "addr": "700 MADISON AVENUE, PO BOX 2806", "SR_14": 3.0, "Q_14": 4.0, "name": "FAIRHAVEN REST HOME INC", "SF_14": 4.0, "SF_15": 4.0, "cnty": "Cabell", "st": "WV", "Zip": 25727.0, "O_14": 4.0, "Q_15": 1.0, "O_15": 3.0, "city": "HUNTINGTON", "beds": 41.0, "SR_15": 3.0}, {"Diff_star": 0.0, "addr": "1175 BEVERLY PIKE", "SR_14": 3.0, "Q_14": 4.0, "name": "ELKINS REGIONAL CONVALESCENT CENTER", "SF_14": 4.0, "SF_15": 4.0, "cnty": "Randolph", "st": "WV", "Zip": 26241.0, "O_14": 4.0, "Q_15": 3.0, "O_15": 4.0, "city": "ELKINS", "beds": 111.0, "SR_15": 3.0}, {"Diff_star": -1.0, "addr": "1924 GLEN WOOD PARK ROAD", "SR_14": 1.0, "Q_14": 3.0, "name": "GLEN WOOD PARK, INC.", "SF_14": 4.0, "SF_15": 4.0, "cnty": "Mercer", "st": "WV", "Zip": 24740.0, "O_14": 2.0, "Q_15": 1.0, "O_15": 1.0, "city": "PRINCETON", "beds": 67.0, "SR_15": 1.0}, {"Diff_star": 0.0, "addr": "400 FAIRVIEW HEIGHTS ROAD", "SR_14": 1.0, "Q_14": 1.0, "name": "SUMMERSVILLE REGIONAL MEDICAL CENTER D/P", "SF_14": 4.0, "SF_15": 3.0, "cnty": "Nicholas", "st": "WV", "Zip": 26651.0, "O_14": 1.0, "Q_15": 1.0, "O_15": 1.0, "city": "SUMMERSVILLE", "beds": 52.0, "SR_15": 1.0}, {"Diff_star": 0.0, "addr": "6500 MACCORKLE AVENUE SW", "SR_14": 3.0, "Q_14": 4.0, "name": "GOLDEN LIVINGCENTER - RIVERSIDE", "SF_14": 2.0, "SF_15": 2.0, "cnty": "Kanawha", "st": "WV", "Zip": 25177.0, "O_14": 3.0, "Q_15": 2.0, "O_15": 3.0, "city": "SAINT ALBANS", "beds": 102.0, "SR_15": 3.0}, {"Diff_star": -1.0, "addr": "2525 PENNSYLVANIA AVENUE", "SR_14": 2.0, "Q_14": 4.0, "name": "WEIRTON GERIATRIC CENTER", "SF_14": 4.0, "SF_15": 4.0, "cnty": "Hancock", "st": "WV", "Zip": 26062.0, "O_14": 3.0, "Q_15": 1.0, "O_15": 2.0, "city": "WEIRTON", "beds": 137.0, "SR_15": 2.0}, {"Diff_star": 0.0, "addr": "159 EDGINGTON LANE", "SR_14": 5.0, "Q_14": 5.0, "name": "GOOD SHEPHERD NURSING HOME", "SF_14": 4.0, "SF_15": 4.0, "cnty": "Ohio", "st": "WV", "Zip": 26003.0, "O_14": 5.0, "Q_15": 5.0, "O_15": 5.0, "city": "WHEELING", "beds": 192.0, "SR_15": 5.0}, {"Diff_star": -1.0, "addr": "209 CLOVER STREET", "SR_14": 1.0, "Q_14": 5.0, "name": "HEARTLAND OF MARTINSBURG", "SF_14": 2.0, "SF_15": 1.0, "cnty": "Berkeley", "st": "WV", "Zip": 25404.0, "O_14": 2.0, "Q_15": 4.0, "O_15": 1.0, "city": "MARTINSBURG", "beds": 120.0, "SR_15": 1.0}, {"Diff_star": 0.0, "addr": "P.O. BOX 1019", "SR_14": 5.0, "Q_14": 5.0, "name": "GRANT MEMORIAL HOSPITAL", "SF_14": "", "SF_15": "", "cnty": "Grant", "st": "WV", "Zip": 26847.0, "O_14": 5.0, "Q_15": 5.0, "O_15": 5.0, "city": "PETERSBURG", "beds": 20.0, "SR_15": 5.0}, {"Diff_star": 0.0, "addr": "2675 36TH STREET", "SR_14": 4.0, "Q_14": 5.0, "name": "WORTHINGTON NURSING AND REHABILITATION CENTER, LLC", "SF_14": 4.0, "SF_15": 4.0, "cnty": "Wood", "st": "WV", "Zip": 26104.0, "O_14": 5.0, "Q_15": 5.0, "O_15": 5.0, "city": "PARKERSBURG", "beds": 105.0, "SR_15": 4.0}, {"Diff_star": 0.0, "addr": "1379 VAN VOORHIS RD", "SR_14": 1.0, "Q_14": 4.0, "name": "GOLDEN LIVINGCENTER - MORGANTOWN", "SF_14": 1.0, "SF_15": 1.0, "cnty": "Monongalia", "st": "WV", "Zip": 26505.0, "O_14": 1.0, "Q_15": 3.0, "O_15": 1.0, "city": "MORGANTOWN", "beds": 100.0, "SR_15": 1.0}, {"Diff_star": 0.0, "addr": "AMALIA DRIVE #1", "SR_14": 3.0, "Q_14": 3.0, "name": "ST. JOSEPH'S HOSPITAL, D/P", "SF_14": 5.0, "SF_15": 5.0, "cnty": "Upshur", "st": "WV", "Zip": 26201.0, "O_14": 4.0, "Q_15": 3.0, "O_15": 4.0, "city": "BUCKHANNON", "beds": 16.0, "SR_15": 3.0}, {"Diff_star": 0.0, "addr": "PO BOX 410", "SR_14": 4.0, "Q_14": 4.0, "name": "MERCER NURSING AND REHABILITATION CENTER, LLC", "SF_14": 1.0, "SF_15": 1.0, "cnty": "Mercer", "st": "WV", "Zip": 24701.0, "O_14": 3.0, "Q_15": 3.0, "O_15": 3.0, "city": "BLUEFIELD", "beds": 90.0, "SR_15": 4.0}, {"Diff_star": 0.0, "addr": "1539 COUNTRY CLUB ROAD", "SR_14": 3.0, "Q_14": 5.0, "name": "TYGART CENTER AT FAIRMONT CAMPUS", "SF_14": 3.0, "SF_15": 3.0, "cnty": "Marion", "st": "WV", "Zip": 26554.0, "O_14": 4.0, "Q_15": 5.0, "O_15": 4.0, "city": "FAIRMONT", "beds": 119.0, "SR_15": 3.0}, {"Diff_star": 0.0, "addr": "PO BOX 6316", "SR_14": 3.0, "Q_14": 3.0, "name": "BISHOP JOSEPH HODGES CONTINUOUS CARE CENTER", "SF_14": 4.0, "SF_15": 4.0, "cnty": "Ohio", "st": "WV", "Zip": 26003.0, "O_14": 4.0, "Q_15": 2.0, "O_15": 4.0, "city": "WHEELING", "beds": 144.0, "SR_15": 3.0}, {"Diff_star": 0.0, "addr": "1 HOSPITAL PLAZA", "SR_14": 1.0, "Q_14": 4.0, "name": "GRAFTON CITY HOSPITAL", "SF_14": 4.0, "SF_15": 4.0, "cnty": "Taylor", "st": "WV", "Zip": 26354.0, "O_14": 2.0, "Q_15": 3.0, "O_15": 2.0, "city": "GRAFTON", "beds": 76.0, "SR_15": 1.0}, {"Diff_star": 0.0, "addr": "30 MON GENERAL DRIVE", "SR_14": 4.0, "Q_14": 4.0, "name": "MAPLESHIRE NURSING AND REHABILITATION CENTER", "SF_14": 1.0, "SF_15": 1.0, "cnty": "Monongalia", "st": "WV", "Zip": 26505.0, "O_14": 3.0, "Q_15": 4.0, "O_15": 3.0, "city": "MORGANTOWN", "beds": 120.0, "SR_15": 4.0}, {"Diff_star": 0.0, "addr": "101-13TH STREET", "SR_14": 3.0, "Q_14": 1.0, "name": "HERITAGE CENTER", "SF_14": 3.0, "SF_15": 3.0, "cnty": "Cabell", "st": "WV", "Zip": 25701.0, "O_14": 2.0, "Q_15": 1.0, "O_15": 2.0, "city": "HUNTINGTON", "beds": 160.0, "SR_15": 3.0}, {"Diff_star": 1.0, "addr": "PO BOX 125", "SR_14": 1.0, "Q_14": 4.0, "name": "HILLTOP CENTER", "SF_14": 4.0, "SF_15": 4.0, "cnty": "Fayette", "st": "WV", "Zip": 25855.0, "O_14": 2.0, "Q_15": 2.0, "O_15": 3.0, "city": "HILLTOP", "beds": 120.0, "SR_15": 2.0}, {"Diff_star": -1.0, "addr": "39 CORTLAND ACRES LANE", "SR_14": 4.0, "Q_14": 5.0, "name": "CORTLAND ACRES NURSING HOME", "SF_14": 4.0, "SF_15": 4.0, "cnty": "Tucker", "st": "WV", "Zip": 26292.0, "O_14": 5.0, "Q_15": 4.0, "O_15": 4.0, "city": "THOMAS", "beds": 94.0, "SR_15": 4.0}, {"Diff_star": -2.0, "addr": "1200 SAND HILL ROAD", "SR_14": 3.0, "Q_14": 4.0, "name": "PLEASANT VALLEY NSG. & REHAB C", "SF_14": 3.0, "SF_15": 1.0, "cnty": "Mason", "st": "WV", "Zip": 25550.0, "O_14": 3.0, "Q_15": 4.0, "O_15": 1.0, "city": "POINT PLEASANT", "beds": 100.0, "SR_15": 1.0}, {"Diff_star": 0.0, "addr": "107 MILLER DRIVE", "SR_14": 1.0, "Q_14": 4.0, "name": "ELDERCARE HEALTH AND REHABILITATION", "SF_14": "", "SF_15": "", "cnty": "Jackson", "st": "WV", "Zip": 25271.0, "O_14": 1.0, "Q_15": 3.0, "O_15": 1.0, "city": "RIPLEY", "beds": 120.0, "SR_15": 1.0}, {"Diff_star": 0.0, "addr": "501 CALDWELL LANE", "SR_14": 1.0, "Q_14": 5.0, "name": "DUNBAR CENTER", "SF_14": 2.0, "SF_15": 2.0, "cnty": "Kanawha", "st": "WV", "Zip": 25064.0, "O_14": 2.0, "Q_15": 5.0, "O_15": 2.0, "city": "DUNBAR", "beds": 120.0, "SR_15": 1.0}, {"Diff_star": -1.0, "addr": "2200 FLORAL STREET", "SR_14": 3.0, "Q_14": 3.0, "name": "MOUND VIEW HEALTH CARE", "SF_14": 5.0, "SF_15": 5.0, "cnty": "Marshall", "st": "WV", "Zip": 26041.0, "O_14": 4.0, "Q_15": 1.0, "O_15": 3.0, "city": "MOUNDSVILLE", "beds": 129.0, "SR_15": 3.0}, {"Diff_star": 1.0, "addr": "100 HILLCREST DRIVE", "SR_14": 3.0, "Q_14": 4.0, "name": "TRINITY HEALTH CARE OF MINGO", "SF_14": 2.0, "SF_15": 4.0, "cnty": "Mingo", "st": "WV", "Zip": 25661.0, "O_14": 3.0, "Q_15": 2.0, "O_15": 4.0, "city": "WILLIAMSON", "beds": 90.0, "SR_15": 3.0}, {"Diff_star": 0.0, "addr": "300 SEVILLE ROAD", "SR_14": 1.0, "Q_14": 2.0, "name": "PUTNAM CENTER", "SF_14": 1.0, "SF_15": 1.0, "cnty": "Putnam", "st": "WV", "Zip": 25526.0, "O_14": 1.0, "Q_15": 1.0, "O_15": 1.0, "city": "HURRICANE", "beds": 120.0, "SR_15": 1.0}, {"Diff_star": 0.0, "addr": "255 SUNBRIDGE DRIVE", "SR_14": 1.0, "Q_14": 3.0, "name": "SALEM CENTER", "SF_14": 2.0, "SF_15": 2.0, "cnty": "Harrison", "st": "WV", "Zip": 26426.0, "O_14": 1.0, "Q_15": 2.0, "O_15": 1.0, "city": "SALEM", "beds": 112.0, "SR_15": 1.0}, {"Diff_star": 0.0, "addr": "300 MILLER ROAD", "SR_14": 3.0, "Q_14": 5.0, "name": "HEARTLAND OF PRESTON COUNTY", "SF_14": 2.0, "SF_15": 2.0, "cnty": "Preston", "st": "WV", "Zip": 26537.0, "O_14": 4.0, "Q_15": 5.0, "O_15": 4.0, "city": "KINGWOOD", "beds": 120.0, "SR_15": 3.0}, {"Diff_star": -1.0, "addr": "225 RUSSELL  AVENUE", "SR_14": 4.0, "Q_14": 2.0, "name": "NEW MARTINSVILLE CENTER", "SF_14": 4.0, "SF_15": 3.0, "cnty": "Wetzel", "st": "WV", "Zip": 26155.0, "O_14": 4.0, "Q_15": 1.0, "O_15": 3.0, "city": "NEW MARTINSVILLE", "beds": 100.0, "SR_15": 4.0}, {"Diff_star": 0.0, "addr": "401 GUFFEY STREET", "SR_14": 2.0, "Q_14": 4.0, "name": "JOHN MANCHIN SR HEALTH CARE CENTER", "SF_14": 5.0, "SF_15": 5.0, "cnty": "Marion", "st": "WV", "Zip": 26554.0, "O_14": 3.0, "Q_15": 4.0, "O_15": 3.0, "city": "FAIRMONT", "beds": 41.0, "SR_15": 2.0}, {"Diff_star": 0.0, "addr": "183 HOLBROOK ROAD", "SR_14": 4.0, "Q_14": 3.0, "name": "HOLBROOK NURSING HOME", "SF_14": 4.0, "SF_15": 4.0, "cnty": "Upshur", "st": "WV", "Zip": 26201.0, "O_14": 4.0, "Q_15": 2.0, "O_15": 4.0, "city": "BUCKHANNON", "beds": 120.0, "SR_15": 4.0}, {"Diff_star": 0.0, "addr": "601 COLLIERS WAY", "SR_14": 2.0, "Q_14": 1.0, "name": "WEIRTON MEDICAL CENTER, D/P", "SF_14": "", "SF_15": "", "cnty": "Hancock", "st": "WV", "Zip": 26062.0, "O_14": 1.0, "Q_15": 1.0, "O_15": 1.0, "city": "WEIRTON", "beds": 33.0, "SR_15": 2.0}, {"Diff_star": -1.0, "addr": "363 SUNRISE BLVD", "SR_14": 5.0, "Q_14": 2.0, "name": "HAMPSHIRE MEMORIAL HOSPITAL., D/P", "SF_14": 3.0, "SF_15": 3.0, "cnty": "Hampshire", "st": "WV", "Zip": 26757.0, "O_14": 5.0, "Q_15": 1.0, "O_15": 4.0, "city": "ROMNEY", "beds": 30.0, "SR_15": 5.0}, {"Diff_star": 0.0, "addr": "WASHINGTON STREET AND 6TH AVENUE", "SR_14": 3.0, "Q_14": 3.0, "name": "MONTGOMERY GENERAL HOSP., D/P", "SF_14": 4.0, "SF_15": 4.0, "cnty": "Fayette", "st": "WV", "Zip": 25136.0, "O_14": 4.0, "Q_15": 3.0, "O_15": 4.0, "city": "MONTGOMERY", "beds": 44.0, "SR_15": 3.0}, {"Diff_star": 0.0, "addr": "800 J D ANDERSON DRIVE", "SR_14": 3.0, "Q_14": 3.0, "name": "SUNDALE NURSING HOME", "SF_14": 4.0, "SF_15": 4.0, "cnty": "Monongalia", "st": "WV", "Zip": 26505.0, "O_14": 4.0, "Q_15": 2.0, "O_15": 4.0, "city": "MORGANTOWN", "beds": 120.0, "SR_15": 3.0}, {"Diff_star": 0.0, "addr": "723 SUMMERS STREET", "SR_14": 4.0, "Q_14": 4.0, "name": "WILLOWS CENTER", "SF_14": 3.0, "SF_15": 3.0, "cnty": "Wood", "st": "WV", "Zip": 26101.0, "O_14": 4.0, "Q_15": 2.0, "O_15": 4.0, "city": "PARKERSBURG", "beds": 97.0, "SR_15": 4.0}, {"Diff_star": 0.0, "addr": "100 HEARTLAND DRIVE", "SR_14": 1.0, "Q_14": 3.0, "name": "HARPER MILLS", "SF_14": 4.0, "SF_15": 4.0, "cnty": "Raleigh", "st": "WV", "Zip": 25801.0, "O_14": 2.0, "Q_15": 2.0, "O_15": 2.0, "city": "BECKLEY", "beds": 201.0, "SR_15": 1.0}, {"Diff_star": 0.0, "addr": "302 CEDAR RIDGE ROAD", "SR_14": 1.0, "Q_14": 3.0, "name": "CEDAR RIDGE CENTER", "SF_14": 1.0, "SF_15": 1.0, "cnty": "Kanawha", "st": "WV", "Zip": 25320.0, "O_14": 1.0, "Q_15": 2.0, "O_15": 1.0, "city": "SISSONVILLE", "beds": 119.0, "SR_15": 1.0}, {"Diff_star": 0.0, "addr": "PO BOX 741", "SR_14": 4.0, "Q_14": 3.0, "name": "RALEIGH CENTER", "SF_14": 3.0, "SF_15": 3.0, "cnty": "Raleigh", "st": "WV", "Zip": 25832.0, "O_14": 4.0, "Q_15": 2.0, "O_15": 4.0, "city": "DANIELS", "beds": 68.0, "SR_15": 4.0}, {"Diff_star": 0.0, "addr": "3819 CHESTERFIELD AVENUE", "SR_14": 2.0, "Q_14": 5.0, "name": "EASTBROOK CENTER LLC", "SF_14": 3.0, "SF_15": 3.0, "cnty": "Kanawha", "st": "WV", "Zip": 25304.0, "O_14": 3.0, "Q_15": 5.0, "O_15": 3.0, "city": "CHARLESTON", "beds": 184.0, "SR_15": 2.0}, {"Diff_star": 0.0, "addr": "200 HOSPITAL DRIVE", "SR_14": 1.0, "Q_14": 3.0, "name": "ROANE GENERAL HOSPITAL, D/P", "SF_14": 5.0, "SF_15": 5.0, "cnty": "Roane", "st": "WV", "Zip": 25276.0, "O_14": 2.0, "Q_15": 2.0, "O_15": 2.0, "city": "SPENCER", "beds": 35.0, "SR_15": 1.0}, {"Diff_star": 0.0, "addr": "ROUTE 92, PO BOX 249", "SR_14": 2.0, "Q_14": 3.0, "name": "WHITE SULPHUR SPRINGS CENTER", "SF_14": 3.0, "SF_15": 3.0, "cnty": "Greenbrier", "st": "WV", "Zip": 24986.0, "O_14": 2.0, "Q_15": 3.0, "O_15": 2.0, "city": "WHITE SULPHUR SPRING", "beds": 60.0, "SR_15": 2.0}, {"Diff_star": -1.0, "addr": "1716 GIHON ROAD", "SR_14": 3.0, "Q_14": 5.0, "name": "PARKERSBURG CENTER", "SF_14": 2.0, "SF_15": 2.0, "cnty": "Wood", "st": "WV", "Zip": 26101.0, "O_14": 4.0, "Q_15": 4.0, "O_15": 3.0, "city": "PARKERSBURG", "beds": 66.0, "SR_15": 3.0}, {"Diff_star": 0.0, "addr": "111 FAIRGROUND ROAD", "SR_14": 4.0, "Q_14": 5.0, "name": "GLENVILLE CENTER", "SF_14": 1.0, "SF_15": 1.0, "cnty": "Gilmer", "st": "WV", "Zip": 26351.0, "O_14": 4.0, "Q_15": 5.0, "O_15": 4.0, "city": "GLENVILLE", "beds": 65.0, "SR_15": 4.0}, {"Diff_star": 0.0, "addr": "161 BAKERS RIDGE ROAD", "SR_14": 4.0, "Q_14": 1.0, "name": "MADISON, THE", "SF_14": 3.0, "SF_15": 3.0, "cnty": "Monongalia", "st": "WV", "Zip": 26508.0, "O_14": 3.0, "Q_15": 1.0, "O_15": 3.0, "city": "MORGANTOWN", "beds": 62.0, "SR_15": 4.0}, {"Diff_star": 0.0, "addr": "8 ROSE STREET", "SR_14": 4.0, "Q_14": 2.0, "name": "ROSEWOOD CENTER", "SF_14": 3.0, "SF_15": 3.0, "cnty": "Taylor", "st": "WV", "Zip": 26354.0, "O_14": 4.0, "Q_15": 2.0, "O_15": 4.0, "city": "GRAFTON", "beds": 69.0, "SR_15": 4.0}, {"Diff_star": -1.0, "addr": "590 NORTH POPLAR FORK ROAD", "SR_14": 2.0, "Q_14": 2.0, "name": "TEAYS VALLEY CENTER", "SF_14": 3.0, "SF_15": 3.0, "cnty": "Putnam", "st": "WV", "Zip": 25526.0, "O_14": 2.0, "Q_15": 1.0, "O_15": 1.0, "city": "HURRICANE", "beds": 124.0, "SR_15": 2.0}, {"Diff_star": 0.0, "addr": "327 MEDICAL PARK DRIVE", "SR_14": 2.0, "Q_14": 3.0, "name": "UNITED TRANSITIONAL CARE CENTER", "SF_14": 5.0, "SF_15": 5.0, "cnty": "Harrison", "st": "WV", "Zip": 26330.0, "O_14": 3.0, "Q_15": 2.0, "O_15": 3.0, "city": "BRIDGEPORT", "beds": 32.0, "SR_15": 2.0}, {"Diff_star": 0.0, "addr": "333 LAIDLEY STREET", "SR_14": 4.0, "Q_14": 1.0, "name": "COLUMBIA ST. FRANCIS HOSPITAL", "SF_14": 5.0, "SF_15": 5.0, "cnty": "Kanawha", "st": "WV", "Zip": 25322.0, "O_14": 4.0, "Q_15": 1.0, "O_15": 4.0, "city": "CHARLESTON", "beds": 19.0, "SR_15": 4.0}, {"Diff_star": 0.0, "addr": "800 WHEELING AVENUE", "SR_14": 5.0, "Q_14": 3.0, "name": "REYNOLDS MEMORIAL HOSPITAL, D/P", "SF_14": 3.0, "SF_15": 3.0, "cnty": "Marshall", "st": "WV", "Zip": 26038.0, "O_14": 5.0, "Q_15": 4.0, "O_15": 5.0, "city": "GLEN DALE", "beds": 20.0, "SR_15": 5.0}, {"Diff_star": 1.0, "addr": "2900 FIRST STREET", "SR_14": 4.0, "Q_14": 1.0, "name": "ST. MARY'S HOSPITAL", "SF_14": 5.0, "SF_15": 5.0, "cnty": "Cabell", "st": "WV", "Zip": 25702.0, "O_14": 4.0, "Q_15": 2.0, "O_15": 5.0, "city": "HUNTINGTON", "beds": 19.0, "SR_15": 4.0}, {"Diff_star": -1.0, "addr": "216 SAMARITAN CIRCLE", "SR_14": 1.0, "Q_14": 5.0, "name": "BARBOUR COUNTY GOOD SAMARITAN SOCIETY", "SF_14": 2.0, "SF_15": 2.0, "cnty": "Barbour", "st": "WV", "Zip": 26250.0, "O_14": 2.0, "Q_15": 4.0, "O_15": 1.0, "city": "BELINGTON", "beds": 57.0, "SR_15": 1.0}, {"Diff_star": 0.0, "addr": "P.O. BOX 605", "SR_14": 2.0, "Q_14": 4.0, "name": "HILLCREST HEALTH CARE CENTER", "SF_14": 3.0, "SF_15": 3.0, "cnty": "Boone", "st": "WV", "Zip": 25053.0, "O_14": 2.0, "Q_15": 4.0, "O_15": 2.0, "city": "DANVILLE", "beds": 90.0, "SR_15": 2.0}, {"Diff_star": -1.0, "addr": "PO BOX 350", "SR_14": 3.0, "Q_14": 4.0, "name": "GOLDEN LIVINGCENTER - GLASGOW", "SF_14": 2.0, "SF_15": 2.0, "cnty": "Kanawha", "st": "WV", "Zip": 25086.0, "O_14": 3.0, "Q_15": 1.0, "O_15": 2.0, "city": "GLASGOW", "beds": 112.0, "SR_15": 3.0}, {"Diff_star": -1.0, "addr": "100 PARKWAY DRIVE", "SR_14": 1.0, "Q_14": 5.0, "name": "HEARTLAND OF CLARKSBURG", "SF_14": 3.0, "SF_15": 3.0, "cnty": "Harrison", "st": "WV", "Zip": 26301.0, "O_14": 2.0, "Q_15": 4.0, "O_15": 1.0, "city": "CLARKSBURG", "beds": 120.0, "SR_15": 1.0}, {"Diff_star": 0.0, "addr": "606 PENNSYLVANIA AVENUE", "SR_14": 2.0, "Q_14": 5.0, "name": "HEARTLAND OF RAINELLE", "SF_14": 1.0, "SF_15": 1.0, "cnty": "Greenbrier", "st": "WV", "Zip": 25962.0, "O_14": 2.0, "Q_15": 5.0, "O_15": 2.0, "city": "RAINELLE", "beds": 60.0, "SR_15": 2.0}, {"Diff_star": 0.0, "addr": "135 SOUTHERN DRIVE", "SR_14": 2.0, "Q_14": 5.0, "name": "HEARTLAND OF KEYSER", "SF_14": 3.0, "SF_15": 3.0, "cnty": "Mineral", "st": "WV", "Zip": 26726.0, "O_14": 3.0, "Q_15": 5.0, "O_15": 3.0, "city": "KEYSER", "beds": 122.0, "SR_15": 2.0}, {"Diff_star": 0.0, "addr": "RD 2, BOX 44", "SR_14": 2.0, "Q_14": 4.0, "name": "VALLEY HAVEN GERIATRIC CENTER", "SF_14": 3.0, "SF_15": 3.0, "cnty": "Brooke", "st": "WV", "Zip": 26070.0, "O_14": 2.0, "Q_15": 3.0, "O_15": 2.0, "city": "WELLSBURG", "beds": 60.0, "SR_15": 2.0}, {"Diff_star": -1.0, "addr": "68 GOOD SAMARITAN DRIVE", "SR_14": 2.0, "Q_14": 5.0, "name": "PENDLETON MANOR INC", "SF_14": 4.0, "SF_15": 4.0, "cnty": "Pendleton", "st": "WV", "Zip": 26807.0, "O_14": 4.0, "Q_15": 4.0, "O_15": 3.0, "city": "FRANKLIN", "beds": 91.0, "SR_15": 2.0}, {"Diff_star": 0.0, "addr": "ROUTE 4, BOX 20", "SR_14": 4.0, "Q_14": 3.0, "name": "CAMERON NURSING AND REHABILITATION CENTER, LLC", "SF_14": 3.0, "SF_15": 3.0, "cnty": "Marshall", "st": "WV", "Zip": 26033.0, "O_14": 4.0, "Q_15": 2.0, "O_15": 4.0, "city": "CAMERON", "beds": 60.0, "SR_15": 4.0}, {"Diff_star": 0.0, "addr": "1340 HAL GREER BOULEVARD", "SR_14": 3.0, "Q_14": 4.0, "name": "CABELL HUNTINGTON HOSPITAL TCU", "SF_14": 5.0, "SF_15": 5.0, "cnty": "Cabell", "st": "WV", "Zip": 25701.0, "O_14": 4.0, "Q_15": 4.0, "O_15": 4.0, "city": "HUNTINGTON", "beds": 15.0, "SR_15": 3.0}, {"Diff_star": 0.0, "addr": "840 LEE ROAD", "SR_14": 2.0, "Q_14": 4.0, "name": "BRIGHTWOOD CENTER", "SF_14": 2.0, "SF_15": 2.0, "cnty": "Brooke", "st": "WV", "Zip": 26037.0, "O_14": 2.0, "Q_15": 2.0, "O_15": 2.0, "city": "FOLLANSBEE", "beds": 128.0, "SR_15": 2.0}, {"Diff_star": -2.0, "addr": "PO BOX 930", "SR_14": 3.0, "Q_14": 3.0, "name": "MANSFIELD PLACE", "SF_14": 4.0, "SF_15": 3.0, "cnty": "Barbour", "st": "WV", "Zip": 26416.0, "O_14": 4.0, "Q_15": 1.0, "O_15": 2.0, "city": "PHILIPPI", "beds": 60.0, "SR_15": 3.0}, {"Diff_star": 0.0, "addr": "125 FOX LANE", "SR_14": 3.0, "Q_14": 3.0, "name": "STONE PEAR PAVILION", "SF_14": 3.0, "SF_15": 3.0, "cnty": "Hancock", "st": "WV", "Zip": 26034.0, "O_14": 3.0, "Q_15": 2.0, "O_15": 3.0, "city": "CHESTER", "beds": 60.0, "SR_15": 3.0}, {"Diff_star": -1.0, "addr": "201 WOOD STREET OPERATIONS, LLC", "SR_14": 5.0, "Q_14": 2.0, "name": "SISTERSVILLE CENTER", "SF_14": 2.0, "SF_15": 2.0, "cnty": "Tyler", "st": "WV", "Zip": 26175.0, "O_14": 5.0, "Q_15": 1.0, "O_15": 4.0, "city": "SISTERSVILLE", "beds": 68.0, "SR_15": 5.0}, {"Diff_star": 0.0, "addr": "106 TYREE STREET OPERATIONS, LLC /P.O DRAWER 400", "SR_14": 4.0, "Q_14": 4.0, "name": "ANSTED CENTER", "SF_14": 2.0, "SF_15": 2.0, "cnty": "Fayette", "st": "WV", "Zip": 25812.0, "O_14": 4.0, "Q_15": 3.0, "O_15": 4.0, "city": "ANSTED", "beds": 60.0, "SR_15": 4.0}, {"Diff_star": 1.0, "addr": "2149 GREENBRIER STREET", "SR_14": 2.0, "Q_14": 3.0, "name": "MEADOWBROOK ACRES", "SF_14": 3.0, "SF_15": 4.0, "cnty": "Kanawha", "st": "WV", "Zip": 25311.0, "O_14": 2.0, "Q_15": 2.0, "O_15": 3.0, "city": "CHARLESTON", "beds": 60.0, "SR_15": 2.0}, {"Diff_star": -1.0, "addr": "456 AUTUMN ACRES ROAD", "SR_14": 3.0, "Q_14": 3.0, "name": "BERKELEY SPRINGS REHABILITATION AND NURSING", "SF_14": 2.0, "SF_15": 2.0, "cnty": "Morgan", "st": "WV", "Zip": 25411.0, "O_14": 3.0, "Q_15": 1.0, "O_15": 2.0, "city": "BERKELEY SPRINGS", "beds": 120.0, "SR_15": 3.0}, {"Diff_star": 0.0, "addr": "1000 WEST PARK AVENUE", "SR_14": 2.0, "Q_14": 4.0, "name": "TRINITY HEALTH CARE OF LOGAN", "SF_14": 1.0, "SF_15": 1.0, "cnty": "Logan", "st": "WV", "Zip": 25601.0, "O_14": 1.0, "Q_15": 2.0, "O_15": 1.0, "city": "LOGAN", "beds": 120.0, "SR_15": 2.0}, {"Diff_star": -1.0, "addr": "41 CRESTVIEW TERRACE", "SR_14": 2.0, "Q_14": 1.0, "name": "MEADOWVIEW MANOR HEALTH CARE", "SF_14": 4.0, "SF_15": 3.0, "cnty": "Harrison", "st": "WV", "Zip": 26330.0, "O_14": 2.0, "Q_15": 1.0, "O_15": 1.0, "city": "BRIDGEPORT", "beds": 60.0, "SR_15": 2.0}, {"Diff_star": 0.0, "addr": "HC 75, BOX 153", "SR_14": 3.0, "Q_14": 5.0, "name": "CLAY HEALTH CARE CENTER", "SF_14": 1.0, "SF_15": 1.0, "cnty": "Clay", "st": "WV", "Zip": 25113.0, "O_14": 3.0, "Q_15": 5.0, "O_15": 3.0, "city": "IVYDALE", "beds": 60.0, "SR_15": 3.0}, {"Diff_star": 0.0, "addr": "601 ROCKY HILL ROAD", "SR_14": 1.0, "Q_14": 4.0, "name": "BRIER, THE", "SF_14": 3.0, "SF_15": 3.0, "cnty": "Greenbrier", "st": "WV", "Zip": 24970.0, "O_14": 1.0, "Q_15": 4.0, "O_15": 1.0, "city": "RONCEVERTE", "beds": 90.0, "SR_15": 1.0}, {"Diff_star": 1.0, "addr": "800 GARFIELD AVENUE", "SR_14": 4.0, "Q_14": 1.0, "name": "CAMDEN CLARK MEM HOSP", "SF_14": 5.0, "SF_15": 5.0, "cnty": "Wood", "st": "WV", "Zip": 26102.0, "O_14": 4.0, "Q_15": 2.0, "O_15": 5.0, "city": "PARKERSBURG", "beds": 25.0, "SR_15": 4.0}, {"Diff_star": -1.0, "addr": "ONE SUTPHIN DRIVE", "SR_14": 3.0, "Q_14": 4.0, "name": "MARMET CENTER", "SF_14": 3.0, "SF_15": 3.0, "cnty": "Kanawha", "st": "WV", "Zip": 25315.0, "O_14": 3.0, "Q_15": 1.0, "O_15": 2.0, "city": "MARMET", "beds": 90.0, "SR_15": 3.0}, {"Diff_star": -1.0, "addr": "422  23RD STREET", "SR_14": 4.0, "Q_14": 3.0, "name": "HIDDEN VALLEY CENTER", "SF_14": 2.0, "SF_15": 2.0, "cnty": "Fayette", "st": "WV", "Zip": 25901.0, "O_14": 4.0, "Q_15": 1.0, "O_15": 3.0, "city": "OAK HILL", "beds": 80.0, "SR_15": 4.0}, {"Diff_star": 0.0, "addr": "127 EARLY AVENUE", "SR_14": 4.0, "Q_14": 3.0, "name": "GRANT COUNTY NURSING HOME", "SF_14": 4.0, "SF_15": 4.0, "cnty": "Grant", "st": "WV", "Zip": 26847.0, "O_14": 4.0, "Q_15": 2.0, "O_15": 4.0, "city": "PETERSBURG", "beds": 110.0, "SR_15": 4.0}, {"Diff_star": -1.0, "addr": "501 ADAMS STREET", "SR_14": 4.0, "Q_14": 2.0, "name": "MONTGOMERY GEN. ELDERLY CARE", "SF_14": 1.0, "SF_15": 1.0, "cnty": "Fayette", "st": "WV", "Zip": 25136.0, "O_14": 3.0, "Q_15": 1.0, "O_15": 2.0, "city": "MONTGOMERY", "beds": 60.0, "SR_15": 4.0}, {"Diff_star": 0.0, "addr": "100 HRESAN BOULEVARD", "SR_14": 2.0, "Q_14": 3.0, "name": "FAYETTE NURSING AND REHABILITATION CENTER, LLC", "SF_14": 2.0, "SF_15": 2.0, "cnty": "Fayette", "st": "WV", "Zip": 25840.0, "O_14": 2.0, "Q_15": 2.0, "O_15": 2.0, "city": "FAYETTEVILLE", "beds": 60.0, "SR_15": 2.0}, {"Diff_star": 1.0, "addr": "1543 COUNTRY CLUB ROAD", "SR_14": 1.0, "Q_14": 4.0, "name": "PIERPONT CENTER AT FAIRMONT CAMPUS", "SF_14": 3.0, "SF_15": 3.0, "cnty": "Marion", "st": "WV", "Zip": 26554.0, "O_14": 1.0, "Q_15": 5.0, "O_15": 2.0, "city": "FAIRMONT", "beds": 120.0, "SR_15": 1.0}, {"Diff_star": 0.0, "addr": "1263 SOUTH GEORGE STREET", "SR_14": 1.0, "Q_14": 3.0, "name": "WILLOW TREE MANOR", "SF_14": 3.0, "SF_15": 3.0, "cnty": "Jefferson", "st": "WV", "Zip": 25414.0, "O_14": 1.0, "Q_15": 2.0, "O_15": 1.0, "city": "CHARLES TOWN", "beds": 104.0, "SR_15": 1.0}, {"Diff_star": 0.0, "addr": "1600 27TH STREET", "SR_14": 1.0, "Q_14": 4.0, "name": "EAGLE POINTE", "SF_14": 3.0, "SF_15": 3.0, "cnty": "Wood", "st": "WV", "Zip": 26101.0, "O_14": 1.0, "Q_15": 2.0, "O_15": 1.0, "city": "PARKERSBURG", "beds": 164.0, "SR_15": 1.0}, {"Diff_star": -1.0, "addr": "P.O. BOX 967", "SR_14": 4.0, "Q_14": 3.0, "name": "CRESTVIEW MANOR NURSING & REHABILITATION", "SF_14": 1.0, "SF_15": 3.0, "cnty": "Lewis", "st": "WV", "Zip": 26378.0, "O_14": 3.0, "Q_15": 2.0, "O_15": 2.0, "city": "JANE LEW", "beds": 72.0, "SR_15": 2.0}, {"Diff_star": 0.0, "addr": "PO BOX 220", "SR_14": 4.0, "Q_14": 4.0, "name": "MCDOWELL NURSING AND REHABILITATION CENTER, LLC", "SF_14": "", "SF_15": "", "cnty": "Mc Dowell", "st": "WV", "Zip": 24836.0, "O_14": 4.0, "Q_15": 2.0, "O_15": 4.0, "city": "GARY", "beds": 120.0, "SR_15": 4.0}, {"Diff_star": 0.0, "addr": "DIANE DRIVE, PO BOX 686", "SR_14": 3.0, "Q_14": 4.0, "name": "DAWN VIEW CENTER", "SF_14": 3.0, "SF_15": 3.0, "cnty": "Mineral", "st": "WV", "Zip": 26719.0, "O_14": 3.0, "Q_15": 2.0, "O_15": 3.0, "city": "FORT ASHBY", "beds": 66.0, "SR_15": 3.0}, {"Diff_star": 0.0, "addr": "P.O. BOX 149", "SR_14": 4.0, "Q_14": 4.0, "name": "WYOMING NURSING AND REHABILITATION CENTER, LLC", "SF_14": 2.0, "SF_15": 2.0, "cnty": "Wyoming", "st": "WV", "Zip": 24867.0, "O_14": 4.0, "Q_15": 2.0, "O_15": 4.0, "city": "NEW RICHMOND", "beds": 60.0, "SR_15": 4.0}, {"Diff_star": 0.0, "addr": "ERBACON ROAD, PO BOX 989", "SR_14": 5.0, "Q_14": 5.0, "name": "WEBSTER NURSING AND REHABILITATION CENTER, LLC", "SF_14": 4.0, "SF_15": 4.0, "cnty": "Webster", "st": "WV", "Zip": 26206.0, "O_14": 5.0, "Q_15": 4.0, "O_15": 5.0, "city": "COWEN", "beds": 60.0, "SR_15": 5.0}, {"Diff_star": 0.0, "addr": "801 DAVISSON RUN ROAD", "SR_14": 5.0, "Q_14": 4.0, "name": "CLARKSBURG NURSING AND REHABILITATION CENTER, LLC", "SF_14": 3.0, "SF_15": 3.0, "cnty": "Harrison", "st": "WV", "Zip": 26301.0, "O_14": 5.0, "Q_15": 3.0, "O_15": 5.0, "city": "CLARKSBURG", "beds": 98.0, "SR_15": 5.0}, {"Diff_star": 0.0, "addr": "50 MULBERRY TREE STREET", "SR_14": 2.0, "Q_14": 3.0, "name": "SHENANDOAH CENTER", "SF_14": 2.0, "SF_15": 2.0, "cnty": "Jefferson", "st": "WV", "Zip": 25414.0, "O_14": 2.0, "Q_15": 2.0, "O_15": 2.0, "city": "CHARLES TOWN", "beds": 78.0, "SR_15": 2.0}, {"Diff_star": 0.0, "addr": "6999 ROUTE 152", "SR_14": 4.0, "Q_14": 5.0, "name": "WAYNE NURSING AND REHABILITATION CENTER, LLC", "SF_14": 1.0, "SF_15": 1.0, "cnty": "Wayne", "st": "WV", "Zip": 25570.0, "O_14": 4.0, "Q_15": 5.0, "O_15": 4.0, "city": "WAYNE", "beds": 60.0, "SR_15": 4.0}, {"Diff_star": 0.0, "addr": "1000 LINCOLN DRIVE", "SR_14": 1.0, "Q_14": 3.0, "name": "VALLEY CENTER", "SF_14": 3.0, "SF_15": 3.0, "cnty": "Kanawha", "st": "WV", "Zip": 25309.0, "O_14": 1.0, "Q_15": 2.0, "O_15": 1.0, "city": "SOUTH CHARLESTON", "beds": 130.0, "SR_15": 1.0}, {"Diff_star": 0.0, "addr": "JOHN COOK ROAD, PO BOX 1240", "SR_14": 4.0, "Q_14": 4.0, "name": "SUMMERS NURSING AND REHABILITATION CENTER LLC", "SF_14": 2.0, "SF_15": 2.0, "cnty": "Summers", "st": "WV", "Zip": 25951.0, "O_14": 4.0, "Q_15": 2.0, "O_15": 4.0, "city": "HINTON", "beds": 120.0, "SR_15": 4.0}, {"Diff_star": 0.0, "addr": "200 MONDAY DRIVE", "SR_14": 5.0, "Q_14": 4.0, "name": "LINCOLN NURSING AND REHABILITATION CENTER, LLC", "SF_14": 1.0, "SF_15": 1.0, "cnty": "Lincoln", "st": "WV", "Zip": 25523.0, "O_14": 4.0, "Q_15": 4.0, "O_15": 4.0, "city": "HAMLIN", "beds": 60.0, "SR_15": 5.0}, {"Diff_star": 0.0, "addr": "P.O BOX 70", "SR_14": 5.0, "Q_14": 4.0, "name": "E.A. HAWSE NURSING AND REHABILITATION CENTER, LLC", "SF_14": 2.0, "SF_15": 2.0, "cnty": "Hardy", "st": "WV", "Zip": 26801.0, "O_14": 5.0, "Q_15": 3.0, "O_15": 5.0, "city": "BAKER", "beds": 60.0, "SR_15": 5.0}, {"Diff_star": 0.0, "addr": "1000 ASSOCIATION DRIVE", "SR_14": 2.0, "Q_14": 3.0, "name": "OAK RIDGE CENTER", "SF_14": 3.0, "SF_15": 3.0, "cnty": "Kanawha", "st": "WV", "Zip": 25311.0, "O_14": 2.0, "Q_15": 3.0, "O_15": 2.0, "city": "CHARLESTON", "beds": 74.0, "SR_15": 2.0}, {"Diff_star": 0.0, "addr": "P.O. BOX 540", "SR_14": 2.0, "Q_14": 1.0, "name": "LOGAN CENTER", "SF_14": 1.0, "SF_15": 1.0, "cnty": "Logan", "st": "WV", "Zip": 25601.0, "O_14": 1.0, "Q_15": 1.0, "O_15": 1.0, "city": "LOGAN", "beds": 66.0, "SR_15": 2.0}, {"Diff_star": -1.0, "addr": "260 SUNRISE BOULEVARD", "SR_14": 3.0, "Q_14": 3.0, "name": "HAMPSHIRE CENTER", "SF_14": 1.0, "SF_15": 1.0, "cnty": "Hampshire", "st": "WV", "Zip": 26757.0, "O_14": 2.0, "Q_15": 1.0, "O_15": 1.0, "city": "ROMNEY", "beds": 62.0, "SR_15": 3.0}, {"Diff_star": -1.0, "addr": "200 RITCHIE AVENUE", "SR_14": 4.0, "Q_14": 5.0, "name": "RAVENSWOOD VILLAGE", "SF_14": 3.0, "SF_15": 3.0, "cnty": "Jackson", "st": "WV", "Zip": 26164.0, "O_14": 5.0, "Q_15": 4.0, "O_15": 4.0, "city": "RAVENSWOOD", "beds": 62.0, "SR_15": 4.0}, {"Diff_star": 0.0, "addr": "2720 CHARLES TOWN ROAD", "SR_14": 2.0, "Q_14": 3.0, "name": "CARE HAVEN CENTER", "SF_14": 3.0, "SF_15": 3.0, "cnty": "Berkeley", "st": "WV", "Zip": 25401.0, "O_14": 2.0, "Q_15": 3.0, "O_15": 2.0, "city": "MARTINSBURG", "beds": 68.0, "SR_15": 2.0}, {"Diff_star": 0.0, "addr": "80 MADDEX DRIVE", "SR_14": 2.0, "Q_14": 4.0, "name": "CANTERBURY CENTER", "SF_14": 2.0, "SF_15": 2.0, "cnty": "Jefferson", "st": "WV", "Zip": 25443.0, "O_14": 2.0, "Q_15": 4.0, "O_15": 2.0, "city": "SHEPHERDSTOWN", "beds": 62.0, "SR_15": 2.0}, {"Diff_star": 0.0, "addr": "859 DAYS DRIVE", "SR_14": 1.0, "Q_14": 4.0, "name": "BRAXTON HEALTH CARE CENTER", "SF_14": 3.0, "SF_15": 3.0, "cnty": "Braxton", "st": "WV", "Zip": 26601.0, "O_14": 1.0, "Q_15": 2.0, "O_15": 1.0, "city": "SUTTON", "beds": 65.0, "SR_15": 1.0}, {"Diff_star": 0.0, "addr": "222 NICOLETTE ROAD", "SR_14": 2.0, "Q_14": 4.0, "name": "OHIO VALLEY HEALTH CARE", "SF_14": 4.0, "SF_15": 4.0, "cnty": "Wood", "st": "WV", "Zip": 26104.0, "O_14": 3.0, "Q_15": 4.0, "O_15": 3.0, "city": "PARKERSBURG", "beds": 66.0, "SR_15": 2.0}, {"Diff_star": -1.0, "addr": "825 SUMMIT STREET", "SR_14": 3.0, "Q_14": 2.0, "name": "MILETREE  CENTER", "SF_14": 1.0, "SF_15": 1.0, "cnty": "Roane", "st": "WV", "Zip": 25276.0, "O_14": 2.0, "Q_15": 1.0, "O_15": 1.0, "city": "SPENCER", "beds": 62.0, "SR_15": 3.0}, {"Diff_star": 0.0, "addr": "5 EVERETT TIBBS ROAD", "SR_14": 5.0, "Q_14": 5.0, "name": "POCAHONTAS CENTER", "SF_14": 1.0, "SF_15": 1.0, "cnty": "Pocahontas", "st": "WV", "Zip": 24954.0, "O_14": 5.0, "Q_15": 5.0, "O_15": 5.0, "city": "MARLINTON", "beds": 68.0, "SR_15": 5.0}, {"Diff_star": 0.0, "addr": "400 MCKINLEY STREET", "SR_14": 4.0, "Q_14": 4.0, "name": "PINE VIEW NURSING AND REHABILITATION CENTER", "SF_14": 3.0, "SF_15": 3.0, "cnty": "Ritchie", "st": "WV", "Zip": 26362.0, "O_14": 4.0, "Q_15": 2.0, "O_15": 4.0, "city": "HARRISVILLE", "beds": 56.0, "SR_15": 4.0}, {"Diff_star": 0.0, "addr": "ROUTE 2, BOX 159A", "SR_14": 1.0, "Q_14": 4.0, "name": "GREENBRIER MANOR", "SF_14": 2.0, "SF_15": 2.0, "cnty": "Greenbrier", "st": "WV", "Zip": 24901.0, "O_14": 1.0, "Q_15": 2.0, "O_15": 1.0, "city": "LEWISBURG", "beds": 100.0, "SR_15": 1.0}, {"Diff_star": -2.0, "addr": "1600 BLAND STREET", "SR_14": 2.0, "Q_14": 5.0, "name": "MAPLES NURSING HOME", "SF_14": 4.0, "SF_15": 3.0, "cnty": "Mercer", "st": "WV", "Zip": 24701.0, "O_14": 4.0, "Q_15": 4.0, "O_15": 2.0, "city": "BLUEFIELD", "beds": 60.0, "SR_15": 2.0}, {"Diff_star": -1.0, "addr": "315 COURTHOUSE RD.", "SR_14": 3.0, "Q_14": 4.0, "name": "PRINCETON HEALTH CARE CENTER", "SF_14": 1.0, "SF_15": 1.0, "cnty": "Mercer", "st": "WV", "Zip": 24740.0, "O_14": 2.0, "Q_15": 1.0, "O_15": 1.0, "city": "PRINCETON", "beds": 120.0, "SR_15": 3.0}, {"Diff_star": 0.0, "addr": "ROUTE 1 BOX 101-A", "SR_14": 4.0, "Q_14": 3.0, "name": "SPRINGFIELD CENTER", "SF_14": 4.0, "SF_15": 3.0, "cnty": "Monroe", "st": "WV", "Zip": 24951.0, "O_14": 4.0, "Q_15": 3.0, "O_15": 4.0, "city": "LINDSIDE", "beds": 60.0, "SR_15": 4.0}, {"Diff_star": -1.0, "addr": "130 KAUFMAN DRIVE", "SR_14": 2.0, "Q_14": 5.0, "name": "ARBORS AT FAIRMONT", "SF_14": 2.0, "SF_15": 2.0, "cnty": "Marion", "st": "WV", "Zip": 26554.0, "O_14": 3.0, "Q_15": 4.0, "O_15": 2.0, "city": "FAIRMONT", "beds": 120.0, "SR_15": 2.0}, {"Diff_star": 0.0, "addr": "18 FOURTH STREET", "SR_14": 4.0, "Q_14": 4.0, "name": "NICHOLAS COUNTY NURSING AND REHABILITATION CENTER", "SF_14": 3.0, "SF_15": 3.0, "cnty": "Nicholas", "st": "WV", "Zip": 26261.0, "O_14": 4.0, "Q_15": 2.0, "O_15": 4.0, "city": "RICHWOOD", "beds": 120.0, "SR_15": 4.0}, {"Diff_star": 0.0, "addr": "PO BOX 625", "SR_14": 4.0, "Q_14": 5.0, "name": "CAREHAVEN OF PLEASANTS", "SF_14": 4.0, "SF_15": 4.0, "cnty": "Pleasants", "st": "WV", "Zip": 26134.0, "O_14": 5.0, "Q_15": 5.0, "O_15": 5.0, "city": "BELMONT", "beds": 68.0, "SR_15": 4.0}, {"Diff_star": 0.0, "addr": "30 HIDDEN BROOK WAY", "SR_14": 1.0, "Q_14": 4.0, "name": "CABELL HEALTH CARE CENTER", "SF_14": 4.0, "SF_15": 4.0, "cnty": "Cabell", "st": "WV", "Zip": 25510.0, "O_14": 2.0, "Q_15": 2.0, "O_15": 2.0, "city": "CULLODEN", "beds": 90.0, "SR_15": 1.0}, {"Diff_star": 0.0, "addr": "300 BAKER LANE", "SR_14": "", "Q_14": "", "name": "THE ARTHUR B HODGES CENTER", "SF_14": "", "SF_15": "", "cnty": "Kanawha", "st": "WV", "Zip": 25302.0, "O_14": "", "Q_15": "", "O_15": "", "city": "CHARLESTON", "beds": 20.0, "SR_15": ""}, {"Diff_star": -1.0, "addr": "454 MCDOWELL STREET", "SR_14": 1.0, "Q_14": 3.0, "name": "WELCH COMMUNITY HOSPITAL", "SF_14": 4.0, "SF_15": 3.0, "cnty": "Mc Dowell", "st": "WV", "Zip": 24801.0, "O_14": 2.0, "Q_15": 2.0, "O_15": 1.0, "city": "WELCH", "beds": 59.0, "SR_15": 1.0}, {"Diff_star": 0.0, "addr": "399 FERGUSON ROAD", "SR_14": 3.0, "Q_14": 4.0, "name": "NELLA'S INC.", "SF_14": 1.0, "SF_15": 1.0, "cnty": "Randolph", "st": "WV", "Zip": 26241.0, "O_14": 2.0, "Q_15": 2.0, "O_15": 2.0, "city": "ELKINS", "beds": 102.0, "SR_15": 3.0}, {"Diff_star": 1.0, "addr": "186 HOSPITAL DRIVE", "SR_14": 4.0, "Q_14": 4.0, "name": "MINNIE HAMILTON HEALTH CARE D/P", "SF_14": 2.0, "SF_15": 2.0, "cnty": "Calhoun", "st": "WV", "Zip": 26147.0, "O_14": 4.0, "Q_15": 5.0, "O_15": 5.0, "city": "GRANTSVILLE", "beds": 24.0, "SR_15": 4.0}, {"Diff_star": 0.0, "addr": "200 WHITMAN AVENUE, CRYSTAL SPRINGS", "SR_14": 4.0, "Q_14": 4.0, "name": "NELLA'S NURSING HOME, INC.", "SF_14": 1.0, "SF_15": 1.0, "cnty": "Randolph", "st": "WV", "Zip": 26241.0, "O_14": 3.0, "Q_15": 2.0, "O_15": 3.0, "city": "ELKINS", "beds": 84.0, "SR_15": 4.0}, {"Diff_star": -2.0, "addr": "105 SOUTH EISENHOWER DRIVE", "SR_14": 2.0, "Q_14": 2.0, "name": "JACKIE WITHROW HOSPITAL", "SF_14": 4.0, "SF_15": 1.0, "cnty": "Raleigh", "st": "WV", "Zip": 25801.0, "O_14": 3.0, "Q_15": 1.0, "O_15": 1.0, "city": "BECKLEY", "beds": 199.0, "SR_15": 2.0}, {"Diff_star": -1.0, "addr": "1 BATEMAN CIRCLE", "SR_14": 3.0, "Q_14": 2.0, "name": "LAKIN HOSPITAL - STATE", "SF_14": 2.0, "SF_15": 2.0, "cnty": "Mason", "st": "WV", "Zip": 25287.0, "O_14": 3.0, "Q_15": 1.0, "O_15": 2.0, "city": "WEST COLUMBIA", "beds": 136.0, "SR_15": 3.0}, {"Diff_star": 0.0, "addr": "150 HOPEMONT DRIVE", "SR_14": 1.0, "Q_14": 4.0, "name": "HOPEMONT HOSPITAL", "SF_14": 4.0, "SF_15": 4.0, "cnty": "Preston", "st": "WV", "Zip": 26764.0, "O_14": 2.0, "Q_15": 3.0, "O_15": 2.0, "city": "TERRA ALTA", "beds": 98.0, "SR_15": 1.0}, {"Diff_star": 0.0, "addr": "1 HEALTHY WAY", "SR_14": 3.0, "Q_14": 5.0, "name": "WAR MEMORIAL HOSP, D/P", "SF_14": 3.0, "SF_15": 3.0, "cnty": "Morgan", "st": "WV", "Zip": 25411.0, "O_14": 4.0, "Q_15": 5.0, "O_15": 4.0, "city": "BERKELEY SPRINGS", "beds": 16.0, "SR_15": 3.0}, {"Diff_star": 0.0, "addr": "RT. 4, BOX 17", "SR_14": 1.0, "Q_14": 1.0, "name": "EMERITUS AT THE HERITAGE", "SF_14": 3.0, "SF_15": 3.0, "cnty": "Harrison", "st": "WV", "Zip": 26330.0, "O_14": 1.0, "Q_15": 1.0, "O_15": 1.0, "city": "BRIDGEPORT", "beds": 51.0, "SR_15": 1.0}, {"Diff_star": 0.0, "addr": "PO BOX 7, 1500 TERRACE STREET, SUITE 300", "SR_14": 2.0, "Q_14": 3.0, "name": "MAIN STREET CARE", "SF_14": 5.0, "SF_15": 5.0, "cnty": "Summers", "st": "WV", "Zip": 25951.0, "O_14": 3.0, "Q_15": 2.0, "O_15": 3.0, "city": "HINTON", "beds": 34.0, "SR_15": 2.0}]