[{"Diff_star": 0.0, "addr": "3128 BOXELDER DRIVE", "SR_14": 1.0, "Q_14": 4.0, "name": "KINDRED TRANSITIONAL CARE AND REHABILITATION-CHEYE", "SF_14": 4.0, "SF_15": 4.0, "cnty": "Laramie", "st": "WY", "Zip": 82001.0, "O_14": 2.0, "Q_15": 2.0, "O_15": 2.0, "city": "CHEYENNE", "beds": 146.0, "SR_15": 1.0}, {"Diff_star": 0.0, "addr": "333 N BRIDGER AVE", "SR_14": 4.0, "Q_14": 1.0, "name": "SUBLETTE CENTER", "SF_14": 4.0, "SF_15": 3.0, "cnty": "Sublette", "st": "WY", "Zip": 82941.0, "O_14": 3.0, "Q_15": 1.0, "O_15": 3.0, "city": "PINEDALE", "beds": 50.0, "SR_15": 4.0}, {"Diff_star": -1.0, "addr": "388 SOUTH US HWY 20", "SR_14": 3.0, "Q_14": 5.0, "name": "BONNIE BLUEJACKET MEMORIAL NURSING HOME", "SF_14": 5.0, "SF_15": 5.0, "cnty": "Big Horn", "st": "WY", "Zip": 82410.0, "O_14": 5.0, "Q_15": 4.0, "O_15": 4.0, "city": "BASIN", "beds": 37.0, "SR_15": 3.0}, {"Diff_star": 0.0, "addr": "890 US HWY 20 SOUTH", "SR_14": 3.0, "Q_14": 3.0, "name": "WYOMING RETIREMENT CENTER", "SF_14": 5.0, "SF_15": 5.0, "cnty": "Big Horn", "st": "WY", "Zip": 82410.0, "O_14": 4.0, "Q_15": 2.0, "O_15": 4.0, "city": "BASIN", "beds": 90.0, "SR_15": 3.0}, {"Diff_star": -1.0, "addr": "900 W 8TH ST", "SR_14": 4.0, "Q_14": 2.0, "name": "PIONEER MANOR NURSING HOME", "SF_14": 5.0, "SF_15": 5.0, "cnty": "Campbell", "st": "WY", "Zip": 82716.0, "O_14": 5.0, "Q_15": 1.0, "O_15": 4.0, "city": "GILLETTE", "beds": 150.0, "SR_15": 4.0}, {"Diff_star": 0.0, "addr": "1124 WASHINGTON BLVD", "SR_14": 3.0, "Q_14": 4.0, "name": "WESTON COUNTY HEALTH SERVICES", "SF_14": 4.0, "SF_15": 4.0, "cnty": "Weston", "st": "WY", "Zip": 82701.0, "O_14": 4.0, "Q_15": 2.0, "O_15": 4.0, "city": "NEWCASTLE", "beds": 54.0, "SR_15": 4.0}, {"Diff_star": -1.0, "addr": "4305 S POPLAR", "SR_14": 1.0, "Q_14": 5.0, "name": "POPLAR LIVING CENTER", "SF_14": 3.0, "SF_15": 3.0, "cnty": "Natrona", "st": "WY", "Zip": 82601.0, "O_14": 2.0, "Q_15": 4.0, "O_15": 1.0, "city": "CASPER", "beds": 120.0, "SR_15": 1.0}, {"Diff_star": -1.0, "addr": "2700 E 12TH STREET", "SR_14": 1.0, "Q_14": 5.0, "name": "CHEYENNE HEALTH CARE CENTER", "SF_14": 2.0, "SF_15": 2.0, "cnty": "Laramie", "st": "WY", "Zip": 82001.0, "O_14": 2.0, "Q_15": 3.0, "O_15": 1.0, "city": "CHEYENNE", "beds": 105.0, "SR_15": 1.0}, {"Diff_star": -1.0, "addr": "1851 BIG HORN AVE", "SR_14": 4.0, "Q_14": 5.0, "name": "SHERIDAN MANOR", "SF_14": 4.0, "SF_15": 3.0, "cnty": "Sheridan", "st": "WY", "Zip": 82801.0, "O_14": 5.0, "Q_15": 3.0, "O_15": 4.0, "city": "SHERIDAN", "beds": 128.0, "SR_15": 4.0}, {"Diff_star": 0.0, "addr": "707 SHERIDAN AVENUE", "SR_14": 2.0, "Q_14": 3.0, "name": "WEST PARK LONG TERM CARE CENTER", "SF_14": 5.0, "SF_15": 5.0, "cnty": "Park", "st": "WY", "Zip": 82414.0, "O_14": 3.0, "Q_15": 2.0, "O_15": 3.0, "city": "CODY", "beds": 94.0, "SR_15": 2.0}, {"Diff_star": -1.0, "addr": "713 OAK STREET", "SR_14": 2.0, "Q_14": 2.0, "name": "CROOK CO MEDICAL SERVICE DISTRICT LONG TERM CARE", "SF_14": 5.0, "SF_15": 5.0, "cnty": "Crook", "st": "WY", "Zip": 82729.0, "O_14": 3.0, "Q_15": 1.0, "O_15": 2.0, "city": "SUNDANCE", "beds": 32.0, "SR_15": 2.0}, {"Diff_star": 0.0, "addr": "1111 LANE 12", "SR_14": 3.0, "Q_14": 3.0, "name": "NEW HORIZONS CARE CENTER", "SF_14": 5.0, "SF_15": 5.0, "cnty": "Big Horn", "st": "WY", "Zip": 82431.0, "O_14": 4.0, "Q_15": 2.0, "O_15": 4.0, "city": "LOVELL", "beds": 85.0, "SR_15": 3.0}, {"Diff_star": -1.0, "addr": "1002 FOREST DRIVE", "SR_14": 3.0, "Q_14": 3.0, "name": "KINDRED NURSING AND REHABILITATION - WIND RIVER", "SF_14": 2.0, "SF_15": 2.0, "cnty": "Fremont", "st": "WY", "Zip": 82501.0, "O_14": 3.0, "Q_15": 1.0, "O_15": 2.0, "city": "RIVERTON", "beds": 81.0, "SR_15": 3.0}, {"Diff_star": -1.0, "addr": "1330 PRAIRIE AVENUE", "SR_14": 3.0, "Q_14": 5.0, "name": "LIFE CARE CENTER OF CHEYENNE", "SF_14": 4.0, "SF_15": 3.0, "cnty": "Laramie", "st": "WY", "Zip": 82009.0, "O_14": 5.0, "Q_15": 5.0, "O_15": 4.0, "city": "CHEYENNE", "beds": 160.0, "SR_15": 3.0}, {"Diff_star": -1.0, "addr": "1445 UINTA DRIVE", "SR_14": 4.0, "Q_14": 3.0, "name": "MISSION AT CASTLE ROCK REHABILITATION CENTER", "SF_14": 4.0, "SF_15": 4.0, "cnty": "Sweetwater", "st": "WY", "Zip": 82935.0, "O_14": 4.0, "Q_15": 1.0, "O_15": 3.0, "city": "GREEN RIVER", "beds": 59.0, "SR_15": 4.0}, {"Diff_star": 0.0, "addr": "150 CARING WAY", "SR_14": 4.0, "Q_14": 2.0, "name": "WESTWARD HEIGHTS CARE CENTER", "SF_14": 5.0, "SF_15": 5.0, "cnty": "Fremont", "st": "WY", "Zip": 82520.0, "O_14": 5.0, "Q_15": 2.0, "O_15": 5.0, "city": "LANDER", "beds": 60.0, "SR_15": 4.0}, {"Diff_star": 0.0, "addr": "255 N 30TH STREET", "SR_14": 5.0, "Q_14": 5.0, "name": "IVINSON MEMORIAL HOSPITAL EXTENDED CARE FACILITY", "SF_14": 5.0, "SF_15": "", "cnty": "Albany", "st": "WY", "Zip": 82072.0, "O_14": 5.0, "Q_15": 5.0, "O_15": 5.0, "city": "LARAMIE", "beds": 10.0, "SR_15": 5.0}, {"Diff_star": 0.0, "addr": "542 16TH STREET", "SR_14": 4.0, "Q_14": 4.0, "name": "KINDRED NURSING AND REHABILITATION - RAWLINS", "SF_14": 4.0, "SF_15": 4.0, "cnty": "Carbon", "st": "WY", "Zip": 82301.0, "O_14": 4.0, "Q_15": 2.0, "O_15": 4.0, "city": "RAWLINS", "beds": 62.0, "SR_15": 4.0}, {"Diff_star": 0.0, "addr": "1325 SAGE STREET", "SR_14": 2.0, "Q_14": 3.0, "name": "DESERET HEALTH AND REHAB AT ROCK SPRINGS LLC", "SF_14": 2.0, "SF_15": 2.0, "cnty": "Sweetwater", "st": "WY", "Zip": 82901.0, "O_14": 2.0, "Q_15": 2.0, "O_15": 2.0, "city": "ROCK SPRINGS", "beds": 82.0, "SR_15": 2.0}, {"Diff_star": 0.0, "addr": "475 YELLOW CREEK ROAD", "SR_14": 3.0, "Q_14": 4.0, "name": "ROCKY MOUNTAIN CARE - EVANSTON", "SF_14": 4.0, "SF_15": 4.0, "cnty": "Uinta", "st": "WY", "Zip": 82930.0, "O_14": 4.0, "Q_15": 4.0, "O_15": 4.0, "city": "EVANSTON", "beds": 60.0, "SR_15": 3.0}, {"Diff_star": -1.0, "addr": "1990 WEST LOUCKS STREET", "SR_14": 2.0, "Q_14": 4.0, "name": "WESTVIEW HEALTH CARE CENTER", "SF_14": 4.0, "SF_15": 3.0, "cnty": "Sheridan", "st": "WY", "Zip": 82801.0, "O_14": 3.0, "Q_15": 2.0, "O_15": 2.0, "city": "SHERIDAN", "beds": 102.0, "SR_15": 2.0}, {"Diff_star": 0.0, "addr": "1108 BIRCH STREET", "SR_14": 2.0, "Q_14": 5.0, "name": "DOUGLAS CARE CENTER LLC", "SF_14": 4.0, "SF_15": 4.0, "cnty": "Converse", "st": "WY", "Zip": 82633.0, "O_14": 4.0, "Q_15": 3.0, "O_15": 4.0, "city": "DOUGLAS", "beds": 60.0, "SR_15": 3.0}, {"Diff_star": 0.0, "addr": "60 MAGNOLIA", "SR_14": 1.0, "Q_14": 4.0, "name": "SHEPHERD OF THE VALLEY HEALTHCARE CENTER", "SF_14": 4.0, "SF_15": 4.0, "cnty": "Natrona", "st": "WY", "Zip": 82604.0, "O_14": 2.0, "Q_15": 3.0, "O_15": 2.0, "city": "CASPER", "beds": 192.0, "SR_15": 1.0}, {"Diff_star": 0.0, "addr": "503 S 18TH ST", "SR_14": 2.0, "Q_14": 5.0, "name": "LARAMIE CARE CENTER", "SF_14": "", "SF_15": 4.0, "cnty": "Albany", "st": "WY", "Zip": 82070.0, "O_14": 3.0, "Q_15": 4.0, "O_15": 3.0, "city": "LARAMIE", "beds": 105.0, "SR_15": 2.0}, {"Diff_star": 0.0, "addr": "214 EAST 23RD STREET", "SR_14": 5.0, "Q_14": 2.0, "name": "CHEYENNE REG MEDICAL CTR TRANSITIONAL CARE UNIT", "SF_14": 2.0, "SF_15": 2.0, "cnty": "Laramie", "st": "WY", "Zip": 82001.0, "O_14": 5.0, "Q_15": 2.0, "O_15": 5.0, "city": "CHEYENNE", "beds": 16.0, "SR_15": 5.0}, {"Diff_star": 0.0, "addr": "777 AVENUE H", "SR_14": 2.0, "Q_14": 4.0, "name": "POWELL VALLEY CARE CENTER", "SF_14": 5.0, "SF_15": 5.0, "cnty": "Park", "st": "WY", "Zip": 82435.0, "O_14": 3.0, "Q_15": 3.0, "O_15": 3.0, "city": "POWELL", "beds": 100.0, "SR_15": 2.0}, {"Diff_star": 0.0, "addr": "625 EAST BROADWAY", "SR_14": 5.0, "Q_14": 4.0, "name": "ST JOHN'S NURSING HOME", "SF_14": 2.0, "SF_15": 2.0, "cnty": "Teton", "st": "WY", "Zip": 83001.0, "O_14": 5.0, "Q_15": 3.0, "O_15": 5.0, "city": "JACKSON", "beds": 60.0, "SR_15": 5.0}, {"Diff_star": 0.0, "addr": "207 EAST HOLLY", "SR_14": 3.0, "Q_14": 4.0, "name": "DESERET HEALTH AND REHAB AT SARATOGA LLC", "SF_14": 4.0, "SF_15": 4.0, "cnty": "Carbon", "st": "WY", "Zip": 82331.0, "O_14": 4.0, "Q_15": 4.0, "O_15": 4.0, "city": "SARATOGA", "beds": 46.0, "SR_15": 3.0}, {"Diff_star": 0.0, "addr": "1901 HOWELL AVENUE", "SR_14": 4.0, "Q_14": 4.0, "name": "WORLAND HEALTHCARE AND REHABILITATION CENTER", "SF_14": 4.0, "SF_15": 4.0, "cnty": "Washakie", "st": "WY", "Zip": 82401.0, "O_14": 4.0, "Q_15": 3.0, "O_15": 4.0, "city": "WORLAND", "beds": 87.0, "SR_15": 4.0}, {"Diff_star": 0.0, "addr": "4041 SOUTH POPLAR STREET", "SR_14": 1.0, "Q_14": 5.0, "name": "LIFE CARE CENTER OF CASPER", "SF_14": 3.0, "SF_15": 3.0, "cnty": "Natrona", "st": "WY", "Zip": 82601.0, "O_14": 2.0, "Q_15": 5.0, "O_15": 2.0, "city": "CASPER", "beds": 120.0, "SR_15": 1.0}, {"Diff_star": 0.0, "addr": "4 NORTH FORK ROAD", "SR_14": 1.0, "Q_14": 4.0, "name": "MORNING STAR CARE CENTER", "SF_14": 3.0, "SF_15": 3.0, "cnty": "Fremont", "st": "WY", "Zip": 82514.0, "O_14": 1.0, "Q_15": 3.0, "O_15": 1.0, "city": "FORT WASHAKIE", "beds": 45.0, "SR_15": 1.0}, {"Diff_star": -1.0, "addr": "PO BOX 1325", "SR_14": 2.0, "Q_14": 5.0, "name": "THERMOPOLIS REHABILITATION AND CARE CENTER", "SF_14": 4.0, "SF_15": 4.0, "cnty": "Hot Springs", "st": "WY", "Zip": 82443.0, "O_14": 4.0, "Q_15": 4.0, "O_15": 3.0, "city": "THERMOPOLIS", "beds": 60.0, "SR_15": 2.0}, {"Diff_star": 0.0, "addr": "204 15TH STREET", "SR_14": 4.0, "Q_14": 5.0, "name": "PLATTE COUNTY MEMORIAL NURSING HOME", "SF_14": 4.0, "SF_15": 4.0, "cnty": "Platte", "st": "WY", "Zip": 82201.0, "O_14": 5.0, "Q_15": 5.0, "O_15": 5.0, "city": "WHEATLAND", "beds": 43.0, "SR_15": 4.0}, {"Diff_star": 0.0, "addr": "2311 SHIRLEY COVE", "SR_14": 3.0, "Q_14": "", "name": "GREEN HOUSE LIVING FOR SHERIDAN", "SF_14": 4.0, "SF_15": 4.0, "cnty": "Sheridan", "st": "WY", "Zip": 82801.0, "O_14": 4.0, "Q_15": "", "O_15": 4.0, "city": "SHERIDAN", "beds": 48.0, "SR_15": 3.0}, {"Diff_star": 0.0, "addr": "497 W LOTT", "SR_14": 4.0, "Q_14": 5.0, "name": "AMIE HOLT CARE CENTER", "SF_14": 5.0, "SF_15": 5.0, "cnty": "Johnson", "st": "WY", "Zip": 82834.0, "O_14": 5.0, "Q_15": 4.0, "O_15": 5.0, "city": "BUFFALO", "beds": 50.0, "SR_15": 4.0}, {"Diff_star": -1.0, "addr": "2009 LARAMIE STREET", "SR_14": 1.0, "Q_14": 5.0, "name": "GOSHEN HEALTHCARE COMMUNITY", "SF_14": 4.0, "SF_15": 3.0, "cnty": "Goshen", "st": "WY", "Zip": 82240.0, "O_14": 2.0, "Q_15": 3.0, "O_15": 1.0, "city": "TORRINGTON", "beds": 103.0, "SR_15": 1.0}, {"Diff_star": -1.0, "addr": "110 HOSPITAL LANE", "SR_14": 5.0, "Q_14": 2.0, "name": "STAR VALLEY CARE CENTER", "SF_14": 5.0, "SF_15": 5.0, "cnty": "Lincoln", "st": "WY", "Zip": 83110.0, "O_14": 5.0, "Q_15": 1.0, "O_15": 4.0, "city": "AFTON", "beds": 24.0, "SR_15": 5.0}, {"Diff_star": 0.0, "addr": "711 ONYX STREET", "SR_14": 4.0, "Q_14": 4.0, "name": "SOUTH LINCOLN NURSING CENTER", "SF_14": 5.0, "SF_15": 5.0, "cnty": "Lincoln", "st": "WY", "Zip": 83101.0, "O_14": 5.0, "Q_15": 5.0, "O_15": 5.0, "city": "KEMMERER", "beds": 24.0, "SR_15": 4.0}]